{"type":"FeatureCollection","totalFeatures":103,"numberMatched":103,"timeStamp":"2026-08-23T02:02:56.650Z","crs":{"type":"name","properties":{"name":"urn:ogc:def:crs:EPSG::31370"}},"bbox":[145342.362,169421.92295005,146046.998,170086.93378163],"features":[{"type":"Feature","id":"StreetAxes.fid--2dded296_1a02c23f8dc_-574b","geometry":{"type":"LineString","coordinates":[[145500.818,169703.193],[145509.114,169703.792],[145531.626,169704.701],[145539.684,169705.135]]},"geometry_name":"GEOM","properties":{"INSPIRE_ID":"https://databrussels.be/id/streetaxe/70323","TYPE":"S","HIERARCHY":"DR","LVL":0,"STARTSN_ID":"https://databrussels.be/id/streetnode/1500","ENDSN_ID":"https://databrussels.be/id/streetnode/791","STRNAMEFRE":"Rue Erasme","STRNAMEDUT":"Erasmusstraat","SLOPE":1.31,"LENGTH":38.917620418257},"bbox":[145500.818,169703.193,145539.684,169705.135]},{"type":"Feature","id":"StreetAxes.fid--2dded296_1a02c23f8dc_-574e","geometry":{"type":"LineString","coordinates":[[145515.434,169629.057],[145500.884,169626.968],[145402.014,169628.954],[145391.172,169627.684]]},"geometry_name":"GEOM","properties":{"INSPIRE_ID":"https://databrussels.be/id/streetaxe/70324","TYPE":"S","HIERARCHY":"DR","LVL":0,"STARTSN_ID":"https://databrussels.be/id/streetnode/3777","ENDSN_ID":"https://databrussels.be/id/streetnode/2337","STRNAMEFRE":"Rue Gustaaf Vanden Berghe","STRNAMEDUT":"Gustaaf Vanden Berghestraat","SLOPE":0.82,"LENGTH":124.505270951526},"bbox":[145391.172,169626.968,145515.434,169629.057]},{"type":"Feature","id":"StreetAxes.fid--2dded296_1a02c23f8dc_-5754","geometry":{"type":"LineString","coordinates":[[145941.45,169534.286],[145948.086,169535.548],[145991.598,169546.89],[145997.982,169548.918]]},"geometry_name":"GEOM","properties":{"INSPIRE_ID":"https://databrussels.be/id/streetaxe/71173","TYPE":"S","HIERARCHY":"DR","LVL":0,"STARTSN_ID":"https://databrussels.be/id/streetnode/3775","ENDSN_ID":"https://databrussels.be/id/streetnode/3078","STRNAMEFRE":"Place de la Résistance","STRNAMEDUT":"Verzetsplein","SLOPE":1.64,"LENGTH":58.4192431643335},"bbox":[145941.45,169534.286,145997.982,169548.918]},{"type":"Feature","id":"StreetAxes.fid--2dded296_1a02c23f8dc_-5784","geometry":{"type":"LineString","coordinates":[[145891.492,169902.618],[145898.965,169909.314],[145941.25,169947.297],[145945.633,169956.306]]},"geometry_name":"GEOM","properties":{"INSPIRE_ID":"https://databrussels.be/id/streetaxe/71297","TYPE":"S","HIERARCHY":"DR","LVL":0,"STARTSN_ID":"https://databrussels.be/id/streetnode/2580","ENDSN_ID":"https://databrussels.be/id/streetnode/2737","STRNAMEFRE":"Rue de la Vérité","STRNAMEDUT":"Waarheidsstraat","SLOPE":1.92,"LENGTH":76.8921770754681},"bbox":[145891.492,169902.618,145945.633,169956.306]},{"type":"Feature","id":"StreetAxes.fid--2dded296_1a02c23f8dc_-5750","geometry":{"type":"LineString","coordinates":[[145997.982,169548.918],[146005.127,169551.188],[146039.448,169559.991],[146046.998,169561.895]]},"geometry_name":"GEOM","properties":{"INSPIRE_ID":"https://databrussels.be/id/streetaxe/71418","TYPE":"S","HIERARCHY":"DR","LVL":0,"STARTSN_ID":"https://databrussels.be/id/streetnode/3078","ENDSN_ID":"https://databrussels.be/id/streetnode/2352","STRNAMEFRE":"Rue de la Justice","STRNAMEDUT":"Gerechtsstraat","SLOPE":1.6,"LENGTH":50.7152687188923},"bbox":[145997.982,169548.918,146046.998,169561.895]},{"type":"Feature","id":"StreetAxes.fid--2dded296_1a02c23f8dc_-5744","geometry":{"type":"LineString","coordinates":[[145539.684,169705.135],[145551.329,169705.764],[145563.543,169706.692],[145581.624,169710.438],[145602.438,169716.738],[145646.672,169734.298],[145654.916,169737.524]]},"geometry_name":"GEOM","properties":{"INSPIRE_ID":"https://databrussels.be/id/streetaxe/71491","TYPE":"S","HIERARCHY":"DR","LVL":0,"STARTSN_ID":"https://databrussels.be/id/streetnode/791","ENDSN_ID":"https://databrussels.be/id/streetnode/1931","STRNAMEFRE":"Rue Erasme","STRNAMEDUT":"Erasmusstraat","SLOPE":0.5,"LENGTH":120.567438682217},"bbox":[145539.684,169705.135,145654.916,169737.524]},{"type":"Feature","id":"StreetAxes.fid--2dded296_1a02c23f8dc_-5738","geometry":{"type":"LineString","coordinates":[[145654.916,169737.524],[145653.316,169746.792],[145648.942,169789.134],[145648.029,169797.528]]},"geometry_name":"GEOM","properties":{"INSPIRE_ID":"https://databrussels.be/id/streetaxe/71565","TYPE":"S","HIERARCHY":"DR","LVL":0,"STARTSN_ID":"https://databrussels.be/id/streetnode/1931","ENDSN_ID":"https://databrussels.be/id/streetnode/3711","STRNAMEFRE":"Rue Edmond Delcourt","STRNAMEDUT":"Edmond Delcourtstraat","SLOPE":1.06,"LENGTH":60.4159235856325},"bbox":[145648.029,169737.524,145654.916,169797.528]},{"type":"Feature","id":"StreetAxes.fid--2dded296_1a02c23f8dc_-5736","geometry":{"type":"LineString","coordinates":[[145665.914,169690.642],[145664.12,169697.896],[145656.484,169728.436],[145654.916,169737.524]]},"geometry_name":"GEOM","properties":{"INSPIRE_ID":"https://databrussels.be/id/streetaxe/72264","TYPE":"S","HIERARCHY":"DR","LVL":0,"STARTSN_ID":"https://databrussels.be/id/streetnode/2476","ENDSN_ID":"https://databrussels.be/id/streetnode/1931","STRNAMEFRE":"Rue Edmond Delcourt","STRNAMEDUT":"Edmond Delcourtstraat","SLOPE":1.31,"LENGTH":48.1749761971384},"bbox":[145654.916,169690.642,145665.914,169737.524]},{"type":"Feature","id":"StreetAxes.fid--2dded296_1a02c23f8dc_-574d","geometry":{"type":"LineString","coordinates":[[145515.434,169629.057],[145506.824,169641.923],[145502.135,169658.195],[145500.68,169668.535],[145500.696,169694.066],[145500.818,169703.193]]},"geometry_name":"GEOM","properties":{"INSPIRE_ID":"https://databrussels.be/id/streetaxe/72535","TYPE":"S","HIERARCHY":"DR","LVL":0,"STARTSN_ID":"https://databrussels.be/id/streetnode/3777","ENDSN_ID":"https://databrussels.be/id/streetnode/1500","STRNAMEFRE":"Rue du Broeck","STRNAMEDUT":"Broekstraat","SLOPE":4.61,"LENGTH":77.5159692527278},"bbox":[145500.68,169629.057,145515.434,169703.193]},{"type":"Feature","id":"StreetAxes.fid--2dded296_1a02c23f8dc_-574c","geometry":{"type":"LineString","coordinates":[[145500.818,169703.193],[145490.339,169702.436],[145397.615,169687.787],[145383.769,169685.519]]},"geometry_name":"GEOM","properties":{"INSPIRE_ID":"https://databrussels.be/id/streetaxe/72875","TYPE":"S","HIERARCHY":"DR","LVL":0,"STARTSN_ID":"https://databrussels.be/id/streetnode/1500","ENDSN_ID":"https://databrussels.be/id/streetnode/1041","STRNAMEFRE":"Boulevard Sylvain Dupuis","STRNAMEDUT":"Sylvain Dupuislaan","SLOPE":1.82,"LENGTH":118.41085818266},"bbox":[145383.769,169685.519,145500.818,169703.193]},{"type":"Feature","id":"StreetAxes.fid--2dded296_1a02c23f8dc_-5752","geometry":{"type":"LineString","coordinates":[[146046.998,169561.895],[146045.012,169569.406],[145982.466,169803.598],[145982.379,169815.38]]},"geometry_name":"GEOM","properties":{"INSPIRE_ID":"https://databrussels.be/id/streetaxe/73140","TYPE":"S","HIERARCHY":"DR","LVL":0,"STARTSN_ID":"https://databrussels.be/id/streetnode/2352","ENDSN_ID":"https://databrussels.be/id/streetnode/2093","STRNAMEFRE":"Rue de la Conciliation","STRNAMEDUT":"Verzoeningsstraat","SLOPE":0.18,"LENGTH":261.951725513799},"bbox":[145982.379,169561.895,146046.998,169815.38]},{"type":"Feature","id":"StreetAxes.fid--2dded296_1a02c23f8dc_-5746","geometry":{"type":"LineString","coordinates":[[145534.52707914,169777.0705548],[145544.466,169778.706],[145639.003,169796.134],[145648.029,169797.528]]},"geometry_name":"GEOM","properties":{"INSPIRE_ID":"https://databrussels.be/id/streetaxe/73917","TYPE":"S","HIERARCHY":"DR","LVL":0,"STARTSN_ID":"https://databrussels.be/id/streetnode/6808","ENDSN_ID":"https://databrussels.be/id/streetnode/3711","STRNAMEFRE":"Rue du Serment","STRNAMEDUT":"Eedstraat","SLOPE":0.66,"LENGTH":115.335604074549},"bbox":[145534.52707914,169777.0705548,145648.029,169797.528]},{"type":"Feature","id":"StreetAxes.fid--2dded296_1a02c23f8dc_-5760","geometry":{"type":"LineString","coordinates":[[145781.97858672,169688.02309514],[145789.906,169695.246],[145812.9813225,169716.12808],[145817.969,169720.726]]},"geometry_name":"GEOM","properties":{"INSPIRE_ID":"https://databrussels.be/id/streetaxe/73918","TYPE":"S","HIERARCHY":"DR","LVL":0,"STARTSN_ID":"https://databrussels.be/id/streetnode/6824","ENDSN_ID":"https://databrussels.be/id/streetnode/3609","STRNAMEFRE":"Rue d'Aumale","STRNAMEDUT":"d'Aumalestraat","SLOPE":1.91,"LENGTH":48.629353883014},"bbox":[145781.97858672,169688.02309514,145817.969,169720.726]},{"type":"Feature","id":"StreetAxes.fid--2dded296_1a02c23f8dc_-574f","geometry":{"type":"LineString","coordinates":[[145563.48149377,169536.66847323],[145550.14,169528.534],[145540.795,169526.745],[145530.505,169524.07],[145517.9,169519.725],[145510.355,169516.425],[145490.94,169501],[145477.096,169487.286],[145473.81,169480.112]]},"geometry_name":"GEOM","properties":{"INSPIRE_ID":"https://databrussels.be/id/streetaxe/73919","TYPE":"S","HIERARCHY":null,"LVL":0,"STARTSN_ID":"https://databrussels.be/id/streetnode/6825","ENDSN_ID":"https://databrussels.be/id/streetnode/2736","STRNAMEFRE":"Rue Porselein","STRNAMEDUT":"Porseleinstraat","SLOPE":0.82,"LENGTH":109.514518522307},"bbox":[145473.81,169480.112,145563.48149377,169536.66847323]},{"type":"Feature","id":"StreetAxes.fid--2dded296_1a02c23f8dc_-578f","geometry":{"type":"LineString","coordinates":[[146045.93620091,169815.78475149],[146036.156,169815.74],[145990.564,169815.456],[145982.379,169815.38]]},"geometry_name":"GEOM","properties":{"INSPIRE_ID":"https://databrussels.be/id/streetaxe/73987","TYPE":"S","HIERARCHY":"IDR","LVL":0,"STARTSN_ID":"https://databrussels.be/id/streetnode/6827","ENDSN_ID":"https://databrussels.be/id/streetnode/2093","STRNAMEFRE":"Avenue Auber","STRNAMEDUT":"Auberlaan","SLOPE":0.68,"LENGTH":63.558540664201},"bbox":[145982.379,169815.38,146045.93620091,169815.78475149]},{"type":"Feature","id":"StreetAxes.fid--2dded296_1a02c23f8dc_-5735","geometry":{"type":"LineString","coordinates":[[145686.89194292,169602.31978941],[145684.18103,169613.9222255],[145667.709,169683.388],[145665.914,169690.642]]},"geometry_name":"GEOM","properties":{"INSPIRE_ID":"https://databrussels.be/id/streetaxe/73991","TYPE":"S","HIERARCHY":"DR","LVL":0,"STARTSN_ID":"https://databrussels.be/id/streetnode/7336","ENDSN_ID":"https://databrussels.be/id/streetnode/2476","STRNAMEFRE":"Rue Edmond Delcourt","STRNAMEDUT":"Edmond Delcourtstraat","SLOPE":1.05,"LENGTH":90.7797448948511},"bbox":[145665.914,169602.31978941,145686.89194292,169690.642]},{"type":"Feature","id":"StreetAxes.fid--2dded296_1a02c23f8dc_-5758","geometry":{"type":"LineString","coordinates":[[145887.11828675,169522.6354542],[145901.893,169524.839],[145933.446,169532.764],[145941.45,169534.286]]},"geometry_name":"GEOM","properties":{"INSPIRE_ID":"https://databrussels.be/id/streetaxe/73992","TYPE":"S","HIERARCHY":"DR","LVL":0,"STARTSN_ID":"https://databrussels.be/id/streetnode/7339","ENDSN_ID":"https://databrussels.be/id/streetnode/3775","STRNAMEFRE":"Rue du Village","STRNAMEDUT":"Dorpsstraat","SLOPE":1.55,"LENGTH":55.6185748452006},"bbox":[145887.11828675,169522.6354542,145941.45,169534.286]},{"type":"Feature","id":"StreetAxes.fid--2dded296_1a02c23f8dc_-575c","geometry":{"type":"LineString","coordinates":[[145887.11828675,169522.6354542],[145886.02563764,169529.96163604],[145880.324,169541.126],[145851.172,169598.209],[145848.156,169604.115]]},"geometry_name":"GEOM","properties":{"INSPIRE_ID":"https://databrussels.be/id/streetaxe/73993","TYPE":"S","HIERARCHY":"DR","LVL":0,"STARTSN_ID":"https://databrussels.be/id/streetnode/7339","ENDSN_ID":"https://databrussels.be/id/streetnode/1504","STRNAMEFRE":"Rue du Drapeau","STRNAMEDUT":"Vaandelstraat","SLOPE":1.26,"LENGTH":90.6708367799338},"bbox":[145848.156,169522.6354542,145887.11828675,169604.115]},{"type":"Feature","id":"StreetAxes.fid--2dded296_1a02c23f8dc_-578c","geometry":{"type":"LineString","coordinates":[[145824.231,169842.278],[145837.971,169854.43],[145884.02,169895.923],[145891.492,169902.618]]},"geometry_name":"GEOM","properties":{"INSPIRE_ID":"https://databrussels.be/id/streetaxe/74052","TYPE":"S","HIERARCHY":"DR","LVL":0,"STARTSN_ID":"https://databrussels.be/id/streetnode/7756","ENDSN_ID":"https://databrussels.be/id/streetnode/2580","STRNAMEFRE":"Rue de la Vérité","STRNAMEDUT":"Waarheidsstraat","SLOPE":4.63,"LENGTH":90.3607642868234},"bbox":[145824.231,169842.278,145891.492,169902.618]},{"type":"Feature","id":"StreetAxes.fid--2dded296_1a02c23f8dc_-573e","geometry":{"type":"LineString","coordinates":[[145610.47197119,169479.29439209],[145606.79376069,169522.51527445],[145608.67129677,169534.1879632],[145613.57354526,169540.56067437],[145621.51984904,169547.76060398]]},"geometry_name":"GEOM","properties":{"INSPIRE_ID":"https://databrussels.be/id/streetaxe/75510","TYPE":"S","HIERARCHY":"DR","LVL":0,"STARTSN_ID":"https://databrussels.be/id/streetnode/7477","ENDSN_ID":"https://databrussels.be/id/streetnode/7337","STRNAMEFRE":"Place de la Vaillance","STRNAMEDUT":"Dapperheidsplein","SLOPE":0.26,"LENGTH":73.9629542132488},"bbox":[145606.79376069,169479.29439209,145621.51984904,169547.76060398]},{"type":"Feature","id":"StreetAxes.fid--2dded296_1a02c23f8dc_-5768","geometry":{"type":"LineString","coordinates":[[145691.077674,169578.47060801],[145740.319,169587.1],[145753.67,169587.788],[145773.13,169589.855],[145831.904,169603.36],[145848.156,169604.115]]},"geometry_name":"GEOM","properties":{"INSPIRE_ID":"https://databrussels.be/id/streetaxe/75511","TYPE":"S","HIERARCHY":"DR","LVL":0,"STARTSN_ID":"https://databrussels.be/id/streetnode/7478","ENDSN_ID":"https://databrussels.be/id/streetnode/1504","STRNAMEFRE":"Rue Brune","STRNAMEDUT":"Bruinstraat","SLOPE":0.58,"LENGTH":159.505078778151},"bbox":[145691.077674,169578.47060801,145848.156,169604.115]},{"type":"Feature","id":"StreetAxes.fid--2dded296_1a02c23f8dc_-5793","geometry":{"type":"LineString","coordinates":[[145921.524,169814.832],[145914.428,169814.768],[145903.24151611,169818.11512679],[145835.4198957,169840.05931972],[145824.231,169842.278]]},"geometry_name":"GEOM","properties":{"INSPIRE_ID":"https://databrussels.be/id/streetaxe/75843","TYPE":"S","HIERARCHY":"IDR","LVL":0,"STARTSN_ID":"https://databrussels.be/id/streetnode/207","ENDSN_ID":"https://databrussels.be/id/streetnode/7756","STRNAMEFRE":"Rue Jules Broeren","STRNAMEDUT":"Jules Broerenstraat","SLOPE":1.71,"LENGTH":101.462915791315},"bbox":[145824.231,169814.768,145921.524,169842.278]},{"type":"Feature","id":"StreetAxes.fid--2dded296_1a02c23f8dc_-5794","geometry":{"type":"LineString","coordinates":[[145778.92657493,169801.8703702],[145782.603,169805.161],[145810.734,169830.34],[145824.231,169842.278]]},"geometry_name":"GEOM","properties":{"INSPIRE_ID":"https://databrussels.be/id/streetaxe/75844","TYPE":"S","HIERARCHY":"DR","LVL":0,"STARTSN_ID":"https://databrussels.be/id/streetnode/6796","ENDSN_ID":"https://databrussels.be/id/streetnode/7756","STRNAMEFRE":"Rue de la Vérité","STRNAMEDUT":"Waarheidsstraat","SLOPE":0.86,"LENGTH":60.7066243932862},"bbox":[145778.92657493,169801.8703702,145824.231,169842.278]},{"type":"Feature","id":"StreetAxes.fid--2dded296_1a02c23f8dc_-5783","geometry":{"type":"LineString","coordinates":[[145704.543,169956.219],[145712.31007012,169949.9344614],[145879.798,169911.124],[145884.938,169909.933],[145891.492,169902.618]]},"geometry_name":"GEOM","properties":{"INSPIRE_ID":"https://databrussels.be/id/streetaxe/76428","TYPE":"S","HIERARCHY":"DR","LVL":0,"STARTSN_ID":"https://databrussels.be/id/streetnode/1322","ENDSN_ID":"https://databrussels.be/id/streetnode/2580","STRNAMEFRE":"Rue de la Sincérité","STRNAMEDUT":"Oprechtheidsstraat","SLOPE":3.12,"LENGTH":197.014668416048},"bbox":[145704.543,169902.618,145891.492,169956.219]},{"type":"Feature","id":"StreetAxes.fid--2dded296_1a02c23f8dc_-573b","geometry":{"type":"LineString","coordinates":[[145613.15530521,169615.71149702],[145627.215,169610.77],[145631.828,169606.585],[145634.538,169603.24],[145637.57,169598.295],[145653.88549849,169577.08623816]]},"geometry_name":"GEOM","properties":{"INSPIRE_ID":"https://databrussels.be/id/streetaxe/76442","TYPE":"S","HIERARCHY":"DR","LVL":0,"STARTSN_ID":"https://databrussels.be/id/streetnode/2006","ENDSN_ID":"https://databrussels.be/id/streetnode/7338","STRNAMEFRE":"Rue du Chapelain","STRNAMEDUT":"Kapelaansstraat","SLOPE":2.24,"LENGTH":57.9951227063313},"bbox":[145613.15530521,169577.08623816,145653.88549849,169615.71149702]},{"type":"Feature","id":"StreetAxes.fid--2dded296_1a02c23f8dc_-578a","geometry":{"type":"LineString","coordinates":[[145638.28554361,169888.72376878],[145629.96866318,169887.92460843],[145622.57454433,169887.06477759],[145618.88182735,169887.32417464],[145613.35812358,169889.46477567]]},"geometry_name":"GEOM","properties":{"INSPIRE_ID":"https://databrussels.be/id/streetaxe/77334","TYPE":"S","HIERARCHY":"IDR","LVL":0,"STARTSN_ID":"https://databrussels.be/id/streetnode/7255","ENDSN_ID":"https://databrussels.be/id/streetnode/7254","STRNAMEFRE":"Place de la Beauté","STRNAMEDUT":"Schoonheidsplein","SLOPE":2.08,"LENGTH":25.4249226744802},"bbox":[145613.35812358,169887.06477759,145638.28554361,169889.46477567]},{"type":"Feature","id":"StreetAxes.fid--2dded296_1a02c23f8dc_-578d","geometry":{"type":"LineString","coordinates":[[145939.82241012,169831.25969136],[145943.503,169834.564],[146004.874,169890.476],[146019.318,169904.287]]},"geometry_name":"GEOM","properties":{"INSPIRE_ID":"https://databrussels.be/id/streetaxe/77658","TYPE":"S","HIERARCHY":"IDR","LVL":0,"STARTSN_ID":"https://databrussels.be/id/streetnode/6794","ENDSN_ID":"https://databrussels.be/id/streetnode/583","STRNAMEFRE":"Rue d'Aumale","STRNAMEDUT":"d'Aumalestraat","SLOPE":2.05,"LENGTH":107.95193703546},"bbox":[145939.82241012,169831.25969136,146019.318,169904.287]},{"type":"Feature","id":"StreetAxes.fid--2dded296_1a02c23f8dc_-5733","geometry":{"type":"LineString","coordinates":[[145686.89430976,169426.65338942],[145695.245,169453.815],[145700.145,169474.438],[145702.678,169491.524],[145704.081,169511.303],[145703.09421996,169531.23033455],[145696.6781133,169553.12205832]]},"geometry_name":"GEOM","properties":{"INSPIRE_ID":"https://databrussels.be/id/streetaxe/77667","TYPE":"S","HIERARCHY":"DR","LVL":0,"STARTSN_ID":"https://databrussels.be/id/streetnode/6800","ENDSN_ID":"https://databrussels.be/id/streetnode/7476","STRNAMEFRE":"Rue de Formanoir","STRNAMEDUT":"de Formanoirstraat","SLOPE":0.55,"LENGTH":129.47921497022},"bbox":[145686.89430976,169426.65338942,145704.081,169553.12205832]},{"type":"Feature","id":"StreetAxes.fid--2dded296_1a02c23f8dc_-5766","geometry":{"type":"LineString","coordinates":[[145748.2745842,169794.75477646],[145755.34862244,169794.94737713],[145771.84286274,169800.73597769],[145778.92657493,169801.8703702]]},"geometry_name":"GEOM","properties":{"INSPIRE_ID":"https://databrussels.be/id/streetaxe/77668","TYPE":"S","HIERARCHY":"DR","LVL":0,"STARTSN_ID":"https://databrussels.be/id/streetnode/6801","ENDSN_ID":"https://databrussels.be/id/streetnode/6796","STRNAMEFRE":"Place du Droit","STRNAMEDUT":"Rechtsplein","SLOPE":0.79,"LENGTH":31.7311276160383},"bbox":[145748.2745842,169794.75477646,145778.92657493,169801.8703702]},{"type":"Feature","id":"StreetAxes.fid--2dded296_1a02c23f8dc_-578b","geometry":{"type":"LineString","coordinates":[[145824.231,169842.278],[145808.21066208,169848.07832694],[145663.86671135,169892.30992593],[145657.84743814,169894.2228355]]},"geometry_name":"GEOM","properties":{"INSPIRE_ID":"https://databrussels.be/id/streetaxe/77721","TYPE":"S","HIERARCHY":"IDR","LVL":0,"STARTSN_ID":"https://databrussels.be/id/streetnode/7756","ENDSN_ID":"https://databrussels.be/id/streetnode/7532","STRNAMEFRE":"Rue Jules Broeren","STRNAMEDUT":"Jules Broerenstraat","SLOPE":3.61,"LENGTH":174.322874037634},"bbox":[145657.84743814,169842.278,145824.231,169894.2228355]},{"type":"Feature","id":"StreetAxes.fid--2dded296_1a02c23f8dc_-577e","geometry":{"type":"LineString","coordinates":[[145656.51353717,169912.68529251],[145652.08420374,169915.07255435],[145644.16010264,169915.33339748],[145635.64495179,169914.45825682]]},"geometry_name":"GEOM","properties":{"INSPIRE_ID":"https://databrussels.be/id/streetaxe/77722","TYPE":"S","HIERARCHY":"IDR","LVL":0,"STARTSN_ID":"https://databrussels.be/id/streetnode/7954","ENDSN_ID":"https://databrussels.be/id/streetnode/7533","STRNAMEFRE":"Place de la Beauté","STRNAMEDUT":"Schoonheidsplein","SLOPE":2.65,"LENGTH":21.520097803438},"bbox":[145635.64495179,169912.68529251,145656.51353717,169915.33339748]},{"type":"Feature","id":"StreetAxes.fid--2dded296_1a02c23f8dc_-5745","geometry":{"type":"LineString","coordinates":[[145561.62426375,169602.95318413],[145560.108,169609.583],[145555.466,169629.88],[145543.43,169673.412],[145540.148,169696.525],[145539.684,169705.135]]},"geometry_name":"GEOM","properties":{"INSPIRE_ID":"https://databrussels.be/id/streetaxe/77761","TYPE":"S","HIERARCHY":"DR","LVL":0,"STARTSN_ID":"https://databrussels.be/id/streetnode/7583","ENDSN_ID":"https://databrussels.be/id/streetnode/791","STRNAMEFRE":"Rue de l'Institut","STRNAMEDUT":"Instituutstraat","SLOPE":6.02,"LENGTH":104.754654717379},"bbox":[145539.684,169602.95318413,145561.62426375,169705.135]},{"type":"Feature","id":"StreetAxes.fid--2dded296_1a02c23f8dc_-5767","geometry":{"type":"LineString","coordinates":[[145697.03434558,169421.92295005],[145811.3,169484.656],[145869.91867195,169516.75316652],[145887.11828675,169522.6354542]]},"geometry_name":"GEOM","properties":{"INSPIRE_ID":"https://databrussels.be/id/streetaxe/77763","TYPE":"S","HIERARCHY":"DR","LVL":0,"STARTSN_ID":"https://databrussels.be/id/streetnode/6669","ENDSN_ID":"https://databrussels.be/id/streetnode/7339","STRNAMEFRE":"Rue du Village","STRNAMEDUT":"Dorpsstraat","SLOPE":1.34,"LENGTH":215.362291959426},"bbox":[145697.03434558,169421.92295005,145887.11828675,169522.6354542]},{"type":"Feature","id":"StreetAxes.fid--2dded296_1a02c23f8dc_-5761","geometry":{"type":"LineString","coordinates":[[145782.56590872,169787.12369916],[145778.92657493,169801.8703702]]},"geometry_name":"GEOM","properties":{"INSPIRE_ID":"https://databrussels.be/id/streetaxe/77764","TYPE":"S","HIERARCHY":"DR","LVL":0,"STARTSN_ID":"https://databrussels.be/id/streetnode/6150","ENDSN_ID":"https://databrussels.be/id/streetnode/6796","STRNAMEFRE":"Place du Droit","STRNAMEDUT":"Rechtsplein","SLOPE":0.39,"LENGTH":15.1891098265273},"bbox":[145778.92657493,169787.12369916,145782.56590872,169801.8703702]},{"type":"Feature","id":"StreetAxes.fid--2dded296_1a02c23f8dc_-5732","geometry":{"type":"LineString","coordinates":[[145696.6781133,169553.12205832],[145693.03175471,169564.84556627],[145691.077674,169578.47060801]]},"geometry_name":"GEOM","properties":{"INSPIRE_ID":"https://databrussels.be/id/streetaxe/78132","TYPE":"S","HIERARCHY":"DR","LVL":0,"STARTSN_ID":"https://databrussels.be/id/streetnode/7476","ENDSN_ID":"https://databrussels.be/id/streetnode/7478","STRNAMEFRE":"Rue de Formanoir","STRNAMEDUT":"de Formanoirstraat","SLOPE":1.08,"LENGTH":26.0419362107812},"bbox":[145691.077674,169553.12205832,145696.6781133,169578.47060801]},{"type":"Feature","id":"StreetAxes.fid--2dded296_1a02c23f8dc_-5765","geometry":{"type":"LineString","coordinates":[[145752.12696236,169775.80657762],[145748.2745842,169794.75477646]]},"geometry_name":"GEOM","properties":{"INSPIRE_ID":"https://databrussels.be/id/streetaxe/78815","TYPE":"S","HIERARCHY":"DR","LVL":0,"STARTSN_ID":"https://databrussels.be/id/streetnode/6806","ENDSN_ID":"https://databrussels.be/id/streetnode/6801","STRNAMEFRE":"Place du Droit","STRNAMEDUT":"Rechtsplein","SLOPE":0.31,"LENGTH":19.3358490001011},"bbox":[145748.2745842,169775.80657762,145752.12696236,169794.75477646]},{"type":"Feature","id":"StreetAxes.fid--2dded296_1a02c23f8dc_-575a","geometry":{"type":"LineString","coordinates":[[145874.99917236,169772.49688166],[145881.46031936,169778.29009535],[145907.5664315,169801.96865994],[145921.524,169814.832]]},"geometry_name":"GEOM","properties":{"INSPIRE_ID":"https://databrussels.be/id/streetaxe/78878","TYPE":"S","HIERARCHY":"DR","LVL":0,"STARTSN_ID":"https://databrussels.be/id/streetnode/7699","ENDSN_ID":"https://databrussels.be/id/streetnode/207","STRNAMEFRE":"Rue d'Aumale","STRNAMEDUT":"d'Aumalestraat","SLOPE":0.4,"LENGTH":62.903934188482},"bbox":[145874.99917236,169772.49688166,145921.524,169814.832]},{"type":"Feature","id":"StreetAxes.fid--2dded296_1a02c23f8dc_-5763","geometry":{"type":"LineString","coordinates":[[145752.12696236,169775.80657762],[145759.40448226,169778.33313862],[145776.83131753,169784.49502569],[145782.56590872,169787.12369916]]},"geometry_name":"GEOM","properties":{"INSPIRE_ID":"https://databrussels.be/id/streetaxe/78880","TYPE":"S","HIERARCHY":"DR","LVL":0,"STARTSN_ID":"https://databrussels.be/id/streetnode/6806","ENDSN_ID":"https://databrussels.be/id/streetnode/6150","STRNAMEFRE":"Place du Droit","STRNAMEDUT":"Rechtsplein","SLOPE":0.4,"LENGTH":32.4961274725739},"bbox":[145752.12696236,169775.80657762,145782.56590872,169787.12369916]},{"type":"Feature","id":"StreetAxes.fid--2dded296_1a02c23f8dc_-5743","geometry":{"type":"LineString","coordinates":[[145552.81809714,169589.50101594],[145563.48149377,169536.66847323]]},"geometry_name":"GEOM","properties":{"INSPIRE_ID":"https://databrussels.be/id/streetaxe/78952","TYPE":"S","HIERARCHY":"DR","LVL":0,"STARTSN_ID":"https://databrussels.be/id/streetnode/8474","ENDSN_ID":"https://databrussels.be/id/streetnode/6825","STRNAMEFRE":"Place de la Vaillance","STRNAMEDUT":"Dapperheidsplein","SLOPE":0.59,"LENGTH":53.8979182983287},"bbox":[145552.81809714,169536.66847323,145563.48149377,169589.50101594]},{"type":"Feature","id":"StreetAxes.fid--2dded296_1a02c23f8dc_-5737","geometry":{"type":"LineString","coordinates":[[145653.88549849,169577.08623816],[145662.13005497,169584.55640642],[145674.00362128,169594.22255658],[145686.89194292,169602.31978941]]},"geometry_name":"GEOM","properties":{"INSPIRE_ID":"https://databrussels.be/id/streetaxe/78959","TYPE":"S","HIERARCHY":"DR","LVL":0,"STARTSN_ID":"https://databrussels.be/id/streetnode/7338","ENDSN_ID":"https://databrussels.be/id/streetnode/7336","STRNAMEFRE":"Rue d'Aumale","STRNAMEDUT":"d'Aumalestraat","SLOPE":1.82,"LENGTH":41.656964421333},"bbox":[145653.88549849,169577.08623816,145686.89194292,169602.31978941]},{"type":"Feature","id":"StreetAxes.fid--2dded296_1a02c23f8dc_-576f","geometry":{"type":"LineString","coordinates":[[145506.46310334,169987.28073098],[145500.41206074,169985.30523606],[145490.99360187,169979.32565636]]},"geometry_name":"GEOM","properties":{"INSPIRE_ID":"https://databrussels.be/id/streetaxe/79330","TYPE":"S","HIERARCHY":"DR","LVL":0,"STARTSN_ID":"https://databrussels.be/id/streetnode/6345","ENDSN_ID":"https://databrussels.be/id/streetnode/6350","STRNAMEFRE":"Rue Démosthène","STRNAMEDUT":"Demosthenesstraat","SLOPE":2.11,"LENGTH":17.521638325399},"bbox":[145490.99360187,169979.32565636,145506.46310334,169987.28073098]},{"type":"Feature","id":"StreetAxes.fid--2dded296_1a02c23f8dc_-573f","geometry":{"type":"LineString","coordinates":[[145590.83647562,169542.59874429],[145616.85153729,169548.23853481],[145621.51984904,169547.76060398]]},"geometry_name":"GEOM","properties":{"INSPIRE_ID":"https://databrussels.be/id/streetaxe/79635","TYPE":"S","HIERARCHY":"DR","LVL":0,"STARTSN_ID":"https://databrussels.be/id/streetnode/7580","ENDSN_ID":"https://databrussels.be/id/streetnode/7337","STRNAMEFRE":"Place de la Vaillance","STRNAMEDUT":"Dapperheidsplein","SLOPE":4.66,"LENGTH":31.3120791614364},"bbox":[145590.83647562,169542.59874429,145621.51984904,169548.23853481]},{"type":"Feature","id":"StreetAxes.fid--2dded296_1a02c23f8dc_-575f","geometry":{"type":"LineString","coordinates":[[145859.93014471,169758.81314247],[145852.26797681,169767.12410053],[145847.344,169770.047],[145785.5,169786.375],[145782.56590872,169787.12369916]]},"geometry_name":"GEOM","properties":{"INSPIRE_ID":"https://databrussels.be/id/streetaxe/79636","TYPE":"S","HIERARCHY":"DR","LVL":0,"STARTSN_ID":"https://databrussels.be/id/streetnode/7581","ENDSN_ID":"https://databrussels.be/id/streetnode/6150","STRNAMEFRE":"Rue Joseph Pavez","STRNAMEDUT":"Joseph Pavezstraat","SLOPE":1.09,"LENGTH":84.0214307711913},"bbox":[145782.56590872,169758.81314247,145859.93014471,169787.12369916]},{"type":"Feature","id":"StreetAxes.fid--2dded296_1a02c23f8dc_-5747","geometry":{"type":"LineString","coordinates":[[145561.62426375,169602.95318413],[145542.10872385,169589.54657669],[145537.678,169596.082],[145524.045,169616.191],[145515.434,169629.057]]},"geometry_name":"GEOM","properties":{"INSPIRE_ID":"https://databrussels.be/id/streetaxe/79637","TYPE":"S","HIERARCHY":"DR","LVL":0,"STARTSN_ID":"https://databrussels.be/id/streetnode/7583","ENDSN_ID":"https://databrussels.be/id/streetnode/3777","STRNAMEFRE":"Rue du Broeck","STRNAMEDUT":"Broekstraat","SLOPE":3.13,"LENGTH":71.3489861680907},"bbox":[145515.434,169589.54657669,145561.62426375,169629.057]},{"type":"Feature","id":"StreetAxes.fid--2dded296_1a02c23f8dc_-5769","geometry":{"type":"LineString","coordinates":[[145686.89194292,169602.31978941],[145696.3895,169609.868],[145777.36742176,169683.77824778],[145781.97858672,169688.02309514]]},"geometry_name":"GEOM","properties":{"INSPIRE_ID":"https://databrussels.be/id/streetaxe/79800","TYPE":"S","HIERARCHY":"DR","LVL":0,"STARTSN_ID":"https://databrussels.be/id/streetnode/7336","ENDSN_ID":"https://databrussels.be/id/streetnode/6824","STRNAMEFRE":"Rue d'Aumale","STRNAMEDUT":"d'Aumalestraat","SLOPE":1.69,"LENGTH":128.035677495357},"bbox":[145686.89194292,169602.31978941,145781.97858672,169688.02309514]},{"type":"Feature","id":"StreetAxes.fid--2dded296_1a02c23f8dc_-5742","geometry":{"type":"LineString","coordinates":[[145613.15530521,169615.71149702],[145565.055,169605.31],[145561.62426375,169602.95318413]]},"geometry_name":"GEOM","properties":{"INSPIRE_ID":"https://databrussels.be/id/streetaxe/80479","TYPE":"S","HIERARCHY":"DR","LVL":0,"STARTSN_ID":"https://databrussels.be/id/streetnode/2006","ENDSN_ID":"https://databrussels.be/id/streetnode/7583","STRNAMEFRE":"Rue du Chapelain","STRNAMEDUT":"Kapelaansstraat","SLOPE":3.88,"LENGTH":53.3743719970995},"bbox":[145561.62426375,169602.95318413,145613.15530521,169615.71149702]},{"type":"Feature","id":"StreetAxes.fid--2dded296_1a02c23f8dc_-5734","geometry":{"type":"LineString","coordinates":[[145691.077674,169578.47060801],[145686.89194292,169602.31978941]]},"geometry_name":"GEOM","properties":{"INSPIRE_ID":"https://databrussels.be/id/streetaxe/80480","TYPE":"S","HIERARCHY":"DR","LVL":0,"STARTSN_ID":"https://databrussels.be/id/streetnode/7478","ENDSN_ID":"https://databrussels.be/id/streetnode/7336","STRNAMEFRE":"Rue d'Aumale","STRNAMEDUT":"d'Aumalestraat","SLOPE":0.74,"LENGTH":24.213710953949},"bbox":[145686.89194292,169578.47060801,145691.077674,169602.31978941]},{"type":"Feature","id":"StreetAxes.fid--2dded296_1a02c23f8dc_-5795","geometry":{"type":"LineString","coordinates":[[145648.029,169797.528],[145647.036,169806.654],[145639.358,169879.532],[145638.28554361,169888.72376878]]},"geometry_name":"GEOM","properties":{"INSPIRE_ID":"https://databrussels.be/id/streetaxe/80484","TYPE":"S","HIERARCHY":"DR","LVL":0,"STARTSN_ID":"https://databrussels.be/id/streetnode/3711","ENDSN_ID":"https://databrussels.be/id/streetnode/7255","STRNAMEFRE":"Rue Edmond Delcourt","STRNAMEDUT":"Edmond Delcourtstraat","SLOPE":5.33,"LENGTH":91.7153257761397},"bbox":[145638.28554361,169797.528,145648.029,169888.72376878]},{"type":"Feature","id":"StreetAxes.fid--2dded296_1a02c23f8dc_-5787","geometry":{"type":"LineString","coordinates":[[145657.84743814,169894.2228355],[145659.91655456,169899.90317867],[145660.19667732,169903.64574747],[145659.36994207,169907.46706647],[145656.51353717,169912.68529251]]},"geometry_name":"GEOM","properties":{"INSPIRE_ID":"https://databrussels.be/id/streetaxe/80485","TYPE":"S","HIERARCHY":"IDR","LVL":0,"STARTSN_ID":"https://databrussels.be/id/streetnode/7532","ENDSN_ID":"https://databrussels.be/id/streetnode/7954","STRNAMEFRE":"Place de la Beauté","STRNAMEDUT":"Schoonheidsplein","SLOPE":5.14,"LENGTH":19.6570810235444},"bbox":[145656.51353717,169894.2228355,145660.19667732,169912.68529251]},{"type":"Feature","id":"StreetAxes.fid--2dded296_1a02c23f8dc_-5788","geometry":{"type":"LineString","coordinates":[[145613.35812358,169889.46477567],[145610.00321655,169894.34715716],[145608.91447448,169897.83605325],[145608.82211204,169901.91130136]]},"geometry_name":"GEOM","properties":{"INSPIRE_ID":"https://databrussels.be/id/streetaxe/80486","TYPE":"S","HIERARCHY":"IDR","LVL":0,"STARTSN_ID":"https://databrussels.be/id/streetnode/7254","ENDSN_ID":"https://databrussels.be/id/streetnode/7757","STRNAMEFRE":"Place de la Beauté","STRNAMEDUT":"Schoonheidsplein","SLOPE":3.66,"LENGTH":13.6550596732631},"bbox":[145608.82211204,169889.46477567,145613.35812358,169901.91130136]},{"type":"Feature","id":"StreetAxes.fid--2dded296_1a02c23f8dc_-5780","geometry":{"type":"LineString","coordinates":[[145612.11949624,169908.85808732],[145614.37824997,169910.66636872],[145618.61379004,169912.70788711],[145635.64495179,169914.45825682]]},"geometry_name":"GEOM","properties":{"INSPIRE_ID":"https://databrussels.be/id/streetaxe/80487","TYPE":"S","HIERARCHY":"IDR","LVL":0,"STARTSN_ID":"https://databrussels.be/id/streetnode/7955","ENDSN_ID":"https://databrussels.be/id/streetnode/7533","STRNAMEFRE":"Place de la Beauté","STRNAMEDUT":"Schoonheidsplein","SLOPE":0.89,"LENGTH":24.7161587897299},"bbox":[145612.11949624,169908.85808732,145635.64495179,169914.45825682]},{"type":"Feature","id":"StreetAxes.fid--2dded296_1a02c23f8dc_-577d","geometry":{"type":"LineString","coordinates":[[145635.64495179,169914.45825682],[145634.794,169923.6],[145625.083,170017.336],[145623.33711648,170029.90965042]]},"geometry_name":"GEOM","properties":{"INSPIRE_ID":"https://databrussels.be/id/streetaxe/80809","TYPE":"S","HIERARCHY":"DR","LVL":0,"STARTSN_ID":"https://databrussels.be/id/streetnode/7533","ENDSN_ID":"https://databrussels.be/id/streetnode/6853","STRNAMEFRE":"Rue de l'Expansion","STRNAMEDUT":"Uitbreidingsstraat","SLOPE":5.5,"LENGTH":116.113229486876},"bbox":[145623.33711648,169914.45825682,145635.64495179,170029.90965042]},{"type":"Feature","id":"StreetAxes.fid--2dded296_1a02c23f8dc_-577f","geometry":{"type":"LineString","coordinates":[[145656.51353717,169912.68529251],[145661.892,169917.674],[145676.032,169927.944],[145691.984,169942.064],[145698.284,169948.68],[145704.543,169956.219]]},"geometry_name":"GEOM","properties":{"INSPIRE_ID":"https://databrussels.be/id/streetaxe/80810","TYPE":"S","HIERARCHY":"DR","LVL":0,"STARTSN_ID":"https://databrussels.be/id/streetnode/7954","ENDSN_ID":"https://databrussels.be/id/streetnode/1322","STRNAMEFRE":"Rue des Parfums","STRNAMEDUT":"Geurstraat","SLOPE":4.63,"LENGTH":65.0497427762782},"bbox":[145656.51353717,169912.68529251,145704.543,169956.219]},{"type":"Feature","id":"StreetAxes.fid--2dded296_1a02c23f8dc_-5792","geometry":{"type":"LineString","coordinates":[[145921.524,169814.832],[145939.82241012,169831.25969136]]},"geometry_name":"GEOM","properties":{"INSPIRE_ID":"https://databrussels.be/id/streetaxe/80811","TYPE":"S","HIERARCHY":"IDR","LVL":0,"STARTSN_ID":"https://databrussels.be/id/streetnode/207","ENDSN_ID":"https://databrussels.be/id/streetnode/6794","STRNAMEFRE":"Rue d'Aumale","STRNAMEDUT":"d'Aumalestraat","SLOPE":0.12,"LENGTH":24.5906660401058},"bbox":[145921.524,169814.832,145939.82241012,169831.25969136]},{"type":"Feature","id":"StreetAxes.fid--2dded296_1a02c23f8dc_-5778","geometry":{"type":"LineString","coordinates":[[145945.633,169956.306],[145936.451,169960.004],[145906.063,169970.374],[145842.237,169984.596],[145744.569,170004.874],[145734.904,170006.823]]},"geometry_name":"GEOM","properties":{"INSPIRE_ID":"https://databrussels.be/id/streetaxe/80813","TYPE":"S","HIERARCHY":"DR","LVL":0,"STARTSN_ID":"https://databrussels.be/id/streetnode/2737","ENDSN_ID":"https://databrussels.be/id/streetnode/6852","STRNAMEFRE":"Rue du Souvenir","STRNAMEDUT":"Gedachtenisstraat","SLOPE":3.49,"LENGTH":217.009118412534},"bbox":[145734.904,169956.306,145945.633,170006.823]},{"type":"Feature","id":"StreetAxes.fid--2dded296_1a02c23f8dc_-5779","geometry":{"type":"LineString","coordinates":[[145704.543,169956.219],[145710.802,169963.758],[145717.43,169973.34],[145725.552,169986.864],[145731.137,169997.8],[145734.904,170006.823]]},"geometry_name":"GEOM","properties":{"INSPIRE_ID":"https://databrussels.be/id/streetaxe/80814","TYPE":"S","HIERARCHY":"DR","LVL":0,"STARTSN_ID":"https://databrussels.be/id/streetnode/1322","ENDSN_ID":"https://databrussels.be/id/streetnode/6852","STRNAMEFRE":"Rue des Parfums","STRNAMEDUT":"Geurstraat","SLOPE":4.93,"LENGTH":59.2823527122913},"bbox":[145704.543,169956.219,145734.904,170006.823]},{"type":"Feature","id":"StreetAxes.fid--2dded296_1a02c23f8dc_-575e","geometry":{"type":"LineString","coordinates":[[145848.156,169604.115],[145852.314,169615.12],[145824.89944265,169714.2430382],[145817.969,169720.726]]},"geometry_name":"GEOM","properties":{"INSPIRE_ID":"https://databrussels.be/id/streetaxe/80882","TYPE":"S","HIERARCHY":"DR","LVL":0,"STARTSN_ID":"https://databrussels.be/id/streetnode/1504","ENDSN_ID":"https://databrussels.be/id/streetnode/3609","STRNAMEFRE":"Rue du Drapeau","STRNAMEDUT":"Vaandelstraat","SLOPE":1.89,"LENGTH":124.098520889655},"bbox":[145817.969,169604.115,145852.314,169720.726]},{"type":"Feature","id":"StreetAxes.fid--2dded296_1a02c23f8dc_-5786","geometry":{"type":"LineString","coordinates":[[145522.53663998,169977.667823],[145524.62391406,169973.84808084],[145557.87161869,169937.64000835],[145568.35474303,169926.29701721],[145576.68207012,169919.02428509],[145602.53612791,169902.87465889],[145608.82211204,169901.91130136]]},"geometry_name":"GEOM","properties":{"INSPIRE_ID":"https://databrussels.be/id/streetaxe/81026","TYPE":"S","HIERARCHY":"IDR","LVL":0,"STARTSN_ID":"https://databrussels.be/id/streetnode/8469","ENDSN_ID":"https://databrussels.be/id/streetnode/7757","STRNAMEFRE":"Rue Cyriel Buysse","STRNAMEDUT":"Cyriel Buyssestraat","SLOPE":4.39,"LENGTH":116.854382318592},"bbox":[145522.53663998,169901.91130136,145608.82211204,169977.667823]},{"type":"Feature","id":"StreetAxes.fid--2dded296_1a02c23f8dc_-5770","geometry":{"type":"LineString","coordinates":[[145522.53663998,169977.667823],[145525.81487026,169979.32066675],[145529.07786537,169982.15568889],[145531.0288611,169985.87369427]]},"geometry_name":"GEOM","properties":{"INSPIRE_ID":"https://databrussels.be/id/streetaxe/81027","TYPE":"S","HIERARCHY":"IDR","LVL":0,"STARTSN_ID":"https://databrussels.be/id/streetnode/8469","ENDSN_ID":"https://databrussels.be/id/streetnode/8491","STRNAMEFRE":"Boulevard Prince de Liège","STRNAMEDUT":"Prins van Luiklaan","SLOPE":2.54,"LENGTH":12.1926919097017},"bbox":[145522.53663998,169977.667823,145531.0288611,169985.87369427]},{"type":"Feature","id":"StreetAxes.fid--2dded296_1a02c23f8dc_-5764","geometry":{"type":"LineString","coordinates":[[145752.44673907,169719.47675227],[145755.76113928,169720.58745531],[145763.08248843,169728.15384134],[145753.938,169767.296],[145752.12696236,169775.80657762]]},"geometry_name":"GEOM","properties":{"INSPIRE_ID":"https://databrussels.be/id/streetaxe/81346","TYPE":"S","HIERARCHY":"DR","LVL":0,"STARTSN_ID":"https://databrussels.be/id/streetnode/7694","ENDSN_ID":"https://databrussels.be/id/streetnode/6806","STRNAMEFRE":"Rue du Devoir","STRNAMEDUT":"Plichtstraat","SLOPE":0.78,"LENGTH":62.9214845077302},"bbox":[145752.12696236,169719.47675227,145763.08248843,169775.80657762]},{"type":"Feature","id":"StreetAxes.fid--2dded296_1a02c23f8dc_-5741","geometry":{"type":"LineString","coordinates":[[145563.48149377,169536.66847323],[145590.83647562,169542.59874429]]},"geometry_name":"GEOM","properties":{"INSPIRE_ID":"https://databrussels.be/id/streetaxe/81455","TYPE":"S","HIERARCHY":"DR","LVL":0,"STARTSN_ID":"https://databrussels.be/id/streetnode/6825","ENDSN_ID":"https://databrussels.be/id/streetnode/7580","STRNAMEFRE":"Place de la Vaillance","STRNAMEDUT":"Dapperheidsplein","SLOPE":4.54,"LENGTH":27.9904116940815},"bbox":[145563.48149377,169536.66847323,145590.83647562,169542.59874429]},{"type":"Feature","id":"StreetAxes.fid--2dded296_1a02c23f8dc_-5756","geometry":{"type":"LineString","coordinates":[[145997.982,169548.918],[145995.925,169556.652],[145932.395,169803.459],[145931.64369508,169809.0928293],[145933.08494375,169814.93557085]]},"geometry_name":"GEOM","properties":{"INSPIRE_ID":"https://databrussels.be/id/streetaxe/81550","TYPE":"S","HIERARCHY":"DR","LVL":0,"STARTSN_ID":"https://databrussels.be/id/streetnode/3078","ENDSN_ID":"https://databrussels.be/id/streetnode/6799","STRNAMEFRE":"Rue du Prétoire","STRNAMEDUT":"Rechtszaalstraat","SLOPE":0.23,"LENGTH":274.556874754987},"bbox":[145931.64369508,169548.918,145997.982,169814.93557085]},{"type":"Feature","id":"StreetAxes.fid--2dded296_1a02c23f8dc_-576a","geometry":{"type":"LineString","coordinates":[[145665.914,169690.642],[145672.994,169692.851],[145747.858,169717.939],[145752.44673907,169719.47675227]]},"geometry_name":"GEOM","properties":{"INSPIRE_ID":"https://databrussels.be/id/streetaxe/81551","TYPE":"S","HIERARCHY":"DR","LVL":0,"STARTSN_ID":"https://databrussels.be/id/streetnode/2476","ENDSN_ID":"https://databrussels.be/id/streetnode/7694","STRNAMEFRE":"Rue Kinet","STRNAMEDUT":"Kinetstraat","SLOPE":1.62,"LENGTH":91.2120046870879},"bbox":[145665.914,169690.642,145752.44673907,169719.47675227]},{"type":"Feature","id":"StreetAxes.fid--2dded296_1a02c23f8dc_-5791","geometry":{"type":"LineString","coordinates":[[145982.379,169815.38],[145974.194,169815.304],[145949.988,169815.087],[145945.26418964,169815.04468087]]},"geometry_name":"GEOM","properties":{"INSPIRE_ID":"https://databrussels.be/id/streetaxe/81553","TYPE":"S","HIERARCHY":"IDR","LVL":0,"STARTSN_ID":"https://databrussels.be/id/streetnode/2093","ENDSN_ID":"https://databrussels.be/id/streetnode/6668","STRNAMEFRE":"Avenue Auber","STRNAMEDUT":"Auberlaan","SLOPE":0.84,"LENGTH":37.1163254045058},"bbox":[145945.26418964,169815.04468087,145982.379,169815.38]},{"type":"Feature","id":"StreetAxes.fid--2dded296_1a02c23f8dc_-574a","geometry":{"type":"LineString","coordinates":[[145500.818,169703.193],[145500.94,169712.338],[145499.50652167,169756.85495245]]},"geometry_name":"GEOM","properties":{"INSPIRE_ID":"https://databrussels.be/id/streetaxe/81558","TYPE":"S","HIERARCHY":"DR","LVL":0,"STARTSN_ID":"https://databrussels.be/id/streetnode/1500","ENDSN_ID":"https://databrussels.be/id/streetnode/6065","STRNAMEFRE":"Rue du Broeck","STRNAMEDUT":"Broekstraat","SLOPE":0.97,"LENGTH":53.6858397360783},"bbox":[145499.50652167,169703.193,145500.94,169756.85495245]},{"type":"Feature","id":"StreetAxes.fid--2dded296_1a02c23f8dc_-576b","geometry":{"type":"LineString","coordinates":[[145654.916,169737.524],[145663.215,169740.771],[145745.172,169773.392],[145752.12696236,169775.80657762]]},"geometry_name":"GEOM","properties":{"INSPIRE_ID":"https://databrussels.be/id/streetaxe/82134","TYPE":"S","HIERARCHY":"DR","LVL":0,"STARTSN_ID":"https://databrussels.be/id/streetnode/1931","ENDSN_ID":"https://databrussels.be/id/streetnode/6806","STRNAMEFRE":"Rue Erasme","STRNAMEDUT":"Erasmusstraat","SLOPE":1.28,"LENGTH":104.484195321805},"bbox":[145654.916,169737.524,145752.12696236,169775.80657762]},{"type":"Feature","id":"StreetAxes.fid--2dded296_1a02c23f8dc_-577b","geometry":{"type":"LineString","coordinates":[[145972.85268959,169947.25520295],[145973.24028287,169953.80924558],[145975.57439485,169958.96386896],[145980.21226619,169963.19625123],[145985.79974127,169965.89990236],[145991.75437421,169964.89855009],[145995.59951835,169960.1988701],[145996.90125985,169955.31105775],[145994.42795099,169948.5464675],[145989.08246632,169944.72964642]]},"geometry_name":"GEOM","properties":{"INSPIRE_ID":"https://databrussels.be/id/streetaxe/82319","TYPE":"S","HIERARCHY":"DR","LVL":0,"STARTSN_ID":"https://databrussels.be/id/streetnode/6341","ENDSN_ID":"https://databrussels.be/id/streetnode/5694","STRNAMEFRE":"Place du Repos","STRNAMEDUT":"Rustplein","SLOPE":1.33,"LENGTH":55.6494626423805},"bbox":[145972.85268959,169944.72964642,145996.90125985,169965.89990236]},{"type":"Feature","id":"StreetAxes.fid--2dded296_1a02c23f8dc_-576c","geometry":{"type":"LineString","coordinates":[[145517.2131271,170002.54586571],[145514.09688267,170001.72651395],[145511.65172534,170000.19939759],[145509.36613876,169998.08619701],[145507.62184387,169995.44861561]]},"geometry_name":"GEOM","properties":{"INSPIRE_ID":"https://databrussels.be/id/streetaxe/82425","TYPE":"S","HIERARCHY":"IDR","LVL":0,"STARTSN_ID":"https://databrussels.be/id/streetnode/6332","ENDSN_ID":"https://databrussels.be/id/streetnode/6069","STRNAMEFRE":"Boulevard Prince de Liège","STRNAMEDUT":"Prins van Luiklaan","SLOPE":9,"LENGTH":12.3800023773865},"bbox":[145507.62184387,169995.44861561,145517.2131271,170002.54586571]},{"type":"Feature","id":"StreetAxes.fid--2dded296_1a02c23f8dc_-573a","geometry":{"type":"LineString","coordinates":[[145621.51984904,169547.76060398],[145653.88549849,169577.08623816]]},"geometry_name":"GEOM","properties":{"INSPIRE_ID":"https://databrussels.be/id/streetaxe/84437","TYPE":"S","HIERARCHY":"DR","LVL":0,"STARTSN_ID":"https://databrussels.be/id/streetnode/7337","ENDSN_ID":"https://databrussels.be/id/streetnode/7338","STRNAMEFRE":"Rue d'Aumale","STRNAMEDUT":"d'Aumalestraat","SLOPE":3.16,"LENGTH":43.6752571116414},"bbox":[145621.51984904,169547.76060398,145653.88549849,169577.08623816]},{"type":"Feature","id":"StreetAxes.fid--2dded296_1a02c23f8dc_-578e","geometry":{"type":"LineString","coordinates":[[145613.35812358,169889.46477567],[145610.58792679,169884.93758972],[145532.576,169835.586],[145523.58890862,169826.64150947]]},"geometry_name":"GEOM","properties":{"INSPIRE_ID":"https://databrussels.be/id/streetaxe/85068","TYPE":"S","HIERARCHY":"DR","LVL":0,"STARTSN_ID":"https://databrussels.be/id/streetnode/7254","ENDSN_ID":"https://databrussels.be/id/streetnode/6338","STRNAMEFRE":"Rue de l'Agrément","STRNAMEDUT":"Vermaakstraat","SLOPE":2.37,"LENGTH":110.298711270607},"bbox":[145523.58890862,169826.64150947,145613.35812358,169889.46477567]},{"type":"Feature","id":"StreetAxes.fid--2dded296_1a02c23f8dc_-577c","geometry":{"type":"LineString","coordinates":[[145989.08246632,169944.72964642],[145982.2422685,169944.80372501],[145972.85268959,169947.25520295]]},"geometry_name":"GEOM","properties":{"INSPIRE_ID":"https://databrussels.be/id/streetaxe/85810","TYPE":"S","HIERARCHY":"DR","LVL":0,"STARTSN_ID":"https://databrussels.be/id/streetnode/5694","ENDSN_ID":"https://databrussels.be/id/streetnode/6341","STRNAMEFRE":"Place du Repos","STRNAMEDUT":"Rustplein","SLOPE":4.47,"LENGTH":16.5449245874166},"bbox":[145972.85268959,169944.72964642,145989.08246632,169947.25520295]},{"type":"Feature","id":"StreetAxes.fid--2dded296_1a02c23f8dc_-5739","geometry":{"type":"LineString","coordinates":[[145648.029,169797.528],[145656.554,169798.844],[145743.104,169794.614],[145748.2745842,169794.75477646]]},"geometry_name":"GEOM","properties":{"INSPIRE_ID":"https://databrussels.be/id/streetaxe/86180","TYPE":"S","HIERARCHY":"DR","LVL":0,"STARTSN_ID":"https://databrussels.be/id/streetnode/3711","ENDSN_ID":"https://databrussels.be/id/streetnode/6801","STRNAMEFRE":"Rue du Serment","STRNAMEDUT":"Eedstraat","SLOPE":1.91,"LENGTH":100.451783135904},"bbox":[145648.029,169794.614,145748.2745842,169798.844]},{"type":"Feature","id":"StreetAxes.fid--2dded296_1a02c23f8dc_-5759","geometry":{"type":"LineString","coordinates":[[145941.45,169534.286],[145939.596,169542.022],[145881.097,169765.696],[145874.99917236,169772.49688166]]},"geometry_name":"GEOM","properties":{"INSPIRE_ID":"https://databrussels.be/id/streetaxe/86188","TYPE":"S","HIERARCHY":"DR","LVL":0,"STARTSN_ID":"https://databrussels.be/id/streetnode/3775","ENDSN_ID":"https://databrussels.be/id/streetnode/7699","STRNAMEFRE":"Rue du Greffe","STRNAMEDUT":"Griffiestraat","SLOPE":0.53,"LENGTH":248.286664602301},"bbox":[145874.99917236,169534.286,145941.45,169772.49688166]},{"type":"Feature","id":"StreetAxes.fid--2dded296_1a02c23f8dc_-575d","geometry":{"type":"LineString","coordinates":[[145817.969,169720.726],[145823.10581211,169725.31870369],[145852.40955677,169751.8796449],[145859.93014471,169758.81314247]]},"geometry_name":"GEOM","properties":{"INSPIRE_ID":"https://databrussels.be/id/streetaxe/86189","TYPE":"S","HIERARCHY":"DR","LVL":0,"STARTSN_ID":"https://databrussels.be/id/streetnode/3609","ENDSN_ID":"https://databrussels.be/id/streetnode/7581","STRNAMEFRE":"Rue d'Aumale","STRNAMEDUT":"d'Aumalestraat","SLOPE":1.55,"LENGTH":56.6694461064802},"bbox":[145817.969,169720.726,145859.93014471,169758.81314247]},{"type":"Feature","id":"StreetAxes.fid--2dded296_1a02c23f8dc_-5776","geometry":{"type":"LineString","coordinates":[[145534.52707914,169777.0705548],[145532.51932884,169786.63407286],[145528.3924182,169806.29178853],[145527.09960832,169813.50606029],[145523.58890862,169826.64150947]]},"geometry_name":"GEOM","properties":{"INSPIRE_ID":"https://databrussels.be/id/streetaxe/86192","TYPE":"S","HIERARCHY":"DR","LVL":0,"STARTSN_ID":"https://databrussels.be/id/streetnode/6808","ENDSN_ID":"https://databrussels.be/id/streetnode/6338","STRNAMEFRE":"Place de Sainte-Adresse","STRNAMEDUT":"Sainte-Adresseplein","SLOPE":7.03,"LENGTH":50.7839427437174},"bbox":[145523.58890862,169777.0705548,145534.52707914,169826.64150947]},{"type":"Feature","id":"StreetAxes.fid--2dded296_1a02c23f8dc_-5798","geometry":{"type":"LineString","coordinates":[[145507.62184387,169995.44861561],[145500.17536628,170000.71594857],[145435.67975553,170079.32755946],[145429.36403938,170086.93378163]]},"geometry_name":"GEOM","properties":{"INSPIRE_ID":"https://databrussels.be/id/streetaxe/87410","TYPE":"S","HIERARCHY":"IDR","LVL":0,"STARTSN_ID":"https://databrussels.be/id/streetnode/6069","ENDSN_ID":"https://databrussels.be/id/streetnode/6060","STRNAMEFRE":"Boulevard Prince de Liège","STRNAMEDUT":"Prins van Luiklaan","SLOPE":4.02,"LENGTH":120.690800314486},"bbox":[145429.36403938,169995.44861561,145507.62184387,170086.93378163]},{"type":"Feature","id":"StreetAxes.fid--2dded296_1a02c23f8dc_-5774","geometry":{"type":"LineString","coordinates":[[145486.01202825,169955.65422741],[145512.10440488,169833.122758],[145512.59899953,169819.77323198]]},"geometry_name":"GEOM","properties":{"INSPIRE_ID":"https://databrussels.be/id/streetaxe/89089","TYPE":"S","HIERARCHY":"DR","LVL":0,"STARTSN_ID":"https://databrussels.be/id/streetnode/8504","ENDSN_ID":"https://databrussels.be/id/streetnode/8487","STRNAMEFRE":"Avenue Charles Plisnier","STRNAMEDUT":"Charles Plisnierlaan","SLOPE":5.5,"LENGTH":138.637466722703},"bbox":[145486.01202825,169819.77323198,145512.59899953,169955.65422741]},{"type":"Feature","id":"StreetAxes.fid--2dded296_1a02c23f8dc_-5748","geometry":{"type":"LineString","coordinates":[[145501.72524344,169771.03246458],[145527.00383972,169775.83260896],[145534.52707914,169777.0705548]]},"geometry_name":"GEOM","properties":{"INSPIRE_ID":"https://databrussels.be/id/streetaxe/89095","TYPE":"S","HIERARCHY":"DR","LVL":0,"STARTSN_ID":"https://databrussels.be/id/streetnode/6325","ENDSN_ID":"https://databrussels.be/id/streetnode/6808","STRNAMEFRE":"Place de Sainte-Adresse","STRNAMEDUT":"Sainte-Adresseplein","SLOPE":0.27,"LENGTH":33.3547201659746},"bbox":[145501.72524344,169771.03246458,145534.52707914,169777.0705548]},{"type":"Feature","id":"StreetAxes.fid--2dded296_1a02c23f8dc_-5772","geometry":{"type":"LineString","coordinates":[[145495.59954876,169957.69583515],[145523.58890862,169826.64150947]]},"geometry_name":"GEOM","properties":{"INSPIRE_ID":"https://databrussels.be/id/streetaxe/89107","TYPE":"S","HIERARCHY":"DR","LVL":0,"STARTSN_ID":"https://databrussels.be/id/streetnode/6056","ENDSN_ID":"https://databrussels.be/id/streetnode/6338","STRNAMEFRE":"Avenue Charles Plisnier","STRNAMEDUT":"Charles Plisnierlaan","SLOPE":5.37,"LENGTH":134.009852421578},"bbox":[145495.59954876,169826.64150947,145523.58890862,169957.69583515]},{"type":"Feature","id":"StreetAxes.fid--2dded296_1a02c23f8dc_-5789","geometry":{"type":"LineString","coordinates":[[145638.28554361,169888.72376878],[145646.77946646,169889.53994095],[145652.89720979,169891.01345575],[145657.84743814,169894.2228355]]},"geometry_name":"GEOM","properties":{"INSPIRE_ID":"https://databrussels.be/id/streetaxe/89206","TYPE":"S","HIERARCHY":"IDR","LVL":0,"STARTSN_ID":"https://databrussels.be/id/streetnode/7255","ENDSN_ID":"https://databrussels.be/id/streetnode/7532","STRNAMEFRE":"Place de la Beauté","STRNAMEDUT":"Schoonheidsplein","SLOPE":1.16,"LENGTH":20.725307833613},"bbox":[145638.28554361,169888.72376878,145657.84743814,169894.2228355]},{"type":"Feature","id":"StreetAxes.fid--2dded296_1a02c23f8dc_-5796","geometry":{"type":"LineString","coordinates":[[145623.33711648,170029.90965042],[145612.62,170026.576],[145535.677,170002.5185],[145529.69542084,169997.94152486]]},"geometry_name":"GEOM","properties":{"INSPIRE_ID":"https://databrussels.be/id/streetaxe/89210","TYPE":"S","HIERARCHY":"DR","LVL":0,"STARTSN_ID":"https://databrussels.be/id/streetnode/6853","ENDSN_ID":"https://databrussels.be/id/streetnode/8478","STRNAMEFRE":"Rue Démosthène","STRNAMEDUT":"Demosthenesstraat","SLOPE":1.81,"LENGTH":99.3717305005002},"bbox":[145529.69542084,169997.94152486,145623.33711648,170029.90965042]},{"type":"Feature","id":"StreetAxes.fid--2dded296_1a02c23f8dc_-5775","geometry":{"type":"LineString","coordinates":[[145342.362,169842.626],[145353.19546514,169839.49449812],[145501.15,169817.384],[145512.59899953,169819.77323198]]},"geometry_name":"GEOM","properties":{"INSPIRE_ID":"https://databrussels.be/id/streetaxe/89211","TYPE":"S","HIERARCHY":"DR","LVL":0,"STARTSN_ID":"https://databrussels.be/id/streetnode/4041","ENDSN_ID":"https://databrussels.be/id/streetnode/8487","STRNAMEFRE":"Rue Pierre Vandevoorde","STRNAMEDUT":"Pierre Vandevoordestraat","SLOPE":0.71,"LENGTH":172.57014249522},"bbox":[145342.362,169817.384,145512.59899953,169842.626]},{"type":"Feature","id":"StreetAxes.fid--2dded296_1a02c23f8dc_-5777","geometry":{"type":"LineString","coordinates":[[145512.59899953,169819.77323198],[145508.77332584,169805.4567634],[145503.71732584,169783.7617634],[145501.72524344,169771.03246458]]},"geometry_name":"GEOM","properties":{"INSPIRE_ID":"https://databrussels.be/id/streetaxe/89289","TYPE":"S","HIERARCHY":"DR","LVL":0,"STARTSN_ID":"https://databrussels.be/id/streetnode/8487","ENDSN_ID":"https://databrussels.be/id/streetnode/6325","STRNAMEFRE":"Place de Sainte-Adresse","STRNAMEDUT":"Sainte-Adresseplein","SLOPE":6.52,"LENGTH":49.9793984125431},"bbox":[145501.72524344,169771.03246458,145512.59899953,169819.77323198]},{"type":"Feature","id":"StreetAxes.fid--2dded296_1a02c23f8dc_-5781","geometry":{"type":"LineString","coordinates":[[145531.0288611,169985.87369427],[145535.04418632,169981.98760301],[145571.80563252,169937.09154389],[145577.81067228,169930.30626146],[145584.72943785,169925.02527652],[145606.23428964,169911.6963104],[145612.11949624,169908.85808732]]},"geometry_name":"GEOM","properties":{"INSPIRE_ID":"https://databrussels.be/id/streetaxe/89294","TYPE":"S","HIERARCHY":"IDR","LVL":0,"STARTSN_ID":"https://databrussels.be/id/streetnode/8491","ENDSN_ID":"https://databrussels.be/id/streetnode/7955","STRNAMEFRE":"Rue Cyriel Buysse","STRNAMEDUT":"Cyriel Buyssestraat","SLOPE":4.73,"LENGTH":113.213556583299},"bbox":[145531.0288611,169908.85808732,145612.11949624,169985.87369427]},{"type":"Feature","id":"StreetAxes.fid--2dded296_1a02c23f8dc_-5751","geometry":{"type":"LineString","coordinates":[[145997.982,169548.918],[145999.774,169542.178],[146013.11,169490.376],[146015.331,169481.747]]},"geometry_name":"GEOM","properties":{"INSPIRE_ID":"https://databrussels.be/id/streetaxe/89422","TYPE":"P","HIERARCHY":"DR","LVL":0,"STARTSN_ID":"https://databrussels.be/id/streetnode/3078","ENDSN_ID":"https://databrussels.be/id/streetnode/2579","STRNAMEFRE":"Place de la Résistance","STRNAMEDUT":"Verzetsplein","SLOPE":0.25,"LENGTH":69.3754870705315},"bbox":[145997.982,169481.747,146015.331,169548.918]},{"type":"Feature","id":"StreetAxes.fid--2dded296_1a02c23f8dc_-5753","geometry":{"type":"LineString","coordinates":[[145959.387,169467.261],[145956.611,169475.41],[145943.172,169527.1],[145941.45,169534.286]]},"geometry_name":"GEOM","properties":{"INSPIRE_ID":"https://databrussels.be/id/streetaxe/89425","TYPE":"P","HIERARCHY":"DR","LVL":0,"STARTSN_ID":"https://databrussels.be/id/streetnode/445","ENDSN_ID":"https://databrussels.be/id/streetnode/3775","STRNAMEFRE":"Place de la Résistance","STRNAMEDUT":"Verzetsplein","SLOPE":0.2,"LENGTH":69.406751102817},"bbox":[145941.45,169467.261,145959.387,169534.286]},{"type":"Feature","id":"StreetAxes.fid--2dded296_1a02c23f8dc_-577a","geometry":{"type":"LineString","coordinates":[[145972.85268959,169947.25520295],[145945.633,169956.306]]},"geometry_name":"GEOM","properties":{"INSPIRE_ID":"https://databrussels.be/id/streetaxe/89427","TYPE":"I","HIERARCHY":"DR","LVL":0,"STARTSN_ID":"https://databrussels.be/id/streetnode/6341","ENDSN_ID":"https://databrussels.be/id/streetnode/2737","STRNAMEFRE":"Rue du Souvenir","STRNAMEDUT":"Gedachtenisstraat","SLOPE":5.93,"LENGTH":28.6849861152955},"bbox":[145945.633,169947.25520295,145972.85268959,169956.306]},{"type":"Feature","id":"StreetAxes.fid--2dded296_1a02c23f8dc_-5755","geometry":{"type":"LineString","coordinates":[[145945.26418964,169815.04468087],[145933.08494375,169814.93557085]]},"geometry_name":"GEOM","properties":{"INSPIRE_ID":"https://databrussels.be/id/streetaxe/89507","TYPE":"I","HIERARCHY":"IDR","LVL":0,"STARTSN_ID":"https://databrussels.be/id/streetnode/6668","ENDSN_ID":"https://databrussels.be/id/streetnode/6799","STRNAMEFRE":"Rue d'Aumale","STRNAMEDUT":"d'Aumalestraat","SLOPE":0.25,"LENGTH":12.1797346193401},"bbox":[145933.08494375,169814.93557085,145945.26418964,169815.04468087]},{"type":"Feature","id":"StreetAxes.fid--2dded296_1a02c23f8dc_-5773","geometry":{"type":"LineString","coordinates":[[145523.58890862,169826.64150947],[145512.59899953,169819.77323198]]},"geometry_name":"GEOM","properties":{"INSPIRE_ID":"https://databrussels.be/id/streetaxe/89807","TYPE":"I","HIERARCHY":"DR","LVL":0,"STARTSN_ID":"https://databrussels.be/id/streetnode/6338","ENDSN_ID":"https://databrussels.be/id/streetnode/8487","STRNAMEFRE":"Rue Pierre Vandevoorde","STRNAMEDUT":"Pierre Vandevoordestraat","SLOPE":3.09,"LENGTH":12.9596040558081},"bbox":[145512.59899953,169819.77323198,145523.58890862,169826.64150947]},{"type":"Feature","id":"StreetAxes.fid--2dded296_1a02c23f8dc_-576d","geometry":{"type":"LineString","coordinates":[[145507.62184387,169995.44861561],[145506.45239424,169992.04657843],[145506.46310334,169987.28073098]]},"geometry_name":"GEOM","properties":{"INSPIRE_ID":"https://databrussels.be/id/streetaxe/89810","TYPE":"I","HIERARCHY":"IDR","LVL":0,"STARTSN_ID":"https://databrussels.be/id/streetnode/6069","ENDSN_ID":"https://databrussels.be/id/streetnode/6345","STRNAMEFRE":"Boulevard Prince de Liège","STRNAMEDUT":"Prins van Luiklaan","SLOPE":8.42,"LENGTH":8.36328486702126},"bbox":[145506.45239424,169987.28073098,145507.62184387,169995.44861561]},{"type":"Feature","id":"StreetAxes.fid--2dded296_1a02c23f8dc_-5771","geometry":{"type":"LineString","coordinates":[[145506.46310334,169987.28073098],[145507.58802566,169984.03569317],[145509.87567386,169980.83259669],[145512.20727747,169979.02424417],[145515.1436709,169977.66675231],[145518.35450154,169977.09808257],[145522.53663998,169977.667823]]},"geometry_name":"GEOM","properties":{"INSPIRE_ID":"https://databrussels.be/id/streetaxe/90480","TYPE":"I","HIERARCHY":"IDR","LVL":0,"STARTSN_ID":"https://databrussels.be/id/streetnode/6345","ENDSN_ID":"https://databrussels.be/id/streetnode/8469","STRNAMEFRE":"Boulevard Prince de Liège","STRNAMEDUT":"Prins van Luiklaan","SLOPE":3.42,"LENGTH":21.0378689029551},"bbox":[145506.46310334,169977.09808257,145522.53663998,169987.28073098]},{"type":"Feature","id":"StreetAxes.fid--2dded296_1a02c23f8dc_-5749","geometry":{"type":"LineString","coordinates":[[145499.50652167,169756.85495245],[145501.72524344,169771.03246458]]},"geometry_name":"GEOM","properties":{"INSPIRE_ID":"https://databrussels.be/id/streetaxe/90485","TYPE":"I","HIERARCHY":"DR","LVL":0,"STARTSN_ID":"https://databrussels.be/id/streetnode/6065","ENDSN_ID":"https://databrussels.be/id/streetnode/6325","STRNAMEFRE":"Rue du Broeck","STRNAMEDUT":"Broekstraat","SLOPE":2.79,"LENGTH":14.3500723554453},"bbox":[145499.50652167,169756.85495245,145501.72524344,169771.03246458]},{"type":"Feature","id":"StreetAxes.fid--2dded296_1a02c23f8dc_-5740","geometry":{"type":"LineString","coordinates":[[145600.40000261,169462.81604076],[145598.47934907,169467.10737697],[145591.7217394,169533.85468048],[145590.83647562,169542.59874429]]},"geometry_name":"GEOM","properties":{"INSPIRE_ID":"https://databrussels.be/id/streetaxe/90887","TYPE":"P","HIERARCHY":"DR","LVL":0,"STARTSN_ID":"https://databrussels.be/id/streetnode/7594","ENDSN_ID":"https://databrussels.be/id/streetnode/7580","STRNAMEFRE":"Place de la Vaillance","STRNAMEDUT":"Dapperheidsplein","SLOPE":0.86,"LENGTH":80.5788094826202},"bbox":[145590.83647562,169462.81604076,145600.40000261,169542.59874429]},{"type":"Feature","id":"StreetAxes.fid--2dded296_1a02c23f8dc_-5790","geometry":{"type":"LineString","coordinates":[[145945.26418964,169815.04468087],[145943.68860886,169823.47467116],[145939.82241012,169831.25969136]]},"geometry_name":"GEOM","properties":{"INSPIRE_ID":"https://databrussels.be/id/streetaxe/90889","TYPE":"I","HIERARCHY":"IDR","LVL":0,"STARTSN_ID":"https://databrussels.be/id/streetnode/6668","ENDSN_ID":"https://databrussels.be/id/streetnode/6794","STRNAMEFRE":"Rue d'Aumale","STRNAMEDUT":"d'Aumalestraat","SLOPE":0.46,"LENGTH":17.2681481459148},"bbox":[145939.82241012,169815.04468087,145945.26418964,169831.25969136]},{"type":"Feature","id":"StreetAxes.fid--2dded296_1a02c23f8dc_-5757","geometry":{"type":"LineString","coordinates":[[145933.08494375,169814.93557085],[145921.524,169814.832]]},"geometry_name":"GEOM","properties":{"INSPIRE_ID":"https://databrussels.be/id/streetaxe/90894","TYPE":"I","HIERARCHY":"IDR","LVL":0,"STARTSN_ID":"https://databrussels.be/id/streetnode/6799","ENDSN_ID":"https://databrussels.be/id/streetnode/207","STRNAMEFRE":"Rue d'Aumale","STRNAMEDUT":"d'Aumalestraat","SLOPE":0.17,"LENGTH":11.5614076709918},"bbox":[145921.524,169814.832,145933.08494375,169814.93557085]},{"type":"Feature","id":"StreetAxes.fid--2dded296_1a02c23f8dc_-575b","geometry":{"type":"LineString","coordinates":[[145859.93014471,169758.81314247],[145874.99917236,169772.49688166]]},"geometry_name":"GEOM","properties":{"INSPIRE_ID":"https://databrussels.be/id/streetaxe/90898","TYPE":"I","HIERARCHY":"DR","LVL":0,"STARTSN_ID":"https://databrussels.be/id/streetnode/7581","ENDSN_ID":"https://databrussels.be/id/streetnode/7699","STRNAMEFRE":"Rue d'Aumale","STRNAMEDUT":"d'Aumalestraat","SLOPE":0.49,"LENGTH":20.3548596857311},"bbox":[145859.93014471,169758.81314247,145874.99917236,169772.49688166]},{"type":"Feature","id":"StreetAxes.fid--2dded296_1a02c23f8dc_-5785","geometry":{"type":"LineString","coordinates":[[145608.82211204,169901.91130136],[145609.89272312,169905.41354969],[145612.11949624,169908.85808732]]},"geometry_name":"GEOM","properties":{"INSPIRE_ID":"https://databrussels.be/id/streetaxe/90899","TYPE":"I","HIERARCHY":"IDR","LVL":0,"STARTSN_ID":"https://databrussels.be/id/streetnode/7757","ENDSN_ID":"https://databrussels.be/id/streetnode/7955","STRNAMEFRE":"Place de la Beauté","STRNAMEDUT":"Schoonheidsplein","SLOPE":1.16,"LENGTH":7.76386182897009},"bbox":[145608.82211204,169901.91130136,145612.11949624,169908.85808732]},{"type":"Feature","id":"StreetAxes.fid--2dded296_1a02c23f8dc_-576e","geometry":{"type":"LineString","coordinates":[[145531.0288611,169985.87369427],[145531.49018834,169992.57407821],[145529.69542084,169997.94152486]]},"geometry_name":"GEOM","properties":{"INSPIRE_ID":"https://databrussels.be/id/streetaxe/92826","TYPE":"I","HIERARCHY":"IDR","LVL":0,"STARTSN_ID":"https://databrussels.be/id/streetnode/8491","ENDSN_ID":"https://databrussels.be/id/streetnode/8478","STRNAMEFRE":"Boulevard Prince de Liège","STRNAMEDUT":"Prins van Luiklaan","SLOPE":4.36,"LENGTH":12.3758113693842},"bbox":[145529.69542084,169985.87369427,145531.49018834,169997.94152486]},{"type":"Feature","id":"StreetAxes.fid--2dded296_1a02c23f8dc_-5797","geometry":{"type":"LineString","coordinates":[[145529.69542084,169997.94152486],[145525.89999635,170000.7513137],[145521.2123594,170002.5080087],[145517.2131271,170002.54586571]]},"geometry_name":"GEOM","properties":{"INSPIRE_ID":"https://databrussels.be/id/streetaxe/92830","TYPE":"I","HIERARCHY":"IDR","LVL":0,"STARTSN_ID":"https://databrussels.be/id/streetnode/8478","ENDSN_ID":"https://databrussels.be/id/streetnode/6332","STRNAMEFRE":"Boulevard Prince de Liège","STRNAMEDUT":"Prins van Luiklaan","SLOPE":9.91,"LENGTH":13.7277042043992},"bbox":[145517.2131271,169997.94152486,145529.69542084,170002.54586571]},{"type":"Feature","id":"StreetAxes.fid--2dded296_1a02c23f8dc_-5762","geometry":{"type":"LineString","coordinates":[[145752.44673907,169719.47675227],[145781.97858672,169688.02309514]]},"geometry_name":"GEOM","properties":{"INSPIRE_ID":"https://databrussels.be/id/streetaxe/94563","TYPE":"S","HIERARCHY":"DR","LVL":0,"STARTSN_ID":"https://databrussels.be/id/streetnode/7694","ENDSN_ID":"https://databrussels.be/id/streetnode/6824","STRNAMEFRE":"Rue du Devoir","STRNAMEDUT":"Plichtstraat","SLOPE":0.63,"LENGTH":43.1446702664457},"bbox":[145752.44673907,169688.02309514,145781.97858672,169719.47675227]},{"type":"Feature","id":"StreetAxes.fid--2dded296_1a02c23f8dc_-573c","geometry":{"type":"LineString","coordinates":[[145628.64989792,169651.0344335],[145620.973443,169639.23453874],[145614.88123901,169629.17894608],[145612.858,169621.024],[145613.15530521,169615.71149702]]},"geometry_name":"GEOM","properties":{"INSPIRE_ID":"https://databrussels.be/id/streetaxe/94660","TYPE":"S","HIERARCHY":"DR","LVL":0,"STARTSN_ID":"https://databrussels.be/id/streetnode/2007","ENDSN_ID":"https://databrussels.be/id/streetnode/2006","STRNAMEFRE":"Rue du Chapelain","STRNAMEDUT":"Kapelaansstraat","SLOPE":1.44,"LENGTH":39.5572432916625},"bbox":[145612.858,169615.71149702,145628.64989792,169651.0344335]},{"type":"Feature","id":"StreetAxes.fid--2dded296_1a02c23f8dc_-573d","geometry":{"type":"LineString","coordinates":[[145610.47197119,169479.29439209],[145620.88548156,169481.19332224],[145637.4267968,169496.49922769],[145666.3047183,169519.73041259],[145680.95257672,169534.31928046],[145691.21457136,169551.69643445],[145696.6781133,169553.12205832]]},"geometry_name":"GEOM","properties":{"INSPIRE_ID":"https://databrussels.be/id/streetaxe/94845","TYPE":"S","HIERARCHY":"DR","LVL":0,"STARTSN_ID":"https://databrussels.be/id/streetnode/7477","ENDSN_ID":"https://databrussels.be/id/streetnode/7476","STRNAMEFRE":"Rue du Chapitre","STRNAMEDUT":"Kapittelstraat","SLOPE":1.6,"LENGTH":116.685002528519},"bbox":[145610.47197119,169479.29439209,145696.6781133,169553.12205832]},{"type":"Feature","id":"StreetAxes.fid--2dded296_1a02c23f8dc_-5782","geometry":{"type":"LineString","coordinates":[[145989.08246632,169944.72964642],[145992.42,169937.6875],[146011.126,169907.806],[146019.318,169904.287]]},"geometry_name":"GEOM","properties":{"INSPIRE_ID":"https://databrussels.be/id/streetaxe/95043","TYPE":"S","HIERARCHY":"DR","LVL":0,"STARTSN_ID":"https://databrussels.be/id/streetnode/5694","ENDSN_ID":"https://databrussels.be/id/streetnode/583","STRNAMEFRE":"Avenue de l'Eternité","STRNAMEDUT":"Eeuwigheidslaan","SLOPE":5.22,"LENGTH":51.962478897847},"bbox":[145989.08246632,169904.287,146019.318,169944.72964642]}],"numberReturned":103,"grand_bruxelles_source":{"authority":"Paradigm / Brussels-Capital Region","service":"https://geoservices-urbis.irisnet.be/geoserver/urbisvector/wfs","layer":"urbisvector:StreetAxes","crs":"EPSG:31370","bbox":[145500.0,169500.0,146000.0,170000.0],"cell_id":"bxl-e145500-n169500-s500","ownership":"bbox_intersection_source_unclipped"}}
