{"type":"FeatureCollection","totalFeatures":8,"numberMatched":8,"timeStamp":"2026-08-24T03:40:52.651Z","crs":{"type":"name","properties":{"name":"urn:ogc:def:crs:EPSG::31370"}},"bbox":[153904.086,163801.72000036,155102.08155284,164805.8863563],"features":[{"type":"Feature","id":"StreetSurfaces.fid-3eeeb196_1a03168f6ba_-484a","geometry":{"type":"Polygon","coordinates":[[[154784.3277989,163882.41464298],[154787.29,163881.50000036],[154788.11371136,163887.23576389],[154792.00812815,163912.76724133],[154795.36825592,163934.90658529],[154798.05840359,163951.26021668],[154801.5934532,163973.65731709],[154804.1390299,163989.41446323],[154805.68537754,164000.00000036],[154808.34106074,164018.05646034],[154812.29060376,164040.9210791],[154815.77620834,164064.22536402],[154819.56578323,164090.36748233],[154822.26280344,164108.29173072],[154824.94171954,164127.28345504],[154828.88486886,164153.87672048],[154832.152268,164174.34161845],[154834.7493585,164190.78337859],[154837.70669278,164212.11121605],[154840.58302345,164230.51172193],[154843.30913118,164248.39154869],[154846.73273028,164268.79667716],[154848.44818484,164281.30418204],[154849.1128504,164287.20803114],[154852.77894454,164309.61632895],[154855.81124901,164327.07643987],[154858.55537826,164343.56717096],[154861.24633138,164360.43958972],[154857.84417755,164360.95606931],[154849.9360145,164310.87123438],[154846.65894288,164286.01610999],[154841.38160647,164255.02693353],[154829.81684211,164178.11843299],[154824.11314195,164141.00548435],[154820.45777921,164114.16269944],[154810.04856773,164045.19303812],[154805.45513271,164016.59842838],[154799.94417896,163980.40597127],[154796.91711768,163963.57900444],[154793.31943938,163940.47488114],[154789.84572395,163917.15893755],[154786.94149098,163898.912793],[154785.17695745,163887.77193905],[154784.3277989,163882.41464298]]]},"geometry_name":"GEOM","properties":{"INSPIRE_ID":"https://databrussels.be/id/streetsurface/38499","TYPE":"S","STREET_ID":"https://databrussels.be/id/streetname/5333","STRNAMEFRE":"Drève du Comte de Flandre","STRNAMEDUT":"Graaf van Vlaanderendreef","MUNNISCODE":"21017","HIERARCHY":"T","LVL":0,"ADMIN":"MUN_RBC","AREA":1385},"bbox":[154784.3277989,163881.50000036,154861.24633138,164360.95606931]},{"type":"Feature","id":"StreetSurfaces.fid-3eeeb196_1a03168f6ba_-4849","geometry":{"type":"Polygon","coordinates":[[[154872.09200845,164364.92670109],[154940.42150301,164309.11585859],[154948.03914165,164303.10292064],[155000,164261.12966251],[155012.59232299,164250.87101435],[155022.36787137,164243.20518101],[155031.87743463,164235.10632744],[155044.21565691,164224.79630483],[155052.956393,164217.63077748],[155062.70629662,164210.0332269],[155071.54717192,164202.97301145],[155080.26686129,164195.73011063],[155090.84180645,164186.93997408],[155099.58532812,164179.92258169],[155100.98820123,164183.60188455],[155097.53821768,164186.45456059],[155091.90013233,164191.11484323],[155082.01508293,164199.16393196],[155071.3102199,164207.67376719],[155062.13201896,164215.42373249],[155052.36075418,164223.2078172],[155044.73342399,164229.73455151],[155036.10765281,164237.03078065],[155028.20328759,164243.56314808],[155016.60967388,164252.70044315],[155000,164265.84445414],[154944.49056512,164310.89128907],[154934.17928187,164318.75207735],[154883.18370925,164361.44079879],[154874.6536192,164368.10757369],[154872.09200845,164364.92670109]]]},"geometry_name":"GEOM","properties":{"INSPIRE_ID":"https://databrussels.be/id/streetsurface/38500","TYPE":"S","STREET_ID":"https://databrussels.be/id/streetname/716","STRNAMEFRE":"Drève de Bonne Odeur","STRNAMEDUT":"Willeriekendreef","MUNNISCODE":"21017","HIERARCHY":"T","LVL":0,"ADMIN":"MUN_RBC","AREA":1130},"bbox":[154872.09200845,164179.92258169,155100.98820123,164368.10757369]},{"type":"Feature","id":"StreetSurfaces.fid-3eeeb196_1a03168f6ba_-484b","geometry":{"type":"Polygon","coordinates":[[[154963.86,163802.33000036],[154965.88,163801.72000036],[154978.86,163831.27000036],[154988.57,163855.01000036],[155003.46,163890.46000036],[155009.45,163905.13000036],[155048.38,163996.97000036],[155050.18,164001.73000036],[155060.91,164035.53000036],[155069.72,164062.53000036],[155079.6,164100.54000036],[155086.37,164124.31000036],[155092.24,164143.97000036],[155102.08155284,164177.91915687],[155099.58532812,164179.92258169],[155095.39,164164.24000036],[155089.3,164140.20000036],[155082.7,164119.54000036],[155074.68,164090.03000036],[155069.27,164069.26000036],[155061.99,164045.32000036],[155054.84,164024.46000036],[155047.76,164002.23000036],[155038.11,163978.73000036],[155004.76,163899.26000036],[154992.78,163870.38000036],[154973.57,163824.86000036],[154963.86,163802.33000036]]]},"geometry_name":"GEOM","properties":{"INSPIRE_ID":"https://databrussels.be/id/streetsurface/38501","TYPE":"S","STREET_ID":"https://databrussels.be/id/streetname/5332","STRNAMEFRE":"Drève du Relais des Dames","STRNAMEDUT":"Damesrustdreef","MUNNISCODE":"21017","HIERARCHY":"T","LVL":0,"ADMIN":"MUN_RBC","AREA":891},"bbox":[154963.86,163801.72000036,155102.08155284,164179.92258169]},{"type":"Feature","id":"StreetSurfaces.fid-3eeeb196_1a03168f6ba_-4846","geometry":{"type":"Polygon","coordinates":[[[154865.55621599,164389.88700736],[154868.39765285,164407.902741],[154871.20968226,164425.89793069],[154874.17727693,164443.81110791],[154876.81481825,164461.2795085],[154879.28881855,164476.20460031],[154882.41454568,164495.49530793],[154885.53854245,164515.00939637],[154889.2363073,164536.32998311],[154891.22596334,164551.87758138],[154893.57055147,164567.93712538],[154896.41429877,164585.6062501],[154898.17884624,164596.74897499],[154900.20333529,164610.69452385],[154902.66896569,164627.55503344],[154905.0272778,164642.57872966],[154907.13386242,164654.63737988],[154909.14930949,164667.32078608],[154912.63654177,164690.28424628],[154914.46674621,164702.1762486],[154915.92847857,164711.28137225],[154918.49826791,164728.9337683],[154923.09415916,164758.74626931],[154926.06458479,164778.67741413],[154928.27406933,164795.68632202],[154930.33776915,164805.8863563],[154926.36453763,164805.66930492],[154925.63338496,164801.58387115],[154921.90862837,164773.86936193],[154919.28652219,164755.83904424],[154913.62778889,164720.76671843],[154910.24825924,164702.67315853],[154899.02753963,164626.64133188],[154885.2518034,164540.15799109],[154882.11610489,164520.43376046],[154865.80192857,164411.86627671],[154863.91440417,164398.38198321],[154862.05500905,164390.58443987],[154865.55621599,164389.88700736]]]},"geometry_name":"GEOM","properties":{"INSPIRE_ID":"https://databrussels.be/id/streetsurface/38527","TYPE":"S","STREET_ID":"https://databrussels.be/id/streetname/5333","STRNAMEFRE":"Drève du Comte de Flandre","STRNAMEDUT":"Graaf van Vlaanderendreef","MUNNISCODE":"21017","HIERARCHY":"T","LVL":0,"ADMIN":"MUN_RBC","AREA":1573},"bbox":[154862.05500905,164389.88700736,154930.33776915,164805.8863563]},{"type":"Feature","id":"StreetSurfaces.fid-3eeeb196_1a03168f6ba_-4847","geometry":{"type":"Polygon","coordinates":[[[154548.153,164632.34400036],[154545.24,164629.36000036],[154552.4,164624.28000036],[154575.298,164605.45400036],[154593.3,164590.81000036],[154653.49,164541.85000036],[154675.91,164524.24000036],[154705.98,164498.96000036],[154741.12,164471.46000036],[154771.8,164445.88000036],[154798.16,164424.49000036],[154846.05,164386.86000036],[154846.829,164386.21600036],[154851.825,164382.08600036],[154853.692,164380.32500036],[154855.15,164386.38000036],[154848.85,164388.66000036],[154817.57,164412.02000036],[154688.07,164516.44000036],[154652.85,164545.24000036],[154617.20504031,164573.98556287],[154584.34,164600.31000036],[154560.91,164619.89000036],[154548.153,164632.34400036]]]},"geometry_name":"GEOM","properties":{"INSPIRE_ID":"https://databrussels.be/id/streetsurface/38528","TYPE":"S","STREET_ID":"https://databrussels.be/id/streetname/716","STRNAMEFRE":"Drève de Bonne Odeur","STRNAMEDUT":"Willeriekendreef","MUNNISCODE":"21017","HIERARCHY":"T","LVL":0,"ADMIN":"MUN_RBC","AREA":872},"bbox":[154545.24,164380.32500036,154855.15,164632.34400036]},{"type":"Feature","id":"StreetSurfaces.fid-3eeeb196_1a03168f6ba_-4845","geometry":{"type":"Polygon","coordinates":[[[154783.97658897,163880.07225748],[154784.3277989,163882.41464298],[154780.84,163883.68000036],[154749.93,163896.64000036],[154717.54,163911.29000036],[154656.74,163937.70000036],[154630.75,163949.56000036],[154581.36,163971.41000036],[154488.58,164013.19000036],[154452.09,164028.99000036],[154425.01,164041.01000036],[154372.34,164064.90000036],[154342.36,164077.74000036],[154315.22,164089.57000036],[154286.98,164101.74000036],[154251.12,164118.72000036],[154099.236,164190.63900036],[154092.243,164191.41500036],[154082.337,164190.46000036],[154075.176,164188.55000036],[154057.752,164182.58000036],[154042.714,164180.31200036],[154029.562,164181.67400036],[154027.176,164182.92300036],[154024.967,164184.46500036],[154021.224,164188.32500036],[154019.75,164190.58000036],[154010.52,164217.01400036],[154007.76,164216.04000036],[154013.36,164197.52000036],[154014.42,164192.07000036],[154015.8,164189.66400036],[154017.428,164187.41700036],[154019.284,164185.35600036],[154021.348,164183.50300036],[154023.597,164181.87900036],[154026.006,164180.50300036],[154028.547,164179.39000036],[154042.772,164177.79800036],[154058.704,164180.76600036],[154075.903,164186.16200036],[154083.999,164188.91100036],[154096.81,164189.23700036],[154102.145,164187.80700036],[154250.73,164117.45000036],[154272.61,164106.53000036],[154296.94,164095.83000036],[154318.91,164086.61000036],[154345.936,164074.75800036],[154398.29,164051.48000036],[154416.17,164043.23000036],[154442.99,164031.66000036],[154514.18,164000.00000036],[154557.61,163980.27000036],[154632.07,163947.28000036],[154698.92,163917.37000036],[154731.24,163903.45000036],[154770.93,163885.68000036],[154783.97658897,163880.07225748]]]},"geometry_name":"GEOM","properties":{"INSPIRE_ID":"https://databrussels.be/id/streetsurface/38723","TYPE":"S","STREET_ID":"https://databrussels.be/id/streetname/3109","STRNAMEFRE":"Chemin du Moulin","STRNAMEDUT":"Molenweg","MUNNISCODE":"21017","HIERARCHY":"T","LVL":0,"ADMIN":"MUN_RBC","AREA":1428},"bbox":[154007.76,163880.07225748,154784.3277989,164217.01400036]},{"type":"Feature","id":"StreetSurfaces.fid-3eeeb196_1a03168f6ba_-4844","geometry":{"type":"Polygon","coordinates":[[[154542.6,164631.74],[154540.36,164632.08],[154534.43,164632.23],[154527.577,164631.07],[154514.53,164627.57],[154435.92,164607.96],[154397.53,164599.04],[154335.63,164584.24],[154330.47,164582.88],[154301.36,164576.28],[154174.35,164545.32],[154141.52,164537.08],[154049.27,164514.85],[154014.08,164506.17],[153998.56,164503.4],[153969.82,164497.62],[153926.13,164486.63],[153912.79,164482.98],[153904.086,164478.796],[153904.795,164477.319],[153905.504,164475.842],[153911.19,164479],[153931.48,164485.68],[153969.99,164494.99],[154045.12,164512.28],[154150.27,164537.61],[154242.9,164560.13],[154276.2,164568.51],[154312.25,164576.78],[154413.96,164600.79],[154471.85,164614.89],[154528.1,164628.97],[154531.79,164629.61],[154538.99,164630.4],[154545.24,164629.36],[154542.6,164631.74]]]},"geometry_name":"GEOM","properties":{"INSPIRE_ID":"https://databrussels.be/id/streetsurface/38792","TYPE":"S","STREET_ID":"https://databrussels.be/id/streetname/5887","STRNAMEFRE":"Rue du Rouge-Gorge","STRNAMEDUT":"Roodborstjestraat","MUNNISCODE":"21017","HIERARCHY":"T","LVL":0,"ADMIN":"MUN_RBC","AREA":1231},"bbox":[153904.086,164475.842,154545.24,164632.23]},{"type":"Feature","id":"StreetSurfaces.fid-3eeeb196_1a03168f6ba_-4848","geometry":{"type":"Polygon","coordinates":[[[154872.09200845,164364.92670109],[154874.6536192,164368.10757369],[154863.71424015,164376.65735187],[154864.17769264,164379.71578755],[154864.39896034,164382.55211067],[154865.55621599,164389.88700736],[154862.05500905,164390.58443987],[154859.14,164387.50000036],[154855.15,164386.38000036],[154853.692,164380.32500036],[154855.317,164378.33700036],[154856.67,164376.15600036],[154857.731,164373.81800036],[154858.90811174,164371.35806298],[154857.84417755,164360.95606931],[154861.24633138,164360.43958972],[154861.74966263,164363.69262696],[154862.874,164364.95700036],[154864.275,164365.92300036],[154865.86,164366.54000036],[154867.545,164366.77600036],[154869.239,164366.61800036],[154872.09200845,164364.92670109]]]},"geometry_name":"GEOM","properties":{"INSPIRE_ID":"https://databrussels.be/id/streetsurface/38835","TYPE":"I","STREET_ID":"https://databrussels.be/id/streetname/716","STRNAMEFRE":"Drève de Bonne Odeur","STRNAMEDUT":"Willeriekendreef","MUNNISCODE":"21017","HIERARCHY":"T","LVL":0,"ADMIN":"MUN_RBC","AREA":264},"bbox":[154853.692,164360.43958972,154874.6536192,164390.58443987]}],"numberReturned":8,"grand_bruxelles_source":{"authority":"Paradigm / Brussels-Capital Region","service":"https://geoservices-urbis.irisnet.be/geoserver/urbisvector/wfs","layer":"urbisvector:StreetSurfaces","crs":"EPSG:31370","bbox":[154500.0,164000.0,155000.0,164500.0],"cell_id":"bxl-e154500-n164000-s500","ownership":"bbox_intersection_source_unclipped"}}
