{"type":"FeatureCollection","totalFeatures":24,"numberMatched":24,"timeStamp":"2026-08-23T02:06:48.211Z","crs":{"type":"name","properties":{"name":"urn:ogc:def:crs:EPSG::31370"}},"bbox":[145320.58963249,169137.806,146760.6,170193.43465918],"features":[{"type":"Feature","id":"TramNetwork.fid--6f55e203_1a02c11fc5a_b7b","geometry":{"type":"LineString","coordinates":[[145320.77476838,169170.67229622],[145324.52,169170.091],[145326.74999326,169169.74357685],[145328.99,169169.468],[145330.2815911,169169.3519414],[145331.577,169169.292],[145333.68433966,169169.33724297],[145335.782,169169.544],[145337.89002624,169169.95140862],[145339.949,169170.56],[145342.32166236,169171.55206996],[145344.584,169172.775],[145346.66220524,169174.20028585],[145348.632,169175.772],[145349.73260348,169176.73628764],[145350.803,169177.734],[145352.369,169179.186],[145356.006,169182.544],[145359.681,169185.94],[145378.074,169202.932],[145396.458,169219.918],[145414.841,169236.897],[145433.2109,169253.8644],[145451.612,169270.851],[145467.2949,169285.3462],[145471.5491,169289.39],[145479.6983,169297.5127],[145487.3977,169305.9794],[145496.42,169316.4305],[145503.4315,169325.294],[145512.5067,169336.8563],[145516.9517,169342.5713],[145522.7196,169349.9268],[145527.0247,169354.5699],[145530.2101,169357.1346],[145533.6999,169359.2666],[145538.2654,169361.3254],[145543.0397,169362.8385],[145552.6705,169365.2462],[145572.9906,169370.5114],[145589.0508,169374.6389],[145603.3714,169378.3563],[145621.0985,169383.0196],[145632.8725,169385.7316],[145655.759,169391.0894],[145679.3731,169397.1418],[145698.0594,169402.0696],[145924.61509651,169460.72965461],[145974.9411326,169474.08317737],[146044.91017848,169491.77311135],[146124.92508417,169511.87018441],[146149.83824008,169518.35765163],[146170.77426189,169523.69456376],[146187.15212261,169527.95196412],[146205.03320666,169532.56111551],[146224.07807653,169537.69182876],[146248.32967562,169543.8682649],[146267.11996735,169548.72346873],[146286.16483721,169553.66011245],[146316.56150495,169561.43038175],[146332.75257415,169565.45426735],[146356.78,169571.45],[146374.72,169576.05],[146385.65,169578.92],[146391.07,169580.46],[146393.76,169581.29],[146397.95,169582.75],[146402.08,169584.36],[146404.09165254,169585.23484644]]},"geometry_name":"GEOM","properties":{"INSPIRE_ID":"https://databrussels.be/id/rail/21314","TYPE":"TW","LVL":0,"SLOPE":null,"LENGTH":1190.25368054742},"bbox":[145320.77476838,169169.292,146404.09165254,169585.23484644]},{"type":"Feature","id":"TramNetwork.fid--6f55e203_1a02c11fc5a_b71","geometry":{"type":"LineString","coordinates":[[146726.40320242,169835.83038187],[146723.31,169834.23],[146719.017,169831.972],[146702.84,169823.353],[146692.658,169817.516],[146687.005,169814.118],[146680.819,169810.28],[146674.754,169806.424],[146663,169798.541],[146656.685,169794.146],[146648.319,169788.243],[146644.24,169785.31],[146593.23,169749.7],[146509.58,169690.62],[146507.61,169689.08],[146505.63,169687.55],[146503.7,169685.98],[146501.61,169684.18],[146499.57,169682.34],[146497.58,169680.44],[146495.79,169678.61],[146494.05,169676.73],[146492.31,169674.85],[146491.62,169674.04],[146490.94,169673.23],[146490.26,169672.41],[146488.2,169669.83],[146486.21,169667.18],[146485.07,169665.57],[146482.947,169662.447],[146480.979,169659.224],[146479.17,169655.91],[146478.79,169655.23],[146476.22,169650.49],[146475.21,169648.61],[146474.21,169646.73],[146473.21,169644.85],[146469.06,169638.68],[146464.91,169632.51],[146460.32,169626.71],[146458.67,169624.95],[146457.243,169623.498],[146456.98,169623.23],[146455.27,169621.54],[146452.42,169618.87],[146449.5,169616.28],[146446.54,169613.73],[146441.56,169609.55],[146436.48,169605.48],[146431.29,169601.57],[146427.49,169598.88],[146424.81422932,169597.06603598]]},"geometry_name":"GEOM","properties":{"INSPIRE_ID":"https://databrussels.be/id/rail/21318","TYPE":"TW","LVL":0,"SLOPE":null,"LENGTH":388.898407356055},"bbox":[146424.81422932,169597.06603598,146726.40320242,169835.83038187]},{"type":"Feature","id":"TramNetwork.fid--6f55e203_1a02c11fc5a_b70","geometry":{"type":"LineString","coordinates":[[146424.80157117,169595.27152891],[146428.34,169597.67],[146432.16,169600.38],[146437.39,169604.32],[146442.5,169608.4],[146447.5,169612.6],[146450.47,169615.17],[146453.42,169617.78],[146456.29,169620.47],[146458.03,169622.18],[146458.49,169622.651],[146459.74,169623.93],[146461.44,169625.74],[146466.11,169631.63],[146470.29,169637.85],[146474.51,169644.16],[146475.51,169646.03],[146476.51,169647.91],[146477.52,169649.78],[146479.941,169654.24],[146482.796,169659.177],[146485.791,169664.03],[146487.4,169666.31],[146489.37,169668.92],[146491.4,169671.48],[146492.07,169672.28],[146492.75,169673.09],[146493.39,169673.85],[146495.13,169675.72],[146496.86,169677.59],[146498.62,169679.38],[146500.58,169681.25],[146502.59,169683.07],[146504.65,169684.85],[146506.55,169686.39],[146508.51,169687.92],[146510.49,169689.45],[146594.08,169748.49],[146645.05,169784.07],[146649.173,169787.034],[146657.534,169792.934],[146663.835,169797.319],[146675.564,169805.185],[146681.607,169809.027],[146687.776,169812.855],[146693.407,169816.24],[146703.556,169822.058],[146719.713,169830.666],[146726.99,169834.47]]},"geometry_name":"GEOM","properties":{"INSPIRE_ID":"https://databrussels.be/id/rail/21319","TYPE":"TW","LVL":0,"SLOPE":null,"LENGTH":389.63029456193},"bbox":[146424.80157117,169595.27152891,146726.99,169834.47]},{"type":"Feature","id":"TramNetwork.fid--6f55e203_1a02c11fc5a_b6e","geometry":{"type":"LineString","coordinates":[[146424.75988705,169589.36209845],[146427.14,169590.98],[146440.38,169600.67],[146449.08,169607.49],[146453.28,169611.07],[146456.35,169614],[146462.31,169620.06],[146463.857,169621.787],[146466.803,169625.349],[146469.441,169628.863],[146471.272,169631.451],[146472.766,169633.691],[146474.138,169635.819],[146475.222,169637.659],[146476.483,169639.813],[146477.696,169642.239],[146479.137,169645.072],[146480.643,169648.004],[146481.729,169650.333],[146483.552,169654.13],[146485.577,169657.823],[146487.8,169661.4],[146488.25,169662.1],[146488.71,169662.8],[146489.16,169663.5],[146491.82,169667.23],[146494.68,169670.8],[146497.71,169674.23],[146500,169676.61],[146502.37,169678.92],[146504.8,169681.15],[146506.45,169682.58],[146508.12,169683.98],[146509.79,169685.37],[146575.053,169731.609],[146577.9791,169733.6011],[146577.979,169733.601],[146593.218,169744.141],[146613.181,169758.215],[146621.846,169764.323],[146637.919,169775.637],[146657.88,169789.518],[146666.913,169795.664],[146674.862,169800.867],[146686.628,169808.187],[146692.757,169811.845],[146697.412,169814.417],[146703.549,169818.013],[146708.657,169820.818],[146717.056,169825.36],[146726.76,169830.436],[146737.194,169835.824],[146749.02,169842.02],[146760.6,169848]]},"geometry_name":"GEOM","properties":{"INSPIRE_ID":"https://databrussels.be/id/rail/21320","TYPE":"TW","LVL":0,"SLOPE":null,"LENGTH":429.388788475562},"bbox":[146424.75988705,169589.36209845,146760.6,169848]},{"type":"Feature","id":"TramNetwork.fid--6f55e203_1a02c11fc5a_b7d","geometry":{"type":"LineString","coordinates":[[145347.837,169137.806],[145348.069,169142.736],[145348.273,169146.717],[145348.298,169147.219],[145348.448,169149.956],[145348.5863,169152.3335],[145348.769,169154.708],[145348.9941,169156.9854],[145349.302,169159.253],[145349.7246,169161.5038],[145350.27,169163.728],[145350.9341,169165.8439],[145351.732,169167.913],[145352.6992,169169.9858],[145353.798,169171.992],[145354.8364,169173.6313],[145355.969,169175.207],[145357.471,169177.0683],[145359.061,169178.855],[145360.8854,169180.7287],[145362.765,169182.547],[145381.184,169199.58],[145399.562,169216.559],[145417.949,169233.537],[145436.32,169250.505],[145454.714,169267.495],[145470.7871,169282.3511],[145475.7998,169287.0272],[145484.1227,169295.5006],[145492.2235,169304.2032],[145499.4746,169312.6586],[145506.8851,169321.8217],[145514.0821,169330.9179],[145521.2993,169340.033],[145526.6755,169346.8279],[145529.4446,169349.7101],[145532.5229,169352.2593],[145535.1944,169354.0973],[145538.0968,169355.5434],[145541.7041,169356.9733],[145545.42,169358.091],[145557.8081,169361.3129],[145577.5131,169366.3828],[145590.2778,169369.7301],[145608.5262,169374.5231],[145621.8817,169377.8932],[145643.7822,169383.4869],[145656.0965,169386.5842],[145675.9257,169391.7288],[145687.586,169394.6751],[145697.1283,169397.1231],[145925.87492134,169456.46863805],[145976.01323959,169469.94493748],[146045.95475143,169487.62791016],[146126.00236863,169507.73319926],[146150.9048794,169514.21789445],[146171.840019,169519.55458169],[146188.22341515,169523.81342098],[146206.12278406,169528.4272856],[146225.1616783,169533.55638901],[146249.3919517,169539.72739389],[146268.1910369,169544.58486985],[146287.23054997,169549.52012503],[146317.6064278,169557.28507983],[146334.11281889,169561.3873308],[146343.59,169563.82],[146357.94,169567.45],[146371.29,169570.91],[146392.21,169576.34],[146396.99,169577.57],[146401.78,169578.81],[146403.99298686,169579.50685544]]},"geometry_name":"GEOM","properties":{"INSPIRE_ID":"https://databrussels.be/id/rail/21439","TYPE":"TW","LVL":0,"SLOPE":null,"LENGTH":1190.41135478728},"bbox":[145347.837,169137.806,146403.99298686,169579.50685544]},{"type":"Feature","id":"TramNetwork.fid--6f55e203_1a02c11fc5a_b7c","geometry":{"type":"LineString","coordinates":[[146404.01986759,169581.06740404],[146401.37,169580.23],[146396.62,169579.01],[146391.84,169577.77],[146370.92,169572.34],[146357.57,169568.89],[146343.23,169565.25],[146333.64353163,169562.79043236],[146317.24592725,169558.71521761],[146286.86287685,169550.9484293],[146267.82151568,169546.01269507],[146249.02546424,169541.156003],[146224.78783344,169534.98312432],[146205.74687759,169529.85346551],[146187.853817,169525.24122697],[146171.47233058,169520.98288411],[146150.53688662,169515.64611928],[146125.63070325,169509.16046774],[146045.59437159,169489.05801319],[145975.64336045,169471.37263885],[145925.43920853,169457.89201501],[145696.7555,169398.5761],[145687.2159,169396.1287],[145675.5536,169393.182],[145655.7252,169388.0376],[145643.4137,169384.9409],[145621.5125,169379.347],[145608.1521,169375.9757],[145589.897,169371.1809],[145577.1359,169367.8346],[145557.4324,169362.7651],[145545.0459,169359.5436],[145541.2193,169358.3929],[145537.5041,169356.9215],[145534.4362,169355.3916],[145531.6106,169353.4503],[145528.4025,169350.7894],[145525.5172,169347.7815],[145520.1231,169340.9639],[145512.906,169331.8488],[145505.7138,169322.7587],[145498.3219,169313.6187],[145491.1047,169305.2029],[145483.0385,169296.5373],[145474.7476,169288.0965],[145469.6642,169283.262],[145453.744,169268.55],[145435.343,169251.553],[145416.966,169234.583],[145398.591,169217.613],[145380.217,169200.633],[145361.77,169183.583],[145359.863,169181.7371],[145358.012,169179.835],[145356.3662,169177.9894],[145354.812,169176.066],[145353.6394,169174.4301],[145352.565,169172.728],[145351.4184,169170.631],[145350.408,169168.465],[145349.5798,169166.3201],[145348.889,169164.127],[145348.3176,169161.8201],[145347.875,169159.485],[145347.5646,169157.1654],[145347.339,169154.836],[145347.193,169152.9726],[145347.08,169151.107],[145346.997,169149.643],[145346.93349792,169148.50862187],[145346.865,169147.285],[145346.836,169146.778],[145346.635,169142.784],[145346.406,169137.893]]},"geometry_name":"GEOM","properties":{"INSPIRE_ID":"https://databrussels.be/id/rail/21510","TYPE":"TW","LVL":0,"SLOPE":null,"LENGTH":1192.66670812154},"bbox":[145346.406,169137.893,146404.01986759,169581.06740404]},{"type":"Feature","id":"TramNetwork.fid--6f55e203_1a02c11fc5a_b7a","geometry":{"type":"LineString","coordinates":[[146404.06362296,169583.60760227],[146402.65,169582.99],[146398.46,169581.36],[146394.22,169579.89],[146391.49,169579.04],[146388.77,169578.27],[146386.06,169577.5],[146375.09,169574.62],[146357.15,169570.02],[146333.22251666,169564.0492067],[146316.92250885,169559.99824714],[146286.53302369,169552.22981392],[146267.49000451,169547.29364991],[146248.69667479,169542.4376611],[146224.45244338,169536.26310137],[146205.40963799,169531.13294429],[146187.52223681,169526.52216456],[146171.14246369,169522.26426707],[146150.20674667,169516.92743264],[146125.29726849,169510.44092311],[146045.2710615,169490.34101154],[145975.31152818,169472.65348258],[145925.04370139,169459.29119214],[145698.4419,169400.6192],[145679.7506,169395.69],[145656.1162,169389.6325],[145633.2118,169384.2705],[145621.4578,169381.5631],[145603.7507,169376.905],[145589.4259,169373.1866],[145573.3654,169369.059],[145553.0406,169363.7925],[145543.4061,169361.3839],[145538.8,169359.9239],[145534.3952,169357.9375],[145531.0968,169355.9245],[145528.0834,169353.5055],[145523.8614,169348.952],[145518.1339,169341.6481],[145513.6887,169335.9328],[145504.6097,169324.3656],[145497.5765,169315.4746],[145488.5205,169304.9845],[145480.7833,169296.4763],[145472.5954,169288.315],[145468.3207,169284.2518],[145452.6298,169269.7491],[145434.2285,169252.7624],[145415.8587,169235.7951],[145397.4758,169218.8162],[145379.0919,169201.8302],[145360.699,169184.8383],[145357.0238,169181.4421],[145353.3877,169178.085],[145351.787,169176.691],[145350.69545616,169175.67100872],[145349.574,169174.684],[145347.51080401,169173.03707842],[145345.333,169171.545],[145342.93290076,169170.25049295],[145340.416,169169.201],[145338.23425431,169168.55772764],[145336.001,169168.126],[145333.78477093,169167.90334102],[145331.558,169167.851],[145330.19793166,169167.91246944],[145330.01408688,169167.92908282],[145328.842,169168.035],[145326.56650848,169168.31569194],[145324.301,169168.668],[145320.58963249,169169.24772601]]},"geometry_name":"GEOM","properties":{"INSPIRE_ID":"https://databrussels.be/id/rail/21511","TYPE":"TW","LVL":0,"SLOPE":null,"LENGTH":1190.33209958014},"bbox":[145320.58963249,169167.851,146404.06362296,169583.60760227]},{"type":"Feature","id":"TramNetwork.fid--6f55e203_1a02c11fc5a_b6f","geometry":{"type":"LineString","coordinates":[[146424.77254679,169591.15683033],[146426.29,169592.19],[146439.474,169601.841],[146443.81,169605.24],[146448.14,169608.64],[146452.29,169612.17],[146455.31,169615.06],[146458.28,169618.07],[146461.26,169621.1],[146462.739,169622.75],[146465.643,169626.263],[146468.248,169629.732],[146470.055,169632.287],[146471.531,169634.501],[146472.881,169636.594],[146473.949,169638.406],[146475.184,169640.517],[146476.378,169642.904],[146477.823,169645.744],[146479.317,169648.653],[146480.921,169652.092],[146483.622,169657.267],[146486.61,169662.28],[146487.01,169662.9],[146487.46,169663.61],[146487.94,169664.34],[146490.64,169668.12],[146493.55,169671.75],[146496.62,169675.23],[146498.95,169677.65],[146501.35,169679.99],[146503.82,169682.25],[146505.49,169683.71],[146507.17,169685.11],[146508.94,169686.58],[146574.151,169732.788],[146577.122,169734.805],[146592.367,169745.352],[146612.328,169759.424],[146620.994,169765.533],[146637.07,169776.85],[146657.041,169790.737],[146666.091,169796.895],[146674.066,169802.115],[146685.858,169809.45],[146692.019,169813.129],[146696.68,169815.704],[146702.819,169819.3],[146707.949,169822.117],[146716.36,169826.667],[146726.077,169831.75],[146736.515,169837.139],[146745.65439675,169841.92799749],[146748.33,169843.33],[146759.94034168,169849.32741236]]},"geometry_name":"GEOM","properties":{"INSPIRE_ID":"https://databrussels.be/id/rail/21565","TYPE":"TW","LVL":0,"SLOPE":null,"LENGTH":428.564699471516},"bbox":[146424.77254679,169591.15683033,146759.94034168,169849.32741236]},{"type":"Feature","id":"TramNetwork.fid--6f55e203_1a02c11fc5a_b7e","geometry":{"type":"LineString","coordinates":[[146424.75988705,169589.36209845],[146423.83,169588.73],[146422.52,169588.03],[146419.12,169586.03],[146417.39,169585.08],[146413.83,169583.32],[146410.18,169581.72],[146406.48,169580.29],[146403.99298686,169579.50685544]]},"geometry_name":"GEOM","properties":{"INSPIRE_ID":"https://databrussels.be/id/rail/23071","TYPE":"TW","LVL":1,"SLOPE":null,"LENGTH":23.0586809124127},"bbox":[146403.99298686,169579.50685544,146424.75988705,169589.36209845]},{"type":"Feature","id":"TramNetwork.fid--6f55e203_1a02c11fc5a_b7f","geometry":{"type":"LineString","coordinates":[[146424.77254679,169591.15683033],[146423.072,169589.999],[146421.82,169589.33],[146420.07,169588.31],[146418.38,169587.32],[146416.7,169586.39],[146413.21,169584.66],[146409.62,169583.09],[146405.99,169581.69],[146404.01986759,169581.06740404]]},"geometry_name":"GEOM","properties":{"INSPIRE_ID":"https://databrussels.be/id/rail/23072","TYPE":"TW","LVL":1,"SLOPE":null,"LENGTH":23.1515631976176},"bbox":[146404.01986759,169581.06740404,146424.77254679,169591.15683033]},{"type":"Feature","id":"TramNetwork.fid--6f55e203_1a02c11fc5a_b81","geometry":{"type":"LineString","coordinates":[[146404.09165254,169585.23484644],[146406.15,169586.13],[146408.76,169587.41],[146411.33,169588.76],[146413.91,169590.12],[146415.21981505,169590.92604003],[146415.86,169591.32],[146417.81,169592.51],[146419.74,169593.73],[146423.64,169596.27],[146424.81422932,169597.06603598]]},"geometry_name":"GEOM","properties":{"INSPIRE_ID":"https://databrussels.be/id/rail/23073","TYPE":"TW","LVL":1,"SLOPE":null,"LENGTH":23.9012130687425},"bbox":[146404.09165254,169585.23484644,146424.81422932,169597.06603598]},{"type":"Feature","id":"TramNetwork.fid--6f55e203_1a02c11fc5a_b80","geometry":{"type":"LineString","coordinates":[[146404.06362296,169583.60760227],[146406.77,169584.79],[146409.43,169586.09],[146412.02,169587.45],[146413.36,169588.16],[146414.69,169588.86],[146417.28362979,169590.45607987],[146418.59,169591.26],[146420.54,169592.48],[146424.46,169595.04],[146424.80157117,169595.27152891]]},"geometry_name":"GEOM","properties":{"INSPIRE_ID":"https://databrussels.be/id/rail/23074","TYPE":"TW","LVL":1,"SLOPE":null,"LENGTH":23.8328876347475},"bbox":[146404.06362296,169583.60760227,146424.80157117,169595.27152891]},{"type":"Feature","id":"TramNetwork.fid--6f55e203_1a02c11fc5a_b77","geometry":{"type":"LineString","coordinates":[[146424.24891877,169782.36804954],[146416.53819645,169800.6190738],[146410.4874619,169815.9512265],[146403.47746454,169835.86087583],[146397.77108072,169854.19547256],[146393.73725768,169869.01081112],[146389.82641705,169884.95821874],[146386.65347088,169899.94582869],[146383.60350712,169916.8038136],[146381.1684554,169933.46491693],[146380.06161372,169941.98004508],[146378.73340369,169954.48202513],[146377.52817608,169969.12509231],[146376.83947458,169982.70992103],[146376.44593087,169996.73773329],[146376.42133439,170006.3357101],[146376.51972032,170014.38324451],[146376.96245699,170027.62353046],[146377.42979015,170036.06482802],[146378.51203535,170051.20009914],[146379.96322779,170065.64628475],[146382.00473579,170081.93823513],[146384.12003324,170096.40903094],[146386.8994357,170113.02091388],[146390.61350448,170133.25049577],[146394.45055566,170153.30780629],[146398.60736111,170173.93115133],[146402.46341288,170193.15688404]]},"geometry_name":"GEOM","properties":{"INSPIRE_ID":"https://databrussels.be/id/rail/24087","TYPE":"RW","LVL":0,"SLOPE":null,"LENGTH":419.720198860797},"bbox":[146376.42133439,169782.36804954,146424.24891877,170193.15688404]},{"type":"Feature","id":"TramNetwork.fid--6f55e203_1a02c11fc5a_b76","geometry":{"type":"LineString","coordinates":[[146400.9742322,170193.43465918],[146397.12235315,170174.22973104],[146392.96421281,170153.59976318],[146389.12469692,170133.52956896],[146385.40744945,170113.28267353],[146382.62349447,170096.64358117],[146380.50369232,170082.14196857],[146378.4579438,170065.81617743],[146377.00271823,170051.32984317],[146375.91805223,170036.16071705],[146375.44912992,170027.69071513],[146375.00530277,170014.41781795],[146374.90658363,170006.34302816],[146374.93125828,169996.71454954],[146375.32582344,169982.65032796],[146376.01659864,169969.02459483],[146377.22525523,169954.33986686],[146378.55723709,169941.80238387],[146379.66791376,169933.25775252],[146382.108412,169916.559383],[146385.16693843,169899.65406987],[146388.34953273,169884.62088639],[146392.27069313,169868.63139737],[146396.31670296,169853.77129945],[146402.03945256,169835.38411948],[146409.06810201,169815.42149486],[146415.13585293,169800.04622384],[146423.40567217,169780.72485262]]},"geometry_name":"GEOM","properties":{"INSPIRE_ID":"https://databrussels.be/id/rail/24103","TYPE":"RW","LVL":0,"SLOPE":null,"LENGTH":421.790789443491},"bbox":[146374.90658363,169780.72485262,146423.40567217,170193.43465918]},{"type":"Feature","id":"TramNetwork.fid--6f55e203_1a02c11fc5a_b79","geometry":{"type":"LineString","coordinates":[[146405.92657195,170192.51090499],[146403.74142559,170181.7079599],[146392.37692429,170123.10983133],[146387.95094066,170097.05778143],[146385.56523183,170081.71856118],[146384.35220067,170070.9021202],[146383.1235126,170060.84313697],[146381.87177602,170046.66099997],[146381.22560514,170036.36478186],[146380.7934522,170029.72042351],[146380.5820618,170023.85297898],[146380.4050781,170017.98444863],[146380.28399526,170012.11708282],[146380.24020436,170006.2527662],[146380.39075178,169993.17137148],[146380.85622329,169980.10005501],[146381.64937178,169967.03951207],[146382.75914291,169954.00141005],[146384.18108136,169940.94754161],[146385.91844059,169927.92945894],[146386.42440077,169924.10442665],[146386.88738479,169920.80487464],[146388.72957766,169909.99279006],[146391.72844976,169894.70290453],[146393.201479,169887.82743384],[146395.5640429,169877.51510073],[146397.16294449,169871.10983115],[146398.87855318,169864.73098018],[146402.44195796,169852.30234742],[146406.2688108,169839.95682922],[146411.42810189,169824.80612748],[146416.04231013,169812.38522344],[146421.27502304,169799.33626894],[146426.63972319,169787.02716356]]},"geometry_name":"GEOM","properties":{"INSPIRE_ID":"https://databrussels.be/id/rail/24406","TYPE":"RW","LVL":0,"SLOPE":null,"LENGTH":414.116483937164},"bbox":[146380.24020436,169787.02716356,146426.63972319,170192.51090499]},{"type":"Feature","id":"TramNetwork.fid--6f55e203_1a02c11fc5a_b78","geometry":{"type":"LineString","coordinates":[[146404.46565446,170192.78340823],[146402.23367471,170181.98453677],[146390.86873637,170123.38415472],[146386.43796862,170097.30394477],[146384.04559207,170081.9218535],[146382.82976321,170071.08046578],[146381.59887745,170061.00349055],[146380.3431737,170046.77640575],[146379.69589461,170036.46252922],[146379.26241524,170029.79777689],[146379.0500645,170023.90367676],[146378.87272551,170018.02336548],[146378.751284,170012.13861955],[146378.70730916,170006.24966914],[146378.85823638,169993.13527168],[146379.32504841,169980.02631088],[146380.12048821,169966.92803767],[146381.23336953,169953.85339569],[146382.65927199,169940.76313638],[146384.39896439,169927.72757117],[146384.90560133,169923.89742266],[146385.37255257,169920.56959737],[146387.22173183,169909.71650871],[146390.22684258,169894.39481511],[146391.70493562,169887.49570882],[146394.07324525,169877.15829621],[146395.67911168,169870.72512518],[146397.401607,169864.32066882],[146400.97300728,169851.86414896],[146404.81097878,169839.48276167],[146409.98388377,169824.29208155],[146414.61228051,169811.83298376],[146419.86077537,169798.74467339],[146425.7355814,169785.26514899]]},"geometry_name":"GEOM","properties":{"INSPIRE_ID":"https://databrussels.be/id/rail/24407","TYPE":"RW","LVL":0,"SLOPE":null,"LENGTH":416.284054590193},"bbox":[146378.70730916,169785.26514899,146425.7355814,170192.78340823]},{"type":"Feature","id":"TramNetwork.fid--6f55e203_1a02c11fc5a_b84","geometry":{"type":"LineString","coordinates":[[146487.62848996,169652.48313826],[146489.58446817,169648.31620151],[146494.12320441,169638.68276134],[146510.29723282,169603.88706032]]},"geometry_name":"GEOM","properties":{"INSPIRE_ID":"https://databrussels.be/id/rail/25582","TYPE":"RW","LVL":0,"SLOPE":null,"LENGTH":53.6233554851428},"bbox":[146487.62848996,169603.88706032,146510.29723282,169652.48313826]},{"type":"Feature","id":"TramNetwork.fid--6f55e203_1a02c11fc5a_b83","geometry":{"type":"LineString","coordinates":[[146485.76859221,169650.43000439],[146487.96056752,169645.7519049],[146491.79462441,169637.57878365],[146507.73175322,169603.55861593]]},"geometry_name":"GEOM","properties":{"INSPIRE_ID":"https://databrussels.be/id/rail/25583","TYPE":"RW","LVL":0,"SLOPE":null,"LENGTH":51.7620285787478},"bbox":[146485.76859221,169603.55861593,146507.73175322,169650.43000439]},{"type":"Feature","id":"TramNetwork.fid--6f55e203_1a02c11fc5a_b82","geometry":{"type":"LineString","coordinates":[[146484.71899817,169649.27136162],[146486.65490309,169645.13976592],[146490.48882284,169636.96693699],[146506.22128446,169603.36529512]]},"geometry_name":"GEOM","properties":{"INSPIRE_ID":"https://databrussels.be/id/rail/25584","TYPE":"RW","LVL":0,"SLOPE":null,"LENGTH":50.6923609811947},"bbox":[146484.71899817,169603.36529512,146506.22128446,169649.27136162]},{"type":"Feature","id":"TramNetwork.fid--6f55e203_1a02c11fc5a_b85","geometry":{"type":"LineString","coordinates":[[146488.63598205,169653.59530486],[146490.85212287,169648.87412822],[146495.47208446,169639.42174383],[146511.87045287,169604.18537313]]},"geometry_name":"GEOM","properties":{"INSPIRE_ID":"https://databrussels.be/id/rail/25585","TYPE":"RW","LVL":0,"SLOPE":null,"LENGTH":54.6017042186661},"bbox":[146488.63598205,169604.18537313,146511.87045287,169653.59530486]},{"type":"Feature","id":"TramNetwork.fid--6f55e203_1a02c11fc5a_b72","geometry":{"type":"LineString","coordinates":[[146423.40567217,169780.72485262],[146425.74248288,169775.55014452],[146428.95826773,169768.54044095],[146435.0576029,169755.30632085],[146441.21255514,169742.09750717],[146445.81911616,169732.28231182],[146452.34175399,169718.39808274],[146455.88557456,169710.80746706],[146484.71899817,169649.27136162]]},"geometry_name":"GEOM","properties":{"INSPIRE_ID":"https://databrussels.be/id/rail/28038","TYPE":"RW","LVL":1,"SLOPE":null,"LENGTH":145.050381641448},"bbox":[146423.40567217,169649.27136162,146484.71899817,169780.72485262]},{"type":"Feature","id":"TramNetwork.fid--6f55e203_1a02c11fc5a_b73","geometry":{"type":"LineString","coordinates":[[146424.24891877,169782.36804954],[146427.05590669,169776.14548847],[146430.26843539,169769.14288261],[146436.36597756,169755.91265289],[146442.51881414,169742.70837952],[146447.1244165,169732.89522677],[146453.64767321,169719.00968034],[146457.19180038,169711.41840795],[146485.76859221,169650.43000439]]},"geometry_name":"GEOM","properties":{"INSPIRE_ID":"https://databrussels.be/id/rail/28780","TYPE":"RW","LVL":1,"SLOPE":null,"LENGTH":145.576860735996},"bbox":[146424.24891877,169650.43000439,146485.76859221,169782.36804954]},{"type":"Feature","id":"TramNetwork.fid--6f55e203_1a02c11fc5a_b74","geometry":{"type":"LineString","coordinates":[[146425.7355814,169785.26514899],[146428.12880299,169779.84881453],[146431.31583336,169772.82504185],[146436.96145216,169760.53085831],[146442.68808332,169748.2750201],[146454.70553635,169722.7271829],[146458.40040723,169714.74946168],[146487.62848996,169652.48313826]]},"geometry_name":"GEOM","properties":{"INSPIRE_ID":"https://databrussels.be/id/rail/28854","TYPE":"RW","LVL":1,"SLOPE":null,"LENGTH":146.500720154743},"bbox":[146425.7355814,169652.48313826,146487.62848996,169785.26514899]},{"type":"Feature","id":"TramNetwork.fid--6f55e203_1a02c11fc5a_b75","geometry":{"type":"LineString","coordinates":[[146426.63972319,169787.02716356],[146429.49083216,169780.55915205],[146433.01714473,169772.43240394],[146437.94489669,169761.48887791],[146444.56667176,169747.37324459],[146456.055865,169723.4630825],[146459.67048797,169715.30222006],[146488.63598205,169653.59530486]]},"geometry_name":"GEOM","properties":{"INSPIRE_ID":"https://databrussels.be/id/rail/28888","TYPE":"RW","LVL":1,"SLOPE":null,"LENGTH":147.140654246781},"bbox":[146426.63972319,169653.59530486,146488.63598205,169787.02716356]}],"numberReturned":24,"grand_bruxelles_source":{"authority":"Paradigm / Brussels-Capital Region","service":"https://geoservices-urbis.irisnet.be/geoserver/urbisvector/wfs","layer":"urbisvector:TramNetwork","crs":"EPSG:31370","bbox":[146000.0,169500.0,146500.0,170000.0],"cell_id":"bxl-e146000-n169500-s500","ownership":"bbox_intersection_source_unclipped"}}
