{"type":"FeatureCollection","totalFeatures":24,"numberMatched":24,"timeStamp":"2026-08-23T02:04:07.073Z","crs":{"type":"name","properties":{"name":"urn:ogc:def:crs:EPSG::31370"}},"bbox":[146085.513,165092.0821,146652.3549,166853.31675714],"features":[{"type":"Feature","id":"TramNetwork.fid-1cd8d64c_1a02c0ead07_503e","geometry":{"type":"LineString","coordinates":[[146334.4317,165473.445],[146335.2387,165474.1754],[146343.0183,165481.3181],[146350.8291,165488.5211],[146361.7967,165498.4916],[146364.1413,165500.6656],[146369.9097,165505.8918],[146378.1389,165513.3752],[146388.2318,165522.5457],[146395.0836119,165528.82238701]]},"geometry_name":"GEOM","properties":{"INSPIRE_ID":"https://databrussels.be/id/rail/21378","TYPE":"TW","LVL":0,"SLOPE":null,"LENGTH":82.1302761098994},"bbox":[146334.4317,165473.445,146395.0836119,165528.82238701]},{"type":"Feature","id":"TramNetwork.fid-1cd8d64c_1a02c0ead07_503d","geometry":{"type":"LineString","coordinates":[[146392.75050344,165523.12169591],[146391.6651,165522.2103],[146386.4873,165517.523],[146380.0833,165511.6496],[146371.1439,165503.4813],[146363.1623,165496.2075],[146356.339,165489.9807],[146347.7566,165482.1534],[146341.483,165476.4513],[146335.8462,165471.2788]]},"geometry_name":"GEOM","properties":{"INSPIRE_ID":"https://databrussels.be/id/rail/21394","TYPE":"TW","LVL":0,"SLOPE":null,"LENGTH":76.9804376175289},"bbox":[146335.8462,165471.2788,146392.75050344,165523.12169591]},{"type":"Feature","id":"TramNetwork.fid-1cd8d64c_1a02c0ead07_5040","geometry":{"type":"LineString","coordinates":[[146445.8806,165526.2929],[146442.3021,165528.5984],[146440.066,165530.0228],[146438.352,165530.9926],[146436.6731,165531.8389],[146434.4233,165532.7709],[146433.4421,165533.1311],[146432.1368,165533.6103],[146429.6244,165534.2925],[146427.0283,165534.7682],[146424.5857,165535.0164],[146421.9199,165535.1515],[146418.3773,165534.974],[146414.0071,165534.1659],[146411.3888,165533.4345],[146408.1054,165532.0904],[146402.5144,165528.9533],[146397.888,165525.503],[146393.8050051,165522.07459393]]},"geometry_name":"GEOM","properties":{"INSPIRE_ID":"https://databrussels.be/id/rail/21396","TYPE":"TW","LVL":0,"SLOPE":null,"LENGTH":57.7671262853316},"bbox":[146393.8050051,165522.07459393,146445.8806,165535.1515]},{"type":"Feature","id":"TramNetwork.fid-1cd8d64c_1a02c0ead07_503c","geometry":{"type":"LineString","coordinates":[[146393.8050051,165522.07459393],[146392.6379,165521.0946],[146387.4841,165516.429],[146381.0826,165510.5579],[146372.1415,165502.3881],[146364.1596,165495.1139],[146357.3365,165488.8873],[146348.753,165481.059],[146342.481,165475.3585],[146336.7714,165470.1191]]},"geometry_name":"GEOM","properties":{"INSPIRE_ID":"https://databrussels.be/id/rail/21397","TYPE":"TW","LVL":0,"SLOPE":null,"LENGTH":77.1519386752148},"bbox":[146336.7714,165470.1191,146393.8050051,165522.07459393]},{"type":"Feature","id":"TramNetwork.fid-1cd8d64c_1a02c0ead07_5048","geometry":{"type":"LineString","coordinates":[[146394.25572324,165530.07107463],[146395.4773,165531.1901],[146397.5879,165533.3389],[146399.2454,165535.2073],[146400.577,165536.9866],[146402.2042,165539.5958],[146403.3277,165542.086],[146404.3316,165545.6724],[146404.4218,165546.3391],[146404.7729,165548.9324],[146404.6505,165552.814],[146404.1526,165555.4901],[146403.9427,165556.6179],[146402.3087,165560.9129],[146398.2817,165569.0831]]},"geometry_name":"GEOM","properties":{"INSPIRE_ID":"https://databrussels.be/id/rail/21401","TYPE":"TW","LVL":0,"SLOPE":null,"LENGTH":43.666343190462},"bbox":[146394.25572324,165530.07107463,146404.7729,165569.0831]},{"type":"Feature","id":"TramNetwork.fid-1cd8d64c_1a02c0ead07_503f","geometry":{"type":"LineString","coordinates":[[146333.3453,165474.458],[146334.2417,165475.2692],[146342.0162,165482.4072],[146349.8296,165489.6127],[146360.7957,165499.5818],[146363.1412,165501.7566],[146368.915,165506.9876],[146377.1434,165514.4704],[146380.2256,165517.2709],[146384.6841,165521.322],[146387.2343,165523.6391],[146394.25572324,165530.07107463]]},"geometry_name":"GEOM","properties":{"INSPIRE_ID":"https://databrussels.be/id/rail/21404","TYPE":"TW","LVL":0,"SLOPE":null,"LENGTH":82.4801019892156},"bbox":[146333.3453,165474.458,146394.25572324,165530.07107463]},{"type":"Feature","id":"TramNetwork.fid-1cd8d64c_1a02c0ead07_504b","geometry":{"type":"LineString","coordinates":[[146444.21371737,165533.28972288],[146440.2186,165536.3237],[146434.5578,165540.6273],[146428.5529,165545.2145],[146426.3139,165546.8902],[146424.4726,165548.2682],[146423.7508,165548.8084],[146422.4619,165549.8092],[146421.8448,165550.2884],[146420.8923,165551.0279],[146420.2963,165551.5272],[146417.476,165553.8898],[146415.9292,165555.1855],[146411.6181,165559.3614],[146409.4042,165561.8268],[146407.4416,165564.2528],[146407.0364,165564.7537],[146404.3727,165568.5971],[146402.4788,165571.7879],[146399.75148389,165577.00177543]]},"geometry_name":"GEOM","properties":{"INSPIRE_ID":"https://databrussels.be/id/rail/21406","TYPE":"TW","LVL":0,"SLOPE":null,"LENGTH":63.1266108445941},"bbox":[146399.75148389,165533.28972288,146444.21371737,165577.00177543]},{"type":"Feature","id":"TramNetwork.fid-1cd8d64c_1a02c0ead07_5052","geometry":{"type":"LineString","coordinates":[[146646.1225,165097.5258],[146645.0901,165101.9901],[146643.7601,165108.1401],[146642.3501,165114.2801],[146640.9001,165120.4101],[146638.9501,165128.4501],[146636.9201,165136.4701],[146634.8401,165144.4901],[146633.8501,165148.4301],[146632.8401,165152.3401],[146631.7301,165156.1901],[146630.1701,165160.8701],[146628.4401,165165.4901],[146626.5101,165170.0201],[146624.3801,165174.4301],[146622.0401,165178.7601],[146619.5201,165182.9601],[146616.8301,165187.0001],[146613.9401,165190.9101],[146610.9101,165194.6901],[146607.0601,165198.9701],[146602.9501,165203.0801],[146598.7901,165207.1801],[146594.2801,165211.5501],[146589.7001,165215.8801],[146585.2201,165220.3701],[146581.5001,165224.4101],[146577.8901,165228.5301],[146574.3801,165232.7501],[146571.1201,165236.8801],[146567.9601,165241.0901],[146564.9001,165245.3801],[146561.7601,165250.0701],[146558.7301,165254.8301],[146555.8101,165259.6501],[146552.8101,165264.8001],[146549.9301,165270.0301],[146547.1701,165275.3301],[146544.2301,165281.4301],[146541.4701,165287.6101],[146538.8701,165293.8501],[146536.4201,165300.1801],[146534.1401,165306.5801],[146532.0201,165313.0201],[146529.9401,165319.9101],[146528.0501,165326.8601],[146526.3301,165333.8401],[146525.4101,165337.8901],[146524.5501,165341.9501],[146523.7701,165346.0401],[146523.0001,165350.8201],[146522.3301,165355.6101],[146521.7201,165360.4001],[146521.7101,165360.5301],[146520.9101,165367.8201],[146520.2201,165375.2401],[146519.4801,165382.6301],[146518.5901,165391.5801],[146517.6401,165400.4901],[146516.2901,165409.2901],[146514.9401,165415.7401],[146513.3601,165422.1601],[146511.5401,165428.4901],[146509.2801,165435.1201],[146506.7401,165441.6901],[146504.0801,165448.2401],[146501.7101,165454.0701],[146499.2601,165459.8501],[146496.6701,165465.5501],[146494.1001,165470.8601],[146491.4101,165476.1001],[146488.5201,165481.1901],[146485.9001,165485.3201],[146483.1301,165489.3801],[146480.2401,165493.3301],[146478.1262,165496.0066],[146476.2412,165498.3806],[146475.3183,165499.5429],[146472.4871,165502.7635],[146472.2046,165503.0848],[146471.8956,165503.4363],[146471.1523,165504.2292],[146469.0921,165506.4267],[146464.583,165510.9201],[146458.4904,165516.381],[146453.9242,165520.1503],[146449.3561,165523.6779],[146445.8806,165526.2929]]},"geometry_name":"GEOM","properties":{"INSPIRE_ID":"https://databrussels.be/id/rail/21799","TYPE":"TW","LVL":0,"SLOPE":null,"LENGTH":486.201284391975},"bbox":[146445.8806,165097.5258,146646.1225,165526.2929]},{"type":"Feature","id":"TramNetwork.fid-1cd8d64c_1a02c0ead07_5051","geometry":{"type":"LineString","coordinates":[[146444.21371737,165533.28972288],[146444.6421,165532.9644],[146450.4136,165528.5989],[146454.0314,165525.8579],[146457.898,165522.8826],[146460.8236,165520.4778],[146465.1789,165516.6494],[146466.4353,165515.482],[146468.0693,165513.9637],[146471.7169,165510.2876],[146474.3416,165507.4716],[146476.9242,165504.5708],[146479.399,165501.6237],[146481.4969,165498.8908],[146482.1014,165498.1051],[146486.1497,165492.6939],[146489.9663,165487.1103],[146493.515,165481.3576],[146496.5892,165475.7047],[146499.4199,165469.9023],[146502.1307,165464.039],[146504.7205,165458.2168],[146507.2009,165452.3424],[146509.5789,165446.4223],[146512.3776,165439.2],[146515.0249,165431.9224],[146517.3066,165424.5422],[146518.8629,165418.3877],[146520.1739,165412.1754],[146521.2728,165405.9252],[146521.9589,165400.9711],[146522.5214,165395.9985],[146523.0523,165391.0203],[146523.7031,165384.6222],[146524.313,165378.213],[146524.9722,165371.8109],[146525.7613,165364.3797],[146526.6183,165356.9456],[146527.6725,165349.5565],[146528.3468,165345.6692],[146529.0829,165341.7896],[146529.8676,165337.9257],[146531.2702,165331.7783],[146532.8115,165325.6528],[146534.5113,165319.5894],[146536.5802,165312.8754],[146538.8274,165306.2132],[146541.2632,165299.6216],[146543.4291,165294.2268],[146545.7257,165288.8879],[146548.1417,165283.5985],[146551.3252,165277.0526],[146554.6961,165270.5891],[146558.2466,165264.2341],[146562.1761,165257.6185],[146566.2998,165251.11],[146570.667,165244.7776],[146574.7749,165239.3103],[146579.0649,165233.9776],[146583.5279,165228.789],[146586.2159,165225.8134],[146588.9685,165222.8918],[146591.759,165220.012],[146595.1169,165216.7137],[146598.5405,165213.4697],[146601.936,165210.2145],[146605.6419,165206.6287],[146609.3192,165203.0219],[146612.816,165199.2617],[146615.1639,165196.4766],[146617.432,165193.6011],[146619.6054,165190.6695],[146621.6782,165187.7272],[146623.6628,165184.7198],[146625.5518,165181.6528],[146629.1805,165175.2507],[146631.4126,165170.6206],[146634.003,165164.4029],[146635.2969,165161.0189],[146637.0573,165155.4719],[146639.1058,165147.8375],[146642.724,165133.8818],[146644.8832,165125.1688],[146646.882,165116.5446],[146651.0852,165098.0955],[146652.3549,165092.357]]},"geometry_name":"GEOM","properties":{"INSPIRE_ID":"https://databrussels.be/id/rail/21876","TYPE":"TW","LVL":0,"SLOPE":null,"LENGTH":501.412220038745},"bbox":[146444.21371737,165092.357,146652.3549,165533.28972288]},{"type":"Feature","id":"TramNetwork.fid-1cd8d64c_1a02c0ead07_5050","geometry":{"type":"LineString","coordinates":[[146650.9,165092.0821],[146649.6412,165097.7712],[146645.5241,165115.8877],[146643.4245,165124.819],[146641.27,165133.5132],[146637.6554,165147.4549],[146635.6173,165155.0504],[146633.8803,165160.5238],[146632.6098,165163.8465],[146630.0437,165170.006],[146627.851,165174.5544],[146624.2603,165180.8894],[146622.3979,165183.9132],[146620.4388,165186.882],[146618.3896,165189.7908],[146616.2404,165192.6898],[146614.0013,165195.5285],[146611.6927,165198.267],[146608.2442,165201.9752],[146604.5952,165205.5543],[146600.8954,165209.1341],[146597.5056,165212.3839],[146594.0754,165215.6341],[146590.6947,165218.9549],[146587.8839,165221.8555],[146585.1134,165224.7962],[146582.4148,165227.7835],[146577.9116,165233.0181],[146573.5906,165238.3894],[146569.4495,165243.9009],[146565.0484,165250.2825],[146560.8975,165256.8339],[146556.9468,165263.4852],[146553.3761,165269.8763],[146549.9855,165276.3776],[146546.7848,165282.9588],[146544.3544,165288.2799],[146542.0439,165293.6509],[146539.8634,165299.0821],[146537.4129,165305.7134],[146535.1525,165312.4147],[146533.0722,165319.166],[146531.3618,165325.2673],[146529.8115,165331.4284],[146528.4012,165337.6096],[146527.611,165341.5005],[146526.8709,165345.4012],[146526.1907,165349.3223],[146525.1305,165356.7537],[146524.2704,165364.2146],[146523.4803,165371.6549],[146522.8203,165378.0651],[146522.2103,165384.4753],[146521.5604,165390.8649],[146521.0304,165395.8347],[146520.4705,165400.7839],[146519.7907,165405.6924],[146518.701,165411.8906],[146517.4014,165418.0488],[146515.862,165424.1365],[146513.6027,165431.4442],[146510.9733,165438.6726],[146508.1836,165445.8717],[146505.8139,165451.7711],[146503.3442,165457.6202],[146500.7646,165463.4194],[146498.0649,165469.2586],[146495.2556,165475.0172],[146492.2168,165480.605],[146488.7081,165486.2929],[146484.9294,165491.821],[146480.9064,165497.1984],[146480.3002,165498.0133],[146478.2448,165500.6967],[146475.8046,165503.6027],[146473.2474,165506.4748],[146470.65,165509.2616],[146467.0398,165512.8999],[146465.2653,165514.5488],[146464.1864,165515.5513],[146459.8649,165519.35],[146456.9766,165521.7242],[146453.1332,165524.6816],[146449.5203,165527.4189],[146443.7482,165531.7849],[146443.47742354,165531.99053101]]},"geometry_name":"GEOM","properties":{"INSPIRE_ID":"https://databrussels.be/id/rail/21877","TYPE":"TW","LVL":0,"SLOPE":null,"LENGTH":500.117141365509},"bbox":[146443.47742354,165092.0821,146650.9,165531.99053101]},{"type":"Feature","id":"TramNetwork.fid-1cd8d64c_1a02c0ead07_5053","geometry":{"type":"LineString","coordinates":[[146446.6876,165527.5378],[146450.2533,165524.855],[146454.8478,165521.307],[146459.4558,165517.5032],[146465.6,165511.9961],[146470.1546,165507.4573],[146472.0281,165505.4589],[146472.9915,165504.4313],[146476.4547,165500.4918],[146477.4109,165499.2857],[146479.2608,165496.9525],[146481.3946,165494.2079],[146484.3144,165490.217],[146487.1115,165486.1173],[146489.7635,165481.9369],[146492.6861,165476.7895],[146495.3978,165471.5071],[146497.9829,165466.166],[146500.5879,165460.4331],[146503.0493,165454.6261],[146505.4234,165448.7859],[146508.0881,165442.2244],[146510.6431,165435.6157],[146512.9239,165428.9246],[146514.7614,165422.5338],[146516.3541,165416.062],[146517.7174,165409.5488],[146519.0784,165400.677],[146520.0325,165391.7287],[146520.9229,165382.7741],[146521.6634,165375.3795],[146522.3528,165367.9663],[146523.154,165360.6648],[146523.1631,165360.5474],[146523.7674,165355.8021],[146524.434,165351.0359],[146525.1983,165346.2913],[146525.9717,165342.2362],[146526.8264,165338.201],[146527.7411,165334.1742],[146529.4538,165327.2239],[146531.334,165320.31],[146533.403,165313.4564],[146535.5119,165307.0502],[146537.7794,165300.6852],[146540.2157,165294.3907],[146542.8015,165288.1847],[146545.5455,165282.0406],[146548.4665,165275.9799],[146551.2084,165270.7148],[146554.0718,165265.5148],[146557.0567,165260.3907],[146559.9619,165255.5952],[146562.9743,165250.8629],[146566.093,165246.2046],[146569.1303,165241.9465],[146572.2692,165237.7646],[146575.5068,165233.6631],[146578.993,165229.4717],[146582.5789,165225.3791],[146586.2671,165221.3737],[146590.7116,165216.9192],[146595.2827,165212.5976],[146599.8035,165208.2172],[146603.9717,165204.1091],[146608.1125,165199.9683],[146612.0157,165195.6292],[146615.0893,165191.7948],[146618.0173,165187.8333],[146620.7459,165183.7354],[146623.3002,165179.4782],[146625.6714,165175.0904],[146627.8307,165170.6199],[146629.7867,165166.0288],[146631.5373,165161.3538],[146633.1151,165156.6204],[146634.239,165152.7223],[146635.2552,165148.7881],[146636.245,165144.8488],[146638.3247,165136.83],[146640.3575,165128.7989],[146642.3102,165120.7479],[146643.7623,165114.6093],[146645.1754,165108.4556],[146646.5401,165102.2901],[146647.5797,165097.7937]]},"geometry_name":"GEOM","properties":{"INSPIRE_ID":"https://databrussels.be/id/rail/21878","TYPE":"TW","LVL":0,"SLOPE":null,"LENGTH":487.392718691094},"bbox":[146446.6876,165097.7937,146647.5797,165527.5378]},{"type":"Feature","id":"TramNetwork.fid-1cd8d64c_1a02c0ead07_5042","geometry":{"type":"LineString","coordinates":[[146446.6876,165527.5378],[146443.0999,165529.8449],[146441.4294,165530.909],[146440.8285,165531.2918],[146439.05,165532.2981],[146437.2903,165533.1852],[146436.012,165533.7147],[146434.9617,165534.1498],[146432.5866,165535.0218],[146431.4916,165535.3191],[146429.9522,165535.7371],[146427.2368,165536.2346],[146424.6981,165536.4926],[146421.9203,165536.6334],[146418.205,165536.4472],[146413.6728,165535.6092],[146410.9077,165534.8368],[146407.4605,165533.4256],[146402.87161357,165530.85078642],[146401.7066,165530.1971],[146396.969,165526.6639],[146392.75050344,165523.12169591]]},"geometry_name":"GEOM","properties":{"INSPIRE_ID":"https://databrussels.be/id/rail/21983","TYPE":"TW","LVL":0,"SLOPE":null,"LENGTH":59.7878534559596},"bbox":[146392.75050344,165523.12169591,146446.6876,165536.6334]},{"type":"Feature","id":"TramNetwork.fid-1cd8d64c_1a02c0ead07_5047","geometry":{"type":"LineString","coordinates":[[146443.4774,165531.9905],[146439.4426,165534.7682],[146437.4217,165536.0251],[146434.5177,165537.4929],[146432.45269174,165538.25078084],[146432.2818,165538.3135],[146429.7062,165539.141],[146428.41065566,165539.43024048],[146426.7773,165539.7949],[146425.1535,165540.0422],[146422.4099,165540.2837],[146420.2715,165540.2722],[146418.3278,165540.1574],[146416.693,165539.9966],[146414.8559,165539.7196],[146413.1348,165539.3302],[146410.9968,165538.6998],[146409.1474,165538.0835],[146407.4006,165537.3208],[146407.36359152,165537.30291827],[146405.1623,165536.2393],[146405.14198727,165536.22798306],[146403.1084,165535.095],[146400.5068,165533.2236],[146397.9432,165531.2013],[146395.0836,165528.8224]]},"geometry_name":"GEOM","properties":{"INSPIRE_ID":"https://databrussels.be/id/rail/21984","TYPE":"TW","LVL":0,"SLOPE":null,"LENGTH":53.4788569484697},"bbox":[146395.0836,165528.8224,146443.4774,165540.2837]},{"type":"Feature","id":"TramNetwork.fid-1cd8d64c_1a02c0ead07_5049","geometry":{"type":"LineString","coordinates":[[146444.2137,165533.2897],[146440.2322,165535.9847],[146438.133,165537.2903],[146435.0965,165538.8251],[146433.91060657,165539.26028189],[146432.7535,165539.6849],[146430.0867,165540.5417],[146429.10201039,165540.76156298],[146427.0448,165541.2209],[146425.75990309,165541.41658059],[146425.3264,165541.4826],[146422.4697,165541.734],[146420.2248,165541.722],[146418.214,165541.6032],[146416.5138,165541.436],[146414.5875,165541.1455],[146412.7694,165540.7342],[146410.5624,165540.0834],[146408.627,165539.4385],[146408.23448918,165539.26736319],[146406.8206,165538.6509],[146406.26683929,165538.38333584],[146404.4935,165537.5265],[146402.3296,165536.321],[146401.45854846,165535.69440257],[146399.634,165534.3819],[146397.0367,165532.333],[146394.2557,165530.0711]]},"geometry_name":"GEOM","properties":{"INSPIRE_ID":"https://databrussels.be/id/rail/21985","TYPE":"TW","LVL":0,"SLOPE":null,"LENGTH":55.068254103464},"bbox":[146394.2557,165530.0711,146444.2137,165541.734]},{"type":"Feature","id":"TramNetwork.fid-1cd8d64c_1a02c0ead07_504a","geometry":{"type":"LineString","coordinates":[[146443.47742354,165531.99053101],[146439.3232,165535.1453],[146433.91060657,165539.26028189],[146433.6608,165539.4502],[146427.6603,165544.034],[146425.659,165545.5318],[146423.2655,165547.3231],[146422.8535,165547.6314],[146421.9379,165548.3423],[146420.8173,165549.2123],[146419.9629,165549.8757],[146419.4287,165550.3232],[146416.4994,165552.7771],[146414.9378,165554.0852],[146410.5513,165558.3342],[146408.2775,165560.8663],[146407.33750122,165562.02830099],[146406.8383,165562.6454],[146405.8512,165563.8656],[146403.1266,165567.7969],[146401.1899,165571.0598],[146398.6863,165575.7241]]},"geometry_name":"GEOM","properties":{"INSPIRE_ID":"https://databrussels.be/id/rail/21986","TYPE":"TW","LVL":0,"SLOPE":null,"LENGTH":63.3383156925546},"bbox":[146398.6863,165531.99053101,146443.47742354,165575.7241]},{"type":"Feature","id":"TramNetwork.fid-1cd8d64c_1a02c0ead07_5045","geometry":{"type":"LineString","coordinates":[[146399.6084,165569.7405],[146399.8026,165569.3767],[146402.5213,165565.0599],[146405.1143,165561.5457],[146406.0199,165560.4649],[146406.67079541,165559.68813846],[146407.3872,165558.8332],[146409.11418462,165556.96514827],[146410.1662,165555.8272],[146413.7482,165552.5878],[146416.9487,165549.9606],[146420.7836,165547.019],[146426.44,165542.7563],[146429.10201039,165540.76156298],[146432.45269174,165538.25078084],[146433.3552,165537.5745],[146438.9091,165533.3822],[146443.0284,165530.291],[146446.6876,165527.5378]]},"geometry_name":"GEOM","properties":{"INSPIRE_ID":"https://databrussels.be/id/rail/21987","TYPE":"TW","LVL":0,"SLOPE":null,"LENGTH":63.729285755999},"bbox":[146399.6084,165527.5378,146446.6876,165569.7405]},{"type":"Feature","id":"TramNetwork.fid-1cd8d64c_1a02c0ead07_5044","geometry":{"type":"LineString","coordinates":[[146445.8806,165526.2929],[146442.1393,165529.1078],[146438.0191,165532.1997],[146436.012,165533.7147],[146432.4656,165536.3917],[146428.41065566,165539.43024048],[146426.6517,165540.7483],[146425.75990309,165541.41658059],[146425.5509,165541.5732],[146423.4455,165543.1599],[146419.8879,165545.8409],[146416.0286,165548.8011],[146412.7818,165551.4663],[146409.76999084,165554.19005457],[146409.1244,165554.7739],[146407.82454022,165556.17995181],[146406.276,165557.855],[146405.4226,165558.8735],[146404.0406,165560.5228],[146403.9506,165560.6302],[146401.298,165564.225],[146398.522,165568.6329],[146398.2817,165569.0831]]},"geometry_name":"GEOM","properties":{"INSPIRE_ID":"https://databrussels.be/id/rail/21988","TYPE":"TW","LVL":0,"SLOPE":null,"LENGTH":64.5223994945044},"bbox":[146398.2817,165526.2929,146445.8806,165569.0831]},{"type":"Feature","id":"TramNetwork.fid-1cd8d64c_1a02c0ead07_5046","geometry":{"type":"LineString","coordinates":[[146399.6084,165569.7405],[146402.887,165563.0874],[146403.6671,165561.5045],[146404.0406,165560.5228],[146405.0479,165557.8753],[146405.3734,165557.0196],[146406.1262,165552.9736],[146406.256,165548.8559],[146405.7845,165545.3723],[146405.4977,165544.3476],[146404.7228,165541.5793],[146403.5125,165538.8968],[146401.7996,165536.1501],[146401.45854846,165535.69440257],[146400.3934,165534.2712],[146398.6701,165532.3286],[146396.5058,165530.1252],[146395.0836119,165528.82238701]]},"geometry_name":"GEOM","properties":{"INSPIRE_ID":"https://databrussels.be/id/rail/21989","TYPE":"TW","LVL":0,"SLOPE":null,"LENGTH":45.8104712728058},"bbox":[146395.0836119,165528.82238701,146406.256,165569.7405]},{"type":"Feature","id":"TramNetwork.fid-1cd8d64c_1a02c0ead07_5041","geometry":{"type":"LineString","coordinates":[[146393.805,165522.0746],[146398.3511,165526.2559],[146400.9693,165528.7519],[146402.87161357,165530.85078642],[146403.7651,165531.8366],[146404.8984,165533.2356],[146406.1402,165535.046],[146407.1339,165536.8088],[146407.36359152,165537.30291827],[146407.856,165538.3622],[146408.23448918,165539.26736319],[146408.634,165540.2228],[146409.5081,165543.1588],[146410.0136,165545.8695],[146410.1872,165548.5739],[146410.0592,165552.0441],[146409.76999084,165554.19005457],[146409.6757,165554.8897],[146409.2778,165556.3607],[146409.11418462,165556.96514827],[146408.8391,165557.9814],[146408.1458,165559.8862],[146407.3375,165562.0283],[146405.9481,165564.7979],[146404.6739,165567.0786],[146403.3256,165569.5588],[146401.4406,165573.2363],[146399.75148389,165577.00177543]]},"geometry_name":"GEOM","properties":{"INSPIRE_ID":"https://databrussels.be/id/rail/21990","TYPE":"TW","LVL":0,"SLOPE":null,"LENGTH":62.893801722591},"bbox":[146393.805,165522.0746,146410.1872,165577.00177543]},{"type":"Feature","id":"TramNetwork.fid-1cd8d64c_1a02c0ead07_5043","geometry":{"type":"LineString","coordinates":[[146398.6863,165575.7241],[146400.133,165572.6084],[146402.0433,165568.8817],[146403.404,165566.3787],[146404.6665,165564.1189],[146406.0076,165561.4457],[146406.67079541,165559.68813846],[146406.7862,165559.3823],[146407.4555,165557.5432],[146407.82454022,165556.17995181],[146407.8781,165555.9821],[146408.2513,165554.6023],[146408.6128,165551.9203],[146408.7355,165548.5937],[146408.5722,165546.0495],[146408.0966,165543.4995],[146407.2664,165540.7107],[146406.5292,165538.9477],[146406.26683929,165538.38333584],[146405.8429,165537.4714],[146405.14198727,165536.22798306],[146404.9084,165535.8136],[146403.7353,165534.1034],[146402.6637,165532.7806],[146399.9305,165529.7649],[146397.36,165527.3144],[146392.7505,165523.1217]]},"geometry_name":"GEOM","properties":{"INSPIRE_ID":"https://databrussels.be/id/rail/21991","TYPE":"TW","LVL":0,"SLOPE":null,"LENGTH":60.4193912665486},"bbox":[146392.7505,165523.1217,146408.7355,165575.7241]},{"type":"Feature","id":"TramNetwork.fid-1cd8d64c_1a02c0ead07_504c","geometry":{"type":"LineString","coordinates":[[146398.2817,165569.0831],[146395.7944,165573.7433],[146393.315,165579.5473],[146391.2993,165585.0956],[146390.0065,165588.5835],[146389.7001,165589.4101],[146385.4201,165601.0601],[146380.7501,165614.0401],[146374.8701,165630.1801],[146369.3401,165645.1501],[146363.8201,165660.4201],[146357.4301,165677.8001],[146355.0801,165683.8301],[146351.7301,165690.4701],[146347.5101,165696.7501],[146342.6401,165702.4901],[146336.6501,165708.8701],[146326.4301,165719.6501],[146312.0201,165734.9001],[146297.0701,165750.6801],[146285.0101,165763.4701],[146280.909,165767.7976],[146280.3001,165768.4401],[146279.3601,165769.3901],[146276.9172,165771.9805],[146261.6401,165788.1801],[146246.2101,165804.5501],[146228.0301,165824.0101],[146217.4501,165836.0001],[146208.9101,165846.6901],[146202.6401,165855.2101],[146196.3001,165864.2901],[146188.8701,165876.1801],[146181.4201,165888.9801],[146170.7901,165907.4701],[146161.7601,165922.7401],[146154.7501,165934.3801],[146147.7301,165945.6301],[146138.5801,165959.9601],[146128.0201,165976.5001],[146118.2101,165991.8801],[146113.0201,166000.0001],[146113.02,166000],[146099.02,166021.86],[146096.62066376,166025.59319095],[146094.691,166029.174],[146092.482,166033.511],[146090.582,166037.88],[146088.949,166042.466],[146088.052,166045.654],[146087.06,166049.809],[146086.335,166053.77],[146085.859,166057.388],[146085.557,166061.677],[146085.513,166066.717],[146085.878,166072.36],[146086.494,166077.302],[146087.176,166080.562],[146088.079,166084.215],[146093.46,166103.3],[146099.39,166124.89],[146109.35,166160.86],[146110.6444,166165.4962],[146112.1903,166170.4816],[146112.8294,166172.5775],[146113.5291,166174.7179],[146114.0873,166176.289],[146114.5365,166177.5158],[146115.0301,166178.6821],[146115.5704,166179.998],[146116.0629,166181.0591],[146116.7259,166182.599],[146117.5554,166184.2572],[146118.2626,166185.7215],[146119.1217,166187.3343],[146120.1188,166189.201],[146121.4485,166191.2593],[146122.5649,166193.0495],[146124.8545,166196.329],[146126.9267,166198.9649],[146128.997,166201.4355],[146130.3661,166202.9826],[146130.8872,166203.5354],[146140.45,166213.95],[146192.81,166271.36],[146210.28,166290.37],[146234.1701,166316.6401],[146258.1823,166343.1222],[146288.31,166376.1],[146307.01,166397.33],[146317.14,166412.03],[146324.86,166423.37],[146327.72,166428.92],[146329.88,166434.3],[146331.34,166438.74],[146335.212,166451.609],[146339.11,166464.47],[146344.02,166481.09],[146345.77,166486.92],[146347.07,166491.09],[146349.609,166497.948],[146351.929,166503.488],[146354.365,166508.256],[146357.14,166513.128],[146360.111,166517.977],[146365.638,166526.345],[146377.601,166545.339],[146380.24,166550.21],[146382.212,166554.592],[146384.523,166560.157],[146386.088,166564.451],[146387.614,166569.407],[146388.793,166574.114],[146390.083,166581.005],[146391.473,166589.214],[146392.481,166596.384],[146395.267,166618.833],[146396.519,166627.381],[146397.575,166633.743],[146399.094,166638.351],[146401.91090463,166645.47576643],[146403.413,166649.275],[146405.4,166654.834],[146405.39962861,166654.83296097],[146407.18,166658.722],[146410.47,166667.77],[146424.47,166701.79],[146433.82,166724.91],[146437.74,166732.96],[146442.56,166741.51],[146449.74,166754.79],[146459.18854882,166771.37905518],[146472.4,166795.062],[146477.734,166804.549],[146480.136,166808.662],[146481.6175671,166810.93758045],[146483.1879797,166813.15531607],[146484.84374988,166815.31007176],[146486.581,166817.397],[146488.35922363,166819.24092291],[146490.22758558,166820.99791913],[146492.17955423,166822.66153884],[146494.208,166824.226],[146496.53777756,166825.82663163],[146498.9290626,166827.33773691],[146501.37662857,166828.75587091],[146503.875,166830.078],[146514.715,166835.773],[146529.935,166843.736],[146545.301,166851.795],[146548.20612246,166853.31675714]]},"geometry_name":"GEOM","properties":{"INSPIRE_ID":"https://databrussels.be/id/rail/21996","TYPE":"TW","LVL":0,"SLOPE":null,"LENGTH":1536.89188246659},"bbox":[146085.513,165569.0831,146548.20612246,166853.31675714]},{"type":"Feature","id":"TramNetwork.fid-1cd8d64c_1a02c0ead07_504d","geometry":{"type":"LineString","coordinates":[[146399.6084,165569.7405],[146397.1303,165574.3836],[146394.6921,165580.0911],[146392.6707,165585.6536],[146391.3145,165589.3145],[146391.0901,165589.9201],[146386.8101,165601.5701],[146382.1401,165614.5401],[146376.2601,165630.6901],[146370.7301,165645.6601],[146365.2101,165660.9301],[146358.8101,165678.3401],[146358.81,165678.34],[146356.43,165684.43],[146353.01,165691.22],[146348.69,165697.64],[146343.75,165703.48],[146337.72,165709.88],[146327.5,165720.67],[146313.09,165735.92],[146298.14,165751.7],[146286.08,165764.48],[146281.35,165769.48],[146280.41,165770.44],[146262.71,165789.19],[146247.29,165805.56],[146229.12,165825.01],[146218.59,165836.95],[146210.08,165847.59],[146203.85,165856.07],[146197.53,165865.11],[146190.13,165876.94],[146182.7,165889.72],[146172.06,165908.22],[146163.03,165923.5],[146156.02,165935.16],[146148.98,165946.42],[146139.83,165960.75],[146129.26,165977.3],[146119.45,165992.68],[146114.78,166000],[146100.26,166022.67],[146097.90490357,166026.33000179],[146096.002,166029.861],[146093.821,166034.143],[146091.959,166038.424],[146090.36,166042.915],[146089.485,166046.026],[146088.509,166050.114],[146087.798,166054],[146087.332,166057.537],[146087.037,166061.735],[146086.993,166066.676],[146087.352,166072.221],[146087.955,166077.059],[146088.619,166080.233],[146089.515,166083.859],[146094.88,166102.9],[146104.321,166137.164],[146112.0838,166165.1211],[146113.5763,166170.0554],[146114.2121,166172.1407],[146114.9016,166174.2498],[146115.4513,166175.797],[146115.8858,166176.9836],[146116.3685,166178.1241],[146116.8994,166179.4171],[146117.3867,166180.4671],[146118.0413,166181.9874],[146118.8567,166183.6175],[146119.5693,166185.0904],[146120.4011,166186.6519],[146121.3694,166188.4647],[146122.6727,166190.4822],[146123.7754,166192.2503],[146126.0199,166195.4652],[146128.0526,166198.051],[146130.0958,166200.4892],[146131.4369,166202.0046],[146131.9411,166202.5034],[146141.54,166212.95],[146193.91,166270.36],[146211.37,166289.37],[146235.402,166315.781],[146259.38,166342.24],[146289.41,166375.12],[146308.18,166396.41],[146318.36,166411.19],[146326.13,166422.61],[146329.07,166428.3],[146331.27,166433.79],[146332.75,166438.3],[146340.53,166464.05],[146345.43,166480.67],[146347.18,166486.49],[146348.46,166490.58],[146349.334,166493.058],[146350.926,166497.14],[146353.448,166502.902],[146357.166,166510.033],[146362.3,166518.602],[146374.577,166537.641],[146379.949,166546.314],[146382.92,166552.275],[146386.893,166561.634],[146389.637,166570.651],[146391.867,166582.384],[146393.234,166591.391],[146394.645,166602.548],[146396.359,166616.171],[146397.957,166627.312],[146399.387,166633.627],[146401.335,166640.005],[146403.16,166644.717],[146406.693,166653.885],[146408.959,166659.764],[146411.42013925,166666.01370796],[146411.42019283,166666.01380531],[146411.42019283,166666.01380531],[146411.42013925,166666.01370796],[146411.97,166667.41],[146414.544,166673.726],[146416.6,166678.77],[146425.84,166701.23],[146435.18,166724.31],[146439.05,166732.27],[146443.85,166740.79],[146451.04,166754.07],[146460.40358683,166770.68701179],[146473.722,166794.334],[146479.038,166803.819],[146481.373,166807.822],[146482.81735237,166810.04475955],[146484.34846571,166812.21114169],[146485.9629413,166814.31613294],[146487.657,166816.355],[146489.38813593,166818.15239723],[146491.20718975,166819.86511768],[146493.10779468,166821.48686644],[146495.083,166823.012],[146497.3634312,166824.58269835],[146499.70475522,166826.06498894],[146502.10176432,166827.45543169],[146504.549,166828.751],[146515.393,166834.448],[146530.639,166842.424],[146545.967,166850.46],[146548.73154571,166851.90820363]]},"geometry_name":"GEOM","properties":{"INSPIRE_ID":"https://databrussels.be/id/rail/21997","TYPE":"TW","LVL":0,"SLOPE":null,"LENGTH":1534.38422699576},"bbox":[146086.993,165569.7405,146548.73154571,166851.90820363]},{"type":"Feature","id":"TramNetwork.fid-1cd8d64c_1a02c0ead07_504e","geometry":{"type":"LineString","coordinates":[[146398.6863,165575.7241],[146396.6166,165580.5963],[146395.2793,165584.1794],[146394.3957,165586.5467],[146393.0415,165590.2796],[146391.2601,165595.1901],[146383.6601,165616.1501],[146376.6201,165635.2901],[146370.3501,165652.3401],[146364.6301,165668.4001],[146360.6301,165679.3301],[146357.5801,165686.8601],[146355.4801,165691.2001],[146352.5801,165695.8601],[146349.8801,165699.5901],[146346.5301,165703.5301],[146339.9901,165710.5001],[146327.0001,165724.2501],[146314.5101,165737.4101],[146304.2701,165748.2001],[146293.7801,165759.2901],[146282.2401,165771.4201],[146268.7701,165785.6901],[146255.0101,165800.1401],[146244.7601,165810.9501],[146234.1801,165821.7001],[146224.8301,165832.1401],[146218.3901,165839.7201],[146211.5801,165848.2501],[146204.6601,165857.4901],[146195.6601,165870.8101],[146182.9901,165891.9401],[146170.5601,165913.8501],[146152.5301,165943.5501],[146141.2301,165961.4701],[146128.0601,165981.9101],[146116.6401,166000.0001],[146116.64,166000],[146107.971,166013.453],[146102.768,166021.614],[146099.74,166026.518],[146097.272,166030.73],[146094.943,166035.427],[146093.127,166039.752],[146091.347,166045.244],[146090.228,166049.714],[146089.335,166054.485],[146088.908,166058.359],[146088.581,166062.819],[146088.61,166068.137],[146088.7584,166069.9425],[146088.8836,166070.6424],[146089.4675,166075.6771],[146089.7988,166077.5833],[146091.406,166084.5079],[146094.35,166095.5282],[146096.6312,166103.7323],[146099.4824,166114.0838],[146102.1032,166123.4357],[146104.9374,166133.7225],[146108.2422,166145.5674],[146110.6378,166154.3134],[146112.642,166161.4441],[146115.1042,166170.0536],[146115.9784,166172.8287],[146117.1641,166176.089],[146118.5658,166179.3601],[146119.5501,166181.5415],[146120.6765,166183.702],[146121.6218,166185.449],[146122.6781,166187.4266],[146123.8723,166189.3733],[146124.9531,166191.0419],[146125.8526,166192.3904],[146127.5541,166194.8904],[146129.7037,166197.612],[146136.702,166205.5444],[146145.0878,166214.8375],[146154.3954,166224.8692],[146162.8071,166234.0698],[146170.6294,166242.788],[146176.1719,166248.7971],[146185.5244,166259.0578],[146193.2757,166267.5127],[146201.1875,166276.2097],[146208.3242,166284.0558],[146215.466,166291.9609],[146224.4248,166301.6823],[146231.215,166309.1434],[146238.0673,166316.5711],[146246.6557,166326.0067],[146253.4173,166333.5174],[146260.6387,166341.374],[146271.3999,166353.2446],[146279.0811,166361.6704],[146285.5957,166368.7099],[146290.548,166374.1874],[146296.7498,166380.9489],[146301.4736,166386.2174],[146305.236,166390.4838],[146307.627,166393.2191],[146308.9878,166394.9873],[146310.3984,166396.8862],[146313.2718,166400.9569],[146317.7841,166407.5962],[146322.0415,166413.678],[146324.173,166416.8148],[146325.9622,166419.8724],[146327.46,166422.57],[146329.57,166426.46],[146331.67,166431.08],[146333.79,166437.78],[146341.26,166462.51],[146347.63,166484.06],[146348.76,166487.76],[146349.93,166491.07],[146351.6601,166495.2501],[146357.6301,166507.9711],[146363.6951,166518.1361],[146369.1201,166526.5881],[146380.0671,166543.8671],[146382.6161,166548.3721],[146384.7501,166552.6621],[146386.4521,166555.6571],[146388.5261,166561.1871],[146391.3141,166569.8731],[146392.5191,166575.6851],[146393.6241,166581.2241],[146394.7931,166588.3861],[146397.815,166611.9672],[146399.0001,166620.9758],[146399.0559,166621.3998],[146399.1101,166621.6948],[146401.4409,166634.3843],[146405.3692,166645.7668],[146411.8089,166662.6263],[146413.2392,166666.2492],[146418.1566,166678.7036]]},"geometry_name":"GEOM","properties":{"INSPIRE_ID":"https://databrussels.be/id/rail/21998","TYPE":"TW","LVL":0,"SLOPE":null,"LENGTH":1301.72627682769},"bbox":[146088.581,165575.7241,146418.1566,166678.7036]},{"type":"Feature","id":"TramNetwork.fid-1cd8d64c_1a02c0ead07_504f","geometry":{"type":"LineString","coordinates":[[146399.75148389,165577.00177543],[146397.9917,165581.1446],[146396.648,165584.7464],[146395.7738,165587.0898],[146394.4046,165590.7741],[146392.6233,165595.6844],[146385.0221,165616.6475],[146377.981,165635.7906],[146371.7136,165652.8336],[146365.9939,165668.8925],[146361.9833,165679.8516],[146358.9061,165687.4487],[146356.7518,165691.9009],[146353.7844,165696.6693],[146351.0215,165700.4862],[146347.6118,165704.4964],[146341.0458,165711.4941],[146328.053,165725.2471],[146315.5619,165738.4082],[146305.3227,165749.1974],[146294.8321,165760.288],[146283.2926,165772.4175],[146269.8224,165786.6877],[146256.0612,165801.1389],[146245.803,165811.9576],[146235.2375,165822.6929],[146225.9229,165833.0934],[146219.5095,165840.6421],[146212.7273,165849.1372],[146205.8418,165858.3311],[146196.8835,165871.5894],[146184.2427,165892.6708],[146171.8107,165914.5842],[146153.7632,165944.3131],[146142.4528,165962.2495],[146129.2826,165982.6898],[146118.39,166000],[146109.219,166014.249],[146104.022,166022.401],[146101.008,166027.281],[146098.575,166031.434],[146096.29,166036.043],[146094.516,166040.268],[146092.77,166045.652],[146091.675,166050.03],[146090.8,166054.703],[146090.382,166058.494],[146090.061,166062.869],[146090.09,166068.072],[146090.2247,166069.7134],[146090.3327,166070.5506],[146090.9031,166075.4693],[146091.2204,166077.295],[146092.813,166084.1568],[146095.749,166095.1468],[146098.0287,166103.3456],[146100.8795,166113.6956],[146103.5003,166123.0475],[146106.3347,166133.3351],[146109.6398,166145.181],[146112.035,166153.9257],[146114.037,166161.0486],[146116.493,166169.6363],[146117.3519,166172.3629],[146118.5129,166175.5552],[146119.8932,166178.7763],[146120.8549,166180.9076],[146121.9571,166183.0218],[146122.8989,166184.7624],[146123.9367,166186.7053],[146125.099,166188.5999],[146126.1648,166190.2454],[146127.0551,166191.5801],[146128.7239,166194.032],[146130.8171,166196.6823],[146137.7839,166204.579],[146146.1576,166213.8586],[146155.462,166223.8869],[146163.8818,166233.0964],[146171.702,166241.8122],[146177.2407,166247.8172],[146186.5946,166258.0795],[146194.3464,166266.5349],[146202.2602,166275.234],[146209.3985,166283.0819],[146216.5371,166290.9835],[146225.4941,166300.703],[146232.2841,166308.1638],[146239.1363,166315.5915],[146247.7307,166325.0336],[146254.4899,166332.5417],[146261.7096,166340.3964],[146272.4728,166352.2692],[146280.149,166360.6895],[146286.6656,166367.7312],[146291.6201,166373.2111],[146297.8239,166379.9748],[146302.5572,166385.2539],[146306.3256,166389.5271],[146308.7485,166392.2989],[146310.1444,166394.1127],[146311.5729,166396.0356],[146314.4638,166400.1312],[146318.9777,166406.7729],[146323.2352,166412.8547],[146325.3968,166416.0359],[146327.0696,166418.8472],[146328.74,166421.81],[146330.9,166425.8],[146333.06,166430.55],[146335.21,166437.34],[146342.68,166462.09],[146349.05,166483.64],[146350.16,166487.3],[146351.31,166490.54],[146353.0101,166494.6201],[146354.0951,166497.0301],[146356.9641,166502.9731],[146360.3641,166509.4731],[146366.5891,166519.9191],[146372.9881,166529.8571],[146382.2651,166544.5661],[146384.6871,166548.9601],[146387.8671,166555.2541],[146390.0501,166560.9291],[146391.4031,166565.1441],[146392.7181,166569.9211],[146394.3281,166577.1371],[146395.2831,166582.2331],[146397.1431,166596.8261],[146399.3333,166611.7669],[146400.519,166621.1734],[146400.8923,166623.2054],[146402.8764,166634.0071],[146406.7604,166645.2612],[146413.1886,166662.0905],[146419.4849,166678.039]]},"geometry_name":"GEOM","properties":{"INSPIRE_ID":"https://databrussels.be/id/rail/21999","TYPE":"TW","LVL":0,"SLOPE":null,"LENGTH":1299.66435910821},"bbox":[146090.061,165577.00177543,146419.4849,166678.039]}],"numberReturned":24,"grand_bruxelles_source":{"authority":"Paradigm / Brussels-Capital Region","service":"https://geoservices-urbis.irisnet.be/geoserver/urbisvector/wfs","layer":"urbisvector:TramNetwork","crs":"EPSG:31370","bbox":[146000.0,165500.0,146500.0,166000.0],"cell_id":"bxl-e146000-n165500-s500","ownership":"bbox_intersection_source_unclipped"}}
