{"type":"FeatureCollection","totalFeatures":51,"numberMatched":51,"timeStamp":"2026-08-22T13:03:30.107Z","crs":{"type":"name","properties":{"name":"urn:ogc:def:crs:EPSG::31370"}},"bbox":[143987.138,166496.419318,144664.926,167111.152],"features":[{"type":"Feature","id":"Buildings.fid--6f55e203_1a0298fa251_-5c68","geometry":{"type":"Polygon","coordinates":[[[144019.868,167013.389],[144014.8,167016.455],[144010.605,167010.193],[144008.226,167011.522],[144006.313,167008.097],[144008.612,167006.712],[143999.743,166991.62],[143996.927,166993.201],[143994.5,166989.29],[143997.29,166987.529],[143996.549,166986.303],[143989.611,166990.511],[143987.138,166986.409],[143993.999,166982.08],[143992.792,166980.082],[143997.536,166977.216],[143997.88,166977.004],[144019.868,167013.389]]]},"geometry_name":"GEOM","properties":{"INSPIRE_ID":"https://databrussels.be/id/building/1640237","BLOCK_ID":"https://databrussels.be/id/block/27188","AREA":323},"bbox":[143987.138,166977.004,144019.868,167016.455]},{"type":"Feature","id":"Buildings.fid--6f55e203_1a0298fa251_-5c7e","geometry":{"type":"Polygon","coordinates":[[[144108.25438,166542.04943968],[144112.69401804,166547.19139584],[144107.66449591,166551.52534532],[144103.05927645,166546.34987003],[144108.25438,166542.04943968]]]},"geometry_name":"GEOM","properties":{"INSPIRE_ID":"https://databrussels.be/id/building/1656945","BLOCK_ID":"https://databrussels.be/id/block/24179","AREA":46},"bbox":[144103.05927645,166542.04943968,144112.69401804,166551.52534532]},{"type":"Feature","id":"Buildings.fid--6f55e203_1a0298fa251_-5c64","geometry":{"type":"Polygon","coordinates":[[[144026.44,166892.99],[144029.25000014,166897.44999944],[144021.5393389,166902.19181309],[144018.16,166904.27],[144015.43,166899.88],[144018.76,166897.79],[144026.44,166892.99]]]},"geometry_name":"GEOM","properties":{"INSPIRE_ID":"https://databrussels.be/id/building/1656947","BLOCK_ID":"https://databrussels.be/id/block/27188","AREA":68},"bbox":[144015.43,166892.99,144029.25000014,166904.27]},{"type":"Feature","id":"Buildings.fid--6f55e203_1a0298fa251_-5c5f","geometry":{"type":"Polygon","coordinates":[[[144046.17700673,166971.41266849],[144039.85433618,166961.05490505],[144045.25947938,166957.52232287],[144051.84061868,166968.1186144],[144046.17700673,166971.41266849]]]},"geometry_name":"GEOM","properties":{"INSPIRE_ID":"https://databrussels.be/id/building/1656949","BLOCK_ID":"https://databrussels.be/id/block/27188","AREA":80},"bbox":[144039.85433618,166957.52232287,144051.84061868,166971.41266849]},{"type":"Feature","id":"Buildings.fid--6f55e203_1a0298fa251_-5c61","geometry":{"type":"Polygon","coordinates":[[[144041.11716176,166916.37295363],[144050.11938774,166930.53670778],[144044.90244766,166933.882848],[144035.886,166919.676],[144041.11716176,166916.37295363]]]},"geometry_name":"GEOM","properties":{"INSPIRE_ID":"https://databrussels.be/id/building/1656951","BLOCK_ID":"https://databrussels.be/id/block/27188","AREA":104},"bbox":[144035.886,166916.37295363,144050.11938774,166933.882848]},{"type":"Feature","id":"Buildings.fid--6f55e203_1a0298fa251_-5c5d","geometry":{"type":"Polygon","coordinates":[[[144065.34,166886.37],[144077.08,166879.4],[144077.808,166878.975],[144080.516,166883.997],[144064.969,166893.494],[144061.854,166888.374],[144065.34,166886.37]]]},"geometry_name":"GEOM","properties":{"INSPIRE_ID":"https://databrussels.be/id/building/1656958","BLOCK_ID":"https://databrussels.be/id/block/24179","AREA":107},"bbox":[144061.854,166878.975,144080.516,166893.494]},{"type":"Feature","id":"Buildings.fid--6f55e203_1a0298fa251_-5c83","geometry":{"type":"Polygon","coordinates":[[[144124.73991882,166995.59904833],[144128.255,166993.328],[144129.74,166995.964],[144157.04188496,166979.03207011],[144159.33959003,166982.92627112],[144130.86342016,167000],[144128.28000015,167001.54999957],[144127.35794176,167000],[144124.73991882,166995.59904833]]]},"geometry_name":"GEOM","properties":{"INSPIRE_ID":"https://databrussels.be/id/building/1656959","BLOCK_ID":"https://databrussels.be/id/block/24179","AREA":166},"bbox":[144124.73991882,166979.03207011,144159.33959003,167001.54999957]},{"type":"Feature","id":"Buildings.fid--6f55e203_1a0298fa251_-5c7f","geometry":{"type":"Polygon","coordinates":[[[144334.804,166549.419],[144334.259,166533.415],[144349.512,166532.765],[144350.272,166548.385],[144334.804,166549.419]]]},"geometry_name":"GEOM","properties":{"INSPIRE_ID":"https://databrussels.be/id/building/1658173","BLOCK_ID":"https://databrussels.be/id/block/26582","AREA":243},"bbox":[144334.259,166532.765,144350.272,166549.419]},{"type":"Feature","id":"Buildings.fid--6f55e203_1a0298fa251_-5c69","geometry":{"type":"Polygon","coordinates":[[[144107.09403327,166943.64307657],[144089.5180654,166921.42023562],[144086.32880851,166923.85794398],[144081.43565443,166917.03752874],[144093.31115987,166908.20810119],[144097.8064249,166914.31519391],[144107.08571433,166907.07270917],[144109.99316303,166911.00259188],[144100.3634029,166918.52787894],[144100.06496419,166918.13175766],[144096.98565185,166920.4133408],[144107.85725748,166934.542279],[144124.04099141,166922.78868821],[144127.88446485,166928.41727306],[144107.09403327,166943.64307657]]]},"geometry_name":"GEOM","properties":{"INSPIRE_ID":"https://databrussels.be/id/building/1658255","BLOCK_ID":"https://databrussels.be/id/block/24179","AREA":513},"bbox":[144081.43565443,166907.07270917,144127.88446485,166943.64307657]},{"type":"Feature","id":"Buildings.fid--6f55e203_1a0298fa251_-5c5e","geometry":{"type":"Polygon","coordinates":[[[144048.541,166896.713],[144057.78586142,166890.92737443],[144075.94547976,166920.62839642],[144075.0319895,166921.16298697],[144083.92,166934.97],[144089.817124,166945.94954864],[144088.48642646,166946.78885014],[144090.371,166949.905],[144083.25,166954.233],[144081.25,166950.78],[144069.29,166930.62],[144066.47,166926.11],[144052.508,166903.485],[144048.541,166896.713]]]},"geometry_name":"GEOM","properties":{"INSPIRE_ID":"https://databrussels.be/id/building/1658256","BLOCK_ID":"https://databrussels.be/id/block/24179","AREA":703},"bbox":[144048.541,166890.92737443,144090.371,166954.233]},{"type":"Feature","id":"Buildings.fid--6f55e203_1a0298fa251_-5c79","geometry":{"type":"Polygon","coordinates":[[[144344.90999976,166610.9819998],[144364.13328348,166610.05832991],[144364.32325883,166615.55245515],[144365.59891422,166615.57067555],[144366.94722982,166616.17866029],[144367.99342771,166617.10695899],[144368.75715271,166618.16700643],[144369.0456535,166619.66577155],[144369.87145403,166619.63162983],[144370.79836847,166640.1259845],[144369.88110473,166640.18706686],[144370.01,166642.749],[144361.50899966,166643.11199973],[144361.67845017,166647.73104242],[144346.78900029,166648.47800017],[144346.01000022,166633.32899991],[144344.90999976,166610.9819998]]]},"geometry_name":"GEOM","properties":{"INSPIRE_ID":"https://databrussels.be/id/building/1658257","BLOCK_ID":"https://databrussels.be/id/block/24179","AREA":835},"bbox":[144344.90999976,166610.05832991,144370.79836847,166648.47800017]},{"type":"Feature","id":"Buildings.fid--6f55e203_1a0298fa251_-5c6f","geometry":{"type":"Polygon","coordinates":[[[144370.39,166751.11],[144371.79,166805.78],[144370.9,166805.8],[144351.29,166806.25],[144350.814,166788.135],[144350.6993,166776.8366],[144348.618,166776.8577],[144348.5894,166774.0422],[144350.6707,166774.0211],[144350.62,166769.03],[144350.5028,166765.2499],[144348.3997,166765.3152],[144348.3137,166762.5412],[144350.4167,166762.476],[144350.08,166751.62],[144370.39,166751.11]]]},"geometry_name":"GEOM","properties":{"INSPIRE_ID":"https://databrussels.be/id/building/1658259","BLOCK_ID":"https://databrussels.be/id/block/24179","AREA":1126},"bbox":[144348.3137,166751.11,144371.79,166806.25]},{"type":"Feature","id":"Buildings.fid--6f55e203_1a0298fa251_-5c72","geometry":{"type":"Polygon","coordinates":[[[144254.94268789,166732.843475],[144247.883,166733.176],[144246.992,166713.768],[144239.789,166714.099],[144239.03,166697.56],[144291.95,166695.13],[144305.82,166694.51],[144347.08,166692.61],[144347,166690.45],[144351.61,166690.21],[144351.98,166692.16],[144367.18,166691.46],[144368.02,166708.02],[144356.137,166708.636],[144355.913,166709.002],[144355.689,166709.367],[144355.455,166709.726],[144355.208,166710.083],[144354.95,166710.433],[144354.67,166710.761],[144354.296,166711.125],[144353.89,166711.458],[144353.457,166711.748],[144353.125,166711.92],[144352.78,166712.069],[144352.434,166712.218],[144352.334,166708.831],[144320.88,166710.32],[144300.461,166711.282],[144301.023,166723.218],[144277.001,166724.35],[144277.351,166731.788],[144259.90627033,166732.60968063],[144254.94268789,166732.843475]]]},"geometry_name":"GEOM","properties":{"INSPIRE_ID":"https://databrussels.be/id/building/1658261","BLOCK_ID":"https://databrussels.be/id/block/24179","AREA":3000},"bbox":[144239.03,166690.21,144368.02,166733.176]},{"type":"Feature","id":"Buildings.fid--6f55e203_1a0298fa251_-5c6e","geometry":{"type":"Polygon","coordinates":[[[144290.95,166751.19],[144307.21,166772.55],[144315.4227028,166766.57985381],[144315.53,166766.68],[144332.12999999,166788.53999999],[144323.94,166794.52],[144339.36,166814.78],[144310.4,166836.78],[144295.26,166816.8],[144262.14,166773.11],[144290.95,166751.19]]]},"geometry_name":"GEOM","properties":{"INSPIRE_ID":"https://databrussels.be/id/building/1658334","BLOCK_ID":"https://databrussels.be/id/block/24179","AREA":3180},"bbox":[144262.14,166751.19,144339.36,166836.78]},{"type":"Feature","id":"Buildings.fid--6f55e203_1a0298fa251_-5c80","geometry":{"type":"Polygon","coordinates":[[[144358.42238774,166496.419318],[144359.85738674,166528.01000618],[144343.91256225,166528.98507939],[144343.9336259,166531.14368497],[144327.96521513,166531.91118734],[144327.85772014,166529.77827151],[144255.53235371,166532.90143143],[144254.08364233,166502.09132937],[144326.31219376,166498.66688412],[144326.25365693,166497.71226556],[144342.18683044,166496.94534262],[144342.21297446,166497.35892357],[144358.42238774,166496.419318]]]},"geometry_name":"GEOM","properties":{"INSPIRE_ID":"https://databrussels.be/id/building/1658335","BLOCK_ID":"https://databrussels.be/id/block/26582","AREA":3301},"bbox":[144254.08364233,166496.419318,144359.85738674,166532.90143143]},{"type":"Feature","id":"Buildings.fid--6f55e203_1a0298fa251_-5c88","geometry":{"type":"Polygon","coordinates":[[[144416.93614562,166566.37052747],[144441.96,166565.06],[144442.071,166567.406],[144507.276,166564.319],[144508.162,166578.722],[144515.6,166578.26],[144515.86,166584.49],[144508.392,166584.94],[144508.986,166599.283],[144443.778,166602.508],[144443.9,166604.97],[144432.53017458,166605.45729473],[144418.21207924,166606.13354992],[144416.93614562,166566.37052747]]]},"geometry_name":"GEOM","properties":{"INSPIRE_ID":"https://databrussels.be/id/building/1658336","BLOCK_ID":"https://databrussels.be/id/block/31026","AREA":3351},"bbox":[144416.93614562,166564.319,144515.86,166606.13354992]},{"type":"Feature","id":"Buildings.fid--6f55e203_1a0298fa251_-5c76","geometry":{"type":"Polygon","coordinates":[[[144283.217,166651.359],[144282.743,166640.212],[144287.397,166640.014],[144287.87,166651.146],[144283.217,166651.359]]]},"geometry_name":"GEOM","properties":{"INSPIRE_ID":"https://databrussels.be/id/building/1658359","BLOCK_ID":"https://databrussels.be/id/block/24179","AREA":52},"bbox":[144282.743,166640.014,144287.87,166651.359]},{"type":"Feature","id":"Buildings.fid--6f55e203_1a0298fa251_-5c71","geometry":{"type":"Polygon","coordinates":[[[144406.59934031,166697.49017244],[144406.57417632,166694.99378325],[144407.62257473,166694.93602769],[144407.66933093,166697.44303784],[144406.59934031,166697.49017244]]]},"geometry_name":"GEOM","properties":{"INSPIRE_ID":"https://databrussels.be/id/building/1659628","BLOCK_ID":"https://databrussels.be/id/block/28338","AREA":3},"bbox":[144406.57417632,166694.93602769,144407.66933093,166697.49017244]},{"type":"Feature","id":"Buildings.fid--6f55e203_1a0298fa251_-5c87","geometry":{"type":"Polygon","coordinates":[[[144491.251,166544.466],[144491.093,166538.073],[144496.248,166537.913],[144496.492,166544.221],[144491.251,166544.466]]]},"geometry_name":"GEOM","properties":{"INSPIRE_ID":"https://databrussels.be/id/building/1660843","BLOCK_ID":"https://databrussels.be/id/block/31026","AREA":33},"bbox":[144491.093,166537.913,144496.492,166544.466]},{"type":"Feature","id":"Buildings.fid--6f55e203_1a0298fa251_-5c59","geometry":{"type":"Polygon","coordinates":[[[144095.49,166907.67],[144102.58,166902.37],[144104.24,166904.58],[144097.15,166909.89],[144095.49,166907.67]]]},"geometry_name":"GEOM","properties":{"INSPIRE_ID":"https://databrussels.be/id/building/1666455","BLOCK_ID":"https://databrussels.be/id/block/24179","AREA":25},"bbox":[144095.49,166902.37,144104.24,166909.89]},{"type":"Feature","id":"Buildings.fid--6f55e203_1a0298fa251_-5c85","geometry":{"type":"Polygon","coordinates":[[[144367.654,166964.18],[144367.773502,166961.346093],[144369.289,166961.41],[144369.148,166964.243],[144367.654,166964.18]]]},"geometry_name":"GEOM","properties":{"INSPIRE_ID":"https://databrussels.be/id/building/1667456","BLOCK_ID":"https://databrussels.be/id/block/24179","AREA":4},"bbox":[144367.654,166961.346093,144369.289,166964.243]},{"type":"Feature","id":"Buildings.fid--6f55e203_1a0298fa251_-5c82","geometry":{"type":"Polygon","coordinates":[[[144135.7109975,166983.84617901],[144132.91861891,166985.35062644],[144130.45364315,166983.80864944],[144130.25471038,166981.03967676],[144133.28170488,166979.10327437],[144135.8266781,166980.95416398],[144135.7109975,166983.84617901]]]},"geometry_name":"GEOM","properties":{"INSPIRE_ID":"https://databrussels.be/id/building/1669055","BLOCK_ID":"https://databrussels.be/id/block/24179","AREA":25},"bbox":[144130.25471038,166979.10327437,144135.8266781,166985.35062644]},{"type":"Feature","id":"Buildings.fid--6f55e203_1a0298fa251_-5c70","geometry":{"type":"Polygon","coordinates":[[[144254.94268789,166732.843475],[144259.90627033,166732.60968063],[144260.1811226,166738.29281381],[144255.12362542,166738.53223126],[144254.94268789,166732.843475]]]},"geometry_name":"GEOM","properties":{"INSPIRE_ID":"https://databrussels.be/id/building/1670280","BLOCK_ID":"https://databrussels.be/id/block/24179","AREA":29},"bbox":[144254.94268789,166732.60968063,144260.1811226,166738.53223126]},{"type":"Feature","id":"Buildings.fid--6f55e203_1a0298fa251_-5c8a","geometry":{"type":"Polygon","coordinates":[[[144414.00062655,166661.55092815],[144406.60909879,166658.11159545],[144408.61780274,166654.06050131],[144415.85156101,166657.52070795],[144414.00062655,166661.55092815]]]},"geometry_name":"GEOM","properties":{"INSPIRE_ID":"https://databrussels.be/id/building/1670281","BLOCK_ID":"https://databrussels.be/id/block/28338","AREA":36},"bbox":[144406.60909879,166654.06050131,144415.85156101,166661.55092815]},{"type":"Feature","id":"Buildings.fid--6f55e203_1a0298fa251_-5c6c","geometry":{"type":"Polygon","coordinates":[[[144376.57248349,166829.36646592],[144376.67263804,166830.65063183],[144371.34777555,166831.12537833],[144371.3654698,166829.70994951],[144376.57248349,166829.36646592]]]},"geometry_name":"GEOM","properties":{"INSPIRE_ID":"https://databrussels.be/id/building/1671764","BLOCK_ID":"https://databrussels.be/id/block/24179","AREA":7},"bbox":[144371.34777555,166829.36646592,144376.67263804,166831.12537833]},{"type":"Feature","id":"Buildings.fid--6f55e203_1a0298fa251_-5c7a","geometry":{"type":"Polygon","coordinates":[[[144309.26944946,166556.3367376],[144309.26642039,166559.02606081],[144305.94220774,166559.09341279],[144305.91094524,166556.5085157],[144309.26944946,166556.3367376]]]},"geometry_name":"GEOM","properties":{"INSPIRE_ID":"https://databrussels.be/id/building/1671766","BLOCK_ID":"https://databrussels.be/id/block/26582","AREA":9},"bbox":[144305.91094524,166556.3367376,144309.26944946,166559.09341279]},{"type":"Feature","id":"Buildings.fid--6f55e203_1a0298fa251_-5c5c","geometry":{"type":"Polygon","coordinates":[[[144071.10858095,166958.47870572],[144073.18715907,166961.97591609],[144071.31180102,166963.12652859],[144069.2,166959.681],[144071.10858095,166958.47870572]]]},"geometry_name":"GEOM","properties":{"INSPIRE_ID":"https://databrussels.be/id/building/1671768","BLOCK_ID":"https://databrussels.be/id/block/27188","AREA":9},"bbox":[144069.2,166958.47870572,144073.18715907,166963.12652859]},{"type":"Feature","id":"Buildings.fid--6f55e203_1a0298fa251_-5c75","geometry":{"type":"Polygon","coordinates":[[[144351.60018177,166656.25508847],[144349.1169651,166656.26842547],[144348.95935288,166652.48284919],[144351.81378648,166652.42617472],[144351.92794348,166654.78498083],[144351.57280948,166654.79896041],[144351.60018177,166656.25508847]]]},"geometry_name":"GEOM","properties":{"INSPIRE_ID":"https://databrussels.be/id/building/1671770","BLOCK_ID":"https://databrussels.be/id/block/24179","AREA":10},"bbox":[144348.95935288,166652.42617472,144351.92794348,166656.26842547]},{"type":"Feature","id":"Buildings.fid--6f55e203_1a0298fa251_-5c6a","geometry":{"type":"Polygon","coordinates":[[[144374.38843292,166836.02145322],[144374.17584303,166833.92218578],[144376.99074829,166833.53879544],[144377.20353201,166835.70712192],[144374.38843292,166836.02145322]]]},"geometry_name":"GEOM","properties":{"INSPIRE_ID":"https://databrussels.be/id/building/1671771","BLOCK_ID":"https://databrussels.be/id/block/24179","AREA":6},"bbox":[144374.17584303,166833.53879544,144377.20353201,166836.02145322]},{"type":"Feature","id":"Buildings.fid--6f55e203_1a0298fa251_-5c73","geometry":{"type":"Polygon","coordinates":[[[144372.44600037,166660.8099993],[144373.09053599,166675.16523374],[144362.11496689,166675.83951515],[144362.04559766,166674.01431549],[144355.43105462,166674.36929969],[144354.79,166661.8],[144357.05,166661.61],[144361.17,166661.38],[144372.44600037,166660.8099993]]]},"geometry_name":"GEOM","properties":{"INSPIRE_ID":"https://databrussels.be/id/building/1672913","BLOCK_ID":"https://databrussels.be/id/block/24179","AREA":243},"bbox":[144354.79,166660.8099993,144373.09053599,166675.83951515]},{"type":"Feature","id":"Buildings.fid--6f55e203_1a0298fa251_-5c74","geometry":{"type":"Polygon","coordinates":[[[144275.925,166655.645],[144275.445,166655.669],[144275.928,166665.477],[144276.682,166665.44],[144276.807,166667.978],[144276.374,166667.999],[144276.73,166675.225],[144276.422,166675.24],[144276.524,166677.317],[144273.382,166677.472],[144273.366,166677.148],[144235.782,166679.001],[144235.797,166679.299],[144232.33,166679.47],[144232.265,166678.149],[144232.644,166678.13],[144231.639,166657.746],[144231.297,166657.763],[144231.236,166656.519],[144234.658,166656.35],[144234.673,166656.661],[144272.324,166654.805],[144272.308,166654.479],[144275.859,166654.304],[144275.925,166655.645]]]},"geometry_name":"GEOM","properties":{"INSPIRE_ID":"https://databrussels.be/id/building/1742614","BLOCK_ID":"https://databrussels.be/id/block/24179","AREA":991},"bbox":[144231.236,166654.304,144276.807,166679.47]},{"type":"Feature","id":"Buildings.fid--6f55e203_1a0298fa251_-5c78","geometry":{"type":"Polygon","coordinates":[[[144229.663,166618.731],[144245.063,166617.908],[144244.98,166616.5],[144247.57,166616.344],[144247.614,166617.797],[144248.868,166617.749],[144248.747,166613.26],[144254.135,166612.96],[144254.417,166617.536],[144255.86,166617.481],[144255.71,166615.94],[144258.21,166615.87],[144258.407,166617.375],[144273.883,166616.651],[144275.316,166647.55],[144273.3,166647.65],[144273.57,166648.39],[144273.45,166649.97],[144272.38,166651.59],[144270.79,166652.18],[144269.36,166652.07],[144268.03,166651.19],[144267.3,166650.1],[144267.13,166649.32],[144266.41,166649.36],[144240.74,166650.63],[144235.9,166650.87],[144235.68,166646.63],[144231.059,166646.856],[144229.663,166618.731]]]},"geometry_name":"GEOM","properties":{"INSPIRE_ID":"https://databrussels.be/id/building/1742616","BLOCK_ID":"https://databrussels.be/id/block/24179","AREA":1457},"bbox":[144229.663,166612.96,144275.316,166652.18]},{"type":"Feature","id":"Buildings.fid--6f55e203_1a0298fa251_-5c77","geometry":{"type":"Polygon","coordinates":[[[144298.47,166620.62],[144328.27,166619.26],[144330.73,166673.02],[144300.93,166674.44],[144298.47,166620.62]]]},"geometry_name":"GEOM","properties":{"INSPIRE_ID":"https://databrussels.be/id/building/1742617","BLOCK_ID":"https://databrussels.be/id/block/24179","AREA":1606},"bbox":[144298.47,166619.26,144330.73,166674.44]},{"type":"Feature","id":"Buildings.fid--6f55e203_1a0298fa251_-5c65","geometry":{"type":"Polygon","coordinates":[[[144031.624,167000],[144009.415,166963.298],[144014.652,166960.135],[144038.537,167000],[144039.464,167001.545],[144034.396,167004.581],[144031.624,167000]]]},"geometry_name":"GEOM","properties":{"INSPIRE_ID":"https://databrussels.be/id/building/1743949","BLOCK_ID":"https://databrussels.be/id/block/27188","AREA":290},"bbox":[144009.415,166960.135,144039.464,167004.581]},{"type":"Feature","id":"Buildings.fid--6f55e203_1a0298fa251_-5c60","geometry":{"type":"Polygon","coordinates":[[[144044.914,166940.776],[144070.455,166982.614],[144065.415,166985.715],[144039.675,166944.005],[144044.914,166940.776]]]},"geometry_name":"GEOM","properties":{"INSPIRE_ID":"https://databrussels.be/id/building/1743950","BLOCK_ID":"https://databrussels.be/id/block/27188","AREA":296},"bbox":[144039.675,166940.776,144070.455,166985.715]},{"type":"Feature","id":"Buildings.fid--6f55e203_1a0298fa251_-5c62","geometry":{"type":"Polygon","coordinates":[[[144049.916,166995.256],[144024.105,166953.445],[144029.434,166950.156],[144055.005,166992.153],[144049.916,166995.256]]]},"geometry_name":"GEOM","properties":{"INSPIRE_ID":"https://databrussels.be/id/building/1743951","BLOCK_ID":"https://databrussels.be/id/block/27188","AREA":300},"bbox":[144024.105,166950.156,144055.005,166995.256]},{"type":"Feature","id":"Buildings.fid--6f55e203_1a0298fa251_-5c5a","geometry":{"type":"Polygon","coordinates":[[[144094.354,166553.111],[144096.617,166555.872],[144093.496,166558.434],[144091.42,166555.902],[144091.231,166555.671],[144092.675,166554.487],[144094.354,166553.111]]]},"geometry_name":"GEOM","properties":{"INSPIRE_ID":"https://databrussels.be/id/building/1775473","BLOCK_ID":"https://databrussels.be/id/block/24179","AREA":14},"bbox":[144091.231,166553.111,144096.617,166558.434]},{"type":"Feature","id":"Buildings.fid--6f55e203_1a0298fa251_-5c5b","geometry":{"type":"Polygon","coordinates":[[[144092.675,166554.487],[144092.65557238,166554.50292957],[144090.6253479,166551.64736001],[144094.04021452,166548.77816029],[144096.06667709,166551.76799841],[144094.35393119,166553.11090498],[144093.85715951,166553.51817839],[144092.675,166554.487]]]},"geometry_name":"GEOM","properties":{"INSPIRE_ID":"https://databrussels.be/id/building/1783946","BLOCK_ID":"https://databrussels.be/id/block/24179","AREA":16},"bbox":[144090.6253479,166548.77816029,144096.06667709,166554.50292957]},{"type":"Feature","id":"Buildings.fid--6f55e203_1a0298fa251_-5c7c","geometry":{"type":"Polygon","coordinates":[[[144114.5726031,166549.97801426],[144116.24210354,166548.59444531],[144118.31715527,166551.09833194],[144116.64765483,166552.48190088],[144114.5726031,166549.97801426]]]},"geometry_name":"GEOM","properties":{"INSPIRE_ID":"https://databrussels.be/id/building/1788656","BLOCK_ID":"https://databrussels.be/id/block/24179","AREA":7},"bbox":[144114.5726031,166548.59444531,144118.31715527,166552.48190088]},{"type":"Feature","id":"Buildings.fid--6f55e203_1a0298fa251_-5c6d","geometry":{"type":"Polygon","coordinates":[[[144375.5019426,166827.55978998],[144375.27581958,166826.2518421],[144377.41017605,166825.8828464],[144377.63629908,166827.19079428],[144375.5019426,166827.55978998]]]},"geometry_name":"GEOM","properties":{"INSPIRE_ID":"https://databrussels.be/id/building/1788657","BLOCK_ID":"https://databrussels.be/id/block/24179","AREA":3},"bbox":[144375.27581958,166825.8828464,144377.63629908,166827.55978998]},{"type":"Feature","id":"Buildings.fid--6f55e203_1a0298fa251_-5c66","geometry":{"type":"Polygon","coordinates":[[[144007.3676796,166916.62202889],[144020.69905201,166908.3566152],[144023.07079923,166912.04274098],[144009.69210596,166920.35258972],[144007.3676796,166916.62202889]]]},"geometry_name":"GEOM","properties":{"INSPIRE_ID":"https://databrussels.be/id/building/1791127","BLOCK_ID":"https://databrussels.be/id/block/27188","AREA":69},"bbox":[144007.3676796,166908.3566152,144023.07079923,166920.35258972]},{"type":"Feature","id":"Buildings.fid--6f55e203_1a0298fa251_-5c7b","geometry":{"type":"Polygon","coordinates":[[[144109.453,166561.891],[144105.539,166557.252],[144111.276,166552.194],[144115.297,166556.961],[144109.453,166561.891]]]},"geometry_name":"GEOM","properties":{"INSPIRE_ID":"https://databrussels.be/id/building/1797831","BLOCK_ID":"https://databrussels.be/id/block/24179","AREA":47},"bbox":[144105.539,166552.194,144115.297,166561.891]},{"type":"Feature","id":"Buildings.fid--6f55e203_1a0298fa251_-5c63","geometry":{"type":"Polygon","coordinates":[[[144021.5393389,166902.19181309],[144029.25000014,166897.44999944],[144034.18000027,166905.26000037],[144026.47745195,166910.04425024],[144026.39171574,166910.0975032],[144023.44303946,166912.11336809],[144019.72468754,166906.67486995],[144018.16,166904.27],[144021.5393389,166902.19181309]]]},"geometry_name":"GEOM","properties":{"INSPIRE_ID":"https://databrussels.be/id/building/1805638","BLOCK_ID":"https://databrussels.be/id/block/27188","AREA":120},"bbox":[144018.16,166897.44999944,144034.18000027,166912.11336809]},{"type":"Feature","id":"Buildings.fid--6f55e203_1a0298fa251_-5c7d","geometry":{"type":"Polygon","coordinates":[[[144123.4894,166550.3309],[144122.2009,166548.6725],[144127.4522,166544.5922],[144128.7408,166546.2506],[144123.4894,166550.3309]]]},"geometry_name":"GEOM","properties":{"INSPIRE_ID":"https://databrussels.be/id/building/1808857","BLOCK_ID":"https://databrussels.be/id/block/24179","AREA":14},"bbox":[144122.2009,166544.5922,144128.7408,166550.3309]},{"type":"Feature","id":"Buildings.fid--6f55e203_1a0298fa251_-5c6b","geometry":{"type":"Polygon","coordinates":[[[144362.9016,166833.7563],[144362.703,166830.996],[144366.6851,166830.7095],[144366.8837,166833.4698],[144362.9016,166833.7563]]]},"geometry_name":"GEOM","properties":{"INSPIRE_ID":"https://databrussels.be/id/building/1828111","BLOCK_ID":"https://databrussels.be/id/block/24179","AREA":11},"bbox":[144362.703,166830.7095,144366.8837,166833.7563]}],"numberReturned":45,"grand_bruxelles_source":{"authority":"Paradigm / Brussels-Capital Region","service":"https://geoservices-urbis.irisnet.be/geoserver/urbisvector/wfs","layer":"urbisvector:Buildings","crs":"EPSG:31370","bbox":[144000.0,166500.0,144500.0,167000.0],"cell_id":"bxl-e144000-n166500-s500","ownership":"polygon_or_multipolygon_centroid_global_500m_cell"}}
