{"type":"FeatureCollection","totalFeatures":9,"numberMatched":9,"timeStamp":"2026-08-24T03:42:08.248Z","crs":{"type":"name","properties":{"name":"urn:ogc:def:crs:EPSG::31370"}},"bbox":[156005.70609834,163686.78978262,157910.11933229,165306.107],"features":[{"type":"Feature","id":"StreetSurfaces.fid-13d79f14_1a031586a2a_-2155","geometry":{"type":"Polygon","coordinates":[[[157895.76578736,164693.41282173],[157894.14,164694.80000036],[157893.77,164692.39000036],[157892.79,164690.46000036],[157891.62,164688.62000036],[157888.71,164686.89000036],[157881.258,164683.85300036],[157870.21,164679.35000036],[157834.37,164663.71000036],[157809.689,164653.75700036],[157781.24,164641.92800036],[157731.72,164620.43000036],[157709.46,164610.97000036],[157667.64,164592.64000036],[157627.15,164575.57000036],[157565.35,164548.99000036],[157531.972,164534.49500036],[157505.8,164523.57000036],[157458.33,164503.30000036],[157458.24,164502.57000036],[157458.88,164500.99],[157460.8873875,164501.91472036],[157538.9000575,164535.23008036],[157580.8099375,164553.16000036],[157622.7599325,164570.47008036],[157640.5599875,164578.26992036],[157657.6500425,164585.62000036],[157685.25005,164597.41008036],[157711.7499125,164608.63008036],[157734.1099425,164618.22000036],[157762.40007,164630.28000036],[157787.84008,164641.19008036],[157817.66008,164653.99008036],[157862.4800725,164673.69008036],[157871.560085,164677.72000036],[157885.47999,164683.63008036],[157890.5900375,164685.71008036],[157893.1499425,164687.62000036],[157894.71993,164689.87008036],[157895.7400225,164693.17008036],[157895.76578736,164693.41282173]]]},"geometry_name":"GEOM","properties":{"INSPIRE_ID":"https://databrussels.be/id/streetsurface/131871","TYPE":"SW","STREET_ID":"https://databrussels.be/id/streetname/1981","STRNAMEFRE":"Drève de Willerieken","STRNAMEDUT":"Willerieksedreef","MUNNISCODE":"21002","HIERARCHY":"DR","LVL":0,"ADMIN":"MUN_RBC","AREA":1221},"bbox":[157458.24,164500.99,157895.76578736,164694.80000036]},{"type":"Feature","id":"StreetSurfaces.fid-13d79f14_1a031586a2a_-2157","geometry":{"type":"Polygon","coordinates":[[[157209.91111799,164394.89899533],[157200.55,164390.87000036],[157172.03940092,164378.69081153],[157171.69732461,164378.54487038],[157158.888,164373.10200036],[157158.29115324,164372.85863494],[157158.07098452,164372.7687989],[157156.95344087,164372.31280454],[157158.41888221,164370.75105958],[157161.96397395,164372.26618408],[157231.91405459,164402.16190704],[157313.71560993,164436.36182853],[157415.76838024,164479.76650367],[157463.36009706,164500.22722256],[157478.55195479,164506.67853633],[157571.01416044,164545.82027186],[157622.83709879,164567.93951884],[157654.94892528,164581.69495392],[157675.14008247,164590.41771258],[157810.76778257,164648.39465231],[157851.22005706,164665.50015891],[157902.63241615,164687.55397392],[157895.76578736,164693.41282173],[157895.7400225,164693.17008036],[157894.71993,164689.87008036],[157893.1499425,164687.62000036],[157890.5900375,164685.71008036],[157885.47999,164683.63008036],[157871.560085,164677.72000036],[157862.4800725,164673.69008036],[157817.66008,164653.99008036],[157787.84008,164641.19008036],[157762.40007,164630.28000036],[157734.1099425,164618.22000036],[157711.7499125,164608.63008036],[157685.25005,164597.41008036],[157657.6500425,164585.62000036],[157640.5599875,164578.26992036],[157622.7599325,164570.47008036],[157580.8099375,164553.16000036],[157538.9000575,164535.23008036],[157460.8873875,164501.91472036],[157458.88,164500.99],[157447.74759675,164495.86204266],[157422.96760505,164485.40294178],[157415.217525,164482.13200036],[157388.9175275,164470.75200036],[157385.03623312,164469.11536097],[157367.40759675,164461.68204267],[157351.51232196,164454.93254948],[157342.13758,164450.95200036],[157323.96462632,164443.26015464],[157319.05,164441.18000036],[157315.62663412,164439.74464342],[157303.9166825,164434.83488036],[157303.44752471,164434.63816717],[157301.28795925,164433.73268285],[157299.74270336,164433.08484931],[157297.68,164432.22000036],[157295.6910271,164431.3675834],[157284.03,164426.37000036],[157256.33,164414.99000036],[157233.64,164405.07000036],[157223.75738997,164400.83924525],[157215.419975,164397.26992036],[157209.91111799,164394.89899533]]]},"geometry_name":"GEOM","properties":{"INSPIRE_ID":"https://databrussels.be/id/streetsurface/23377","TYPE":"S","STREET_ID":"https://databrussels.be/id/streetname/1981","STRNAMEFRE":"Drève de Willerieken","STRNAMEDUT":"Willerieksedreef","MUNNISCODE":"21002","HIERARCHY":"DR","LVL":0,"ADMIN":"MUN_RBC","AREA":2003},"bbox":[157156.95344087,164370.75105958,157902.63241615,164693.41282173]},{"type":"Feature","id":"StreetSurfaces.fid-13d79f14_1a031586a2a_-2152","geometry":{"type":"Polygon","coordinates":[[[156955.876,165302.178],[156956.902,165301.94],[156957.826,165301.389],[156958.923,165300.282],[156959.844,165297.521],[156961.654,165290.121],[156968.477,165263.814],[156970.41941861,165255.42033757],[156993.09754717,165170.45905551],[157000,165146.58],[157016.326,165090.875],[157027.43,165059.575],[157049.858,165000],[157052.75,164992.86],[157062.2,164968.69],[157097.31,164877.07],[157114.359,164835.141],[157115.34,164832.851],[157117.064,164836.185],[157116.198,164837.677],[157088.20130126,164907.79167544],[157079.16,164930.96],[157052.50845797,164999.98739716],[157026.07,165070.35],[157014.63439252,165104.40593417],[156996.40761416,165169.329],[156978.18933551,165237.31155894],[156969.06762002,165271.82943329],[156961.14,165303.023],[156961.067,165304.141],[156961.261,165305.179],[156961.596,165306.107],[156955.876,165302.178]]]},"geometry_name":"GEOM","properties":{"INSPIRE_ID":"https://databrussels.be/id/streetsurface/38689","TYPE":"S","STREET_ID":"https://databrussels.be/id/streetname/2939","STRNAMEFRE":"Petite drève des Mésanges","STRNAMEDUT":"Mezendreefje","MUNNISCODE":"21002","HIERARCHY":"T","LVL":0,"ADMIN":"MUN_RBC","AREA":1292},"bbox":[156955.876,164832.851,157117.064,165306.107]},{"type":"Feature","id":"StreetSurfaces.fid-13d79f14_1a031586a2a_-2159","geometry":{"type":"Polygon","coordinates":[[[157119.13118185,164836.33102978],[157123.277,164834.796],[157125.58306279,164838.75810872],[157140.16033272,164860.48972651],[157159.21983976,164888.72009793],[157175.44,164912.83],[157198.94056505,164946.90043413],[157210.68001266,164964.88002927],[157243.47,165013.65],[157272.49,165056],[157295.551,165089.548],[157307.461,165107.611],[157315.431,165117.875],[157317.134,165120.685],[157324.96,165133.59],[157336.84,165151.34],[157347.37,165166.53],[157358.03,165180.92],[157369.41,165197.541],[157375.84597088,165206.73122643],[157374.23940647,165207.79607142],[157367.819,165198.629],[157356.869,165182.618],[157342.54,165163.58],[157319.18,165128.99],[157314.502,165122.616],[157311.375,165118.575],[157306.635,165111.119],[157296.93,165096.69],[157272.61,165061.56],[157252.27,165031.73],[157231.04,165000],[157208.29087806,164965.82992512],[157181.12,164926.23],[157158.92,164893.14],[157143.98004635,164871.07005935],[157129.13,164849.16],[157121.096,164837.951],[157119.80840295,164836.73353128],[157119.13118185,164836.33102978]]]},"geometry_name":"GEOM","properties":{"INSPIRE_ID":"https://databrussels.be/id/streetsurface/38690","TYPE":"S","STREET_ID":"https://databrussels.be/id/streetname/3951","STRNAMEFRE":"Drève du Prince","STRNAMEDUT":"Prinsdreef","MUNNISCODE":"21002","HIERARCHY":"T","LVL":0,"ADMIN":"MUN_RBC","AREA":1211},"bbox":[157119.13118185,164834.796,157375.84597088,165207.79607142]},{"type":"Feature","id":"StreetSurfaces.fid-13d79f14_1a031586a2a_-2158","geometry":{"type":"Polygon","coordinates":[[[157119.438,164820.577],[157120.917,164819.675],[157123.618,164814.704],[157135.01,164789.04],[157143.49,164770.02],[157154,164745.83],[157164.72,164721.21],[157179.93,164686.92],[157200.09,164640.71],[157217.07,164602.33],[157229.03,164574.93],[157233.55,164565.54],[157249.94,164533.42],[157255.24,164521.08],[157260.75,164511.51],[157279.55,164474.87],[157286.152,164461.435],[157299.74270336,164433.08484895],[157303.91667357,164434.83490853],[157288.684,164462.496],[157287.91,164464.15],[157268.42,164502.02],[157257.91,164522.92],[157253.49,164532.39],[157241.42,164556.24],[157224.37,164592.09],[157201.76,164642.98],[157177.21,164699.4],[157162.61,164732.43],[157148.25,164765.66],[157135.78,164793.44],[157128.124,164811.186],[157124.409,164820.603],[157123.644,164822.938],[157123.1617027,164824.80304524],[157119.438,164820.577]]]},"geometry_name":"GEOM","properties":{"INSPIRE_ID":"https://databrussels.be/id/streetsurface/38691","TYPE":"S","STREET_ID":"https://databrussels.be/id/streetname/2939","STRNAMEFRE":"Petite drève des Mésanges","STRNAMEDUT":"Mezendreefje","MUNNISCODE":"21002","HIERARCHY":"T","LVL":0,"ADMIN":"MUN_RBC","AREA":1164},"bbox":[157119.438,164433.08484895,157303.91667357,164824.80304524]},{"type":"Feature","id":"StreetSurfaces.fid-13d79f14_1a031586a2a_-2153","geometry":{"type":"Polygon","coordinates":[[[156867.35,164451.48],[156871.26,164451.29],[156881.24,164467.57],[156889.57,164480.39],[156902.00257226,164499.28844698],[156909.61462129,164511.57779857],[156913.42687976,164518.16121308],[156915.95216336,164522.81096956],[156928.72,164540.89],[156935.94,164552.72],[156956.08,164582.62],[156971.71230322,164603.83628724],[156975.55042394,164610.65088188],[156981.02795097,164621.0156881],[156982.63748546,164624.11323112],[156988.61133464,164633.7465899],[156991.68047704,164637.30150451],[156997.58346518,164644.05625089],[157002.63769264,164649.78460287],[157005.45648033,164653.48067881],[157007.51924543,164656.75617726],[157009.58638297,164660.48509874],[157011.46,164664.28309787],[157014.52002637,164671.93],[157017.3986169,164677.38],[157024.61,164687.2049162],[157063.24,164745.06],[157071.33,164758.48],[157092.58,164789.42],[157109.15,164814.18],[157111.861,164817.896],[157114.084,164819.29],[157115.151,164819.918],[157116.443,164820.393],[157113.39065333,164824.09357023],[157110.5,164820.51],[157094.63,164795.59],[157070.54,164760.73],[157042.93384041,164718.61663363],[157035.67787175,164708.18904592],[157025.98571913,164693.31053688],[157019.9448422,164685.18519172],[157015.91289276,164679.60347056],[157013.12715998,164674.77130346],[157007.82,164662.39],[157004.47598609,164656.0232481],[157002.42312686,164652.70629306],[157000.25644581,164650.04240606],[156993.32354854,164642.25601549],[156989.13748351,164637.48579924],[156987.51086952,164635.26727403],[156985.10541137,164631.83342635],[156980.81128286,164624.7],[156977.8,164619.56],[156972.85331712,164609.76],[156970.12126774,164604.83742283],[156956.21291647,164586.80681852],[156948.7809217,164576.0569142],[156931.02,164549.05],[156928.16378101,164543.96449184],[156924.25491152,164537.95],[156918.03005112,164529.38647784],[156913.62878222,164523.25509096],[156910.90230264,164517.98816157],[156900.66925721,164501.02307107],[156870.03,164454.23],[156867.35,164451.48]]]},"geometry_name":"GEOM","properties":{"INSPIRE_ID":"https://databrussels.be/id/streetsurface/38692","TYPE":"S","STREET_ID":"https://databrussels.be/id/streetname/3951","STRNAMEFRE":"Drève du Prince","STRNAMEDUT":"Prinsdreef","MUNNISCODE":"21002","HIERARCHY":"T","LVL":0,"ADMIN":"MUN_RBC","AREA":971},"bbox":[156867.35,164451.29,157116.443,164824.09357023]},{"type":"Feature","id":"StreetSurfaces.fid-13d79f14_1a031586a2a_-2151","geometry":{"type":"Polygon","coordinates":[[[157113.39065333,164824.09357023],[157116.443,164820.393],[157117.984,164820.768],[157119.438,164820.577],[157123.1617027,164824.80304524],[157122.456,164827.571],[157122.236,164829.285],[157122.409,164832.292],[157123.277,164834.796],[157119.13118185,164836.33102978],[157118.60093002,164836.22283382],[157118.074067,164836.13944997],[157117.54333661,164836.10880243],[157117.064,164836.185],[157115.34,164832.851],[157116.038,164830.587],[157116.016,164828.996],[157114.678,164825.696],[157113.39065333,164824.09357023]]]},"geometry_name":"GEOM","properties":{"INSPIRE_ID":"https://databrussels.be/id/streetsurface/38696","TYPE":"I","STREET_ID":"https://databrussels.be/id/streetname/3951","STRNAMEFRE":"Drève du Prince","STRNAMEDUT":"Prinsdreef","MUNNISCODE":"21002","HIERARCHY":"T","LVL":0,"ADMIN":"MUN_RBC","AREA":105},"bbox":[157113.39065333,164820.393,157123.277,164836.33102978]},{"type":"Feature","id":"StreetSurfaces.fid-13d79f14_1a031586a2a_-2156","geometry":{"type":"Polygon","coordinates":[[[157610.91517749,165000.00000036],[157611.208,164999.66600036],[157639.723,164969.07200036],[157679.034,164925.99300036],[157717.222,164880.63100036],[157726.472,164868.37800036],[157736.369,164854.70500036],[157738.57771993,164851.52940303],[157745.71795279,164856.49501159],[157745.6623525,164856.82480036],[157745.74347,164857.33728036],[157745.9683625,164857.58352036],[157746.19361,164857.68640036],[157746.5214525,164857.68688036],[157746.91578662,164857.45124264],[157758.23192244,164869.41437276],[157745.11172016,164881.82500355],[157730.20459081,164896.64251328],[157725.68539129,164900.67153162],[157713.71579945,164913.19086801],[157668.28605687,164962.31059156],[157620.01242221,165014.42361945],[157595.43489765,165041.0508353],[157582.15947068,165055.28149095],[157572.72219929,165065.10440948],[157565.42295532,165072.62012757],[157554.65612063,165083.36753631],[157543.34795108,165094.58255233],[157539.60795361,165098.18819327],[157537.30298055,165099.71610302],[157436.73762596,165166.37170311],[157454.306,165152.35500036],[157480.56,165130.04300036],[157506.994,165106.44500036],[157524.889,165089.16300036],[157551.535,165062.97900036],[157563.74,165050.56800036],[157591.889,165020.70700036],[157604.431,165007.39600036],[157610.91167063,165000.00400036],[157611.57619641,165000.00400036],[157611.5799175,165000.00000036],[157610.91517749,165000.00000036]]]},"geometry_name":"GEOM","properties":{"INSPIRE_ID":"https://databrussels.be/id/streetsurface/47191","TYPE":"S","STREET_ID":"https://databrussels.be/id/streetname/5572","STRNAMEFRE":"Autoroute E411","STRNAMEDUT":"Autosnelweg E411","MUNNISCODE":"21002","HIERARCHY":"H","LVL":0,"ADMIN":"MUN_RBC","AREA":6470},"bbox":[157436.73762596,164851.52940303,157758.23192244,165166.37170311]},{"type":"Feature","id":"StreetSurfaces.fid-13d79f14_1a031586a2a_-2154","geometry":{"type":"Polygon","coordinates":[[[157907.18399406,164682.90571458],[157906.57,164682.52000036],[157900.14,164682.79000036],[157896.34,164682.80000036],[157895.99,164683.01000036],[157895.89,164683.49000036],[157896.24,164683.75000036],[157896.82,164683.98000036],[157900.03,164684.42000036],[157905.94763771,164684.72531096],[157902.63241615,164687.55397392],[157851.22005706,164665.50015891],[157810.76778257,164648.39465231],[157675.14008247,164590.41771258],[157654.94892528,164581.69495392],[157622.83709879,164567.93951884],[157571.01416044,164545.82027186],[157478.55195479,164506.67853633],[157463.36009706,164500.22722256],[157415.76838024,164479.76650367],[157313.71560993,164436.36182853],[157231.91405459,164402.16190704],[157161.96397395,164372.26618408],[157158.41888221,164370.75105958],[156988.07418164,164297.94505248],[156845.08604027,164237.00806355],[156780.27034194,164209.31031811],[156760.81924155,164201.07649496],[156697.33163711,164174.09059876],[156684.40291486,164168.69304534],[156677.36849952,164165.56883204],[156672.00812064,164162.66543055],[156666.65566218,164159.09502693],[156613.69990556,164121.91792277],[156577.35564162,164096.40396798],[156220.11733435,163843.57167347],[156006.94947362,163690.96956178],[156005.70609834,163690.07945718],[156007.91741057,163686.78978262],[156046.07082493,163712.43642652],[156150.28686282,163787.34236048],[156370.74767983,163943.91708319],[156477.80981018,164018.98887578],[156605.41151035,164109.68740808],[156638.15355931,164133.17903059],[156655.80655715,164145.77270745],[156668.23548366,164153.9331335],[156679.41684504,164160.44041453],[156686.70810605,164164.10271785],[156699.8025984,164169.86232539],[156901.50808555,164255.85061235],[157084.64952406,164334.13243331],[157151.07306311,164362.15526801],[157159.66722719,164365.66209121],[157170.29903494,164370.00036889],[157321.92051292,164434.44793369],[157461.62811896,164494.20558168],[157462.48526962,164492.08949098],[157814.34801202,164642.76220075],[157893.32737011,164675.87774057],[157897.69463408,164677.05243851],[157903.56636506,164677.06073838],[157910.11933229,164676.6170232],[157907.18399406,164682.90571458]]]},"geometry_name":"GEOM","properties":{"INSPIRE_ID":"https://databrussels.be/id/streetsurface/47195","TYPE":"S","STREET_ID":"https://databrussels.be/id/streetname/1981","STRNAMEFRE":"Drève de Willerieken","STRNAMEDUT":"Willerieksedreef","MUNNISCODE":"21002","HIERARCHY":"DR","LVL":0,"ADMIN":"MUN_RBC","AREA":11766},"bbox":[156005.70609834,163686.78978262,157910.11933229,164687.55397392]}],"numberReturned":9,"grand_bruxelles_source":{"authority":"Paradigm / Brussels-Capital Region","service":"https://geoservices-urbis.irisnet.be/geoserver/urbisvector/wfs","layer":"urbisvector:StreetSurfaces","crs":"EPSG:31370","bbox":[157000.0,164500.0,157500.0,165000.0],"cell_id":"bxl-e157000-n164500-s500","ownership":"bbox_intersection_source_unclipped"}}
