{"type":"FeatureCollection","totalFeatures":107,"numberMatched":107,"timeStamp":"2026-08-23T02:49:33.970Z","crs":{"type":"name","properties":{"name":"urn:ogc:def:crs:EPSG::31370"}},"bbox":[145949.75988008,173373.93505473,146604.05008171,174076.522],"features":[{"type":"Feature","id":"StreetAxes.fid-6d0a8ac7_1a02c00b059_3bd4","geometry":{"type":"LineString","coordinates":[[146122.8863676,173531.7232086],[146122.52261979,173528.23758647],[146123.57218636,173523.07961688]]},"geometry_name":"GEOM","properties":{"INSPIRE_ID":"https://databrussels.be/id/streetaxe/100764","TYPE":"I","HIERARCHY":"IDR","LVL":0,"STARTSN_ID":"https://databrussels.be/id/streetnode/","ENDSN_ID":"https://databrussels.be/id/streetnode/","STRNAMEFRE":"Avenue Van Overbeke","STRNAMEDUT":"Van Overbekelaan","SLOPE":null,"LENGTH":8.76822223474435},"bbox":[146122.52261979,173523.07961688,146123.57218636,173531.7232086]},{"type":"Feature","id":"StreetAxes.fid-6d0a8ac7_1a02c00b059_3bd6","geometry":{"type":"LineString","coordinates":[[146123.57218636,173523.07961688],[146125.70845731,173521.02539887],[146129.13116974,173519.05587958]]},"geometry_name":"GEOM","properties":{"INSPIRE_ID":"https://databrussels.be/id/streetaxe/100765","TYPE":"I","HIERARCHY":"IDR","LVL":0,"STARTSN_ID":"https://databrussels.be/id/streetnode/","ENDSN_ID":"https://databrussels.be/id/streetnode/","STRNAMEFRE":"Avenue Van Overbeke","STRNAMEDUT":"Van Overbekelaan","SLOPE":null,"LENGTH":6.91261081880154},"bbox":[146123.57218636,173519.05587958,146129.13116974,173523.07961688]},{"type":"Feature","id":"StreetAxes.fid-6d0a8ac7_1a02c00b059_3bd8","geometry":{"type":"LineString","coordinates":[[146129.13116974,173519.05587958],[146132.38284703,173518.87646963]]},"geometry_name":"GEOM","properties":{"INSPIRE_ID":"https://databrussels.be/id/streetaxe/100766","TYPE":"I","HIERARCHY":"IDR","LVL":0,"STARTSN_ID":"https://databrussels.be/id/streetnode/","ENDSN_ID":"https://databrussels.be/id/streetnode/","STRNAMEFRE":"Avenue Van Overbeke","STRNAMEDUT":"Van Overbekelaan","SLOPE":null,"LENGTH":3.25662297000876},"bbox":[146129.13116974,173518.87646963,146132.38284703,173519.05587958]},{"type":"Feature","id":"StreetAxes.fid-6d0a8ac7_1a02c00b059_3bd9","geometry":{"type":"LineString","coordinates":[[146132.38284703,173518.87646963],[146136.83603278,173520.29550519],[146139.95412464,173522.58058901]]},"geometry_name":"GEOM","properties":{"INSPIRE_ID":"https://databrussels.be/id/streetaxe/100767","TYPE":"I","HIERARCHY":"IDR","LVL":0,"STARTSN_ID":"https://databrussels.be/id/streetnode/","ENDSN_ID":"https://databrussels.be/id/streetnode/","STRNAMEFRE":"Avenue Van Overbeke","STRNAMEDUT":"Van Overbekelaan","SLOPE":null,"LENGTH":8.53957329283822},"bbox":[146132.38284703,173518.87646963,146139.95412464,173522.58058901]},{"type":"Feature","id":"StreetAxes.fid-6d0a8ac7_1a02c00b059_3bdf","geometry":{"type":"LineString","coordinates":[[146139.95412464,173522.58058901],[146141.37362829,173525.67914541],[146141.55385456,173530.28256263],[146140.97084413,173533.84001401]]},"geometry_name":"GEOM","properties":{"INSPIRE_ID":"https://databrussels.be/id/streetaxe/100768","TYPE":"I","HIERARCHY":"IDR","LVL":0,"STARTSN_ID":"https://databrussels.be/id/streetnode/","ENDSN_ID":"https://databrussels.be/id/streetnode/","STRNAMEFRE":"Avenue Van Overbeke","STRNAMEDUT":"Van Overbekelaan","SLOPE":null,"LENGTH":11.6200833751101},"bbox":[146139.95412464,173522.58058901,146141.55385456,173533.84001401]},{"type":"Feature","id":"StreetAxes.fid-6d0a8ac7_1a02c00b059_3bdc","geometry":{"type":"LineString","coordinates":[[146140.97084413,173533.84001401],[146138.73980294,173536.92029582],[146134.81121221,173539.60665894]]},"geometry_name":"GEOM","properties":{"INSPIRE_ID":"https://databrussels.be/id/streetaxe/100769","TYPE":"I","HIERARCHY":"IDR","LVL":0,"STARTSN_ID":"https://databrussels.be/id/streetnode/","ENDSN_ID":"https://databrussels.be/id/streetnode/","STRNAMEFRE":"Avenue Van Overbeke","STRNAMEDUT":"Van Overbekelaan","SLOPE":null,"LENGTH":8.56261824809613},"bbox":[146134.81121221,173533.84001401,146140.97084413,173539.60665894]},{"type":"Feature","id":"StreetAxes.fid-6d0a8ac7_1a02c00b059_3bda","geometry":{"type":"LineString","coordinates":[[146132.38284703,173518.87646963],[146134.0395049,173507.59901795]]},"geometry_name":"GEOM","properties":{"INSPIRE_ID":"https://databrussels.be/id/streetaxe/100770","TYPE":"I","HIERARCHY":"IDR","LVL":0,"STARTSN_ID":"https://databrussels.be/id/streetnode/","ENDSN_ID":"https://databrussels.be/id/streetnode/","STRNAMEFRE":"Avenue Van Overbeke","STRNAMEDUT":"Van Overbekelaan","SLOPE":null,"LENGTH":11.3984837451862},"bbox":[146132.38284703,173507.59901795,146134.0395049,173518.87646963]},{"type":"Feature","id":"StreetAxes.fid-6d0a8ac7_1a02c00b059_3bd2","geometry":{"type":"LineString","coordinates":[[146118.08226116,173510.43240648],[146118.44666024,173514.23976549],[146123.57218636,173523.07961688]]},"geometry_name":"GEOM","properties":{"INSPIRE_ID":"https://databrussels.be/id/streetaxe/100771","TYPE":"I","HIERARCHY":"IDR","LVL":0,"STARTSN_ID":"https://databrussels.be/id/streetnode/","ENDSN_ID":"https://databrussels.be/id/streetnode/","STRNAMEFRE":"Avenue Van Overbeke","STRNAMEDUT":"Van Overbekelaan","SLOPE":null,"LENGTH":14.0430738556224},"bbox":[146118.08226116,173510.43240648,146123.57218636,173523.07961688]},{"type":"Feature","id":"StreetAxes.fid-6d0a8ac7_1a02c00b059_3bd3","geometry":{"type":"LineString","coordinates":[[146118.08226116,173510.43240648],[146122.27207015,173511.75823103],[146129.13116974,173519.05587958]]},"geometry_name":"GEOM","properties":{"INSPIRE_ID":"https://databrussels.be/id/streetaxe/100772","TYPE":"I","HIERARCHY":"IDR","LVL":0,"STARTSN_ID":"https://databrussels.be/id/streetnode/","ENDSN_ID":"https://databrussels.be/id/streetnode/","STRNAMEFRE":"Avenue Van Overbeke","STRNAMEDUT":"Van Overbekelaan","SLOPE":null,"LENGTH":14.4097119807867},"bbox":[146118.08226116,173510.43240648,146129.13116974,173519.05587958]},{"type":"Feature","id":"StreetAxes.fid-6d0a8ac7_1a02c00b059_3bd1","geometry":{"type":"LineString","coordinates":[[146118.08226116,173510.43240648],[146134.0395049,173507.59901795]]},"geometry_name":"GEOM","properties":{"INSPIRE_ID":"https://databrussels.be/id/streetaxe/100773","TYPE":"I","HIERARCHY":"IDR","LVL":0,"STARTSN_ID":"https://databrussels.be/id/streetnode/","ENDSN_ID":"https://databrussels.be/id/streetnode/","STRNAMEFRE":"Avenue Van Overbeke","STRNAMEDUT":"Van Overbekelaan","SLOPE":null,"LENGTH":16.2068417181142},"bbox":[146118.08226116,173507.59901795,146134.0395049,173510.43240648]},{"type":"Feature","id":"StreetAxes.fid-6d0a8ac7_1a02c00b059_3bdd","geometry":{"type":"LineString","coordinates":[[146150.25436741,173550.42772788],[146145.24456406,173549.10842477],[146134.81121221,173539.60665894]]},"geometry_name":"GEOM","properties":{"INSPIRE_ID":"https://databrussels.be/id/streetaxe/100774","TYPE":"I","HIERARCHY":"IDR","LVL":0,"STARTSN_ID":"https://databrussels.be/id/streetnode/","ENDSN_ID":"https://databrussels.be/id/streetnode/","STRNAMEFRE":"Place Reine Fabiola","STRNAMEDUT":"Koningin Fabiolaplein","SLOPE":null,"LENGTH":19.2922471769369},"bbox":[146134.81121221,173539.60665894,146150.25436741,173550.42772788]},{"type":"Feature","id":"StreetAxes.fid-6d0a8ac7_1a02c00b059_3be0","geometry":{"type":"LineString","coordinates":[[146150.25436741,173550.42772788],[146149.56695268,173544.68090038],[146140.97084413,173533.84001401]]},"geometry_name":"GEOM","properties":{"INSPIRE_ID":"https://databrussels.be/id/streetaxe/100775","TYPE":"I","HIERARCHY":"IDR","LVL":0,"STARTSN_ID":"https://databrussels.be/id/streetnode/","ENDSN_ID":"https://databrussels.be/id/streetnode/","STRNAMEFRE":"Place Reine Fabiola","STRNAMEDUT":"Koningin Fabiolaplein","SLOPE":null,"LENGTH":19.6231802907049},"bbox":[146140.97084413,173533.84001401,146150.25436741,173550.42772788]},{"type":"Feature","id":"StreetAxes.fid-6d0a8ac7_1a02c00b059_3bd7","geometry":{"type":"LineString","coordinates":[[146128.94866213,173539.28992991],[146131.48247615,173539.85539626],[146134.81121221,173539.60665894]]},"geometry_name":"GEOM","properties":{"INSPIRE_ID":"https://databrussels.be/id/streetaxe/100776","TYPE":"I","HIERARCHY":"IDR","LVL":0,"STARTSN_ID":"https://databrussels.be/id/streetnode/","ENDSN_ID":"https://databrussels.be/id/streetnode/","STRNAMEFRE":"Avenue Van Overbeke","STRNAMEDUT":"Van Overbekelaan","SLOPE":null,"LENGTH":5.93416087388686},"bbox":[146128.94866213,173539.28992991,146134.81121221,173539.85539626]},{"type":"Feature","id":"StreetAxes.fid-6d0a8ac7_1a02c00b059_3bcd","geometry":{"type":"LineString","coordinates":[[146118.08226116,173510.43240648],[146044.06527147,173432.85741554],[146040.35327147,173428.58941554]]},"geometry_name":"GEOM","properties":{"INSPIRE_ID":"https://databrussels.be/id/streetaxe/100777","TYPE":"S","HIERARCHY":"IDR","LVL":0,"STARTSN_ID":"https://databrussels.be/id/streetnode/","ENDSN_ID":"https://databrussels.be/id/streetnode/","STRNAMEFRE":"Rue Sergent Sorensen","STRNAMEDUT":"Sergeant Sorensenstraat","SLOPE":3.67,"LENGTH":112.877630259235},"bbox":[146040.35327147,173428.58941554,146118.08226116,173510.43240648]},{"type":"Feature","id":"StreetAxes.fid-6d0a8ac7_1a02c00b059_3bcc","geometry":{"type":"LineString","coordinates":[[146037.46105606,173605.78871082],[146047.6480878,173597.71080896],[146119.37222993,173533.87304011],[146122.8863676,173531.7232086]]},"geometry_name":"GEOM","properties":{"INSPIRE_ID":"https://databrussels.be/id/streetaxe/100778","TYPE":"S","HIERARCHY":"IDR","LVL":0,"STARTSN_ID":"https://databrussels.be/id/streetnode/","ENDSN_ID":"https://databrussels.be/id/streetnode/","STRNAMEFRE":"Avenue Van Overbeke","STRNAMEDUT":"Van Overbekelaan","SLOPE":2,"LENGTH":113.139478632244},"bbox":[146037.46105606,173531.7232086,146122.8863676,173605.78871082]},{"type":"Feature","id":"StreetAxes.fid-6d0a8ac7_1a02c00b059_3bce","geometry":{"type":"LineString","coordinates":[[146128.94866213,173539.28992991],[146126.36886204,173541.70623536],[146051.73165257,173608.50923683],[146044.25949817,173614.81130941]]},"geometry_name":"GEOM","properties":{"INSPIRE_ID":"https://databrussels.be/id/streetaxe/100780","TYPE":"S","HIERARCHY":"IDR","LVL":0,"STARTSN_ID":"https://databrussels.be/id/streetnode/","ENDSN_ID":"https://databrussels.be/id/streetnode/","STRNAMEFRE":"Avenue Van Overbeke","STRNAMEDUT":"Van Overbekelaan","SLOPE":2.17,"LENGTH":113.476230215633},"bbox":[146044.25949817,173539.28992991,146128.94866213,173614.81130941]},{"type":"Feature","id":"StreetAxes.fid-6d0a8ac7_1a02c00b059_3bd5","geometry":{"type":"LineString","coordinates":[[146122.8863676,173531.7232086],[146123.80108132,173534.46290291],[146126.27695347,173537.59848576],[146128.94866213,173539.28992991]]},"geometry_name":"GEOM","properties":{"INSPIRE_ID":"https://databrussels.be/id/streetaxe/100781","TYPE":"I","HIERARCHY":"IDR","LVL":0,"STARTSN_ID":"https://databrussels.be/id/streetnode/","ENDSN_ID":"https://databrussels.be/id/streetnode/","STRNAMEFRE":"Avenue Van Overbeke","STRNAMEDUT":"Van Overbekelaan","SLOPE":0.68,"LENGTH":10.0457066319504},"bbox":[146122.8863676,173531.7232086,146128.94866213,173539.28992991]},{"type":"Feature","id":"StreetAxes.fid-6d0a8ac7_1a02c00b059_3bde","geometry":{"type":"LineString","coordinates":[[146139.95412464,173522.58058901],[146141.29149742,173520.23487408],[146148.83250734,173511.52906769],[146167.37723607,173465.43788179]]},"geometry_name":"GEOM","properties":{"INSPIRE_ID":"https://databrussels.be/id/streetaxe/100782","TYPE":"S","HIERARCHY":"IDR","LVL":0,"STARTSN_ID":"https://databrussels.be/id/streetnode/","ENDSN_ID":"https://databrussels.be/id/streetnode/","STRNAMEFRE":"Avenue Van Overbeke","STRNAMEDUT":"Van Overbekelaan","SLOPE":2.05,"LENGTH":63.8999286142064},"bbox":[146139.95412464,173465.43788179,146167.37723607,173522.58058901]},{"type":"Feature","id":"StreetAxes.fid-6d0a8ac7_1a02c00b059_3bdb","geometry":{"type":"LineString","coordinates":[[146134.0395049,173507.59901795],[146135.82807951,173500.18664565],[146176.86583969,173405.32512429]]},"geometry_name":"GEOM","properties":{"INSPIRE_ID":"https://databrussels.be/id/streetaxe/100786","TYPE":"S","HIERARCHY":"IDR","LVL":0,"STARTSN_ID":"https://databrussels.be/id/streetnode/","ENDSN_ID":"https://databrussels.be/id/streetnode/","STRNAMEFRE":"Avenue Van Overbeke","STRNAMEDUT":"Van Overbekelaan","SLOPE":2.2,"LENGTH":110.982767917632},"bbox":[146134.0395049,173405.32512429,146176.86583969,173507.59901795]},{"type":"Feature","id":"StreetAxes.fid-6d0a8ac7_1a02c00b059_3be2","geometry":{"type":"LineString","coordinates":[[146150.25436741,173550.42772788],[146190.1120346,173595.81506292]]},"geometry_name":"GEOM","properties":{"INSPIRE_ID":"https://databrussels.be/id/streetaxe/100787","TYPE":"S","HIERARCHY":"IDR","LVL":0,"STARTSN_ID":"https://databrussels.be/id/streetnode/","ENDSN_ID":"https://databrussels.be/id/streetnode/","STRNAMEFRE":"Place Reine Fabiola","STRNAMEDUT":"Koningin Fabiolaplein","SLOPE":2.16,"LENGTH":60.4040049675677},"bbox":[146150.25436741,173550.42772788,146190.1120346,173595.81506292]},{"type":"Feature","id":"StreetAxes.fid-6d0a8ac7_1a02c00b059_3be3","geometry":{"type":"LineString","coordinates":[[146150.25436741,173550.42772788],[146158.56260915,173546.47092429],[146179.29850369,173569.49318436],[146182.11971384,173579.0975628],[146190.1120346,173595.81506292]]},"geometry_name":"GEOM","properties":{"INSPIRE_ID":"https://databrussels.be/id/streetaxe/100788","TYPE":"S","HIERARCHY":"IDR","LVL":0,"STARTSN_ID":"https://databrussels.be/id/streetnode/","ENDSN_ID":"https://databrussels.be/id/streetnode/","STRNAMEFRE":"Place Reine Fabiola","STRNAMEDUT":"Koningin Fabiolaplein","SLOPE":null,"LENGTH":68.7261620384515},"bbox":[146150.25436741,173546.47092429,146190.1120346,173595.81506292]},{"type":"Feature","id":"StreetAxes.fid-6d0a8ac7_1a02c00b059_3b8f","geometry":{"type":"LineString","coordinates":[[146418.30503525,173932.18115566],[146418.9439598,173895.7511829]]},"geometry_name":"GEOM","properties":{"INSPIRE_ID":"https://databrussels.be/id/streetaxe/69526","TYPE":"S","HIERARCHY":"MER","LVL":0,"STARTSN_ID":"https://databrussels.be/id/streetnode/","ENDSN_ID":"https://databrussels.be/id/streetnode/","STRNAMEFRE":"Square du Centenaire","STRNAMEDUT":"Eeuwfeestsquare","SLOPE":null,"LENGTH":36.4355751959903},"bbox":[146418.30503525,173895.7511829,146418.9439598,173932.18115566]},{"type":"Feature","id":"StreetAxes.fid-6d0a8ac7_1a02c00b059_3b91","geometry":{"type":"LineString","coordinates":[[146409.1550635,173929.90046889],[146418.30503525,173932.18115566]]},"geometry_name":"GEOM","properties":{"INSPIRE_ID":"https://databrussels.be/id/streetaxe/69527","TYPE":"I","HIERARCHY":"MER","LVL":0,"STARTSN_ID":"https://databrussels.be/id/streetnode/","ENDSN_ID":"https://databrussels.be/id/streetnode/","STRNAMEFRE":"Square du Centenaire","STRNAMEDUT":"Eeuwfeestsquare","SLOPE":null,"LENGTH":9.42992657866241},"bbox":[146409.1550635,173929.90046889,146418.30503525,173932.18115566]},{"type":"Feature","id":"StreetAxes.fid-6d0a8ac7_1a02c00b059_3b87","geometry":{"type":"LineString","coordinates":[[146591.46717159,173874.36936754],[146491.38496378,173952.32132232]]},"geometry_name":"GEOM","properties":{"INSPIRE_ID":"https://databrussels.be/id/streetaxe/69540","TYPE":"C","HIERARCHY":"DC","LVL":0,"STARTSN_ID":"https://databrussels.be/id/streetnode/","ENDSN_ID":"https://databrussels.be/id/streetnode/","STRNAMEFRE":"Avenue de Jette","STRNAMEDUT":"Jetteselaan","SLOPE":null,"LENGTH":126.858013436478},"bbox":[146491.38496378,173874.36936754,146591.46717159,173952.32132232]},{"type":"Feature","id":"StreetAxes.fid-6d0a8ac7_1a02c00b059_3b86","geometry":{"type":"LineString","coordinates":[[146491.38496378,173952.32132232],[146493.53567179,173959.85442032]]},"geometry_name":"GEOM","properties":{"INSPIRE_ID":"https://databrussels.be/id/streetaxe/69541","TYPE":"IC","HIERARCHY":"DC","LVL":0,"STARTSN_ID":"https://databrussels.be/id/streetnode/","ENDSN_ID":"https://databrussels.be/id/streetnode/","STRNAMEFRE":"Avenue de Jette","STRNAMEDUT":"Jetteselaan","SLOPE":null,"LENGTH":7.8340992074248},"bbox":[146491.38496378,173952.32132232,146493.53567179,173959.85442032]},{"type":"Feature","id":"StreetAxes.fid-6d0a8ac7_1a02c00b059_3b94","geometry":{"type":"LineString","coordinates":[[146491.38496378,173952.32132232],[146467.3299269,173973.21899117],[146448.30439696,173991.00426728],[146428.23922058,174013.57388667],[146415.57772349,174031.84727228]]},"geometry_name":"GEOM","properties":{"INSPIRE_ID":"https://databrussels.be/id/streetaxe/69542","TYPE":"C","HIERARCHY":"DC","LVL":0,"STARTSN_ID":"https://databrussels.be/id/streetnode/","ENDSN_ID":"https://databrussels.be/id/streetnode/","STRNAMEFRE":"Square du Centenaire","STRNAMEDUT":"Eeuwfeestsquare","SLOPE":null,"LENGTH":110.339221874322},"bbox":[146415.57772349,173952.32132232,146491.38496378,174031.84727228]},{"type":"Feature","id":"StreetAxes.fid-6d0a8ac7_1a02c00b059_3ba2","geometry":{"type":"LineString","coordinates":[[146418.96542418,173862.17613557],[146419.1781973,173882.39551225],[146418.9439598,173895.7511829]]},"geometry_name":"GEOM","properties":{"INSPIRE_ID":"https://databrussels.be/id/streetaxe/69865","TYPE":"S","HIERARCHY":"MER","LVL":0,"STARTSN_ID":"https://databrussels.be/id/streetnode/","ENDSN_ID":"https://databrussels.be/id/streetnode/","STRNAMEFRE":"Avenue de l'Exposition Universelle","STRNAMEDUT":"Wereldtentoonstellingslaan","SLOPE":null,"LENGTH":33.578220743185},"bbox":[146418.9439598,173862.17613557,146419.1781973,173895.7511829]},{"type":"Feature","id":"StreetAxes.fid-6d0a8ac7_1a02c00b059_3ba4","geometry":{"type":"LineString","coordinates":[[146418.96542418,173862.17613557],[146434.27418598,173881.61598852],[146442.31483178,173890.91465062]]},"geometry_name":"GEOM","properties":{"INSPIRE_ID":"https://databrussels.be/id/streetaxe/69866","TYPE":"S","HIERARCHY":"DC","LVL":0,"STARTSN_ID":"https://databrussels.be/id/streetnode/","ENDSN_ID":"https://databrussels.be/id/streetnode/","STRNAMEFRE":"Square du Centenaire","STRNAMEDUT":"Eeuwfeestsquare","SLOPE":null,"LENGTH":37.036980399304},"bbox":[146418.96542418,173862.17613557,146442.31483178,173890.91465062]},{"type":"Feature","id":"StreetAxes.fid-6d0a8ac7_1a02c00b059_3b8d","geometry":{"type":"LineString","coordinates":[[146418.9439598,173895.7511829],[146421.07533498,173893.33653932],[146423.62152878,173891.3667314],[146426.52321882,173889.97405209],[146429.65079517,173889.2101782],[146432.86659053,173889.0250843],[146436.0760346,173889.31472791],[146439.23144259,173889.97320151],[146442.31483178,173890.91465062]]},"geometry_name":"GEOM","properties":{"INSPIRE_ID":"https://databrussels.be/id/streetaxe/69867","TYPE":"I","HIERARCHY":"DR","LVL":0,"STARTSN_ID":"https://databrussels.be/id/streetnode/","ENDSN_ID":"https://databrussels.be/id/streetnode/","STRNAMEFRE":"Square du Centenaire","STRNAMEDUT":"Eeuwfeestsquare","SLOPE":null,"LENGTH":25.7689591206195},"bbox":[146418.9439598,173889.0250843,146442.31483178,173895.7511829]},{"type":"Feature","id":"StreetAxes.fid-6d0a8ac7_1a02c00b059_3bb2","geometry":{"type":"LineString","coordinates":[[146190.1120346,173595.81506292],[146198.52756434,173584.33483412],[146236.548,173549.39],[146241.112,173545.514]]},"geometry_name":"GEOM","properties":{"INSPIRE_ID":"https://databrussels.be/id/streetaxe/73392","TYPE":"S","HIERARCHY":"DR","LVL":0,"STARTSN_ID":"https://databrussels.be/id/streetnode/8192","ENDSN_ID":"https://databrussels.be/id/streetnode/8193","STRNAMEFRE":"Rue Jean-Baptiste Van Pagé","STRNAMEDUT":"Jean-Baptiste Van Pagéstraat","SLOPE":0.28,"LENGTH":71.8621813872679},"bbox":[146190.1120346,173545.514,146241.112,173595.81506292]},{"type":"Feature","id":"StreetAxes.fid-6d0a8ac7_1a02c00b059_3bbe","geometry":{"type":"LineString","coordinates":[[146311.846,173853.823],[146307.24,173848.545],[146278.675,173815.44],[146273.265,173809.235]]},"geometry_name":"GEOM","properties":{"INSPIRE_ID":"https://databrussels.be/id/streetaxe/73395","TYPE":"S","HIERARCHY":"DR","LVL":0,"STARTSN_ID":"https://databrussels.be/id/streetnode/4698","ENDSN_ID":"https://databrussels.be/id/streetnode/8188","STRNAMEFRE":"Rue de l'Education","STRNAMEDUT":"Opvoedingsstraat","SLOPE":1.09,"LENGTH":58.9627209058806},"bbox":[146273.265,173809.235,146311.846,173853.823]},{"type":"Feature","id":"StreetAxes.fid-6d0a8ac7_1a02c00b059_3b88","geometry":{"type":"LineString","coordinates":[[146493.53567179,173959.85442032],[146493.11729484,173969.7138581],[146497.288,174017.69],[146501.876,174066.934],[146502.788,174076.522]]},"geometry_name":"GEOM","properties":{"INSPIRE_ID":"https://databrussels.be/id/streetaxe/74239","TYPE":"S","HIERARCHY":"DR","LVL":0,"STARTSN_ID":"https://databrussels.be/id/streetnode/13479","ENDSN_ID":"https://databrussels.be/id/streetnode/11473","STRNAMEFRE":"Rue Communale","STRNAMEDUT":"Gemeentestraat","SLOPE":1.56,"LENGTH":117.113940715799},"bbox":[146493.11729484,173959.85442032,146502.788,174076.522]},{"type":"Feature","id":"StreetAxes.fid-6d0a8ac7_1a02c00b059_3bad","geometry":{"type":"LineString","coordinates":[[146148.949064,173738.67833092],[146156.70137524,173732.51308113],[146186.47313627,173712.04605373],[146196.79159684,173710.21538292],[146210.83,173701.93],[146224.42314927,173690.31646726],[146234.565,173674.46],[146237.81,173669.25],[146242.00472999,173657.22985903]]},"geometry_name":"GEOM","properties":{"INSPIRE_ID":"https://databrussels.be/id/streetaxe/75768","TYPE":"S","HIERARCHY":null,"LVL":0,"STARTSN_ID":"https://databrussels.be/id/streetnode/8185","ENDSN_ID":"https://databrussels.be/id/streetnode/8191","STRNAMEFRE":"Rue Jean De Greef","STRNAMEDUT":"Jean De Greefstraat","SLOPE":0.54,"LENGTH":128.384093845559},"bbox":[146148.949064,173657.22985903,146242.00472999,173738.67833092]},{"type":"Feature","id":"StreetAxes.fid-6d0a8ac7_1a02c00b059_3be1","geometry":{"type":"LineString","coordinates":[[146148.949064,173738.67833092],[146153.94634334,173743.50910045],[146163.202,173759.265],[146182.788,173791.208],[146189.774,173803.5],[146193.534,173810.882]]},"geometry_name":"GEOM","properties":{"INSPIRE_ID":"https://databrussels.be/id/streetaxe/75769","TYPE":"S","HIERARCHY":"DR","LVL":0,"STARTSN_ID":"https://databrussels.be/id/streetnode/8185","ENDSN_ID":"https://databrussels.be/id/streetnode/8189","STRNAMEFRE":"Drève de Rivieren","STRNAMEDUT":"de Rivierendreef","SLOPE":2.64,"LENGTH":85.1163008864764},"bbox":[146148.949064,173738.67833092,146193.534,173810.882]},{"type":"Feature","id":"StreetAxes.fid-6d0a8ac7_1a02c00b059_3bd0","geometry":{"type":"LineString","coordinates":[[146110.07248635,173696.02703728],[146119.81012994,173703.31436705],[146138.49982249,173727.82687337],[146142.58982473,173732.53098209],[146148.949064,173738.67833092]]},"geometry_name":"GEOM","properties":{"INSPIRE_ID":"https://databrussels.be/id/streetaxe/75770","TYPE":"S","HIERARCHY":"DR","LVL":0,"STARTSN_ID":"https://databrussels.be/id/streetnode/8186","ENDSN_ID":"https://databrussels.be/id/streetnode/8185","STRNAMEFRE":"Place Guido Gezelle","STRNAMEDUT":"Guido Gezelleplein","SLOPE":1.64,"LENGTH":58.0655889177469},"bbox":[146110.07248635,173696.02703728,146148.949064,173738.67833092]},{"type":"Feature","id":"StreetAxes.fid-6d0a8ac7_1a02c00b059_3bbf","geometry":{"type":"LineString","coordinates":[[146286.804,173504.195],[146293.546,173498.073],[146316.914,173476.601],[146321.97,173472.021]]},"geometry_name":"GEOM","properties":{"INSPIRE_ID":"https://databrussels.be/id/streetaxe/75956","TYPE":"S","HIERARCHY":"DR","LVL":0,"STARTSN_ID":"https://databrussels.be/id/streetnode/1842","ENDSN_ID":"https://databrussels.be/id/streetnode/1972","STRNAMEFRE":"Rue Jean-Baptiste Van Pagé","STRNAMEDUT":"Jean-Baptiste Van Pagéstraat","SLOPE":2.83,"LENGTH":47.6637692160469},"bbox":[146286.804,173472.021,146321.97,173504.195]},{"type":"Feature","id":"StreetAxes.fid-6d0a8ac7_1a02c00b059_3bb1","geometry":{"type":"LineString","coordinates":[[146242.00472999,173657.22985903],[146232.17605368,173645.65531855],[146196.62006919,173605.06812585],[146190.1120346,173595.81506292]]},"geometry_name":"GEOM","properties":{"INSPIRE_ID":"https://databrussels.be/id/streetaxe/76013","TYPE":"S","HIERARCHY":"IDR","LVL":0,"STARTSN_ID":"https://databrussels.be/id/streetnode/8191","ENDSN_ID":"https://databrussels.be/id/streetnode/8192","STRNAMEFRE":"Avenue Pieter Goedefroy","STRNAMEDUT":"Pieter Goedefroylaan","SLOPE":4.18,"LENGTH":80.455935838701},"bbox":[146190.1120346,173595.81506292,146242.00472999,173657.22985903]},{"type":"Feature","id":"StreetAxes.fid-6d0a8ac7_1a02c00b059_3bbb","geometry":{"type":"LineString","coordinates":[[146242.00472999,173657.22985903],[146248.45,173664.82],[146324.954,173753.784],[146330.372,173760.145]]},"geometry_name":"GEOM","properties":{"INSPIRE_ID":"https://databrussels.be/id/streetaxe/76014","TYPE":"S","HIERARCHY":"IDR","LVL":0,"STARTSN_ID":"https://databrussels.be/id/streetnode/8191","ENDSN_ID":"https://databrussels.be/id/streetnode/134","STRNAMEFRE":"Avenue Louis De Brouckère","STRNAMEDUT":"Louis De Brouckèrelaan","SLOPE":2.08,"LENGTH":135.647956497289},"bbox":[146242.00472999,173657.22985903,146330.372,173760.145]},{"type":"Feature","id":"StreetAxes.fid-6d0a8ac7_1a02c00b059_3bb9","geometry":{"type":"LineString","coordinates":[[146241.112,173545.514],[146245.676,173541.639],[146279.09,173511.199],[146286.804,173504.195]]},"geometry_name":"GEOM","properties":{"INSPIRE_ID":"https://databrussels.be/id/streetaxe/77191","TYPE":"S","HIERARCHY":"DR","LVL":0,"STARTSN_ID":"https://databrussels.be/id/streetnode/8193","ENDSN_ID":"https://databrussels.be/id/streetnode/1842","STRNAMEFRE":"Rue Jean-Baptiste Van Pagé","STRNAMEDUT":"Jean-Baptiste Van Pagéstraat","SLOPE":0.23,"LENGTH":61.606971577148},"bbox":[146241.112,173504.195,146286.804,173545.514]},{"type":"Feature","id":"StreetAxes.fid-6d0a8ac7_1a02c00b059_3bbc","geometry":{"type":"LineString","coordinates":[[146311.846,173853.823],[146306.472,173858.469],[146272.938,173887.239],[146270.274,173898.2]]},"geometry_name":"GEOM","properties":{"INSPIRE_ID":"https://databrussels.be/id/streetaxe/77192","TYPE":"S","HIERARCHY":"DR","LVL":0,"STARTSN_ID":"https://databrussels.be/id/streetnode/4698","ENDSN_ID":"https://databrussels.be/id/streetnode/8190","STRNAMEFRE":"Rue Henri Meuwis","STRNAMEDUT":"Henri Meuwisstraat","SLOPE":0.72,"LENGTH":62.5681584268554},"bbox":[146270.274,173853.823,146311.846,173898.2]},{"type":"Feature","id":"StreetAxes.fid-6d0a8ac7_1a02c00b059_3bb5","geometry":{"type":"LineString","coordinates":[[146273.265,173809.235],[146268.905,173804.235],[146253.2,173786.084],[146241.678,173776.778],[146229.415,173783.8],[146201.635,173807.605],[146193.534,173810.882]]},"geometry_name":"GEOM","properties":{"INSPIRE_ID":"https://databrussels.be/id/streetaxe/77193","TYPE":"S","HIERARCHY":null,"LVL":0,"STARTSN_ID":"https://databrussels.be/id/streetnode/8188","ENDSN_ID":"https://databrussels.be/id/streetnode/8189","STRNAMEFRE":"Rue de l'Education","STRNAMEDUT":"Opvoedingsstraat","SLOPE":0.7,"LENGTH":104.901020491379},"bbox":[146193.534,173776.778,146273.265,173810.882]},{"type":"Feature","id":"StreetAxes.fid-6d0a8ac7_1a02c00b059_3bbd","geometry":{"type":"LineString","coordinates":[[146330.372,173760.145],[146321.63,173767.661],[146278.465,173804.825],[146273.265,173809.235]]},"geometry_name":"GEOM","properties":{"INSPIRE_ID":"https://databrussels.be/id/streetaxe/77196","TYPE":"S","HIERARCHY":"DR","LVL":0,"STARTSN_ID":"https://databrussels.be/id/streetnode/134","ENDSN_ID":"https://databrussels.be/id/streetnode/8188","STRNAMEFRE":"Rue Charles Moens","STRNAMEDUT":"Charles Moensstraat","SLOPE":1.13,"LENGTH":75.3064608142892},"bbox":[146273.265,173760.145,146330.372,173809.235]},{"type":"Feature","id":"StreetAxes.fid-6d0a8ac7_1a02c00b059_3b96","geometry":{"type":"LineString","coordinates":[[146406.63295488,174025.08690397],[146407.35577058,174018.91625556],[146407.85052016,174007.09408119],[146408.11394785,173998.05260113],[146408.58305394,173982.66951405],[146409.01745633,173969.75401592]]},"geometry_name":"GEOM","properties":{"INSPIRE_ID":"https://databrussels.be/id/streetaxe/78590","TYPE":"S","HIERARCHY":"MER","LVL":0,"STARTSN_ID":"https://databrussels.be/id/streetnode/10709","ENDSN_ID":"https://databrussels.be/id/streetnode/12149","STRNAMEFRE":"Square du Centenaire","STRNAMEDUT":"Eeuwfeestsquare","SLOPE":1.52,"LENGTH":55.4037173087365},"bbox":[146406.63295488,173969.75401592,146409.01745633,174025.08690397]},{"type":"Feature","id":"StreetAxes.fid-6d0a8ac7_1a02c00b059_3b8c","geometry":{"type":"LineString","coordinates":[[146270.274,173898.2],[146262.26,173896.22],[146211.54,173884.12],[146207.67771537,173883.15799623]]},"geometry_name":"GEOM","properties":{"INSPIRE_ID":"https://databrussels.be/id/streetaxe/79361","TYPE":"S","HIERARCHY":"DR","LVL":0,"STARTSN_ID":"https://databrussels.be/id/streetnode/8190","ENDSN_ID":"https://databrussels.be/id/streetnode/14013","STRNAMEFRE":"Avenue de la Réforme","STRNAMEDUT":"Hervormingslaan","SLOPE":0.82,"LENGTH":64.3786069040507},"bbox":[146207.67771537,173883.15799623,146270.274,173898.2]},{"type":"Feature","id":"StreetAxes.fid-6d0a8ac7_1a02c00b059_3be8","geometry":{"type":"LineString","coordinates":[[145983.68782907,173527.39492714],[145987.65267061,173534.4233623],[146034.06945231,173601.23678944],[146037.46105606,173605.78871082]]},"geometry_name":"GEOM","properties":{"INSPIRE_ID":"https://databrussels.be/id/streetaxe/79364","TYPE":"S","HIERARCHY":"DR","LVL":0,"STARTSN_ID":"https://databrussels.be/id/streetnode/8317","ENDSN_ID":"https://databrussels.be/id/streetnode/14237","STRNAMEFRE":"Rue de l'Eglise Saint-Martin","STRNAMEDUT":"Sint-Martinuskerkstraat","SLOPE":3.76,"LENGTH":95.1006353730532},"bbox":[145983.68782907,173527.39492714,146037.46105606,173605.78871082]},{"type":"Feature","id":"StreetAxes.fid-6d0a8ac7_1a02c00b059_3bc5","geometry":{"type":"LineString","coordinates":[[146330.372,173760.145],[146335.986,173766.736],[146363.6,173798.764],[146368.872,173804.937]]},"geometry_name":"GEOM","properties":{"INSPIRE_ID":"https://databrussels.be/id/streetaxe/79365","TYPE":"S","HIERARCHY":"IDR","LVL":0,"STARTSN_ID":"https://databrussels.be/id/streetnode/134","ENDSN_ID":"https://databrussels.be/id/streetnode/12920","STRNAMEFRE":"Avenue Louis De Brouckère","STRNAMEDUT":"Louis De Brouckèrelaan","SLOPE":1.78,"LENGTH":59.0643220273041},"bbox":[146330.372,173760.145,146368.872,173804.937]},{"type":"Feature","id":"StreetAxes.fid-6d0a8ac7_1a02c00b059_3bc0","geometry":{"type":"LineString","coordinates":[[146286.804,173504.195],[146293.82,173511.895],[146330.368,173552.117],[146337.475,173559.891]]},"geometry_name":"GEOM","properties":{"INSPIRE_ID":"https://databrussels.be/id/streetaxe/79703","TYPE":"S","HIERARCHY":"DR","LVL":0,"STARTSN_ID":"https://databrussels.be/id/streetnode/1842","ENDSN_ID":"https://databrussels.be/id/streetnode/13471","STRNAMEFRE":"Rue Guy Mottard","STRNAMEDUT":"Guy Mottardstraat","SLOPE":1.91,"LENGTH":75.2967547540075},"bbox":[146286.804,173504.195,146337.475,173559.891]},{"type":"Feature","id":"StreetAxes.fid-6d0a8ac7_1a02c00b059_3bba","geometry":{"type":"LineString","coordinates":[[146242.00472999,173657.22985903],[146248.06437559,173643.96992895],[146259.72,173632.82],[146297.344,173589.915],[146305.017,173585.123]]},"geometry_name":"GEOM","properties":{"INSPIRE_ID":"https://databrussels.be/id/streetaxe/79704","TYPE":"S","HIERARCHY":"DR","LVL":0,"STARTSN_ID":"https://databrussels.be/id/streetnode/8191","ENDSN_ID":"https://databrussels.be/id/streetnode/11045","STRNAMEFRE":"Rue Jean De Greef","STRNAMEDUT":"Jean De Greefstraat","SLOPE":0.91,"LENGTH":96.8202107089708},"bbox":[146242.00472999,173585.123,146305.017,173657.22985903]},{"type":"Feature","id":"StreetAxes.fid-6d0a8ac7_1a02c00b059_3b9b","geometry":{"type":"LineString","coordinates":[[146205.46032913,173993.32512823],[146209.97172092,173994.21916972],[146214.29292038,173998.60588627]]},"geometry_name":"GEOM","properties":{"INSPIRE_ID":"https://databrussels.be/id/streetaxe/80148","TYPE":"S","HIERARCHY":"DR","LVL":0,"STARTSN_ID":"https://databrussels.be/id/streetnode/9028","ENDSN_ID":"https://databrussels.be/id/streetnode/8094","STRNAMEFRE":"Drève du Château","STRNAMEDUT":"Kasteeldreef","SLOPE":1.21,"LENGTH":10.7567273974542},"bbox":[146205.46032913,173993.32512823,146214.29292038,173998.60588627]},{"type":"Feature","id":"StreetAxes.fid-6d0a8ac7_1a02c00b059_3bc6","geometry":{"type":"LineString","coordinates":[[146337.475,173559.891],[146345.638,173554.938],[146390.662,173513.668],[146401.969,173505.238]]},"geometry_name":"GEOM","properties":{"INSPIRE_ID":"https://databrussels.be/id/streetaxe/80155","TYPE":"S","HIERARCHY":"DR","LVL":0,"STARTSN_ID":"https://databrussels.be/id/streetnode/13471","ENDSN_ID":"https://databrussels.be/id/streetnode/637","STRNAMEFRE":"Rue Joseph Druez","STRNAMEDUT":"Joseph Druezstraat","SLOPE":2.99,"LENGTH":84.7285702917886},"bbox":[146337.475,173505.238,146401.969,173559.891]},{"type":"Feature","id":"StreetAxes.fid-6d0a8ac7_1a02c00b059_3b93","geometry":{"type":"LineString","coordinates":[[146415.57772349,174031.84727228],[146416.41053259,174015.17115688],[146417.68862961,173960.29939263],[146418.30503525,173932.18115566]]},"geometry_name":"GEOM","properties":{"INSPIRE_ID":"https://databrussels.be/id/streetaxe/80492","TYPE":"S","HIERARCHY":"MER","LVL":0,"STARTSN_ID":"https://databrussels.be/id/streetnode/8333","ENDSN_ID":"https://databrussels.be/id/streetnode/12085","STRNAMEFRE":"Square du Centenaire","STRNAMEDUT":"Eeuwfeestsquare","SLOPE":1.26,"LENGTH":99.7085375754315},"bbox":[146415.57772349,173932.18115566,146418.30503525,174031.84727228]},{"type":"Feature","id":"StreetAxes.fid-6d0a8ac7_1a02c00b059_3ba7","geometry":{"type":"LineString","coordinates":[[146437.69875042,173713.6274889],[146442.89833283,173708.16770939],[146446.7658885,173704.13756086],[146452.43981365,173698.1877609],[146458.33048085,173692.12733314],[146467.44106626,173683.57738079],[146475.51748101,173690.6823033],[146480.30211178,173695.33915056],[146489.37179585,173703.70993517]]},"geometry_name":"GEOM","properties":{"INSPIRE_ID":"https://databrussels.be/id/streetaxe/82059","TYPE":"S","HIERARCHY":"DR","LVL":0,"STARTSN_ID":"https://databrussels.be/id/streetnode/11548","ENDSN_ID":"https://databrussels.be/id/streetnode/11038","STRNAMEFRE":"Avenue de l'Exposition Universelle","STRNAMEDUT":"Wereldtentoonstellingslaan","SLOPE":0.54,"LENGTH":72.0682150253214},"bbox":[146437.69875042,173683.57738079,146489.37179585,173713.6274889]},{"type":"Feature","id":"StreetAxes.fid-6d0a8ac7_1a02c00b059_3bab","geometry":{"type":"LineString","coordinates":[[146549.4747315,173657.70415524],[146544.19719319,173664.71109329],[146539.51429506,173669.84007802],[146533.44617177,173676.37691692],[146525.97414861,173684.46074883],[146516.55042399,173694.17078322],[146509.30312286,173701.72022087],[146498.06265699,173713.3922691]]},"geometry_name":"GEOM","properties":{"INSPIRE_ID":"https://databrussels.be/id/streetaxe/82446","TYPE":"S","HIERARCHY":"MER","LVL":0,"STARTSN_ID":"https://databrussels.be/id/streetnode/12913","ENDSN_ID":"https://databrussels.be/id/streetnode/12925","STRNAMEFRE":"Avenue de l'Exposition Universelle","STRNAMEDUT":"Wereldtentoonstellingslaan","SLOPE":2.08,"LENGTH":75.845324734071},"bbox":[146498.06265699,173657.70415524,146549.4747315,173713.3922691]},{"type":"Feature","id":"StreetAxes.fid-6d0a8ac7_1a02c00b059_3b92","geometry":{"type":"LineString","coordinates":[[146409.01745633,173969.75401592],[146409.1550635,173929.90046889]]},"geometry_name":"GEOM","properties":{"INSPIRE_ID":"https://databrussels.be/id/streetaxe/82601","TYPE":"S","HIERARCHY":"MER","LVL":0,"STARTSN_ID":"https://databrussels.be/id/streetnode/12149","ENDSN_ID":"https://databrussels.be/id/streetnode/11037","STRNAMEFRE":"Square du Centenaire","STRNAMEDUT":"Eeuwfeestsquare","SLOPE":1.4,"LENGTH":39.8537845937588},"bbox":[146409.01745633,173929.90046889,146409.1550635,173969.75401592]},{"type":"Feature","id":"StreetAxes.fid-6d0a8ac7_1a02c00b059_3b95","geometry":{"type":"LineString","coordinates":[[146409.01745633,173969.75401592],[146402.51721304,173969.71691146],[146390.675,173971.37],[146298.48925691,173984.35423555]]},"geometry_name":"GEOM","properties":{"INSPIRE_ID":"https://databrussels.be/id/streetaxe/82602","TYPE":"S","HIERARCHY":"DR","LVL":0,"STARTSN_ID":"https://databrussels.be/id/streetnode/12149","ENDSN_ID":"https://databrussels.be/id/streetnode/8087","STRNAMEFRE":"Drève du Château","STRNAMEDUT":"Kasteeldreef","SLOPE":0.28,"LENGTH":111.553043588008},"bbox":[146298.48925691,173969.71691146,146409.01745633,173984.35423555]},{"type":"Feature","id":"StreetAxes.fid-6d0a8ac7_1a02c00b059_3b90","geometry":{"type":"LineString","coordinates":[[146409.1550635,173929.90046889],[146399.97037115,173929.53277172],[146279.972,173900.595],[146270.274,173898.2]]},"geometry_name":"GEOM","properties":{"INSPIRE_ID":"https://databrussels.be/id/streetaxe/82672","TYPE":"S","HIERARCHY":"DR","LVL":0,"STARTSN_ID":"https://databrussels.be/id/streetnode/11037","ENDSN_ID":"https://databrussels.be/id/streetnode/8190","STRNAMEFRE":"Avenue de la Réforme","STRNAMEDUT":"Hervormingslaan","SLOPE":0.94,"LENGTH":142.619664023375},"bbox":[146270.274,173898.2,146409.1550635,173929.90046889]},{"type":"Feature","id":"StreetAxes.fid-6d0a8ac7_1a02c00b059_3b8a","geometry":{"type":"LineString","coordinates":[[146409.1550635,173929.90046889],[146410.0685011,173903.49907329],[146409.81045866,173884.41556117],[146410.76555325,173852.7492179]]},"geometry_name":"GEOM","properties":{"INSPIRE_ID":"https://databrussels.be/id/streetaxe/82673","TYPE":"S","HIERARCHY":"MER","LVL":0,"STARTSN_ID":"https://databrussels.be/id/streetnode/11037","ENDSN_ID":"https://databrussels.be/id/streetnode/13458","STRNAMEFRE":"Square du Centenaire","STRNAMEDUT":"Eeuwfeestsquare","SLOPE":1.41,"LENGTH":77.1831924891834},"bbox":[146409.1550635,173852.7492179,146410.76555325,173929.90046889]},{"type":"Feature","id":"StreetAxes.fid-6d0a8ac7_1a02c00b059_3baa","geometry":{"type":"LineString","coordinates":[[146489.37179585,173703.70993517],[146498.60097374,173694.2072964],[146507.56319531,173684.91354999],[146516.53977802,173675.58826319],[146524.45683434,173667.33977062],[146531.44163404,173660.08363957],[146534.56544767,173656.67503252],[146540.17893586,173649.85476696]]},"geometry_name":"GEOM","properties":{"INSPIRE_ID":"https://databrussels.be/id/streetaxe/82674","TYPE":"S","HIERARCHY":"MER","LVL":0,"STARTSN_ID":"https://databrussels.be/id/streetnode/11038","ENDSN_ID":"https://databrussels.be/id/streetnode/13481","STRNAMEFRE":"Avenue de l'Exposition Universelle","STRNAMEDUT":"Wereldtentoonstellingslaan","SLOPE":1.81,"LENGTH":74.0632469787434},"bbox":[146489.37179585,173649.85476696,146540.17893586,173703.70993517]},{"type":"Feature","id":"StreetAxes.fid-6d0a8ac7_1a02c00b059_3bed","geometry":{"type":"LineString","coordinates":[[145980.47664832,173832.6347778],[145990.56287899,173834.92585532],[146035.05589289,173845.72261949],[146068.6837503,173853.81127985],[146090.36784475,173859.05932672]]},"geometry_name":"GEOM","properties":{"INSPIRE_ID":"https://databrussels.be/id/streetaxe/82675","TYPE":"S","HIERARCHY":"DR","LVL":0,"STARTSN_ID":"https://databrussels.be/id/streetnode/11039","ENDSN_ID":"https://databrussels.be/id/streetnode/12083","STRNAMEFRE":"Avenue de la Réforme","STRNAMEDUT":"Hervormingslaan","SLOPE":0.8,"LENGTH":113.024537013355},"bbox":[145980.47664832,173832.6347778,146090.36784475,173859.05932672]},{"type":"Feature","id":"StreetAxes.fid-6d0a8ac7_1a02c00b059_3be7","geometry":{"type":"LineString","coordinates":[[146109.28877093,174013.9814081],[146108.507353,174009.99902154],[146108.2256862,173998.91490365],[146113.15432942,173994.81987091],[146120.58407761,173994.72641137],[146127.40636212,173996.08157478],[146152.45450958,174003.47307081],[146154.38889768,174006.88156039]]},"geometry_name":"GEOM","properties":{"INSPIRE_ID":"https://databrussels.be/id/streetaxe/82743","TYPE":"S","HIERARCHY":"DR","LVL":0,"STARTSN_ID":"https://databrussels.be/id/streetnode/7759","ENDSN_ID":"https://databrussels.be/id/streetnode/8175","STRNAMEFRE":"Drève du Château","STRNAMEDUT":"Kasteeldreef","SLOPE":0.77,"LENGTH":65.9749164983826},"bbox":[146108.2256862,173994.72641137,146154.38889768,174013.9814081]},{"type":"Feature","id":"StreetAxes.fid-6d0a8ac7_1a02c00b059_3bc1","geometry":{"type":"LineString","coordinates":[[146437.69875042,173713.6274889],[146432.91,173708.98],[146428.27982164,173704.51185596],[146421.44760326,173697.96127355],[146413.56687781,173690.43415925],[146403.9635962,173681.22674166],[146396.278,173673.869],[146386.726,173664.641],[146377.403,173655.629],[146368.102,173646.668],[146310.886,173591.504],[146305.017,173585.123]]},"geometry_name":"GEOM","properties":{"INSPIRE_ID":"https://databrussels.be/id/streetaxe/82764","TYPE":"S","HIERARCHY":"DR","LVL":0,"STARTSN_ID":"https://databrussels.be/id/streetnode/11548","ENDSN_ID":"https://databrussels.be/id/streetnode/11045","STRNAMEFRE":"Avenue Georges Leclercq","STRNAMEDUT":"Georges Leclercqlaan","SLOPE":1.65,"LENGTH":184.725651320635},"bbox":[146305.017,173585.123,146437.69875042,173713.6274889]},{"type":"Feature","id":"StreetAxes.fid-6d0a8ac7_1a02c00b059_3bc3","geometry":{"type":"LineString","coordinates":[[146305.017,173585.123],[146316.25060581,173584.23260383],[146333.73267972,173568.28448105],[146337.475,173559.891]]},"geometry_name":"GEOM","properties":{"INSPIRE_ID":"https://databrussels.be/id/streetaxe/82778","TYPE":"S","HIERARCHY":"DR","LVL":0,"STARTSN_ID":"https://databrussels.be/id/streetnode/11045","ENDSN_ID":"https://databrussels.be/id/streetnode/13471","STRNAMEFRE":"Rue Joseph Druez","STRNAMEDUT":"Joseph Druezstraat","SLOPE":1.59,"LENGTH":44.1223951030803},"bbox":[146305.017,173559.891,146337.475,173585.123]},{"type":"Feature","id":"StreetAxes.fid-6d0a8ac7_1a02c00b059_3be4","geometry":{"type":"LineString","coordinates":[[146190.76505472,173875.82537542],[146186.5566478,173873.78447366],[146149.81294767,173863.9382083],[146092.54969502,173850.09522304]]},"geometry_name":"GEOM","properties":{"INSPIRE_ID":"https://databrussels.be/id/streetaxe/82779","TYPE":"S","HIERARCHY":"DR","LVL":0,"STARTSN_ID":"https://databrussels.be/id/streetnode/11046","ENDSN_ID":"https://databrussels.be/id/streetnode/12928","STRNAMEFRE":"Avenue de la Réforme","STRNAMEDUT":"Hervormingslaan","SLOPE":0.89,"LENGTH":101.629983236249},"bbox":[146092.54969502,173850.09522304,146190.76505472,173875.82537542]},{"type":"Feature","id":"StreetAxes.fid-6d0a8ac7_1a02c00b059_3b97","geometry":{"type":"LineString","coordinates":[[146298.48925691,173984.35423555],[146269.1012481,173988.49349631]]},"geometry_name":"GEOM","properties":{"INSPIRE_ID":"https://databrussels.be/id/streetaxe/82784","TYPE":"S","HIERARCHY":"DR","LVL":0,"STARTSN_ID":"https://databrussels.be/id/streetnode/8087","ENDSN_ID":"https://databrussels.be/id/streetnode/8184","STRNAMEFRE":"Drève du Château","STRNAMEDUT":"Kasteeldreef","SLOPE":0.24,"LENGTH":29.678081839413},"bbox":[146269.1012481,173984.35423555,146298.48925691,173988.49349631]},{"type":"Feature","id":"StreetAxes.fid-6d0a8ac7_1a02c00b059_3ba0","geometry":{"type":"LineString","coordinates":[[146410.76555325,173852.7492179],[146411.46110298,173834.53055856],[146410.44075367,173829.38961826],[146411.23629208,173823.80671665],[146412.60056628,173816.79182806],[146414.15599226,173809.63494718],[146415.97669152,173802.43804234],[146417.99582624,173795.77831082],[146421.49921193,173787.3410944],[146426.65530301,173777.12216369]]},"geometry_name":"GEOM","properties":{"INSPIRE_ID":"https://databrussels.be/id/streetaxe/82857","TYPE":"S","HIERARCHY":"MER","LVL":0,"STARTSN_ID":"https://databrussels.be/id/streetnode/13458","ENDSN_ID":"https://databrussels.be/id/streetnode/11047","STRNAMEFRE":"Avenue de l'Exposition Universelle","STRNAMEDUT":"Wereldtentoonstellingslaan","SLOPE":1.64,"LENGTH":78.547151542278},"bbox":[146410.44075367,173777.12216369,146426.65530301,173852.7492179]},{"type":"Feature","id":"StreetAxes.fid-6d0a8ac7_1a02c00b059_3b8e","geometry":{"type":"LineString","coordinates":[[146199.50152636,173889.43308061],[146200.91,173897.765],[146198.85,173928.78],[146198.765,173943.065],[146199.09,173950.78],[146200.99,173968.545],[146203.26,173979.775],[146205.46032913,173993.32512823]]},"geometry_name":"GEOM","properties":{"INSPIRE_ID":"https://databrussels.be/id/streetaxe/82860","TYPE":"S","HIERARCHY":"DR","LVL":0,"STARTSN_ID":"https://databrussels.be/id/streetnode/11546","ENDSN_ID":"https://databrussels.be/id/streetnode/9028","STRNAMEFRE":"Drève de Rivieren","STRNAMEDUT":"de Rivierendreef","SLOPE":1.47,"LENGTH":104.591620485472},"bbox":[146198.765,173889.43308061,146205.46032913,173993.32512823]},{"type":"Feature","id":"StreetAxes.fid-6d0a8ac7_1a02c00b059_3bc2","geometry":{"type":"LineString","coordinates":[[146305.017,173585.123],[146309.0940887,173576.37247852],[146326.01607307,173560.46954845],[146337.475,173559.891]]},"geometry_name":"GEOM","properties":{"INSPIRE_ID":"https://databrussels.be/id/streetaxe/83361","TYPE":"S","HIERARCHY":"DR","LVL":0,"STARTSN_ID":"https://databrussels.be/id/streetnode/11045","ENDSN_ID":"https://databrussels.be/id/streetnode/13471","STRNAMEFRE":"Rue Jean De Greef","STRNAMEDUT":"Jean De Greefstraat","SLOPE":1.58,"LENGTH":44.3491433025668},"bbox":[146305.017,173559.891,146337.475,173585.123]},{"type":"Feature","id":"StreetAxes.fid-6d0a8ac7_1a02c00b059_3bca","geometry":{"type":"LineString","coordinates":[[146604.05008171,173527.2847586],[146597.85279986,173523.31912867],[146584.793,173509.525],[146462.47,173380.324],[146456.36834714,173373.93505473]]},"geometry_name":"GEOM","properties":{"INSPIRE_ID":"https://databrussels.be/id/streetaxe/83369","TYPE":"S","HIERARCHY":"DR","LVL":0,"STARTSN_ID":"https://databrussels.be/id/streetnode/9627","ENDSN_ID":"https://databrussels.be/id/streetnode/9618","STRNAMEFRE":"Rue Prince Baudouin","STRNAMEDUT":"Prins Boudewijnstraat","SLOPE":3.75,"LENGTH":213.108506765159},"bbox":[146456.36834714,173373.93505473,146604.05008171,173527.2847586]},{"type":"Feature","id":"StreetAxes.fid-6d0a8ac7_1a02c00b059_3bea","geometry":{"type":"LineString","coordinates":[[146037.46105606,173605.78871082],[146024.77069341,173617.62860751],[145949.75988008,173685.2212564]]},"geometry_name":"GEOM","properties":{"INSPIRE_ID":"https://databrussels.be/id/streetaxe/83926","TYPE":"S","HIERARCHY":"IDR","LVL":0,"STARTSN_ID":"https://databrussels.be/id/streetnode/14237","ENDSN_ID":"https://databrussels.be/id/streetnode/11547","STRNAMEFRE":"Avenue Van Overbeke","STRNAMEDUT":"Van Overbekelaan","SLOPE":1.99,"LENGTH":118.328149853299},"bbox":[145949.75988008,173605.78871082,146037.46105606,173685.2212564]},{"type":"Feature","id":"StreetAxes.fid-6d0a8ac7_1a02c00b059_3be5","geometry":{"type":"LineString","coordinates":[[146092.54969502,173850.09522304],[146090.36784475,173859.05932672]]},"geometry_name":"GEOM","properties":{"INSPIRE_ID":"https://databrussels.be/id/streetaxe/84313","TYPE":"S","HIERARCHY":"DR","LVL":0,"STARTSN_ID":"https://databrussels.be/id/streetnode/12928","ENDSN_ID":"https://databrussels.be/id/streetnode/12083","STRNAMEFRE":"Avenue de la Réforme","STRNAMEDUT":"Hervormingslaan","SLOPE":0.43,"LENGTH":9.22581298958751},"bbox":[146090.36784475,173850.09522304,146092.54969502,173859.05932672]},{"type":"Feature","id":"StreetAxes.fid-6d0a8ac7_1a02c00b059_3bc9","geometry":{"type":"LineString","coordinates":[[146410.76555325,173852.7492179],[146398.86345336,173839.12476235],[146384.77135092,173825.21440763],[146380.80840524,173819.79210656]]},"geometry_name":"GEOM","properties":{"INSPIRE_ID":"https://databrussels.be/id/streetaxe/84316","TYPE":"S","HIERARCHY":"IDR","LVL":0,"STARTSN_ID":"https://databrussels.be/id/streetnode/13458","ENDSN_ID":"https://databrussels.be/id/streetnode/13476","STRNAMEFRE":"Avenue Louis De Brouckère","STRNAMEDUT":"Louis De Brouckèrelaan","SLOPE":1.83,"LENGTH":44.6083070300435},"bbox":[146380.80840524,173819.79210656,146410.76555325,173852.7492179]},{"type":"Feature","id":"StreetAxes.fid-6d0a8ac7_1a02c00b059_3bc7","geometry":{"type":"LineString","coordinates":[[146366.275,173431.227],[146371.425,173436.765],[146418.525,173488.125],[146411.92,173497.818],[146401.969,173505.238]]},"geometry_name":"GEOM","properties":{"INSPIRE_ID":"https://databrussels.be/id/streetaxe/84497","TYPE":"S","HIERARCHY":null,"LVL":0,"STARTSN_ID":"https://databrussels.be/id/streetnode/899","ENDSN_ID":"https://databrussels.be/id/streetnode/637","STRNAMEFRE":"Rue Léon Matheys","STRNAMEDUT":"Léon Matheysstraat","SLOPE":2.28,"LENGTH":101.39171377473},"bbox":[146366.275,173431.227,146418.525,173505.238]},{"type":"Feature","id":"StreetAxes.fid-6d0a8ac7_1a02c00b059_3b9a","geometry":{"type":"LineString","coordinates":[[146196.59056594,174002.84710046],[146197.33403588,173998.74864717],[146199.66326789,173995.53981147],[146202.67568686,173993.75744849],[146205.46032913,173993.32512823]]},"geometry_name":"GEOM","properties":{"INSPIRE_ID":"https://databrussels.be/id/streetaxe/85023","TYPE":"S","HIERARCHY":"DR","LVL":0,"STARTSN_ID":"https://databrussels.be/id/streetnode/10713","ENDSN_ID":"https://databrussels.be/id/streetnode/9028","STRNAMEFRE":"Drève du Château","STRNAMEDUT":"Kasteeldreef","SLOPE":1.87,"LENGTH":14.4486462814071},"bbox":[146196.59056594,173993.32512823,146205.46032913,174002.84710046]},{"type":"Feature","id":"StreetAxes.fid-6d0a8ac7_1a02c00b059_3bb4","geometry":{"type":"LineString","coordinates":[[146193.534,173810.882],[146195.886,173818.948],[146198.52,173827.44],[146202.01,173842.395],[146203.84581734,173853.39971444],[146204.06436402,173857.75085463]]},"geometry_name":"GEOM","properties":{"INSPIRE_ID":"https://databrussels.be/id/streetaxe/85137","TYPE":"S","HIERARCHY":"DR","LVL":0,"STARTSN_ID":"https://databrussels.be/id/streetnode/8189","ENDSN_ID":"https://databrussels.be/id/streetnode/12918","STRNAMEFRE":"Drève de Rivieren","STRNAMEDUT":"de Rivierendreef","SLOPE":1.76,"LENGTH":48.1632823163387},"bbox":[146193.534,173810.882,146204.06436402,173857.75085463]},{"type":"Feature","id":"StreetAxes.fid-6d0a8ac7_1a02c00b059_3bac","geometry":{"type":"LineString","coordinates":[[146600.30216561,173809.46696909],[146594.174,173803.63],[146585.378,173797.11],[146507.82,173722.6],[146498.06265699,173713.3922691]]},"geometry_name":"GEOM","properties":{"INSPIRE_ID":"https://databrussels.be/id/streetaxe/85332","TYPE":"S","HIERARCHY":"DR","LVL":0,"STARTSN_ID":"https://databrussels.be/id/streetnode/13482","ENDSN_ID":"https://databrussels.be/id/streetnode/12925","STRNAMEFRE":"Rue de la Fenaison","STRNAMEDUT":"Hooitijdstraat","SLOPE":1.44,"LENGTH":140.377980432506},"bbox":[146498.06265699,173713.3922691,146600.30216561,173809.46696909]},{"type":"Feature","id":"StreetAxes.fid-6d0a8ac7_1a02c00b059_3be6","geometry":{"type":"LineString","coordinates":[[146090.36784475,173859.05932672],[146153.0918652,173875.19054777],[146185.78142271,173881.83389415],[146189.96298859,173881.20563549]]},"geometry_name":"GEOM","properties":{"INSPIRE_ID":"https://databrussels.be/id/streetaxe/85335","TYPE":"S","HIERARCHY":"DR","LVL":0,"STARTSN_ID":"https://databrussels.be/id/streetnode/12083","ENDSN_ID":"https://databrussels.be/id/streetnode/13464","STRNAMEFRE":"Avenue de la Réforme","STRNAMEDUT":"Hervormingslaan","SLOPE":1,"LENGTH":102.351381440574},"bbox":[146090.36784475,173859.05932672,146189.96298859,173881.83389415]},{"type":"Feature","id":"StreetAxes.fid-6d0a8ac7_1a02c00b059_3bae","geometry":{"type":"LineString","coordinates":[[146167.37723607,173465.43788179],[146175.47862375,173468.8921759],[146183.63,173479.054],[146235.954,173539.832],[146241.112,173545.514]]},"geometry_name":"GEOM","properties":{"INSPIRE_ID":"https://databrussels.be/id/streetaxe/85336","TYPE":"S","HIERARCHY":"DR","LVL":0,"STARTSN_ID":"https://databrussels.be/id/streetnode/12084","ENDSN_ID":"https://databrussels.be/id/streetnode/8193","STRNAMEFRE":"Rue des Franchises","STRNAMEDUT":"Vrijdommenstraat","SLOPE":3.23,"LENGTH":109.706546631322},"bbox":[146167.37723607,173465.43788179,146241.112,173545.514]},{"type":"Feature","id":"StreetAxes.fid-6d0a8ac7_1a02c00b059_3bcf","geometry":{"type":"LineString","coordinates":[[146044.25949817,173614.81130941],[146051.38895981,173624.30871704],[146105.06788439,173692.28175903],[146110.07248635,173696.02703728]]},"geometry_name":"GEOM","properties":{"INSPIRE_ID":"https://databrussels.be/id/streetaxe/85721","TYPE":"S","HIERARCHY":"DR","LVL":0,"STARTSN_ID":"https://databrussels.be/id/streetnode/13465","ENDSN_ID":"https://databrussels.be/id/streetnode/8186","STRNAMEFRE":"Rue de l'Eglise Saint-Martin","STRNAMEDUT":"Sint-Martinuskerkstraat","SLOPE":2.14,"LENGTH":104.739165257279},"bbox":[146044.25949817,173614.81130941,146110.07248635,173696.02703728]},{"type":"Feature","id":"StreetAxes.fid-6d0a8ac7_1a02c00b059_3beb","geometry":{"type":"LineString","coordinates":[[146044.25949817,173614.81130941],[146031.74940251,173625.36242044],[145956.5510465,173692.9155651]]},"geometry_name":"GEOM","properties":{"INSPIRE_ID":"https://databrussels.be/id/streetaxe/85722","TYPE":"S","HIERARCHY":"IDR","LVL":0,"STARTSN_ID":"https://databrussels.be/id/streetnode/13465","ENDSN_ID":"https://databrussels.be/id/streetnode/11042","STRNAMEFRE":"Avenue Van Overbeke","STRNAMEDUT":"Van Overbekelaan","SLOPE":1.78,"LENGTH":117.450676854993},"bbox":[145956.5510465,173614.81130941,146044.25949817,173692.9155651]},{"type":"Feature","id":"StreetAxes.fid-6d0a8ac7_1a02c00b059_3ba3","geometry":{"type":"LineString","coordinates":[[146440.82442309,173778.19149507],[146437.09537289,173785.10610517],[146433.24704495,173793.62522419],[146429.5762406,173802.99223269],[146425.86121991,173811.41234421],[146423.51470444,173820.35698599],[146421.75471053,173830.03984559],[146420.56564792,173838.69944494],[146418.96542418,173862.17613557]]},"geometry_name":"GEOM","properties":{"INSPIRE_ID":"https://databrussels.be/id/streetaxe/85723","TYPE":"S","HIERARCHY":"MER","LVL":0,"STARTSN_ID":"https://databrussels.be/id/streetnode/13466","ENDSN_ID":"https://databrussels.be/id/streetnode/12085","STRNAMEFRE":"Avenue de l'Exposition Universelle","STRNAMEDUT":"Wereldtentoonstellingslaan","SLOPE":1.11,"LENGTH":87.8287350307618},"bbox":[146418.96542418,173778.19149507,146440.82442309,173862.17613557]},{"type":"Feature","id":"StreetAxes.fid-6d0a8ac7_1a02c00b059_3b89","geometry":{"type":"LineString","coordinates":[[146596.92597026,173881.24085279],[146513.78296384,173944.76482204],[146504.15400461,173952.31551727],[146493.53567179,173959.85442032]]},"geometry_name":"GEOM","properties":{"INSPIRE_ID":"https://databrussels.be/id/streetaxe/86252","TYPE":"S","HIERARCHY":"DC","LVL":0,"STARTSN_ID":"https://databrussels.be/id/streetnode/13469","ENDSN_ID":"https://databrussels.be/id/streetnode/13479","STRNAMEFRE":"Avenue de Jette","STRNAMEDUT":"Jetteselaan","SLOPE":0.89,"LENGTH":129.891809023649},"bbox":[146493.53567179,173881.24085279,146596.92597026,173959.85442032]},{"type":"Feature","id":"StreetAxes.fid-6d0a8ac7_1a02c00b059_3bb6","geometry":{"type":"LineString","coordinates":[[146201.59809685,173870.99745677],[146206.85782457,173875.00481968],[146208.52002574,173879.61982835],[146207.67771537,173883.15799623]]},"geometry_name":"GEOM","properties":{"INSPIRE_ID":"https://databrussels.be/id/streetaxe/86693","TYPE":"S","HIERARCHY":"DR","LVL":0,"STARTSN_ID":"https://databrussels.be/id/streetnode/13474","ENDSN_ID":"https://databrussels.be/id/streetnode/14013","STRNAMEFRE":"Avenue de la Réforme","STRNAMEDUT":"Hervormingslaan","SLOPE":1.85,"LENGTH":15.1546609651496},"bbox":[146201.59809685,173870.99745677,146208.52002574,173883.15799623]},{"type":"Feature","id":"StreetAxes.fid-6d0a8ac7_1a02c00b059_3b9d","geometry":{"type":"LineString","coordinates":[[146380.80840524,173819.79210656],[146386.93167214,173813.91282728],[146414.97456677,173786.27181253],[146426.65530301,173777.12216369]]},"geometry_name":"GEOM","properties":{"INSPIRE_ID":"https://databrussels.be/id/streetaxe/86697","TYPE":"S","HIERARCHY":"IDR","LVL":0,"STARTSN_ID":"https://databrussels.be/id/streetnode/13476","ENDSN_ID":"https://databrussels.be/id/streetnode/11047","STRNAMEFRE":"Avenue de l'Exposition Universelle","STRNAMEDUT":"Wereldtentoonstellingslaan","SLOPE":0.8,"LENGTH":62.7019743134285},"bbox":[146380.80840524,173777.12216369,146426.65530301,173819.79210656]},{"type":"Feature","id":"StreetAxes.fid-6d0a8ac7_1a02c00b059_3bc8","geometry":{"type":"LineString","coordinates":[[146380.80840524,173819.79210656],[146376.282,173813.6],[146374.072,173811.025],[146368.872,173804.937]]},"geometry_name":"GEOM","properties":{"INSPIRE_ID":"https://databrussels.be/id/streetaxe/86698","TYPE":"S","HIERARCHY":"IDR","LVL":0,"STARTSN_ID":"https://databrussels.be/id/streetnode/13476","ENDSN_ID":"https://databrussels.be/id/streetnode/12920","STRNAMEFRE":"Avenue Louis De Brouckère","STRNAMEDUT":"Louis De Brouckèrelaan","SLOPE":1.78,"LENGTH":19.0699228864241},"bbox":[146368.872,173804.937,146380.80840524,173819.79210656]},{"type":"Feature","id":"StreetAxes.fid-6d0a8ac7_1a02c00b059_3b9c","geometry":{"type":"LineString","coordinates":[[146214.29292038,173998.60588627],[146214.80102997,174004.033865],[146213.05684624,174008.16542947]]},"geometry_name":"GEOM","properties":{"INSPIRE_ID":"https://databrussels.be/id/streetaxe/86700","TYPE":"S","HIERARCHY":"DR","LVL":0,"STARTSN_ID":"https://databrussels.be/id/streetnode/8094","ENDSN_ID":"https://databrussels.be/id/streetnode/8328","STRNAMEFRE":"Drève de Rivieren","STRNAMEDUT":"de Rivierendreef","SLOPE":1.81,"LENGTH":9.93634942341957},"bbox":[146213.05684624,173998.60588627,146214.80102997,174008.16542947]},{"type":"Feature","id":"StreetAxes.fid-6d0a8ac7_1a02c00b059_3bc4","geometry":{"type":"LineString","coordinates":[[146368.872,173804.937],[146360.529,173812.11],[146317.156,173849.284],[146311.846,173853.823]]},"geometry_name":"GEOM","properties":{"INSPIRE_ID":"https://databrussels.be/id/streetaxe/86703","TYPE":"S","HIERARCHY":"DR","LVL":0,"STARTSN_ID":"https://databrussels.be/id/streetnode/12920","ENDSN_ID":"https://databrussels.be/id/streetnode/4698","STRNAMEFRE":"Rue Henri Meuwis","STRNAMEDUT":"Henri Meuwisstraat","SLOPE":0.59,"LENGTH":75.11197301928},"bbox":[146311.846,173804.937,146368.872,173853.823]},{"type":"Feature","id":"StreetAxes.fid-6d0a8ac7_1a02c00b059_3b84","geometry":{"type":"LineString","coordinates":[[146489.05985849,173944.1773781],[146496.03757904,173938.62671933],[146503.79497122,173932.45584495],[146517.06190359,173922.19489146],[146532.04626994,173910.47172694],[146545.75003592,173899.824048],[146558.26194738,173890.12144424]]},"geometry_name":"GEOM","properties":{"INSPIRE_ID":"https://databrussels.be/id/streetaxe/86706","TYPE":"S","HIERARCHY":"DC","LVL":0,"STARTSN_ID":"https://databrussels.be/id/streetnode/12923","ENDSN_ID":"https://databrussels.be/id/streetnode/14240","STRNAMEFRE":"Avenue de Jette","STRNAMEDUT":"Jetteselaan","SLOPE":0.61,"LENGTH":87.8132394199664},"bbox":[146489.05985849,173890.12144424,146558.26194738,173944.1773781]},{"type":"Feature","id":"StreetAxes.fid-6d0a8ac7_1a02c00b059_3ba8","geometry":{"type":"LineString","coordinates":[[146498.06265699,173713.3922691],[146490.6232173,173720.35680238],[146484.34211789,173726.88071774],[146466.75553403,173745.16534295],[146452.43207574,173760.92788191],[146446.91725594,173768.28437198],[146440.82442309,173778.19149507]]},"geometry_name":"GEOM","properties":{"INSPIRE_ID":"https://databrussels.be/id/streetaxe/86708","TYPE":"S","HIERARCHY":"MER","LVL":0,"STARTSN_ID":"https://databrussels.be/id/streetnode/12925","ENDSN_ID":"https://databrussels.be/id/streetnode/13466","STRNAMEFRE":"Avenue de l'Exposition Universelle","STRNAMEDUT":"Wereldtentoonstellingslaan","SLOPE":2.02,"LENGTH":86.7395410179725},"bbox":[146440.82442309,173713.3922691,146498.06265699,173778.19149507]},{"type":"Feature","id":"StreetAxes.fid-6d0a8ac7_1a02c00b059_3ba9","geometry":{"type":"LineString","coordinates":[[146558.26194738,173890.12144424],[146553.876,173884.443],[146546.383,173876.303],[146462.429,173795.362],[146450.36060113,173785.38677448],[146440.82442309,173778.19149507]]},"geometry_name":"GEOM","properties":{"INSPIRE_ID":"https://databrussels.be/id/streetaxe/86863","TYPE":"S","HIERARCHY":"DR","LVL":0,"STARTSN_ID":"https://databrussels.be/id/streetnode/14240","ENDSN_ID":"https://databrussels.be/id/streetnode/13466","STRNAMEFRE":"Rue Richard Braibant","STRNAMEDUT":"Richard Braibantstraat","SLOPE":1.24,"LENGTH":162.460014166242},"bbox":[146440.82442309,173778.19149507,146558.26194738,173890.12144424]},{"type":"Feature","id":"StreetAxes.fid-6d0a8ac7_1a02c00b059_3bec","geometry":{"type":"LineString","coordinates":[[146092.54969502,173850.09522304],[146071.57886247,173845.02567298],[146006.30981527,173829.15810618],[145982.6038199,173823.95256616]]},"geometry_name":"GEOM","properties":{"INSPIRE_ID":"https://databrussels.be/id/streetaxe/87393","TYPE":"S","HIERARCHY":"DR","LVL":0,"STARTSN_ID":"https://databrussels.be/id/streetnode/12928","ENDSN_ID":"https://databrussels.be/id/streetnode/13459","STRNAMEFRE":"Avenue de la Réforme","STRNAMEDUT":"Hervormingslaan","SLOPE":0.85,"LENGTH":113.015842770934},"bbox":[145982.6038199,173823.95256616,146092.54969502,173850.09522304]},{"type":"Feature","id":"StreetAxes.fid-6d0a8ac7_1a02c00b059_3b9f","geometry":{"type":"LineString","coordinates":[[146432.64864083,173766.15081096],[146426.64622636,173761.51454163],[146424.04704226,173759.37685523],[146419.31550374,173754.79099165],[146414.9144525,173750.5466437],[146408.88613211,173744.15605413],[146416.28100212,173736.03376888],[146421.95931824,173730.00188635],[146426.43331219,173725.3881302],[146430.3994382,173721.27717577],[146432.57559808,173719.03303528],[146437.69875042,173713.6274889]]},"geometry_name":"GEOM","properties":{"INSPIRE_ID":"https://databrussels.be/id/streetaxe/88261","TYPE":"S","HIERARCHY":"DR","LVL":0,"STARTSN_ID":"https://databrussels.be/id/streetnode/14232","ENDSN_ID":"https://databrussels.be/id/streetnode/11548","STRNAMEFRE":"Avenue de l'Exposition Universelle","STRNAMEDUT":"Wereldtentoonstellingslaan","SLOPE":1.87,"LENGTH":74.4195482306807},"bbox":[146408.88613211,173713.6274889,146437.69875042,173766.15081096]},{"type":"Feature","id":"StreetAxes.fid-6d0a8ac7_1a02c00b059_3ba6","geometry":{"type":"LineString","coordinates":[[146432.64864083,173766.15081096],[146435.70286193,173761.28543557],[146437.91894622,173759.13366916],[146440.36525931,173756.24327858],[146448.90497263,173746.1156918],[146455.24428272,173739.32862446],[146461.90321909,173732.30357472],[146467.91627132,173726.04721743],[146474.11713185,173719.49880505],[146481.70601375,173711.54627376],[146489.37179585,173703.70993517]]},"geometry_name":"GEOM","properties":{"INSPIRE_ID":"https://databrussels.be/id/streetaxe/88262","TYPE":"S","HIERARCHY":"MER","LVL":0,"STARTSN_ID":"https://databrussels.be/id/streetnode/14232","ENDSN_ID":"https://databrussels.be/id/streetnode/11038","STRNAMEFRE":"Avenue de l'Exposition Universelle","STRNAMEDUT":"Wereldtentoonstellingslaan","SLOPE":1.18,"LENGTH":84.4849006274707},"bbox":[146432.64864083,173703.70993517,146489.37179585,173766.15081096]},{"type":"Feature","id":"StreetAxes.fid-6d0a8ac7_1a02c00b059_3bb8","geometry":{"type":"LineString","coordinates":[[146273.265,173809.235],[146267.15,173814.42],[146218.533,173856.173],[146212.71572514,173858.85587375],[146204.06436402,173857.75085463]]},"geometry_name":"GEOM","properties":{"INSPIRE_ID":"https://databrussels.be/id/streetaxe/88468","TYPE":"S","HIERARCHY":"DR","LVL":0,"STARTSN_ID":"https://databrussels.be/id/streetnode/8188","ENDSN_ID":"https://databrussels.be/id/streetnode/12918","STRNAMEFRE":"Rue Charles Moens","STRNAMEDUT":"Charles Moensstraat","SLOPE":0.14,"LENGTH":87.2303982260562},"bbox":[146204.06436402,173809.235,146273.265,173858.85587375]},{"type":"Feature","id":"StreetAxes.fid-6d0a8ac7_1a02c00b059_3bcb","geometry":{"type":"LineString","coordinates":[[146110.07248635,173696.02703728],[146103.874,173701.301],[146092.00040731,173707.08241142],[146087.93156635,173711.18757367],[146064.85268846,173724.82319517],[146058.85216274,173734.10852717],[146035.35591306,173747.16836966],[146028.52585096,173745.84710544],[145998.47085617,173760.4065412],[145996.28645876,173767.92016637]]},"geometry_name":"GEOM","properties":{"INSPIRE_ID":"https://databrussels.be/id/streetaxe/89212","TYPE":"S","HIERARCHY":"DR","LVL":0,"STARTSN_ID":"https://databrussels.be/id/streetnode/8186","ENDSN_ID":"https://databrussels.be/id/streetnode/14008","STRNAMEFRE":"Rue Zeyp","STRNAMEDUT":"Zeypstraat","SLOPE":0.64,"LENGTH":140.045403515227},"bbox":[145996.28645876,173696.02703728,146110.07248635,173767.92016637]},{"type":"Feature","id":"StreetAxes.fid-6d0a8ac7_1a02c00b059_3b9e","geometry":{"type":"LineString","coordinates":[[146401.969,173505.238],[146411.80983749,173516.24744755],[146420.974,173526.97],[146477.11,173587.39],[146530.696,173640.304],[146540.17893586,173649.85476696]]},"geometry_name":"GEOM","properties":{"INSPIRE_ID":"https://databrussels.be/id/streetaxe/89214","TYPE":"S","HIERARCHY":"DR","LVL":0,"STARTSN_ID":"https://databrussels.be/id/streetnode/637","ENDSN_ID":"https://databrussels.be/id/streetnode/13481","STRNAMEFRE":"Rue Frans Vervaeck","STRNAMEDUT":"Frans Vervaeckstraat","SLOPE":2.66,"LENGTH":200.112163959743},"bbox":[146401.969,173505.238,146540.17893586,173649.85476696]},{"type":"Feature","id":"StreetAxes.fid-6d0a8ac7_1a02c00b059_3b99","geometry":{"type":"LineString","coordinates":[[146269.1012481,173988.49349631],[146224.454,173994.782],[146214.29292038,173998.60588627]]},"geometry_name":"GEOM","properties":{"INSPIRE_ID":"https://databrussels.be/id/streetaxe/89384","TYPE":"S","HIERARCHY":"DR","LVL":0,"STARTSN_ID":"https://databrussels.be/id/streetnode/8184","ENDSN_ID":"https://databrussels.be/id/streetnode/8094","STRNAMEFRE":"Drève du Château","STRNAMEDUT":"Kasteeldreef","SLOPE":0.68,"LENGTH":55.9447155280458},"bbox":[146214.29292038,173988.49349631,146269.1012481,173998.60588627]},{"type":"Feature","id":"StreetAxes.fid-6d0a8ac7_1a02c00b059_3b98","geometry":{"type":"LineString","coordinates":[[146269.1012481,173988.49349631],[146269.83521933,173993.74793024],[146270.19845855,173995.36876473],[146270.76173908,173997.73365122],[146271.27265667,174000.01345138],[146271.76866957,174002.88886458],[146275.17650969,174003.45820927],[146280.45194903,174002.75364686],[146286.31363959,174001.93822408],[146291.75026159,174001.21213488],[146296.90863744,174000.49455058],[146300.18336657,174000.05719344],[146300.12526573,173996.97665619],[146299.64626573,173992.83665619],[146299.26668617,173989.9197816],[146298.48925691,173984.35423555]]},"geometry_name":"GEOM","properties":{"INSPIRE_ID":"https://databrussels.be/id/streetaxe/89385","TYPE":"S","HIERARCHY":"DR","LVL":0,"STARTSN_ID":"https://databrussels.be/id/streetnode/8184","ENDSN_ID":"https://databrussels.be/id/streetnode/8087","STRNAMEFRE":"Drève du Château","STRNAMEDUT":"Kasteeldreef","SLOPE":0.12,"LENGTH":59.1537513668427},"bbox":[146269.1012481,173984.35423555,146300.18336657,174003.45820927]},{"type":"Feature","id":"StreetAxes.fid-6d0a8ac7_1a02c00b059_3b83","geometry":{"type":"LineString","coordinates":[[146442.31483178,173890.91465062],[146471.55667831,173924.73159231],[146489.05985849,173944.1773781]]},"geometry_name":"GEOM","properties":{"INSPIRE_ID":"https://databrussels.be/id/streetaxe/89582","TYPE":"S","HIERARCHY":"DC","LVL":0,"STARTSN_ID":"https://databrussels.be/id/streetnode/12085","ENDSN_ID":"https://databrussels.be/id/streetnode/12923","STRNAMEFRE":"Square du Centenaire","STRNAMEDUT":"Eeuwfeestsquare","SLOPE":1.47,"LENGTH":70.8694489304665},"bbox":[146442.31483178,173890.91465062,146489.05985849,173944.1773781]},{"type":"Feature","id":"StreetAxes.fid-6d0a8ac7_1a02c00b059_3b8b","geometry":{"type":"LineString","coordinates":[[146207.67771537,173883.15799623],[146205.26969394,173887.1496496],[146203.35074339,173888.69124547],[146199.50152636,173889.43308061]]},"geometry_name":"GEOM","properties":{"INSPIRE_ID":"https://databrussels.be/id/streetaxe/91266","TYPE":"I","HIERARCHY":"DR","LVL":0,"STARTSN_ID":"https://databrussels.be/id/streetnode/14013","ENDSN_ID":"https://databrussels.be/id/streetnode/11546","STRNAMEFRE":"Avenue de la Réforme","STRNAMEDUT":"Hervormingslaan","SLOPE":0.09,"LENGTH":11.0432756782435},"bbox":[146199.50152636,173883.15799623,146207.67771537,173889.43308061]},{"type":"Feature","id":"StreetAxes.fid-6d0a8ac7_1a02c00b059_3b85","geometry":{"type":"LineString","coordinates":[[146489.05985849,173944.1773781],[146491.38496378,173952.32132232]]},"geometry_name":"GEOM","properties":{"INSPIRE_ID":"https://databrussels.be/id/streetaxe/91271","TYPE":"IC","HIERARCHY":"DC","LVL":0,"STARTSN_ID":"https://databrussels.be/id/streetnode/12923","ENDSN_ID":"https://databrussels.be/id/streetnode/13479","STRNAMEFRE":"Square du Centenaire","STRNAMEDUT":"Eeuwfeestsquare","SLOPE":1.18,"LENGTH":8.46935310674182},"bbox":[146489.05985849,173944.1773781,146491.38496378,173952.32132232]},{"type":"Feature","id":"StreetAxes.fid-6d0a8ac7_1a02c00b059_3ba5","geometry":{"type":"LineString","coordinates":[[146426.65530301,173777.12216369],[146429.1916663,173771.65777272],[146432.64864083,173766.15081096]]},"geometry_name":"GEOM","properties":{"INSPIRE_ID":"https://databrussels.be/id/streetaxe/91992","TYPE":"I","HIERARCHY":"MER","LVL":0,"STARTSN_ID":"https://databrussels.be/id/streetnode/11047","ENDSN_ID":"https://databrussels.be/id/streetnode/14232","STRNAMEFRE":"Avenue de l'Exposition Universelle","STRNAMEDUT":"Wereldtentoonstellingslaan","SLOPE":1.28,"LENGTH":12.5264426204938},"bbox":[146426.65530301,173766.15081096,146432.64864083,173777.12216369]},{"type":"Feature","id":"StreetAxes.fid-6d0a8ac7_1a02c00b059_3bb3","geometry":{"type":"LineString","coordinates":[[146190.76505472,173875.82537542],[146193.4822655,173872.34321564],[146197.26586539,173870.90700561],[146201.59809685,173870.99745677]]},"geometry_name":"GEOM","properties":{"INSPIRE_ID":"https://databrussels.be/id/streetaxe/91993","TYPE":"I","HIERARCHY":"DR","LVL":0,"STARTSN_ID":"https://databrussels.be/id/streetnode/11046","ENDSN_ID":"https://databrussels.be/id/streetnode/13474","STRNAMEFRE":"Avenue de la Réforme","STRNAMEDUT":"Hervormingslaan","SLOPE":0,"LENGTH":12.7970523651357},"bbox":[146190.76505472,173870.90700561,146201.59809685,173875.82537542]},{"type":"Feature","id":"StreetAxes.fid-6d0a8ac7_1a02c00b059_3ba1","geometry":{"type":"LineString","coordinates":[[146410.76555325,173852.7492179],[146418.96542418,173862.17613557]]},"geometry_name":"GEOM","properties":{"INSPIRE_ID":"https://databrussels.be/id/streetaxe/91996","TYPE":"I","HIERARCHY":"MER","LVL":0,"STARTSN_ID":"https://databrussels.be/id/streetnode/13458","ENDSN_ID":"https://databrussels.be/id/streetnode/12085","STRNAMEFRE":"Avenue de l'Exposition Universelle","STRNAMEDUT":"Wereldtentoonstellingslaan","SLOPE":1.68,"LENGTH":12.4941850485778},"bbox":[146410.76555325,173852.7492179,146418.96542418,173862.17613557]},{"type":"Feature","id":"StreetAxes.fid-6d0a8ac7_1a02c00b059_3bb0","geometry":{"type":"LineString","coordinates":[[146189.96298859,173881.20563549],[146190.76505472,173875.82537542]]},"geometry_name":"GEOM","properties":{"INSPIRE_ID":"https://databrussels.be/id/streetaxe/91997","TYPE":"I","HIERARCHY":"DR","LVL":0,"STARTSN_ID":"https://databrussels.be/id/streetnode/13464","ENDSN_ID":"https://databrussels.be/id/streetnode/11046","STRNAMEFRE":"Avenue de la Réforme","STRNAMEDUT":"Hervormingslaan","SLOPE":1.47,"LENGTH":5.43971584646854},"bbox":[146189.96298859,173875.82537542,146190.76505472,173881.20563549]},{"type":"Feature","id":"StreetAxes.fid-6d0a8ac7_1a02c00b059_3be9","geometry":{"type":"LineString","coordinates":[[146037.46105606,173605.78871082],[146044.25949817,173614.81130941]]},"geometry_name":"GEOM","properties":{"INSPIRE_ID":"https://databrussels.be/id/streetaxe/91998","TYPE":"I","HIERARCHY":"IDR","LVL":0,"STARTSN_ID":"https://databrussels.be/id/streetnode/14237","ENDSN_ID":"https://databrussels.be/id/streetnode/13465","STRNAMEFRE":"Avenue Van Overbeke","STRNAMEDUT":"Van Overbekelaan","SLOPE":2.76,"LENGTH":11.2971722261823},"bbox":[146037.46105606,173605.78871082,146044.25949817,173614.81130941]},{"type":"Feature","id":"StreetAxes.fid-6d0a8ac7_1a02c00b059_3bb7","geometry":{"type":"LineString","coordinates":[[146204.06436402,173857.75085463],[146201.59809685,173870.99745677]]},"geometry_name":"GEOM","properties":{"INSPIRE_ID":"https://databrussels.be/id/streetaxe/92761","TYPE":"I","HIERARCHY":"DR","LVL":0,"STARTSN_ID":"https://databrussels.be/id/streetnode/12918","ENDSN_ID":"https://databrussels.be/id/streetnode/13474","STRNAMEFRE":"Drève de Rivieren","STRNAMEDUT":"de Rivierendreef","SLOPE":1.19,"LENGTH":13.4742325148764},"bbox":[146201.59809685,173857.75085463,146204.06436402,173870.99745677]},{"type":"Feature","id":"StreetAxes.fid-6d0a8ac7_1a02c00b059_3baf","geometry":{"type":"LineString","coordinates":[[146199.50152636,173889.43308061],[146195.76328828,173889.05924243],[146191.55709983,173885.66812744],[146189.96298859,173881.20563549]]},"geometry_name":"GEOM","properties":{"INSPIRE_ID":"https://databrussels.be/id/streetaxe/92762","TYPE":"I","HIERARCHY":"DR","LVL":0,"STARTSN_ID":"https://databrussels.be/id/streetnode/11546","ENDSN_ID":"https://databrussels.be/id/streetnode/13464","STRNAMEFRE":"Avenue de la Réforme","STRNAMEDUT":"Hervormingslaan","SLOPE":1.37,"LENGTH":13.8984902919553},"bbox":[146189.96298859,173881.20563549,146199.50152636,173889.43308061]}],"numberReturned":107,"grand_bruxelles_source":{"authority":"Paradigm / Brussels-Capital Region","service":"https://geoservices-urbis.irisnet.be/geoserver/urbisvector/wfs","layer":"urbisvector:StreetAxes","crs":"EPSG:31370","bbox":[146000.0,173500.0,146500.0,174000.0],"cell_id":"bxl-e146000-n173500-s500","ownership":"bbox_intersection_source_unclipped"}}
