{"type":"FeatureCollection","totalFeatures":34,"numberMatched":34,"timeStamp":"2026-08-23T02:03:07.875Z","crs":{"type":"name","properties":{"name":"urn:ogc:def:crs:EPSG::31370"}},"bbox":[145421.897,170384.90470079,146178.65350225,171166.912],"features":[{"type":"Feature","id":"StreetAxes.fid--2dded296_1a02c23f8dc_-572e","geometry":{"type":"LineString","coordinates":[[145716.892,170672.75],[145705.844,170667.772],[145675.219,170654.722],[145658.935,170646.382]]},"geometry_name":"GEOM","properties":{"INSPIRE_ID":"https://databrussels.be/id/streetaxe/70099","TYPE":"S","HIERARCHY":"DR","LVL":0,"STARTSN_ID":"https://databrussels.be/id/streetnode/1872","ENDSN_ID":"https://databrussels.be/id/streetnode/942","STRNAMEFRE":"Rue Van Soust","STRNAMEDUT":"Van Souststraat","SLOPE":1.95,"LENGTH":63.7027112402932},"bbox":[145658.935,170646.382,145716.892,170672.75]},{"type":"Feature","id":"StreetAxes.fid--2dded296_1a02c23f8dc_-5725","geometry":{"type":"LineString","coordinates":[[145567.792,170791.406],[145556.54,170791.124],[145497.987,170783.304],[145489.109,170782.245]]},"geometry_name":"GEOM","properties":{"INSPIRE_ID":"https://databrussels.be/id/streetaxe/70359","TYPE":"S","HIERARCHY":"MAR","LVL":0,"STARTSN_ID":"https://databrussels.be/id/streetnode/2149","ENDSN_ID":"https://databrussels.be/id/streetnode/698","STRNAMEFRE":"Chaussée de Ninove","STRNAMEDUT":"Ninoofse Steenweg","SLOPE":0.54,"LENGTH":79.2693597585464},"bbox":[145489.109,170782.245,145567.792,170791.406]},{"type":"Feature","id":"StreetAxes.fid--2dded296_1a02c23f8dc_-571a","geometry":{"type":"LineString","coordinates":[[145467.62,170908.764],[145482.456,170913.865],[145491.872,170918.459],[145532.139,170938.108],[145543.28,170943.684]]},"geometry_name":"GEOM","properties":{"INSPIRE_ID":"https://databrussels.be/id/streetaxe/70650","TYPE":"S","HIERARCHY":"DR","LVL":0,"STARTSN_ID":"https://databrussels.be/id/streetnode/845","ENDSN_ID":"https://databrussels.be/id/streetnode/4642","STRNAMEFRE":"Avenue des Ménestrels","STRNAMEDUT":"Menestrelenlaan","SLOPE":0.23,"LENGTH":83.4291328477781},"bbox":[145467.62,170908.764,145543.28,170943.684]},{"type":"Feature","id":"StreetAxes.fid--2dded296_1a02c23f8dc_-572b","geometry":{"type":"LineString","coordinates":[[145489.109,170782.245],[145491.612,170770.19],[145504.664,170700.54],[145506.747,170689.483]]},"geometry_name":"GEOM","properties":{"INSPIRE_ID":"https://databrussels.be/id/streetaxe/71473","TYPE":"S","HIERARCHY":"DR","LVL":0,"STARTSN_ID":"https://databrussels.be/id/streetnode/698","ENDSN_ID":"https://databrussels.be/id/streetnode/1934","STRNAMEFRE":"Rue de l'Obus","STRNAMEDUT":"Obusstraat","SLOPE":2.39,"LENGTH":94.4259863156106},"bbox":[145489.109,170689.483,145506.747,170782.245]},{"type":"Feature","id":"StreetAxes.fid--2dded296_1a02c23f8dc_-572f","geometry":{"type":"LineString","coordinates":[[145658.935,170646.382],[145653.924,170659.213],[145623.432,170663.024],[145611.145,170664.47],[145521.978,170686.068],[145506.747,170689.483]]},"geometry_name":"GEOM","properties":{"INSPIRE_ID":"https://databrussels.be/id/streetaxe/71474","TYPE":"S","HIERARCHY":"DR","LVL":0,"STARTSN_ID":"https://databrussels.be/id/streetnode/942","ENDSN_ID":"https://databrussels.be/id/streetnode/1934","STRNAMEFRE":"Rue Van Soust","STRNAMEDUT":"Van Souststraat","SLOPE":2.28,"LENGTH":164.230411757702},"bbox":[145506.747,170646.382,145658.935,170689.483]},{"type":"Feature","id":"StreetAxes.fid--2dded296_1a02c23f8dc_-5723","geometry":{"type":"LineString","coordinates":[[145567.792,170791.406],[145565.619,170807.68],[145548.844,170933.304],[145543.28,170943.684]]},"geometry_name":"GEOM","properties":{"INSPIRE_ID":"https://databrussels.be/id/streetaxe/71933","TYPE":"S","HIERARCHY":"DR","LVL":0,"STARTSN_ID":"https://databrussels.be/id/streetnode/2149","ENDSN_ID":"https://databrussels.be/id/streetnode/4642","STRNAMEFRE":"Rue des Tournesols","STRNAMEDUT":"Zonnebloemenstraat","SLOPE":2.73,"LENGTH":154.93469994594},"bbox":[145543.28,170791.406,145567.792,170943.684]},{"type":"Feature","id":"StreetAxes.fid--2dded296_1a02c23f8dc_-5713","geometry":{"type":"LineString","coordinates":[[145531.451,170550.059],[145517.61,170538.73],[145434.246,170469.865],[145426.142,170463.223]]},"geometry_name":"GEOM","properties":{"INSPIRE_ID":"https://databrussels.be/id/streetaxe/72571","TYPE":"S","HIERARCHY":"DR","LVL":0,"STARTSN_ID":"https://databrussels.be/id/streetnode/209","ENDSN_ID":"https://databrussels.be/id/streetnode/4339","STRNAMEFRE":"Rue Puccini","STRNAMEDUT":"Puccinistraat","SLOPE":0.73,"LENGTH":136.493709668435},"bbox":[145426.142,170463.223,145531.451,170550.059]},{"type":"Feature","id":"StreetAxes.fid--2dded296_1a02c23f8dc_-5724","geometry":{"type":"LineString","coordinates":[[145709.287,170808.207],[145700.906,170807.13],[145582.706,170791.781],[145567.792,170791.406]]},"geometry_name":"GEOM","properties":{"INSPIRE_ID":"https://databrussels.be/id/streetaxe/73002","TYPE":"S","HIERARCHY":"MAR","LVL":0,"STARTSN_ID":"https://databrussels.be/id/streetnode/742","ENDSN_ID":"https://databrussels.be/id/streetnode/2149","STRNAMEFRE":"Chaussée de Ninove","STRNAMEDUT":"Ninoofse Steenweg","SLOPE":0.07,"LENGTH":142.561045384029},"bbox":[145567.792,170791.406,145709.287,170808.207]},{"type":"Feature","id":"StreetAxes.fid--2dded296_1a02c23f8dc_-572d","geometry":{"type":"LineString","coordinates":[[145804.645,170714.971],[145796.935,170711.285],[145727.939,170677.727],[145716.892,170672.75]]},"geometry_name":"GEOM","properties":{"INSPIRE_ID":"https://databrussels.be/id/streetaxe/73317","TYPE":"S","HIERARCHY":"DR","LVL":0,"STARTSN_ID":"https://databrussels.be/id/streetnode/8695","ENDSN_ID":"https://databrussels.be/id/streetnode/1872","STRNAMEFRE":"Rue Van Soust","STRNAMEDUT":"Van Souststraat","SLOPE":2.39,"LENGTH":97.3862820275563},"bbox":[145716.892,170672.75,145804.645,170714.971]},{"type":"Feature","id":"StreetAxes.fid--2dded296_1a02c23f8dc_-572a","geometry":{"type":"LineString","coordinates":[[145804.645,170714.971],[145800.72,170722.36],[145783.516,170802.926],[145780.642,170817.615]]},"geometry_name":"GEOM","properties":{"INSPIRE_ID":"https://databrussels.be/id/streetaxe/73318","TYPE":"S","HIERARCHY":"DR","LVL":0,"STARTSN_ID":"https://databrussels.be/id/streetnode/8695","ENDSN_ID":"https://databrussels.be/id/streetnode/8696","STRNAMEFRE":"Avenue de Scheut","STRNAMEDUT":"Scheutlaan","SLOPE":2.34,"LENGTH":105.71668310956},"bbox":[145780.642,170714.971,145804.645,170817.615]},{"type":"Feature","id":"StreetAxes.fid--2dded296_1a02c23f8dc_-5730","geometry":{"type":"LineString","coordinates":[[146015.465,170640.384],[146007.88087842,170648.38233249],[145918.73855925,170729.91991461],[145911.38522523,170739.61243883]]},"geometry_name":"GEOM","properties":{"INSPIRE_ID":"https://databrussels.be/id/streetaxe/73320","TYPE":"S","HIERARCHY":"DR","LVL":0,"STARTSN_ID":"https://databrussels.be/id/streetnode/8698","ENDSN_ID":"https://databrussels.be/id/streetnode/8697","STRNAMEFRE":"Rue Léopold De Swaef","STRNAMEDUT":"Léopold De Swaefstraat","SLOPE":1.97,"LENGTH":143.997208031896},"bbox":[145911.38522523,170640.384,146015.465,170739.61243883]},{"type":"Feature","id":"StreetAxes.fid--2dded296_1a02c23f8dc_-5714","geometry":{"type":"LineString","coordinates":[[145889.807,170595.004],[145900.25,170598.465],[146003.346,170633.176],[146011.458,170635.907],[146015.465,170640.384]]},"geometry_name":"GEOM","properties":{"INSPIRE_ID":"https://databrussels.be/id/streetaxe/73323","TYPE":"S","HIERARCHY":"DR","LVL":0,"STARTSN_ID":"https://databrussels.be/id/streetnode/2388","ENDSN_ID":"https://databrussels.be/id/streetnode/8698","STRNAMEFRE":"Rue Edmond Rostand","STRNAMEDUT":"Edmond Rostandstraat","SLOPE":0.15,"LENGTH":134.351777604399},"bbox":[145889.807,170595.004,146015.465,170640.384]},{"type":"Feature","id":"StreetAxes.fid--2dded296_1a02c23f8dc_-571d","geometry":{"type":"LineString","coordinates":[[145907.696,170834.737],[145907.102,170845.564],[145903.976,170902.556],[145898.666,170909.281]]},"geometry_name":"GEOM","properties":{"INSPIRE_ID":"https://databrussels.be/id/streetaxe/73324","TYPE":"S","HIERARCHY":"DR","LVL":0,"STARTSN_ID":"https://databrussels.be/id/streetnode/1546","ENDSN_ID":"https://databrussels.be/id/streetnode/8692","STRNAMEFRE":"Rue du Bien-Etre","STRNAMEDUT":"Welzijnstraat","SLOPE":3.14,"LENGTH":76.4895956743458},"bbox":[145898.666,170834.737,145907.696,170909.281]},{"type":"Feature","id":"StreetAxes.fid--2dded296_1a02c23f8dc_-5731","geometry":{"type":"LineString","coordinates":[[145889.807,170595.004],[145885.01,170601.44],[145809.015,170706.745],[145804.645,170714.971]]},"geometry_name":"GEOM","properties":{"INSPIRE_ID":"https://databrussels.be/id/streetaxe/73325","TYPE":"S","HIERARCHY":"DR","LVL":0,"STARTSN_ID":"https://databrussels.be/id/streetnode/2388","ENDSN_ID":"https://databrussels.be/id/streetnode/8695","STRNAMEFRE":"Avenue de Scheut","STRNAMEDUT":"Scheutlaan","SLOPE":2.31,"LENGTH":147.204693603221},"bbox":[145804.645,170595.004,145889.807,170714.971]},{"type":"Feature","id":"StreetAxes.fid--2dded296_1a02c23f8dc_-571b","geometry":{"type":"LineString","coordinates":[[145780.03941661,170839.65309873],[145781.274,170846.306],[145792.363,170936.876],[145797.146,170943.018],[145837.542,170994.895],[145860.22794573,171025.61883349],[145860.61460348,171030.64748933],[145909.59,171093.705],[145926.795,171115.195],[145945.368,171137.002],[145965.445,171158.685],[145975.388,171166.912]]},"geometry_name":"GEOM","properties":{"INSPIRE_ID":"https://databrussels.be/id/streetaxe/74125","TYPE":"S","HIERARCHY":null,"LVL":0,"STARTSN_ID":"https://databrussels.be/id/streetnode/9651","ENDSN_ID":"https://databrussels.be/id/streetnode/9921","STRNAMEFRE":"Rue de la Laiterie","STRNAMEDUT":"Melkerijstraat","SLOPE":1.64,"LENGTH":393.254311861563},"bbox":[145780.03941661,170839.65309873,145975.388,171166.912]},{"type":"Feature","id":"StreetAxes.fid--2dded296_1a02c23f8dc_-572c","geometry":{"type":"LineString","coordinates":[[145506.747,170689.483],[145495.273,170692.056],[145442.916,170704.318],[145421.897,170705.248]]},"geometry_name":"GEOM","properties":{"INSPIRE_ID":"https://databrussels.be/id/streetaxe/74298","TYPE":"S","HIERARCHY":"DR","LVL":0,"STARTSN_ID":"https://databrussels.be/id/streetnode/1934","ENDSN_ID":"https://databrussels.be/id/streetnode/13934","STRNAMEFRE":"Rue Van Soust","STRNAMEDUT":"Van Souststraat","SLOPE":1.54,"LENGTH":86.5722303443816},"bbox":[145421.897,170689.483,145506.747,170705.248]},{"type":"Feature","id":"StreetAxes.fid--2dded296_1a02c23f8dc_-5710","geometry":{"type":"LineString","coordinates":[[145658.935,170646.382],[145632.413,170628.622],[145613.84,170616.185],[145604.5,170609.165],[145588.74,170597.33],[145573.056,170584.76],[145544.24,170560.528],[145531.451,170550.059]]},"geometry_name":"GEOM","properties":{"INSPIRE_ID":"https://databrussels.be/id/streetaxe/74434","TYPE":"S","HIERARCHY":"DR","LVL":0,"STARTSN_ID":"https://databrussels.be/id/streetnode/942","ENDSN_ID":"https://databrussels.be/id/streetnode/209","STRNAMEFRE":"Rue Puccini","STRNAMEDUT":"Puccinistraat","SLOPE":1.47,"LENGTH":159.942179005769},"bbox":[145531.451,170550.059,145658.935,170646.382]},{"type":"Feature","id":"StreetAxes.fid--2dded296_1a02c23f8dc_-5721","geometry":{"type":"LineString","coordinates":[[145780.642,170817.615],[145718.035,170809.332],[145709.287,170808.207]]},"geometry_name":"GEOM","properties":{"INSPIRE_ID":"https://databrussels.be/id/streetaxe/74867","TYPE":"S","HIERARCHY":"MAR","LVL":0,"STARTSN_ID":"https://databrussels.be/id/streetnode/8696","ENDSN_ID":"https://databrussels.be/id/streetnode/742","STRNAMEFRE":"Chaussée de Ninove","STRNAMEDUT":"Ninoofse Steenweg","SLOPE":0.51,"LENGTH":71.9725910611642},"bbox":[145709.287,170808.207,145780.642,170817.615]},{"type":"Feature","id":"StreetAxes.fid--2dded296_1a02c23f8dc_-5717","geometry":{"type":"LineString","coordinates":[[145742.543,170545.282],[145757.905,170550.475],[145880.528,170591.929],[145889.807,170595.004]]},"geometry_name":"GEOM","properties":{"INSPIRE_ID":"https://databrussels.be/id/streetaxe/76363","TYPE":"S","HIERARCHY":"DR","LVL":0,"STARTSN_ID":"https://databrussels.be/id/streetnode/6840","ENDSN_ID":"https://databrussels.be/id/streetnode/2388","STRNAMEFRE":"Rue Edmond Rostand","STRNAMEDUT":"Edmond Rostandstraat","SLOPE":3.67,"LENGTH":155.431702451575},"bbox":[145742.543,170545.282,145889.807,170595.004]},{"type":"Feature","id":"StreetAxes.fid--2dded296_1a02c23f8dc_-5722","geometry":{"type":"LineString","coordinates":[[145709.287,170808.207],[145707.87,170818.91],[145685.02,170991.5],[145682.013,171013.591]]},"geometry_name":"GEOM","properties":{"INSPIRE_ID":"https://databrussels.be/id/streetaxe/77398","TYPE":"S","HIERARCHY":"DR","LVL":0,"STARTSN_ID":"https://databrussels.be/id/streetnode/742","ENDSN_ID":"https://databrussels.be/id/streetnode/9919","STRNAMEFRE":"Avenue des Missionnaires","STRNAMEDUT":"Missionarissenlaan","SLOPE":1.94,"LENGTH":207.187146555173},"bbox":[145682.013,170808.207,145709.287,171013.591]},{"type":"Feature","id":"StreetAxes.fid--2dded296_1a02c23f8dc_-5719","geometry":{"type":"LineString","coordinates":[[145543.28,170943.684],[145554.422,170949.261],[145663.981,171003.912],[145682.013,171013.591]]},"geometry_name":"GEOM","properties":{"INSPIRE_ID":"https://databrussels.be/id/streetaxe/77469","TYPE":"S","HIERARCHY":"DR","LVL":0,"STARTSN_ID":"https://databrussels.be/id/streetnode/4642","ENDSN_ID":"https://databrussels.be/id/streetnode/9919","STRNAMEFRE":"Avenue des Ménestrels","STRNAMEDUT":"Menestrelenlaan","SLOPE":0.07,"LENGTH":155.358576637598},"bbox":[145543.28,170943.684,145682.013,171013.591]},{"type":"Feature","id":"StreetAxes.fid--2dded296_1a02c23f8dc_-571f","geometry":{"type":"LineString","coordinates":[[145907.696,170834.737],[145896.115,170833.25],[145808.732,170821.504],[145780.642,170817.615]]},"geometry_name":"GEOM","properties":{"INSPIRE_ID":"https://databrussels.be/id/streetaxe/77921","TYPE":"S","HIERARCHY":"MAR","LVL":0,"STARTSN_ID":"https://databrussels.be/id/streetnode/1546","ENDSN_ID":"https://databrussels.be/id/streetnode/8696","STRNAMEFRE":"Chaussée de Ninove","STRNAMEDUT":"Ninoofse Steenweg","SLOPE":0.06,"LENGTH":128.202922032734},"bbox":[145780.642,170817.615,145907.696,170834.737]},{"type":"Feature","id":"StreetAxes.fid--2dded296_1a02c23f8dc_-571c","geometry":{"type":"LineString","coordinates":[[145780.03941661,170839.65309873],[145794.11330654,170837.12791374],[145799.006,170838.874],[145883.538,170910.9],[145893.316,170911.41],[145898.666,170909.281]]},"geometry_name":"GEOM","properties":{"INSPIRE_ID":"https://databrussels.be/id/streetaxe/78638","TYPE":"S","HIERARCHY":"DR","LVL":0,"STARTSN_ID":"https://databrussels.be/id/streetnode/9651","ENDSN_ID":"https://databrussels.be/id/streetnode/8692","STRNAMEFRE":"Rue de la Cordialité","STRNAMEDUT":"Hartelijkheidsstraat","SLOPE":1.66,"LENGTH":146.098760903888},"bbox":[145780.03941661,170837.12791374,145898.666,170911.41]},{"type":"Feature","id":"StreetAxes.fid--2dded296_1a02c23f8dc_-571e","geometry":{"type":"LineString","coordinates":[[146178.65350225,170870.79817035],[146170.146,170869.581],[145917.734,170836.027],[145907.696,170834.737]]},"geometry_name":"GEOM","properties":{"INSPIRE_ID":"https://databrussels.be/id/streetaxe/78639","TYPE":"S","HIERARCHY":"MAR","LVL":0,"STARTSN_ID":"https://databrussels.be/id/streetnode/9652","ENDSN_ID":"https://databrussels.be/id/streetnode/1546","STRNAMEFRE":"Chaussée de Ninove","STRNAMEDUT":"Ninoofse Steenweg","SLOPE":0.75,"LENGTH":273.347140174142},"bbox":[145907.696,170834.737,146178.65350225,170870.79817035]},{"type":"Feature","id":"StreetAxes.fid--2dded296_1a02c23f8dc_-5727","geometry":{"type":"LineString","coordinates":[[145884.15827335,170761.31679345],[145891.74044954,170755.62542426],[145905.60383237,170742.06410993],[145911.38522523,170739.61243883]]},"geometry_name":"GEOM","properties":{"INSPIRE_ID":"https://databrussels.be/id/streetaxe/78711","TYPE":"S","HIERARCHY":"DR","LVL":0,"STARTSN_ID":"https://databrussels.be/id/streetnode/9657","ENDSN_ID":"https://databrussels.be/id/streetnode/8697","STRNAMEFRE":"Rue Van Soust","STRNAMEDUT":"Van Souststraat","SLOPE":1.25,"LENGTH":35.1536736212348},"bbox":[145884.15827335,170739.61243883,145911.38522523,170761.31679345]},{"type":"Feature","id":"StreetAxes.fid--2dded296_1a02c23f8dc_-5728","geometry":{"type":"LineString","coordinates":[[146102.935,170814.806],[146092.173,170808.362],[146032.04,170771.86],[146012.83,170762.525],[145995.37,170756.105],[145970.845,170750.575],[145923.39863967,170744.1757454],[145911.38522523,170739.61243883]]},"geometry_name":"GEOM","properties":{"INSPIRE_ID":"https://databrussels.be/id/streetaxe/78773","TYPE":"S","HIERARCHY":null,"LVL":0,"STARTSN_ID":"https://databrussels.be/id/streetnode/8693","ENDSN_ID":"https://databrussels.be/id/streetnode/8697","STRNAMEFRE":"Rue Van Soust","STRNAMEDUT":"Van Souststraat","SLOPE":0.4,"LENGTH":208.716990817692},"bbox":[145911.38522523,170739.61243883,146102.935,170814.806]},{"type":"Feature","id":"StreetAxes.fid--2dded296_1a02c23f8dc_-5726","geometry":{"type":"LineString","coordinates":[[145907.696,170834.737],[145905.536,170819.176],[145887.034,170769.1],[145884.15827335,170761.31679345]]},"geometry_name":"GEOM","properties":{"INSPIRE_ID":"https://databrussels.be/id/streetaxe/78774","TYPE":"S","HIERARCHY":"DR","LVL":0,"STARTSN_ID":"https://databrussels.be/id/streetnode/1546","ENDSN_ID":"https://databrussels.be/id/streetnode/9657","STRNAMEFRE":"Rue Achille Jonas","STRNAMEDUT":"Achille Jonasstraat","SLOPE":2.05,"LENGTH":77.3924075810071},"bbox":[145884.15827335,170761.31679345,145907.696,170834.737]},{"type":"Feature","id":"StreetAxes.fid--2dded296_1a02c23f8dc_-5729","geometry":{"type":"LineString","coordinates":[[145884.15827335,170761.31679345],[145881.58200275,170752.42441481],[145880.15944402,170742.6554761],[145812.96,170718.945],[145804.645,170714.971]]},"geometry_name":"GEOM","properties":{"INSPIRE_ID":"https://databrussels.be/id/streetaxe/80037","TYPE":"S","HIERARCHY":"DR","LVL":0,"STARTSN_ID":"https://databrussels.be/id/streetnode/9657","ENDSN_ID":"https://databrussels.be/id/streetnode/8695","STRNAMEFRE":"Rue Van Soust","STRNAMEDUT":"Van Souststraat","SLOPE":0.8,"LENGTH":99.6056269215401},"bbox":[145804.645,170714.971,145884.15827335,170761.31679345]},{"type":"Feature","id":"StreetAxes.fid--2dded296_1a02c23f8dc_-5718","geometry":{"type":"LineString","coordinates":[[145716.892,170672.75],[145722.027,170663.368],[145739.943,170560.246],[145742.543,170545.282]]},"geometry_name":"GEOM","properties":{"INSPIRE_ID":"https://databrussels.be/id/streetaxe/80815","TYPE":"S","HIERARCHY":"DR","LVL":0,"STARTSN_ID":"https://databrussels.be/id/streetnode/1872","ENDSN_ID":"https://databrussels.be/id/streetnode/6840","STRNAMEFRE":"Rue de l'Orphelinat","STRNAMEDUT":"Weeshuisstraat","SLOPE":0.02,"LENGTH":130.550285604092},"bbox":[145716.892,170545.282,145742.543,170672.75]},{"type":"Feature","id":"StreetAxes.fid--2dded296_1a02c23f8dc_-5716","geometry":{"type":"LineString","coordinates":[[145742.543,170545.282],[145742.62,170532.76],[145749.534,170394.946],[145750.02310211,170384.90470079]]},"geometry_name":"GEOM","properties":{"INSPIRE_ID":"https://databrussels.be/id/streetaxe/81545","TYPE":"S","HIERARCHY":"DR","LVL":0,"STARTSN_ID":"https://databrussels.be/id/streetnode/6840","ENDSN_ID":"https://databrussels.be/id/streetnode/6352","STRNAMEFRE":"Rue de l'Orphelinat","STRNAMEDUT":"Weeshuisstraat","SLOPE":1.96,"LENGTH":160.562766220869},"bbox":[145742.543,170384.90470079,145750.02310211,170545.282]},{"type":"Feature","id":"StreetAxes.fid--2dded296_1a02c23f8dc_-5711","geometry":{"type":"LineString","coordinates":[[145531.451,170550.059],[145534.509,170533.034],[145557.752,170401.777],[145559.5152713,170394.16728482]]},"geometry_name":"GEOM","properties":{"INSPIRE_ID":"https://databrussels.be/id/streetaxe/86176","TYPE":"S","HIERARCHY":"DR","LVL":0,"STARTSN_ID":"https://databrussels.be/id/streetnode/209","ENDSN_ID":"https://databrussels.be/id/streetnode/6356","STRNAMEFRE":"Rue de l'Obus","STRNAMEDUT":"Obusstraat","SLOPE":0.86,"LENGTH":158.407838444742},"bbox":[145531.451,170394.16728482,145559.5152713,170550.059]},{"type":"Feature","id":"StreetAxes.fid--2dded296_1a02c23f8dc_-5715","geometry":{"type":"LineString","coordinates":[[146057.70379729,170397.80994255],[146045.294,170410.512],[145994.595,170462.405],[145929.78,170539.525],[145894.836,170588.256],[145889.807,170595.004]]},"geometry_name":"GEOM","properties":{"INSPIRE_ID":"https://databrussels.be/id/streetaxe/87411","TYPE":"S","HIERARCHY":"DR","LVL":0,"STARTSN_ID":"https://databrussels.be/id/streetnode/6070","ENDSN_ID":"https://databrussels.be/id/streetnode/2388","STRNAMEFRE":"Avenue de Scheut","STRNAMEDUT":"Scheutlaan","SLOPE":1.63,"LENGTH":259.426809239278},"bbox":[145889.807,170397.80994255,146057.70379729,170595.004]},{"type":"Feature","id":"StreetAxes.fid--2dded296_1a02c23f8dc_-5712","geometry":{"type":"LineString","coordinates":[[145506.747,170689.483],[145509.218,170676.368],[145528.256,170567.846],[145531.451,170550.059]]},"geometry_name":"GEOM","properties":{"INSPIRE_ID":"https://databrussels.be/id/streetaxe/88420","TYPE":"S","HIERARCHY":"DR","LVL":0,"STARTSN_ID":"https://databrussels.be/id/streetnode/1934","ENDSN_ID":"https://databrussels.be/id/streetnode/209","STRNAMEFRE":"Rue de l'Obus","STRNAMEDUT":"Obusstraat","SLOPE":4.3,"LENGTH":141.596687356129},"bbox":[145506.747,170550.059,145531.451,170689.483]},{"type":"Feature","id":"StreetAxes.fid--2dded296_1a02c23f8dc_-5720","geometry":{"type":"LineString","coordinates":[[145780.03941661,170839.65309873],[145778.9814671,170827.27504486],[145780.642,170817.615]]},"geometry_name":"GEOM","properties":{"INSPIRE_ID":"https://databrussels.be/id/streetaxe/91642","TYPE":"I","HIERARCHY":"DR","LVL":0,"STARTSN_ID":"https://databrussels.be/id/streetnode/9651","ENDSN_ID":"https://databrussels.be/id/streetnode/8696","STRNAMEFRE":"Rue de la Laiterie","STRNAMEDUT":"Melkerijstraat","SLOPE":0.45,"LENGTH":22.2249091448611},"bbox":[145778.9814671,170817.615,145780.642,170839.65309873]}],"numberReturned":34,"grand_bruxelles_source":{"authority":"Paradigm / Brussels-Capital Region","service":"https://geoservices-urbis.irisnet.be/geoserver/urbisvector/wfs","layer":"urbisvector:StreetAxes","crs":"EPSG:31370","bbox":[145500.0,170500.0,146000.0,171000.0],"cell_id":"bxl-e145500-n170500-s500","ownership":"bbox_intersection_source_unclipped"}}
