{"type":"FeatureCollection","totalFeatures":8,"numberMatched":8,"timeStamp":"2026-08-24T01:59:01.414Z","crs":{"type":"name","properties":{"name":"urn:ogc:def:crs:EPSG::31370"}},"bbox":[152372.1134741,162942.44609376,154310.49152099,166846.35442706],"features":[{"type":"Feature","id":"TrainNetwork.fid--24aa7d09_1a031580c5b_-5a49","geometry":{"type":"LineString","coordinates":[[153609.576,165334.737],[153616.275,165338.893],[153620.26540466,165341.43647727],[153624.23,165344.02],[153628.16409748,165346.65454697],[153632.065,165349.338],[153635.99082694,165352.11646058],[153639.88,165354.946],[153643.49288871,165357.63498499],[153647.058,165360.387],[153654.18412686,165366.09037004],[153661.209,165371.918],[153666.01099802,165376.0936436],[153670.738,165380.354],[153674.23317625,165383.5916925],[153677.676,165386.885],[153682.91180104,165392.05453958],[153688.046,165397.325],[153694.27183178,165404.01488926],[153700.339,165410.849],[153706.3482306,165417.97512752],[153712.179,165425.248],[153712.227,165425.303],[153717.06745554,165431.64023015],[153721.772,165438.079],[153726.32649018,165444.59786874],[153730.74,165451.213],[153735.08811932,165458.05189775],[153739.291,165464.981],[153742.94128844,165471.28179289],[153746.46,165477.657],[153750.21063891,165484.80180577],[153753.808,165492.025],[153757.2188385,165499.2676323],[153760.473,165506.582],[153763.59038471,165514.01458746],[153766.551,165521.511],[153769.39554046,165529.22099918],[153772.115,165536.976],[153773.5217889,165541.13623358],[153774.894,165545.308],[153776.425,165549.982],[153779.69,165559.957],[153782.13446416,165567.27589567],[153784.675,165574.562],[153787.24499274,165581.61287047],[153789.911,165588.628],[153792.5971434,165595.41700384],[153795.375,165602.169],[153798.05321028,165608.43203704],[153800.812,165614.66],[153802.08624649,165617.44989484],[153803.394711,165620.223906],[153806.102555,165625.995317],[153808.298968,165630.538189],[153812.612302,165639.148363],[153817.091983,165647.672256],[153819.96781471,165652.99383161],[153822.93835,165658.263129],[153827.352548,165665.883484],[153831.50054393,165672.84846876],[153835.763,165679.744],[153840.85304257,165687.65256999],[153846.073,165695.476],[153846.432,165695.992],[153851.27321503,165702.9642628],[153856.227,165709.857],[153861.60189922,165717.08983214],[153867.098,165724.231],[153872.82495167,165731.40162052],[153878.674,165738.473],[153884.3635432,165745.123258],[153890.164,165751.677],[153890.51,165752.049],[153896.49251996,165758.54679865],[153902.537,165764.987],[153908.81558996,165771.52574915],[153915.133,165778.027],[153927.685,165790.961],[153934.38141407,165797.85739737],[153941.032,165804.798],[153947.25562453,165811.43210752],[153953.392,165818.147],[153959.52557907,165825.09866828],[153965.549,165832.146],[153971.34171341,165839.13939279],[153977.025,165846.222],[153977.489,165846.815],[153983.0499154,165854.00494298],[153988.495,165861.283],[153993.87449082,165868.72053722],[153999.136,165876.242],[154000,165877.51839285],[154004.16143529,165883.66610839],[154009.07,165891.168],[154013.76657582,165898.6011288],[154018.346,165906.107],[154022.99477887,165913.9997581],[154027.52,165921.964],[154028.06,165922.925],[154032.05858576,165930.26227496],[154035.948,165937.658],[154040.05531878,165945.74947702],[154044.036,165953.904],[154048.23148522,165962.87441109],[154052.278,165971.913],[154055.83002691,165980.20828137],[154059.235,165988.565],[154063.64204241,166000],[154063.72827,166000.223737],[154068.004,166011.964],[154068.511225,166013.522762],[154071.215544,166021.511944],[154073.805781,166029.538839],[154075.835256,166036.169694],[154077.781889,166042.82534],[154079.730695,166049.701549],[154081.586044,166056.603562],[154083.949724,166066.147962],[154086.193823,166075.721183],[154086.675488,166077.836794],[154087.138072,166079.956658],[154088.688952,166087.363612],[154090.151924,166094.78843],[154091.657697,166103.105127],[154093.043959,166111.442578],[154094.40622,166120.566443],[154095.674564,166129.703838],[154096.834008,166138.396562],[154097.962115,166147.093408],[154098.537874,166151.524839],[154099.110363,166155.956694],[154099.682062,166160.388649],[154100.255445,166164.820387],[154100.510152,166166.780265],[154100.76542,166168.740071],[154101.020665,166170.699879],[154101.275299,166172.659767],[154101.879989,166177.330276],[154102.483334,166182.000958],[154103.086437,166186.671672],[154103.690391,166191.342276],[154104.308714,166196.114275],[154104.927706,166200.886188],[154105.546806,166205.658086],[154106.165448,166210.430044],[154106.79516,166215.294605],[154107.424289,166220.159241],[154108.053729,166225.023837],[154108.684365,166229.888278],[154109.299883,166234.620556],[154109.916839,166239.352646],[154110.533614,166244.08476],[154111.148581,166248.817109],[154111.76739,166253.598401],[154112.384574,166258.379904],[154113.00123,166263.161474],[154113.618459,166267.94297],[154114.837182,166277.378905],[154116.058302,166286.81453],[154116.617633,166291.11679],[154117.178461,166295.418855],[154117.739249,166299.720925],[154118.298446,166304.023203],[154118.863744,166308.410347],[154119.425479,166312.797949],[154119.990516,166317.185143],[154120.565704,166321.571018],[154120.598391,166321.813448],[154120.631726,166322.055789],[154120.665086,166322.298127],[154120.697845,166322.540546],[154121.705028,166330.233315],[154122.698577,166337.927856],[154123.10414,166341.070873],[154123.507974,166344.214113],[154123.912812,166347.357226],[154124.321377,166350.499857],[154124.481436,166351.712699],[154124.643198,166352.925315],[154124.804879,166354.137942],[154124.964697,166355.350816],[154125.377428,166358.549439],[154125.784337,166361.748807],[154126.1926,166364.948012],[154126.609397,166368.146117],[154126.785124,166369.450574],[154126.964769,166370.754498],[154127.144189,166372.058454],[154127.319238,166373.363005],[154127.765632,166376.810473],[154128.201799,166380.25925],[154128.635097,166383.708369],[154129.072879,166387.156922],[154129.829001,166393.017786],[154130.590702,166398.877928],[154131.351224,166404.738227],[154132.103823,166410.599548],[154132.204191,166411.395159],[154132.303335,166412.190924],[154132.402581,166412.986676],[154132.503255,166413.782249],[154133.003443,166417.65853],[154133.509794,166421.53401],[154134.017992,166425.409242],[154134.523733,166429.284795],[154135.113674,166433.838121],[154135.701922,166438.391666],[154136.290205,166442.945206],[154136.880254,166447.498518],[154137.482132,166452.121207],[154138.085831,166456.743659],[154138.689506,166461.366114],[154139.291313,166465.988813],[154139.915726,166470.806877],[154140.538365,166475.625171],[154141.160668,166480.443507],[154141.78406,166485.261703],[154142.343172,166489.572076],[154142.903033,166493.882352],[154143.462988,166498.192616],[154144.022382,166502.502953],[154145.209698,166511.665681],[154146.395859,166520.828559],[154147.385667,166528.48254],[154148.374679,166536.136623],[154149.364005,166543.790666],[154150.35477,166551.444522],[154151.764137,166562.303801],[154153.175003,166573.162885],[154154.570042,166583.907901],[154155.965941,166594.652806],[154156.554962,166599.178099],[154157.144679,166603.703301],[154157.734118,166608.22854],[154158.322298,166612.753942],[154159.969201,166625.455758],[154161.608864,166638.158511],[154163.835805,166655.165353],[154165.95961,166672.185383],[154167.308374,166684.609786],[154168.564415,166697.043905],[154168.65476,166697.923121],[154168.736202,166698.803207],[154169.489488,166708.98034],[154170.039937,166719.170456],[154170.359997,166730.252671],[154170.431588,166741.339275],[154170.269143,166752.322134],[154169.866263,166763.298803],[154169.25628,166773.626855],[154168.420596,166783.939098],[154167.583651,166792.005974],[154166.588191,166800.054827],[154165.194696,166810.020751],[154163.60842,166819.957812],[154161.217554,166833.083188],[154158.6078901,166845.87638155],[154158.49416336,166846.35442706]]},"geometry_name":"GEOM","properties":{"INSPIRE_ID":"https://databrussels.be/id/rail/21552","TYPE":"TW","LVL":0,"SLOPE":null,"LENGTH":1673.8897642117},"bbox":[153609.576,165334.737,154170.431588,166846.35442706]},{"type":"Feature","id":"TrainNetwork.fid--24aa7d09_1a031580c5b_-5a48","geometry":{"type":"LineString","coordinates":[[153608.18229495,165335.62398649],[153608.746,165335.971],[153615.41,165340.108],[153619.40002502,165342.65381275],[153623.364,165345.24],[153627.31094221,165347.87974095],[153631.225,165350.568],[153635.13550311,165353.33471161],[153639.009,165356.153],[153642.58174366,165358.81218008],[153646.107,165361.534],[153653.21275699,165367.22323962],[153660.217,165373.037],[153665.04357582,165377.23708383],[153669.795,165381.522],[153673.25824015,165384.72914437],[153676.67,165387.991],[153681.9025027,165393.15532493],[153687.033,165398.421],[153693.18529768,165405.03339951],[153699.18,165411.789],[153705.17989558,165418.9080384],[153711.001,165426.174],[153711.157,165426.363],[153715.91131312,165432.57351104],[153720.528,165438.887],[153725.0821152,165445.41351187],[153729.494,165452.037],[153733.82712078,165458.85169985],[153738.016,165465.756],[153741.65008647,165472.03444113],[153745.153,165478.387],[153748.87620508,165485.48103549],[153752.449,165492.652],[153755.84296464,165499.84724689],[153759.081,165507.114],[153762.19257746,165514.53281608],[153765.146,165522.016],[153767.98197645,165529.70954297],[153770.693,165537.448],[153772.09705842,165541.60498053],[153773.468,165545.773],[153774.99,165550.405],[153778.268,165560.419],[153780.71873724,165567.7463227],[153783.265,165575.041],[153785.83806154,165582.11480707],[153788.507,165589.153],[153791.20136748,165595.9652269],[153793.991,165602.739],[153796.68925137,165609.02585892],[153799.467,165615.278],[153800.09073382,165616.68233139],[153800.70817,165618.089443],[153801.33366584,165619.49328548],[153801.981249,165620.887077],[153802.697322,165622.420239],[153806.118086,165629.608618],[153809.653252,165636.741541],[153813.89783,165644.944716],[153818.275245,165653.077701],[153822.08543216,165659.91026475],[153826.007167,165666.679419],[153830.20600288,165673.67578772],[153834.526,165680.598],[153839.61853082,165688.50842651],[153844.848,165696.329],[153845.12,165696.713],[153849.94669768,165703.66889201],[153854.885,165710.546],[153860.34544117,165717.9033805],[153865.93,165725.167],[153871.62979349,165732.30416538],[153877.453,165739.341],[153883.19786336,165746.05033596],[153889.056,165752.661],[153889.303,165752.936],[153895.33556772,165759.49559438],[153901.434,165765.994],[153907.69222288,165772.49919624],[153913.986,165778.97],[153926.618,165792.006],[153933.30366412,165798.89109503],[153939.946,165805.818],[153946.1899386,165812.4773404],[153952.346,165819.218],[153958.44398897,165826.1296794],[153964.433,165833.136],[153970.20297471,165840.10158485],[153975.864,165847.156],[153976.258,165847.675],[153981.82978374,165854.88482306],[153987.288,165862.181],[153992.6508655,165869.58758249],[153997.896,165877.078],[154000,165880.18874659],[154002.9101256,165884.4913432],[154007.808,165891.982],[154012.50640826,165899.40617344],[154017.088,165906.903],[154021.71187205,165914.75335638],[154026.209,165922.677],[154026.664,165923.494],[154030.7049,165930.89853679],[154034.634,165938.363],[154038.72816114,165946.42505419],[154042.694,165954.551],[154046.87616326,165963.50833906],[154050.911,165972.533],[154054.46112212,165980.80889197],[154057.865,165989.146],[154062.04688486,166000],[154062.329643,166000.733894],[154066.572,166012.405],[154067.195118,166014.147175],[154069.86213,166022.067456],[154072.426243,166030.021646],[154074.463111,166036.636246],[154076.416157,166043.276079],[154078.348284,166050.13411],[154080.185825,166057.018088],[154082.530702,166066.453564],[154084.757476,166075.917609],[154085.27467,166078.204625],[154085.770505,166080.496367],[154087.289888,166087.778969],[154088.72662,166095.078327],[154090.227651,166103.352596],[154091.611623,166111.647248],[154092.987876,166120.826707],[154094.266256,166130.020307],[154095.417123,166138.711519],[154096.535425,166147.406982],[154097.105493,166151.809949],[154097.673359,166156.2132],[154098.241242,166160.616449],[154098.811353,166165.019411],[154099.069795,166167.003752],[154099.329185,166168.98797],[154099.588685,166170.972173],[154099.847455,166172.956472],[154101.052601,166182.241532],[154102.255519,166191.526881],[154102.877341,166196.325274],[154103.49898,166201.12369],[154104.120597,166205.92211],[154104.742348,166210.720512],[154106.003717,166220.452076],[154107.265398,166230.183599],[154108.499914,166239.703487],[154109.734792,166249.223329],[154110.349036,166253.953918],[154110.963724,166258.68445],[154111.577913,166263.415046],[154112.190674,166268.145828],[154112.801478,166272.879243],[154113.410597,166277.612876],[154114.019649,166282.346517],[154114.630244,166287.079959],[154115.182151,166291.342837],[154115.735285,166295.605555],[154116.288642,166299.868245],[154116.841215,166304.131036],[154117.985812,166312.976684],[154119.128197,166321.822618],[154119.157019,166322.046678],[154119.185764,166322.270748],[154119.214551,166322.494813],[154119.243497,166322.718857],[154119.754749,166326.640368],[154120.269263,166330.561453],[154120.783686,166334.482549],[154121.294667,166338.404096],[154121.685045,166341.441497],[154122.071808,166344.47936],[154122.460191,166347.517025],[154122.855425,166350.553807],[154123.02879,166351.848644],[154123.205562,166353.143021],[154123.382182,166354.437419],[154123.555088,166355.732319],[154123.972019,166358.96168],[154124.379744,166362.192216],[154124.786973,166365.422811],[154125.202419,166368.652359],[154125.526405,166371.092838],[154125.856648,166373.532478],[154126.186415,166375.972187],[154126.508969,166378.41286],[154126.801539,166380.700351],[154127.087836,166382.988635],[154127.372794,166385.277078],[154127.661345,166387.56507],[154129.184165,166399.47415],[154130.735752,166411.379516],[154130.813403,166411.957307],[154130.892514,166412.5349],[154130.971663,166413.112488],[154131.049424,166413.690264],[154131.56775,166417.635988],[154132.078389,166421.582715],[154132.586092,166425.52981],[154133.095602,166429.476672],[154133.69092,166434.067194],[154134.286404,166438.657695],[154134.881811,166443.248206],[154135.476897,166447.838758],[154136.065353,166452.381809],[154136.653473,166456.924903],[154137.241545,166461.468003],[154137.829845,166466.011074],[154139.085865,166475.705653],[154140.342563,166485.400144],[154140.905048,166489.736109],[154141.467793,166494.072041],[154142.030584,166498.407967],[154142.593192,166502.743917],[154143.782899,166511.916759],[154144.972148,166521.08966],[154146.953814,166536.380962],[154148.934624,166551.672374],[154149.633775,166557.072479],[154150.332666,166562.472618],[154151.031574,166567.872754],[154151.730774,166573.272853],[154153.140441,166584.156257],[154154.551523,166595.039477],[154155.126822,166599.468863],[154155.702715,166603.898172],[154156.278718,166608.327467],[154156.854348,166612.75681],[154158.513942,166625.512576],[154160.165704,166638.269359],[154162.400013,166655.374143],[154164.528436,166672.492426],[154165.865096,166684.838231],[154167.114661,166697.193156],[154167.193605,166697.952587],[154167.26497,166698.712768],[154168.026017,166708.964581],[154168.588485,166719.229204],[154168.77993,166724.294513],[154168.91738,166729.361575],[154168.997645,166734.429991],[154169.017552,166739.499003],[154168.846159,166751.533184],[154168.395465,166763.560143],[154167.782856,166773.599142],[154166.954534,166783.622648],[154166.099696,166791.94681],[154165.086369,166800.253168],[154163.811727,166809.4248],[154162.356834,166818.56957],[154159.909813,166832.022674],[154157.176426,166845.420529],[154157.04396629,166846.00911106]]},"geometry_name":"GEOM","properties":{"INSPIRE_ID":"https://databrussels.be/id/rail/21553","TYPE":"TW","LVL":0,"SLOPE":null,"LENGTH":1672.7685072432},"bbox":[153608.18229495,165335.62398649,154169.017552,166846.00911106]},{"type":"Feature","id":"TrainNetwork.fid--24aa7d09_1a031580c5b_-5a4a","geometry":{"type":"LineString","coordinates":[[153528.543,165313.806],[153539.86,165318.64],[153556.096,165325.608],[153559.14249695,165326.9192387],[153562.177,165328.258],[153569.69004063,165331.67366205],[153577.138,165335.229],[153585.06195474,165339.28796127],[153592.884,165343.54],[153600.45484858,165347.89276759],[153607.916,165352.431],[153615.45534524,165357.28425037],[153622.872,165362.323],[153630.01365286,165367.43330866],[153637.028,165372.717],[153642.724,165377.216],[153647.91231646,165381.49286392],[153653.03,165385.854],[153657.75426327,165390.04670579],[153662.403,165394.323],[153666.988054,165398.68418709],[153671.498,165403.123],[153671.733,165403.371],[153674.73715307,165406.42472974],[153677.688,165409.53],[153683.57775945,165415.92718256],[153689.336,165422.443],[153694.4215627,165428.49760684],[153699.366,165434.668],[153704.28588252,165441.1051762],[153709.063,165447.649],[153713.26201098,165453.65776726],[153717.33,165459.756],[153721.65430096,165466.55888128],[153725.825,165473.457],[153729.9827288,165480.7116842],[153733.98,165488.056],[153736.84687774,165493.58554192],[153739.589,165499.178],[153744.26549278,165509.33351277],[153748.7,165519.597],[153749.045,165520.434],[153751.55539664,165526.84816974],[153753.962,165533.302],[153756.42665646,165540.25376654],[153758.78,165547.244],[153763.763,165562.437],[153765.55137648,165567.85822914],[153767.383,165573.265],[153769.8881045,165580.414684],[153772.481,165587.533],[153775.3791968,165595.12467828],[153778.386,165602.674],[153779.098,165604.432],[153781.03360977,165609.08907379],[153783.017,165613.726],[153785.56808889,165619.52901265],[153788.182,165625.304],[153789.74662669,165628.72318731],[153791.350204,165632.124281],[153792.143449,165633.798337],[153795.28595115,165640.25385133],[153798.54526,165646.651186],[153803.85148391,165656.75561831],[153809.399489,165666.729344],[153813.594959,165673.939068],[153817.91325128,165681.14097253],[153822.346,165688.273],[153827.09909865,165695.68792382],[153831.97,165703.026],[153832.823,165704.277],[153837.87861718,165711.57394278],[153843.056,165718.785],[153848.7120741,165726.39000376],[153854.495,165733.899],[153860.24618932,165741.11432063],[153866.119,165748.231],[153872.41774033,165755.60107531],[153878.842,165762.862],[153879.048,165763.085],[153881.33757761,165765.61194424],[153883.65,165768.118],[153888.75492449,165773.53861459],[153893.897,165778.924],[153897.94608965,165783.12965972],[153902.01,165787.321],[153916.276,165802.016],[153929.404,165815.638],[153935.43488609,165822.03636572],[153941.351,165828.541],[153947.44805221,165835.44019217],[153953.434,165842.436],[153959.1545454,165849.35058762],[153964.761,165856.358],[153965.158,165856.866],[153970.51463212,165863.79997474],[153975.762,165870.817],[153981.04901425,165878.12084977],[153986.219,165885.508],[153990.96024779,165892.52997572],[153995.593,165899.624],[154000,165906.57834581],[154000.14319259,165906.80430695],[154004.582,165914.054],[154009.13385999,165921.77634691],[154013.559,165929.572],[154014.137,165930.607],[154016.04732174,165934.06901592],[154017.921,165937.551],[154021.91420258,165945.13774295],[154025.806,165952.777],[154029.84588569,165961.05659232],[154033.748,165969.402],[154037.51775211,165977.8568648],[154041.154,165986.37],[154043.99403128,165993.27455376],[154046.64700191,166000],[154049.979363,166008.873117],[154053.093,166017.575],[154053.884135,166019.740122],[154056.048074,166026.152292],[154058.135507,166032.589774],[154060.100667,166038.913973],[154061.995217,166045.259683],[154063.308787,166049.831578],[154064.578032,166054.415977],[154066.230911,166060.571626],[154067.817856,166066.744602],[154069.198939,166072.462204],[154070.524395,166078.192957],[154071.120029,166080.827658],[154071.693374,166083.467299],[154073.300738,166091.218719],[154074.812999,166098.989253],[154076.307115,166107.379827],[154077.681419,166115.790856],[154079.053326,166125.099413],[154080.331465,166134.421307],[154081.915496,166146.500994],[154083.46183,166158.585565],[154084.272179,166164.841862],[154084.677367,166167.970009],[154085.082637,166171.098145],[154085.695829,166175.829394],[154086.309182,166180.560623],[154086.922508,166185.291855],[154087.535616,166190.023115],[154088.138812,166194.681109],[154088.74172,166199.339141],[154089.344724,166203.99716],[154089.948204,166208.655118],[154090.578248,166213.512002],[154091.208836,166218.368816],[154091.839442,166223.225627],[154092.469542,166228.082504],[154093.591718,166236.743833],[154094.713131,166245.405261],[154095.46112,166251.184024],[154096.208877,166256.962817],[154096.95666,166262.741607],[154097.70472,166268.520361],[154098.290311,166273.040446],[154098.876227,166277.560489],[154099.46197,166282.080555],[154100.047044,166286.600707],[154100.177106,166287.607407],[154100.306995,166288.61413],[154100.436887,166289.620852],[154100.566956,166290.627551],[154101.743566,166299.717593],[154102.922558,166308.807326],[154103.55236,166313.64884],[154104.183392,166318.490194],[154104.814261,166323.33157],[154105.443571,166328.173148],[154106.621482,166337.270367],[154107.796118,166346.36801],[154108.438863,166351.361708],[154109.08001,166356.355611],[154109.72196,166361.349412],[154110.367115,166366.3428],[154110.949095,166370.813224],[154111.534159,166375.283245],[154112.119536,166379.753225],[154112.702446,166384.223527],[154113.933138,166393.728762],[154115.160141,166403.234474],[154115.824395,166408.388212],[154116.487361,166413.542115],[154117.151699,166418.695844],[154117.820078,166423.849051],[154118.075364,166425.799418],[154118.332338,166427.749563],[154118.589536,166429.699678],[154118.845489,166431.649956],[154120.073545,166441.075046],[154121.295381,166450.500944],[154121.835637,166454.689857],[154122.373866,166458.87903],[154122.912258,166463.068183],[154123.452995,166467.257034],[154124.044565,166471.811134],[154124.638493,166476.364926],[154125.232923,166480.918653],[154125.825996,166485.472556],[154127.027673,166494.733661],[154128.227627,166503.99499],[154129.201678,166511.515773],[154130.175113,166519.036635],[154131.148902,166526.557451],[154132.124015,166534.078096],[154133.439083,166544.198272],[154134.756115,166554.318192],[154135.492008,166559.959485],[154136.229345,166565.60059],[154136.965187,166571.241892],[154137.696606,166576.883769],[154138.339602,166581.894274],[154138.977778,166586.905395],[154139.616205,166591.916485],[154140.259963,166596.926892],[154141.002968,166602.641352],[154141.751561,166608.355083],[154142.501281,166614.068663],[154143.247675,166619.782679],[154144.794694,166631.707667],[154146.336322,166643.633354],[154147.633389,166653.595157],[154148.90457,166663.560297],[154151.513869,166685.496478],[154151.768103,166688.702455],[154152.099785,166691.901347],[154152.451977,166695.096916],[154152.76807,166698.296257],[154153.485799,166707.387298],[154154.029374,166716.490413],[154154.413996,166725.934089],[154154.596345,166735.383834],[154154.541243,166746.237055],[154154.239797,166757.086228],[154153.715763,166767.608029],[154152.959479,166778.11569],[154152.026138,166787.998541],[154150.883258,166797.859358],[154149.74722,166806.06608],[154148.477539,166814.253191],[154148.08693,166816.599904],[154147.672636,166818.942552],[154146.454735,166825.541137],[154145.18941,166832.130792],[154144.032964,166837.967601],[154142.839642,166843.796982]]},"geometry_name":"GEOM","properties":{"INSPIRE_ID":"https://databrussels.be/id/rail/21554","TYPE":"TW","LVL":0,"SLOPE":null,"LENGTH":1735.65885030845},"bbox":[153528.543,165313.806,154154.596345,166843.796982]},{"type":"Feature","id":"TrainNetwork.fid--24aa7d09_1a031580c5b_-5a4b","geometry":{"type":"LineString","coordinates":[[153529.11862145,165312.40557596],[153540.42,165317.262],[153542.91601354,165318.33268262],[153556.72,165324.254],[153559.77008828,165325.56703413],[153562.808,165326.908],[153570.33692203,165330.33141749],[153577.801,165333.894],[153585.76427365,165337.96978526],[153593.625,165342.24],[153601.23591804,165346.61734958],[153608.736,165351.182],[153616.33084147,165356.07253054],[153623.802,165361.15],[153630.95037483,165366.26755193],[153637.971,165371.559],[153643.666,165376.061],[153648.81431968,165380.30302152],[153653.894,165384.627],[153658.54753991,165388.75254939],[153663.129,165392.958],[153667.90159588,165397.49355008],[153672.595,165402.111],[153672.704,165402.232],[153676.28854792,165405.87811488],[153679.806,165409.589],[153685.13407148,165415.40849913],[153690.344,165421.334],[153695.52765699,165427.50732548],[153700.572,165433.795],[153705.50262802,165440.24246354],[153710.29,165446.797],[153714.50120709,165452.82262911],[153718.581,165458.938],[153722.91250162,165465.74823047],[153727.09,165472.654],[153731.26528601,165479.93448624],[153735.274,165487.308],[153738.71063038,165493.97311738],[153741.99,165500.717],[153746.14843816,165509.83911247],[153750.083,165519.06],[153750.484,165520.001],[153752.82781479,165525.96107496],[153755.073,165531.959],[153757.69880902,165539.33841789],[153760.2,165546.761],[153765.178,165561.973],[153766.94966743,165567.33914636],[153768.767,165572.69],[153771.2733633,165579.83274812],[153773.865,165586.945],[153776.83839669,165594.746853],[153779.919,165602.507],[153781.268,165605.774],[153782.77072126,165609.3686067],[153784.307,165612.949],[153786.84084489,165618.71394305],[153789.435,165624.452],[153790.82195751,165627.41307198],[153792.243222,165630.357831],[153795.11781,165636.382783],[153797.73663514,165641.68987453],[153800.445559,165646.951547],[153804.04717845,165653.78417703],[153807.737409,165660.569359],[153811.26801226,165666.90328169],[153814.911067,165673.173201],[153819.1295378,165680.23752756],[153823.458,165687.235],[153828.05657661,165694.4209075],[153832.767,165701.534],[153834.126,165703.535],[153839.19564988,165710.86548999],[153844.393,165718.106],[153849.95198719,165725.56541173],[153855.636,165732.93],[153861.40180707,165740.1643044],[153867.288,165747.301],[153873.51643888,165754.58791715],[153879.87,165761.766],[153881.146,165763.168],[153882.97120378,165765.17709986],[153884.813,165767.171],[153889.61397214,165772.27462585],[153894.449,165777.346],[153898.74790337,165781.80884258],[153903.062,165786.257],[153917.268,165800.904],[153930.411,165814.526],[153936.50613143,165820.98919565],[153942.484,165827.561],[153948.58458505,165834.46164605],[153954.574,165841.459],[153960.17693891,165848.22947577],[153965.668,165855.091],[153966.436,165856.078],[153971.7458451,165862.94541146],[153976.945,165869.897],[153982.23186469,165877.209353],[153987.403,165884.604],[153992.17533719,165891.65683653],[153996.839,165898.782],[154000,165903.77355766],[154001.37349503,165905.94245347],[154005.797,165913.172],[154010.07190059,165920.41250259],[154014.233,165927.719],[154015.043,165929.168],[154017.1704357,165933.00272364],[154019.253,165936.862],[154023.28793605,165944.53186043],[154027.216,165952.257],[154031.31859767,165960.67729631],[154035.282,165969.164],[154038.95979176,165977.40935201],[154042.504,165985.713],[154045.69944597,165993.5219169],[154048.23241198,166000],[154048.772,166001.38],[154055.191919,166019.097216],[154057.36523,166025.521067],[154059.459404,166031.97115],[154061.386032,166038.182919],[154063.247283,166044.41459],[154064.410742,166048.418599],[154065.536231,166052.433447],[154067.439283,166059.492794],[154069.261638,166066.573401],[154070.690146,166072.480269],[154072.06083,166078.400822],[154072.602556,166080.792075],[154073.123774,166083.187882],[154074.723877,166090.911503],[154076.228707,166098.654251],[154077.735963,166107.115559],[154079.123551,166115.597313],[154080.387979,166124.16238],[154081.567519,166132.73955],[154083.04954,166143.960984],[154084.493265,166155.18741],[154084.996429,166159.085568],[154085.497324,166162.984018],[154085.997799,166166.882521],[154086.499701,166170.780841],[154087.723896,166180.24891],[154088.951083,166189.716592],[154089.548798,166194.32039],[154090.147295,166198.924087],[154090.74598,166203.52776],[154091.34425,166208.131486],[154092.5662,166217.542193],[154093.787021,166226.953047],[154094.325099,166231.106904],[154094.862687,166235.260825],[154095.40025,166239.414749],[154095.938261,166243.568614],[154096.625303,166248.864601],[154097.313055,166254.160495],[154098.000517,166259.456428],[154098.686686,166264.752528],[154099.382919,166270.146253],[154100.077319,166275.540214],[154100.772332,166280.934097],[154101.470409,166286.327584],[154101.60377,166287.351103],[154101.73774,166288.374543],[154101.87178,166289.397973],[154102.005347,166290.421465],[154102.598773,166294.991664],[154103.190481,166299.562086],[154103.781813,166304.132556],[154104.374113,166308.702901],[154104.989188,166313.434127],[154105.60536,166318.16521],[154106.220966,166322.896368],[154106.834338,166327.627816],[154107.390009,166331.940227],[154107.943283,166336.252946],[154108.496665,166340.565652],[154109.05266,166344.878021],[154109.662063,166349.572796],[154110.274086,166354.26723],[154110.886634,166358.961595],[154111.497623,166363.656163],[154112.146636,166368.660577],[154112.794478,166373.665143],[154113.442032,166378.669746],[154114.090186,166383.674272],[154114.690427,166388.300704],[154115.291251,166392.92706],[154115.891759,166397.553458],[154116.491054,166402.180013],[154117.014331,166406.233964],[154117.536295,166410.288085],[154118.058426,166414.342184],[154118.582211,166418.39607],[154119.02618,166421.81692],[154119.471443,166425.237602],[154119.917039,166428.65824],[154120.362012,166432.078959],[154121.543433,166441.1795],[154122.723634,166450.2802],[154123.808219,166458.648769],[154124.891632,166467.017489],[154125.47519,166471.534956],[154126.05789,166476.052534],[154126.641029,166480.570056],[154127.225902,166485.087354],[154127.780144,166489.349733],[154128.336048,166493.611895],[154128.892336,166497.874007],[154129.44772,166502.136237],[154131.521131,166518.090052],[154133.592819,166534.04409],[154134.87398,166543.901992],[154136.153484,166553.76011],[154136.895468,166559.493754],[154137.636248,166565.227553],[154138.376591,166570.961409],[154139.117244,166576.695225],[154140.392889,166586.567215],[154141.669146,166596.439126],[154143.270576,166608.829884],[154144.877582,166621.21992],[154145.593726,166626.690856],[154146.31383,166632.161273],[154147.032908,166637.631828],[154147.745967,166643.10317],[154149.306432,166655.123714],[154150.822626,166667.149922],[154152.049784,166677.355783],[154153.194092,166687.571266],[154153.719086,166692.780095],[154154.185158,166697.994526],[154154.911322,166707.220588],[154155.486866,166716.45727],[154155.702142,166721.210987],[154155.869671,166725.966626],[154155.9863,166730.723902],[154156.048872,166735.482196],[154156.004796,166746.24721],[154155.721066,166757.008575],[154155.214167,166767.517239],[154154.469345,166778.011723],[154153.513959,166788.030501],[154152.342835,166798.026358],[154151.204537,166806.227153],[154149.937946,166814.409116],[154149.558514,166816.722295],[154149.151759,166819.030826],[154146.922485,166830.818532],[154144.548655,166842.577979]]},"geometry_name":"GEOM","properties":{"INSPIRE_ID":"https://databrussels.be/id/rail/21555","TYPE":"TW","LVL":0,"SLOPE":null,"LENGTH":1736.1640097148},"bbox":[153529.11862145,165312.40557596,154156.048872,166842.577979]},{"type":"Feature","id":"TrainNetwork.fid--24aa7d09_1a031580c5b_-5a4c","geometry":{"type":"LineString","coordinates":[[154310.49152099,162950.31781512],[153708.110855,163534.80176],[153699.413,163543.24512],[153688.61106,163553.78],[153678.9577225,163563.23552],[153670.1558525,163571.92304],[153661.43794,163580.60672],[153653.635395,163588.4496],[153647.36361,163594.81728],[153639.7635925,163602.60864],[153631.588475,163611.07776],[153622.488405,163620.62528],[153613.4240125,163630.26656],[153604.9597475,163639.39616],[153598.387455,163646.58096],[153585.3019775,163661.09616],[153577.953655,163669.36432],[153569.4093375,163679.08464],[153568.584495,163680.04736],[153562.1488775,163687.52224],[153553.75579,163697.35504],[153545.683445,163706.9288],[153537.6098575,163716.62656],[153528.8512975,163727.30432],[153518.0891175,163740.64752],[153507.69099,163753.77616],[153499.1491575,163764.75072],[153491.6938025,163774.48192],[153483.5714025,163785.22512],[153475.762645,163795.67616],[153468.4231975,163805.64016],[153460.6944925,163816.29088],[153452.93508,163827.13808],[153445.6385875,163837.50384],[153438.09253,163848.40096],[153430.798345,163859.104],[153423.006095,163870.70928],[153415.558905,163881.94944],[153408.705275,163892.43744],[153402.137775,163902.61424],[153395.2200675,163913.44128],[153388.43726,163924.15424],[153381.5862925,163935.07776],[153373.45058,163948.13456],[153259.238915,164133.34704],[152988.74232433,164572.1707487],[152976.16038593,164592.73852679],[152965.2945222,164610.59170083],[152947.10932099,164641.08012638],[152927.80938681,164674.12089808],[152917.12230199,164692.86563261],[152867.60227647,164780.09877896],[152764.73965363,164950.05056363],[152638.50457308,165150.65307868],[152593.94672519,165225.10117525],[152551.34183327,165305.07024602],[152527.50552223,165353.83361337],[152511.35747792,165389.42215418],[152497.49735545,165421.80913814],[152483.03687469,165458.28187339],[152467.91633308,165499.83261068],[152457.7695695,165530.00584765],[152449.234,165557.4064],[152440.3508,165587.9561],[152435.1789,165606.9653],[152428.8998,165630.6859],[152425.1537,165645.2934],[152420.2537,165664.2904],[152412.3659,165696.2973],[152405.5038,165724.0084],[152398.8213,165750.3334],[152394.1796,165768.9767],[152384.8538,165805.2371],[152379.9028,165825.6553],[152377.57508914,165834.54615785]]},"geometry_name":"GEOM","properties":{"INSPIRE_ID":"https://databrussels.be/id/rail/25870","TYPE":"RW","LVL":0,"SLOPE":null,"LENGTH":3518.43383300964},"bbox":[152377.57508914,162950.31781512,154310.49152099,165834.54615785]},{"type":"Feature","id":"TrainNetwork.fid--24aa7d09_1a031580c5b_-5a4d","geometry":{"type":"LineString","coordinates":[[154309.10787903,162949.57032371],[153707.06609,163533.72528],[153698.366815,163542.17008],[153687.562745,163552.7072],[153677.906035,163562.16592],[153669.0997275,163570.85776],[153660.3770225,163579.5464],[153652.56933,163587.39424],[153646.2923975,163593.76736],[153638.687055,163601.564],[153630.5059025,163610.03936],[153621.3990875,163619.59408],[153612.3274175,163629.24288],[153603.85623,163638.38],[153597.277015,163645.57264],[153584.1844375,163660.09568],[153576.829725,163668.37088],[153568.2765325,163678.1016],[153567.4465425,163679.07008],[153561.0100375,163686.54608],[153552.61198,163696.38464],[153544.5336,163705.96544],[153536.4536225,163715.67104],[153527.6876075,163726.35792],[153516.9172625,163739.71088],[153506.5111475,163752.84976],[153497.96186,163763.83392],[153490.5002925,163773.57344],[153482.3722125,163784.32384],[153474.5579525,163794.7824],[153467.2122925,163804.75488],[153459.477375,163815.41392],[153451.71175,163826.26992],[153444.40869,163836.64512],[153436.856065,163847.55168],[153429.555845,163858.26352],[153421.7580925,163869.87696],[153414.3059325,163881.12496],[153407.447155,163891.62048],[153400.8755725,163901.80368],[153393.954315,163912.63632],[153387.168135,163923.35456],[153380.3143275,163934.28256],[153372.1755975,163947.34432],[153257.9621575,164132.55984],[152987.5074426,164571.31561409],[152974.88022817,164591.95740521],[152964.01000371,164609.81774414],[152945.81786108,164640.31780734],[152926.51049842,164673.37129633],[152915.81998915,164692.12203721],[152866.30846436,164779.34020891],[152763.45669635,164949.27405899],[152637.2265911,165149.86866772],[152592.64095818,165224.36318802],[152550.00621696,165304.38828573],[152526.14897946,165353.19446359],[152509.9853553,165388.81734068],[152496.1109265,165421.23775428],[152481.6351477,165457.74907481],[152466.50100215,165499.33719525],[152456.34467295,165529.53887732],[152447.7315,165556.9592],[152438.8417,165587.5315],[152433.6648,165606.5589],[152427.3828,165630.2906],[152423.6355,165644.9029],[152418.7337,165663.9071],[152410.844,165695.9214],[152403.9832,165723.6271],[152397.301,165749.9512],[152392.6599,165768.5921],[152383.3303,165804.8677],[152378.3827,165825.2721],[152376.02118301,165834.29204585]]},"geometry_name":"GEOM","properties":{"INSPIRE_ID":"https://databrussels.be/id/rail/25871","TYPE":"RW","LVL":0,"SLOPE":null,"LENGTH":3518.92877256613},"bbox":[152376.02118301,162949.57032371,154309.10787903,165834.29204585]},{"type":"Feature","id":"TrainNetwork.fid--24aa7d09_1a031580c5b_-5a4f","geometry":{"type":"LineString","coordinates":[[154295.92059254,162942.44609376],[154294.636,162943.688],[154289.0426,162949.2577],[154281.7781,162956.4045],[154269.5008,162968.255],[154260.4138,162977.2033],[154253.6953,162983.6604],[154246.4207,162990.7466],[154238.5422,162998.3645],[154230.8565,163005.7653],[154222.5427,163013.9397],[154214.4227,163021.751],[154206.6163,163029.2727],[154198.6167,163037.0601],[154190.4242,163044.9439],[154181.4085,163053.5547],[154176.5749,163058.4642],[154169.5186,163065.2352],[154161.9297,163072.6359],[154152.8185,163081.4633],[154142.7886,163091.234],[154135.7318,163098.1264],[154127.9499,163105.6235],[154118.8625,163114.427],[154111.8297,163121.2954],[154104.797,163128.1153],[154095.3957,163137.2088],[154085.9702,163146.3748],[154076.3758,163155.6373],[154068.0375,163163.6669],[154060.3278,163171.2369],[154052.0625,163179.266],[154042.8063,163188.2869],[154035.677,163195.2034],[154027.1216,163203.4262],[154015.7383,163214.4304],[154007.8837,163222.0729],[153998.3374,163231.3597],[153988.2838,163241.1059],[153978.6891,163250.3203],[153938.339,163289.6343],[153927.2944,163300.4205],[153912.6486,163314.5928],[153903.8998,163323.1784],[153891.2847,163335.4153],[153884.3001,163342.0661],[153869.074,163356.8917],[153856.241,163369.3225],[153845.1236,163380.0848],[153835.2873,163389.7103],[153820.8109,163403.7373],[153810.612,163413.6288],[153794.395,163429.3733],[153782.3596,163441.2478],[153767.7145,163455.3227],[153755.4129,163467.0524],[153740.5251,163481.5152],[153728.5137,163493.2205],[153722.23870528,163499.29262082],[153717.44104587,163503.98297852],[153711.89990782,163509.35015989],[153704.83926485,163516.15408176],[153690.18326211,163530.41275113],[153659.5576285,163560.53924789],[153648.88061144,163571.15029023],[153635.24930215,163584.92943238],[153620.40654543,163600.23257072],[153604.76692718,163616.68869711],[153592.21912297,163630.22506124],[153582.30644063,163641.06714883],[153568.12720899,163656.90934465],[153556.74869958,163669.85893633],[153544.31642594,163684.30641299],[153534.42452611,163695.86531851],[153521.68195798,163711.25495442],[153509.76197695,163725.93528138],[153500.14530112,163737.96797408],[153489.84114259,163751.152644],[153480.57300685,163763.07024728],[153468.19629758,163779.49409953],[153457.87597486,163793.45103823],[153448.54974911,163806.19953802],[153435.7972227,163824.12496785],[153425.91311631,163838.27677879],[153417.79292588,163850.15423795],[153407.16851456,163865.94733665],[153398.00494086,163879.85525043],[153389.14482434,163893.58614383],[153381.02867496,163906.34742331],[153369.94079281,163924.0314289],[153361.46419668,163937.65660105],[153352.03766644,163952.92132811],[153341.06940552,163970.75174059],[153329.16916066,163989.95396623],[153316.87428254,164009.79288402],[153306.91967436,164025.95998723],[153292.52211502,164049.30249522],[153283.56052138,164063.97132407],[153272.52732413,164082.30141704],[153265.76752249,164093.65368145],[153259.76253025,164103.7689873],[153253.90150023,164113.84537647],[153241.99696176,164134.95767854],[153234.02082374,164149.26199288],[153227.62047212,164160.8990296],[153214.0714495,164185.59504671],[153203.73654114,164204.59368629],[153195.43434134,164219.94492897],[153188.81649944,164232.00303665],[153178.61958644,164250.31974975],[153172.16704851,164261.79511796],[153160.82421524,164281.58918048],[153149.49780322,164300.87200572],[153140.65552348,164315.64301795],[153130.24339328,164332.73271376],[153113.92139776,164359.22855088],[153105.51369783,164372.87735102],[153099.07400466,164383.3628347],[153092.65798046,164393.81070132],[153081.61212788,164411.72847778],[153071.52056777,164428.1474288],[153055.90368749,164453.34489728],[153046.30292328,164468.90891821],[153032.00431846,164492.13169238],[153023.94799097,164505.2814889],[153013.99287766,164521.44960293],[152998.85577413,164546.05938872],[152985.27762983,164568.12150342],[152951.28579179,164623.89259522],[152940.53143563,164642.02448565],[152935.05091325,164651.30557372],[152924.68595864,164669.07957865],[152912.53119562,164690.24419984],[152863.04113815,164777.4245553],[152760.21678238,164947.3131143],[152633.99924145,165147.88775683],[152589.34344168,165222.49951324],[152546.63332056,165302.66609847],[152522.72323646,165351.58038778],[152506.52026779,165387.28997593],[152492.60971051,165419.79481101],[152478.09529881,165456.4035728],[152462.92679859,165498.08609872],[152452.99406382,165527.6228823],[152444.18436315,165555.90343986],[152438.2188,165576.3933],[152431.9066,165598.6829],[152426.7306,165617.9974],[152421.0243,165639.8949],[152415.2462,165662.7572],[152410.0015,165683.7987],[152405.1445,165703.1194],[152400.4312,165721.7197],[152395.3544,165742.1861],[152390.7872,165760.8784],[152386.5119,165777.8708],[152381.4843,165797.3421],[152376.66991097,165816.37148397],[152373.3011168,165829.1472643],[152372.1134741,165833.58571351]]},"geometry_name":"GEOM","properties":{"INSPIRE_ID":"https://databrussels.be/id/rail/25872","TYPE":"RW","LVL":0,"SLOPE":null,"LENGTH":3519.5936217954},"bbox":[152372.1134741,162942.44609376,154295.92059254,165833.58571351]},{"type":"Feature","id":"TrainNetwork.fid--24aa7d09_1a031580c5b_-5a4e","geometry":{"type":"LineString","coordinates":[[154297.30506148,162943.19403194],[154295.6866,162944.7587],[154290.0978,162950.3238],[154282.825,162957.4788],[154270.5479,162969.3291],[154261.4598,162978.2784],[154254.7384,162984.7384],[154247.4653,162991.823],[154239.5837,162999.444],[154231.9025,163006.8404],[154223.5885,163015.0151],[154215.463,163022.8316],[154207.6598,163030.3502],[154199.6599,163038.1379],[154191.4622,163046.0267],[154182.4612,163054.6235],[154177.6288,163059.5318],[154170.5615,163066.3133],[154162.9752,163073.7115],[154153.8637,163082.5391],[154143.836,163092.3078],[154136.7762,163099.2031],[154128.9921,163106.7023],[154119.9084,163115.5022],[154112.8758,163122.3704],[154105.8406,163129.1928],[154096.44,163138.2856],[154087.014,163147.452],[154077.4169,163156.7171],[154069.0832,163164.7423],[154061.3759,163172.31],[154053.1086,163180.3411],[154043.852,163189.3623],[154036.719,163196.2825],[154028.1626,163204.5061],[154016.7826,163215.5072],[154008.9297,163223.148],[153999.3824,163232.4358],[153989.3254,163242.1853],[153979.732,163251.3985],[153939.3864,163290.708],[153928.34,163301.4961],[153913.6955,163315.6671],[153904.9473,163324.2521],[153892.3241,163336.4968],[153885.3406,163343.1467],[153870.1191,163357.9677],[153857.2845,163370.4],[153846.1698,163381.1597],[153836.3337,163390.785],[153821.8549,163404.8143],[153811.6566,163414.7053],[153795.4442,163430.4453],[153783.4061,163442.3225],[153768.7518,163456.4062],[153756.4531,163468.1332],[153741.5711,163482.5903],[153729.5587,163494.2966],[153723.17715316,163500.47184637],[153718.48663445,163505.05745961],[153712.94161657,163510.428399],[153705.88216388,163517.23117387],[153691.23169451,163531.48445989],[153660.6117478,163561.60536244],[153649.94196676,163572.20921347],[153636.32034204,163585.97856602],[153621.488045,163601.27092025],[153605.86010306,163617.71476074],[153593.32214265,163631.24050553],[153583.41828965,163642.07293596],[153569.24892632,163657.90410609],[153557.88006319,163670.84271958],[153545.45417911,163685.28277098],[153535.57153357,163696.83086265],[153522.84132109,163712.20557622],[153510.92952424,163726.87582377],[153501.32156409,163738.89761112],[153491.02353357,163752.07443995],[153481.7634904,163763.98163726],[153469.39773354,163780.3909557],[153459.08373878,163794.33933663],[153449.76563865,163807.07672909],[153437.02263643,163824.98877135],[153427.14654486,163839.12910687],[153419.03375363,163850.99574318],[153408.41649278,163866.77821276],[153399.26081439,163880.67414352],[153390.40724966,163894.39488336],[153382.29633223,163907.14793647],[153371.21240749,163924.82563041],[153362.73851284,163938.44646023],[153353.31397208,163953.70796564],[153342.34508704,163971.53939272],[153318.14979539,164010.58080831],[153308.1960227,164026.74655462],[153293.79983729,164050.08683508],[153284.84248387,164064.74872332],[153273.81367142,164083.07153155],[153267.05620457,164094.41987496],[153261.05513415,164104.52857459],[153255.202514,164114.59050535],[153243.30466292,164135.69094756],[153235.33238944,164149.98833128],[153228.93451965,164161.62085556],[153215.38716692,164186.31382895],[153205.05441761,164205.30849955],[153196.75088656,164220.66220379],[153190.12864174,164232.72833384],[153179.92797693,164251.05178632],[153173.47088709,164262.53524978],[153162.12102538,164282.34157741],[153150.78738246,164301.63671302],[153141.93889904,164316.4180885],[153131.52181347,164333.51591769],[153106.79072679,164373.66281337],[153093.93487873,164394.59637646],[153082.8888826,164412.51438579],[153072.79638378,164428.9348641],[153057.17886566,164454.13336171],[153047.57925939,164469.69550548],[153033.28185206,164492.91633476],[153025.22552165,164506.06613607],[153015.26971561,164522.23537515],[153000.1326902,164546.84503393],[152986.55614516,164568.90455012],[152952.57068935,164624.66517047],[152941.82167133,164642.78806076],[152936.34397131,164652.06436925],[152925.98358709,164669.83053682],[152913.83316508,164690.98759917],[152864.33460911,164778.18292534],[152761.49940137,164948.0894142],[152635.27688647,165148.67196096],[152590.64886439,165223.23730588],[152547.96858471,165303.34787894],[152524.07942155,165352.21936903],[152507.89202861,165387.89462996],[152493.99577389,165420.36604422],[152479.49665621,165456.9362309],[152464.34175634,165498.58138353],[152454.43297698,165528.04693135],[152445.6220718,165556.33135555],[152439.6605,165576.8073],[152433.3527,165599.0814],[152428.1808,165618.3807],[152422.4772,165640.2678],[152416.701,165663.1223],[152411.4566,165684.163],[152406.5989,165703.4865],[152401.8861,165722.0845],[152396.8109,165742.5447],[152392.2432,165761.2395],[152387.9654,165778.2413],[152382.9385,165797.7099],[152378.12421097,165816.73928396],[152374.75063145,165829.53231566],[152373.58367985,165833.89343824]]},"geometry_name":"GEOM","properties":{"INSPIRE_ID":"https://databrussels.be/id/rail/25873","TYPE":"RW","LVL":0,"SLOPE":null,"LENGTH":3519.17549220669},"bbox":[152373.58367985,162943.19403194,154297.30506148,165833.89343824]}],"numberReturned":8,"grand_bruxelles_source":{"authority":"Paradigm / Brussels-Capital Region","service":"https://geoservices-urbis.irisnet.be/geoserver/urbisvector/wfs","layer":"urbisvector:TrainNetwork","crs":"EPSG:31370","bbox":[154000.0,165500.0,154500.0,166000.0],"cell_id":"bxl-e154000-n165500-s500","ownership":"bbox_intersection_source_unclipped"}}
