{"type":"FeatureCollection","totalFeatures":123,"numberMatched":123,"timeStamp":"2026-08-23T04:20:58.289Z","crs":{"type":"name","properties":{"name":"urn:ogc:def:crs:EPSG::31370"}},"bbox":[148982.53,163487.835,149527.42163177,164002.511],"features":[{"type":"Feature","id":"Buildings.fid--2dded296_1a02c23f8dc_-30b8","geometry":{"type":"Polygon","coordinates":[[[149482.485,163737.852],[149487.375,163727.724],[149497.864,163732.436],[149492.515,163742.633],[149482.485,163737.852]]]},"geometry_name":"GEOM","properties":{"INSPIRE_ID":"https://databrussels.be/id/building/1580148","BLOCK_ID":"https://databrussels.be/id/block/28304","AREA":129},"bbox":[149482.485,163727.724,149497.864,163742.633]},{"type":"Feature","id":"Buildings.fid--2dded296_1a02c23f8dc_-3060","geometry":{"type":"Polygon","coordinates":[[[149399.27,163636.64],[149399.39,163636.66],[149397.17,163649.37],[149378.21,163646.06],[149380.06,163635.47],[149379.15,163634.16],[149379.13,163634.14],[149381.53,163632.45],[149382.41,163633.7],[149399.27,163636.64]]]},"geometry_name":"GEOM","properties":{"INSPIRE_ID":"https://databrussels.be/id/building/1581232","BLOCK_ID":"https://databrussels.be/id/block/28304","AREA":251},"bbox":[149378.21,163632.45,149399.39,163649.37]},{"type":"Feature","id":"Buildings.fid--2dded296_1a02c23f8dc_-30b0","geometry":{"type":"Polygon","coordinates":[[[149467.381,163656.237],[149465.032,163644.882],[149468.48,163644.2],[149468.03,163641.96],[149474.118,163640.739],[149476.467,163652.09],[149473.157,163652.78],[149473.607,163654.949],[149467.381,163656.237]]]},"geometry_name":"GEOM","properties":{"INSPIRE_ID":"https://databrussels.be/id/building/1582180","BLOCK_ID":"https://databrussels.be/id/block/28304","AREA":119},"bbox":[149465.032,163640.739,149476.467,163656.237]},{"type":"Feature","id":"Buildings.fid--2dded296_1a02c23f8dc_-3077","geometry":{"type":"Polygon","coordinates":[[[149077.119,163541.326],[149089.335,163546.762],[149085.17,163556.06],[149077.16,163552.5],[149078.062,163550.457],[149073.886,163548.601],[149077.119,163541.326]]]},"geometry_name":"GEOM","properties":{"INSPIRE_ID":"https://databrussels.be/id/building/1583073","BLOCK_ID":"https://databrussels.be/id/block/25438","AREA":126},"bbox":[149073.886,163541.326,149089.335,163556.06]},{"type":"Feature","id":"Buildings.fid--2dded296_1a02c23f8dc_-305f","geometry":{"type":"Polygon","coordinates":[[[149385.236,163542.194],[149385.156,163541.925],[149381.983,163532.967],[149382.87,163532.66],[149382.25,163530.9],[149391.29,163527.725],[149395.676,163540.618],[149386.79,163543.653],[149386.777,163543.659],[149386.244,163541.884],[149385.236,163542.194]]]},"geometry_name":"GEOM","properties":{"INSPIRE_ID":"https://databrussels.be/id/building/1583190","BLOCK_ID":"https://databrussels.be/id/block/26370","AREA":138},"bbox":[149381.983,163527.725,149395.676,163543.659]},{"type":"Feature","id":"Buildings.fid--2dded296_1a02c23f8dc_-30aa","geometry":{"type":"Polygon","coordinates":[[[149255.22,163566.07],[149253.41,163556.17],[149255.76,163555.74],[149255.75,163555.69],[149253.3,163542.08],[149261.19,163540.66],[149263.64,163554.22],[149263.65,163554.29],[149265.43,163564.12],[149255.22,163566.07]]]},"geometry_name":"GEOM","properties":{"INSPIRE_ID":"https://databrussels.be/id/building/1583362","BLOCK_ID":"https://databrussels.be/id/block/26370","AREA":216},"bbox":[149253.3,163540.66,149265.43,163566.07]},{"type":"Feature","id":"Buildings.fid--2dded296_1a02c23f8dc_-309e","geometry":{"type":"Polygon","coordinates":[[[149302.916,163590.492],[149313.139,163587.516],[149313.768,163589.664],[149314.288,163589.515],[149317,163588.772],[149319.106,163596.472],[149315.39,163597.55],[149314.61,163594.87],[149305.004,163597.658],[149302.916,163590.492]]]},"geometry_name":"GEOM","properties":{"INSPIRE_ID":"https://databrussels.be/id/building/1584195","BLOCK_ID":"https://databrussels.be/id/block/28304","AREA":108},"bbox":[149302.916,163587.516,149319.106,163597.658]},{"type":"Feature","id":"Buildings.fid--2dded296_1a02c23f8dc_-308d","geometry":{"type":"Polygon","coordinates":[[[149008.055,163650.298],[149002.003,163643.748],[149006.3,163639.76],[149005.57,163638.97],[149010.466,163634.431],[149013.765,163637.991],[149013.957,163637.818],[149015.558,163639.641],[149015.294,163639.816],[149017.351,163641.894],[149008.055,163650.298]]]},"geometry_name":"GEOM","properties":{"INSPIRE_ID":"https://databrussels.be/id/building/1584260","BLOCK_ID":"https://databrussels.be/id/block/25438","AREA":120},"bbox":[149002.003,163634.431,149017.351,163650.298]},{"type":"Feature","id":"Buildings.fid--2dded296_1a02c23f8dc_-3058","geometry":{"type":"Polygon","coordinates":[[[149492.281,163516.459],[149501,163521.52],[149496.06,163530.67],[149491.17,163528.132],[149490.894,163528.665],[149487.333,163526.817],[149490.008,163521.897],[149489.481,163521.61],[149492.281,163516.459]]]},"geometry_name":"GEOM","properties":{"INSPIRE_ID":"https://databrussels.be/id/building/1584264","BLOCK_ID":"https://databrussels.be/id/block/23959","AREA":107},"bbox":[149487.333,163516.459,149501,163530.67]},{"type":"Feature","id":"Buildings.fid--2dded296_1a02c23f8dc_-30a8","geometry":{"type":"Polygon","coordinates":[[[149299.178,163554.361],[149297.488,163545.989],[149307.41,163543.95],[149307.19,163542.86],[149312.082,163541.851],[149314.053,163551.332],[149311.08,163551.95],[149299.178,163554.361]]]},"geometry_name":"GEOM","properties":{"INSPIRE_ID":"https://databrussels.be/id/building/1585248","BLOCK_ID":"https://databrussels.be/id/block/26370","AREA":135},"bbox":[149297.488,163541.851,149314.053,163554.361]},{"type":"Feature","id":"Buildings.fid--2dded296_1a02c23f8dc_-309a","geometry":{"type":"Polygon","coordinates":[[[149263.922,163596.03],[149270.785,163594.712],[149272.73,163604.8],[149273.16,163604.71],[149273.67,163607.35],[149273.739,163607.899],[149273.985,163609.444],[149268.281,163610.521],[149267.11,163609.61],[149266.49,163609.74],[149266,163607.39],[149265.98,163607.3],[149263.922,163596.03]]]},"geometry_name":"GEOM","properties":{"INSPIRE_ID":"https://databrussels.be/id/building/1585252","BLOCK_ID":"https://databrussels.be/id/block/28304","AREA":107},"bbox":[149263.922,163594.712,149273.985,163610.521]},{"type":"Feature","id":"Buildings.fid--2dded296_1a02c23f8dc_-309c","geometry":{"type":"Polygon","coordinates":[[[149282.85,163594.39],[149288.52,163593.28],[149289.32,163597.4],[149293.78,163596.53],[149295.86,163607.2],[149285.74,163609.19],[149282.88,163594.53],[149282.85,163594.39]]]},"geometry_name":"GEOM","properties":{"INSPIRE_ID":"https://databrussels.be/id/building/1585277","BLOCK_ID":"https://databrussels.be/id/block/28304","AREA":136},"bbox":[149282.85,163593.28,149295.86,163609.19]},{"type":"Feature","id":"Buildings.fid--2dded296_1a02c23f8dc_-305d","geometry":{"type":"Polygon","coordinates":[[[149407.98,163533.48],[149405.77,163529.48],[149403.31,163527.48],[149404.22,163526.86],[149402.15,163523.05],[149402.29,163522.96],[149401.75,163522],[149406.01,163519.63],[149406.53,163520.56],[149414.23,163516.22],[149417.4,163513.7],[149417.07,163512.98],[149416.75,163512.28],[149416.58,163511.12],[149416.62,163509.97],[149416.92,163508.86],[149417.41,163507.88],[149418.45,163506.6],[149418.04,163506.08],[149422.45,163503.02],[149424.73,163505.97],[149425.44,163505.65],[149429.64,163511.24],[149430.24,163513.23],[149433.08,163516.94],[149429,163520.07],[149426.68,163520.82],[149422.39,163524.06],[149421.8,163524.86],[149421.1,163525.47],[149420.51,163525.83],[149419.56,163526.24],[149418.62,163526.47],[149414.19,163529.09],[149412.49,163531],[149407.98,163533.48]]]},"geometry_name":"GEOM","properties":{"INSPIRE_ID":"https://databrussels.be/id/building/1585338","BLOCK_ID":"https://databrussels.be/id/block/26370","AREA":401},"bbox":[149401.75,163503.02,149433.08,163533.48]},{"type":"Feature","id":"Buildings.fid--2dded296_1a02c23f8dc_-30d1","geometry":{"type":"Polygon","coordinates":[[[149494.12,163972.28],[149503.653,163971.175],[149504.377,163977.557],[149500.801,163977.955],[149500.951,163979.847],[149495.141,163980.514],[149494.92,163979.03],[149494.12,163972.28]]]},"geometry_name":"GEOM","properties":{"INSPIRE_ID":"https://databrussels.be/id/building/1586268","BLOCK_ID":"https://databrussels.be/id/block/24556","AREA":73},"bbox":[149494.12,163971.175,149504.377,163980.514]},{"type":"Feature","id":"Buildings.fid--2dded296_1a02c23f8dc_-3076","geometry":{"type":"Polygon","coordinates":[[[149094.7439,163533.1903],[149098.2963,163534.6795],[149095.3657,163541.6706],[149091.8132,163540.1814],[149091.5442,163540.8231],[149079.2753,163535.6799],[149080.9974,163531.5718],[149082.7195,163527.4638],[149094.9884,163532.607],[149094.8639,163532.9039],[149094.7439,163533.1903]]]},"geometry_name":"GEOM","properties":{"INSPIRE_ID":"https://databrussels.be/id/building/1586293","BLOCK_ID":"https://databrussels.be/id/block/25438","AREA":148},"bbox":[149079.2753,163527.4638,149098.2963,163541.6706]},{"type":"Feature","id":"Buildings.fid--2dded296_1a02c23f8dc_-30ca","geometry":{"type":"Polygon","coordinates":[[[149014.98,163803.66],[149017.01,163800.46],[149023.18,163804.38],[149021.15,163807.58],[149014.98,163803.66]]]},"geometry_name":"GEOM","properties":{"INSPIRE_ID":"https://databrussels.be/id/building/1587101","BLOCK_ID":"https://databrussels.be/id/block/24047","AREA":28},"bbox":[149014.98,163800.46,149023.18,163807.58]},{"type":"Feature","id":"Buildings.fid--2dded296_1a02c23f8dc_-3070","geometry":{"type":"Polygon","coordinates":[[[149116.28,163513.31],[149110.15,163514.44],[149108.8,163507.14],[149114.93,163506.01],[149115.61,163509.67],[149116.28,163513.31]]]},"geometry_name":"GEOM","properties":{"INSPIRE_ID":"https://databrussels.be/id/building/1587134","BLOCK_ID":"https://databrussels.be/id/block/25438","AREA":46},"bbox":[149108.8,163506.01,149116.28,163514.44]},{"type":"Feature","id":"Buildings.fid--2dded296_1a02c23f8dc_-308f","geometry":{"type":"Polygon","coordinates":[[[149288.13,163646.65],[149290.98,163640.88],[149292.29,163641.53],[149292.91,163640.26],[149300.19,163643.86],[149300.95,163642.33],[149312.43,163648],[149313.14,163646.57],[149314.45,163647.21],[149315.04,163646.02],[149320.14,163648.54],[149319.53,163649.77],[149320.79,163650.39],[149315.04,163662.03],[149314.99,163662],[149307.32,163658.21],[149308.04,163656.76],[149304.24,163654.88],[149302.97,163657.44],[149299.94,163655.94],[149295.28,163653.64],[149296.01,163652.15],[149288.75,163648.56],[149289.38,163647.29],[149288.12,163646.67],[149288.13,163646.65]]]},"geometry_name":"GEOM","properties":{"INSPIRE_ID":"https://databrussels.be/id/building/1587553","BLOCK_ID":"https://databrussels.be/id/block/28304","AREA":354},"bbox":[149288.12,163640.26,149320.79,163662.03]},{"type":"Feature","id":"Buildings.fid--2dded296_1a02c23f8dc_-3084","geometry":{"type":"Polygon","coordinates":[[[149051.292,163537.448],[149044.424,163534.121],[149045.9,163531.11],[149044.34,163530.34],[149045.1,163528.8],[149035.24,163523.81],[149039.94,163514.2],[149047.62,163517.95],[149049.28,163514.54],[149049.95,163514.87],[149049.96,163514.84],[149052.06,163510.56],[149055.02,163512.01],[149055.03,163511.98],[149055.098,163511.84],[149062.068,163515.218],[149051.292,163537.448]]]},"geometry_name":"GEOM","properties":{"INSPIRE_ID":"https://databrussels.be/id/building/1588555","BLOCK_ID":"https://databrussels.be/id/block/25438","AREA":361},"bbox":[149035.24,163510.56,149062.068,163537.448]},{"type":"Feature","id":"Buildings.fid--2dded296_1a02c23f8dc_-30b5","geometry":{"type":"Polygon","coordinates":[[[149489.26,163572.3],[149491.6,163584.02],[149486.789,163584.981],[149482.19,163585.9],[149476.8486,163586.9665],[149475.7136,163581.2816],[149481.055,163580.2152],[149479.85,163574.18],[149484.581,163573.235],[149489.26,163572.3]]]},"geometry_name":"GEOM","properties":{"INSPIRE_ID":"https://databrussels.be/id/building/1589348","BLOCK_ID":"https://databrussels.be/id/block/28304","AREA":146},"bbox":[149475.7136,163572.3,149491.6,163586.9665]},{"type":"Feature","id":"Buildings.fid--2dded296_1a02c23f8dc_-30b3","geometry":{"type":"Polygon","coordinates":[[[149499.206,163607.007],[149500.283,163612.096],[149498.923,163612.386],[149500.463,163619.656],[149488.04,163622.274],[149487.771,163620.942],[149486.122,163621.263],[149484.861,163614.777],[149490.646,163613.651],[149489.71,163609.006],[149499.206,163607.007]]]},"geometry_name":"GEOM","properties":{"INSPIRE_ID":"https://databrussels.be/id/building/1589385","BLOCK_ID":"https://databrussels.be/id/block/28304","AREA":158},"bbox":[149484.861,163607.007,149500.463,163622.274]},{"type":"Feature","id":"Buildings.fid--2dded296_1a02c23f8dc_-3062","geometry":{"type":"Polygon","coordinates":[[[149366.388,163683.302],[149369.2,163677.539],[149370.99,163678.36],[149375,163670.3],[149384.751,163674.809],[149378.127,163688.886],[149366.388,163683.302]]]},"geometry_name":"GEOM","properties":{"INSPIRE_ID":"https://databrussels.be/id/building/1589543","BLOCK_ID":"https://databrussels.be/id/block/28304","AREA":182},"bbox":[149366.388,163670.3,149384.751,163688.886]},{"type":"Feature","id":"Buildings.fid--2dded296_1a02c23f8dc_-3064","geometry":{"type":"Polygon","coordinates":[[[149349.23,163531.24],[149353.75,163524.04],[149360.18,163528.07],[149360.28,163527.99],[149360.59,163527.74],[149360.78,163527.6],[149361.12,163527.78],[149362.62,163528.62],[149369.19,163532.9],[149369.26,163533.23],[149369.37,163533.69],[149369.48,163534.2],[149369.39,163534.57],[149367.81,163537.51],[149365.72,163541.15],[149361.24,163538.68],[149360.52,163539.55],[149355.93,163536.67],[149355.69,163537.02],[149355.31,163537.3],[149354.58,163537.49],[149353.79,163537.33],[149353.29,163536.94],[149353,163536.33],[149353.02,163535.66],[149353.29,163535.09],[149353.33,163535.02],[149353.79,163534.06],[149349.23,163531.24]]]},"geometry_name":"GEOM","properties":{"INSPIRE_ID":"https://databrussels.be/id/building/1589546","BLOCK_ID":"https://databrussels.be/id/block/26370","AREA":182},"bbox":[149349.23,163524.04,149369.48,163541.15]},{"type":"Feature","id":"Buildings.fid--2dded296_1a02c23f8dc_-3067","geometry":{"type":"Polygon","coordinates":[[[149322.256,163542.341],[149321.03,163537.15],[149320.11,163533.73],[149321.46,163533.46],[149320.93,163530.85],[149337.51,163527.51],[149338.07,163530.2],[149337.59,163530.4],[149339.322,163539.604],[149335.931,163540.204],[149336.194,163541.568],[149332.649,163542.262],[149332.258,163540.295],[149322.256,163542.341]]]},"geometry_name":"GEOM","properties":{"INSPIRE_ID":"https://databrussels.be/id/building/1589565","BLOCK_ID":"https://databrussels.be/id/block/26370","AREA":210},"bbox":[149320.11,163527.51,149339.322,163542.341]},{"type":"Feature","id":"Buildings.fid--2dded296_1a02c23f8dc_-3069","geometry":{"type":"Polygon","coordinates":[[[149114.7,163534.06],[149114.31,163531.65],[149117.25,163531.18],[149117.63,163533.6],[149114.7,163534.06]]]},"geometry_name":"GEOM","properties":{"INSPIRE_ID":"https://databrussels.be/id/building/1590100","BLOCK_ID":"https://databrussels.be/id/block/25438","AREA":7},"bbox":[149114.31,163531.18,149117.63,163534.06]},{"type":"Feature","id":"Buildings.fid--2dded296_1a02c23f8dc_-309f","geometry":{"type":"Polygon","coordinates":[[[149136.10200009,163584.55600009],[149137.56,163581.66],[149141.5,163583.64],[149140.08000027,163586.57999984],[149136.10200009,163584.55600009]]]},"geometry_name":"GEOM","properties":{"INSPIRE_ID":"https://databrussels.be/id/building/1590140","BLOCK_ID":"https://databrussels.be/id/block/25438","AREA":14},"bbox":[149136.10200009,163581.66,149141.5,163586.57999984]},{"type":"Feature","id":"Buildings.fid--2dded296_1a02c23f8dc_-30ac","geometry":{"type":"Polygon","coordinates":[[[149234.201,163538.274],[149236.869,163534.323],[149242.13,163537.64],[149239.45,163541.82],[149236.57,163539.88],[149234.201,163538.274]]]},"geometry_name":"GEOM","properties":{"INSPIRE_ID":"https://databrussels.be/id/building/1590151","BLOCK_ID":"https://databrussels.be/id/block/26370","AREA":31},"bbox":[149234.201,163534.323,149242.13,163541.82]},{"type":"Feature","id":"Buildings.fid--2dded296_1a02c23f8dc_-30b2","geometry":{"type":"Polygon","coordinates":[[[149467.36,163608.24],[149469.45,163607.88],[149469.79,163609.84],[149467.7,163610.2],[149467.36,163608.24]]]},"geometry_name":"GEOM","properties":{"INSPIRE_ID":"https://databrussels.be/id/building/1591093","BLOCK_ID":"https://databrussels.be/id/block/28304","AREA":4},"bbox":[149467.36,163607.88,149469.79,163610.2]},{"type":"Feature","id":"Buildings.fid--2dded296_1a02c23f8dc_-305c","geometry":{"type":"Polygon","coordinates":[[[149406.04,163649.29],[149408,163650.29],[149406.38,163653.47],[149404.42,163652.47],[149406.04,163649.29]]]},"geometry_name":"GEOM","properties":{"INSPIRE_ID":"https://databrussels.be/id/building/1591116","BLOCK_ID":"https://databrussels.be/id/block/28304","AREA":8},"bbox":[149404.42,163649.29,149408,163653.47]},{"type":"Feature","id":"Buildings.fid--2dded296_1a02c23f8dc_-30d2","geometry":{"type":"Polygon","coordinates":[[[149494.12,163972.28],[149493.3,163965.33],[149493.173,163963.809],[149492.8937,163960.9939],[149501.1099,163959.9438],[149501.2871,163962.1411],[149502.6049,163961.9729],[149503.653,163971.175],[149494.12,163972.28]]]},"geometry_name":"GEOM","properties":{"INSPIRE_ID":"https://databrussels.be/id/building/1591276","BLOCK_ID":"https://databrussels.be/id/block/24556","AREA":107},"bbox":[149492.8937,163959.9438,149503.653,163972.28]},{"type":"Feature","id":"Buildings.fid--2dded296_1a02c23f8dc_-3086","geometry":{"type":"Polygon","coordinates":[[[149038.34,163566.33],[149028.94,163561.67],[149030.76,163557.93],[149033.49,163559.25],[149039.54,163546.78],[149048.6,163551.27],[149042.12,163564.33],[149039.89,163563.22],[149038.34,163566.33]]]},"geometry_name":"GEOM","properties":{"INSPIRE_ID":"https://databrussels.be/id/building/1591450","BLOCK_ID":"https://databrussels.be/id/block/25438","AREA":185},"bbox":[149028.94,163546.78,149048.6,163566.33]},{"type":"Feature","id":"Buildings.fid--2dded296_1a02c23f8dc_-30b9","geometry":{"type":"Polygon","coordinates":[[[149467.03,163730.56],[149470.42,163723.34],[149471.36,163723.79],[149474.99,163716.18],[149483.96,163720.46],[149479.65,163729.71],[149478.73,163729.29],[149476.13,163734.79],[149467.03,163730.56]]]},"geometry_name":"GEOM","properties":{"INSPIRE_ID":"https://databrussels.be/id/building/1591482","BLOCK_ID":"https://databrussels.be/id/block/28304","AREA":166},"bbox":[149467.03,163716.18,149483.96,163734.79]},{"type":"Feature","id":"Buildings.fid--2dded296_1a02c23f8dc_-308a","geometry":{"type":"Polygon","coordinates":[[[149019.97803075,163619.09503375],[149021.585,163616.513],[149023.465,163617.582],[149026.833,163611.674],[149022.412,163608.924],[149023.122,163607.684],[149017.33,163604.084],[149013.24,163610.85],[149014.17,163611.42],[149012.39098796,163614.37195406],[149019.97803075,163619.09503375]]]},"geometry_name":"GEOM","properties":{"INSPIRE_ID":"https://databrussels.be/id/building/1591577","BLOCK_ID":"https://databrussels.be/id/block/25438","AREA":120},"bbox":[149012.39098796,163604.084,149026.833,163619.09503375]},{"type":"Feature","id":"Buildings.fid--2dded296_1a02c23f8dc_-30b1","geometry":{"type":"Polygon","coordinates":[[[149502.117,163625.212],[149503.557,163632.303],[149504.387,163632.133],[149505.387,163637.047],[149495.62,163639.027],[149493.18,163627.023],[149502.117,163625.212]]]},"geometry_name":"GEOM","properties":{"INSPIRE_ID":"https://databrussels.be/id/building/1592393","BLOCK_ID":"https://databrussels.be/id/block/28304","AREA":116},"bbox":[149493.18,163625.212,149505.387,163639.027]},{"type":"Feature","id":"Buildings.fid--2dded296_1a02c23f8dc_-30c0","geometry":{"type":"Polygon","coordinates":[[[149412.53,163705.48],[149415.68,163698.65],[149425.08,163703.02],[149425.96,163701.13],[149430.78,163703.37],[149426.68,163712.14],[149412.53,163705.48]]]},"geometry_name":"GEOM","properties":{"INSPIRE_ID":"https://databrussels.be/id/building/1592408","BLOCK_ID":"https://databrussels.be/id/block/28304","AREA":129},"bbox":[149412.53,163698.65,149430.78,163712.14]},{"type":"Feature","id":"Buildings.fid--2dded296_1a02c23f8dc_-30cb","geometry":{"type":"Polygon","coordinates":[[[149009.037,163760.467],[149011.129,163757.001],[149014.889,163759.275],[149019.036,163752.877],[149028.33,163758.77],[149023.312,163766.991],[149016.188,163762.586],[149015.06,163764.254],[149009.037,163760.467]]]},"geometry_name":"GEOM","properties":{"INSPIRE_ID":"https://databrussels.be/id/building/1592436","BLOCK_ID":"https://databrussels.be/id/block/24047","AREA":131},"bbox":[149009.037,163752.877,149028.33,163766.991]},{"type":"Feature","id":"Buildings.fid--2dded296_1a02c23f8dc_-30bd","geometry":{"type":"Polygon","coordinates":[[[149458.95,163674.26],[149461.92,163686.43],[149450.569,163689.101],[149444.58,163679.48],[149449.01,163676.72],[149458.95,163674.26]]]},"geometry_name":"GEOM","properties":{"INSPIRE_ID":"https://databrussels.be/id/building/1592496","BLOCK_ID":"https://databrussels.be/id/block/28304","AREA":166},"bbox":[149444.58,163674.26,149461.92,163689.101]},{"type":"Feature","id":"Buildings.fid--2dded296_1a02c23f8dc_-306d","geometry":{"type":"Polygon","coordinates":[[[149085.967,163523.25],[149087.597,163519.31],[149090.286,163520.422],[149092.836,163514.283],[149100.154,163517.318],[149095.9,163527.37],[149085.967,163523.25]]]},"geometry_name":"GEOM","properties":{"INSPIRE_ID":"https://databrussels.be/id/building/1593451","BLOCK_ID":"https://databrussels.be/id/block/25438","AREA":98},"bbox":[149085.967,163514.283,149100.154,163527.37]},{"type":"Feature","id":"Buildings.fid--2dded296_1a02c23f8dc_-3065","geometry":{"type":"Polygon","coordinates":[[[149346.289,163673.749],[149350.83,163664.28],[149358.521,163668.038],[149361.348,163662.421],[149365.97,163664.748],[149363.17,163670.31],[149358.603,163679.681],[149346.289,163673.749]]]},"geometry_name":"GEOM","properties":{"INSPIRE_ID":"https://databrussels.be/id/building/1593570","BLOCK_ID":"https://databrussels.be/id/block/28304","AREA":176},"bbox":[149346.289,163662.421,149365.97,163679.681]},{"type":"Feature","id":"Buildings.fid--2dded296_1a02c23f8dc_-3083","geometry":{"type":"Polygon","coordinates":[[[149035.957,163646.905],[149036.787,163642.918],[149042.442,163643.818],[149042.29,163644.89],[149044.74,163645.23],[149044.268,163648.621],[149035.957,163646.905]]]},"geometry_name":"GEOM","properties":{"INSPIRE_ID":"https://databrussels.be/id/building/1594220","BLOCK_ID":"https://databrussels.be/id/block/25438","AREA":33},"bbox":[149035.957,163642.918,149044.74,163648.621]},{"type":"Feature","id":"Buildings.fid--2dded296_1a02c23f8dc_-30c3","geometry":{"type":"Polygon","coordinates":[[[149175.59,163794.21],[149181.21,163787.8],[149187.15,163793.38],[149181.55,163799.77],[149175.59,163794.21]]]},"geometry_name":"GEOM","properties":{"INSPIRE_ID":"https://databrussels.be/id/building/1594391","BLOCK_ID":"https://databrussels.be/id/block/31427","AREA":69},"bbox":[149175.59,163787.8,149187.15,163799.77]},{"type":"Feature","id":"Buildings.fid--2dded296_1a02c23f8dc_-30bb","geometry":{"type":"Polygon","coordinates":[[[149477.955,163696.265],[149477.875,163695.318],[149478.07,163694.388],[149478.522,163693.553],[149479.194,163692.881],[149480.03,163692.43],[149479.784,163691.542],[149491.451,163688.817],[149493.38,163697.25],[149493.34,163697.24],[149492.71,163697.38],[149493,163698.64],[149489.98,163699.33],[149489.72,163698.17],[149481.78,163699.99],[149481.51,163698.79],[149480.561,163698.754],[149479.661,163698.448],[149478.887,163697.898],[149478.302,163697.15],[149477.955,163696.265]]]},"geometry_name":"GEOM","properties":{"INSPIRE_ID":"https://databrussels.be/id/building/1594418","BLOCK_ID":"https://databrussels.be/id/block/28304","AREA":122},"bbox":[149477.875,163688.817,149493.38,163699.99]},{"type":"Feature","id":"Buildings.fid--2dded296_1a02c23f8dc_-3088","geometry":{"type":"Polygon","coordinates":[[[149032.606,163597.022],[149022.515,163593.68],[149027.765,163577.74],[149037.875,163581.081],[149032.606,163597.022]]]},"geometry_name":"GEOM","properties":{"INSPIRE_ID":"https://databrussels.be/id/building/1594578","BLOCK_ID":"https://databrussels.be/id/block/25438","AREA":179},"bbox":[149022.515,163577.74,149037.875,163597.022]},{"type":"Feature","id":"Buildings.fid--2dded296_1a02c23f8dc_-3090","geometry":{"type":"Polygon","coordinates":[[[149253.97,163628.49],[149257.09,163622.05],[149264.35,163625.56],[149264.98,163624.26],[149276.58,163629.88],[149277.3,163628.38],[149283.27,163631.27],[149278.5,163641.14],[149272.53,163638.25],[149273.29,163636.69],[149267.59,163633.92],[149266.36,163636.45],[149260.49,163633.6],[149261.26,163632.02],[149253.97,163628.49]]]},"geometry_name":"GEOM","properties":{"INSPIRE_ID":"https://databrussels.be/id/building/1595527","BLOCK_ID":"https://databrussels.be/id/block/28304","AREA":246},"bbox":[149253.97,163622.05,149283.27,163641.14]},{"type":"Feature","id":"Buildings.fid--2dded296_1a02c23f8dc_-30af","geometry":{"type":"Polygon","coordinates":[[[149450.03,163668.49],[149447.16,163654.46],[149445.69,163647.28],[149459.21,163644.89],[149461.57,163656.21],[149455.55,163657.47],[149457.52,163666.92],[149450.03,163668.49]]]},"geometry_name":"GEOM","properties":{"INSPIRE_ID":"https://databrussels.be/id/building/1595559","BLOCK_ID":"https://databrussels.be/id/block/28304","AREA":236},"bbox":[149445.69,163644.89,149461.57,163668.49]},{"type":"Feature","id":"Buildings.fid--2dded296_1a02c23f8dc_-30a0","geometry":{"type":"Polygon","coordinates":[[[149211.877,163584.545],[149211.351,163582.101],[149214.87,163581.343],[149215.396,163583.787],[149211.877,163584.545]]]},"geometry_name":"GEOM","properties":{"INSPIRE_ID":"https://databrussels.be/id/building/1596181","BLOCK_ID":"https://databrussels.be/id/block/26370","AREA":9},"bbox":[149211.351,163581.343,149215.396,163584.545]},{"type":"Feature","id":"Buildings.fid--2dded296_1a02c23f8dc_-3099","geometry":{"type":"Polygon","coordinates":[[[149257.245,163597.312],[149263.922,163596.03],[149265.98,163607.3],[149259.43,163608.65],[149257.245,163597.312]]]},"geometry_name":"GEOM","properties":{"INSPIRE_ID":"https://databrussels.be/id/building/1596377","BLOCK_ID":"https://databrussels.be/id/block/28304","AREA":78},"bbox":[149257.245,163596.03,149265.98,163608.65]},{"type":"Feature","id":"Buildings.fid--2dded296_1a02c23f8dc_-30ba","geometry":{"type":"Polygon","coordinates":[[[149448.46,163721.314],[149452.567,163712.507],[149466.076,163718.919],[149461.957,163727.611],[149457.917,163725.726],[149457.68,163726.233],[149451.991,163723.58],[149452.228,163723.072],[149448.46,163721.314]]]},"geometry_name":"GEOM","properties":{"INSPIRE_ID":"https://databrussels.be/id/building/1661957","BLOCK_ID":"https://databrussels.be/id/block/28304","AREA":148},"bbox":[149448.46,163712.507,149466.076,163727.611]},{"type":"Feature","id":"Buildings.fid--2dded296_1a02c23f8dc_-30bf","geometry":{"type":"Polygon","coordinates":[[[149433.384,163714.846],[149439.945,163701.069],[149449.231,163705.602],[149442.633,163719.23],[149433.384,163714.846]]]},"geometry_name":"GEOM","properties":{"INSPIRE_ID":"https://databrussels.be/id/building/1661958","BLOCK_ID":"https://databrussels.be/id/block/28304","AREA":156},"bbox":[149433.384,163701.069,149449.231,163719.23]},{"type":"Feature","id":"Buildings.fid--2dded296_1a02c23f8dc_-3098","geometry":{"type":"Polygon","coordinates":[[[149231.38,163602.271],[149240.644,163600.484],[149243.782,163619.249],[149235.628,163620.778],[149235.265,163619.095],[149234.744,163619.192],[149233.379,163612.683],[149232.708,163612.791],[149231.929,163608.952],[149232.629,163608.788],[149231.38,163602.271]]]},"geometry_name":"GEOM","properties":{"INSPIRE_ID":"https://databrussels.be/id/building/1661959","BLOCK_ID":"https://databrussels.be/id/block/28304","AREA":176},"bbox":[149231.38,163600.484,149243.782,163620.778]},{"type":"Feature","id":"Buildings.fid--2dded296_1a02c23f8dc_-3075","geometry":{"type":"Polygon","coordinates":[[[149087.569,163574.336],[149090.90196851,163575.88520097],[149100.69999982,163589.65999888],[149094.96000038,163593.69000198],[149094.6899999,163593.87999975],[149087.41,163583.33],[149084.29,163581.83],[149087.569,163574.336]]]},"geometry_name":"GEOM","properties":{"INSPIRE_ID":"https://databrussels.be/id/building/1669005","BLOCK_ID":"https://databrussels.be/id/block/25438","AREA":137},"bbox":[149084.29,163574.336,149100.69999982,163593.87999975]},{"type":"Feature","id":"Buildings.fid--2dded296_1a02c23f8dc_-306f","geometry":{"type":"Polygon","coordinates":[[[149252.9335,163507.084],[149254.4493,163508.0674],[149253.4869,163509.7159],[149255.392,163511.7401],[149255.8167,163511.0811],[149259.2011,163513.1169],[149258.261,163514.7435],[149266.7431,163519.9547],[149267.9742,163517.8226],[149271.4895,163520.0582],[149267.2871,163527.2164],[149262.9749,163524.8047],[149261.2977,163527.5091],[149256.5248,163524.287],[149256.956,163523.4411],[149248.2547,163517.598],[149247.9104,163518.1898],[149246.3892,163517.2437],[149252.9335,163507.084]]]},"geometry_name":"GEOM","properties":{"INSPIRE_ID":"https://databrussels.be/id/building/1669008","BLOCK_ID":"https://databrussels.be/id/block/26370","AREA":208},"bbox":[149246.3892,163507.084,149271.4895,163527.5091]},{"type":"Feature","id":"Buildings.fid--2dded296_1a02c23f8dc_-309d","geometry":{"type":"Polygon","coordinates":[[[149079.57,163600.53],[149084.90573367,163608.03731163],[149108.84124781,163644.37688368],[149113.07,163641.45],[149115.11,163639.95],[149114.3,163638.67],[149112.92,163638.5],[149108.43,163632.06],[149109.03,163631.64],[149100.1,163618.8],[149107.21,163613.85],[149089.87,163588.95],[149082.71,163593.93],[149079.57,163600.53]]]},"geometry_name":"GEOM","properties":{"INSPIRE_ID":"https://databrussels.be/id/building/1669011","BLOCK_ID":"https://databrussels.be/id/block/25438","AREA":627},"bbox":[149079.57,163588.95,149115.11,163644.37688368]},{"type":"Feature","id":"Buildings.fid--2dded296_1a02c23f8dc_-30ce","geometry":{"type":"Polygon","coordinates":[[[148997.593,163788.755],[149000,163784.914],[149000,163783.053],[149000.539,163782.17],[149001.918,163781.854],[149003.787,163778.871],[149014.27,163785.48],[149008.58,163795.49],[149000.965,163790.964],[149000,163791.2],[148999.81,163791.17],[148999.37,163791.06],[148998.88,163790.72],[148998.56,163790.32],[148998.31,163789.74],[148998.2,163789.42],[148998.177,163789.067],[148997.593,163788.755]]]},"geometry_name":"GEOM","properties":{"INSPIRE_ID":"https://databrussels.be/id/building/1670257","BLOCK_ID":"https://databrussels.be/id/block/24047","AREA":152},"bbox":[148997.593,163778.871,149014.27,163795.49]},{"type":"Feature","id":"Buildings.fid--2dded296_1a02c23f8dc_-308e","geometry":{"type":"Polygon","coordinates":[[[149000,163687.489],[148996.588,163686.751],[149000,163671.55],[149000.29,163670.258],[149010.09,163672.534],[149006.302,163688.854],[149000,163687.489]]]},"geometry_name":"GEOM","properties":{"INSPIRE_ID":"https://databrussels.be/id/building/1670258","BLOCK_ID":"https://databrussels.be/id/block/25438","AREA":168},"bbox":[148996.588,163670.258,149010.09,163688.854]},{"type":"Feature","id":"Buildings.fid--2dded296_1a02c23f8dc_-30cc","geometry":{"type":"Polygon","coordinates":[[[149007.81926839,163805.02238761],[149005.26541636,163803.34967527],[149007.02992582,163800.84908969],[149009.51109198,163802.45949542],[149007.81926839,163805.02238761]]]},"geometry_name":"GEOM","properties":{"INSPIRE_ID":"https://databrussels.be/id/building/1712043","BLOCK_ID":"https://databrussels.be/id/block/24047","AREA":9},"bbox":[149005.26541636,163800.84908969,149009.51109198,163805.02238761]},{"type":"Feature","id":"Buildings.fid--2dded296_1a02c23f8dc_-3080","geometry":{"type":"Polygon","coordinates":[[[149043.77147494,163606.58627286],[149044.18906288,163604.53225134],[149048.33516968,163605.39683297],[149048.08411384,163606.88553878],[149046.16726284,163606.45766941],[149046.04433745,163607.16009984],[149043.77147494,163606.58627286]]]},"geometry_name":"GEOM","properties":{"INSPIRE_ID":"https://databrussels.be/id/building/1714309","BLOCK_ID":"https://databrussels.be/id/block/25438","AREA":8},"bbox":[149043.77147494,163604.53225134,149048.33516968,163607.16009984]},{"type":"Feature","id":"Buildings.fid--2dded296_1a02c23f8dc_-3082","geometry":{"type":"Polygon","coordinates":[[[149048.48,163687.015],[149040.875,163681.055],[149041.093,163680.789],[149037.59,163677.978],[149042.464,163671.909],[149045.682,163674.556],[149046.16,163673.96],[149050.67,163677.57],[149050.39,163677.9],[149053.26,163680.16],[149053.641,163680.46],[149053.399,163680.766],[149053.72,163681.02],[149049.12,163686.85],[149048.803,163686.603],[149048.48,163687.015]]]},"geometry_name":"GEOM","properties":{"INSPIRE_ID":"https://databrussels.be/id/building/1714313","BLOCK_ID":"https://databrussels.be/id/block/25438","AREA":121},"bbox":[149037.59,163671.909,149053.72,163687.015]},{"type":"Feature","id":"Buildings.fid--2dded296_1a02c23f8dc_-3092","geometry":{"type":"Polygon","coordinates":[[[149110.36,163615.88],[149111.76209888,163617.81942525],[149117.03263068,163624.99307634],[149123.5809999,163634.37199998],[149119.175,163637.472],[149113.415,163629.226],[149112.905,163628.496],[149113.63,163627.99],[149111.19,163624.51],[149110.05,163625.31],[149105.72,163619.13],[149110.36,163615.88]]]},"geometry_name":"GEOM","properties":{"INSPIRE_ID":"https://databrussels.be/id/building/1714314","BLOCK_ID":"https://databrussels.be/id/block/25438","AREA":121},"bbox":[149105.72,163615.88,149123.5809999,163637.472]},{"type":"Feature","id":"Buildings.fid--2dded296_1a02c23f8dc_-30ad","geometry":{"type":"Polygon","coordinates":[[[149179.01600126,163544.46900084],[149183.13100425,163538.69716755],[149185.76865054,163540.50766311],[149188.15209436,163536.51018304],[149190.71142447,163538.2853855],[149194.69288957,163532.55715982],[149192.8110811,163531.34430629],[149197.2929025,163524.42819945],[149199.37517983,163525.80247316],[149200.22987499,163524.28887683],[149211.07099968,163531.33400049],[149204.95394959,163540.54636487],[149205.311,163540.808],[149201.733,163546.166],[149201.41688689,163545.87323158],[149196.439,163553.37],[149186.01174508,163546.44602488],[149184.809,163548.299],[149179.01600126,163544.46900084]]]},"geometry_name":"GEOM","properties":{"INSPIRE_ID":"https://databrussels.be/id/building/1714337","BLOCK_ID":"https://databrussels.be/id/block/30584","AREA":424},"bbox":[149179.01600126,163524.28887683,149211.07099968,163553.37]},{"type":"Feature","id":"Buildings.fid--2dded296_1a02c23f8dc_-3095","geometry":{"type":"Polygon","coordinates":[[[149076.68000006,163613.75999964],[149090.29252052,163633.59887248],[149099.775,163647.206],[149101.38000013,163649.52999977],[149108.84124781,163644.37688368],[149084.90573367,163608.03731163],[149076.68000006,163613.75999964]]]},"geometry_name":"GEOM","properties":{"INSPIRE_ID":"https://databrussels.be/id/building/1714338","BLOCK_ID":"https://databrussels.be/id/block/25438","AREA":416},"bbox":[149076.68000006,163608.03731163,149108.84124781,163649.52999977]},{"type":"Feature","id":"Buildings.fid--2dded296_1a02c23f8dc_-30a9","geometry":{"type":"Polygon","coordinates":[[[149270.21496964,163544.84779809],[149266.75213375,163545.35478541],[149266.40501321,163541.82787489],[149269.86553826,163541.30358239],[149270.21496964,163544.84779809]]]},"geometry_name":"GEOM","properties":{"INSPIRE_ID":"https://databrussels.be/id/building/1716621","BLOCK_ID":"https://databrussels.be/id/block/26370","AREA":12},"bbox":[149266.40501321,163541.30358239,149270.21496964,163545.35478541]},{"type":"Feature","id":"Buildings.fid--2dded296_1a02c23f8dc_-3093","geometry":{"type":"Polygon","coordinates":[[[149110.36,163615.88],[149110.12,163615.55],[149110.29,163615.44],[149113.79,163612.98],[149119.27,163620.82],[149119.11,163621.56],[149119.89,163622.68],[149122.39000142,163620.92899804],[149129.304,163630.357],[149126.489,163632.336],[149126.228,163633.289],[149125.072,163634.119],[149124.164,163633.962],[149123.5809999,163634.37199998],[149117.03263068,163624.99307634],[149111.76209888,163617.81942525],[149110.36,163615.88]]]},"geometry_name":"GEOM","properties":{"INSPIRE_ID":"https://databrussels.be/id/building/1716624","BLOCK_ID":"https://databrussels.be/id/block/25438","AREA":131},"bbox":[149110.12,163612.98,149129.304,163634.37199998]},{"type":"Feature","id":"Buildings.fid--2dded296_1a02c23f8dc_-307f","geometry":{"type":"Polygon","coordinates":[[[149044.85799988,163625.80400003],[149046.69500013,163618.48999964],[149061.81990658,163621.92366872],[149063.683,163622.394],[149065.24,163622.85],[149064.33,163626.48],[149060.95,163625.64],[149060.85,163626.03],[149059.982,163629.495],[149044.85799988,163625.80400003]]]},"geometry_name":"GEOM","properties":{"INSPIRE_ID":"https://databrussels.be/id/building/1716627","BLOCK_ID":"https://databrussels.be/id/block/25438","AREA":133},"bbox":[149044.85799988,163618.48999964,149065.24,163629.495]},{"type":"Feature","id":"Buildings.fid--2dded296_1a02c23f8dc_-307d","geometry":{"type":"Polygon","coordinates":[[[149046.69500013,163618.48999964],[149046.8349999,163617.90999994],[149048.60399997,163610.88300016],[149063.888,163614.585],[149063.624,163615.152],[149065.461,163615.676],[149063.683,163622.394],[149061.81990658,163621.92366872],[149046.69500013,163618.48999964]]]},"geometry_name":"GEOM","properties":{"INSPIRE_ID":"https://databrussels.be/id/building/1716629","BLOCK_ID":"https://databrussels.be/id/block/25438","AREA":134},"bbox":[149046.69500013,163610.88300016,149065.461,163622.394]},{"type":"Feature","id":"Buildings.fid--2dded296_1a02c23f8dc_-3063","geometry":{"type":"Polygon","coordinates":[[[149357.07,163591.81],[149357.779,163595.273],[149359.63,163594.9],[149362.45,163608.89],[149376.49,163606.05],[149373.67,163592.07],[149375.622,163591.677],[149374.9,163588.15],[149357.07,163591.81]]]},"geometry_name":"GEOM","properties":{"INSPIRE_ID":"https://databrussels.be/id/building/1716631","BLOCK_ID":"https://databrussels.be/id/block/28304","AREA":269},"bbox":[149357.07,163588.15,149376.49,163608.89]},{"type":"Feature","id":"Buildings.fid--2dded296_1a02c23f8dc_-30a3","geometry":{"type":"Polygon","coordinates":[[[149087.569,163574.336],[149090.11,163568.53],[149093.34,163570.08],[149095.35999979,163571.03999995],[149097.88027632,163574.62875872],[149100.57189399,163572.56261709],[149101.80681871,163568.94614286],[149106.68315807,163570.87356199],[149104.04490892,163576.81016086],[149100.90797192,163578.9400588],[149105.88000044,163586.02000005],[149105.80999968,163586.06999992],[149100.69999982,163589.65999888],[149090.90196851,163575.88520097],[149087.569,163574.336]]]},"geometry_name":"GEOM","properties":{"INSPIRE_ID":"https://databrussels.be/id/building/1720257","BLOCK_ID":"https://databrussels.be/id/block/25438","AREA":188},"bbox":[149087.569,163568.53,149106.68315807,163589.65999888]},{"type":"Feature","id":"Buildings.fid--2dded296_1a02c23f8dc_-309b","geometry":{"type":"Polygon","coordinates":[[[149152.11,163604.88],[149152.37,163604.44],[149157.81,163612.62],[149165,163607.74],[149166.25,163604.66],[149165.53,163600.54],[149164.93,163599.2],[149165.03999938,163598.86000115],[149155.55610091,163594.19406577],[149150.64299132,163604.14560005],[149152.11,163604.88]]]},"geometry_name":"GEOM","properties":{"INSPIRE_ID":"https://databrussels.be/id/building/1720286","BLOCK_ID":"https://databrussels.be/id/block/25438","AREA":170},"bbox":[149150.64299132,163594.19406577,149166.25,163612.62]},{"type":"Feature","id":"Buildings.fid--2dded296_1a02c23f8dc_-306c","geometry":{"type":"Polygon","coordinates":[[[149137.3,163527.54],[149136.52,163523.23],[149138.61,163523.05],[149138.08,163520.09],[149140.97,163519.57],[149141.07,163519.55],[149140.49,163516.35],[149146.3,163515.28],[149146.87,163518.5],[149147.27,163518.48],[149147.28,163518.53],[149148.47999986,163525.40000012],[149137.3,163527.54]]]},"geometry_name":"GEOM","properties":{"INSPIRE_ID":"https://databrussels.be/id/building/1720287","BLOCK_ID":"https://databrussels.be/id/block/25438","AREA":94},"bbox":[149136.52,163515.28,149148.47999986,163527.54]},{"type":"Feature","id":"Buildings.fid--2dded296_1a02c23f8dc_-30c1","geometry":{"type":"Polygon","coordinates":[[[149395.024,163689.032],[149397.65,163683.78],[149398.13,163684.02],[149398.16,163684.03],[149400.22,163679.85],[149400.76,163680.12],[149400.83,163680.16],[149401.27237192,163679.26051043],[149407.96977466,163682.62122487],[149407.55,163683.47],[149402.932,163692.836],[149395.024,163689.032]]]},"geometry_name":"GEOM","properties":{"INSPIRE_ID":"https://databrussels.be/id/building/1720290","BLOCK_ID":"https://databrussels.be/id/block/28304","AREA":96},"bbox":[149395.024,163679.26051043,149407.96977466,163692.836]},{"type":"Feature","id":"Buildings.fid--2dded296_1a02c23f8dc_-3094","geometry":{"type":"Polygon","coordinates":[[[149129.304,163630.357],[149129.307,163630.355],[149139.33,163623.483],[149134.81,163617.06],[149133.8199,163615.837],[149132.5654,163616.6878],[149131.5013,163615.2164],[149130.1597,163616.1956],[149125.4384,163609.2095],[149120.8083,163612.5294],[149122.3822,163614.8437],[149119.52,163616.83],[149122.39,163620.929],[149129.304,163630.357]]]},"geometry_name":"GEOM","properties":{"INSPIRE_ID":"https://databrussels.be/id/building/1720295","BLOCK_ID":"https://databrussels.be/id/block/25438","AREA":201},"bbox":[149119.52,163609.2095,149139.33,163630.357]},{"type":"Feature","id":"Buildings.fid--2dded296_1a02c23f8dc_-30c4","geometry":{"type":"Polygon","coordinates":[[[149173.6749,163778.91434245],[149179.9058,163783.02214245],[149178.7258,163784.82924245],[149175.6793,163789.49514245],[149173.7462,163792.45564245],[149171.8826,163795.30974245],[149158.0124,163786.34104245],[149159.7137,163783.67054245],[149156.6547,163781.69254245],[149158.1686,163779.38054246],[149158.2816,163779.45524245],[149159.3787,163777.84054245],[149160.6963,163775.90104245],[149163.9067,163777.77734246],[149164.9116,163776.22324245],[149172.3278,163780.99764246],[149172.4671,163780.78224245],[149173.6749,163778.91434245]]]},"geometry_name":"GEOM","properties":{"INSPIRE_ID":"https://databrussels.be/id/building/1721205","BLOCK_ID":"https://databrussels.be/id/block/31427","AREA":246},"bbox":[149156.6547,163775.90104245,149179.9058,163795.30974245]},{"type":"Feature","id":"Buildings.fid--2dded296_1a02c23f8dc_-3073","geometry":{"type":"Polygon","coordinates":[[[149167.83974139,163494.44089116],[149176.12093111,163493.16754715],[149176.68987318,163496.41389784],[149178.09722477,163504.4145314],[149181.78270231,163503.92140952],[149181.29087049,163500.35869912],[149188.13928363,163499.11769918],[149189.41529723,163506.18374532],[149182.5128767,163507.64319483],[149182.20906066,163506.13875609],[149178.47484289,163506.80705093],[149180.17535031,163516.5162823],[149171.65528666,163518.05394357],[149168.51542466,163497.95882788],[149167.83974139,163494.44089116]]]},"geometry_name":"GEOM","properties":{"INSPIRE_ID":"https://databrussels.be/id/building/1721206","BLOCK_ID":"https://databrussels.be/id/block/30584","AREA":262},"bbox":[149167.83974139,163493.16754715,149189.41529723,163518.05394357]},{"type":"Feature","id":"Buildings.fid--2dded296_1a02c23f8dc_-3066","geometry":{"type":"Polygon","coordinates":[[[149325.31800158,163664.60200075],[149326.85578066,163661.31252327],[149325.58521912,163660.71104497],[149329.06457987,163653.54805498],[149333.84177502,163655.86015021],[149334.01189599,163655.49424525],[149335.45487819,163655.2065019],[149338.7150215,163656.77918643],[149339.15133952,163657.76815207],[149338.94387833,163658.33211655],[149343.73479484,163660.67075053],[149340.40163671,163667.66473908],[149338.99155768,163666.97820121],[149337.537,163670.434],[149335.11589398,163669.2784316],[149334.927,163669.7],[149327.485,163666.22],[149327.70823166,163665.74283239],[149325.31800158,163664.60200075]]]},"geometry_name":"GEOM","properties":{"INSPIRE_ID":"https://databrussels.be/id/building/1721391","BLOCK_ID":"https://databrussels.be/id/block/28304","AREA":189},"bbox":[149325.31800158,163653.54805498,149343.73479484,163670.434]},{"type":"Feature","id":"Buildings.fid--2dded296_1a02c23f8dc_-307b","geometry":{"type":"Polygon","coordinates":[[[149054.93,163662.21],[149059.71,163658.95],[149061.32,163661.32],[149066.524,163668.954],[149061.418,163672.373],[149056.32862539,163664.88015262],[149055.69957161,163663.93219059],[149054.93,163662.21]]]},"geometry_name":"GEOM","properties":{"INSPIRE_ID":"https://databrussels.be/id/building/1721393","BLOCK_ID":"https://databrussels.be/id/block/25438","AREA":74},"bbox":[149054.93,163658.95,149066.524,163672.373]},{"type":"Feature","id":"Buildings.fid--2dded296_1a02c23f8dc_-3068","geometry":{"type":"Polygon","coordinates":[[[149138.82,163534.34],[149149.6699986,163532.26000214],[149150.87000045,163539.10999943],[149141.5648835,163540.7575841],[149140.01048197,163540.98268931],[149138.82,163534.34]]]},"geometry_name":"GEOM","properties":{"INSPIRE_ID":"https://databrussels.be/id/building/1721395","BLOCK_ID":"https://databrussels.be/id/block/25438","AREA":76},"bbox":[149138.82,163532.26000214,149150.87000045,163540.98268931]},{"type":"Feature","id":"Buildings.fid--2dded296_1a02c23f8dc_-30c7","geometry":{"type":"Polygon","coordinates":[[[149025.18,163809.85],[149028.43,163804.75],[149037.63,163810.6],[149037.55,163810.72],[149039.21,163811.78],[149036.33,163816.29],[149036.3,163816.35],[149034.54,163815.22],[149034.27,163815.64],[149027.61067557,163811.3985037],[149025.18,163809.85]]]},"geometry_name":"GEOM","properties":{"INSPIRE_ID":"https://databrussels.be/id/building/1721396","BLOCK_ID":"https://databrussels.be/id/block/24047","AREA":77},"bbox":[149025.18,163804.75,149039.21,163816.35]},{"type":"Feature","id":"Buildings.fid--2dded296_1a02c23f8dc_-30c9","geometry":{"type":"Polygon","coordinates":[[[149021.7,163778.76],[149018.81,163776.956],[149020.205,163774.808],[149024.581,163777.547],[149025.79,163775.59],[149032.74,163779.87],[149030.86,163782.93],[149027.546,163788.274],[149023.361,163785.647],[149026.02,163781.4],[149021.7,163778.76]]]},"geometry_name":"GEOM","properties":{"INSPIRE_ID":"https://databrussels.be/id/building/1721398","BLOCK_ID":"https://databrussels.be/id/block/24047","AREA":78},"bbox":[149018.81,163774.808,149032.74,163788.274]},{"type":"Feature","id":"Buildings.fid--2dded296_1a02c23f8dc_-3096","geometry":{"type":"Polygon","coordinates":[[[149140.097,163610.348],[149143.31,163608.249],[149142.829,163607.791],[149143.89,163606.26],[149145.846,163607.001],[149146.859,163608.252],[149147.74,163607.92],[149152.405,163614.432],[149146.0039999,163618.86299989],[149141.29343084,163612.21006332],[149140.097,163610.348]]]},"geometry_name":"GEOM","properties":{"INSPIRE_ID":"https://databrussels.be/id/building/1721401","BLOCK_ID":"https://databrussels.be/id/block/25438","AREA":80},"bbox":[149140.097,163606.26,149152.405,163618.86299989]},{"type":"Feature","id":"Buildings.fid--2dded296_1a02c23f8dc_-3071","geometry":{"type":"Polygon","coordinates":[[[149131.59,163506.93],[149132.69749401,163506.86625775],[149136.11601626,163506.25559273],[149146.3,163504.4],[149146.69,163506.73],[149147.35,163506.61],[149147.81,163509.87],[149147.63,163509.92],[149147.34,163510],[149147.41,163510.82],[149137.31,163512.55],[149136.75,163509.42],[149132.18,163510.23],[149131.64,163507.19],[149131.59,163506.93]]]},"geometry_name":"GEOM","properties":{"INSPIRE_ID":"https://databrussels.be/id/building/1722602","BLOCK_ID":"https://databrussels.be/id/block/25438","AREA":83},"bbox":[149131.59,163504.4,149147.81,163512.55]},{"type":"Feature","id":"Buildings.fid--2dded296_1a02c23f8dc_-30ab","geometry":{"type":"Polygon","coordinates":[[[149139.96,163540.99],[149140.01048197,163540.98268931],[149141.5648835,163540.7575841],[149150.87000045,163539.10999943],[149152.12000024,163546.30000007],[149142.94,163547.76],[149141.2,163548.04],[149140.38,163543.47],[149138.32,163543.84],[149137.88,163541.36],[149139.96,163540.99]]]},"geometry_name":"GEOM","properties":{"INSPIRE_ID":"https://databrussels.be/id/building/1722604","BLOCK_ID":"https://databrussels.be/id/block/25438","AREA":85},"bbox":[149137.88,163539.10999943,149152.12000024,163548.04]},{"type":"Feature","id":"Buildings.fid--2dded296_1a02c23f8dc_-3072","geometry":{"type":"Polygon","coordinates":[[[149131.59,163506.93],[149130.99,163503.56],[149135.46,163502.76],[149135.44,163502.63],[149134.92,163499.75],[149145.18,163497.97],[149145.28,163498.61],[149145.92,163498.49],[149146.46,163501.71],[149145.86,163501.8],[149146.3,163504.4],[149136.11601626,163506.25559273],[149132.69749401,163506.86625775],[149131.59,163506.93]]]},"geometry_name":"GEOM","properties":{"INSPIRE_ID":"https://databrussels.be/id/building/1722605","BLOCK_ID":"https://databrussels.be/id/block/25438","AREA":86},"bbox":[149130.99,163497.97,149146.46,163506.93]},{"type":"Feature","id":"Buildings.fid--2dded296_1a02c23f8dc_-306b","geometry":{"type":"Polygon","coordinates":[[[149137.3,163527.54],[149148.47999986,163525.40000012],[149149.6699986,163532.26000214],[149138.82,163534.34],[149138.54,163534.37],[149136.72,163534.53],[149135.5,163527.72],[149135.49,163527.69],[149137.3,163527.54]]]},"geometry_name":"GEOM","properties":{"INSPIRE_ID":"https://databrussels.be/id/building/1722610","BLOCK_ID":"https://databrussels.be/id/block/25438","AREA":92},"bbox":[149135.49,163525.40000012,149149.6699986,163534.53]},{"type":"Feature","id":"Buildings.fid--2dded296_1a02c23f8dc_-30a7","geometry":{"type":"Polygon","coordinates":[[[149272.86500002,163562.61499976],[149271.20327752,163552.69564758],[149274.88844692,163552.14056267],[149274.48292913,163550.09329806],[149285.97363015,163547.76299899],[149286.3546071,163549.70964428],[149290.16958179,163549.0389808],[149292.145,163559.03499976],[149272.86500002,163562.61499976]]]},"geometry_name":"GEOM","properties":{"INSPIRE_ID":"https://databrussels.be/id/building/1723761","BLOCK_ID":"https://databrussels.be/id/block/26370","AREA":220},"bbox":[149271.20327752,163547.76299899,149292.145,163562.61499976]},{"type":"Feature","id":"Buildings.fid--2dded296_1a02c23f8dc_-30a2","geometry":{"type":"Polygon","coordinates":[[[149145.6,163576.02],[149146.43,163580.82],[149146.55,163580.8],[149147.08,163583.9],[149151.66,163583.11],[149151.79,163583.84],[149157.1,163582.94],[149159.147,163582.599],[149159.564,163585.105],[149160.925,163584.878],[149160.508,163582.373],[149163.753,163581.833],[149163.119,163578.023],[149164.03000006,163577.86999996],[149164.36199994,163577.8160002],[149163.61154103,163573.30422949],[149163.15061075,163570.53106688],[149152.63410653,163572.14403646],[149153.26797472,163574.91732614],[149145.6,163576.02]]]},"geometry_name":"GEOM","properties":{"INSPIRE_ID":"https://databrussels.be/id/building/1724897","BLOCK_ID":"https://databrussels.be/id/block/25438","AREA":180},"bbox":[149145.6,163570.53106688,149164.36199994,163585.105]},{"type":"Feature","id":"Buildings.fid--2dded296_1a02c23f8dc_-30cd","geometry":{"type":"Polygon","coordinates":[[[149018.81,163776.956],[149021.7,163778.76],[149016.65,163786.84],[149014.27,163785.48],[149003.787,163778.871],[149008.471,163770.533],[149018.81,163776.956]]]},"geometry_name":"GEOM","properties":{"INSPIRE_ID":"https://databrussels.be/id/building/1724903","BLOCK_ID":"https://databrussels.be/id/block/24047","AREA":147},"bbox":[149003.787,163770.533,149021.7,163786.84]},{"type":"Feature","id":"Buildings.fid--2dded296_1a02c23f8dc_-3079","geometry":{"type":"Polygon","coordinates":[[[149069.9,163655.16],[149074.79,163651.82],[149076.45,163652.12],[149080.62,163658.16],[149077.48,163660.33],[149078,163661.09],[149070.37,163666.34],[149066.76,163660.62],[149070.54,163658.03],[149069.62,163656.69],[149069.9,163655.16]]]},"geometry_name":"GEOM","properties":{"INSPIRE_ID":"https://databrussels.be/id/building/1724932","BLOCK_ID":"https://databrussels.be/id/block/25438","AREA":105},"bbox":[149066.76,163651.82,149080.62,163666.34]},{"type":"Feature","id":"Buildings.fid--2dded296_1a02c23f8dc_-30a1","geometry":{"type":"Polygon","coordinates":[[[149128.43991279,163580.69995359],[149122.97,163591.57],[149130.36,163595.1],[149130.61,163594.59],[149135.59,163596.97],[149135.73,163596.68],[149150.64299132,163604.14560005],[149155.55610091,163594.19406577],[149140.08000027,163586.57999984],[149136.10200009,163584.55600009],[149128.43991279,163580.69995359]]]},"geometry_name":"GEOM","properties":{"INSPIRE_ID":"https://databrussels.be/id/building/1725857","BLOCK_ID":"https://databrussels.be/id/block/25438","AREA":345},"bbox":[149122.97,163580.69995359,149155.55610091,163604.14560005]},{"type":"Feature","id":"Buildings.fid--2dded296_1a02c23f8dc_-30c2","geometry":{"type":"Polygon","coordinates":[[[149180.31956084,163788.3296555],[149178.9461591,163787.25425778],[149180.28570445,163785.57193809],[149181.62681329,163786.56236661],[149180.31956084,163788.3296555]]]},"geometry_name":"GEOM","properties":{"INSPIRE_ID":"https://databrussels.be/id/building/1725862","BLOCK_ID":"https://databrussels.be/id/block/31427","AREA":4},"bbox":[149178.9461591,163785.57193809,149181.62681329,163788.3296555]},{"type":"Feature","id":"Buildings.fid--2dded296_1a02c23f8dc_-305e","geometry":{"type":"Polygon","coordinates":[[[149401.27237192,163679.26051043],[149401.73,163678.33],[149401.75,163678.29],[149401.15,163678],[149401.45,163677.39],[149400.91,163677.13],[149403.33,163672.23],[149403.86,163672.5],[149405.82,163668.52],[149406.43,163668.82],[149406.65,163668.37],[149413.48,163671.74],[149413.25,163672.21],[149413.73,163672.44],[149409.07,163681.89],[149408.48,163681.6],[149408.46,163681.63],[149407.96977466,163682.62122487],[149401.27237192,163679.26051043]]]},"geometry_name":"GEOM","properties":{"INSPIRE_ID":"https://databrussels.be/id/building/1725864","BLOCK_ID":"https://databrussels.be/id/block/28304","AREA":109},"bbox":[149400.91,163668.37,149413.73,163682.62122487]},{"type":"Feature","id":"Buildings.fid--2dded296_1a02c23f8dc_-30a4","geometry":{"type":"Polygon","coordinates":[[[149234.14,163561.39],[149245.30517154,163559.73352511],[149246.48099996,163566.32700001],[149243.061,163566.946],[149243.711,163570.896],[149235.85899976,163572.09300011],[149234.14,163561.39]]]},"geometry_name":"GEOM","properties":{"INSPIRE_ID":"https://databrussels.be/id/building/1725865","BLOCK_ID":"https://databrussels.be/id/block/26370","AREA":109},"bbox":[149234.14,163559.73352511,149246.48099996,163572.09300011]},{"type":"Feature","id":"Buildings.fid--2dded296_1a02c23f8dc_-3087","geometry":{"type":"Polygon","coordinates":[[[149027.61351341,163665.37481711],[149030.14684818,163661.02049256],[149029.53890625,163660.6104373],[149030.83570011,163658.57633738],[149033.91201625,163660.61301475],[149033.25,163661.84],[149038.97,163665.71],[149035.37,163671.29],[149029.64999997,163667.61999992],[149030.1401533,163666.83324812],[149027.61351341,163665.37481711]]]},"geometry_name":"GEOM","properties":{"INSPIRE_ID":"https://databrussels.be/id/building/1726113","BLOCK_ID":"https://databrussels.be/id/block/25438","AREA":70},"bbox":[149027.61351341,163658.57633738,149038.97,163671.29]},{"type":"Feature","id":"Buildings.fid--2dded296_1a02c23f8dc_-307c","geometry":{"type":"Polygon","coordinates":[[[149054.93,163662.21],[149055.69957161,163663.93219059],[149056.32862539,163664.88015262],[149061.418,163672.373],[149056.503,163675.665],[149051.36,163668.2],[149049.71,163665.77],[149054.93,163662.21]]]},"geometry_name":"GEOM","properties":{"INSPIRE_ID":"https://databrussels.be/id/building/1726115","BLOCK_ID":"https://databrussels.be/id/block/25438","AREA":72},"bbox":[149049.71,163662.21,149061.418,163675.665]},{"type":"Feature","id":"Buildings.fid--2dded296_1a02c23f8dc_-307a","geometry":{"type":"Polygon","coordinates":[[[149059.35500038,163594.6929983],[149059.40646907,163594.46307276],[149058.156,163594.166],[149059.245,163589.342],[149060.58420847,163589.63650647],[149060.591,163589.638],[149060.75865512,163588.91184472],[149061.708,163584.8],[149061.74656818,163584.80787758],[149066.3694034,163585.75209531],[149065.85412326,163587.99468232],[149070.76431159,163589.16666727],[149071.38418962,163586.3611492],[149076.77052855,163587.62662187],[149076.40864173,163589.45985424],[149074.30128581,163598.54350303],[149059.35500038,163594.6929983]]]},"geometry_name":"GEOM","properties":{"INSPIRE_ID":"https://databrussels.be/id/building/1727223","BLOCK_ID":"https://databrussels.be/id/block/25438","AREA":159},"bbox":[149058.156,163584.8,149076.77052855,163598.54350303]},{"type":"Feature","id":"Buildings.fid--2dded296_1a02c23f8dc_-30a5","geometry":{"type":"Polygon","coordinates":[[[149220.04,163565.158],[149225.2,163564.18],[149225.04,163562.96],[149230.065,163562.093],[149229.43,163561.582],[149229.189,163560.781],[149229.249,163559.895],[149229.751,163559.389],[149229.515,163558.417],[149233.357,163557.849],[149234.14,163561.39],[149235.85899976,163572.09300011],[149227.32,163573.565],[149227.101,163572.266],[149221.412,163573.224],[149221.124,163571.273],[149219.747,163570.729],[149219.346,163570.401],[149219.087,163569.951],[149219.005,163569.439],[149219.109,163568.931],[149219.386,163568.493],[149220.506,163567.775],[149220.04,163565.158]]]},"geometry_name":"GEOM","properties":{"INSPIRE_ID":"https://databrussels.be/id/building/1727227","BLOCK_ID":"https://databrussels.be/id/block/26370","AREA":163},"bbox":[149219.005,163557.849,149235.85899976,163573.565]},{"type":"Feature","id":"Buildings.fid--2dded296_1a02c23f8dc_-30b6","geometry":{"type":"Polygon","coordinates":[[[149454.62686443,163565.61167327],[149454.09,163565.33],[149457.51,163558.81],[149457.15,163558.62],[149458.69,163555.68],[149470.21,163561.72],[149465.24,163571.18],[149464.48043333,163570.78148296],[149459.66592867,163572.14564432],[149455.50799818,163569.97594446],[149454.62686443,163565.61167327]]]},"geometry_name":"GEOM","properties":{"INSPIRE_ID":"https://databrussels.be/id/building/1727229","BLOCK_ID":"https://databrussels.be/id/block/28304","AREA":163},"bbox":[149454.09,163555.68,149470.21,163572.14564432]},{"type":"Feature","id":"Buildings.fid--2dded296_1a02c23f8dc_-3081","geometry":{"type":"Polygon","coordinates":[[[149041.31300001,163653.82599996],[149042.156,163650.12],[149049.30647556,163651.96479815],[149048.48994919,163655.70103863],[149041.31300001,163653.82599996]]]},"geometry_name":"GEOM","properties":{"INSPIRE_ID":"https://databrussels.be/id/building/1728343","BLOCK_ID":"https://databrussels.be/id/block/25438","AREA":28},"bbox":[149041.31300001,163650.12,149049.30647556,163655.70103863]},{"type":"Feature","id":"Buildings.fid--2dded296_1a02c23f8dc_-30c8","geometry":{"type":"Polygon","coordinates":[[[149025.18,163809.85],[149027.61067557,163811.3985037],[149024.853,163815.68],[149019.016,163812.142],[149021.775,163807.785],[149025.18,163809.85]]]},"geometry_name":"GEOM","properties":{"INSPIRE_ID":"https://databrussels.be/id/building/1728346","BLOCK_ID":"https://databrussels.be/id/block/24047","AREA":35},"bbox":[149019.016,163807.785,149027.61067557,163815.68]},{"type":"Feature","id":"Buildings.fid--2dded296_1a02c23f8dc_-3097","geometry":{"type":"Polygon","coordinates":[[[149143.613,163615.4857],[149143.672,163615.569],[149146.004,163618.863],[149139.33,163623.483],[149136.9873,163620.154],[149134.81,163617.06],[149137.3411,163615.1191],[149134.6654,163611.3547],[149129.2741,163603.7701],[149132.7401,163601.2401],[149133.7201,163601.6601],[149138.7727,163608.5438],[149140.097,163610.348],[149141.243,163612.132],[149141.293,163612.21],[149141.3651,163612.3119],[149142.753,163614.272],[149143.613,163615.4857]]]},"geometry_name":"GEOM","properties":{"INSPIRE_ID":"https://databrussels.be/id/building/1728350","BLOCK_ID":"https://databrussels.be/id/block/25438","AREA":133},"bbox":[149129.2741,163601.2401,149146.004,163623.483]},{"type":"Feature","id":"Buildings.fid--2dded296_1a02c23f8dc_-30b4","geometry":{"type":"Polygon","coordinates":[[[149485.008,163603.595],[149481.31956598,163604.30614943],[149480.03607536,163597.98479345],[149483.09831665,163597.51830028],[149482.18543464,163592.64873591],[149486.66837815,163591.80345775],[149486.57,163591.34],[149495.49,163589.48],[149497.32,163598.21],[149493.755,163598.951],[149494.353,163601.822],[149485.008,163603.595]]]},"geometry_name":"GEOM","properties":{"INSPIRE_ID":"https://databrussels.be/id/building/1728406","BLOCK_ID":"https://databrussels.be/id/block/28304","AREA":169},"bbox":[149480.03607536,163589.48,149497.32,163604.30614943]},{"type":"Feature","id":"Buildings.fid--2dded296_1a02c23f8dc_-30a6","geometry":{"type":"Polygon","coordinates":[[[149145.6,163576.02],[149153.26797472,163574.91732614],[149152.63410653,163572.14403646],[149163.15061075,163570.53106688],[149162.04139333,163563.86447694],[149160.70000006,163555.79999997],[149145.1,163558.3],[149146.5,163566.38],[149143.86,163566.83],[149145.45,163576.04],[149145.6,163576.02]]]},"geometry_name":"GEOM","properties":{"INSPIRE_ID":"https://databrussels.be/id/building/1729535","BLOCK_ID":"https://databrussels.be/id/block/25438","AREA":274},"bbox":[149143.86,163555.79999997,149163.15061075,163576.04]},{"type":"Feature","id":"Buildings.fid--2dded296_1a02c23f8dc_-308b","geometry":{"type":"Polygon","coordinates":[[[149019.97803075,163619.09503375],[149012.39098796,163614.37195406],[149011.47,163615.9],[149009.04,163614.43],[149005.03,163621.066],[149015.156,163626.843],[149019.97803075,163619.09503375]]]},"geometry_name":"GEOM","properties":{"INSPIRE_ID":"https://databrussels.be/id/building/1780937","BLOCK_ID":"https://databrussels.be/id/block/25438","AREA":104},"bbox":[149005.03,163614.37195406,149019.97803075,163626.843]},{"type":"Feature","id":"Buildings.fid--2dded296_1a02c23f8dc_-3085","geometry":{"type":"Polygon","coordinates":[[[149033.91262077,163578.87177183],[149034.74616187,163576.50307377],[149037.9339735,163577.62485963],[149037.1004324,163579.9935577],[149033.91262077,163578.87177183]]]},"geometry_name":"GEOM","properties":{"INSPIRE_ID":"https://databrussels.be/id/building/1786128","BLOCK_ID":"https://databrussels.be/id/block/25438","AREA":8},"bbox":[149033.91262077,163576.50307377,149037.9339735,163579.9935577]},{"type":"Feature","id":"Buildings.fid--2dded296_1a02c23f8dc_-30c5","geometry":{"type":"Polygon","coordinates":[[[149062.518672,163776.42008603],[149066.52090864,163778.80375785],[149064.7316109,163781.80802753],[149060.72937426,163779.42435571],[149062.518672,163776.42008603]]]},"geometry_name":"GEOM","properties":{"INSPIRE_ID":"https://databrussels.be/id/building/1786129","BLOCK_ID":"https://databrussels.be/id/block/24047","AREA":16},"bbox":[149060.72937426,163776.42008603,149066.52090864,163781.80802753]},{"type":"Feature","id":"Buildings.fid--2dded296_1a02c23f8dc_-30c6","geometry":{"type":"Polygon","coordinates":[[[149055.0557,163803.6152],[149059.0285,163805.5422],[149058.984,163808.1744],[149056.8452,163809.8184],[149053.0197,163807.9628],[149053.4953,163805.5121],[149055.0557,163803.6152]]]},"geometry_name":"GEOM","properties":{"INSPIRE_ID":"https://databrussels.be/id/building/1786707","BLOCK_ID":"https://databrussels.be/id/block/24047","AREA":25},"bbox":[149053.0197,163803.6152,149059.0285,163809.8184]},{"type":"Feature","id":"Buildings.fid--2dded296_1a02c23f8dc_-307e","geometry":{"type":"Polygon","coordinates":[[[149045.6609,163647.9768],[149047.9677,163648.525],[149047.4288,163650.7927],[149045.122,163650.2444],[149045.6609,163647.9768]]]},"geometry_name":"GEOM","properties":{"INSPIRE_ID":"https://databrussels.be/id/building/1786708","BLOCK_ID":"https://databrussels.be/id/block/25438","AREA":6},"bbox":[149045.122,163647.9768,149047.9677,163650.7927]},{"type":"Feature","id":"Buildings.fid--2dded296_1a02c23f8dc_-308c","geometry":{"type":"Polygon","coordinates":[[[149010.09,163672.534],[149007.151,163671.8514],[149008.2494,163667.3508],[149005.8535,163666.7582],[149005.9293,163666.5218],[149002.5463,163662.6461],[149006.5162,163659.2298],[149011.8186,163665.5728],[149010.09,163672.534]]]},"geometry_name":"GEOM","properties":{"INSPIRE_ID":"https://databrussels.be/id/building/1788170","BLOCK_ID":"https://databrussels.be/id/block/25438","AREA":56},"bbox":[149002.5463,163659.2298,149011.8186,163672.534]},{"type":"Feature","id":"Buildings.fid--2dded296_1a02c23f8dc_-3091","geometry":{"type":"Polygon","coordinates":[[[149298.461,163622.323],[149297.892,163619.688],[149301.06,163619.004],[149301.629,163621.638],[149298.461,163622.323]]]},"geometry_name":"GEOM","properties":{"INSPIRE_ID":"https://databrussels.be/id/building/1793097","BLOCK_ID":"https://databrussels.be/id/block/28304","AREA":9},"bbox":[149297.892,163619.004,149301.629,163622.323]},{"type":"Feature","id":"Buildings.fid--2dded296_1a02c23f8dc_-3078","geometry":{"type":"Polygon","coordinates":[[[149071.781,163609.728],[149075.187,163601.765],[149078.154,163603.034],[149074.748,163610.997],[149071.781,163609.728]]]},"geometry_name":"GEOM","properties":{"INSPIRE_ID":"https://databrussels.be/id/building/1793098","BLOCK_ID":"https://databrussels.be/id/block/25438","AREA":28},"bbox":[149071.781,163601.765,149078.154,163610.997]},{"type":"Feature","id":"Buildings.fid--2dded296_1a02c23f8dc_-306a","geometry":{"type":"Polygon","coordinates":[[[149105.983,163534.217],[149107.423,163530.611],[149111.284,163532.153],[149109.844,163535.759],[149105.983,163534.217]]]},"geometry_name":"GEOM","properties":{"INSPIRE_ID":"https://databrussels.be/id/building/1793101","BLOCK_ID":"https://databrussels.be/id/block/25438","AREA":16},"bbox":[149105.983,163530.611,149111.284,163535.759]},{"type":"Feature","id":"Buildings.fid--2dded296_1a02c23f8dc_-306e","geometry":{"type":"Polygon","coordinates":[[[149303.31,163512.305],[149304.419,163508.627],[149307.054,163509.422],[149305.944,163513.1],[149303.31,163512.305]]]},"geometry_name":"GEOM","properties":{"INSPIRE_ID":"https://databrussels.be/id/building/1796505","BLOCK_ID":"https://databrussels.be/id/block/26370","AREA":11},"bbox":[149303.31,163508.627,149307.054,163513.1]},{"type":"Feature","id":"Buildings.fid--2dded296_1a02c23f8dc_-3059","geometry":{"type":"Polygon","coordinates":[[[149428.7305,163620.5944],[149428.1788,163618.3992],[149430.1076,163617.9145],[149430.6593,163620.1097],[149428.7305,163620.5944]]]},"geometry_name":"GEOM","properties":{"INSPIRE_ID":"https://databrussels.be/id/building/1797100","BLOCK_ID":"https://databrussels.be/id/block/28304","AREA":5},"bbox":[149428.1788,163617.9145,149430.6593,163620.5944]},{"type":"Feature","id":"Buildings.fid--2dded296_1a02c23f8dc_-3061","geometry":{"type":"Polygon","coordinates":[[[149368.942,163627.524],[149368.404,163624.921],[149372.048,163624.167],[149372.586,163626.771],[149368.942,163627.524]]]},"geometry_name":"GEOM","properties":{"INSPIRE_ID":"https://databrussels.be/id/building/1798889","BLOCK_ID":"https://databrussels.be/id/block/28304","AREA":10},"bbox":[149368.404,163624.167,149372.586,163627.524]},{"type":"Feature","id":"Buildings.fid--2dded296_1a02c23f8dc_-305a","geometry":{"type":"Polygon","coordinates":[[[149426.9215,163656.2755],[149421.0626,163648.2952],[149419.0999,163649.7361],[149411.2272,163639.0127],[149417.9174,163634.101],[149419.3931,163636.111],[149423.4919,163633.1018],[149431.3381,163643.789],[149429.545,163645.1055],[149433.9547,163651.1119],[149426.9215,163656.2755]]]},"geometry_name":"GEOM","properties":{"INSPIRE_ID":"https://databrussels.be/id/building/1808392","BLOCK_ID":"https://databrussels.be/id/block/28304","AREA":257},"bbox":[149411.2272,163633.1018,149433.9547,163656.2755]},{"type":"Feature","id":"Buildings.fid--2dded296_1a02c23f8dc_-305b","geometry":{"type":"Polygon","coordinates":[[[149410.9192,163586.1611],[149414.9823,163581.1396],[149413.7254,163580.1226],[149428.4098,163561.9741],[149436.184,163568.2643],[149435.167,163569.5212],[149441.1747,163574.3822],[149425.6925,163593.5167],[149423.9702,163592.1232],[149421.722,163594.9018],[149410.9192,163586.1611]]]},"geometry_name":"GEOM","properties":{"INSPIRE_ID":"https://databrussels.be/id/building/1808393","BLOCK_ID":"https://databrussels.be/id/block/28304","AREA":498},"bbox":[149410.9192,163561.9741,149441.1747,163594.9018]}],"numberReturned":115,"grand_bruxelles_source":{"authority":"Paradigm / Brussels-Capital Region","service":"https://geoservices-urbis.irisnet.be/geoserver/urbisvector/wfs","layer":"urbisvector:Buildings","crs":"EPSG:31370","bbox":[149000.0,163500.0,149500.0,164000.0],"cell_id":"bxl-e149000-n163500-s500","ownership":"polygon_or_multipolygon_centroid_global_500m_cell"}}
