{"type":"FeatureCollection","totalFeatures":27,"numberMatched":27,"timeStamp":"2026-08-22T13:00:45.043Z","crs":{"type":"name","properties":{"name":"urn:ogc:def:crs:EPSG::31370"}},"bbox":[147304.886,165889.202,148166.87801635,166630.332],"features":[{"type":"Feature","id":"StreetAxes.fid-1cd8d64c_1a02986fdc4_7682","geometry":{"type":"LineString","coordinates":[[147741.511,166083.616],[147736.713,166083.724],[147733.85,166084.516],[147703.04,166093.042],[147606.48,166119.762],[147598.787,166121.775]]},"geometry_name":"GEOM","properties":{"INSPIRE_ID":"https://databrussels.be/id/streetaxe/70199","TYPE":"S","HIERARCHY":"DR","LVL":0,"STARTSN_ID":"https://databrussels.be/id/streetnode/3784","ENDSN_ID":"https://databrussels.be/id/streetnode/1465","STRNAMEFRE":"Rue Alphonse Asselbergs","STRNAMEDUT":"Alphonse Asselbergsstraat","SLOPE":5.47,"LENGTH":147.878465280416},"bbox":[147598.787,166083.616,147741.511,166121.775]},{"type":"Feature","id":"StreetAxes.fid-1cd8d64c_1a02986fdc4_7696","geometry":{"type":"LineString","coordinates":[[147867.68371478,166104.77642101],[147872.15565916,166098.59050871],[147899.00475354,166036.81951049],[147939.01,165977.21],[147945.293,165970.83],[147947.449,165964.391]]},"geometry_name":"GEOM","properties":{"INSPIRE_ID":"https://databrussels.be/id/streetaxe/70960","TYPE":"S","HIERARCHY":null,"LVL":0,"STARTSN_ID":"https://databrussels.be/id/streetnode/2481","ENDSN_ID":"https://databrussels.be/id/streetnode/1866","STRNAMEFRE":"Rue du Doyenné","STRNAMEDUT":"Dekenijstraat","SLOPE":1.59,"LENGTH":162.520930574555},"bbox":[147867.68371478,165964.391,147947.449,166104.77642101]},{"type":"Feature","id":"StreetAxes.fid-1cd8d64c_1a02986fdc4_7684","geometry":{"type":"LineString","coordinates":[[147602.871,166325.664],[147605.272,166318.178],[147602.32,166225.526],[147599.172,166131.298],[147598.787,166121.775]]},"geometry_name":"GEOM","properties":{"INSPIRE_ID":"https://databrussels.be/id/streetaxe/71675","TYPE":"S","HIERARCHY":"DR","LVL":0,"STARTSN_ID":"https://databrussels.be/id/streetnode/427","ENDSN_ID":"https://databrussels.be/id/streetnode/1465","STRNAMEFRE":"Rue Beeckman","STRNAMEDUT":"Beeckmanstraat","SLOPE":1.87,"LENGTH":204.371979901148},"bbox":[147598.787,166121.775,147605.272,166325.664]},{"type":"Feature","id":"StreetAxes.fid-1cd8d64c_1a02986fdc4_767e","geometry":{"type":"LineString","coordinates":[[147602.871,166325.664],[147594.809,166322.548],[147533.702,166299.602],[147495.562,166284.078],[147446.071,166261.721],[147329.036,166209.132],[147322.845,166206.35],[147319.915,166205.033],[147305.856,166198.715],[147304.886,166193.819]]},"geometry_name":"GEOM","properties":{"INSPIRE_ID":"https://databrussels.be/id/streetaxe/72529","TYPE":"S","HIERARCHY":"DR","LVL":0,"STARTSN_ID":"https://databrussels.be/id/streetnode/427","ENDSN_ID":"https://databrussels.be/id/streetnode/1190","STRNAMEFRE":"Rue Joseph Bens","STRNAMEDUT":"Joseph Bensstraat","SLOPE":3.58,"LENGTH":328.112880206093},"bbox":[147304.886,166193.819,147602.871,166325.664]},{"type":"Feature","id":"StreetAxes.fid-1cd8d64c_1a02986fdc4_7689","geometry":{"type":"LineString","coordinates":[[147995.773,166315.71],[147984.91,166312.05],[147956.63,166303.488],[147947.802,166300.779]]},"geometry_name":"GEOM","properties":{"INSPIRE_ID":"https://databrussels.be/id/streetaxe/72691","TYPE":"S","HIERARCHY":"DR","LVL":0,"STARTSN_ID":"https://databrussels.be/id/streetnode/510","ENDSN_ID":"https://databrussels.be/id/streetnode/378","STRNAMEFRE":"Square Coghen","STRNAMEDUT":"Coghensquare","SLOPE":5.18,"LENGTH":50.2449926889082},"bbox":[147947.802,166300.779,147995.773,166315.71]},{"type":"Feature","id":"StreetAxes.fid-1cd8d64c_1a02986fdc4_7697","geometry":{"type":"LineString","coordinates":[[147598.787,166121.775],[147598.422,166112.757],[147592.566,165932.394],[147589.83566149,165926.34488502]]},"geometry_name":"GEOM","properties":{"INSPIRE_ID":"https://databrussels.be/id/streetaxe/73409","TYPE":"S","HIERARCHY":"DR","LVL":0,"STARTSN_ID":"https://databrussels.be/id/streetnode/1465","ENDSN_ID":"https://databrussels.be/id/streetnode/13221","STRNAMEFRE":"Rue Beeckman","STRNAMEDUT":"Beeckmanstraat","SLOPE":2.84,"LENGTH":196.120181202712},"bbox":[147589.83566149,165926.34488502,147598.787,166121.775]},{"type":"Feature","id":"StreetAxes.fid-1cd8d64c_1a02986fdc4_768a","geometry":{"type":"LineString","coordinates":[[147959.715,166450.601],[147961.265,166440.805],[147963.83,166426.455],[147967.495,166410.05],[147971.71,166394.75],[147994.16,166320.841],[147995.773,166315.71]]},"geometry_name":"GEOM","properties":{"INSPIRE_ID":"https://databrussels.be/id/streetaxe/73911","TYPE":"S","HIERARCHY":"IDR","LVL":0,"STARTSN_ID":"https://databrussels.be/id/streetnode/12078","ENDSN_ID":"https://databrussels.be/id/streetnode/510","STRNAMEFRE":"Avenue Coghen","STRNAMEDUT":"Coghenlaan","SLOPE":4.27,"LENGTH":139.796657396266},"bbox":[147959.715,166315.71,147995.773,166450.601]},{"type":"Feature","id":"StreetAxes.fid-1cd8d64c_1a02986fdc4_768d","geometry":{"type":"LineString","coordinates":[[147752.046,166378.446],[147739.99,166377.915],[147714.66664866,166368.27419619]]},"geometry_name":"GEOM","properties":{"INSPIRE_ID":"https://databrussels.be/id/streetaxe/74097","TYPE":"S","HIERARCHY":"DR","LVL":0,"STARTSN_ID":"https://databrussels.be/id/streetnode/4122","ENDSN_ID":"https://databrussels.be/id/streetnode/4225","STRNAMEFRE":"Rue Joseph Bens","STRNAMEDUT":"Joseph Bensstraat","SLOPE":1.92,"LENGTH":39.1641310960454},"bbox":[147714.66664866,166368.27419619,147752.046,166378.446]},{"type":"Feature","id":"StreetAxes.fid-1cd8d64c_1a02986fdc4_7690","geometry":{"type":"LineString","coordinates":[[147754.4,166405.674],[147767.439,166402.999],[147781.195,166406.391],[147948.79,166447.715],[147959.715,166450.601]]},"geometry_name":"GEOM","properties":{"INSPIRE_ID":"https://databrussels.be/id/streetaxe/74182","TYPE":"S","HIERARCHY":"DR","LVL":0,"STARTSN_ID":"https://databrussels.be/id/streetnode/3552","ENDSN_ID":"https://databrussels.be/id/streetnode/12078","STRNAMEFRE":"Avenue de Floréal","STRNAMEDUT":"Floréallaan","SLOPE":5.46,"LENGTH":211.392836696743},"bbox":[147754.4,166402.999,147959.715,166450.601]},{"type":"Feature","id":"StreetAxes.fid-1cd8d64c_1a02986fdc4_7693","geometry":{"type":"LineString","coordinates":[[147969.279,166630.332],[147967.28,166621.155],[147962.27,166596.755],[147959.795,166581.77],[147957.682,166564.676],[147955.975,166546.855],[147955.45,166535.67],[147954.81,166519.13],[147955.125,166500.815],[147956.015,166484.08],[147958.73,166456.83],[147959.715,166450.601]]},"geometry_name":"GEOM","properties":{"INSPIRE_ID":"https://databrussels.be/id/streetaxe/74318","TYPE":"S","HIERARCHY":"IDR","LVL":0,"STARTSN_ID":"https://databrussels.be/id/streetnode/2134","ENDSN_ID":"https://databrussels.be/id/streetnode/12078","STRNAMEFRE":"Avenue Coghen","STRNAMEDUT":"Coghenlaan","SLOPE":4.96,"LENGTH":181.133280890892},"bbox":[147954.81,166450.601,147969.279,166630.332]},{"type":"Feature","id":"StreetAxes.fid-1cd8d64c_1a02986fdc4_768c","geometry":{"type":"LineString","coordinates":[[147714.66664866,166368.27419619],[147610.933,166328.78],[147602.871,166325.664]]},"geometry_name":"GEOM","properties":{"INSPIRE_ID":"https://databrussels.be/id/streetaxe/74577","TYPE":"S","HIERARCHY":"DR","LVL":0,"STARTSN_ID":"https://databrussels.be/id/streetnode/4225","ENDSN_ID":"https://databrussels.be/id/streetnode/427","STRNAMEFRE":"Rue Joseph Bens","STRNAMEDUT":"Joseph Bensstraat","SLOPE":3.57,"LENGTH":119.640796616562},"bbox":[147602.871,166325.664,147714.66664866,166368.27419619]},{"type":"Feature","id":"StreetAxes.fid-1cd8d64c_1a02986fdc4_7694","geometry":{"type":"LineString","coordinates":[[147847.646,165889.202],[147847.961,165894.112],[147850.92,166000],[147854.58691451,166093.1604853],[147855.37960241,166097.62647729],[147857.11980651,166100.47333751],[147867.68371478,166104.77642101]]},"geometry_name":"GEOM","properties":{"INSPIRE_ID":"https://databrussels.be/id/streetaxe/74919","TYPE":"S","HIERARCHY":"DR","LVL":0,"STARTSN_ID":"https://databrussels.be/id/streetnode/4012","ENDSN_ID":"https://databrussels.be/id/streetnode/2481","STRNAMEFRE":"Rue Verhulst","STRNAMEDUT":"Verhulststraat","SLOPE":1.41,"LENGTH":223.361148164416},"bbox":[147847.646,165889.202,147867.68371478,166104.77642101]},{"type":"Feature","id":"StreetAxes.fid-1cd8d64c_1a02986fdc4_7686","geometry":{"type":"LineString","coordinates":[[147749.63,166325.265],[147758.758,166325.422],[147764.951,166313.368],[147775.117,166293.583],[147822.612224,166201.18186967]]},"geometry_name":"GEOM","properties":{"INSPIRE_ID":"https://databrussels.be/id/streetaxe/75950","TYPE":"S","HIERARCHY":"DC","LVL":0,"STARTSN_ID":"https://databrussels.be/id/streetnode/2909","ENDSN_ID":"https://databrussels.be/id/streetnode/2003","STRNAMEFRE":"Rue du Doyenné","STRNAMEDUT":"Dekenijstraat","SLOPE":3.23,"LENGTH":148.818190041842},"bbox":[147749.63,166201.18186967,147822.612224,166325.422]},{"type":"Feature","id":"StreetAxes.fid-1cd8d64c_1a02986fdc4_7688","geometry":{"type":"LineString","coordinates":[[147947.802,166300.779],[147944.054,166307.222],[147939.214,166318.25],[147926.404,166345.025],[147918.68,166356.005],[147915.55,166358.045],[147908.45,166360.555],[147902.51,166361.58],[147894.79,166361.605],[147885.2,166359.56],[147878.73,166356.415],[147871.285,166351.04],[147867.43,166345.81],[147866.31,166339.278],[147867.72,166332.89],[147900.225,166273.77],[147905.398,166265.91],[147912.239,166259.105],[147917.98667725,166254.85263981]]},"geometry_name":"GEOM","properties":{"INSPIRE_ID":"https://databrussels.be/id/streetaxe/75951","TYPE":"S","HIERARCHY":null,"LVL":0,"STARTSN_ID":"https://databrussels.be/id/streetnode/378","ENDSN_ID":"https://databrussels.be/id/streetnode/2004","STRNAMEFRE":"Square Coghen","STRNAMEDUT":"Coghensquare","SLOPE":4.28,"LENGTH":227.141406046925},"bbox":[147866.31,166254.85263981,147947.802,166361.605]},{"type":"Feature","id":"StreetAxes.fid-1cd8d64c_1a02986fdc4_767d","geometry":{"type":"LineString","coordinates":[[147598.787,166121.775],[147590.85,166123.852],[147546.54,166135.502],[147495.108,166146.116],[147487.855,166147.763]]},"geometry_name":"GEOM","properties":{"INSPIRE_ID":"https://databrussels.be/id/streetaxe/76345","TYPE":"S","HIERARCHY":"DR","LVL":0,"STARTSN_ID":"https://databrussels.be/id/streetnode/1465","ENDSN_ID":"https://databrussels.be/id/streetnode/13223","STRNAMEFRE":"Rue Alphonse Asselbergs","STRNAMEDUT":"Alphonse Asselbergsstraat","SLOPE":5.44,"LENGTH":113.973614951608},"bbox":[147487.855,166121.775,147598.787,166147.763]},{"type":"Feature","id":"StreetAxes.fid-1cd8d64c_1a02986fdc4_767f","geometry":{"type":"LineString","coordinates":[[147372.48021029,166481.38575058],[147377.56651744,166479.88703811],[147385.16430147,166479.60252735],[147392.012,166481.512],[147509.748,166535.133],[147522.65,166541]]},"geometry_name":"GEOM","properties":{"INSPIRE_ID":"https://databrussels.be/id/streetaxe/77001","TYPE":"S","HIERARCHY":"DC","LVL":0,"STARTSN_ID":"https://databrussels.be/id/streetnode/9712","ENDSN_ID":"https://databrussels.be/id/streetnode/14658","STRNAMEFRE":"Rue Roosendael","STRNAMEDUT":"Roosendaelstraat","SLOPE":1.41,"LENGTH":163.559366592769},"bbox":[147372.48021029,166479.60252735,147522.65,166541]},{"type":"Feature","id":"StreetAxes.fid-1cd8d64c_1a02986fdc4_7687","geometry":{"type":"LineString","coordinates":[[147917.98667725,166254.85263981],[147931.93376233,166245.41107029],[147940.7385808,166242.08049848],[147948.90881776,166242.08049848],[147955.22063743,166243.66648505],[147959.52672626,166247.24628332],[147961.38514354,166253.99805474],[147954.76736493,166268.99695635],[147950.00800359,166282.77238261],[147948.37622256,166289.34289842],[147947.802,166300.779]]},"geometry_name":"GEOM","properties":{"INSPIRE_ID":"https://databrussels.be/id/streetaxe/80089","TYPE":"S","HIERARCHY":null,"LVL":0,"STARTSN_ID":"https://databrussels.be/id/streetnode/2004","ENDSN_ID":"https://databrussels.be/id/streetnode/378","STRNAMEFRE":"Square Coghen","STRNAMEDUT":"Coghensquare","SLOPE":9.46,"LENGTH":102.725931268644},"bbox":[147917.98667725,166242.08049848,147961.38514354,166300.779]},{"type":"Feature","id":"StreetAxes.fid-1cd8d64c_1a02986fdc4_7683","geometry":{"type":"LineString","coordinates":[[147867.68371478,166104.77642101],[147852.97756044,166138.22579701],[147822.612224,166201.18186967]]},"geometry_name":"GEOM","properties":{"INSPIRE_ID":"https://databrussels.be/id/streetaxe/82048","TYPE":"S","HIERARCHY":"DC","LVL":0,"STARTSN_ID":"https://databrussels.be/id/streetnode/2481","ENDSN_ID":"https://databrussels.be/id/streetnode/2003","STRNAMEFRE":"Rue du Doyenné","STRNAMEDUT":"Dekenijstraat","SLOPE":2.39,"LENGTH":106.435954649414},"bbox":[147822.612224,166104.77642101,147867.68371478,166201.18186967]},{"type":"Feature","id":"StreetAxes.fid-1cd8d64c_1a02986fdc4_7692","geometry":{"type":"LineString","coordinates":[[147959.715,166450.601],[147971.335,166453.67],[148077.59,166479.75],[148157.21,166499.846],[148166.87801635,166502.20285432]]},"geometry_name":"GEOM","properties":{"INSPIRE_ID":"https://databrussels.be/id/streetaxe/82615","TYPE":"S","HIERARCHY":"DR","LVL":0,"STARTSN_ID":"https://databrussels.be/id/streetnode/12078","ENDSN_ID":"https://databrussels.be/id/streetnode/8370","STRNAMEFRE":"Avenue de Floréal","STRNAMEDUT":"Floréallaan","SLOPE":5.2,"LENGTH":213.495374486515},"bbox":[147959.715,166450.601,148166.87801635,166502.20285432]},{"type":"Feature","id":"StreetAxes.fid-1cd8d64c_1a02986fdc4_7680","geometry":{"type":"LineString","coordinates":[[148116.29400388,165999.22207187],[148105.195,166014.924],[148085.804,166054.173],[148066.085,166099.525],[148060.405,166113.735],[148050.34,166140.7],[148036.57,166182.245],[148024.485,166221.695],[147997.386,166310.58],[147995.773,166315.71]]},"geometry_name":"GEOM","properties":{"INSPIRE_ID":"https://databrussels.be/id/streetaxe/83000","TYPE":"S","HIERARCHY":"IDR","LVL":0,"STARTSN_ID":"https://databrussels.be/id/streetnode/6775","ENDSN_ID":"https://databrussels.be/id/streetnode/510","STRNAMEFRE":"Avenue Coghen","STRNAMEDUT":"Coghenlaan","SLOPE":3.27,"LENGTH":339.874048999259},"bbox":[147995.773,165999.22207187,148116.29400388,166315.71]},{"type":"Feature","id":"StreetAxes.fid-1cd8d64c_1a02986fdc4_7681","geometry":{"type":"LineString","coordinates":[[147749.63,166325.265],[147749.16,166310.987],[147744.525,166194.182],[147741.676,166090.966],[147741.511,166083.616]]},"geometry_name":"GEOM","properties":{"INSPIRE_ID":"https://databrussels.be/id/streetaxe/89668","TYPE":"SC","HIERARCHY":"IDR","LVL":0,"STARTSN_ID":"https://databrussels.be/id/streetnode/2909","ENDSN_ID":"https://databrussels.be/id/streetnode/3784","STRNAMEFRE":"Chaussée d'Alsemberg","STRNAMEDUT":"Alsembergsesteenweg","SLOPE":2.29,"LENGTH":241.789823145028},"bbox":[147741.511,166083.616,147749.63,166325.265]},{"type":"Feature","id":"StreetAxes.fid-1cd8d64c_1a02986fdc4_7695","geometry":{"type":"LineString","coordinates":[[147741.511,166083.616],[147741.346,166076.267],[147736.687,165901.176],[147736.419,165892.805]]},"geometry_name":"GEOM","properties":{"INSPIRE_ID":"https://databrussels.be/id/streetaxe/89669","TYPE":"SC","HIERARCHY":"IDR","LVL":0,"STARTSN_ID":"https://databrussels.be/id/streetnode/3784","ENDSN_ID":"https://databrussels.be/id/streetnode/2404","STRNAMEFRE":"Chaussée d'Alsemberg","STRNAMEDUT":"Alsembergsesteenweg","SLOPE":2.59,"LENGTH":190.879115754646},"bbox":[147736.419,165892.805,147741.511,166083.616]},{"type":"Feature","id":"StreetAxes.fid-1cd8d64c_1a02986fdc4_768b","geometry":{"type":"LineString","coordinates":[[147752.046,166378.446],[147751.613,166370.489],[147750.1,166339.543],[147749.63,166325.265]]},"geometry_name":"GEOM","properties":{"INSPIRE_ID":"https://databrussels.be/id/streetaxe/89707","TYPE":"SC","HIERARCHY":"IDR","LVL":0,"STARTSN_ID":"https://databrussels.be/id/streetnode/4122","ENDSN_ID":"https://databrussels.be/id/streetnode/2909","STRNAMEFRE":"Chaussée d'Alsemberg","STRNAMEDUT":"Alsembergsesteenweg","SLOPE":2.55,"LENGTH":53.2374706933129},"bbox":[147749.63,166325.265,147752.046,166378.446]},{"type":"Feature","id":"StreetAxes.fid-1cd8d64c_1a02986fdc4_768f","geometry":{"type":"LineString","coordinates":[[147754.4,166405.674],[147753.257,166395.72],[147752.478,166386.402],[147752.046,166378.446]]},"geometry_name":"GEOM","properties":{"INSPIRE_ID":"https://databrussels.be/id/streetaxe/89708","TYPE":"SC","HIERARCHY":"IDR","LVL":0,"STARTSN_ID":"https://databrussels.be/id/streetnode/3552","ENDSN_ID":"https://databrussels.be/id/streetnode/4122","STRNAMEFRE":"Chaussée d'Alsemberg","STRNAMEDUT":"Alsembergsesteenweg","SLOPE":2.85,"LENGTH":27.337635424362},"bbox":[147752.046,166378.446,147754.4,166405.674]},{"type":"Feature","id":"StreetAxes.fid-1cd8d64c_1a02986fdc4_768e","geometry":{"type":"LineString","coordinates":[[147696.13,166428.62],[147707.08,166391.57],[147712.591,166373.726],[147714.66664866,166368.27419619]]},"geometry_name":"GEOM","properties":{"INSPIRE_ID":"https://databrussels.be/id/streetaxe/94866","TYPE":"S","HIERARCHY":"DR","LVL":0,"STARTSN_ID":"https://databrussels.be/id/streetnode/4222","ENDSN_ID":"https://databrussels.be/id/streetnode/4225","STRNAMEFRE":"Carré Tillens","STRNAMEDUT":"Tillensblok","SLOPE":0.65,"LENGTH":63.1434496593581},"bbox":[147696.13,166368.27419619,147714.66664866,166428.62]},{"type":"Feature","id":"StreetAxes.fid-1cd8d64c_1a02986fdc4_7685","geometry":{"type":"LineString","coordinates":[[147917.98667725,166254.85263981],[147911.66398236,166247.55144413],[147899.16476168,166241.68838006],[147880.25219755,166231.72627184],[147822.612224,166201.18186967]]},"geometry_name":"GEOM","properties":{"INSPIRE_ID":"https://databrussels.be/id/streetaxe/95051","TYPE":"S","HIERARCHY":"DR","LVL":0,"STARTSN_ID":"https://databrussels.be/id/streetnode/2004","ENDSN_ID":"https://databrussels.be/id/streetnode/2003","STRNAMEFRE":"Square Coghen","STRNAMEDUT":"Coghensquare","SLOPE":0.18,"LENGTH":110.073133237985},"bbox":[147822.612224,166201.18186967,147917.98667725,166254.85263981]},{"type":"Feature","id":"StreetAxes.fid-1cd8d64c_1a02986fdc4_7691","geometry":{"type":"LineString","coordinates":[[147781.182,166557.735],[147774.054,166526.334],[147769.01,166503.336],[147762.83,166471.323],[147761.482,166462.873],[147755.544,166415.627],[147754.4,166405.674]]},"geometry_name":"GEOM","properties":{"INSPIRE_ID":"https://databrussels.be/id/streetaxe/98773","TYPE":"SC","HIERARCHY":"IDR","LVL":0,"STARTSN_ID":"https://databrussels.be/id/streetnode/","ENDSN_ID":"https://databrussels.be/id/streetnode/","STRNAMEFRE":"Chaussée d'Alsemberg","STRNAMEDUT":"Alsembergsesteenweg","SLOPE":4.15,"LENGTH":154.541622955109},"bbox":[147754.4,166405.674,147781.182,166557.735]}],"numberReturned":27,"grand_bruxelles_source":{"authority":"Paradigm / Brussels-Capital Region","service":"https://geoservices-urbis.irisnet.be/geoserver/urbisvector/wfs","layer":"urbisvector:StreetAxes","crs":"EPSG:31370","bbox":[147500.0,166000.0,148000.0,166500.0],"cell_id":"bxl-e147500-n166000-s500","ownership":"bbox_intersection_source_unclipped"}}
