{"type":"FeatureCollection","totalFeatures":17,"numberMatched":17,"timeStamp":"2026-08-24T01:21:34.268Z","crs":{"type":"name","properties":{"name":"urn:ogc:def:crs:EPSG::31370"}},"bbox":[151371.59821304,177278.14,151718.51,177688.467],"features":[{"type":"Feature","id":"Buildings.fid-13d79f14_1a031586a2a_-6e1e","geometry":{"type":"Polygon","coordinates":[[[151498.2946,177627.4493],[151494.3816,177630.3324],[151491.8905,177626.7638],[151495.7314,177623.8883],[151498.2946,177627.4493]]]},"geometry_name":"GEOM","properties":{"INSPIRE_ID":"https://databrussels.be/id/building/1787171","BLOCK_ID":"https://databrussels.be/id/block/30488","AREA":21},"bbox":[151491.8905,177623.8883,151498.2946,177630.3324]},{"type":"Feature","id":"Buildings.fid-13d79f14_1a031586a2a_-6e20","geometry":{"type":"Polygon","coordinates":[[[151455.2493,177590.7885],[151456.6218,177594.8492],[151452.1164,177596.4793],[151450.6569,177592.2923],[151455.2493,177590.7885]]]},"geometry_name":"GEOM","properties":{"INSPIRE_ID":"https://databrussels.be/id/building/1787172","BLOCK_ID":"https://databrussels.be/id/block/30488","AREA":21},"bbox":[151450.6569,177590.7885,151456.6218,177596.4793]},{"type":"Feature","id":"Buildings.fid-13d79f14_1a031586a2a_-6e18","geometry":{"type":"Polygon","coordinates":[[[151420.9308,177538.6906],[151417.4347,177539.9071],[151415.9225,177535.1948],[151419.3779,177534.0059],[151420.9308,177538.6906]]]},"geometry_name":"GEOM","properties":{"INSPIRE_ID":"https://databrussels.be/id/building/1787173","BLOCK_ID":"https://databrussels.be/id/block/30488","AREA":18},"bbox":[151415.9225,177534.0059,151420.9308,177539.9071]},{"type":"Feature","id":"Buildings.fid-13d79f14_1a031586a2a_-6e17","geometry":{"type":"Polygon","coordinates":[[[151414.9462,177540.7597],[151411.4394,177541.9663],[151409.8664,177537.2463],[151413.3399,177536.0841],[151414.9462,177540.7597]]]},"geometry_name":"GEOM","properties":{"INSPIRE_ID":"https://databrussels.be/id/building/1788338","BLOCK_ID":"https://databrussels.be/id/block/30488","AREA":18},"bbox":[151409.8664,177536.0841,151414.9462,177541.9663]},{"type":"Feature","id":"Buildings.fid-13d79f14_1a031586a2a_-6e15","geometry":{"type":"Polygon","coordinates":[[[151409.0678,177542.6585],[151405.4873,177543.8213],[151403.9794,177539.2167],[151407.5066,177538.0809],[151409.0678,177542.6585]]]},"geometry_name":"GEOM","properties":{"INSPIRE_ID":"https://databrussels.be/id/building/1788339","BLOCK_ID":"https://databrussels.be/id/block/30488","AREA":18},"bbox":[151403.9794,177538.0809,151409.0678,177543.8213]},{"type":"Feature","id":"Buildings.fid-13d79f14_1a031586a2a_-6e13","geometry":{"type":"Polygon","coordinates":[[[151397.9979,177546.4612],[151394.5599,177547.5786],[151393.0073,177542.9385],[151396.4274,177541.8212],[151397.9979,177546.4612]]]},"geometry_name":"GEOM","properties":{"INSPIRE_ID":"https://databrussels.be/id/building/1788340","BLOCK_ID":"https://databrussels.be/id/block/30488","AREA":18},"bbox":[151393.0073,177541.8212,151397.9979,177547.5786]},{"type":"Feature","id":"Buildings.fid-13d79f14_1a031586a2a_-6e12","geometry":{"type":"Polygon","coordinates":[[[151392.1381,177548.5027],[151388.5581,177549.7459],[151387.0142,177545.0789],[151390.5053,177543.8898],[151392.1381,177548.5027]]]},"geometry_name":"GEOM","properties":{"INSPIRE_ID":"https://databrussels.be/id/building/1788369","BLOCK_ID":"https://databrussels.be/id/block/30488","AREA":18},"bbox":[151387.0142,177543.8898,151392.1381,177549.7459]},{"type":"Feature","id":"Buildings.fid-13d79f14_1a031586a2a_-6e19","geometry":{"type":"Polygon","coordinates":[[[151427.3458,177522.8172],[151423.1112,177524.4682],[151421.0857,177518.5157],[151425.3212,177517.0236],[151427.3458,177522.8172]]]},"geometry_name":"GEOM","properties":{"INSPIRE_ID":"https://databrussels.be/id/building/1788370","BLOCK_ID":"https://databrussels.be/id/block/30488","AREA":28},"bbox":[151421.0857,177517.0236,151427.3458,177524.4682]},{"type":"Feature","id":"Buildings.fid-13d79f14_1a031586a2a_-6e22","geometry":{"type":"Polygon","coordinates":[[[151422.0721,177563.7928],[151422.64,177565.4242],[151416.9707,177567.461],[151416.3755,177565.7227],[151422.0721,177563.7928]]]},"geometry_name":"GEOM","properties":{"INSPIRE_ID":"https://databrussels.be/id/building/1788372","BLOCK_ID":"https://databrussels.be/id/block/30488","AREA":11},"bbox":[151416.3755,177563.7928,151422.64,177567.461]},{"type":"Feature","id":"Buildings.fid-13d79f14_1a031586a2a_-6e1c","geometry":{"type":"Polygon","coordinates":[[[151480.759,177640.239],[151487.558,177649.44],[151482.372,177653.272],[151481.41,177651.97],[151471.193,177659.52],[151469.724,177657.533],[151467.688,177659.038],[151470.149,177662.37],[151463.698,177667.136],[151464.672,177668.454],[151460.885,177671.252],[151454.002,177661.936],[151464.13,177654.452],[151464.63,177655.128],[151467.06,177653.333],[151465.639,177651.411],[151480.759,177640.239]]]},"geometry_name":"GEOM","properties":{"INSPIRE_ID":"https://databrussels.be/id/building/1791097","BLOCK_ID":"https://databrussels.be/id/block/30488","AREA":344},"bbox":[151454.002,177640.239,151487.558,177671.252]},{"type":"Feature","id":"Buildings.fid-13d79f14_1a031586a2a_-6e1f","geometry":{"type":"Polygon","coordinates":[[[151438.5623,177626.2946],[151445.3761,177621.5447],[151454.0623,177633.027],[151441.5091,177642.4426],[151441.2653,177647.6238],[151426.8062,177628.1802],[151423.1996,177623.0407],[151433.5783,177619.5798],[151438.5623,177626.2946]]]},"geometry_name":"GEOM","properties":{"INSPIRE_ID":"https://databrussels.be/id/building/1805948","BLOCK_ID":"https://databrussels.be/id/block/30488","AREA":390},"bbox":[151423.1996,177619.5798,151454.0623,177647.6238]},{"type":"Feature","id":"Buildings.fid-13d79f14_1a031586a2a_-6e16","geometry":{"type":"Polygon","coordinates":[[[151438.226,177536.345],[151443.227,177551.046],[151444.779,177550.518],[151449.773,177565.197],[151440.419,177568.379],[151437.96,177561.15],[151436.189,177561.752],[151433.703,177554.445],[151432.007,177555.022],[151426.958,177540.178],[151438.226,177536.345]]]},"geometry_name":"GEOM","properties":{"INSPIRE_ID":"https://databrussels.be/id/building/1808263","BLOCK_ID":"https://databrussels.be/id/block/30488","AREA":353},"bbox":[151426.958,177536.345,151449.773,177568.379]},{"type":"Feature","id":"Buildings.fid-13d79f14_1a031586a2a_-6e14","geometry":{"type":"Polygon","coordinates":[[[151422.037,177541.302],[151425.766,177552.317],[151419.68,177554.377],[151419.135,177552.767],[151407.148,177556.824],[151405.899,177553.133],[151403.447,177553.963],[151404.045,177555.73],[151396.454,177558.3],[151397.05,177560.062],[151392.514,177561.597],[151388.829,177550.712],[151400.939,177546.613],[151401.999,177549.746],[151404.375,177548.941],[151403.871,177547.451],[151422.037,177541.302]]]},"geometry_name":"GEOM","properties":{"INSPIRE_ID":"https://databrussels.be/id/building/1809481","BLOCK_ID":"https://databrussels.be/id/block/30488","AREA":344},"bbox":[151388.829,177541.302,151425.766,177561.597]},{"type":"Feature","id":"Buildings.fid-13d79f14_1a031586a2a_-6e1a","geometry":{"type":"Polygon","coordinates":[[[151418.47778305,177514.13624059],[151409.8642753,177516.97019293],[151410.270393,177518.20454604],[151401.88158546,177520.9645692],[151402.30470686,177522.25060335],[151388.80846373,177526.69103703],[151389.28013197,177528.12462432],[151375.49477458,177532.66018022],[151371.59821304,177520.81698167],[151384.95738933,177516.42164471],[151384.33726101,177514.74285956],[151407.85087705,177507.15204312],[151408.03151071,177507.70106061],[151415.54698346,177505.22837558],[151418.47778305,177514.13624059]]]},"geometry_name":"GEOM","properties":{"INSPIRE_ID":"https://databrussels.be/id/building/1809493","BLOCK_ID":"https://databrussels.be/id/block/30488","AREA":548},"bbox":[151371.59821304,177505.22837558,151418.47778305,177532.66018022]},{"type":"Feature","id":"Buildings.fid-13d79f14_1a031586a2a_-6e21","geometry":{"type":"Polygon","coordinates":[[[151452.6382,177578.177],[151454.59753269,177583.84895065],[151445.70425528,177586.92110176],[151446.05670954,177587.94138799],[151438.09762997,177590.69082377],[151438.48936839,177591.82482998],[151424.78416675,177596.55924322],[151425.28670666,177598.0139981],[151411.34587278,177602.82980967],[151407.21642962,177590.87588228],[151421.01049792,177586.11077036],[151420.62212557,177584.74434171],[151443.93925656,177576.88316913],[151444.28175787,177577.87464352],[151445.7045,177577.3832],[151451.654,177575.3279],[151452.6382,177578.177]]]},"geometry_name":"GEOM","properties":{"INSPIRE_ID":"https://databrussels.be/id/building/1809495","BLOCK_ID":"https://databrussels.be/id/block/30488","AREA":548},"bbox":[151407.21642962,177575.3279,151454.59753269,177602.82980967]}],"numberReturned":15,"grand_bruxelles_source":{"authority":"Paradigm / Brussels-Capital Region","service":"https://geoservices-urbis.irisnet.be/geoserver/urbisvector/wfs","layer":"urbisvector:Buildings","crs":"EPSG:31370","bbox":[151000.0,177500.0,151500.0,178000.0],"cell_id":"bxl-e151000-n177500-s500","ownership":"polygon_or_multipolygon_centroid_global_500m_cell"}}
