{"type":"FeatureCollection","totalFeatures":86,"numberMatched":86,"timeStamp":"2026-08-24T01:23:22.375Z","crs":{"type":"name","properties":{"name":"urn:ogc:def:crs:EPSG::31370"}},"bbox":[150566.984,166485.316,151071.46,167040.668],"features":[{"type":"Feature","id":"Buildings.fid--63af041f_1a031467014_-11bd","geometry":{"type":"Polygon","coordinates":[[[150833.77999972,166654.60000031],[150835.868,166656.969],[150834.094,166658.643],[150831.95,166656.318],[150833.77999972,166654.60000031]]]},"geometry_name":"GEOM","properties":{"INSPIRE_ID":"https://databrussels.be/id/building/1652676","BLOCK_ID":"https://databrussels.be/id/block/27856","AREA":8},"bbox":[150831.95,166654.60000031,150835.868,166658.643]},{"type":"Feature","id":"Buildings.fid--63af041f_1a031467014_-11c3","geometry":{"type":"Polygon","coordinates":[[[150764.422,166687.787],[150766.927,166685.159],[150769.534,166687.643],[150767.029,166690.272],[150764.422,166687.787]]]},"geometry_name":"GEOM","properties":{"INSPIRE_ID":"https://databrussels.be/id/building/1652677","BLOCK_ID":"https://databrussels.be/id/block/27856","AREA":13},"bbox":[150764.422,166685.159,150769.534,166690.272]},{"type":"Feature","id":"Buildings.fid--63af041f_1a031467014_-11bb","geometry":{"type":"Polygon","coordinates":[[[150840.387,166701.151],[150842.946,166704.33],[150839.736,166706.913],[150837.178,166703.734],[150840.387,166701.151]]]},"geometry_name":"GEOM","properties":{"INSPIRE_ID":"https://databrussels.be/id/building/1652678","BLOCK_ID":"https://databrussels.be/id/block/27856","AREA":17},"bbox":[150837.178,166701.151,150842.946,166706.913]},{"type":"Feature","id":"Buildings.fid--63af041f_1a031467014_-11a4","geometry":{"type":"Polygon","coordinates":[[[150920.066,166500.82],[150918.903,166502.942],[150914.913,166500.755],[150916.076,166498.633],[150920.066,166500.82]]]},"geometry_name":"GEOM","properties":{"INSPIRE_ID":"https://databrussels.be/id/building/1652679","BLOCK_ID":"https://databrussels.be/id/block/27856","AREA":11},"bbox":[150914.913,166498.633,150920.066,166502.942]},{"type":"Feature","id":"Buildings.fid--63af041f_1a031467014_-11ba","geometry":{"type":"Polygon","coordinates":[[[150860.23,166683.65],[150870.993,166696.614],[150871.28,166696.96],[150864.62,166702.9],[150853.08,166689.68],[150857.17,166686.05],[150855.63,166684.31],[150858.24,166681.99],[150858.53,166681.74],[150860.23,166683.65]]]},"geometry_name":"GEOM","properties":{"INSPIRE_ID":"https://databrussels.be/id/building/1731044","BLOCK_ID":"https://databrussels.be/id/block/27856","AREA":169},"bbox":[150853.08,166681.74,150871.28,166702.9]},{"type":"Feature","id":"Buildings.fid--63af041f_1a031467014_-11b9","geometry":{"type":"Polygon","coordinates":[[[150860.23,166683.65],[150868.651,166676.178],[150880.153,166688.913],[150873.539,166694.812],[150873.306,166694.55],[150870.993,166696.614],[150860.23,166683.65]]]},"geometry_name":"GEOM","properties":{"INSPIRE_ID":"https://databrussels.be/id/building/1731045","BLOCK_ID":"https://databrussels.be/id/block/27856","AREA":198},"bbox":[150860.23,166676.178,150880.153,166696.614]},{"type":"Feature","id":"Buildings.fid--63af041f_1a031467014_-11b8","geometry":{"type":"Polygon","coordinates":[[[150863.62,166594.328],[150866.335,166591.413],[150864.411,166589.581],[150871.277,166582.233],[150873.24,166583.998],[150880.248,166590.527],[150884.967,166585.528],[150888.759,166589.127],[150883.92,166594.19],[150882.59,166595.62],[150883.01,166596.01],[150874.908,166604.73],[150863.62,166594.328]]]},"geometry_name":"GEOM","properties":{"INSPIRE_ID":"https://databrussels.be/id/building/1731046","BLOCK_ID":"https://databrussels.be/id/block/27856","AREA":277},"bbox":[150863.62,166582.233,150888.759,166604.73]},{"type":"Feature","id":"Buildings.fid--63af041f_1a031467014_-11ac","geometry":{"type":"Polygon","coordinates":[[[150948.746,166596.592],[150947.569,166595.717],[150951.611,166590.682],[150952.674,166591.625],[150961.897,166598.947],[150960.985,166600.082],[150962.184,166600.921],[150958.753,166605.142],[150957.921,166604.49],[150954.478,166608.808],[150955.388,166609.528],[150952.023,166613.748],[150950.879,166612.83],[150949.988,166613.801],[150939.296,166605.255],[150943.51,166599.93],[150945.11,166601.19],[150948.746,166596.592]]]},"geometry_name":"GEOM","properties":{"INSPIRE_ID":"https://databrussels.be/id/building/1731048","BLOCK_ID":"https://databrussels.be/id/block/27856","AREA":264},"bbox":[150939.296,166590.682,150962.184,166613.801]},{"type":"Feature","id":"Buildings.fid--63af041f_1a031467014_-11ea","geometry":{"type":"Polygon","coordinates":[[[150710.24,166821.986],[150725.27,166835.065],[150715.997,166845.44],[150710.888,166841.106],[150710.273,166841.831],[150705.545,166837.82],[150706.16,166837.096],[150700.884,166832.621],[150710.24,166821.986]]]},"geometry_name":"GEOM","properties":{"INSPIRE_ID":"https://databrussels.be/id/building/1731052","BLOCK_ID":"https://databrussels.be/id/block/27856","AREA":285},"bbox":[150700.884,166821.986,150725.27,166845.44]},{"type":"Feature","id":"Buildings.fid--63af041f_1a031467014_-11c0","geometry":{"type":"Polygon","coordinates":[[[150788.301,166640.878],[150793.474,166636.432],[150798.856,166642.623],[150809.086,166633.702],[150811.994,166637.018],[150813.451,166635.942],[150813.715,166636.246],[150813.832,166636.149],[150819.376,166642.548],[150819.24,166642.66],[150819.43,166642.91],[150808.25,166652.63],[150803.68,166647.37],[150802.56,166648.26],[150800.9,166646.36],[150796.155,166650.154],[150788.301,166640.878]]]},"geometry_name":"GEOM","properties":{"INSPIRE_ID":"https://databrussels.be/id/building/1731053","BLOCK_ID":"https://databrussels.be/id/block/27856","AREA":288},"bbox":[150788.301,166633.702,150819.43,166652.63]},{"type":"Feature","id":"Buildings.fid--63af041f_1a031467014_-11c4","geometry":{"type":"Polygon","coordinates":[[[150752.664,166671.925],[150757.835,166667.472],[150765.941,166676.774],[150760.779,166681.236],[150752.664,166671.925]]]},"geometry_name":"GEOM","properties":{"INSPIRE_ID":"https://databrussels.be/id/building/1733748","BLOCK_ID":"https://databrussels.be/id/block/27856","AREA":84},"bbox":[150752.664,166667.472,150765.941,166681.236]},{"type":"Feature","id":"Buildings.fid--63af041f_1a031467014_-11c5","geometry":{"type":"Polygon","coordinates":[[[150733.451,166696.939],[150740.412,166689.467],[150746.151,166694.986],[150746.779,166695.725],[150739.68,166702.936],[150733.451,166696.939]]]},"geometry_name":"GEOM","properties":{"INSPIRE_ID":"https://databrussels.be/id/building/1733750","BLOCK_ID":"https://databrussels.be/id/block/27856","AREA":90},"bbox":[150733.451,166689.467,150746.779,166702.936]},{"type":"Feature","id":"Buildings.fid--63af041f_1a031467014_-11bf","geometry":{"type":"Polygon","coordinates":[[[150816.925,166736.006],[150812.877,166730.883],[150808.913,166725.866],[150813.88,166721.92],[150813.44,166721.37],[150822.27,166714.36],[150822.08,166714.12],[150826,166711.01],[150826.13,166711.17],[150834.667,166704.389],[150847.206,166719.86],[150826.258,166736.66],[150822.239,166731.761],[150816.925,166736.006]]]},"geometry_name":"GEOM","properties":{"INSPIRE_ID":"https://databrussels.be/id/building/1733776","BLOCK_ID":"https://databrussels.be/id/block/27856","AREA":624},"bbox":[150808.913,166704.389,150847.206,166736.66]},{"type":"Feature","id":"Buildings.fid--63af041f_1a031467014_-11ab","geometry":{"type":"Polygon","coordinates":[[[150963.81,166693.13],[150969.75,166698.96],[150962.48,166706.33],[150963.03,166709.07],[150975.78,166715.26],[150972.18,166722.83],[150967.44,166720.52],[150966.787,166721.861],[150957.18,166717.429],[150957.319,166717.128],[150956.91,166716.94],[150956.77,166717.24],[150955.96,166716.86],[150955.15,166716.47],[150954.52,166715.93],[150954.29,166715.48],[150954.13,166714.99],[150953.96,166714.49],[150952.72,166714.71],[150952.57,166713.86],[150950.12,166714.29],[150948.67,166706],[150951.02,166705.59],[150950.87,166704.74],[150959.41,166695.94],[150960.27,166696.77],[150963.81,166693.13]]]},"geometry_name":"GEOM","properties":{"INSPIRE_ID":"https://databrussels.be/id/building/1735355","BLOCK_ID":"https://databrussels.be/id/block/30997","AREA":385},"bbox":[150948.67,166693.13,150975.78,166722.83]},{"type":"Feature","id":"Buildings.fid--63af041f_1a031467014_-11e2","geometry":{"type":"Polygon","coordinates":[[[150762.2,166887.72],[150760.94,166887.11],[150761.97,166885.08],[150763.15,166885.63],[150762.2,166887.72]]]},"geometry_name":"GEOM","properties":{"INSPIRE_ID":"https://databrussels.be/id/building/1735372","BLOCK_ID":null,"AREA":3},"bbox":[150760.94,166885.08,150763.15,166887.72]},{"type":"Feature","id":"Buildings.fid--63af041f_1a031467014_-11a0","geometry":{"type":"Polygon","coordinates":[[[150592.667,166527.809],[150582.356,166516.961],[150586.794,166512.629],[150597.157,166523.541],[150592.667,166527.809]]]},"geometry_name":"GEOM","properties":{"INSPIRE_ID":"https://databrussels.be/id/building/1740584","BLOCK_ID":"https://databrussels.be/id/block/24963","AREA":93},"bbox":[150582.356,166512.629,150597.157,166527.809]},{"type":"Feature","id":"Buildings.fid--63af041f_1a031467014_-11a1","geometry":{"type":"Polygon","coordinates":[[[150581.139,166541.276],[150566.984,166525.972],[150575.277,166517.907],[150589.626,166533.413],[150581.139,166541.276]]]},"geometry_name":"GEOM","properties":{"INSPIRE_ID":"https://databrussels.be/id/building/1740585","BLOCK_ID":"https://databrussels.be/id/block/24963","AREA":243},"bbox":[150566.984,166517.907,150589.626,166541.276]},{"type":"Feature","id":"Buildings.fid--63af041f_1a031467014_-11d2","geometry":{"type":"Polygon","coordinates":[[[150905.87000011,166790.48999996],[150909.38,166783.44],[150912.72,166785.07],[150910.17,166790.45],[150911.18,166790.92],[150911.54,166791.86],[150911.01,166792.99],[150905.87000011,166790.48999996]]]},"geometry_name":"GEOM","properties":{"INSPIRE_ID":"https://databrussels.be/id/building/1740803","BLOCK_ID":"https://databrussels.be/id/block/24253","AREA":33},"bbox":[150905.87000011,166783.44,150912.72,166792.99]},{"type":"Feature","id":"Buildings.fid--63af041f_1a031467014_-11d8","geometry":{"type":"Polygon","coordinates":[[[150855.48,166846.59],[150858.82,166839.56],[150863.07,166841.66],[150859.54,166848.56],[150855.48,166846.59]]]},"geometry_name":"GEOM","properties":{"INSPIRE_ID":"https://databrussels.be/id/building/1740804","BLOCK_ID":"https://databrussels.be/id/block/24253","AREA":36},"bbox":[150855.48,166839.56,150863.07,166848.56]},{"type":"Feature","id":"Buildings.fid--63af041f_1a031467014_-11d5","geometry":{"type":"Polygon","coordinates":[[[150877.21,166857.12],[150910.01,166872.93],[150902.57,166887.9],[150870.4,166872.38],[150870.06,166872.22],[150877.21,166857.12]]]},"geometry_name":"GEOM","properties":{"INSPIRE_ID":"https://databrussels.be/id/building/1743556","BLOCK_ID":"https://databrussels.be/id/block/24253","AREA":606},"bbox":[150870.06,166857.12,150910.01,166887.9]},{"type":"Feature","id":"Buildings.fid--63af041f_1a031467014_-11dc","geometry":{"type":"Polygon","coordinates":[[[150841.95,166912.92],[150852.68,166909.16],[150869.08,166903.43],[150886.12,166897.47],[150904.75,166890.95],[150904.22,166892.06],[150903.23,166892.4],[150902.92,166893.06],[150903.53,166893.36],[150885.01,166931.7],[150884.44,166931.43],[150884.24,166931.7],[150883.69,166931.27],[150883.27,166932.14],[150882.98,166932],[150882.7,166932.59],[150844.27,166914.03],[150843.96,166913.12],[150843.04,166913.44],[150841.95,166912.92]]]},"geometry_name":"GEOM","properties":{"INSPIRE_ID":"https://databrussels.be/id/building/1743557","BLOCK_ID":"https://databrussels.be/id/block/24253","AREA":1100},"bbox":[150841.95,166890.95,150904.75,166932.59]},{"type":"Feature","id":"Buildings.fid--63af041f_1a031467014_-11de","geometry":{"type":"Polygon","coordinates":[[[150822.09,166867.36],[150836.63,166837.43],[150855.48,166846.59],[150859.54,166848.56],[150869.83,166853.56],[150869.39,166854.49],[150869.82,166854.7],[150865.61,166863.37],[150864.82,166862.99],[150859.64,166873.84],[150860.34,166874.17],[150856.25,166882.75],[150855.77,166882.52],[150855.43,166883.25],[150822.09,166867.36]],[[150836.35,166860.8],[150836.76,166862.07],[150844.96,166865.98],[150846.12,166865.6],[150849.99,166857.48],[150849.52,166856.04],[150841.59,166852.26],[150840.2,166852.72],[150836.35,166860.8]]]},"geometry_name":"GEOM","properties":{"INSPIRE_ID":"https://databrussels.be/id/building/1744904","BLOCK_ID":"https://databrussels.be/id/block/24253","AREA":1111},"bbox":[150822.09,166837.43,150869.83,166883.25]},{"type":"Feature","id":"Buildings.fid--63af041f_1a031467014_-11ec","geometry":{"type":"Polygon","coordinates":[[[150670.022,166793.583],[150669.88,166793.536],[150671.966,166787.173],[150684.953,166791.373],[150682.97,166797.87],[150670.022,166793.583]]]},"geometry_name":"GEOM","properties":{"INSPIRE_ID":"https://databrussels.be/id/building/1747341","BLOCK_ID":"https://databrussels.be/id/block/27856","AREA":93},"bbox":[150669.88,166787.173,150684.953,166797.87]},{"type":"Feature","id":"Buildings.fid--63af041f_1a031467014_-11bc","geometry":{"type":"Polygon","coordinates":[[[150833.77999972,166654.60000031],[150840.304,166648.156],[150843.02,166651.55],[150841.35,166653.03],[150845.19,166657.38],[150844.14,166658.23],[150845.8,166659.91],[150844.94,166660.76],[150845.99,166661.95],[150842.93,166664.98],[150835.868,166656.969],[150833.77999972,166654.60000031]]]},"geometry_name":"GEOM","properties":{"INSPIRE_ID":"https://databrussels.be/id/building/1747343","BLOCK_ID":"https://databrussels.be/id/block/27856","AREA":96},"bbox":[150833.77999972,166648.156,150845.99,166664.98]},{"type":"Feature","id":"Buildings.fid--63af041f_1a031467014_-11f2","geometry":{"type":"Polygon","coordinates":[[[150641.592,166922.382],[150641.354,166922.231],[150643.034,166913.556],[150653.07,166915.47],[150655.167,166916.841],[150649.183,166926.815],[150641.592,166922.382]]]},"geometry_name":"GEOM","properties":{"INSPIRE_ID":"https://databrussels.be/id/building/1747345","BLOCK_ID":"https://databrussels.be/id/block/27856","AREA":113},"bbox":[150641.354,166913.556,150655.167,166926.815]},{"type":"Feature","id":"Buildings.fid--63af041f_1a031467014_-11be","geometry":{"type":"Polygon","coordinates":[[[150827.048,166617.041],[150833.354,166610.51],[150842.82,166619.289],[150842.72,166619.4],[150843.82,166620.41],[150840.16,166624.4],[150838.93,166623.28],[150835.862,166626.633],[150830.395,166621.621],[150831.219,166620.807],[150827.048,166617.041]]]},"geometry_name":"GEOM","properties":{"INSPIRE_ID":"https://databrussels.be/id/building/1747346","BLOCK_ID":"https://databrussels.be/id/block/27856","AREA":133},"bbox":[150827.048,166610.51,150843.82,166626.633]},{"type":"Feature","id":"Buildings.fid--63af041f_1a031467014_-11c7","geometry":{"type":"Polygon","coordinates":[[[150986.45,166729.77],[150991.86000202,166718.69999685],[150992.16000157,166718.07999698],[150993.023,166716.291],[150996.455,166718.027],[150996.89,166717.14],[150999.63,166718.48],[150998.69,166720.47],[150992.85000021,166732.8899997],[150986.45,166729.77]]]},"geometry_name":"GEOM","properties":{"INSPIRE_ID":"https://databrussels.be/id/building/1749994","BLOCK_ID":"https://databrussels.be/id/block/30997","AREA":108},"bbox":[150986.45,166716.291,150999.63,166732.8899997]},{"type":"Feature","id":"Buildings.fid--63af041f_1a031467014_-11c8","geometry":{"type":"Polygon","coordinates":[[[150979.38,166726.33],[150984.59000175,166715.41999727],[150988.49999697,166717.31000474],[150988.88999699,166716.50000514],[150992.16000157,166718.07999698],[150991.86000202,166718.69999685],[150986.45,166729.77],[150985.98,166729.55],[150985.26,166729.2],[150984.727,166730.244],[150979.816,166727.823],[150980.37,166726.821],[150979.65,166726.47],[150979.38,166726.33]]]},"geometry_name":"GEOM","properties":{"INSPIRE_ID":"https://databrussels.be/id/building/1749995","BLOCK_ID":"https://databrussels.be/id/block/30997","AREA":105},"bbox":[150979.38,166715.41999727,150992.16000157,166730.244]},{"type":"Feature","id":"Buildings.fid--63af041f_1a031467014_-11c9","geometry":{"type":"Polygon","coordinates":[[[150972.18,166722.83],[150975.78,166715.26],[150977.33,166711.99],[150979.33,166707.76],[150982.09,166707.7],[150980.83,166710.3],[150981.31,166710.53],[150985.89,166712.75],[150984.59000175,166715.41999727],[150979.38,166726.33],[150972.18,166722.83]]]},"geometry_name":"GEOM","properties":{"INSPIRE_ID":"https://databrussels.be/id/building/1749997","BLOCK_ID":"https://databrussels.be/id/block/30997","AREA":126},"bbox":[150972.18,166707.7,150985.89,166726.33]},{"type":"Feature","id":"Buildings.fid--63af041f_1a031467014_-11ee","geometry":{"type":"Polygon","coordinates":[[[150678.43,166886.47],[150667.086,166878.252],[150667.93,166877.2],[150667.72,166877.05],[150667.38,166874.94],[150668.64,166873.23],[150670.76,166873.03],[150670.9,166873.14],[150671.94,166871.56],[150672.887,166871.838],[150678.634,166863.565],[150679.037,166863.044],[150693.701,166875.019],[150687.276,166883.778],[150684.452,166881.768],[150681.654,166885.829],[150678.43,166886.47]]]},"geometry_name":"GEOM","properties":{"INSPIRE_ID":"https://databrussels.be/id/building/1750046","BLOCK_ID":"https://databrussels.be/id/block/27856","AREA":338},"bbox":[150667.086,166863.044,150693.701,166886.47]},{"type":"Feature","id":"Buildings.fid--63af041f_1a031467014_-11eb","geometry":{"type":"Polygon","coordinates":[[[150679.037,166863.044],[150685.661,166854.264],[150685.845,166854.253],[150690.251,166848.286],[150705.474,166859.851],[150693.701,166875.019],[150679.037,166863.044]]]},"geometry_name":"GEOM","properties":{"INSPIRE_ID":"https://databrussels.be/id/building/1750048","BLOCK_ID":"https://databrussels.be/id/block/27856","AREA":359},"bbox":[150679.037,166848.286,150705.474,166875.019]},{"type":"Feature","id":"Buildings.fid--63af041f_1a031467014_-11e1","geometry":{"type":"Polygon","coordinates":[[[150793.907,166754.493],[150791.809,166752.085],[150791.429,166752.415],[150783.732,166743.595],[150784.182,166743.195],[150781.96,166740.645],[150785.25,166737.83],[150783.03,166735.24],[150789.05,166730.08],[150791.24,166732.63],[150794.541,166729.796],[150798.694,166734.558],[150799.045,166734.248],[150804.842,166740.889],[150804.422,166741.248],[150806.395,166743.512],[150804.226,166745.412],[150806.095,166747.561],[150797.937,166754.675],[150796.096,166752.574],[150793.907,166754.493]]]},"geometry_name":"GEOM","properties":{"INSPIRE_ID":"https://databrussels.be/id/building/1750050","BLOCK_ID":"https://databrussels.be/id/block/27856","AREA":371},"bbox":[150781.96,166729.796,150806.395,166754.675]},{"type":"Feature","id":"Buildings.fid--63af041f_1a031467014_-11f1","geometry":{"type":"Polygon","coordinates":[[[150643.034,166913.556],[150643.091,166913.263],[150642.271,166913.103],[150643.368,166907.412],[150650.745,166908.843],[150656.046,166900.902],[150655.515,166900.301],[150655.227,166899.975],[150654.991,166899.63],[150654.896,166899.432],[150654.815,166899.215],[150654.755,166899.009],[150654.71,166898.645],[150654.72,166898.262],[150654.767,166897.876],[150654.843,166897.466],[150654.943,166897.083],[150655.099,166896.753],[150655.328,166896.437],[150655.615,166896.159],[150655.945,166895.911],[150656.283,166895.719],[150656.645,166895.566],[150657.008,166895.477],[150657.344,166895.451],[150657.692,166895.469],[150658.038,166895.516],[150658.242,166895.56],[150658.457,166895.628],[150658.907,166895.746],[150659.223,166895.241],[150673.028,166904.173],[150672.55,166904.935],[150672.959,166905.751],[150673.07,166906.657],[150672.872,166907.549],[150672.388,166908.322],[150671.672,166908.889],[150670.808,166909.184],[150669.895,166909.172],[150665.276,166916.546],[150665.827,166916.891],[150664.34,166919.264],[150663.789,166918.919],[150663.736,166919.004],[150656.646,166914.377],[150655.167,166916.841],[150653.07,166915.47],[150643.034,166913.556]]]},"geometry_name":"GEOM","properties":{"INSPIRE_ID":"https://databrussels.be/id/building/1750051","BLOCK_ID":"https://databrussels.be/id/block/27856","AREA":372},"bbox":[150642.271,166895.241,150673.07,166919.264]},{"type":"Feature","id":"Buildings.fid--63af041f_1a031467014_-11e5","geometry":{"type":"Polygon","coordinates":[[[150740.799,166807.734],[150727.128,166794.331],[150727.805,166793.684],[150722.458,166788.718],[150731.563,166779.328],[150736.326,166783.944],[150736.74,166783.51],[150751.001,166797.13],[150750.044,166797.989],[150754.794,166802.477],[150746.305,166811.157],[150741.856,166806.708],[150740.799,166807.734]]]},"geometry_name":"GEOM","properties":{"INSPIRE_ID":"https://databrussels.be/id/building/1750053","BLOCK_ID":"https://databrussels.be/id/block/27856","AREA":451},"bbox":[150722.458,166779.328,150754.794,166811.157]},{"type":"Feature","id":"Buildings.fid--63af041f_1a031467014_-11aa","geometry":{"type":"Polygon","coordinates":[[[150951.016,166541.784],[150955.007,166537.236],[150957.806,166539.656],[150953.85,166544.233],[150951.016,166541.784]]]},"geometry_name":"GEOM","properties":{"INSPIRE_ID":"https://databrussels.be/id/building/1751356","BLOCK_ID":"https://databrussels.be/id/block/27856","AREA":23},"bbox":[150951.016,166537.236,150957.806,166544.233]},{"type":"Feature","id":"Buildings.fid--63af041f_1a031467014_-11ad","geometry":{"type":"Polygon","coordinates":[[[150925.15,166562.16],[150927.56,166559.73],[150929.88,166557.41],[150933.75,166560.9],[150933.86,166561.14],[150933.973,166561.412],[150929.96,166566.53],[150925.15,166562.16]]]},"geometry_name":"GEOM","properties":{"INSPIRE_ID":"https://databrussels.be/id/building/1751357","BLOCK_ID":"https://databrussels.be/id/block/27856","AREA":41},"bbox":[150925.15,166557.41,150933.973,166566.53]},{"type":"Feature","id":"Buildings.fid--63af041f_1a031467014_-11b6","geometry":{"type":"Polygon","coordinates":[[[150870.25,166617.53],[150876.28,166611.36],[150881.88,166616.94],[150876.01,166623.27],[150870.25,166617.53]]]},"geometry_name":"GEOM","properties":{"INSPIRE_ID":"https://databrussels.be/id/building/1751359","BLOCK_ID":"https://databrussels.be/id/block/27856","AREA":69},"bbox":[150870.25,166611.36,150881.88,166623.27]},{"type":"Feature","id":"Buildings.fid--63af041f_1a031467014_-11ed","geometry":{"type":"Polygon","coordinates":[[[150668.117,166799.389],[150670.022,166793.583],[150682.97,166797.87],[150681.78,166801.74],[150679.38,166802.845],[150668.117,166799.389]]]},"geometry_name":"GEOM","properties":{"INSPIRE_ID":"https://databrussels.be/id/building/1751360","BLOCK_ID":"https://databrussels.be/id/block/27856","AREA":80},"bbox":[150668.117,166793.583,150682.97,166802.845]},{"type":"Feature","id":"Buildings.fid--63af041f_1a031467014_-11e3","geometry":{"type":"Polygon","coordinates":[[[150748.56,166927.11],[150758.18,166931.74],[150778.82,166941.7],[150818.7,166960.92],[150831.19,166966.95],[150839.37,166970.89],[150848.97,166975.52],[150862.39,166947.69],[150863.92,166944.5],[150864,166944.35],[150862.83,166943.78],[150859.94,166942.39],[150853.55999998,166939.31000006],[150843.28999936,166934.36000023],[150824.19,166925.15],[150803.48,166915.17],[150788.72,166908.06],[150778.37,166903.07],[150775.47,166901.67],[150763.59,166895.94],[150748.56,166927.11]]]},"geometry_name":"GEOM","properties":{"INSPIRE_ID":"https://databrussels.be/id/building/1753932","BLOCK_ID":"https://databrussels.be/id/block/30876","AREA":3857},"bbox":[150748.56,166895.94,150864,166975.52]},{"type":"Feature","id":"Buildings.fid--63af041f_1a031467014_-11cc","geometry":{"type":"Polygon","coordinates":[[[150989.28200001,166664.462],[150991.849,166661.459],[150989.986,166659.867],[150992.195,166657.283],[150994.058,166658.874],[150994.44799996,166658.41800017],[150995.29564226,166659.1417826],[151000,166663.15872438],[151002.4272333,166665.23128253],[151007.56999988,166669.5799999],[151010.46,166672.03],[151005.19999993,166678.12000045],[150999.99999942,166673.66000011],[150998.60024527,166672.44768049],[150989.28200001,166664.462]]]},"geometry_name":"GEOM","properties":{"INSPIRE_ID":"https://databrussels.be/id/building/1755222","BLOCK_ID":"https://databrussels.be/id/block/30997","AREA":176},"bbox":[150989.28200001,166657.283,151010.46,166678.12000045]},{"type":"Feature","id":"Buildings.fid--63af041f_1a031467014_-11cb","geometry":{"type":"Polygon","coordinates":[[[150982.05000031,166672.90999969],[150989.28200001,166664.462],[150998.60024527,166672.44768049],[150999.99999942,166673.66000011],[151005.19999993,166678.12000045],[151009.76,166682.03],[151009.99,166682.25],[151010.22,166682.47],[151010.32,166682.62],[151010.39,166682.72],[151010.48,166683.02],[151010.5,166683.34],[151010.49,166683.66],[151010.42,166683.97],[151010.31,166684.28],[151010.16,166684.57],[151009.88,166684.97],[151009.54,166685.33],[151009.15,166685.57],[151008.69,166685.68],[151008.19,166685.68],[151007.7,166685.61],[151007.45,166685.53],[151007.2,166685.44],[151006.96,166685.35],[151006.07,166686.36],[151001.26619194,166682.1576572],[151000.96281543,166682.55702794],[151001.02849131,166684.15129335],[151000.00000026,166685.24700047],[150999.17597871,166686.19972598],[150997.85334401,166686.26506667],[150997.52836196,166686.59979008],[150995.44999973,166684.88999975],[150994.12265263,166683.70331174],[150992.63030627,166682.36910949],[150982.8335778,166673.61054137],[150982.05000031,166672.90999969]]]},"geometry_name":"GEOM","properties":{"INSPIRE_ID":"https://databrussels.be/id/building/1760662","BLOCK_ID":"https://databrussels.be/id/block/30997","AREA":280},"bbox":[150982.05000031,166664.462,151010.5,166686.59979008]},{"type":"Feature","id":"Buildings.fid--63af041f_1a031467014_-11c6","geometry":{"type":"Polygon","coordinates":[[[150992.85000007,166732.8899999],[150998.69,166720.47],[150999.63,166718.48],[150999.83,166718.06],[151000,166718.14],[151006.99,166721.43],[151005.13,166725.25],[151000,166735.79],[150999.77000012,166736.2599999],[150992.85000007,166732.8899999]]]},"geometry_name":"GEOM","properties":{"INSPIRE_ID":"https://databrussels.be/id/building/1761901","BLOCK_ID":"https://databrussels.be/id/block/30997","AREA":128},"bbox":[150992.85000007,166718.06,151006.99,166736.2599999]},{"type":"Feature","id":"Buildings.fid--63af041f_1a031467014_-11ca","geometry":{"type":"Polygon","coordinates":[[[150977.43999996,166678.28000055],[150982.05000031,166672.90999969],[150982.8335778,166673.61054137],[150992.63030627,166682.36910949],[150994.12265263,166683.70331174],[150995.44999959,166684.88999963],[150994.34,166686.15],[150994.92,166686.66],[150992.33,166689.58],[150991.73,166689.05],[150990.59,166690.34],[150988.59000018,166688.57000058],[150987.67,166687.72],[150977.43999996,166678.28000055]]]},"geometry_name":"GEOM","properties":{"INSPIRE_ID":"https://databrussels.be/id/building/1761903","BLOCK_ID":"https://databrussels.be/id/block/30997","AREA":132},"bbox":[150977.43999996,166672.90999969,150995.44999959,166690.34]},{"type":"Feature","id":"Buildings.fid--63af041f_1a031467014_-11ef","geometry":{"type":"Polygon","coordinates":[[[150656.713,166849.014],[150658.758,166839.004],[150666.851,166840.729],[150664.8476774,166850.60820403],[150656.713,166849.014]]]},"geometry_name":"GEOM","properties":{"INSPIRE_ID":"https://databrussels.be/id/building/1763124","BLOCK_ID":"https://databrussels.be/id/block/27856","AREA":84},"bbox":[150656.713,166839.004,150666.851,166850.60820403]},{"type":"Feature","id":"Buildings.fid--63af041f_1a031467014_-11b0","geometry":{"type":"Polygon","coordinates":[[[150917.896,166615.439],[150912.71,166610.871],[150921.35,166601.223],[150927.003,166606.315],[150925.68413645,166607.81384493],[150925.23716725,166607.44358748],[150917.896,166615.439]]]},"geometry_name":"GEOM","properties":{"INSPIRE_ID":"https://databrussels.be/id/building/1763134","BLOCK_ID":"https://databrussels.be/id/block/27856","AREA":91},"bbox":[150912.71,166601.223,150927.003,166615.439]},{"type":"Feature","id":"Buildings.fid--63af041f_1a031467014_-11f0","geometry":{"type":"Polygon","coordinates":[[[150654.897,166857.918],[150656.077,166852.128],[150655.4,166851.77],[150655.23,166851.68],[150655.07,166851.57],[150654.91,166851.39],[150654.78,166851.19],[150654.68,166850.97],[150654.63,166850.72],[150654.61,166850.46],[150654.64,166850.21],[150654.76,166849.89],[150654.95,166849.59],[150655.19,166849.36],[150655.48,166849.24],[150655.6,166849.21],[150655.8,166849.18],[150656.713,166849.014],[150664.8476774,166850.60820403],[150664.46,166852.52],[150663.39,166857.82],[150661.24,166859.302],[150654.897,166857.918]]]},"geometry_name":"GEOM","properties":{"INSPIRE_ID":"https://databrussels.be/id/building/1764317","BLOCK_ID":"https://databrussels.be/id/block/27856","AREA":79},"bbox":[150654.61,166849.014,150664.8476774,166859.302]},{"type":"Feature","id":"Buildings.fid--63af041f_1a031467014_-11ae","geometry":{"type":"Polygon","coordinates":[[[150920.94639754,166559.10635682],[150923.70577908,166556.29548784],[150926.76888664,166559.20512566],[150924.03539546,166562.04955731],[150920.94639754,166559.10635682]]]},"geometry_name":"GEOM","properties":{"INSPIRE_ID":"https://databrussels.be/id/building/1766797","BLOCK_ID":"https://databrussels.be/id/block/27856","AREA":17},"bbox":[150920.94639754,166556.29548784,150926.76888664,166562.04955731]},{"type":"Feature","id":"Buildings.fid--63af041f_1a031467014_-11c1","geometry":{"type":"Polygon","coordinates":[[[150787.774,166633.991],[150789.74,166632.47],[150792.26,166635.34],[150790.386,166637.057],[150788.60862707,166638.62785375],[150786.1926505,166635.95863881],[150788.05135426,166634.31656208],[150787.774,166633.991]]]},"geometry_name":"GEOM","properties":{"INSPIRE_ID":"https://databrussels.be/id/building/1766798","BLOCK_ID":"https://databrussels.be/id/block/27856","AREA":19},"bbox":[150786.1926505,166632.47,150792.26,166638.62785375]},{"type":"Feature","id":"Buildings.fid--63af041f_1a031467014_-11db","geometry":{"type":"Polygon","coordinates":[[[150843.28999936,166934.36000022],[150844.23,166932.41],[150854.49,166937.38],[150853.55999998,166939.31000006],[150843.28999936,166934.36000022]]]},"geometry_name":"GEOM","properties":{"INSPIRE_ID":"https://databrussels.be/id/building/1766803","BLOCK_ID":"https://databrussels.be/id/block/30876","AREA":25},"bbox":[150843.28999936,166932.41,150854.49,166939.31000006]},{"type":"Feature","id":"Buildings.fid--63af041f_1a031467014_-11e9","geometry":{"type":"Polygon","coordinates":[[[150710.24,166821.986],[150713.508,166818.27],[150713.295,166817.844],[150713.235,166817.716],[150713.199,166817.618],[150713.18,166817.488],[150713.18,166817.105],[150713.198,166816.835],[150713.232,166816.582],[150713.286,166816.392],[150713.355,166816.279],[150713.48,166816.107],[150713.585,166815.948],[150716.864,166812.355],[150716.978,166812.269],[150717.118,166812.178],[150717.215,166812.127],[150717.409,166812.087],[150717.55,166812.078],[150717.749,166812.046],[150717.892,166812.031],[150718.021,166812.038],[150718.091,166812.053],[150718.188,166812.09],[150718.292,166812.13],[150718.367,166812.17],[150718.463,166812.242],[150718.919,166812.574],[150719.211,166812.217],[150720.684,166813.527],[150721.86,166813.538],[150723.614,166815.061],[150725.752,166816.641],[150725.943,166816.726],[150726.268,166816.775],[150726.695,166816.714],[150727.008,166816.542],[150730.611,166819.685],[150730.494,166819.903],[150730.398,166820.348],[150730.477,166820.665],[150730.562,166820.82],[150730.351,166821.046],[150732.798,166823.142],[150734.276,166824.401],[150734.317,166824.943],[150733.384,166825.987],[150733.557,166826.987],[150733.366,166827.985],[150732.836,166828.851],[150732.035,166829.474],[150731.066,166829.775],[150730.052,166829.715],[150725.27,166835.065],[150710.24,166821.986]]]},"geometry_name":"GEOM","properties":{"INSPIRE_ID":"https://databrussels.be/id/building/1766804","BLOCK_ID":"https://databrussels.be/id/block/27856","AREA":299},"bbox":[150710.24,166812.031,150734.317,166835.065]},{"type":"Feature","id":"Buildings.fid--63af041f_1a031467014_-11b1","geometry":{"type":"Polygon","coordinates":[[[150908.535,166648.132],[150910.478,166649.934],[150912.11299974,166651.45100033],[150912.89999989,166650.60400005],[150916.84374889,166654.16433576],[150920.21751288,166657.21010069],[150921.85015632,166655.52163596],[150922.99754084,166654.33502152],[150922.64768729,166654.00988853],[150924.03447185,166652.41005495],[150922.49199954,166650.96599969],[150926.79200032,166646.36200019],[150910.439,166630.968],[150905.57,166636.11],[150907.32,166637.76],[150903.03,166642.29],[150906.61,166645.68],[150906.273,166646.033],[150908.535,166648.132]]]},"geometry_name":"GEOM","properties":{"INSPIRE_ID":"https://databrussels.be/id/building/1768007","BLOCK_ID":"https://databrussels.be/id/block/27856","AREA":298},"bbox":[150903.03,166630.968,150926.79200032,166657.21010069]},{"type":"Feature","id":"Buildings.fid--63af041f_1a031467014_-11a8","geometry":{"type":"Polygon","coordinates":[[[150963.81,166693.13],[150969.75,166698.96],[150973.52999976,166702.68000025],[150974.46890461,166703.50235124],[150980.20336922,166697.64843517],[150969.16,166687.3],[150966.75,166689.924],[150966.455,166689.653],[150965.466,166689.695],[150964.248,166691.02],[150964.29,166692.01],[150964.585,166692.28],[150963.81,166693.13]]]},"geometry_name":"GEOM","properties":{"INSPIRE_ID":"https://databrussels.be/id/building/1768008","BLOCK_ID":"https://databrussels.be/id/block/30997","AREA":124},"bbox":[150963.81,166687.3,150980.20336922,166703.50235124]},{"type":"Feature","id":"Buildings.fid--63af041f_1a031467014_-11af","geometry":{"type":"Polygon","coordinates":[[[150917.896,166615.439],[150925.23716725,166607.44358748],[150925.68413645,166607.81384493],[150929.1,166610.871],[150929.94,166609.78],[150931.64,166609.7],[150931.95,166609.94],[150935.27,166612.96],[150935.27,166614.42],[150934.111,166615.884],[150942.985,166623.82],[150942.79,166624.04],[150944.59,166625.67],[150941.11,166629.53],[150939.044,166627.651],[150935.564,166631.568],[150930.396,166627.074],[150929.315,166628.221],[150916.616,166616.883],[150917.896,166615.439]]]},"geometry_name":"GEOM","properties":{"INSPIRE_ID":"https://databrussels.be/id/building/1768009","BLOCK_ID":"https://databrussels.be/id/block/27856","AREA":321},"bbox":[150916.616,166607.44358748,150944.59,166631.568]},{"type":"Feature","id":"Buildings.fid--63af041f_1a031467014_-11b3","geometry":{"type":"Polygon","coordinates":[[[150907.2394305,166577.10382824],[150899.6749676,166585.1842361],[150895.91804831,166581.78294606],[150900.85895536,166576.21079621],[150900.58199999,166575.949],[150896.30999999,166580.50999999],[150888.7900001,166573.38],[150892.46100004,166569.41600044],[150892.35299859,166568.67299774],[150892.24312108,166567.95440371],[150892.6479929,166567.08198328],[150893.32199593,166566.27299039],[150893.94099848,166565.64399753],[150894.81542068,166565.23530371],[150895.64300673,166565.16701655],[150896.34299998,166565.22399979],[150899.328,166562.001],[150906.67,166568.4],[150911.83,166573.24000001],[150907.74000001,166577.60999999],[150907.2394305,166577.10382824]]]},"geometry_name":"GEOM","properties":{"INSPIRE_ID":"https://databrussels.be/id/building/1769193","BLOCK_ID":"https://databrussels.be/id/block/27856","AREA":267},"bbox":[150888.7900001,166562.001,150911.83,166585.1842361]},{"type":"Feature","id":"Buildings.fid--63af041f_1a031467014_-11a3","geometry":{"type":"Polygon","coordinates":[[[150979.622,166524.239],[150985.094,166517.922],[150989.97,166522.19],[150991.64,166520.27],[150999.35,166527.01],[151000,166526.27],[151007.358,166517.844],[151016.596,166525.943],[151011.966,166531.282],[151010.965,166530.361],[151007.567,166534.297],[151009.612,166535.902],[151006.566,166539.348],[151004.865,166537.727],[151000.474,166542.712],[151000,166542.31],[150991.46,166535.088],[150990.89,166535.698],[150984.082,166529.809],[150984.887,166528.904],[150979.622,166524.239]]]},"geometry_name":"GEOM","properties":{"INSPIRE_ID":"https://databrussels.be/id/building/1769584","BLOCK_ID":"https://databrussels.be/id/block/25453","AREA":456},"bbox":[150979.622,166517.844,151016.596,166542.712]},{"type":"Feature","id":"Buildings.fid--63af041f_1a031467014_-11d6","geometry":{"type":"Polygon","coordinates":[[[150869.08,166903.43],[150868.71,166902.24],[150867.59,166902.58],[150867.36,166901.55],[150867.13,166900.52],[150867,166899.49],[150867,166898.57],[150867.07,166897.64],[150867.22,166896.75],[150867.73,166895.24],[150868.5,166893.81],[150869.44,166892.53],[150870.58,166891.4],[150871.91,166890.43],[150873.34,166889.68],[150874.62,166889.23],[150875.98,166888.95],[150877.33,166888.85],[150878.65,166888.96],[150879.97,166889.25],[150881.21,166889.69],[150882.78,166890.54],[150884.21,166891.67],[150885.41,166893.01],[150885.95,166893.91],[150886.41,166894.88],[150886.87,166895.86],[150885.68,166896.3],[150886.12,166897.47],[150869.08,166903.43]]]},"geometry_name":"GEOM","properties":{"INSPIRE_ID":"https://databrussels.be/id/building/1770390","BLOCK_ID":"https://databrussels.be/id/block/24253","AREA":189},"bbox":[150867,166888.85,150886.87,166903.43]},{"type":"Feature","id":"Buildings.fid--63af041f_1a031467014_-11b2","geometry":{"type":"Polygon","coordinates":[[[150899.32799968,166562.00099997],[150897.089,166559.85],[150900.432,166556.437],[150899.527,166555.634],[150902.502,166552.414],[150903.385,166553.247],[150906.936,166549.346],[150916.326,166558.175],[150912.81,166561.93],[150913.11,166562.22],[150909.91,166565.64],[150909.56,166565.32],[150906.67,166568.4],[150899.32799968,166562.00099997]]]},"geometry_name":"GEOM","properties":{"INSPIRE_ID":"https://databrussels.be/id/building/1770391","BLOCK_ID":"https://databrussels.be/id/block/27856","AREA":190},"bbox":[150897.089,166549.346,150916.326,166568.4]},{"type":"Feature","id":"Buildings.fid--63af041f_1a031467014_-11b4","geometry":{"type":"Polygon","coordinates":[[[150880.16,166653.07],[150885.72,166647.51],[150887.31,166649.1],[150890.52,166645.88],[150895.04,166650.39],[150908.718,166663.978],[150907.664,166665.045],[150908.696,166666.064],[150900.752,166674.109],[150899.72,166673.09],[150898.28480695,166671.62105496],[150881.75857025,166654.70616445],[150880.16,166653.07]]]},"geometry_name":"GEOM","properties":{"INSPIRE_ID":"https://databrussels.be/id/building/1772254","BLOCK_ID":"https://databrussels.be/id/block/27856","AREA":358},"bbox":[150880.16,166645.88,150908.718,166674.109]},{"type":"Feature","id":"Buildings.fid--63af041f_1a031467014_-11e0","geometry":{"type":"Polygon","coordinates":[[[150812.99000017,166919.75000048],[150814.4,166916.78],[150820.74,166920],[150822.44,166920.72],[150824.68,166921.77],[150823.27,166924.71],[150812.99000017,166919.75000048]]]},"geometry_name":"GEOM","properties":{"INSPIRE_ID":"https://databrussels.be/id/building/1772264","BLOCK_ID":"https://databrussels.be/id/block/30876","AREA":37},"bbox":[150812.99000017,166916.78,150824.68,166924.71]},{"type":"Feature","id":"Buildings.fid--63af041f_1a031467014_-11e6","geometry":{"type":"Polygon","coordinates":[[[150725.2696,166741.0902],[150726.534,166742.1028],[150723.7094,166742.1836],[150721.0829,166740.0802],[150720.8641,166738.874],[150720.7296,166738.1325],[150717.0905,166735.2265],[150719.4912,166732.2392],[150719.331,166732.1026],[150730.6232,166718],[150730.9237,166718.2574],[150734.1975,166714.1731],[150741.6349,166720.1016],[150738.3269,166724.1948],[150738.6337,166724.4562],[150727.3765,166738.4802],[150727.1391,166738.775],[150725.2696,166741.0902]]]},"geometry_name":"GEOM","properties":{"INSPIRE_ID":"https://databrussels.be/id/building/1783027","BLOCK_ID":"https://databrussels.be/id/block/27856","AREA":281},"bbox":[150717.0905,166714.1731,150741.6349,166742.1836]},{"type":"Feature","id":"Buildings.fid--63af041f_1a031467014_-11a7","geometry":{"type":"Polygon","coordinates":[[[150977.43999996,166678.28000055],[150969.16,166687.3],[150980.20336922,166697.64843517],[150988.58730963,166688.56751755],[150977.43999996,166678.28000055]]]},"geometry_name":"GEOM","properties":{"INSPIRE_ID":"https://databrussels.be/id/building/1783117","BLOCK_ID":"https://databrussels.be/id/block/30997","AREA":186},"bbox":[150969.16,166678.28000055,150988.58730963,166697.64843517]},{"type":"Feature","id":"Buildings.fid--63af041f_1a031467014_-11d4","geometry":{"type":"Polygon","coordinates":[[[150955.499,166815.379],[150968.699,166821.91],[150934.7283,166892.5113],[150998.7948,166923.5357],[150980.1487,166961.9522],[150902.8854,166924.2131],[150955.499,166815.379]]]},"geometry_name":"GEOM","properties":{"INSPIRE_ID":"https://databrussels.be/id/building/1784249","BLOCK_ID":"https://databrussels.be/id/block/30998","AREA":4821},"bbox":[150902.8854,166815.379,150998.7948,166961.9522]},{"type":"Feature","id":"Buildings.fid--63af041f_1a031467014_-11f3","geometry":{"type":"Polygon","coordinates":[[[150641.592,166922.382],[150637.47,166929.141],[150638.934,166929.997],[150636.62,166933.891],[150638.978,166935.426],[150637.125,166938.792],[150636.698,166938.532],[150635.3,166938.957],[150635.111,166938.967],[150633.87,166941.17],[150634.255,166942.623],[150635.575,166943.519],[150635.45,166943.789],[150637.773,166945.321],[150631.073,166956.875],[150631.669,166957.241],[150637.875,166961.048],[150638.472,166961.415],[150645.111,166950.571],[150646.21,166951.12],[150646.467,166950.691],[150647.067,166951.051],[150650.094,166945.999],[150649.493,166945.639],[150649.75,166945.21],[150648.063,166944.138],[150655.498,166931.43],[150648.889,166927.305],[150649.183,166926.815],[150641.592,166922.382]]]},"geometry_name":"GEOM","properties":{"INSPIRE_ID":"https://databrussels.be/id/building/1787331","BLOCK_ID":"https://databrussels.be/id/block/27856","AREA":450},"bbox":[150631.073,166922.382,150655.498,166961.415]},{"type":"Feature","id":"Buildings.fid--63af041f_1a031467014_-11b7","geometry":{"type":"Polygon","coordinates":[[[150870.99486158,166547.01286817],[150867.58725815,166550.58513532],[150864.82459326,166547.94981551],[150868.23219667,166544.37754836],[150870.99486158,166547.01286817]]]},"geometry_name":"GEOM","properties":{"INSPIRE_ID":"https://databrussels.be/id/building/1787533","BLOCK_ID":"https://databrussels.be/id/block/27856","AREA":19},"bbox":[150864.82459326,166544.37754836,150870.99486158,166550.58513532]},{"type":"Feature","id":"Buildings.fid--63af041f_1a031467014_-11a2","geometry":{"type":"Polygon","coordinates":[[[150907.30581315,166533.33725171],[150911.64425679,166528.30226393],[150910.23458113,166527.12748243],[150911.67447215,166525.47308168],[150911.6155118,166525.33274165],[150911.54464575,166524.97947019],[150911.55639453,166524.55180677],[150911.75852212,166523.91084315],[150912.3397637,166523.3831047],[150912.95490872,166523.15929409],[150913.43922904,166523.12184625],[150913.70304234,166523.10164964],[150915.15081443,166521.56422781],[150916.27199021,166522.49512269],[150917.34146413,166521.21835552],[150917.52921612,166521.09246569],[150917.84802257,166521.03687034],[150918.10296281,166521.11234585],[150921.16492911,166523.70813518],[150921.85851872,166524.29612744],[150922.36925724,166523.70183982],[150922.75057829,166523.24633061],[150923.14118254,166523.06547792],[150923.48149568,166523.08796577],[150927.7225097,166526.67272715],[150927.83700453,166527.00511079],[150927.83987697,166527.29291221],[150927.82967118,166527.58085501],[150927.57241528,166528.01539276],[150927.06889283,166528.67501728],[150927.71015629,166529.28383977],[150930.39873782,166531.83640818],[150930.59644034,166532.05590248],[150930.66381496,166532.27681432],[150930.65364339,166532.56375926],[150930.57752806,166532.77319421],[150929.6929463,166533.96290876],[150930.99,166535.04],[150926.771,166539.809],[150928.06,166540.86],[150923.13,166546.65],[150920.49,166544.41],[150920.1,166544.77],[150915.33,166540.5],[150913.36,166542.8],[150909.94,166539.72],[150911.89017204,166537.4360127],[150907.30581315,166533.33725171]]]},"geometry_name":"GEOM","properties":{"INSPIRE_ID":"https://databrussels.be/id/building/1788529","BLOCK_ID":"https://databrussels.be/id/block/27856","AREA":364},"bbox":[150907.30581315,166521.03687034,150930.99,166546.65]},{"type":"Feature","id":"Buildings.fid--63af041f_1a031467014_-11e4","geometry":{"type":"Polygon","coordinates":[[[150761.493,166785.844],[150762.617,166785.087],[150765.91,166788.38],[150767.18,166789.62],[150785.31208395,166772.69388252],[150781.19104325,166768.55596968],[150783.84597124,166765.95999528],[150774.765,166756.501],[150772.34,166758.83],[150770.33,166756.74],[150765.26011854,166761.59995752],[150769.38000686,166766.13997476],[150766.15003103,166769.24002941],[150768.23,166771.41],[150765.18,166774.33],[150758.74,166767.61],[150761.88,166764.6],[150757.49,166760.02],[150755.403,166757.975],[150745.436,166767.375],[150747.68,166769.43],[150749.12,166770.93],[150748.062,166771.942],[150761.493,166785.844]]]},"geometry_name":"GEOM","properties":{"INSPIRE_ID":"https://databrussels.be/id/building/1788531","BLOCK_ID":"https://databrussels.be/id/block/27856","AREA":678},"bbox":[150745.436,166756.501,150785.31208395,166789.62]},{"type":"Feature","id":"Buildings.fid--63af041f_1a031467014_-11d1","geometry":{"type":"Polygon","coordinates":[[[150936.77,166759.97],[150943.76,166745.83],[150969.22,166758.18],[150967.25,166762.18],[150963.46,166769.83],[150962.42,166769.31],[150960.83,166772.52],[150953.11,166768.77],[150953.56,166767.87],[150952.21,166767.21],[150952.13,166767.39],[150936.77,166759.97]]]},"geometry_name":"GEOM","properties":{"INSPIRE_ID":"https://databrussels.be/id/building/1788532","BLOCK_ID":"https://databrussels.be/id/block/24253","AREA":449},"bbox":[150936.77,166745.83,150969.22,166772.52]},{"type":"Feature","id":"Buildings.fid--63af041f_1a031467014_-11da","geometry":{"type":"Polygon","coordinates":[[[150868.64,166793.93084244],[150873.45,166784.21084244],[150879.25,166787.01084244],[150880.59,166784.23084244],[150879.16,166783.54084244],[150881.93,166777.82084244],[150882.41,166778.05084244],[150882.61,166777.63084244],[150888.29,166780.37084244],[150887.99,166780.96084244],[150888.36,166781.14084244],[150887.98,166781.91084244],[150891.32,166783.52084244],[150891.1,166783.98084244],[150905.46,166790.89084244],[150905.69,166790.40084244],[150905.87,166790.49084244],[150911.01,166792.99084244],[150914.08,166794.48084244],[150885.66,166852.79084244],[150882.83,166851.35884244],[150882.236,166852.44484244],[150881.168,166852.93484244],[150880.109,166852.34584244],[150879.739,166851.29984244],[150880.242,166850.04884244],[150877.38,166848.60084244],[150877.57,166848.20084244],[150863.23,166841.34084244],[150863.07,166841.66084244],[150858.82,166839.56084244],[150854.41,166837.37084244],[150858.22,166829.68084244],[150852.38,166826.79084244],[150857.02,166817.41084244],[150857.48,166816.49084244],[150868.14,166794.95084244],[150868.64,166793.93084244]],[[150887.26,166791.94084244],[150883.81,166799.08084245],[150880.34,166806.28084244],[150894.61,166813.17084244],[150901.56,166798.88084244],[150887.26,166791.94084244]],[[150881.4,166840.32084244],[150888.34,166826.06084244],[150874.16,166819.11084244],[150870.75,166826.07084244],[150870.71,166826.17084244],[150867.18,166833.36084244],[150881.4,166840.32084244]]]},"geometry_name":"GEOM","properties":{"INSPIRE_ID":"https://databrussels.be/id/building/1789159","BLOCK_ID":"https://databrussels.be/id/block/24253","AREA":2058},"bbox":[150852.38,166777.63084244,150914.08,166852.93484244]},{"type":"Feature","id":"Buildings.fid--63af041f_1a031467014_-11a9","geometry":{"type":"Polygon","coordinates":[[[150977.35232043,166582.60942331],[150976.12256631,166581.72653509],[150983.62746508,166572.20655698],[150984.79161075,166573.02532009],[150987.81599449,166568.85841225],[150986.70419611,166568.0780039],[150989.56272773,166564.21189463],[150975.73999995,166553.58999997],[150959.46599969,166574.77299998],[150955.909,166571.904],[150952.642,166576.218],[150970.22183319,166589.50689438],[150972.98093752,166585.85588141],[150974.11914459,166586.67477037],[150977.35232043,166582.60942331]]]},"geometry_name":"GEOM","properties":{"INSPIRE_ID":"https://databrussels.be/id/building/1789738","BLOCK_ID":"https://databrussels.be/id/block/27856","AREA":598},"bbox":[150952.642,166553.58999997,150989.56272773,166589.50689438]},{"type":"Feature","id":"Buildings.fid--63af041f_1a031467014_-11b5","geometry":{"type":"Polygon","coordinates":[[[150880.16,166653.07],[150881.75857025,166654.70616445],[150898.28480695,166671.62105496],[150899.72,166673.09],[150890.942,166681.963],[150877.293,166668.123],[150878.19,166667.22],[150874.44,166663.48],[150876.16,166661.76],[150875.46,166661.06],[150876.32,166660.2],[150874.68,166658.56],[150880.16,166653.07]]]},"geometry_name":"GEOM","properties":{"INSPIRE_ID":"https://databrussels.be/id/building/1789739","BLOCK_ID":"https://databrussels.be/id/block/27856","AREA":330},"bbox":[150874.44,166653.07,150899.72,166681.963]},{"type":"Feature","id":"Buildings.fid--63af041f_1a031467014_-11df","geometry":{"type":"Polygon","coordinates":[[[150818.281,166748.756],[150815.758,166745.828],[150816.713,166745.02],[150819.197,166747.968],[150818.281,166748.756]]]},"geometry_name":"GEOM","properties":{"INSPIRE_ID":"https://databrussels.be/id/building/1792313","BLOCK_ID":"https://databrussels.be/id/block/27856","AREA":5},"bbox":[150815.758,166745.02,150819.197,166748.756]},{"type":"Feature","id":"Buildings.fid--63af041f_1a031467014_-119f","geometry":{"type":"Polygon","coordinates":[[[150694.65232651,166774.53026647],[150693.33777238,166780.89324503],[150686.60287563,166776.94361339],[150689.80199982,166772.19643981],[150694.65232651,166774.53026647]]]},"geometry_name":"GEOM","properties":{"INSPIRE_ID":"https://databrussels.be/id/building/1794762","BLOCK_ID":"https://databrussels.be/id/block/27856","AREA":39},"bbox":[150686.60287563,166772.19643981,150694.65232651,166780.89324503]},{"type":"Feature","id":"Buildings.fid--63af041f_1a031467014_-11e7","geometry":{"type":"Polygon","coordinates":[[[150713.26,166994.64],[150726.188,166967.747],[150729.083,166969.309],[150735.103,166956.534],[150732.287,166955.136],[150745.174,166928.294],[150755.172,166932.942],[150753.92,166935.57],[150766.99,166941.8],[150760.86,166954.64],[150759.43,166953.95],[150754.46,166963.53],[150759.31,166962.23],[150762.06,166961.44],[150772.75,166960.43],[150780.62,166960.43],[150784.68,166965.83],[150789.59,166973.53],[150790.95,166976.31],[150791.67,166978.25],[150792.64,166981.12],[150792.73,166981.57],[150792.93,166982.44],[150793.3,166984.43],[150793.34,166986.93],[150793.2,166988.19],[150792.95,166989.34],[150792.26,166991.27],[150791.58,166992.71],[150790.31,166994.31],[150789.32,166995.41],[150787.61,166996.71],[150785.6,166997.99],[150784.25,166998.55],[150782.54,166999.27],[150780.06,167000],[150778.16,167000.56],[150772.35,167001.53],[150767.81,167002.05],[150760.57,167002.39],[150758.6,167000],[150756.85,166997.89],[150751.78,166990.48],[150749.53,166986.34],[150748.33,166983.69],[150747.19,166980.37],[150742.78,166978.27],[150742.64,166978.56],[150738.2,166976.45],[150736.97,166979.05],[150741.02,166980.98],[150739.69,166983.78],[150745.223,166986.405],[150738.577,167000],[150737.865,167001.456],[150734.858,167000],[150734.115,166999.64],[150728.078,166996.707],[150726.954,166998.975],[150723.378,166997.341],[150722.62,166999.164],[150713.26,166994.64]]]},"geometry_name":"GEOM","properties":{"INSPIRE_ID":"https://databrussels.be/id/building/1794869","BLOCK_ID":"https://databrussels.be/id/block/30876","AREA":3120},"bbox":[150713.26,166928.294,150793.34,167002.39]},{"type":"Feature","id":"Buildings.fid--63af041f_1a031467014_-11d3","geometry":{"type":"Polygon","coordinates":[[[150918.58,166751.14],[150936.77,166759.97],[150952.13,166767.39],[150946.66,166778.46],[150945.98,166778.13],[150942.27,166785.77],[150942.97,166786.11],[150937.622,166797.156],[150912.72,166785.07],[150909.38,166783.44],[150903.93,166780.8],[150918.58,166751.14]],[[150931.91,166771.04],[150931.44,166769.65],[150923.49,166765.81],[150922.19,166766.24],[150918.28,166774.31],[150918.76,166775.72],[150926.77,166779.59],[150927.96,166779.19],[150931.91,166771.04]]]},"geometry_name":"GEOM","properties":{"INSPIRE_ID":"https://databrussels.be/id/building/1796107","BLOCK_ID":"https://databrussels.be/id/block/24253","AREA":1112},"bbox":[150903.93,166751.14,150952.13,166797.156]},{"type":"Feature","id":"Buildings.fid--63af041f_1a031467014_-11d7","geometry":{"type":"Polygon","coordinates":[[[150928.5,166975.03],[150891.78,166957.37],[150892.23,166956.31],[150887.51002991,166954.01997888],[150887.01,166955.05],[150880.25,166951.88],[150864.47,166984.69],[150871.25,166987.96],[150870.71,166988.99],[150875.42,166991.33],[150875.94,166990.35],[150906.29,167004.85],[150910.78,166995.877],[150913.78,166997.419],[150914.94,166995.68],[150921.71993835,166998.96000366],[150920.92,167000.79],[150925.14,167002.79],[150925.8700257,167000.97009289],[150932.676,167004.491],[150931.90401327,167006.18797806],[150938.89699465,167009.55291749],[150939.68290658,167007.87099587],[150942.838,167009.381],[150940.27703495,167014.85600379],[150978.254,167032.928],[150977.115,167035.321],[150983.12,167038.178],[150984.259,167035.785],[150984.71,167036],[150987.24197234,167030.71004702],[151006.88191579,167040.10993368],[151007.49007401,167038.83903967],[151011.311,167040.668],[151014.876,167033.257],[150994.623,167023.508],[150999.134,167013.824],[150970.348,167000],[150941.403,166986.1],[150943.32,166981.75],[150937.33,166978.72],[150936.12,166981.32],[150927.58,166977.36],[150928.5,166975.03]]]},"geometry_name":"GEOM","properties":{"INSPIRE_ID":"https://databrussels.be/id/building/1797243","BLOCK_ID":"https://databrussels.be/id/block/30876","AREA":4125},"bbox":[150864.47,166951.88,151014.876,167040.668]},{"type":"Feature","id":"Buildings.fid--63af041f_1a031467014_-11c2","geometry":{"type":"Polygon","coordinates":[[[150768.239,166650.413],[150775.72,166642.828],[150783.053,166650.94],[150781.065,166652.847],[150780.777,166652.589],[150775.594,166657.305],[150768.239,166650.413]]]},"geometry_name":"GEOM","properties":{"INSPIRE_ID":"https://databrussels.be/id/building/1809582","BLOCK_ID":"https://databrussels.be/id/block/27856","AREA":107},"bbox":[150768.239,166642.828,150783.053,166657.305]},{"type":"Feature","id":"Buildings.fid--63af041f_1a031467014_-11dd","geometry":{"type":"Polygon","coordinates":[[[150824.7,166778.97],[150822.47,166776.42],[150824.95,166774.25],[150827.18,166776.8],[150824.7,166778.97]]]},"geometry_name":"GEOM","properties":{"INSPIRE_ID":"https://databrussels.be/id/building/233193","BLOCK_ID":null,"AREA":11},"bbox":[150822.47,166774.25,150827.18,166778.97]}],"numberReturned":77,"grand_bruxelles_source":{"authority":"Paradigm / Brussels-Capital Region","service":"https://geoservices-urbis.irisnet.be/geoserver/urbisvector/wfs","layer":"urbisvector:Buildings","crs":"EPSG:31370","bbox":[150500.0,166500.0,151000.0,167000.0],"cell_id":"bxl-e150500-n166500-s500","ownership":"polygon_or_multipolygon_centroid_global_500m_cell"}}
