{"type":"FeatureCollection","totalFeatures":54,"numberMatched":54,"timeStamp":"2026-08-24T01:23:24.827Z","crs":{"type":"name","properties":{"name":"urn:ogc:def:crs:EPSG::31370"}},"bbox":[150368.504,166423.35445249,151172.419,167104.62691825],"features":[{"type":"Feature","id":"StreetAxes.fid-6d0a8ac7_1a031465927_-1d20","geometry":{"type":"LineString","coordinates":[[150981.117,166748.623],[150987.031,166751.486],[151144.473,166827.64],[151153.742,166832.066],[151172.419,166839.718]]},"geometry_name":"GEOM","properties":{"INSPIRE_ID":"https://databrussels.be/id/streetaxe/71825","TYPE":"S","HIERARCHY":"DR","LVL":0,"STARTSN_ID":"https://databrussels.be/id/streetnode/2262","ENDSN_ID":"https://databrussels.be/id/streetnode/3762","STRNAMEFRE":"Avenue Antoine Depage","STRNAMEDUT":"Antoine Depagelaan","SLOPE":0.74,"LENGTH":211.918382286581},"bbox":[150981.117,166748.623,151172.419,166839.718]},{"type":"Feature","id":"StreetAxes.fid-6d0a8ac7_1a031465927_-1d24","geometry":{"type":"LineString","coordinates":[[150887.389,166939.052],[150895.478,166938.568],[150926.36,166956.555],[151056.181,167019.088],[151060.75,167021.94],[151076.01,167031.465],[151092.04,167038.251]]},"geometry_name":"GEOM","properties":{"INSPIRE_ID":"https://databrussels.be/id/streetaxe/73236","TYPE":"S","HIERARCHY":"DR","LVL":0,"STARTSN_ID":"https://databrussels.be/id/streetnode/1028","ENDSN_ID":"https://databrussels.be/id/streetnode/2167","STRNAMEFRE":"Avenue Paul Héger","STRNAMEDUT":"Paul Hégerlaan","SLOPE":3.07,"LENGTH":228.720516540613},"bbox":[150887.389,166938.568,151092.04,167038.251]},{"type":"Feature","id":"StreetAxes.fid-6d0a8ac7_1a031465927_-1d28","geometry":{"type":"LineString","coordinates":[[150766.39,166882.89],[150818.638,166910.254],[150879.3,166939.537],[150887.389,166939.052]]},"geometry_name":"GEOM","properties":{"INSPIRE_ID":"https://databrussels.be/id/streetaxe/74134","TYPE":"S","HIERARCHY":"DR","LVL":0,"STARTSN_ID":"https://databrussels.be/id/streetnode/7749","ENDSN_ID":"https://databrussels.be/id/streetnode/1028","STRNAMEFRE":"Avenue Paul Héger","STRNAMEDUT":"Paul Hégerlaan","SLOPE":3.15,"LENGTH":134.443560613499},"bbox":[150766.39,166882.89,150887.389,166939.537]},{"type":"Feature","id":"StreetAxes.fid-6d0a8ac7_1a031465927_-1d21","geometry":{"type":"LineString","coordinates":[[150912.553,166715.024],[150941.489,166729.118],[150975.203,166745.76],[150981.117,166748.623]]},"geometry_name":"GEOM","properties":{"INSPIRE_ID":"https://databrussels.be/id/streetaxe/74136","TYPE":"S","HIERARCHY":"DR","LVL":0,"STARTSN_ID":"https://databrussels.be/id/streetnode/7751","ENDSN_ID":"https://databrussels.be/id/streetnode/2262","STRNAMEFRE":"Avenue Antoine Depage","STRNAMEDUT":"Antoine Depagelaan","SLOPE":0.01,"LENGTH":76.354203641757},"bbox":[150912.553,166715.024,150981.117,166748.623]},{"type":"Feature","id":"StreetAxes.fid-6d0a8ac7_1a031465927_-1d3d","geometry":{"type":"LineString","coordinates":[[150912.553,166715.024],[150928.988,166699.112],[150950.003,166677.745],[150966.936,166660.028],[150990.427,166630.921],[151013.33,166599.57],[151021.442,166587.809],[151033.379,166571.816]]},"geometry_name":"GEOM","properties":{"INSPIRE_ID":"https://databrussels.be/id/streetaxe/75067","TYPE":"S","HIERARCHY":"MER","LVL":0,"STARTSN_ID":"https://databrussels.be/id/streetnode/7751","ENDSN_ID":"https://databrussels.be/id/streetnode/7733","STRNAMEFRE":"Avenue Franklin Roosevelt","STRNAMEDUT":"Franklin Rooseveltlaan","SLOPE":1.26,"LENGTH":187.826308544617},"bbox":[150912.553,166571.816,151033.379,166715.024]},{"type":"Feature","id":"StreetAxes.fid-6d0a8ac7_1a031465927_-1d41","geometry":{"type":"LineString","coordinates":[[150603.34381177,166575.53148808],[150612.471,166566.04],[150633.365,166548.113],[150659.512,166530.474],[150683.145,166519.196]]},"geometry_name":"GEOM","properties":{"INSPIRE_ID":"https://databrussels.be/id/streetaxe/75659","TYPE":"S","HIERARCHY":"MAR","LVL":0,"STARTSN_ID":"https://databrussels.be/id/streetnode/4616","ENDSN_ID":"https://databrussels.be/id/streetnode/4418","STRNAMEFRE":"Avenue de Flore","STRNAMEDUT":"Floralaan","SLOPE":1.96,"LENGTH":98.4251116915634},"bbox":[150603.34381177,166519.196,150683.145,166575.53148808]},{"type":"Feature","id":"StreetAxes.fid-6d0a8ac7_1a031465927_-1d32","geometry":{"type":"LineString","coordinates":[[150617.522,166988.556],[150623.056,166960.296],[150634.24,166907.564],[150645.364,166854.018],[150654.028,166813.114],[150661.268,166787.924],[150672.309,166760.712],[150687.278,166734.305],[150706.558,166708.266]]},"geometry_name":"GEOM","properties":{"INSPIRE_ID":"https://databrussels.be/id/streetaxe/75660","TYPE":"S","HIERARCHY":null,"LVL":0,"STARTSN_ID":"https://databrussels.be/id/streetnode/4615","ENDSN_ID":"https://databrussels.be/id/streetnode/4417","STRNAMEFRE":"Avenue Victoria","STRNAMEDUT":"Victorialaan","SLOPE":3.38,"LENGTH":297.53329313509},"bbox":[150617.522,166708.266,150706.558,166988.556]},{"type":"Feature","id":"StreetAxes.fid-6d0a8ac7_1a031465927_-1d2c","geometry":{"type":"LineString","coordinates":[[150742.80428822,166876.24493592],[150755.47952028,166878.76595633],[150766.39,166882.89]]},"geometry_name":"GEOM","properties":{"INSPIRE_ID":"https://databrussels.be/id/streetaxe/75923","TYPE":"S","HIERARCHY":"DR","LVL":0,"STARTSN_ID":"https://databrussels.be/id/streetnode/7744","ENDSN_ID":"https://databrussels.be/id/streetnode/7749","STRNAMEFRE":"Avenue Franklin Roosevelt","STRNAMEDUT":"Franklin Rooseveltlaan","SLOPE":1.59,"LENGTH":24.5873966002052},"bbox":[150742.80428822,166876.24493592,150766.39,166882.89]},{"type":"Feature","id":"StreetAxes.fid-6d0a8ac7_1a031465927_-1d2f","geometry":{"type":"LineString","coordinates":[[150747.9779812,166868.02303587],[150734.76692498,166857.05575935]]},"geometry_name":"GEOM","properties":{"INSPIRE_ID":"https://databrussels.be/id/streetaxe/75924","TYPE":"S","HIERARCHY":"MER","LVL":0,"STARTSN_ID":"https://databrussels.be/id/streetnode/7745","ENDSN_ID":"https://databrussels.be/id/streetnode/7747","STRNAMEFRE":"Avenue Franklin Roosevelt","STRNAMEDUT":"Franklin Rooseveltlaan","SLOPE":0.23,"LENGTH":17.1701240773324},"bbox":[150734.76692498,166857.05575935,150747.9779812,166868.02303587]},{"type":"Feature","id":"StreetAxes.fid-6d0a8ac7_1a031465927_-1d31","geometry":{"type":"LineString","coordinates":[[150637.52734588,167011.20185573],[150642.877,167000],[150657.9308281,166971.77645489],[150672.15747489,166946.15796756],[150693.27253852,166913.02643325],[150719.05136197,166877.34752688],[150734.76692498,166857.05575935]]},"geometry_name":"GEOM","properties":{"INSPIRE_ID":"https://databrussels.be/id/streetaxe/75975","TYPE":"S","HIERARCHY":"MER","LVL":0,"STARTSN_ID":"https://databrussels.be/id/streetnode/7062","ENDSN_ID":"https://databrussels.be/id/streetnode/7747","STRNAMEFRE":"Avenue Franklin Roosevelt","STRNAMEDUT":"Franklin Rooseveltlaan","SLOPE":2.39,"LENGTH":182.675861330029},"bbox":[150637.52734588,166857.05575935,150734.76692498,167011.20185573]},{"type":"Feature","id":"StreetAxes.fid-6d0a8ac7_1a031465927_-1d3e","geometry":{"type":"LineString","coordinates":[[151017.984,166562.921],[151000.141,166588.543],[150985.557,166609.64],[150971.693,166628.296],[150954.503,166649.058],[150933.317,166671.425],[150920.234,166684.513],[150899.741,166703.075]]},"geometry_name":"GEOM","properties":{"INSPIRE_ID":"https://databrussels.be/id/streetaxe/76590","TYPE":"S","HIERARCHY":"MER","LVL":0,"STARTSN_ID":"https://databrussels.be/id/streetnode/7746","ENDSN_ID":"https://databrussels.be/id/streetnode/7742","STRNAMEFRE":"Avenue Franklin Roosevelt","STRNAMEDUT":"Franklin Rooseveltlaan","SLOPE":1.4,"LENGTH":184.03145983464},"bbox":[150899.741,166562.921,151017.984,166703.075]},{"type":"Feature","id":"StreetAxes.fid-6d0a8ac7_1a031465927_-1d29","geometry":{"type":"LineString","coordinates":[[150754.12071361,166860.66600533],[150758.07388829,166855.14842263],[150789.5877042,166820.7313045],[150810.20239434,166801.17458343]]},"geometry_name":"GEOM","properties":{"INSPIRE_ID":"https://databrussels.be/id/streetaxe/76591","TYPE":"S","HIERARCHY":"MER","LVL":0,"STARTSN_ID":"https://databrussels.be/id/streetnode/7748","ENDSN_ID":"https://databrussels.be/id/streetnode/7741","STRNAMEFRE":"Avenue Franklin Roosevelt","STRNAMEDUT":"Franklin Rooseveltlaan","SLOPE":2.49,"LENGTH":81.8683014476046},"bbox":[150754.12071361,166801.17458343,150810.20239434,166860.66600533]},{"type":"Feature","id":"StreetAxes.fid-6d0a8ac7_1a031465927_-1d2a","geometry":{"type":"LineString","coordinates":[[150754.12071361,166860.66600533],[150759.16171121,166873.01714545],[150766.39,166882.89]]},"geometry_name":"GEOM","properties":{"INSPIRE_ID":"https://databrussels.be/id/streetaxe/76592","TYPE":"S","HIERARCHY":"MER","LVL":0,"STARTSN_ID":"https://databrussels.be/id/streetnode/7748","ENDSN_ID":"https://databrussels.be/id/streetnode/7749","STRNAMEFRE":"Avenue Franklin Roosevelt","STRNAMEDUT":"Franklin Rooseveltlaan","SLOPE":0.16,"LENGTH":25.5763221135378},"bbox":[150754.12071361,166860.66600533,150766.39,166882.89]},{"type":"Feature","id":"StreetAxes.fid-6d0a8ac7_1a031465927_-1d1d","geometry":{"type":"LineString","coordinates":[[150484.56425931,167023.44170628],[150500.364,167000.916],[150508.948,166977.94],[150510.91,166960.892],[150509.226,166941.538],[150503.775,166923.628],[150485.914,166890.622],[150470.694,166862.142],[150468.89366759,166856.64354555]]},"geometry_name":"GEOM","properties":{"INSPIRE_ID":"https://databrussels.be/id/streetaxe/78766","TYPE":"S","HIERARCHY":null,"LVL":0,"STARTSN_ID":"https://databrussels.be/id/streetnode/4793","ENDSN_ID":"https://databrussels.be/id/streetnode/4802","STRNAMEFRE":"Avenue de Flore","STRNAMEDUT":"Floralaan","SLOPE":2.36,"LENGTH":182.956584093412},"bbox":[150468.89366759,166856.64354555,150510.91,167023.44170628]},{"type":"Feature","id":"StreetAxes.fid-6d0a8ac7_1a031465927_-1d13","geometry":{"type":"LineString","coordinates":[[150517.06544003,166697.26487083],[150521.295,166689.061],[150536.91104548,166662.57743617],[150550.118,166643.94]]},"geometry_name":"GEOM","properties":{"INSPIRE_ID":"https://databrussels.be/id/streetaxe/78818","TYPE":"S","HIERARCHY":"MAR","LVL":0,"STARTSN_ID":"https://databrussels.be/id/streetnode/4622","ENDSN_ID":"https://databrussels.be/id/streetnode/2465","STRNAMEFRE":"Avenue de Flore","STRNAMEDUT":"Floralaan","SLOPE":2.72,"LENGTH":62.8171972359884},"bbox":[150517.06544003,166643.94,150550.118,166697.26487083]},{"type":"Feature","id":"StreetAxes.fid-6d0a8ac7_1a031465927_-1d15","geometry":{"type":"LineString","coordinates":[[150508.68889164,166552.35235225],[150510.486,166553.3565],[150524.5105,166566.6695],[150534.529,166580.263],[150540.0235,166594.8485],[150542.431,166607.651],[150550.118,166643.94]]},"geometry_name":"GEOM","properties":{"INSPIRE_ID":"https://databrussels.be/id/streetaxe/78820","TYPE":"S","HIERARCHY":"MAR","LVL":0,"STARTSN_ID":"https://databrussels.be/id/streetnode/4891","ENDSN_ID":"https://databrussels.be/id/streetnode/2465","STRNAMEFRE":"Avenue de la Laiterie","STRNAMEDUT":"Melkerijlaan","SLOPE":3.74,"LENGTH":103.989404104914},"bbox":[150508.68889164,166552.35235225,150550.118,166643.94]},{"type":"Feature","id":"StreetAxes.fid-6d0a8ac7_1a031465927_-1d1a","geometry":{"type":"LineString","coordinates":[[150508.68889164,166552.35235225],[150495.79,166545.145],[150482.509,166538.049],[150451.925,166524.44],[150427.72,166514.655],[150402.154,166498.08],[150394.558,166492.156],[150376.094,166473.787],[150375.301,166472.736]]},"geometry_name":"GEOM","properties":{"INSPIRE_ID":"https://databrussels.be/id/streetaxe/78821","TYPE":"S","HIERARCHY":"MAR","LVL":0,"STARTSN_ID":"https://databrussels.be/id/streetnode/4891","ENDSN_ID":"https://databrussels.be/id/streetnode/4893","STRNAMEFRE":"Avenue de la Laiterie","STRNAMEDUT":"Melkerijlaan","SLOPE":0.45,"LENGTH":156.880217517791},"bbox":[150375.301,166472.736,150508.68889164,166552.35235225]},{"type":"Feature","id":"StreetAxes.fid-6d0a8ac7_1a031465927_-1d44","geometry":{"type":"LineString","coordinates":[[150706.558,166708.266],[150730.386,166681.173],[150765.258,166644.05],[150905.123,166494.494],[150913.046,166482.576]]},"geometry_name":"GEOM","properties":{"INSPIRE_ID":"https://databrussels.be/id/streetaxe/78962","TYPE":"S","HIERARCHY":"DR","LVL":0,"STARTSN_ID":"https://databrussels.be/id/streetnode/4417","ENDSN_ID":"https://databrussels.be/id/streetnode/3361","STRNAMEFRE":"Avenue Victoria","STRNAMEDUT":"Victorialaan","SLOPE":1.94,"LENGTH":306.091076760596},"bbox":[150706.558,166482.576,150913.046,166708.266]},{"type":"Feature","id":"StreetAxes.fid-6d0a8ac7_1a031465927_-1d46","geometry":{"type":"LineString","coordinates":[[150683.145,166519.196],[150708.494,166510.832],[150743.365,166503.324],[150765.425,166497.742],[150787.667,166487.767],[150808.626,166473.996],[150823.71,166461.324],[150835.895,166451.088]]},"geometry_name":"GEOM","properties":{"INSPIRE_ID":"https://databrussels.be/id/streetaxe/79489","TYPE":"S","HIERARCHY":"MAR","LVL":0,"STARTSN_ID":"https://databrussels.be/id/streetnode/4418","ENDSN_ID":"https://databrussels.be/id/streetnode/4170","STRNAMEFRE":"Avenue de Flore","STRNAMEDUT":"Floralaan","SLOPE":0.77,"LENGTH":170.187500901938},"bbox":[150683.145,166451.088,150835.895,166519.196]},{"type":"Feature","id":"StreetAxes.fid-6d0a8ac7_1a031465927_-1d1e","geometry":{"type":"LineString","coordinates":[[150468.89366759,166856.64354555],[150480.133,166859.144],[150486.6305,166861.21],[150491.573,166863.477],[150498.5175,166868.183],[150511.226,166880.801],[150516.7795,166885.9495],[150522.174,166890.5995],[150529.16,166895.1875],[150535.6385,166898.958],[150542.949,166902.461],[150558.506,166909.11],[150567.4295,166914.048],[150573.353,166918.473],[150577.5795,166922.3135],[150582.10457268,166927.81247554]]},"geometry_name":"GEOM","properties":{"INSPIRE_ID":"https://databrussels.be/id/streetaxe/79522","TYPE":"S","HIERARCHY":null,"LVL":0,"STARTSN_ID":"https://databrussels.be/id/streetnode/4802","ENDSN_ID":"https://databrussels.be/id/streetnode/4892","STRNAMEFRE":"Chemin du Libre Examen","STRNAMEDUT":"Vrij Onderzoekweg","SLOPE":4.75,"LENGTH":136.065304555747},"bbox":[150468.89366759,166856.64354555,150582.10457268,166927.81247554]},{"type":"Feature","id":"StreetAxes.fid-6d0a8ac7_1a031465927_-1d1f","geometry":{"type":"LineString","coordinates":[[150471.838,166798.245],[150487.178,166759.958],[150506.332,166718.084],[150517.06544003,166697.26487083]]},"geometry_name":"GEOM","properties":{"INSPIRE_ID":"https://databrussels.be/id/streetaxe/79523","TYPE":"S","HIERARCHY":"MAR","LVL":0,"STARTSN_ID":"https://databrussels.be/id/streetnode/5759","ENDSN_ID":"https://databrussels.be/id/streetnode/4622","STRNAMEFRE":"Avenue de Flore","STRNAMEDUT":"Floralaan","SLOPE":2.71,"LENGTH":110.715651435865},"bbox":[150471.838,166697.26487083,150517.06544003,166798.245]},{"type":"Feature","id":"StreetAxes.fid-6d0a8ac7_1a031465927_-1d3c","geometry":{"type":"LineString","coordinates":[[150550.118,166643.94],[150567.806,166617.254],[150589.296,166590.14],[150603.34381177,166575.53148808]]},"geometry_name":"GEOM","properties":{"INSPIRE_ID":"https://databrussels.be/id/streetaxe/79525","TYPE":"S","HIERARCHY":"MAR","LVL":0,"STARTSN_ID":"https://databrussels.be/id/streetnode/2465","ENDSN_ID":"https://databrussels.be/id/streetnode/4616","STRNAMEFRE":"Avenue de Flore","STRNAMEDUT":"Floralaan","SLOPE":2.51,"LENGTH":86.8802346087003},"bbox":[150550.118,166575.53148808,150603.34381177,166643.94]},{"type":"Feature","id":"StreetAxes.fid-6d0a8ac7_1a031465927_-1d30","geometry":{"type":"LineString","coordinates":[[150742.80428822,166876.24493592],[150730.24892655,166888.28140872],[150718.5189168,166903.85343043],[150708.14183326,166917.97429599],[150693.03648182,166940.26489158],[150676.37770608,166968.27595516],[150664.74025991,166989.65434562],[150648.55524318,167022.42371382]]},"geometry_name":"GEOM","properties":{"INSPIRE_ID":"https://databrussels.be/id/streetaxe/79884","TYPE":"S","HIERARCHY":"MER","LVL":0,"STARTSN_ID":"https://databrussels.be/id/streetnode/7744","ENDSN_ID":"https://databrussels.be/id/streetnode/7061","STRNAMEFRE":"Avenue Franklin Roosevelt","STRNAMEDUT":"Franklin Rooseveltlaan","SLOPE":2.39,"LENGTH":174.818407848183},"bbox":[150648.55524318,166876.24493592,150742.80428822,167022.42371382]},{"type":"Feature","id":"StreetAxes.fid-6d0a8ac7_1a031465927_-1d2e","geometry":{"type":"LineString","coordinates":[[150899.741,166703.075],[150887.758,166713.99],[150868.964,166729.543],[150850.852,166745.011],[150829.397,166762.959],[150806.579,166782.647],[150790.958,166797.326],[150776.229,166811.67],[150744.795,166845.837],[150734.767,166857.056]]},"geometry_name":"GEOM","properties":{"INSPIRE_ID":"https://databrussels.be/id/streetaxe/80299","TYPE":"S","HIERARCHY":"MER","LVL":0,"STARTSN_ID":"https://databrussels.be/id/streetnode/7742","ENDSN_ID":"https://databrussels.be/id/streetnode/7747","STRNAMEFRE":"Avenue Franklin Roosevelt","STRNAMEDUT":"Franklin Rooseveltlaan","SLOPE":2.38,"LENGTH":226.00171365035},"bbox":[150734.767,166703.075,150899.741,166857.056]},{"type":"Feature","id":"StreetAxes.fid-6d0a8ac7_1a031465927_-1d22","geometry":{"type":"LineString","coordinates":[[150899.741,166703.075],[150912.553,166715.024]]},"geometry_name":"GEOM","properties":{"INSPIRE_ID":"https://databrussels.be/id/streetaxe/80300","TYPE":"S","HIERARCHY":"MER","LVL":0,"STARTSN_ID":"https://databrussels.be/id/streetnode/7742","ENDSN_ID":"https://databrussels.be/id/streetnode/7751","STRNAMEFRE":"Avenue Franklin Roosevelt","STRNAMEDUT":"Franklin Rooseveltlaan","SLOPE":0.23,"LENGTH":17.5193020694312},"bbox":[150899.741,166703.075,150912.553,166715.024]},{"type":"Feature","id":"StreetAxes.fid-6d0a8ac7_1a031465927_-1d25","geometry":{"type":"LineString","coordinates":[[150847.947,166768.811],[150868.352,166752.311],[150891.31,166733.725],[150912.553,166715.024]]},"geometry_name":"GEOM","properties":{"INSPIRE_ID":"https://databrussels.be/id/streetaxe/80301","TYPE":"S","HIERARCHY":"MER","LVL":0,"STARTSN_ID":"https://databrussels.be/id/streetnode/7743","ENDSN_ID":"https://databrussels.be/id/streetnode/7751","STRNAMEFRE":"Avenue Franklin Roosevelt","STRNAMEDUT":"Franklin Rooseveltlaan","SLOPE":2.46,"LENGTH":84.0815322704472},"bbox":[150847.947,166715.024,150912.553,166768.811]},{"type":"Feature","id":"StreetAxes.fid-6d0a8ac7_1a031465927_-1d33","geometry":{"type":"LineString","coordinates":[[150617.522,166988.556],[150621.238,166994.652],[150637.52734588,167011.20185573]]},"geometry_name":"GEOM","properties":{"INSPIRE_ID":"https://databrussels.be/id/streetaxe/81253","TYPE":"S","HIERARCHY":"MER","LVL":0,"STARTSN_ID":"https://databrussels.be/id/streetnode/4615","ENDSN_ID":"https://databrussels.be/id/streetnode/7062","STRNAMEFRE":"Avenue Franklin Roosevelt","STRNAMEDUT":"Franklin Rooseveltlaan","SLOPE":1.94,"LENGTH":30.3608715186609},"bbox":[150617.522,166988.556,150637.52734588,167011.20185573]},{"type":"Feature","id":"StreetAxes.fid-6d0a8ac7_1a031465927_-1d43","geometry":{"type":"LineString","coordinates":[[150913.046,166482.576],[150923.51,166491.58],[150992.51,166551.245],[151017.984,166562.921]]},"geometry_name":"GEOM","properties":{"INSPIRE_ID":"https://databrussels.be/id/streetaxe/81329","TYPE":"S","HIERARCHY":"MAR","LVL":0,"STARTSN_ID":"https://databrussels.be/id/streetnode/3361","ENDSN_ID":"https://databrussels.be/id/streetnode/7746","STRNAMEFRE":"Avenue de l'Orée","STRNAMEDUT":"Zoomlaan","SLOPE":3.18,"LENGTH":133.046024018584},"bbox":[150913.046,166482.576,151017.984,166562.921]},{"type":"Feature","id":"StreetAxes.fid-6d0a8ac7_1a031465927_-1d27","geometry":{"type":"LineString","coordinates":[[150810.20239434,166801.17458343],[150820.0769187,166809.69021519],[150835.43862638,166817.11877484],[150841.60562638,166817.90777484],[150845.97962638,166812.43877484],[150860.50899215,166782.88693818],[150847.94684393,166768.81061205]]},"geometry_name":"GEOM","properties":{"INSPIRE_ID":"https://databrussels.be/id/streetaxe/83240","TYPE":"S","HIERARCHY":"MER","LVL":0,"STARTSN_ID":"https://databrussels.be/id/streetnode/7741","ENDSN_ID":"https://databrussels.be/id/streetnode/7743","STRNAMEFRE":"Avenue Franklin Roosevelt","STRNAMEDUT":"Franklin Rooseveltlaan","SLOPE":1.26,"LENGTH":95.1201713146758},"bbox":[150810.20239434,166768.81061205,150860.50899215,166817.90777484]},{"type":"Feature","id":"StreetAxes.fid-6d0a8ac7_1a031465927_-1d26","geometry":{"type":"LineString","coordinates":[[150810.20239434,166801.17458343],[150829.49404619,166783.72324708],[150847.94684393,166768.81061205]]},"geometry_name":"GEOM","properties":{"INSPIRE_ID":"https://databrussels.be/id/streetaxe/83241","TYPE":"S","HIERARCHY":"MER","LVL":0,"STARTSN_ID":"https://databrussels.be/id/streetnode/7741","ENDSN_ID":"https://databrussels.be/id/streetnode/7743","STRNAMEFRE":"Avenue Franklin Roosevelt","STRNAMEDUT":"Franklin Rooseveltlaan","SLOPE":2.41,"LENGTH":49.7391383765967},"bbox":[150810.20239434,166768.81061205,150847.94684393,166801.17458343]},{"type":"Feature","id":"StreetAxes.fid-6d0a8ac7_1a031465927_-1d23","geometry":{"type":"LineString","coordinates":[[150887.389,166939.052],[150896.708,166921.759],[150975.175,166760.5],[150981.117,166748.623]]},"geometry_name":"GEOM","properties":{"INSPIRE_ID":"https://databrussels.be/id/streetaxe/84646","TYPE":"S","HIERARCHY":"DR","LVL":0,"STARTSN_ID":"https://databrussels.be/id/streetnode/1028","ENDSN_ID":"https://databrussels.be/id/streetnode/2262","STRNAMEFRE":"Square Jean Servais","STRNAMEDUT":"Jean servaissquare","SLOPE":0.54,"LENGTH":212.260953722711},"bbox":[150887.389,166748.623,150981.117,166939.052]},{"type":"Feature","id":"StreetAxes.fid-6d0a8ac7_1a031465927_-1d2d","geometry":{"type":"LineString","coordinates":[[150742.80428822,166876.24493592],[150747.9779812,166868.02303587]]},"geometry_name":"GEOM","properties":{"INSPIRE_ID":"https://databrussels.be/id/streetaxe/92516","TYPE":"I","HIERARCHY":"MER","LVL":0,"STARTSN_ID":"https://databrussels.be/id/streetnode/7744","ENDSN_ID":"https://databrussels.be/id/streetnode/7745","STRNAMEFRE":"Avenue Franklin Roosevelt","STRNAMEDUT":"Franklin Rooseveltlaan","SLOPE":1.75,"LENGTH":9.71425444284957},"bbox":[150742.80428822,166868.02303587,150747.9779812,166876.24493592]},{"type":"Feature","id":"StreetAxes.fid-6d0a8ac7_1a031465927_-1d2b","geometry":{"type":"LineString","coordinates":[[150747.9779812,166868.02303587],[150754.12071361,166860.66600533]]},"geometry_name":"GEOM","properties":{"INSPIRE_ID":"https://databrussels.be/id/streetaxe/92518","TYPE":"I","HIERARCHY":"MER","LVL":0,"STARTSN_ID":"https://databrussels.be/id/streetnode/7745","ENDSN_ID":"https://databrussels.be/id/streetnode/7748","STRNAMEFRE":"Avenue Franklin Roosevelt","STRNAMEDUT":"Franklin Rooseveltlaan","SLOPE":1.88,"LENGTH":9.58431322200091},"bbox":[150747.9779812,166860.66600533,150754.12071361,166868.02303587]},{"type":"Feature","id":"StreetAxes.fid-6d0a8ac7_1a031465927_-1d39","geometry":{"type":"LineString","coordinates":[[150550.118,166643.94],[150559.159,166646.25],[150561.855,166648.95],[150567.46,166651.68],[150573.745,166653.5],[150580.3,166654.365],[150589.69,166653.755],[150632.566,166638.3255],[150643.8545,166633.776],[150648.269,166632.0755]]},"geometry_name":"GEOM","properties":{"INSPIRE_ID":"https://databrussels.be/id/streetaxe/94456","TYPE":"S","HIERARCHY":null,"LVL":0,"STARTSN_ID":"https://databrussels.be/id/streetnode/2465","ENDSN_ID":"https://databrussels.be/id/streetnode/4618","STRNAMEFRE":"Sentier des Sittelles","STRNAMEDUT":"Boomkleverspad","SLOPE":3.46,"LENGTH":104.415567853791},"bbox":[150550.118,166632.0755,150648.269,166654.365]},{"type":"Feature","id":"StreetAxes.fid-6d0a8ac7_1a031465927_-1d14","geometry":{"type":"LineString","coordinates":[[150369.14025,166645.809],[150368.504,166639.6135],[150449.009,166604.803],[150484.15,166576.105],[150496.765,166564.335],[150503.83217741,166556.83039548],[150508.68889164,166552.35235225]]},"geometry_name":"GEOM","properties":{"INSPIRE_ID":"https://databrussels.be/id/streetaxe/94463","TYPE":"S","HIERARCHY":null,"LVL":0,"STARTSN_ID":"https://databrussels.be/id/streetnode/4617","ENDSN_ID":"https://databrussels.be/id/streetnode/4891","STRNAMEFRE":"Chemin des Lucioles","STRNAMEDUT":"Glimwormenweg","SLOPE":6.08,"LENGTH":173.474845828359},"bbox":[150368.504,166552.35235225,150508.68889164,166645.809]},{"type":"Feature","id":"StreetAxes.fid-6d0a8ac7_1a031465927_-1d3f","geometry":{"type":"LineString","coordinates":[[150558.25583572,166525.65412288],[150559.977,166527.1765],[150595.441,166567.932],[150603.34381177,166575.53148808]]},"geometry_name":"GEOM","properties":{"INSPIRE_ID":"https://databrussels.be/id/streetaxe/94464","TYPE":"S","HIERARCHY":"DR","LVL":0,"STARTSN_ID":"https://databrussels.be/id/streetnode/4890","ENDSN_ID":"https://databrussels.be/id/streetnode/4616","STRNAMEFRE":"Chemin de la Meute","STRNAMEDUT":"Jachtkoppelweg","SLOPE":4.89,"LENGTH":67.2867633773374},"bbox":[150558.25583572,166525.65412288,150603.34381177,166575.53148808]},{"type":"Feature","id":"StreetAxes.fid-6d0a8ac7_1a031465927_-1d17","geometry":{"type":"LineString","coordinates":[[150535.99454254,166526.08589356],[150538.947,166527.6155],[150543.188,166529.646],[150547.141,166530.252],[150553.68,166529.053],[150557.3115,166526.893],[150558.25583572,166525.65412288]]},"geometry_name":"GEOM","properties":{"INSPIRE_ID":"https://databrussels.be/id/streetaxe/94549","TYPE":"S","HIERARCHY":"DR","LVL":0,"STARTSN_ID":"https://databrussels.be/id/streetnode/4620","ENDSN_ID":"https://databrussels.be/id/streetnode/4890","STRNAMEFRE":"Rendez-vous de Chasse","STRNAMEDUT":"Jachtbijeenkomst","SLOPE":0.37,"LENGTH":24.4574586924972},"bbox":[150535.99454254,166525.65412288,150558.25583572,166530.252]},{"type":"Feature","id":"StreetAxes.fid-6d0a8ac7_1a031465927_-1d40","geometry":{"type":"LineString","coordinates":[[150690.23842326,166611.11627558],[150689.947,166602.433],[150691.8005,166595.3925],[150694.0435,166582.3855],[150694.9655,166573.207],[150695.439,166563.9415],[150694.731,166555.085],[150692.4185,166541.1455],[150689.4135,166531.068],[150683.145,166519.196]]},"geometry_name":"GEOM","properties":{"INSPIRE_ID":"https://databrussels.be/id/streetaxe/94629","TYPE":"S","HIERARCHY":null,"LVL":0,"STARTSN_ID":"https://databrussels.be/id/streetnode/4419","ENDSN_ID":"https://databrussels.be/id/streetnode/4418","STRNAMEFRE":"Sentier des Bergeronnettes","STRNAMEDUT":"Kwikstaartenpad","SLOPE":6.35,"LENGTH":94.6258707751711},"bbox":[150683.145,166519.196,150695.439,166611.11627558]},{"type":"Feature","id":"StreetAxes.fid-6d0a8ac7_1a031465927_-1d16","geometry":{"type":"LineString","coordinates":[[150508.68889164,166552.35235225],[150513.598,166547.826],[150533.623,166528.3285],[150535.99454254,166526.08589356]]},"geometry_name":"GEOM","properties":{"INSPIRE_ID":"https://databrussels.be/id/streetaxe/94638","TYPE":"S","HIERARCHY":"DR","LVL":0,"STARTSN_ID":"https://databrussels.be/id/streetnode/4891","ENDSN_ID":"https://databrussels.be/id/streetnode/4620","STRNAMEFRE":"Allée de la Vénerie","STRNAMEDUT":"Jagerijdreef","SLOPE":4.41,"LENGTH":37.8904519063215},"bbox":[150508.68889164,166526.08589356,150535.99454254,166552.35235225]},{"type":"Feature","id":"StreetAxes.fid-6d0a8ac7_1a031465927_-1d47","geometry":{"type":"LineString","coordinates":[[150560.7630063,166502.28629915],[150563.104,166499.5175],[150568.999,166494.3295],[150638.172,166429.9005],[150645.54734888,166423.35445249]]},"geometry_name":"GEOM","properties":{"INSPIRE_ID":"https://databrussels.be/id/streetaxe/94639","TYPE":"S","HIERARCHY":"DR","LVL":0,"STARTSN_ID":"https://databrussels.be/id/streetnode/4889","ENDSN_ID":"https://databrussels.be/id/streetnode/4621","STRNAMEFRE":"Allée de la Vénerie","STRNAMEDUT":"Jagerijdreef","SLOPE":1.89,"LENGTH":115.870386687205},"bbox":[150560.7630063,166423.35445249,150645.54734888,166502.28629915]},{"type":"Feature","id":"StreetAxes.fid-6d0a8ac7_1a031465927_-1d45","geometry":{"type":"LineString","coordinates":[[150690.23842326,166611.11627558],[150694.7285,166604.1025],[150699.527,166599.1775],[150709.6765,166591.6045],[150717.5685,166587.1455],[150727.5005,166582.877],[150741.244,166578.308],[150756.6685,166574.423],[150776.4695,166568.4275],[150787.2485,166563.3015],[150795.2295,166558.119],[150807.201,166548.4175],[150819.262,166536.5085],[150827.1655,166527.2505],[150833.1095,166517.8095],[150834.9505,166514.216],[150840.1585,166495.713],[150841.2995,166488.9765],[150841.43,166483.023],[150840.3075,166477.0175],[150837.145,166469.795],[150836.262,166466.074],[150835.895,166451.088]]},"geometry_name":"GEOM","properties":{"INSPIRE_ID":"https://databrussels.be/id/streetaxe/94714","TYPE":"S","HIERARCHY":null,"LVL":0,"STARTSN_ID":"https://databrussels.be/id/streetnode/4419","ENDSN_ID":"https://databrussels.be/id/streetnode/4170","STRNAMEFRE":"Chemin de l'Aube","STRNAMEDUT":"Morgenstondweg","SLOPE":2.99,"LENGTH":244.815903980458},"bbox":[150690.23842326,166451.088,150841.43,166611.11627558]},{"type":"Feature","id":"StreetAxes.fid-6d0a8ac7_1a031465927_-1d38","geometry":{"type":"LineString","coordinates":[[150517.06544003,166697.26487083],[150525.855,166701.615],[150526.56,166709.74],[150526.4895,166716.3435],[150525.77,166725.41],[150526.11,166734.285],[150528.17,166742.71],[150533.6855,166756.294],[150536.809,166762.6655],[150540.8505,166769.4905],[150542.6745,166771.789],[150551.433,166780.1895],[150563.14,166790.8025],[150568.122,166796.5105],[150576.995,166808.5555],[150582.12482741,166812.31313316]]},"geometry_name":"GEOM","properties":{"INSPIRE_ID":"https://databrussels.be/id/streetaxe/94715","TYPE":"S","HIERARCHY":null,"LVL":0,"STARTSN_ID":"https://databrussels.be/id/streetnode/4622","ENDSN_ID":"https://databrussels.be/id/streetnode/4887","STRNAMEFRE":"Sentier des Mésanges","STRNAMEDUT":"Mezenpad","SLOPE":10.51,"LENGTH":140.672401347884},"bbox":[150517.06544003,166697.26487083,150582.12482741,166812.31313316]},{"type":"Feature","id":"StreetAxes.fid-6d0a8ac7_1a031465927_-1d42","geometry":{"type":"LineString","coordinates":[[150558.25583572,166525.65412288],[150559.2545,166524.2445],[150562.6345,166518.5885],[150563.4355,166513.368],[150563.118,166510.1365],[150561.546,166505.572],[150560.7630063,166502.28629915]]},"geometry_name":"GEOM","properties":{"INSPIRE_ID":"https://databrussels.be/id/streetaxe/94723","TYPE":"S","HIERARCHY":null,"LVL":0,"STARTSN_ID":"https://databrussels.be/id/streetnode/4890","ENDSN_ID":"https://databrussels.be/id/streetnode/4889","STRNAMEFRE":"Rendez-vous de Chasse","STRNAMEDUT":"Jachtbijeenkomst","SLOPE":2.51,"LENGTH":25.0504910495035},"bbox":[150558.25583572,166502.28629915,150563.4355,166525.65412288]},{"type":"Feature","id":"StreetAxes.fid-6d0a8ac7_1a031465927_-1d1c","geometry":{"type":"LineString","coordinates":[[150514.27974959,167104.62691825],[150516.035,167103.49],[150524.17,167097.215],[150530.175,167091.385],[150539.7605,167079.9875],[150543.8805,167070.131],[150547.558,167059.58],[150553.254,167041.0985],[150560.40425,167013.26],[150574.942,166952.263],[150576.81664695,166946.47950202]]},"geometry_name":"GEOM","properties":{"INSPIRE_ID":"https://databrussels.be/id/streetaxe/94725","TYPE":"S","HIERARCHY":null,"LVL":0,"STARTSN_ID":"https://databrussels.be/id/streetnode/6288","ENDSN_ID":"https://databrussels.be/id/streetnode/4619","STRNAMEFRE":"Chemin de l'Aube","STRNAMEDUT":"Morgenstondweg","SLOPE":0.79,"LENGTH":174.350324917048},"bbox":[150514.27974959,166946.47950202,150576.81664695,167104.62691825]},{"type":"Feature","id":"StreetAxes.fid-6d0a8ac7_1a031465927_-1d34","geometry":{"type":"LineString","coordinates":[[150582.12482741,166812.31313316],[150584.615,166808.4855],[150594.3735,166796.183],[150600.164,166788.802],[150606.162,166780.984],[150613.204,166771.908],[150617.777,166764.934],[150623.1825,166754.2175],[150626.045,166747.057],[150630.8935,166733.699],[150633.509,166723.474],[150637.23,166703.3655],[150637.824,166698.8745],[150641.075,166680.1935],[150643.3895,166663.7105],[150647.833,166637.212],[150648.269,166632.0755]]},"geometry_name":"GEOM","properties":{"INSPIRE_ID":"https://databrussels.be/id/streetaxe/94801","TYPE":"S","HIERARCHY":null,"LVL":0,"STARTSN_ID":"https://databrussels.be/id/streetnode/4887","ENDSN_ID":"https://databrussels.be/id/streetnode/4618","STRNAMEFRE":"Chemin de l'Aube","STRNAMEDUT":"Morgenstondweg","SLOPE":6.56,"LENGTH":196.420394117967},"bbox":[150582.12482741,166632.0755,150648.269,166812.31313316]},{"type":"Feature","id":"StreetAxes.fid-6d0a8ac7_1a031465927_-1d18","geometry":{"type":"LineString","coordinates":[[150530.17668025,166510.23374539],[150530.5905,166513.3875],[150531.78340629,166517.25308169],[150534.396,166522.862],[150535.99454254,166526.08589356]]},"geometry_name":"GEOM","properties":{"INSPIRE_ID":"https://databrussels.be/id/streetaxe/94802","TYPE":"S","HIERARCHY":"DR","LVL":0,"STARTSN_ID":"https://databrussels.be/id/streetnode/4624","ENDSN_ID":"https://databrussels.be/id/streetnode/4620","STRNAMEFRE":"Rendez-vous de Chasse","STRNAMEDUT":"Jachtbijeenkomst","SLOPE":2.47,"LENGTH":17.0122331799217},"bbox":[150530.17668025,166510.23374539,150535.99454254,166526.08589356]},{"type":"Feature","id":"StreetAxes.fid-6d0a8ac7_1a031465927_-1d3a","geometry":{"type":"LineString","coordinates":[[150706.558,166708.266],[150702.33,166704.908],[150700.05,166703.21],[150695.4415,166696.8115],[150690.665,166689.395],[150687.765,166683.475],[150687.225,166663.9625],[150690.69,166624.5715],[150690.23842326,166611.11627558]]},"geometry_name":"GEOM","properties":{"INSPIRE_ID":"https://databrussels.be/id/streetaxe/94803","TYPE":"S","HIERARCHY":null,"LVL":0,"STARTSN_ID":"https://databrussels.be/id/streetnode/4417","ENDSN_ID":"https://databrussels.be/id/streetnode/4419","STRNAMEFRE":"Sentier des Bergeronnettes","STRNAMEDUT":"Kwikstaartenpad","SLOPE":0.12,"LENGTH":104.067013930716},"bbox":[150687.225,166611.11627558,150706.558,166708.266]},{"type":"Feature","id":"StreetAxes.fid-6d0a8ac7_1a031465927_-1d3b","geometry":{"type":"LineString","coordinates":[[150648.269,166632.0755],[150652.6835,166630.375],[150672.84725,166623.323],[150678.844,166621.4845],[150685.6085,166618.3485],[150690.23842326,166611.11627558]]},"geometry_name":"GEOM","properties":{"INSPIRE_ID":"https://databrussels.be/id/streetaxe/94913","TYPE":"S","HIERARCHY":null,"LVL":0,"STARTSN_ID":"https://databrussels.be/id/streetnode/4618","ENDSN_ID":"https://databrussels.be/id/streetnode/4419","STRNAMEFRE":"Chemin de l'Aube","STRNAMEDUT":"Morgenstondweg","SLOPE":3.53,"LENGTH":48.407643802295},"bbox":[150648.269,166611.11627558,150690.23842326,166632.0755]},{"type":"Feature","id":"StreetAxes.fid-6d0a8ac7_1a031465927_-1d35","geometry":{"type":"LineString","coordinates":[[150582.10457268,166927.81247554],[150583.396,166924.673],[150585.8355,166920.746],[150595.4435,166906.672],[150602.126,166894.183],[150602.2655,166885.365],[150600.277,166879.2295],[150596.885,166872.793],[150592.7055,166867.4085],[150587.9905,166861.9715],[150583.6875,166855.995],[150578.9795,166845.8845],[150577.7875,166839.1595],[150577.483,166829.8635],[150578.8585,166821.513],[150580.0495,166817.5385],[150582.12482741,166812.31313316]]},"geometry_name":"GEOM","properties":{"INSPIRE_ID":"https://databrussels.be/id/streetaxe/94918","TYPE":"S","HIERARCHY":null,"LVL":0,"STARTSN_ID":"https://databrussels.be/id/streetnode/4892","ENDSN_ID":"https://databrussels.be/id/streetnode/4887","STRNAMEFRE":"Chemin de l'Aube","STRNAMEDUT":"Morgenstondweg","SLOPE":3.03,"LENGTH":128.663008531315},"bbox":[150577.483,166812.31313316,150602.2655,166927.81247554]},{"type":"Feature","id":"StreetAxes.fid-6d0a8ac7_1a031465927_-1d19","geometry":{"type":"LineString","coordinates":[[150560.7630063,166502.28629915],[150557.761,166501.07],[150552.5785,166498.0775],[150547.953,166497.3305],[150543.235,166497.7895],[150536.744,166501.336],[150532.251,166507.9985],[150530.17668025,166510.23374539]]},"geometry_name":"GEOM","properties":{"INSPIRE_ID":"https://databrussels.be/id/streetaxe/94919","TYPE":"S","HIERARCHY":null,"LVL":0,"STARTSN_ID":"https://databrussels.be/id/streetnode/4889","ENDSN_ID":"https://databrussels.be/id/streetnode/4624","STRNAMEFRE":"Rendez-vous de Chasse","STRNAMEDUT":"Jachtbijeenkomst","SLOPE":0.32,"LENGTH":37.1312132159045},"bbox":[150530.17668025,166497.3305,150560.7630063,166510.23374539]},{"type":"Feature","id":"StreetAxes.fid-6d0a8ac7_1a031465927_-1d12","geometry":{"type":"LineString","coordinates":[[150369.14025,166645.809],[150375.362,166649.422],[150389.565,166656.2415],[150413.937,166668.626],[150422.0225,166672.737],[150436.0585,166680.4255],[150445.958,166685.881],[150458.19,166690.442],[150471.435,166694.01],[150482.745,166695.785],[150491.835,166695.89],[150498.28,166695.19],[150505.597889,166693.35495214],[150507.351,166692.457],[150517.06544003,166697.26487083]]},"geometry_name":"GEOM","properties":{"INSPIRE_ID":"https://databrussels.be/id/streetaxe/95023","TYPE":"S","HIERARCHY":null,"LVL":0,"STARTSN_ID":"https://databrussels.be/id/streetnode/4617","ENDSN_ID":"https://databrussels.be/id/streetnode/4622","STRNAMEFRE":"Sentier des Pinsons","STRNAMEDUT":"Vinkenpad","SLOPE":3.07,"LENGTH":160.812799076145},"bbox":[150369.14025,166645.809,150517.06544003,166697.26487083]},{"type":"Feature","id":"StreetAxes.fid-6d0a8ac7_1a031465927_-1d1b","geometry":{"type":"LineString","coordinates":[[150530.17668025,166510.23374539],[150527.967,166507.21],[150525.5895,166495.675],[150524.524,166477.037],[150524.92,166470.216],[150525.5398219,166466.37354055]]},"geometry_name":"GEOM","properties":{"INSPIRE_ID":"https://databrussels.be/id/streetaxe/95095","TYPE":"S","HIERARCHY":"DR","LVL":0,"STARTSN_ID":"https://databrussels.be/id/streetnode/4624","ENDSN_ID":"https://databrussels.be/id/streetnode/4894","STRNAMEFRE":"Chemin des Traqueurs","STRNAMEDUT":"Drijversweg","SLOPE":3.72,"LENGTH":44.9156069194024},"bbox":[150524.524,166466.37354055,150530.17668025,166510.23374539]},{"type":"Feature","id":"StreetAxes.fid-6d0a8ac7_1a031465927_-1d37","geometry":{"type":"LineString","coordinates":[[150576.81664695,166946.47950202],[150578.079,166942.585],[150579.533,166934.064],[150582.10457268,166927.81247554]]},"geometry_name":"GEOM","properties":{"INSPIRE_ID":"https://databrussels.be/id/streetaxe/95096","TYPE":"S","HIERARCHY":"DR","LVL":0,"STARTSN_ID":"https://databrussels.be/id/streetnode/4619","ENDSN_ID":"https://databrussels.be/id/streetnode/4892","STRNAMEFRE":"Chemin de l'Aube","STRNAMEDUT":"Morgenstondweg","SLOPE":0.31,"LENGTH":19.4979182406395},"bbox":[150576.81664695,166927.81247554,150582.10457268,166946.47950202]},{"type":"Feature","id":"StreetAxes.fid-6d0a8ac7_1a031465927_-1d36","geometry":{"type":"LineString","coordinates":[[150617.522,166988.556],[150611.00846728,166989.57635518],[150583.6185,166950.6405],[150576.81664695,166946.47950202]]},"geometry_name":"GEOM","properties":{"INSPIRE_ID":"https://databrussels.be/id/streetaxe/95097","TYPE":"S","HIERARCHY":"DR","LVL":0,"STARTSN_ID":"https://databrussels.be/id/streetnode/4615","ENDSN_ID":"https://databrussels.be/id/streetnode/4619","STRNAMEFRE":"Chemin du Libre Examen","STRNAMEDUT":"Vrij Onderzoekweg","SLOPE":1.15,"LENGTH":62.1713578799872},"bbox":[150576.81664695,166946.47950202,150617.522,166989.57635518]}],"numberReturned":54,"grand_bruxelles_source":{"authority":"Paradigm / Brussels-Capital Region","service":"https://geoservices-urbis.irisnet.be/geoserver/urbisvector/wfs","layer":"urbisvector:StreetAxes","crs":"EPSG:31370","bbox":[150500.0,166500.0,151000.0,167000.0],"cell_id":"bxl-e150500-n166500-s500","ownership":"bbox_intersection_source_unclipped"}}
