{"type":"FeatureCollection","totalFeatures":37,"numberMatched":37,"timeStamp":"2026-08-23T04:20:47.082Z","crs":{"type":"name","properties":{"name":"urn:ogc:def:crs:EPSG::31370"}},"bbox":[148427.52463616,176090.40661581,149024.4307166,176819.14551612],"features":[{"type":"Feature","id":"StreetAxes.fid--6f55e203_1a02c11fc5a_24f6","geometry":{"type":"LineString","coordinates":[[148789.607,176687.532],[148793.154,176700.899],[148798.233,176759.356],[148798.95,176773.78658293]]},"geometry_name":"GEOM","properties":{"INSPIRE_ID":"https://databrussels.be/id/streetaxe/70767","TYPE":"S","HIERARCHY":"DR","LVL":0,"STARTSN_ID":"https://databrussels.be/id/streetnode/1165","ENDSN_ID":"https://databrussels.be/id/streetnode/2143","STRNAMEFRE":"Avenue de l'Amphore","STRNAMEDUT":"Amforalaan","SLOPE":3.96,"LENGTH":86.9552147030391},"bbox":[148789.607,176687.532,148798.95,176773.78658293]},{"type":"Feature","id":"StreetAxes.fid--6f55e203_1a02c11fc5a_24e9","geometry":{"type":"LineString","coordinates":[[148706.313,176541.356],[148703.58,176546.727],[148686.1,176582.094],[148676.354,176603.965],[148665.211,176631.963],[148654.668,176660.979],[148654.21202117,176662.35594962]]},"geometry_name":"GEOM","properties":{"INSPIRE_ID":"https://databrussels.be/id/streetaxe/73589","TYPE":"S","HIERARCHY":"DR","LVL":0,"STARTSN_ID":"https://databrussels.be/id/streetnode/1529","ENDSN_ID":"https://databrussels.be/id/streetnode/5461","STRNAMEFRE":"Avenue de la Croix-Rouge","STRNAMEDUT":"Rode Kruislaan","SLOPE":3.63,"LENGTH":131.877953238718},"bbox":[148654.21202117,176541.356,148706.313,176662.35594962]},{"type":"Feature","id":"StreetAxes.fid--6f55e203_1a02c11fc5a_24ea","geometry":{"type":"LineString","coordinates":[[148706.313,176541.356],[148709.046,176535.983],[148728.922,176500.548],[148749.063,176468.574],[148769.014,176439.282],[148769.97880282,176438.02238398]]},"geometry_name":"GEOM","properties":{"INSPIRE_ID":"https://databrussels.be/id/streetaxe/74650","TYPE":"S","HIERARCHY":"DR","LVL":0,"STARTSN_ID":"https://databrussels.be/id/streetnode/1529","ENDSN_ID":"https://databrussels.be/id/streetnode/5455","STRNAMEFRE":"Avenue de la Croix-Rouge","STRNAMEDUT":"Rode Kruislaan","SLOPE":0.64,"LENGTH":121.473362705556},"bbox":[148706.313,176438.02238398,148769.97880282,176541.356]},{"type":"Feature","id":"StreetAxes.fid--6f55e203_1a02c11fc5a_24e8","geometry":{"type":"LineString","coordinates":[[148648.88885789,176678.7454045],[148649.356,176677.02],[148654.21202117,176662.35594962]]},"geometry_name":"GEOM","properties":{"INSPIRE_ID":"https://databrussels.be/id/streetaxe/74651","TYPE":"S","HIERARCHY":"DR","LVL":0,"STARTSN_ID":"https://databrussels.be/id/streetnode/5457","ENDSN_ID":"https://databrussels.be/id/streetnode/5461","STRNAMEFRE":"Avenue de la Croix-Rouge","STRNAMEDUT":"Rode Kruislaan","SLOPE":4.7,"LENGTH":17.2347023322621},"bbox":[148648.88885789,176662.35594962,148654.21202117,176678.7454045]},{"type":"Feature","id":"StreetAxes.fid--6f55e203_1a02c11fc5a_24eb","geometry":{"type":"LineString","coordinates":[[148789.607,176687.532],[148779.007,176690.175],[148769.094,176691.285],[148759.304,176690.188],[148751.136,176685.904],[148746.192,176681.014],[148745.298,176679.273]]},"geometry_name":"GEOM","properties":{"INSPIRE_ID":"https://databrussels.be/id/streetaxe/75003","TYPE":"S","HIERARCHY":"DR","LVL":0,"STARTSN_ID":"https://databrussels.be/id/streetnode/1165","ENDSN_ID":"https://databrussels.be/id/streetnode/5459","STRNAMEFRE":"Avenue de l'Amphore","STRNAMEDUT":"Amforalaan","SLOPE":2.5,"LENGTH":48.8849474921921},"bbox":[148745.298,176679.273,148789.607,176691.285]},{"type":"Feature","id":"StreetAxes.fid--6f55e203_1a02c11fc5a_24f3","geometry":{"type":"LineString","coordinates":[[148887.34955169,176625.09491445],[148906.99746518,176611.00544221]]},"geometry_name":"GEOM","properties":{"INSPIRE_ID":"https://databrussels.be/id/streetaxe/75540","TYPE":"S","HIERARCHY":"DR","LVL":0,"STARTSN_ID":"https://databrussels.be/id/streetnode/14179","ENDSN_ID":"https://databrussels.be/id/streetnode/10897","STRNAMEFRE":"Avenue du Forum","STRNAMEDUT":"Forumlaan","SLOPE":0.08,"LENGTH":24.1775460361897},"bbox":[148887.34955169,176611.00544221,148906.99746518,176625.09491445]},{"type":"Feature","id":"StreetAxes.fid--6f55e203_1a02c11fc5a_24f2","geometry":{"type":"LineString","coordinates":[[148906.99746518,176611.00544221],[148908.44319233,176612.88797751],[148912.97411161,176618.78531829],[148918.43236747,176624.42970007],[148926.21540807,176631.24818729],[148929.85493174,176634.10246252],[148936.67482361,176639.13828018],[148943.11027824,176643.45323132],[148954.26391583,176649.61307599],[148961.63926904,176653.37253839],[148974.58983159,176658.83244132],[148984.9151955,176662.54475139],[148995.85660708,176665.51126247],[149007.36672958,176668.01954077]]},"geometry_name":"GEOM","properties":{"INSPIRE_ID":"https://databrussels.be/id/streetaxe/75542","TYPE":"S","HIERARCHY":"DR","LVL":0,"STARTSN_ID":"https://databrussels.be/id/streetnode/10897","ENDSN_ID":"https://databrussels.be/id/streetnode/10893","STRNAMEFRE":"Avenue du Forum","STRNAMEDUT":"Forumlaan","SLOPE":0.03,"LENGTH":118.024173277872},"bbox":[148906.99746518,176611.00544221,149007.36672958,176668.01954077]},{"type":"Feature","id":"StreetAxes.fid--6f55e203_1a02c11fc5a_24ee","geometry":{"type":"LineString","coordinates":[[148862.7553802,176572.1130647],[148886.60230981,176567.42260527]]},"geometry_name":"GEOM","properties":{"INSPIRE_ID":"https://databrussels.be/id/streetaxe/76842","TYPE":"S","HIERARCHY":"DR","LVL":0,"STARTSN_ID":"https://databrussels.be/id/streetnode/10886","ENDSN_ID":"https://databrussels.be/id/streetnode/14169","STRNAMEFRE":"Avenue du Forum","STRNAMEDUT":"Forumlaan","SLOPE":0.12,"LENGTH":24.3038363531353},"bbox":[148862.7553802,176567.42260527,148886.60230981,176572.1130647]},{"type":"Feature","id":"StreetAxes.fid--6f55e203_1a02c11fc5a_24f5","geometry":{"type":"LineString","coordinates":[[148887.34955169,176625.09491445],[148888.97235127,176627.35430002],[148894.58115023,176634.6545843],[148901.69522721,176642.01125052],[148910.72938753,176649.92580601],[148915.16487887,176653.40431426],[148922.71077223,176658.97621242],[148930.47084331,176664.17931453],[148942.89092716,176671.03858234],[148951.40759707,176675.37981175],[148965.76954398,176681.43474842],[148977.62724116,176685.69798302],[148990.09758917,176689.0790299],[149002.90792893,176691.87065069]]},"geometry_name":"GEOM","properties":{"INSPIRE_ID":"https://databrussels.be/id/streetaxe/76847","TYPE":"S","HIERARCHY":"DR","LVL":0,"STARTSN_ID":"https://databrussels.be/id/streetnode/14179","ENDSN_ID":"https://databrussels.be/id/streetnode/10028","STRNAMEFRE":"Avenue du Forum","STRNAMEDUT":"Forumlaan","SLOPE":0.03,"LENGTH":136.558349657413},"bbox":[148887.34955169,176625.09491445,149002.90792893,176691.87065069]},{"type":"Feature","id":"StreetAxes.fid--6f55e203_1a02c11fc5a_24ef","geometry":{"type":"LineString","coordinates":[[148886.60230981,176567.42260527],[148887.8409164,176572.42750739],[148891.59715173,176582.9031641],[148893.80891464,176588.65149909],[148895.81341098,176592.74783281],[148899.15345959,176598.97157698],[148902.78923504,176605.01610616],[148906.99746518,176611.00544221]]},"geometry_name":"GEOM","properties":{"INSPIRE_ID":"https://databrussels.be/id/streetaxe/80280","TYPE":"S","HIERARCHY":"DR","LVL":0,"STARTSN_ID":"https://databrussels.be/id/streetnode/14169","ENDSN_ID":"https://databrussels.be/id/streetnode/10897","STRNAMEFRE":"Avenue du Forum","STRNAMEDUT":"Forumlaan","SLOPE":2.73,"LENGTH":48.4412735776527},"bbox":[148886.60230981,176567.42260527,148906.99746518,176611.00544221]},{"type":"Feature","id":"StreetAxes.fid--6f55e203_1a02c11fc5a_24f0","geometry":{"type":"LineString","coordinates":[[148862.7553802,176572.1130647],[148864.54335971,176579.31051378],[148868.86109782,176591.35212946],[148871.55559588,176598.35508508],[148874.22796889,176603.81627323],[148878.06376864,176610.96378487],[148882.51448529,176618.36316557],[148887.34955169,176625.09491445]]},"geometry_name":"GEOM","properties":{"INSPIRE_ID":"https://databrussels.be/id/streetaxe/81072","TYPE":"S","HIERARCHY":"DR","LVL":0,"STARTSN_ID":"https://databrussels.be/id/streetnode/10886","ENDSN_ID":"https://databrussels.be/id/streetnode/14179","STRNAMEFRE":"Avenue du Forum","STRNAMEDUT":"Forumlaan","SLOPE":2.33,"LENGTH":58.8266881925773},"bbox":[148862.7553802,176572.1130647,148887.34955169,176625.09491445]},{"type":"Feature","id":"StreetAxes.fid--6f55e203_1a02c11fc5a_24ed","geometry":{"type":"LineString","coordinates":[[148916.61569761,176453.21920453],[148912.93189993,176457.72605704],[148906.93610622,176465.9032064],[148901.41249586,176474.26486879],[148897.12000656,176481.65538266],[148893.25271858,176489.58053838],[148890.76460886,176496.17057986],[148887.60530746,176505.98462985],[148885.55780939,176513.59967701],[148884.12681262,176522.70469387],[148883.5042897,176530.60759279],[148883.14785074,176539.56342861],[148883.483182,176548.21260066],[148884.36068656,176555.44225472],[148885.80832692,176563.75619446],[148886.60230981,176567.42260527]]},"geometry_name":"GEOM","properties":{"INSPIRE_ID":"https://databrussels.be/id/streetaxe/81341","TYPE":"S","HIERARCHY":"DR","LVL":0,"STARTSN_ID":"https://databrussels.be/id/streetnode/10891","ENDSN_ID":"https://databrussels.be/id/streetnode/14169","STRNAMEFRE":"Avenue du Forum","STRNAMEDUT":"Forumlaan","SLOPE":1.23,"LENGTH":122.82255456327},"bbox":[148883.14785074,176453.21920453,148916.61569761,176567.42260527]},{"type":"Feature","id":"StreetAxes.fid--6f55e203_1a02c11fc5a_24ec","geometry":{"type":"LineString","coordinates":[[148897.90700134,176437.78443415],[148893.74979915,176442.87046188],[148887.0262704,176452.04010671],[148880.79065747,176461.4796013],[148875.70732358,176470.23173719],[148870.96105309,176479.95817415],[148867.86204581,176488.16624726],[148864.33721475,176499.11577812],[148861.7995781,176508.55374687],[148860.02178007,176519.86535942],[148859.28864315,176529.17249792],[148858.87558434,176539.55095613],[148859.28638997,176550.1468325],[148860.35925377,176558.98602776],[148862.03465899,176568.60804328],[148862.7553802,176572.1130647]]},"geometry_name":"GEOM","properties":{"INSPIRE_ID":"https://databrussels.be/id/streetaxe/81407","TYPE":"S","HIERARCHY":"DR","LVL":0,"STARTSN_ID":"https://databrussels.be/id/streetnode/14173","ENDSN_ID":"https://databrussels.be/id/streetnode/10886","STRNAMEFRE":"Avenue du Forum","STRNAMEDUT":"Forumlaan","SLOPE":1.07,"LENGTH":144.272297514468},"bbox":[148858.87558434,176437.78443415,148897.90700134,176572.1130647]},{"type":"Feature","id":"StreetAxes.fid--6f55e203_1a02c11fc5a_24f4","geometry":{"type":"LineString","coordinates":[[148789.607,176687.532],[148801.336,176683.578],[148813.323,176677.438],[148820.855,176672.778],[148887.34955169,176625.09491445]]},"geometry_name":"GEOM","properties":{"INSPIRE_ID":"https://databrussels.be/id/streetaxe/84197","TYPE":"S","HIERARCHY":"DR","LVL":0,"STARTSN_ID":"https://databrussels.be/id/streetnode/1165","ENDSN_ID":"https://databrussels.be/id/streetnode/14179","STRNAMEFRE":"Avenue de l'Amphore","STRNAMEDUT":"Amforalaan","SLOPE":1.93,"LENGTH":116.526794320134},"bbox":[148789.607,176625.09491445,148887.34955169,176687.532]},{"type":"Feature","id":"StreetAxes.fid--6f55e203_1a02c11fc5a_24dc","geometry":{"type":"LineString","coordinates":[[148538.44776872,176633.55191107],[148539.00518981,176632.77815166],[148543.17351403,176627.55815336],[148552.31474175,176615.5236423],[148555.11237594,176611.69227088],[148558.22445159,176607.59870826],[148561.63558773,176602.91852343],[148564.55729687,176599.27375504]]},"geometry_name":"GEOM","properties":{"INSPIRE_ID":"https://databrussels.be/id/streetaxe/89503","TYPE":"C","HIERARCHY":"IDR","LVL":0,"STARTSN_ID":"https://databrussels.be/id/streetnode/10962","ENDSN_ID":"https://databrussels.be/id/streetnode/10961","STRNAMEFRE":"Avenue de Meysse","STRNAMEDUT":"Meiseselaan","SLOPE":1.09,"LENGTH":43.0952389309218},"bbox":[148538.44776872,176599.27375504,148564.55729687,176633.55191107]},{"type":"Feature","id":"StreetAxes.fid--6f55e203_1a02c11fc5a_24e0","geometry":{"type":"LineString","coordinates":[[148564.55729687,176599.27375504],[148567.04628423,176595.64337915],[148572.58536316,176587.7466299],[148576.76876145,176582.06542936],[148581.18684243,176575.01022147],[148583.04275861,176574.05298642]]},"geometry_name":"GEOM","properties":{"INSPIRE_ID":"https://databrussels.be/id/streetaxe/89505","TYPE":"C","HIERARCHY":"IDR","LVL":0,"STARTSN_ID":"https://databrussels.be/id/streetnode/10961","ENDSN_ID":"https://databrussels.be/id/streetnode/8683","STRNAMEFRE":"Avenue de Meysse","STRNAMEDUT":"Meiseselaan","SLOPE":0.86,"LENGTH":31.5152876138207},"bbox":[148564.55729687,176574.05298642,148583.04275861,176599.27375504]},{"type":"Feature","id":"StreetAxes.fid--6f55e203_1a02c11fc5a_24dd","geometry":{"type":"LineString","coordinates":[[148546.54226679,176693.62067268],[148547.74783606,176688.17226549],[148549.20328818,176682.46610887],[148551.33090539,176673.90970454],[148552.6521679,176668.15143157],[148554.43776232,176661.04975333],[148556.06314621,176654.22624268],[148557.65579533,176647.96410689],[148559.0753065,176642.25240502],[148560.51043601,176635.81802659],[148562.21540484,176629.46658531],[148564.06779445,176623.1667519],[148565.1489252,176619.76292199],[148566.43814926,176616.30380723],[148567.22406358,176614.37477538],[148568.29059815,176611.77279871],[148571.48859014,176604.29371574],[148573.79312052,176599.15689229],[148576.16133114,176594.034293],[148581.08554465,176582.99495287],[148583.90680502,176576.29559378],[148583.04275861,176574.05298642]]},"geometry_name":"GEOM","properties":{"INSPIRE_ID":"https://databrussels.be/id/streetaxe/91071","TYPE":"C","HIERARCHY":"IDR","LVL":0,"STARTSN_ID":"https://databrussels.be/id/streetnode/8677","ENDSN_ID":"https://databrussels.be/id/streetnode/8683","STRNAMEFRE":"Avenue de Meysse","STRNAMEDUT":"Meiseselaan","SLOPE":0.82,"LENGTH":125.93933547234},"bbox":[148546.54226679,176574.05298642,148583.90680502,176693.62067268]},{"type":"Feature","id":"StreetAxes.fid--6f55e203_1a02c11fc5a_24d5","geometry":{"type":"LineString","coordinates":[[148538.44776872,176633.55191107],[148533.40006211,176643.97999069],[148531.4604276,176648.21439235],[148530.52513614,176650.53396419],[148529.65008434,176653.08848826],[148528.73003617,176656.50309383],[148527.72705575,176660.62981522],[148526.44680394,176665.73683145],[148525.12568385,176670.75953665],[148524.0048441,176675.41947793],[148522.04829995,176683.32781007],[148520.89974578,176687.94367719],[148519.68395435,176692.86598124],[148515.41198394,176710.27014528],[148509.48307575,176734.74939728]]},"geometry_name":"GEOM","properties":{"INSPIRE_ID":"https://databrussels.be/id/streetaxe/91073","TYPE":"C","HIERARCHY":"IDR","LVL":0,"STARTSN_ID":"https://databrussels.be/id/streetnode/10962","ENDSN_ID":"https://databrussels.be/id/streetnode/9027","STRNAMEFRE":"Avenue de Meysse","STRNAMEDUT":"Meiseselaan","SLOPE":0.38,"LENGTH":105.560386329611},"bbox":[148509.48307575,176633.55191107,148538.44776872,176734.74939728]},{"type":"Feature","id":"StreetAxes.fid--6f55e203_1a02c11fc5a_24d4","geometry":{"type":"LineString","coordinates":[[148517.21307397,176686.98206485],[148518.85330959,176680.29684706],[148520.82566549,176672.77007173],[148522.5697789,176665.66720887],[148524.34066448,176658.57838742],[148525.99179623,176653.36805368],[148528.02281614,176648.77996229],[148529.59467262,176645.84094458],[148538.44776872,176633.55191107]]},"geometry_name":"GEOM","properties":{"INSPIRE_ID":"https://databrussels.be/id/streetaxe/91075","TYPE":"C","HIERARCHY":"IDR","LVL":0,"STARTSN_ID":"https://databrussels.be/id/streetnode/8299","ENDSN_ID":"https://databrussels.be/id/streetnode/10962","STRNAMEFRE":"Avenue de Meysse","STRNAMEDUT":"Meiseselaan","SLOPE":0.5,"LENGTH":58.2469921977646},"bbox":[148517.21307397,176633.55191107,148538.44776872,176686.98206485]},{"type":"Feature","id":"StreetAxes.fid--6f55e203_1a02c11fc5a_24f8","geometry":{"type":"LineString","coordinates":[[149024.4307166,176090.87811604],[149016.66026302,176090.73888815],[149011.77847717,176091.04784168],[149006.71147654,176091.62466742],[149004.09650776,176092.08314756],[148999.82190431,176092.93542963],[148996.02536103,176094.02130588],[148988.63358078,176096.13699823],[148979.04227899,176099.25501261],[148967.40586425,176103.54410123],[148959.77606146,176106.6362635],[148951.05091416,176110.56937172],[148940.86478845,176115.50561763],[148930.86131831,176120.87162664],[148920.76604235,176126.62020772],[148909.90289243,176132.95482044],[148898.60734092,176139.49453016],[148888.01916363,176145.6611884],[148879.61106666,176150.54264457],[148872.8797267,176154.46514115],[148865.93043694,176158.56769663],[148861.15099953,176161.52282158],[148855.99046235,176164.90390648],[148850.28808666,176169.0340295],[148846.4715572,176171.97016075],[148843.44462988,176174.4629903],[148839.95135372,176177.56209907],[148835.72137651,176181.44453137],[148832.47752846,176184.66106275],[148829.8990431,176187.39999062],[148827.18471725,176190.45548313],[148824.29187101,176193.90101221],[148820.30035594,176198.97329617],[148817.32983871,176203.02549019],[148815.28827687,176205.98717216],[148812.86964046,176209.78248315],[148810.23001208,176214.13844986],[148807.58414393,176218.96427647],[148804.72738195,176224.40114391],[148801.46997063,176230.85275568],[148796.47586366,176241.04096892],[148792.26960298,176249.57911268],[148788.89797525,176256.42435459],[148785.5308497,176262.67181561],[148782.85544524,176267.12451145],[148781.14186586,176270.0227425],[148778.3304199,176274.206364],[148774.69113306,176279.22375166],[148771.24034385,176283.67368365],[148767.76235562,176287.80233909],[148765.34185399,176290.53571559],[148751.37473376,176305.96769272],[148735.69108559,176323.89184881],[148722.00607047,176340.37309308],[148710.95156013,176354.32124973],[148706.27557625,176360.54997129],[148700.37529452,176368.3426694],[148692.49326448,176378.94647891],[148685.80095649,176388.34950316],[148677.5226053,176400.22308454],[148668.20262064,176414.07598685],[148662.45078902,176422.91726228],[148658.43080009,176429.17683554],[148651.38064008,176440.55790757],[148644.536847,176451.93049568],[148637.33090527,176464.32703356],[148630.73842706,176476.12173958],[148624.83877919,176487.03162258],[148618.70768861,176498.69648553],[148613.83228116,176508.26005232],[148608.09458921,176519.86056859],[148602.79073155,176531.06735206],[148596.54609934,176544.74085909],[148592.9052502,176552.35009398],[148587.35524907,176564.60616152],[148586.64928928,176566.15615162],[148583.04275861,176574.05298642]]},"geometry_name":"GEOM","properties":{"INSPIRE_ID":"https://databrussels.be/id/streetaxe/92594","TYPE":"C","HIERARCHY":"IDR","LVL":0,"STARTSN_ID":"https://databrussels.be/id/streetnode/8841","ENDSN_ID":"https://databrussels.be/id/streetnode/8683","STRNAMEFRE":"Avenue de Meysse","STRNAMEDUT":"Meiseselaan","SLOPE":2.1,"LENGTH":681.763858664737},"bbox":[148583.04275861,176090.73888815,149024.4307166,176574.05298642]},{"type":"Feature","id":"StreetAxes.fid--6f55e203_1a02c11fc5a_24da","geometry":{"type":"LineString","coordinates":[[148583.04275861,176574.05298642],[148583.21397382,176576.16711929],[148581.05953383,176581.20114506],[148573.50100753,176593.51119763],[148569.32685884,176601.6696267],[148563.25808838,176615.60013334],[148560.7739929,176622.70200757],[148554.89391254,176645.47756339],[148547.115835,176677.25504916],[148537.54184601,176715.32213842],[148536.27428302,176721.29804235],[148535.71019845,176725.52836023],[148535.34098107,176728.81421121],[148535.05695861,176732.83718726],[148535.04252077,176739.45825267],[148535.11679475,176743.86177275],[148535.35983472,176749.83235622],[148535.60216896,176756.06108504],[148535.64056518,176762.22101677],[148535.34212248,176764.36619094],[148533.44362145,176770.84831242],[148530.26910289,176775.17258876],[148526.04223335,176778.53675326],[148520.78614185,176780.76623054],[148515.68886142,176781.39197626],[148510.25334352,176780.66994334],[148505.7003893,176778.82238167],[148502.22106738,176776.33152531],[148499.22087322,176772.99990314],[148496.60139345,176768.32872212],[148495.57239623,176763.0971848],[148495.73169725,176758.56145024],[148496.73451995,176754.16858825],[148498.75356543,176750.75520994],[148500.43399091,176748.55011122],[148504.65985784,176744.12144472],[148514.57628997,176735.0228358],[148519.54712205,176730.36288744],[148524.8649244,176724.71435044],[148527.05792474,176721.47932036],[148528.80006067,176718.78224424],[148531.11982955,176714.01430608],[148533.47272419,176708.26551109],[148545.00134044,176660.97131953],[148556.37163345,176615.84589538],[148557.2801528,176613.06034517],[148558.23735661,176610.65840007],[148561.6625341,176603.75911982],[148564.55729687,176599.27375504]]},"geometry_name":"GEOM","properties":{"INSPIRE_ID":"https://databrussels.be/id/streetaxe/92599","TYPE":"C","HIERARCHY":"IDR","LVL":0,"STARTSN_ID":"https://databrussels.be/id/streetnode/8683","ENDSN_ID":"https://databrussels.be/id/streetnode/10961","STRNAMEFRE":"Avenue de Meysse","STRNAMEDUT":"Meiseselaan","SLOPE":0.06,"LENGTH":439.242590336824},"bbox":[148495.57239623,176574.05298642,148583.21397382,176781.39197626]},{"type":"Feature","id":"StreetAxes.fid--6f55e203_1a02c11fc5a_24df","geometry":{"type":"LineString","coordinates":[[148624.56243861,176788.80852371],[148606.61011435,176790.12186573],[148590.36234456,176791.20990006],[148569.43695763,176793.04204196],[148556.27214404,176794.78467102]]},"geometry_name":"GEOM","properties":{"INSPIRE_ID":"https://databrussels.be/id/streetaxe/93419","TYPE":"S","HIERARCHY":"IDR","LVL":0,"STARTSN_ID":"https://databrussels.be/id/streetnode/11949","ENDSN_ID":"https://databrussels.be/id/streetnode/13069","STRNAMEFRE":"Chaussée Romaine","STRNAMEDUT":"Romeinsesteenweg","SLOPE":1.07,"LENGTH":68.5695496884725},"bbox":[148556.27214404,176788.80852371,148624.56243861,176794.78467102]},{"type":"Feature","id":"StreetAxes.fid--6f55e203_1a02c11fc5a_24f1","geometry":{"type":"LineString","coordinates":[[148862.7553802,176572.1130647],[148851.10726388,176574.40413603],[148829.873,176589.745],[148793.42,176612.701],[148750.714,176647.19],[148747.30703362,176651.03572967],[148744.378,176655.136],[148742.75309776,176659.42549453],[148742,176662.934],[148741.80703362,176667.17202463],[148742.27,176671.052],[148743.32306861,176675.34008499],[148744.404,176677.532],[148745.298,176679.273]]},"geometry_name":"GEOM","properties":{"INSPIRE_ID":"https://databrussels.be/id/streetaxe/93477","TYPE":"S","HIERARCHY":"DR","LVL":0,"STARTSN_ID":"https://databrussels.be/id/streetnode/10886","ENDSN_ID":"https://databrussels.be/id/streetnode/5459","STRNAMEFRE":"Avenue de l'Amphore","STRNAMEDUT":"Amforalaan","SLOPE":1.4,"LENGTH":171.358515529687},"bbox":[148741.80703362,176572.1130647,148862.7553802,176679.273]},{"type":"Feature","id":"StreetAxes.fid--6f55e203_1a02c11fc5a_24f7","geometry":{"type":"LineString","coordinates":[[149013.75859066,176773.20716859],[148935.88436761,176769.7503051],[148894.29060262,176768.75197394],[148857.23202731,176769.74017064],[148812.38890262,176772.77044531],[148798.95,176773.78658293]]},"geometry_name":"GEOM","properties":{"INSPIRE_ID":"https://databrussels.be/id/streetaxe/93478","TYPE":"S","HIERARCHY":"DC","LVL":0,"STARTSN_ID":"https://databrussels.be/id/streetnode/4240","ENDSN_ID":"https://databrussels.be/id/streetnode/2143","STRNAMEFRE":"Chaussée Romaine","STRNAMEDUT":"Romeinsesteenweg","SLOPE":0.34,"LENGTH":215.051060961096},"bbox":[148798.95,176768.75197394,149013.75859066,176773.78658293]},{"type":"Feature","id":"StreetAxes.fid--6f55e203_1a02c11fc5a_24d8","geometry":{"type":"LineString","coordinates":[[148427.52463616,176818.79261972],[148456.2541689,176693.68068933],[148468.23813026,176641.40244475],[148472.90781523,176621.05481579],[148475.25193011,176610.87262937],[148477.88794139,176599.21473439],[148480.52045041,176587.61496136],[148483.31754486,176576.11226989],[148485.83661186,176566.55308916],[148488.48458814,176557.00628112],[148491.25522615,176547.48637288],[148493.1728717,176541.12927373],[148495.1432553,176534.78973555],[148497.17851777,176528.4809171],[148500.00599034,176520.04114453],[148502.9440757,176511.6639917],[148506.03705084,176503.37596206],[148509.33847121,176495.11649459],[148512.8122286,176486.89968428],[148516.42037004,176478.7214285],[148519.94855215,176470.9994443],[148523.58669553,176463.33628943],[148527.3420316,176455.74657836],[148531.42037191,176447.88141954],[148535.64409324,176440.06694074],[148539.96863401,176432.28554713],[148544.82969174,176423.74815932],[148549.79573003,176415.28496685],[148554.88110682,176406.90053861],[148560.44008758,176398.03353791],[148566.13174633,176389.25823674],[148571.96617889,176380.59663765],[148577.40847809,176372.85894023],[148582.99766453,176365.17331232],[148588.65383136,176357.50427118],[148595.4395658,176348.42607235],[148602.30628526,176339.39081017],[148609.20934523,176330.34079852],[148615.34989103,176322.23211623],[148621.47640899,176314.16671326],[148627.66548477,176306.20564495],[148634.11623919,176298.17618721],[148640.6756956,176290.19898086],[148647.30098347,176282.24983168],[148654.39535501,176273.81355119],[148661.5386431,176265.43989743],[148668.75696875,176257.14975978],[148676.19044524,176248.80847644],[148683.7156433,176240.53702708],[148691.31646945,176232.33000618],[148699.060756,176224.11389549],[148706.87968664,176215.96643835],[148714.75435371,176207.89592361],[148726.91366841,176195.78638098],[148739.25527198,176183.79802187],[148767.99680954,176156.44248235],[148790.74611643,176136.07207067],[148808.9231542,176120.42870483],[148846.9777554,176090.40661581]]},"geometry_name":"GEOM","properties":{"INSPIRE_ID":"https://databrussels.be/id/streetaxe/93479","TYPE":"S","HIERARCHY":"H","LVL":0,"STARTSN_ID":"https://databrussels.be/id/streetnode/8842","ENDSN_ID":"https://databrussels.be/id/streetnode/8845","STRNAMEFRE":"Autoroute A12","STRNAMEDUT":"Autosnelweg A12","SLOPE":0.8,"LENGTH":866.276473812544},"bbox":[148427.52463616,176090.40661581,148846.9777554,176818.79261972]},{"type":"Feature","id":"StreetAxes.fid--6f55e203_1a02c11fc5a_24d9","geometry":{"type":"LineString","coordinates":[[148471.85610907,176801.34204116],[148478.27564563,176774.14605454],[148484.64366861,176747.23413538],[148494.39331817,176713.16422774],[148498.15365188,176701.50168644],[148506.14999285,176676.89091432],[148514.91103007,176652.0975842],[148527.68512711,176619.10021951],[148537.25408993,176595.77313417],[148555.68059241,176554.44003896],[148572.44871218,176520.26905237],[148592.63943565,176481.7422686],[148614.02892021,176443.57645539],[148641.29293453,176400.21346639],[148665.8939423,176364.13527661],[148698.53818013,176319.46081054],[148775.91812937,176226.28911239],[148809.01987079,176188.20454989],[148832.33408318,176165.94539883],[148854.17458024,176148.86698688],[148869.91241014,176137.17980813]]},"geometry_name":"GEOM","properties":{"INSPIRE_ID":"https://databrussels.be/id/streetaxe/93548","TYPE":"S","HIERARCHY":"H","LVL":0,"STARTSN_ID":"https://databrussels.be/id/streetnode/8308","ENDSN_ID":"https://databrussels.be/id/streetnode/8303","STRNAMEFRE":"Autoroute A12","STRNAMEDUT":"Autosnelweg A12","SLOPE":1.01,"LENGTH":787.980341680528},"bbox":[148471.85610907,176137.17980813,148869.91241014,176801.34204116]},{"type":"Feature","id":"StreetAxes.fid--6f55e203_1a02c11fc5a_24e7","geometry":{"type":"LineString","coordinates":[[148648.88885789,176678.7454045],[148654.397,176680.6065],[148691.8635,176691.436],[148698.76623843,176690.97382615],[148734.5175,176685.2645],[148740.811,176681.916],[148745.298,176679.273]]},"geometry_name":"GEOM","properties":{"INSPIRE_ID":"https://databrussels.be/id/streetaxe/95079","TYPE":"S","HIERARCHY":"DR","LVL":0,"STARTSN_ID":"https://databrussels.be/id/streetnode/5457","ENDSN_ID":"https://databrussels.be/id/streetnode/5459","STRNAMEFRE":"Sentier du chien de berger","STRNAMEDUT":"Herdershondweg","SLOPE":1.49,"LENGTH":100.273148261929},"bbox":[148648.88885789,176678.7454045,148745.298,176691.436]},{"type":"Feature","id":"StreetAxes.fid--6f55e203_1a02c11fc5a_24d6","geometry":{"type":"LineString","coordinates":[[148505.64564132,176807.6636277],[148517.06848522,176804.02123698],[148530.84856986,176800.22679269],[148536.97795015,176798.37704638]]},"geometry_name":"GEOM","properties":{"INSPIRE_ID":"https://databrussels.be/id/streetaxe/96927","TYPE":"S","HIERARCHY":"IDR","LVL":0,"STARTSN_ID":"https://databrussels.be/id/streetnode/13080","ENDSN_ID":"https://databrussels.be/id/streetnode/13076","STRNAMEFRE":"Chaussée Romaine","STRNAMEDUT":"Romeinsesteenweg","SLOPE":1.89,"LENGTH":32.6848759733036},"bbox":[148505.64564132,176798.37704638,148536.97795015,176807.6636277]},{"type":"Feature","id":"StreetAxes.fid--6f55e203_1a02c11fc5a_24e5","geometry":{"type":"LineString","coordinates":[[148624.56243861,176788.80852371],[148623.71492546,176779.51829595],[148624.922,176765.044],[148634.248,176729.786],[148648.351,176680.732],[148648.88885789,176678.7454045]]},"geometry_name":"GEOM","properties":{"INSPIRE_ID":"https://databrussels.be/id/streetaxe/96930","TYPE":"S","HIERARCHY":"DR","LVL":0,"STARTSN_ID":"https://databrussels.be/id/streetnode/11949","ENDSN_ID":"https://databrussels.be/id/streetnode/5457","STRNAMEFRE":"Avenue de la Croix-Rouge","STRNAMEDUT":"Rode Kruislaan","SLOPE":3.18,"LENGTH":113.423069322595},"bbox":[148623.71492546,176678.7454045,148648.88885789,176788.80852371]},{"type":"Feature","id":"StreetAxes.fid--6f55e203_1a02c11fc5a_24e2","geometry":{"type":"LineString","coordinates":[[148621.45592028,176509.03561152],[148618.77620719,176514.11646375],[148610.04655117,176529.83179892],[148600.11017122,176551.39613224],[148590.79796149,176573.23691249],[148582.26426237,176595.39287933],[148574.73190348,176617.90790604],[148569.12469945,176638.31539948],[148568.53868638,176640.82536496]]},"geometry_name":"GEOM","properties":{"INSPIRE_ID":"https://databrussels.be/id/streetaxe/96931","TYPE":"S","HIERARCHY":"IDR","LVL":0,"STARTSN_ID":"https://databrussels.be/id/streetnode/1867","ENDSN_ID":"https://databrussels.be/id/streetnode/5462","STRNAMEFRE":"Avenue de Meysse","STRNAMEDUT":"Meiseselaan","SLOPE":1.26,"LENGTH":142.433438778295},"bbox":[148568.53868638,176509.03561152,148621.45592028,176640.82536496]},{"type":"Feature","id":"StreetAxes.fid--6f55e203_1a02c11fc5a_24e6","geometry":{"type":"LineString","coordinates":[[148798.95,176773.78658293],[148787.80718569,176774.96161985],[148675.90899159,176784.60268134],[148642.56581346,176787.49144697],[148624.56243861,176788.80852371]]},"geometry_name":"GEOM","properties":{"INSPIRE_ID":"https://databrussels.be/id/streetaxe/96938","TYPE":"S","HIERARCHY":"DC","LVL":0,"STARTSN_ID":"https://databrussels.be/id/streetnode/2143","ENDSN_ID":"https://databrussels.be/id/streetnode/11949","STRNAMEFRE":"Chaussée Romaine","STRNAMEDUT":"Romeinsesteenweg","SLOPE":0.29,"LENGTH":175.036926729135},"bbox":[148624.56243861,176773.78658293,148798.95,176788.80852371]},{"type":"Feature","id":"StreetAxes.fid--6f55e203_1a02c11fc5a_24db","geometry":{"type":"LineString","coordinates":[[148536.97795015,176798.37704638],[148543.10733044,176796.52730008],[148556.27214404,176794.78467102]]},"geometry_name":"GEOM","properties":{"INSPIRE_ID":"https://databrussels.be/id/streetaxe/96939","TYPE":"I","HIERARCHY":"IDR","LVL":0,"STARTSN_ID":"https://databrussels.be/id/streetnode/13076","ENDSN_ID":"https://databrussels.be/id/streetnode/13069","STRNAMEFRE":"Chaussée Romaine","STRNAMEDUT":"Romeinsesteenweg","SLOPE":0.9,"LENGTH":19.6820596371608},"bbox":[148536.97795015,176794.78467102,148556.27214404,176798.37704638]},{"type":"Feature","id":"StreetAxes.fid--6f55e203_1a02c11fc5a_24e1","geometry":{"type":"LineString","coordinates":[[148568.53868638,176640.82536496],[148575.7365,176642.584],[148648.4475,176660.9345],[148654.21202117,176662.35594962]]},"geometry_name":"GEOM","properties":{"INSPIRE_ID":"https://databrussels.be/id/streetaxe/96940","TYPE":"S","HIERARCHY":"DR","LVL":0,"STARTSN_ID":"https://databrussels.be/id/streetnode/5462","ENDSN_ID":"https://databrussels.be/id/streetnode/5461","STRNAMEFRE":"Sentier du Setter","STRNAMEDUT":"Setterweg","SLOPE":0.73,"LENGTH":88.3376008058494},"bbox":[148568.53868638,176640.82536496,148654.21202117,176662.35594962]},{"type":"Feature","id":"StreetAxes.fid--6f55e203_1a02c11fc5a_24e3","geometry":{"type":"LineString","coordinates":[[148621.45592028,176509.03561152],[148626.462,176512.104],[148645.791,176519.144],[148700.671,176537.708],[148706.313,176541.356]]},"geometry_name":"GEOM","properties":{"INSPIRE_ID":"https://databrussels.be/id/streetaxe/96941","TYPE":"S","HIERARCHY":"DR","LVL":0,"STARTSN_ID":"https://databrussels.be/id/streetnode/1867","ENDSN_ID":"https://databrussels.be/id/streetnode/1529","STRNAMEFRE":"Rue du Labrador","STRNAMEDUT":"Labradorstraat","SLOPE":4.04,"LENGTH":91.0961507757524},"bbox":[148621.45592028,176509.03561152,148706.313,176541.356]},{"type":"Feature","id":"StreetAxes.fid--6f55e203_1a02c11fc5a_24e4","geometry":{"type":"LineString","coordinates":[[148621.45592028,176509.03561152],[148626.73601742,176497.15404047],[148647.20836888,176460.17730573],[148676.07237319,176415.15034962],[148690.28982626,176394.37873858],[148696.90834681,176384.97098862]]},"geometry_name":"GEOM","properties":{"INSPIRE_ID":"https://databrussels.be/id/streetaxe/96948","TYPE":"S","HIERARCHY":"IDR","LVL":0,"STARTSN_ID":"https://databrussels.be/id/streetnode/1867","ENDSN_ID":"https://databrussels.be/id/streetnode/5456","STRNAMEFRE":"Avenue de Meysse","STRNAMEDUT":"Meiseselaan","SLOPE":1.66,"LENGTH":145.425888846041},"bbox":[148621.45592028,176384.97098862,148696.90834681,176509.03561152]},{"type":"Feature","id":"StreetAxes.fid--6f55e203_1a02c11fc5a_24d7","geometry":{"type":"LineString","coordinates":[[148473.51266289,176819.14551612],[148494.22279742,176811.30601842],[148505.64564132,176807.6636277]]},"geometry_name":"GEOM","properties":{"INSPIRE_ID":"https://databrussels.be/id/streetaxe/96954","TYPE":"I","HIERARCHY":"IDR","LVL":0,"STARTSN_ID":"https://databrussels.be/id/streetnode/13074","ENDSN_ID":"https://databrussels.be/id/streetnode/13080","STRNAMEFRE":"Chaussée Romaine","STRNAMEDUT":"Romeinsesteenweg","SLOPE":3.35,"LENGTH":34.1337516615588},"bbox":[148473.51266289,176807.6636277,148505.64564132,176819.14551612]},{"type":"Feature","id":"StreetAxes.fid--6f55e203_1a02c11fc5a_24de","geometry":{"type":"LineString","coordinates":[[148556.27214404,176794.78467102],[148552.02927381,176792.10257907],[148550.06584377,176787.26637086],[148550.97707718,176775.70358247],[148553.593805,176736.74170783],[148555.29107827,176716.51369909],[148556.94134601,176704.20819776],[148560.76301868,176680.23797862],[148563.58894434,176664.22204964],[148568.02619453,176643.02043009],[148568.53868638,176640.82536496]]},"geometry_name":"GEOM","properties":{"INSPIRE_ID":"https://databrussels.be/id/streetaxe/96962","TYPE":"S","HIERARCHY":"IDR","LVL":0,"STARTSN_ID":"https://databrussels.be/id/streetnode/13069","ENDSN_ID":"https://databrussels.be/id/streetnode/5462","STRNAMEFRE":"Avenue de Meysse","STRNAMEDUT":"Meiseselaan","SLOPE":2.93,"LENGTH":158.053497300407},"bbox":[148550.06584377,176640.82536496,148568.53868638,176794.78467102]}],"numberReturned":37,"grand_bruxelles_source":{"authority":"Paradigm / Brussels-Capital Region","service":"https://geoservices-urbis.irisnet.be/geoserver/urbisvector/wfs","layer":"urbisvector:StreetAxes","crs":"EPSG:31370","bbox":[148500.0,176500.0,149000.0,177000.0],"cell_id":"bxl-e148500-n176500-s500","ownership":"bbox_intersection_source_unclipped"}}
