{"type":"FeatureCollection","totalFeatures":35,"numberMatched":35,"timeStamp":"2026-08-23T04:20:17.054Z","crs":{"type":"name","properties":{"name":"urn:ogc:def:crs:EPSG::31370"}},"bbox":[148408.84924626,172352.50176472,149404.53717485,173587.713],"features":[{"type":"Feature","id":"StreetAxes.fid--1290087_1a02c00fa75_537d","geometry":{"type":"LineString","coordinates":[[148814.7771555,172437.07808146],[148750.47064453,172513.66148273],[148743.33544028,172519.68469997]]},"geometry_name":"GEOM","properties":{"INSPIRE_ID":"https://databrussels.be/id/streetaxe/100348","TYPE":"S","HIERARCHY":"DR","LVL":0,"STARTSN_ID":"https://databrussels.be/id/streetnode/9971","ENDSN_ID":"https://databrussels.be/id/streetnode/2986","STRNAMEFRE":"Rue de la Dyle","STRNAMEDUT":"Dijlestraat","SLOPE":0.65,"LENGTH":109.339297366099},"bbox":[148743.33544028,172437.07808146,148814.7771555,172519.68469997]},{"type":"Feature","id":"StreetAxes.fid--1290087_1a02c00fa75_537c","geometry":{"type":"LineString","coordinates":[[148743.33544028,172519.68469997],[148747.754,172524.919],[148784.012,172590.362],[148797.316,172610.088],[148837.89,172684.074],[148849.464,172705.179]]},"geometry_name":"GEOM","properties":{"INSPIRE_ID":"https://databrussels.be/id/streetaxe/100362","TYPE":"S","HIERARCHY":"DR","LVL":0,"STARTSN_ID":"https://databrussels.be/id/streetnode/2986","ENDSN_ID":"https://databrussels.be/id/streetnode/2722","STRNAMEFRE":"Quai des Péniches","STRNAMEDUT":"Akenkaai","SLOPE":1.06,"LENGTH":213.910423518837},"bbox":[148743.33544028,172519.68469997,148849.464,172705.179]},{"type":"Feature","id":"StreetAxes.fid--1290087_1a02c00fa75_536c","geometry":{"type":"LineString","coordinates":[[148812.725,172726.445],[148738.502,172764.134],[148725.039,172771.01]]},"geometry_name":"GEOM","properties":{"INSPIRE_ID":"https://databrussels.be/id/streetaxe/71681","TYPE":"S","HIERARCHY":"IDR","LVL":0,"STARTSN_ID":"https://databrussels.be/id/streetnode/92","ENDSN_ID":"https://databrussels.be/id/streetnode/3092","STRNAMEFRE":"Place des Armateurs","STRNAMEDUT":"Redersplein","SLOPE":4.18,"LENGTH":98.3609716200695},"bbox":[148725.039,172726.445,148812.725,172771.01]},{"type":"Feature","id":"StreetAxes.fid--1290087_1a02c00fa75_5377","geometry":{"type":"LineString","coordinates":[[148849.464,172705.179],[148835.939,172714.286],[148833.17,172716.15]]},"geometry_name":"GEOM","properties":{"INSPIRE_ID":"https://databrussels.be/id/streetaxe/72574","TYPE":"S","HIERARCHY":"IDR","LVL":0,"STARTSN_ID":"https://databrussels.be/id/streetnode/2722","ENDSN_ID":"https://databrussels.be/id/streetnode/534","STRNAMEFRE":"Place des Armateurs","STRNAMEDUT":"Redersplein","SLOPE":2.29,"LENGTH":19.6432501847381},"bbox":[148833.17,172705.179,148849.464,172716.15]},{"type":"Feature","id":"StreetAxes.fid--1290087_1a02c00fa75_538b","geometry":{"type":"LineString","coordinates":[[148979.90771424,172667.56179181],[148976.95854473,172662.99638372],[148975.8627693,172660.92353888],[148975.35400336,172659.13204073],[148975.16683895,172654.26748731],[148975.73120866,172651.06839879],[148979.91491195,172633.19687927]]},"geometry_name":"GEOM","properties":{"INSPIRE_ID":"https://databrussels.be/id/streetaxe/73355","TYPE":"S","HIERARCHY":"DC","LVL":0,"STARTSN_ID":"https://databrussels.be/id/streetnode/9983","ENDSN_ID":"https://databrussels.be/id/streetnode/9780","STRNAMEFRE":"Allée Verte","STRNAMEDUT":"Groendreef","SLOPE":0.22,"LENGTH":36.1134470279134},"bbox":[148975.16683895,172633.19687927,148979.91491195,172667.56179181]},{"type":"Feature","id":"StreetAxes.fid--1290087_1a02c00fa75_5381","geometry":{"type":"LineString","coordinates":[[148910.67321674,172620.60035694],[148914.27221811,172627.83514662],[148918.07794671,172636.31433375],[148920.4074231,172642.64094319],[148921.25005023,172648.34922279],[148921.1063445,172669.66631729]]},"geometry_name":"GEOM","properties":{"INSPIRE_ID":"https://databrussels.be/id/streetaxe/73503","TYPE":"S","HIERARCHY":"MER","LVL":0,"STARTSN_ID":"https://databrussels.be/id/streetnode/9989","ENDSN_ID":"https://databrussels.be/id/streetnode/8803","STRNAMEFRE":"Place des Armateurs","STRNAMEDUT":"Redersplein","SLOPE":1.33,"LENGTH":51.2041842782417},"bbox":[148910.67321674,172620.60035694,148921.25005023,172669.66631729]},{"type":"Feature","id":"StreetAxes.fid--1290087_1a02c00fa75_5383","geometry":{"type":"LineString","coordinates":[[148992.13164783,172691.321517],[148969.35679107,172679.45240214],[148957.46008636,172674.22506485],[148950.27222474,172671.67174075],[148944.04410983,172670.37082714],[148934.87819758,172669.85262805],[148921.1063445,172669.66631729]]},"geometry_name":"GEOM","properties":{"INSPIRE_ID":"https://databrussels.be/id/streetaxe/73504","TYPE":"S","HIERARCHY":"IDR","LVL":0,"STARTSN_ID":"https://databrussels.be/id/streetnode/9970","ENDSN_ID":"https://databrussels.be/id/streetnode/8803","STRNAMEFRE":"Allée Verte","STRNAMEDUT":"Groendreef","SLOPE":2.68,"LENGTH":75.6206694197672},"bbox":[148921.1063445,172669.66631729,148992.13164783,172691.321517]},{"type":"Feature","id":"StreetAxes.fid--1290087_1a02c00fa75_5380","geometry":{"type":"LineString","coordinates":[[148921.1063445,172669.66631729],[148907.75837721,172677.42698463],[148855.46074775,172705.36778603],[148849.464,172705.179]]},"geometry_name":"GEOM","properties":{"INSPIRE_ID":"https://databrussels.be/id/streetaxe/74145","TYPE":"S","HIERARCHY":"IDR","LVL":0,"STARTSN_ID":"https://databrussels.be/id/streetnode/8803","ENDSN_ID":"https://databrussels.be/id/streetnode/2722","STRNAMEFRE":"Place des Armateurs","STRNAMEDUT":"Redersplein","SLOPE":0.79,"LENGTH":80.7333976402047},"bbox":[148849.464,172669.66631729,148921.1063445,172705.36778603]},{"type":"Feature","id":"StreetAxes.fid--1290087_1a02c00fa75_537e","geometry":{"type":"LineString","coordinates":[[148814.7771555,172437.07808146],[148834.28338163,172474.42150675],[148842.11052926,172493.86164984],[148886.92764588,172581.34561404],[148896.87688919,172599.47317725],[148903.1307502,172610.18340873],[148910.67321674,172620.60035694]]},"geometry_name":"GEOM","properties":{"INSPIRE_ID":"https://databrussels.be/id/streetaxe/74428","TYPE":"S","HIERARCHY":"MER","LVL":0,"STARTSN_ID":"https://databrussels.be/id/streetnode/9971","ENDSN_ID":"https://databrussels.be/id/streetnode/9989","STRNAMEFRE":"Quai de Willebroeck","STRNAMEDUT":"Willebroekkaai","SLOPE":0.13,"LENGTH":207.324966702398},"bbox":[148814.7771555,172437.07808146,148910.67321674,172620.60035694]},{"type":"Feature","id":"StreetAxes.fid--1290087_1a02c00fa75_5372","geometry":{"type":"LineString","coordinates":[[148576.158,172477.314],[148581.8498618,172488.65108493],[148718.266,172758.348],[148725.039,172771.01]]},"geometry_name":"GEOM","properties":{"INSPIRE_ID":"https://databrussels.be/id/streetaxe/75285","TYPE":"S","HIERARCHY":"IDR","LVL":0,"STARTSN_ID":"https://databrussels.be/id/streetnode/762","ENDSN_ID":"https://databrussels.be/id/streetnode/3092","STRNAMEFRE":"Avenue du Port","STRNAMEDUT":"Havenlaan","SLOPE":0.26,"LENGTH":329.280008421109},"bbox":[148576.158,172477.314,148725.039,172771.01]},{"type":"Feature","id":"StreetAxes.fid--1290087_1a02c00fa75_5371","geometry":{"type":"LineString","coordinates":[[148576.158,172477.314],[148566.679,172481.729],[148561.96502878,172483.92444159],[148509.04260387,172510.63343513],[148503.74973276,172513.27363914]]},"geometry_name":"GEOM","properties":{"INSPIRE_ID":"https://databrussels.be/id/streetaxe/75286","TYPE":"S","HIERARCHY":"DC","LVL":0,"STARTSN_ID":"https://databrussels.be/id/streetnode/762","ENDSN_ID":"https://databrussels.be/id/streetnode/3022","STRNAMEFRE":"Rue Picard","STRNAMEDUT":"Picardstraat","SLOPE":0.26,"LENGTH":80.8520160473419},"bbox":[148503.74973276,172477.314,148576.158,172513.27363914]},{"type":"Feature","id":"StreetAxes.fid--1290087_1a02c00fa75_5370","geometry":{"type":"LineString","coordinates":[[148473.058,172453.55],[148475.94,172458.896],[148497.84,172502.028],[148503.74973276,172513.27363914]]},"geometry_name":"GEOM","properties":{"INSPIRE_ID":"https://databrussels.be/id/streetaxe/75361","TYPE":"S","HIERARCHY":"DR","LVL":0,"STARTSN_ID":"https://databrussels.be/id/streetnode/3861","ENDSN_ID":"https://databrussels.be/id/streetnode/3022","STRNAMEFRE":"Rue Bouvier","STRNAMEDUT":"Bouvierstraat","SLOPE":1.41,"LENGTH":67.1505991953049},"bbox":[148473.058,172453.55,148503.74973276,172513.27363914]},{"type":"Feature","id":"StreetAxes.fid--1290087_1a02c00fa75_537f","geometry":{"type":"LineString","coordinates":[[148831.16854172,172444.3679106],[148837.5847023,172457.06516818],[148852.54873529,172486.21292894],[148869.12427102,172518.64937531],[148896.08558271,172571.51914294],[148905.2243901,172590.32838641],[148911.68784938,172600.95424248],[148917.29573819,172609.5817846],[148922.14649774,172618.30242091],[148925.9227353,172624.36101794],[148944.67273222,172644.39990337],[148953.53611971,172649.43447104]]},"geometry_name":"GEOM","properties":{"INSPIRE_ID":"https://databrussels.be/id/streetaxe/77289","TYPE":"S","HIERARCHY":"MER","LVL":0,"STARTSN_ID":"https://databrussels.be/id/streetnode/9979","ENDSN_ID":"https://databrussels.be/id/streetnode/9785","STRNAMEFRE":"Quai de Willebroeck","STRNAMEDUT":"Willebroekkaai","SLOPE":1.09,"LENGTH":241.158104862966},"bbox":[148831.16854172,172444.3679106,148953.53611971,172649.43447104]},{"type":"Feature","id":"StreetAxes.fid--1290087_1a02c00fa75_538a","geometry":{"type":"LineString","coordinates":[[148964.77185207,172432.88461639],[148972.92,172449.275],[148987.865,172478.605],[149022.57049185,172547.00285103]]},"geometry_name":"GEOM","properties":{"INSPIRE_ID":"https://databrussels.be/id/streetaxe/80498","TYPE":"S","HIERARCHY":"DR","LVL":0,"STARTSN_ID":"https://databrussels.be/id/streetnode/4376","ENDSN_ID":"https://databrussels.be/id/streetnode/4204","STRNAMEFRE":"Avenue de l'Héliport","STRNAMEDUT":"Helihavenlaan","SLOPE":1.13,"LENGTH":127.921128887573},"bbox":[148964.77185207,172432.88461639,149022.57049185,172547.00285103]},{"type":"Feature","id":"StreetAxes.fid--1290087_1a02c00fa75_5376","geometry":{"type":"LineString","coordinates":[[148833.17,172716.15],[148812.725,172726.445]]},"geometry_name":"GEOM","properties":{"INSPIRE_ID":"https://databrussels.be/id/streetaxe/82111","TYPE":"S","HIERARCHY":"IDR","LVL":1,"STARTSN_ID":"https://databrussels.be/id/streetnode/534","ENDSN_ID":"https://databrussels.be/id/streetnode/92","STRNAMEFRE":"Place des Armateurs","STRNAMEDUT":"Redersplein","SLOPE":26.43,"LENGTH":22.8907197353108},"bbox":[148812.725,172716.15,148833.17,172726.445]},{"type":"Feature","id":"StreetAxes.fid--1290087_1a02c00fa75_5375","geometry":{"type":"LineString","coordinates":[[148812.725,172726.445],[148802.86693911,172736.51099622],[148800.546,172748.999],[148812.38835128,172765.838282],[148833.54385825,172806.10167404],[148883.35666808,172901.31795938],[148940.36146511,173009.87425868],[148975.06003722,173079.25118034],[149035.47272973,173198.02818685],[149085.66173581,173297.91237093],[149121.13482962,173367.9087294],[149206.33221649,173535.31152474],[149209.58520762,173560.55357437],[149227.08939802,173571.08399998],[149236.5665,173587.713]]},"geometry_name":"GEOM","properties":{"INSPIRE_ID":"https://databrussels.be/id/streetaxe/84339","TYPE":"S","HIERARCHY":"DR","LVL":0,"STARTSN_ID":"https://databrussels.be/id/streetnode/92","ENDSN_ID":"https://databrussels.be/id/streetnode/4219","STRNAMEFRE":"Quai des Steamers","STRNAMEDUT":"Stoombotenkaai","SLOPE":0.4,"LENGTH":976.8715940872},"bbox":[148800.546,172726.445,149236.5665,173587.713]},{"type":"Feature","id":"StreetAxes.fid--1290087_1a02c00fa75_536f","geometry":{"type":"LineString","coordinates":[[148411.29281763,172559.78564044],[148498.45686165,172515.91384316],[148503.74973276,172513.27363914]]},"geometry_name":"GEOM","properties":{"INSPIRE_ID":"https://databrussels.be/id/streetaxe/87908","TYPE":"S","HIERARCHY":"DC","LVL":0,"STARTSN_ID":"https://databrussels.be/id/streetnode/11748","ENDSN_ID":"https://databrussels.be/id/streetnode/3022","STRNAMEFRE":"Rue Picard","STRNAMEDUT":"Picardstraat","SLOPE":0.43,"LENGTH":103.497125047595},"bbox":[148411.29281763,172513.27363914,148503.74973276,172559.78564044]},{"type":"Feature","id":"StreetAxes.fid--1290087_1a02c00fa75_538c","geometry":{"type":"LineString","coordinates":[[148979.91491195,172633.19687927],[148993.47852138,172625.27362933]]},"geometry_name":"GEOM","properties":{"INSPIRE_ID":"https://databrussels.be/id/streetaxe/90685","TYPE":"I","HIERARCHY":"DC","LVL":0,"STARTSN_ID":"https://databrussels.be/id/streetnode/9780","ENDSN_ID":"https://databrussels.be/id/streetnode/9789","STRNAMEFRE":"Allée Verte","STRNAMEDUT":"Groendreef","SLOPE":3.31,"LENGTH":15.7082586755756},"bbox":[148979.91491195,172625.27362933,148993.47852138,172633.19687927]},{"type":"Feature","id":"StreetAxes.fid--1290087_1a02c00fa75_5387","geometry":{"type":"LineString","coordinates":[[148945.2123694,172655.19446102],[148953.26623348,172660.72772306],[148965.77972684,172669.61921135],[148979.53175228,172680.06008061],[148992.13164783,172691.321517]]},"geometry_name":"GEOM","properties":{"INSPIRE_ID":"https://databrussels.be/id/streetaxe/90687","TYPE":"I","HIERARCHY":"MER","LVL":0,"STARTSN_ID":"https://databrussels.be/id/streetnode/9966","ENDSN_ID":"https://databrussels.be/id/streetnode/9970","STRNAMEFRE":"Allée Verte","STRNAMEDUT":"Groendreef","SLOPE":0.35,"LENGTH":59.2877157960803},"bbox":[148945.2123694,172655.19446102,148992.13164783,172691.321517]},{"type":"Feature","id":"StreetAxes.fid--1290087_1a02c00fa75_5389","geometry":{"type":"LineString","coordinates":[[148953.53611971,172649.43447104],[148962.9200724,172654.76472935],[148975.53958852,172664.00382752],[148979.90771424,172667.56179181]]},"geometry_name":"GEOM","properties":{"INSPIRE_ID":"https://databrussels.be/id/streetaxe/90688","TYPE":"I","HIERARCHY":"MER","LVL":0,"STARTSN_ID":"https://databrussels.be/id/streetnode/9785","ENDSN_ID":"https://databrussels.be/id/streetnode/9983","STRNAMEFRE":"Allée Verte","STRNAMEDUT":"Groendreef","SLOPE":3.4,"LENGTH":32.0660433968374},"bbox":[148953.53611971,172649.43447104,148979.90771424,172667.56179181]},{"type":"Feature","id":"StreetAxes.fid--1290087_1a02c00fa75_5386","geometry":{"type":"LineString","coordinates":[[148945.2123694,172655.19446102],[148953.53611971,172649.43447104]]},"geometry_name":"GEOM","properties":{"INSPIRE_ID":"https://databrussels.be/id/streetaxe/91411","TYPE":"I","HIERARCHY":"MER","LVL":0,"STARTSN_ID":"https://databrussels.be/id/streetnode/9966","ENDSN_ID":"https://databrussels.be/id/streetnode/9785","STRNAMEFRE":"Allée Verte","STRNAMEDUT":"Groendreef","SLOPE":17.29,"LENGTH":10.1223665098567},"bbox":[148945.2123694,172649.43447104,148953.53611971,172655.19446102]},{"type":"Feature","id":"StreetAxes.fid--1290087_1a02c00fa75_538d","geometry":{"type":"LineString","coordinates":[[148985.388,172609.523],[148993.479,172625.274]]},"geometry_name":"GEOM","properties":{"INSPIRE_ID":"https://databrussels.be/id/streetaxe/91742","TYPE":"S","HIERARCHY":"DC","LVL":0,"STARTSN_ID":"https://databrussels.be/id/streetnode/15045","ENDSN_ID":"https://databrussels.be/id/streetnode/9789","STRNAMEFRE":"Allée Verte","STRNAMEDUT":"Groendreef","SLOPE":0,"LENGTH":17.7075769658175},"bbox":[148985.388,172609.523,148993.479,172625.274]},{"type":"Feature","id":"StreetAxes.fid--1290087_1a02c00fa75_5379","geometry":{"type":"LineString","coordinates":[[148979.90771424,172667.56179181],[148983.12231522,172670.18017694],[148991.72635152,172677.55707401],[148999.72307483,172685.1260952],[149008.21568812,172694.32651332],[149016.61426976,172703.87477173],[149023.97414298,172713.24535763],[149030.55200117,172722.62344028],[149037.1595096,172733.22442033],[149043.20846844,172744.24038169],[149049.26535503,172756.16467782],[149054.10050111,172765.92070273],[149066.25386704,172789.93915788],[149070.95294694,172799.31588514],[149081.42024201,172819.89151698],[149097.74980429,172852.079072],[149114.7464414,172885.48062068],[149125.3054526,172906.48662122],[149136.47304485,172928.42616767],[149143.63625412,172942.446798],[149147.78760121,172950.47392481],[149162.87189419,172980.38176079],[149197.73325747,173048.84223383],[149208.28707247,173069.65990052],[149241.31883723,173134.47910494],[149251.83730234,173154.90336898],[149257.36723919,173166.14132827],[149323.23734565,173295.72259745],[149365.06414812,173377.75613361]]},"geometry_name":"GEOM","properties":{"INSPIRE_ID":"https://databrussels.be/id/streetaxe/92439","TYPE":"S","HIERARCHY":"MER","LVL":0,"STARTSN_ID":"https://databrussels.be/id/streetnode/9983","ENDSN_ID":"https://databrussels.be/id/streetnode/9976","STRNAMEFRE":"Allée Verte","STRNAMEDUT":"Groendreef","SLOPE":0.12,"LENGTH":810.746479998478},"bbox":[148979.90771424,172667.56179181,149365.06414812,173377.75613361]},{"type":"Feature","id":"StreetAxes.fid--1290087_1a02c00fa75_537a","geometry":{"type":"LineString","coordinates":[[149404.53717485,173485.3945785],[149402.20924836,173478.11500871],[149398.07263554,173466.20963051],[149394.42820996,173456.77488658],[149388.45540137,173444.89463388],[149356.04604532,173381.41269887],[149322.61246932,173315.73590424],[149250.95331872,173174.36651501],[149238.66081209,173150.50362938],[149220.55918161,173114.68417779],[149194.60763032,173063.81717496],[149189.0858131,173053.0060061],[149177.74695752,173031.01615126],[149155.9606284,172988.05029605],[149138.34930284,172953.17684275],[149122.94410558,172922.91965039],[149100.53264199,172878.9335418],[149095.27045528,172868.4916026],[149079.67970362,172837.75325621],[149067.83737571,172814.53511165],[149050.96538846,172781.22466327],[149046.02950672,172771.52189062],[149034.26459539,172748.44370642],[149029.26431611,172739.06102203],[149026.61256917,172734.53241516],[149022.44217454,172728.22817763],[149015.14355371,172717.99681828],[149007.94745979,172708.65087709],[148998.67889188,172698.17308656],[148992.13164783,172691.321517]]},"geometry_name":"GEOM","properties":{"INSPIRE_ID":"https://databrussels.be/id/streetaxe/92440","TYPE":"S","HIERARCHY":"MER","LVL":0,"STARTSN_ID":"https://databrussels.be/id/streetnode/10909","ENDSN_ID":"https://databrussels.be/id/streetnode/9970","STRNAMEFRE":"Allée Verte","STRNAMEDUT":"Groendreef","SLOPE":0.13,"LENGTH":896.268551098672},"bbox":[148992.13164783,172691.321517,149404.53717485,173485.3945785]},{"type":"Feature","id":"StreetAxes.fid--1290087_1a02c00fa75_537b","geometry":{"type":"LineString","coordinates":[[148993.47852138,172625.27362933],[149006.45816029,172646.8767423],[149046.06642516,172725.02105634],[149052.44866103,172737.27792838],[149056.71363966,172743.55523506],[149075.79814967,172758.20561264]]},"geometry_name":"GEOM","properties":{"INSPIRE_ID":"https://databrussels.be/id/streetaxe/92441","TYPE":"S","HIERARCHY":"DC","LVL":0,"STARTSN_ID":"https://databrussels.be/id/streetnode/9789","ENDSN_ID":"https://databrussels.be/id/streetnode/9981","STRNAMEFRE":"Allée Verte","STRNAMEDUT":"Groendreef","SLOPE":0.36,"LENGTH":158.278980442858},"bbox":[148993.47852138,172625.27362933,149075.79814967,172758.20561264]},{"type":"Feature","id":"StreetAxes.fid--1290087_1a02c00fa75_5382","geometry":{"type":"LineString","coordinates":[[148910.67321674,172620.60035694],[148918.00470116,172630.03525475],[148926.24981559,172639.11207613],[148932.31289685,172644.81702099],[148937.54560185,172649.92714667],[148945.2123694,172655.19446102]]},"geometry_name":"GEOM","properties":{"INSPIRE_ID":"https://databrussels.be/id/streetaxe/93988","TYPE":"I","HIERARCHY":"MER","LVL":0,"STARTSN_ID":"https://databrussels.be/id/streetnode/9989","ENDSN_ID":"https://databrussels.be/id/streetnode/9966","STRNAMEFRE":"Quai de Willebroeck","STRNAMEDUT":"Willebroekkaai","SLOPE":2.32,"LENGTH":49.1520504355554},"bbox":[148910.67321674,172620.60035694,148945.2123694,172655.19446102]},{"type":"Feature","id":"StreetAxes.fid--1290087_1a02c00fa75_5384","geometry":{"type":"LineString","coordinates":[[148921.1063445,172669.66631729],[148941.08580893,172658.05001844],[148945.2123694,172655.19446102]]},"geometry_name":"GEOM","properties":{"INSPIRE_ID":"https://databrussels.be/id/streetaxe/93989","TYPE":"I","HIERARCHY":"IDR","LVL":0,"STARTSN_ID":"https://databrussels.be/id/streetnode/8803","ENDSN_ID":"https://databrussels.be/id/streetnode/9966","STRNAMEFRE":"Place des Armateurs","STRNAMEDUT":"Redersplein","SLOPE":6.47,"LENGTH":28.1292177176581},"bbox":[148921.1063445,172655.19446102,148945.2123694,172669.66631729]},{"type":"Feature","id":"StreetAxes.fid--1290087_1a02c00fa75_5388","geometry":{"type":"LineString","coordinates":[[148953.53611971,172649.43447104],[148961.21687058,172644.11943317],[148979.91491195,172633.19687927]]},"geometry_name":"GEOM","properties":{"INSPIRE_ID":"https://databrussels.be/id/streetaxe/93990","TYPE":"I","HIERARCHY":"DC","LVL":0,"STARTSN_ID":"https://databrussels.be/id/streetnode/9785","ENDSN_ID":"https://databrussels.be/id/streetnode/9780","STRNAMEFRE":"Allée Verte","STRNAMEDUT":"Groendreef","SLOPE":3.78,"LENGTH":30.9949623141779},"bbox":[148953.53611971,172633.19687927,148979.91491195,172649.43447104]},{"type":"Feature","id":"StreetAxes.fid--1290087_1a02c00fa75_5378","geometry":{"type":"LineString","coordinates":[[148833.17,172716.15],[148838.29724639,172722.49223858],[148844.50725942,172733.22560957],[148888.20236068,172713.21773445],[148946.95476994,172722.85055996]]},"geometry_name":"GEOM","properties":{"INSPIRE_ID":"https://databrussels.be/id/streetaxe/94571","TYPE":"S","HIERARCHY":"DR","LVL":0,"STARTSN_ID":"https://databrussels.be/id/streetnode/534","ENDSN_ID":"https://databrussels.be/id/streetnode/5316","STRNAMEFRE":"Quai des Armateurs","STRNAMEDUT":"Rederskaai","SLOPE":3.96,"LENGTH":128.150823679868},"bbox":[148833.17,172713.21773445,148946.95476994,172733.22560957]},{"type":"Feature","id":"StreetAxes.fid--1290087_1a02c00fa75_538e","geometry":{"type":"LineString","coordinates":[[148985.388,172609.523],[148994.012,172605.076],[149029.91,172586.561],[149039.206,172581.767]]},"geometry_name":"GEOM","properties":{"INSPIRE_ID":"https://databrussels.be/id/streetaxe/94675","TYPE":"S","HIERARCHY":"DR","LVL":0,"STARTSN_ID":"https://databrussels.be/id/streetnode/15045","ENDSN_ID":"https://databrussels.be/id/streetnode/15046","STRNAMEFRE":"Rue Hélène Dutrieu","STRNAMEDUT":"Hélène Dutrieustraat","SLOPE":0,"LENGTH":60.5538823220609},"bbox":[148985.388,172581.767,149039.206,172609.523]},{"type":"Feature","id":"StreetAxes.fid--1290087_1a02c00fa75_536e","geometry":{"type":"LineString","coordinates":[[148408.84924626,173114.16167192],[148418.31292831,173108.11162482],[148486.20950853,173073.78914665],[148492.10055275,173069.62585357],[148496.18220071,173065.41167584],[148499.82963081,173061.32783351],[148505.22907088,173056.81813557],[148566.5598192,173025.27162832],[148572.24985575,173022.73226192],[148576.49034635,173021.64237596],[148581.65608914,173021.02215356],[148588.36151017,173020.3788223],[148595.09146184,173018.03008372],[148727.08174898,172950.36072172],[148737.36619242,172943.12410479],[148797.1901451,172912.63971222]]},"geometry_name":"GEOM","properties":{"INSPIRE_ID":"https://databrussels.be/id/streetaxe/95152","TYPE":"S","HIERARCHY":"DR","LVL":0,"STARTSN_ID":"https://databrussels.be/id/streetnode/16267","ENDSN_ID":"https://databrussels.be/id/streetnode/16265","STRNAMEFRE":"Drève Anna Boch","STRNAMEDUT":"Anna Bochdreef","SLOPE":null,"LENGTH":439.591241567526},"bbox":[148408.84924626,172912.63971222,148797.1901451,173114.16167192]},{"type":"Feature","id":"StreetAxes.fid--1290087_1a02c00fa75_536d","geometry":{"type":"LineString","coordinates":[[148797.1901451,172912.63971222],[148731.812,172783.671],[148725.039,172771.01]]},"geometry_name":"GEOM","properties":{"INSPIRE_ID":"https://databrussels.be/id/streetaxe/95153","TYPE":"S","HIERARCHY":"IDR","LVL":0,"STARTSN_ID":"https://databrussels.be/id/streetnode/3092","ENDSN_ID":"https://databrussels.be/id/streetnode/16267","STRNAMEFRE":"Avenue du Port","STRNAMEDUT":"Havenlaan","SLOPE":null,"LENGTH":158.952104357272},"bbox":[148725.039,172771.01,148797.1901451,172912.63971222]},{"type":"Feature","id":"StreetAxes.fid--1290087_1a02c00fa75_5374","geometry":{"type":"LineString","coordinates":[[148797.1901451,172912.63971222],[148925.14,173165.041],[148948.722,173214.588],[148955.957,173226.914]]},"geometry_name":"GEOM","properties":{"INSPIRE_ID":"https://databrussels.be/id/streetaxe/95168","TYPE":"S","HIERARCHY":"IDR","LVL":0,"STARTSN_ID":"https://databrussels.be/id/streetnode/16267","ENDSN_ID":"https://databrussels.be/id/streetnode/3326","STRNAMEFRE":"Avenue du Port","STRNAMEDUT":"Havenlaan","SLOPE":0,"LENGTH":352.145037473741},"bbox":[148797.1901451,172912.63971222,148955.957,173226.914]},{"type":"Feature","id":"StreetAxes.fid--1290087_1a02c00fa75_5373","geometry":{"type":"LineString","coordinates":[[148642.48067613,172352.50176472],[148736.81916087,172511.965406],[148743.33544028,172519.68469997]]},"geometry_name":"GEOM","properties":{"INSPIRE_ID":"https://databrussels.be/id/streetaxe/96357","TYPE":"S","HIERARCHY":"DR","LVL":0,"STARTSN_ID":"https://databrussels.be/id/streetnode/2986","ENDSN_ID":"https://databrussels.be/id/streetnode/16515","STRNAMEFRE":"Quai des Péniches","STRNAMEDUT":"Akenkaai","SLOPE":0.19,"LENGTH":195.381205850493},"bbox":[148642.48067613,172352.50176472,148743.33544028,172519.68469997]},{"type":"Feature","id":"StreetAxes.fid--1290087_1a02c00fa75_5385","geometry":{"type":"LineString","coordinates":[[148923.39470052,172484.82774525],[148925.745,172493.133],[148985.388,172609.523]]},"geometry_name":"GEOM","properties":{"INSPIRE_ID":"https://databrussels.be/id/streetaxe/98720","TYPE":"S","HIERARCHY":"DC","LVL":0,"STARTSN_ID":"https://databrussels.be/id/streetnode/","ENDSN_ID":"https://databrussels.be/id/streetnode/","STRNAMEFRE":"Allée Verte","STRNAMEDUT":"Groendreef","SLOPE":0.45,"LENGTH":139.413359901148},"bbox":[148923.39470052,172484.82774525,148985.388,172609.523]}],"numberReturned":35,"grand_bruxelles_source":{"authority":"Paradigm / Brussels-Capital Region","service":"https://geoservices-urbis.irisnet.be/geoserver/urbisvector/wfs","layer":"urbisvector:StreetAxes","crs":"EPSG:31370","bbox":[148500.0,172500.0,149000.0,173000.0],"cell_id":"bxl-e148500-n172500-s500","ownership":"bbox_intersection_source_unclipped"}}
