{"type":"FeatureCollection","totalFeatures":31,"numberMatched":31,"timeStamp":"2026-08-24T01:19:17.792Z","crs":{"type":"name","properties":{"name":"urn:ogc:def:crs:EPSG::31370"}},"bbox":[149755.433,174242.323,151684.07012799,175741.445],"features":[{"type":"Feature","id":"StreetAxes.fid--1290087_1a03126d94f_6c12","geometry":{"type":"LineString","coordinates":[[150693.33743097,174992.96994497],[150699.22844175,174996.34885189],[150715.39214521,175011.21817762],[150726.63597269,175020.90749802]]},"geometry_name":"GEOM","properties":{"INSPIRE_ID":"https://databrussels.be/id/streetaxe/100331","TYPE":"S","HIERARCHY":"IDR","LVL":0,"STARTSN_ID":"https://databrussels.be/id/streetnode/16456","ENDSN_ID":"https://databrussels.be/id/streetnode/17602","STRNAMEFRE":"Chaussée de Vilvorde","STRNAMEDUT":"Vilvoordsesteenweg","SLOPE":null,"LENGTH":43.5967189866576},"bbox":[150693.33743097,174992.96994497,150726.63597269,175020.90749802]},{"type":"Feature","id":"StreetAxes.fid--1290087_1a03126d94f_6c15","geometry":{"type":"LineString","coordinates":[[150996.40257958,174598.67501907],[150996.74975173,174593.54298815]]},"geometry_name":"GEOM","properties":{"INSPIRE_ID":"https://databrussels.be/id/streetaxe/82272","TYPE":"S","HIERARCHY":"IDR","LVL":0,"STARTSN_ID":"https://databrussels.be/id/streetnode/10992","ENDSN_ID":"https://databrussels.be/id/streetnode/8254","STRNAMEFRE":"Rampe du Lion","STRNAMEDUT":"Leeuwoprit","SLOPE":24.71,"LENGTH":5.14376028448818},"bbox":[150996.40257958,174593.54298815,150996.74975173,174598.67501907]},{"type":"Feature","id":"StreetAxes.fid--1290087_1a03126d94f_6c16","geometry":{"type":"LineString","coordinates":[[150996.40257958,174598.67501907],[151002.23105406,174597.03704347]]},"geometry_name":"GEOM","properties":{"INSPIRE_ID":"https://databrussels.be/id/streetaxe/82273","TYPE":"S","HIERARCHY":"IDR","LVL":0,"STARTSN_ID":"https://databrussels.be/id/streetnode/10992","ENDSN_ID":"https://databrussels.be/id/streetnode/8251","STRNAMEFRE":"Rampe du Lion","STRNAMEDUT":"Leeuwoprit","SLOPE":41.98,"LENGTH":6.05426121094342},"bbox":[150996.40257958,174597.03704347,151002.23105406,174598.67501907]},{"type":"Feature","id":"StreetAxes.fid--1290087_1a03126d94f_6c17","geometry":{"type":"LineString","coordinates":[[150996.40257958,174598.67501907],[150983.114,174620.266],[150956.98804103,174662.00229978],[150952.85454965,174673.45032555],[150950.93199552,174689.51604237],[150955.47084174,174706.07111273],[150960.14774893,174715.52638491],[150972.01330004,174728.82335223],[151039.55583109,174771.94935431]]},"geometry_name":"GEOM","properties":{"INSPIRE_ID":"https://databrussels.be/id/streetaxe/82274","TYPE":"S","HIERARCHY":null,"LVL":0,"STARTSN_ID":"https://databrussels.be/id/streetnode/10992","ENDSN_ID":"https://databrussels.be/id/streetnode/10993","STRNAMEFRE":"Rampe du Lion","STRNAMEDUT":"Leeuwoprit","SLOPE":0.85,"LENGTH":228.615944235875},"bbox":[150950.93199552,174598.67501907,151039.55583109,174771.94935431]},{"type":"Feature","id":"StreetAxes.fid--1290087_1a03126d94f_6c00","geometry":{"type":"LineString","coordinates":[[150896.19554077,174837.64564335],[150897.32750184,174852.08055877],[150900.10649485,174859.49919354],[151135.63881344,175016.37899251],[151201.00782422,175053.45197011],[151362.61973362,175162.4220586],[151494.21472332,175247.34793935],[151641.91444433,175344.0130948],[151684.07012799,175380.6644121]]},"geometry_name":"GEOM","properties":{"INSPIRE_ID":"https://databrussels.be/id/streetaxe/82613","TYPE":"S","HIERARCHY":"DR","LVL":0,"STARTSN_ID":"https://databrussels.be/id/streetnode/11006","ENDSN_ID":"https://databrussels.be/id/streetnode/11094","STRNAMEFRE":"Quai Léon Monnoyer","STRNAMEDUT":"Léon Monnoyerkaai","SLOPE":0.18,"LENGTH":964.465184410955},"bbox":[150896.19554077,174837.64564335,151684.07012799,175380.6644121]},{"type":"Feature","id":"StreetAxes.fid--1290087_1a03126d94f_6c1c","geometry":{"type":"LineString","coordinates":[[150504.686,174252.576],[150514.439,174247.179],[150525.015,174243.496],[150534.603,174242.323],[150546.957,174243.395],[150558.844,174246.511],[150569.2,174251.38],[150580.819,174258.489],[150598.316,174270.463],[150624.532,174288.934],[150641.046,174301.844],[150656.226,174315.087],[150703.866,174356.856],[150733.919,174383.043],[150768.556,174413.68],[150797.911,174439.105],[150815.082,174454.23],[150833.18,174467.863],[150854.106,174482.764],[150875.162,174496.067],[150912.337,174516.802],[150961.198,174544.692],[150999.751,174566.299],[151020.422,174579.016],[151032.71,174589.311],[151062.238,174614.799]]},"geometry_name":"GEOM","properties":{"INSPIRE_ID":"https://databrussels.be/id/streetaxe/83880","TYPE":"S","HIERARCHY":"MER","LVL":0,"STARTSN_ID":"https://databrussels.be/id/streetnode/14988","ENDSN_ID":"https://databrussels.be/id/streetnode/8246","STRNAMEFRE":"Avenue de Vilvorde","STRNAMEDUT":"Vilvoordselaan","SLOPE":0.89,"LENGTH":682.898745671609},"bbox":[150504.686,174242.323,151062.238,174614.799]},{"type":"Feature","id":"StreetAxes.fid--1290087_1a03126d94f_6c02","geometry":{"type":"LineString","coordinates":[[150895.5144035,174827.5180792],[150908.31669035,174825.3932829],[151006.72515012,174790.83788547],[151020.47609965,174784.31924935],[151032.38854715,174777.0897767],[151039.55583109,174771.94935431]]},"geometry_name":"GEOM","properties":{"INSPIRE_ID":"https://databrussels.be/id/streetaxe/84332","TYPE":"S","HIERARCHY":"MER","LVL":0,"STARTSN_ID":"https://databrussels.be/id/streetnode/10990","ENDSN_ID":"https://databrussels.be/id/streetnode/10993","STRNAMEFRE":"Rue de l'Avant-Port","STRNAMEDUT":"Voorhavenstraat","SLOPE":0.01,"LENGTH":155.248934789419},"bbox":[150895.5144035,174771.94935431,151039.55583109,174827.5180792]},{"type":"Feature","id":"StreetAxes.fid--1290087_1a03126d94f_6c03","geometry":{"type":"LineString","coordinates":[[150896.19554077,174837.64564335],[150911.06278347,174832.95967295],[151009.3752846,174798.78610953],[151022.3788837,174793.49579371],[151038.06506779,174785.32097303],[151045.15368788,174780.87546872]]},"geometry_name":"GEOM","properties":{"INSPIRE_ID":"https://databrussels.be/id/streetaxe/84667","TYPE":"S","HIERARCHY":"MER","LVL":0,"STARTSN_ID":"https://databrussels.be/id/streetnode/11006","ENDSN_ID":"https://databrussels.be/id/streetnode/8248","STRNAMEFRE":"Rue de l'Avant-Port","STRNAMEDUT":"Voorhavenstraat","SLOPE":0.2,"LENGTH":159.765149359839},"bbox":[150896.19554077,174780.87546872,151045.15368788,174837.64564335]},{"type":"Feature","id":"StreetAxes.fid--1290087_1a03126d94f_6c1e","geometry":{"type":"LineString","coordinates":[[150996.74975173,174593.54298815],[151029.52775826,174538.67437511],[151046.70855661,174505.33592479],[151068.92179075,174453.61624404],[151080.59323989,174420.29561898]]},"geometry_name":"GEOM","properties":{"INSPIRE_ID":"https://databrussels.be/id/streetaxe/84844","TYPE":"S","HIERARCHY":"IDR","LVL":1,"STARTSN_ID":"https://databrussels.be/id/streetnode/8254","ENDSN_ID":"https://databrussels.be/id/streetnode/8255","STRNAMEFRE":"Rampe du Lion","STRNAMEDUT":"Leeuwoprit","SLOPE":0.84,"LENGTH":193.012550826234},"bbox":[150996.74975173,174420.29561898,151080.59323989,174593.54298815]},{"type":"Feature","id":"StreetAxes.fid--1290087_1a03126d94f_6c07","geometry":{"type":"LineString","coordinates":[[150848.805,174818.694],[150862.01001206,174830.71342678],[150871.49036244,174835.01040982],[150880.42134497,174837.74529497],[150896.19554077,174837.64564335]]},"geometry_name":"GEOM","properties":{"INSPIRE_ID":"https://databrussels.be/id/streetaxe/84922","TYPE":"S","HIERARCHY":"MER","LVL":0,"STARTSN_ID":"https://databrussels.be/id/streetnode/11002","ENDSN_ID":"https://databrussels.be/id/streetnode/11006","STRNAMEFRE":"Quai Léon Monnoyer","STRNAMEDUT":"Léon Monnoyerkaai","SLOPE":0.2,"LENGTH":53.3796214038286},"bbox":[150848.805,174818.694,150896.19554077,174837.74529497]},{"type":"Feature","id":"StreetAxes.fid--1290087_1a03126d94f_6c08","geometry":{"type":"LineString","coordinates":[[150848.805,174818.694],[150865.67542538,174822.5150962],[150873.86917286,174825.11735363],[150881.95138038,174826.70498993],[150895.5144035,174827.5180792]]},"geometry_name":"GEOM","properties":{"INSPIRE_ID":"https://databrussels.be/id/streetaxe/85246","TYPE":"S","HIERARCHY":"MER","LVL":0,"STARTSN_ID":"https://databrussels.be/id/streetnode/11002","ENDSN_ID":"https://databrussels.be/id/streetnode/10990","STRNAMEFRE":"Quai Léon Monnoyer","STRNAMEDUT":"Léon Monnoyerkaai","SLOPE":0.93,"LENGTH":47.7188339944064},"bbox":[150848.805,174818.694,150895.5144035,174827.5180792]},{"type":"Feature","id":"StreetAxes.fid--1290087_1a03126d94f_6c1d","geometry":{"type":"LineString","coordinates":[[150514.498,174272.658],[150521.717,174271.88],[150527.976,174271.617],[150536.409,174271.934],[150560.347,174277.628],[150584.926,174284.669],[150600.326,174290.58],[150609.977,174295.053],[150620.947,174301.823],[150640.243,174317.16],[150657.872,174332.309],[150677.819,174350.011],[150718.271,174385.919],[150761.47,174423.276],[150785.665,174444.665],[150809.82,174465.401],[150826.697,174478.597],[150839.975,174488.01],[150859.262,174500.408],[150871.489,174507.784],[150997.907,174579.264],[151016.402,174591.328],[151054.496,174623.751]]},"geometry_name":"GEOM","properties":{"INSPIRE_ID":"https://databrussels.be/id/streetaxe/85725","TYPE":"S","HIERARCHY":"MER","LVL":0,"STARTSN_ID":"https://databrussels.be/id/streetnode/14967","ENDSN_ID":"https://databrussels.be/id/streetnode/11007","STRNAMEFRE":"Avenue de Vilvorde","STRNAMEDUT":"Vilvoordselaan","SLOPE":0.93,"LENGTH":654.292923768875},"bbox":[150514.498,174271.617,151054.496,174623.751]},{"type":"Feature","id":"StreetAxes.fid--1290087_1a03126d94f_6c09","geometry":{"type":"LineString","coordinates":[[150895.5144035,174827.5180792],[150896.19554077,174837.64564335]]},"geometry_name":"GEOM","properties":{"INSPIRE_ID":"https://databrussels.be/id/streetaxe/89173","TYPE":"I","HIERARCHY":"MER","LVL":0,"STARTSN_ID":"https://databrussels.be/id/streetnode/10990","ENDSN_ID":"https://databrussels.be/id/streetnode/11006","STRNAMEFRE":"Quai Léon Monnoyer","STRNAMEDUT":"Léon Monnoyerkaai","SLOPE":3.31,"LENGTH":10.15044352034},"bbox":[150895.5144035,174827.5180792,150896.19554077,174837.64564335]},{"type":"Feature","id":"StreetAxes.fid--1290087_1a03126d94f_6c18","geometry":{"type":"LineString","coordinates":[[150511.14521589,174807.4891024],[150486.09512998,174776.50537739],[150448.02541905,174732.57817531],[150446.14355365,174730.68803939],[150444.77977369,174729.89497359],[150443.99304816,174729.71624348],[150443.24951884,174729.96552819],[150442.37320686,174730.37377146],[150440.58104202,174731.47749332],[150439.35184165,174731.58535485],[150437.77631212,174731.21087779],[150434.96562159,174730.13327331]]},"geometry_name":"GEOM","properties":{"INSPIRE_ID":"https://databrussels.be/id/streetaxe/90052","TYPE":"MT","HIERARCHY":"MER","LVL":-1,"STARTSN_ID":"https://databrussels.be/id/streetnode/12185","ENDSN_ID":"https://databrussels.be/id/streetnode/12186","STRNAMEFRE":null,"STRNAMEDUT":null,"SLOPE":2.26,"LENGTH":112.742582584231},"bbox":[150434.96562159,174729.71624348,150511.14521589,174807.4891024]},{"type":"Feature","id":"StreetAxes.fid--1290087_1a03126d94f_6c1b","geometry":{"type":"LineString","coordinates":[[150505.66050328,174785.30903634],[150504.92514276,174786.74608786],[150503.97178767,174787.94912655],[150502.74079719,174788.99341319],[150501.24657986,174789.80210097],[150499.56473996,174790.28587643],[150498.68761778,174790.38743628]]},"geometry_name":"GEOM","properties":{"INSPIRE_ID":"https://databrussels.be/id/streetaxe/97765","TYPE":"S","HIERARCHY":"IDR","LVL":0,"STARTSN_ID":"https://databrussels.be/id/streetnode/16453","ENDSN_ID":"https://databrussels.be/id/streetnode/16454","STRNAMEFRE":"Chaussée de Vilvorde","STRNAMEDUT":"Vilvoordsesteenweg","SLOPE":null,"LENGTH":9.09556627168772},"bbox":[150498.68761778,174785.30903634,150505.66050328,174790.38743628]},{"type":"Feature","id":"StreetAxes.fid--1290087_1a03126d94f_6c0d","geometry":{"type":"LineString","coordinates":[[150646.22039277,174866.67017948],[150643.15050112,174873.28879918],[150639.71565715,174878.30544977]]},"geometry_name":"GEOM","properties":{"INSPIRE_ID":"https://databrussels.be/id/streetaxe/97772","TYPE":"S","HIERARCHY":"IDR","LVL":0,"STARTSN_ID":"https://databrussels.be/id/streetnode/16458","ENDSN_ID":"https://databrussels.be/id/streetnode/16457","STRNAMEFRE":"Quai de Heembeek","STRNAMEDUT":"Heembeekkaai","SLOPE":null,"LENGTH":13.375793650864},"bbox":[150639.71565715,174866.67017948,150646.22039277,174878.30544977]},{"type":"Feature","id":"StreetAxes.fid--1290087_1a03126d94f_6c14","geometry":{"type":"LineString","coordinates":[[150434.91910601,174540.40044948],[150446.79613372,174548.20056898],[150471.9042705,174569.17773094],[150497.01304076,174587.39780179],[150565.21004909,174632.76371136],[150605.4885707,174654.10384194],[150664.12943864,174692.31958303],[150687.44056978,174711.80258199],[150848.805,174818.694]]},"geometry_name":"GEOM","properties":{"INSPIRE_ID":"https://databrussels.be/id/streetaxe/97773","TYPE":"S","HIERARCHY":"MER","LVL":0,"STARTSN_ID":"https://databrussels.be/id/streetnode/14501","ENDSN_ID":"https://databrussels.be/id/streetnode/11002","STRNAMEFRE":"Quai Léon Monnoyer","STRNAMEDUT":"Léon Monnoyerkaai","SLOPE":0.33,"LENGTH":499.372414930341},"bbox":[150434.91910601,174540.40044948,150848.805,174818.694]},{"type":"Feature","id":"StreetAxes.fid--1290087_1a03126d94f_6c05","geometry":{"type":"LineString","coordinates":[[150466.97526598,175345.65504506],[150477.78845204,175326.51541807],[150520.81,175242.865],[150546.734,175196.966],[150563.93726864,175167.79355884],[150574.67182182,175143.75648509],[150581.50331573,175115.48967272],[150585.50211864,175086.72177941],[150588.353,175057.368],[150589.543,175034.168],[150589.139,175015.306],[150588.829,175006.161],[150587.463,174986.721],[150585.832,174974.419],[150583.411,174959.266],[150580.781,174946.758],[150575.997,174928.467],[150572.398,174916.581],[150566.637,174900.675],[150558.222,174881.354],[150553.896,174872.611],[150549.375,174864.469],[150542.479,174853.007],[150530.764,174835.753],[150524.071,174826.121],[150511.14521589,174807.4891024]]},"geometry_name":"GEOM","properties":{"INSPIRE_ID":"https://databrussels.be/id/streetaxe/97778","TYPE":"C","HIERARCHY":"IDR","LVL":0,"STARTSN_ID":"https://databrussels.be/id/streetnode/12185","ENDSN_ID":"https://databrussels.be/id/streetnode/16459","STRNAMEFRE":"Avenue des Croix du Feu","STRNAMEDUT":"Vuurkruisenlaan","SLOPE":null,"LENGTH":584.864179998751},"bbox":[150466.97526598,174807.4891024,150589.543,175345.65504506]},{"type":"Feature","id":"StreetAxes.fid--1290087_1a03126d94f_6c0c","geometry":{"type":"LineString","coordinates":[[150646.22039277,174866.67017948],[150651.40195524,174869.37530725],[150656.60273344,174872.56410873],[150740.70656882,174928.75794248],[150813.47467231,174976.01821088],[150820.26655293,174978.94908024],[150880.70193324,174996.23392084],[151018.26078296,175092.4479408],[150968.502,175163.2095],[150960.18349535,175175.7640074]]},"geometry_name":"GEOM","properties":{"INSPIRE_ID":"https://databrussels.be/id/streetaxe/97782","TYPE":"S","HIERARCHY":"H","LVL":0,"STARTSN_ID":"https://databrussels.be/id/streetnode/16458","ENDSN_ID":"https://databrussels.be/id/streetnode/1895","STRNAMEFRE":"Quai de Heembeek","STRNAMEDUT":"Heembeekkaai","SLOPE":0.05,"LENGTH":539.552403132056},"bbox":[150646.22039277,174866.67017948,151018.26078296,175175.7640074]},{"type":"Feature","id":"StreetAxes.fid--1290087_1a03126d94f_6c1a","geometry":{"type":"LineString","coordinates":[[150495.10872273,174769.73886801],[150503.17609295,174776.13190295],[150504.29993913,174777.21714183],[150505.60766841,174779.36270891],[150506.09144387,174781.04454881],[150506.19741671,174782.80196325],[150505.92477385,174784.50960227],[150505.66050328,174785.30903634]]},"geometry_name":"GEOM","properties":{"INSPIRE_ID":"https://databrussels.be/id/streetaxe/97784","TYPE":"S","HIERARCHY":"IDR","LVL":0,"STARTSN_ID":"https://databrussels.be/id/streetnode/16454","ENDSN_ID":"https://databrussels.be/id/streetnode/16449","STRNAMEFRE":"Chaussée de Vilvorde","STRNAMEDUT":"Vilvoordsesteenweg","SLOPE":null,"LENGTH":20.4502442977724},"bbox":[150495.10872273,174769.73886801,150506.19741671,174785.30903634]},{"type":"Feature","id":"StreetAxes.fid--1290087_1a03126d94f_6c19","geometry":{"type":"LineString","coordinates":[[150499.85658811,174763.74753712],[150516.35767776,174776.60369937],[150538.69116666,174792.22817279],[150549.65105991,174799.44854714],[150558.82204083,174805.64665204],[150562.72691541,174809.77383783]]},"geometry_name":"GEOM","properties":{"INSPIRE_ID":"https://databrussels.be/id/streetaxe/97785","TYPE":"S","HIERARCHY":"IDR","LVL":0,"STARTSN_ID":"https://databrussels.be/id/streetnode/16450","ENDSN_ID":"https://databrussels.be/id/streetnode/11496","STRNAMEFRE":"Chaussée de Vilvorde","STRNAMEDUT":"Vilvoordsesteenweg","SLOPE":null,"LENGTH":78.0497037928051},"bbox":[150499.85658811,174763.74753712,150562.72691541,174809.77383783]},{"type":"Feature","id":"StreetAxes.fid--1290087_1a03126d94f_6c13","geometry":{"type":"LineString","coordinates":[[150683.11919611,174994.16747669],[150675.92477101,175005.80599536],[150659.50064471,175035.30906741],[150640.17006773,175069.63029652],[150586.34853877,175165.8869036]]},"geometry_name":"GEOM","properties":{"INSPIRE_ID":"https://databrussels.be/id/streetaxe/97788","TYPE":"S","HIERARCHY":"IDR","LVL":0,"STARTSN_ID":"https://databrussels.be/id/streetnode/16455","ENDSN_ID":"https://databrussels.be/id/streetnode/14905","STRNAMEFRE":"Avenue des Croix du Feu","STRNAMEDUT":"Vuurkruisenlaan","SLOPE":0.37,"LENGTH":197.121701864466},"bbox":[150586.34853877,174994.16747669,150683.11919611,175165.8869036]},{"type":"Feature","id":"StreetAxes.fid--1290087_1a03126d94f_6c10","geometry":{"type":"LineString","coordinates":[[150683.11919611,174994.16747669],[150681.19431576,174992.96994497],[150678.49221842,174989.58162209],[150677.52785104,174985.35645255],[150678.49221842,174981.13128302],[150681.19431576,174977.74296013],[150685.09895954,174975.86258278]]},"geometry_name":"GEOM","properties":{"INSPIRE_ID":"https://databrussels.be/id/streetaxe/97803","TYPE":"S","HIERARCHY":"IDR","LVL":0,"STARTSN_ID":"https://databrussels.be/id/streetnode/11486","ENDSN_ID":"https://databrussels.be/id/streetnode/16455","STRNAMEFRE":"Chaussée de Vilvorde","STRNAMEDUT":"Vilvoordsesteenweg","SLOPE":null,"LENGTH":23.9361288488295},"bbox":[150677.52785104,174975.86258278,150685.09895954,174994.16747669]},{"type":"Feature","id":"StreetAxes.fid--1290087_1a03126d94f_6c01","geometry":{"type":"LineString","coordinates":[[149755.433,175741.445],[149795.37402797,175719.83237976],[149852.90335036,175688.19588191],[149919.66902623,175648.33057366],[149975.79007211,175612.76985741],[150042.08437956,175569.94488872],[150128.50794713,175512.65371476],[150243.01318618,175434.21790087],[150310.56164825,175386.69538316],[150343.49796743,175362.63467354],[150370.22300535,175341.73837206],[150388.76585311,175326.05642729],[150405.96043627,175310.75837181],[150406.67187646,175310.11197186],[150407.38295042,175309.46681206],[150408.0821137,175308.82968721],[150416.09235953,175301.30611966],[150423.95476013,175293.61932599],[150431.76209503,175285.84896899],[150432.32673448,175285.28832699],[150432.88645523,175284.73059106],[150433.4296394,175284.18353392],[150435.74649875,175281.73335145],[150438.01114149,175279.21278326],[150440.27517235,175276.65800527],[150443.25923223,175273.31330072],[150446.20001516,175269.95993331],[150449.05330582,175266.55698062],[150451.85341568,175263.01697615],[150454.58146874,175259.4043906],[150457.25191571,175255.74407941],[150459.47586289,175252.58744513],[150461.66082426,175249.39066938],[150463.83705606,175246.17476006],[150466.07535729,175242.85875823],[150468.29641658,175239.53614933],[150470.49694643,175236.20143886],[150472.69754767,175232.824723],[150474.87694564,175229.43698545],[150477.02609187,175226.0334233],[150479.2581606,175222.42823372],[150481.45686108,175218.80555603],[150483.60843282,175215.16091486],[150485.70836813,175211.485282],[150487.76633094,175207.78055068],[150489.78890166,175204.05324178],[150491.63204152,175200.58714257],[150493.4453117,175197.10406972],[150495.22794961,175193.60850601],[150496.97666194,175190.08718095],[150498.69950495,175186.54167783],[150500.42554608,175182.99059322],[150508.72383466,175163.33969867],[150517.34350228,175140.32840278],[150524.63776552,175116.69710901],[150530.61323771,175092.45978286],[150534.91977416,175068.77816903],[150538.10195138,175043.90681699],[150539.80802437,175017.64757652],[150539.79566029,174993.04576264],[150538.24166029,174966.93376264],[150534.46266029,174935.44576264],[150527.03366029,174901.15976264],[150516.64866029,174865.97276264],[150499.73429845,174821.04941369]]},"geometry_name":"GEOM","properties":{"INSPIRE_ID":"https://databrussels.be/id/streetaxe/97804","TYPE":"S","HIERARCHY":"H","LVL":0,"STARTSN_ID":"https://databrussels.be/id/streetnode/16445","ENDSN_ID":"https://databrussels.be/id/streetnode/12271","STRNAMEFRE":"Avenue Van Praet","STRNAMEDUT":"Van Praetlaan","SLOPE":1.62,"LENGTH":1314.6471030401},"bbox":[149755.433,174821.04941369,150539.80802437,175741.445]},{"type":"Feature","id":"StreetAxes.fid--1290087_1a03126d94f_6c11","geometry":{"type":"LineString","coordinates":[[150693.33743097,174992.96994497],[150689.43278718,174994.85032232],[150685.09895954,174994.85032232],[150683.11919611,174994.16747669]]},"geometry_name":"GEOM","properties":{"INSPIRE_ID":"https://databrussels.be/id/streetaxe/97813","TYPE":"S","HIERARCHY":"IDR","LVL":0,"STARTSN_ID":"https://databrussels.be/id/streetnode/16456","ENDSN_ID":"https://databrussels.be/id/streetnode/16455","STRNAMEFRE":"Chaussée de Vilvorde","STRNAMEDUT":"Vilvoordsesteenweg","SLOPE":null,"LENGTH":10.7618714660185},"bbox":[150683.11919611,174992.96994497,150693.33743097,174994.85032232]},{"type":"Feature","id":"StreetAxes.fid--1290087_1a03126d94f_6c0e","geometry":{"type":"LineString","coordinates":[[150639.71565715,174878.30544977],[150643.26509475,174882.97704771],[150649.81546909,174892.96469313],[150656.45930727,174904.2234793],[150660.6852008,174912.16051915],[150665.630382,174923.024554],[150669.50724118,174931.19053011],[150677.48745539,174949.22892377],[150679.76023856,174955.25602686],[150681.73869404,174961.50729792],[150683.44748317,174966.94750644],[150685.09895954,174975.86258278]]},"geometry_name":"GEOM","properties":{"INSPIRE_ID":"https://databrussels.be/id/streetaxe/97820","TYPE":"S","HIERARCHY":"IDR","LVL":0,"STARTSN_ID":"https://databrussels.be/id/streetnode/16457","ENDSN_ID":"https://databrussels.be/id/streetnode/11486","STRNAMEFRE":"Chaussée de Vilvorde","STRNAMEDUT":"Vilvoordsesteenweg","SLOPE":1.25,"LENGTH":108.344144788755},"bbox":[150639.71565715,174878.30544977,150685.09895954,174975.86258278]},{"type":"Feature","id":"StreetAxes.fid--1290087_1a03126d94f_6c0f","geometry":{"type":"LineString","coordinates":[[150685.09895954,174975.86258278],[150689.43278718,174975.86258278],[150693.33743097,174977.74296013],[150696.03952831,174981.13128302],[150697.00389568,174985.35645255],[150696.03952831,174989.58162209],[150693.33743097,174992.96994497]]},"geometry_name":"GEOM","properties":{"INSPIRE_ID":"https://databrussels.be/id/streetaxe/97821","TYPE":"S","HIERARCHY":"IDR","LVL":0,"STARTSN_ID":"https://databrussels.be/id/streetnode/11486","ENDSN_ID":"https://databrussels.be/id/streetnode/16456","STRNAMEFRE":"Chaussée de Vilvorde","STRNAMEDUT":"Vilvoordsesteenweg","SLOPE":null,"LENGTH":26.0029658520222},"bbox":[150685.09895954,174975.86258278,150697.00389568,174992.96994497]},{"type":"Feature","id":"StreetAxes.fid--1290087_1a03126d94f_6c06","geometry":{"type":"LineString","coordinates":[[150562.72691541,174809.77383783],[150574.83895289,174817.90054119],[150587.38105222,174826.86641519],[150606.34794176,174842.72397114],[150617.19925598,174853.24129137],[150625.11504192,174861.43931017],[150629.26604307,174865.86305854]]},"geometry_name":"GEOM","properties":{"INSPIRE_ID":"https://databrussels.be/id/streetaxe/97823","TYPE":"S","HIERARCHY":"IDR","LVL":0,"STARTSN_ID":"https://databrussels.be/id/streetnode/11496","ENDSN_ID":"https://databrussels.be/id/streetnode/11491","STRNAMEFRE":"Chaussée de Vilvorde","STRNAMEDUT":"Vilvoordsesteenweg","SLOPE":2.69,"LENGTH":87.2995783172025},"bbox":[150562.72691541,174809.77383783,150629.26604307,174865.86305854]},{"type":"Feature","id":"StreetAxes.fid--1290087_1a03126d94f_6c0a","geometry":{"type":"LineString","coordinates":[[150646.22039277,174866.67017948],[150640.10283159,174863.00206531],[150633.36127601,174862.61612071],[150629.26604308,174865.86305854]]},"geometry_name":"GEOM","properties":{"INSPIRE_ID":"https://databrussels.be/id/streetaxe/97824","TYPE":"S","HIERARCHY":"IDR","LVL":0,"STARTSN_ID":"https://databrussels.be/id/streetnode/11491","ENDSN_ID":"https://databrussels.be/id/streetnode/16458","STRNAMEFRE":"Quai de Heembeek","STRNAMEDUT":"Heembeekkaai","SLOPE":null,"LENGTH":19.111824397644},"bbox":[150629.26604308,174862.61612071,150646.22039277,174866.67017948]},{"type":"Feature","id":"StreetAxes.fid--1290087_1a03126d94f_6c0b","geometry":{"type":"LineString","coordinates":[[150629.26604307,174865.86305854],[150634.30895407,174871.72363576],[150638.20373962,174876.455212],[150639.71565715,174878.30544977]]},"geometry_name":"GEOM","properties":{"INSPIRE_ID":"https://databrussels.be/id/streetaxe/97825","TYPE":"S","HIERARCHY":"IDR","LVL":0,"STARTSN_ID":"https://databrussels.be/id/streetnode/11491","ENDSN_ID":"https://databrussels.be/id/streetnode/16457","STRNAMEFRE":"Chaussée de Vilvorde","STRNAMEDUT":"Vilvoordsesteenweg","SLOPE":null,"LENGTH":16.2493783199959},"bbox":[150629.26604307,174865.86305854,150639.71565715,174878.30544977]},{"type":"Feature","id":"StreetAxes.fid--1290087_1a03126d94f_6c04","geometry":{"type":"LineString","coordinates":[[150562.72691541,174809.77383783],[150546.23498824,174803.48525953],[150537.54161183,174798.94899207],[150525.48211323,174790.869954],[150520.24267088,174788.20699686],[150514.24219221,174786.56728996],[150512.54237666,174786.31806174],[150505.66050328,174785.30903634]]},"geometry_name":"GEOM","properties":{"INSPIRE_ID":"https://databrussels.be/id/streetaxe/97835","TYPE":"S","HIERARCHY":"IDR","LVL":0,"STARTSN_ID":"https://databrussels.be/id/streetnode/16454","ENDSN_ID":"https://databrussels.be/id/streetnode/11496","STRNAMEFRE":"Chaussée de Vilvorde","STRNAMEDUT":"Vilvoordsesteenweg","SLOPE":null,"LENGTH":62.7427982562776},"bbox":[150505.66050328,174785.30903634,150562.72691541,174809.77383783]}],"numberReturned":31,"grand_bruxelles_source":{"authority":"Paradigm / Brussels-Capital Region","service":"https://geoservices-urbis.irisnet.be/geoserver/urbisvector/wfs","layer":"urbisvector:StreetAxes","crs":"EPSG:31370","bbox":[150500.0,174500.0,151000.0,175000.0],"cell_id":"bxl-e150500-n174500-s500","ownership":"bbox_intersection_source_unclipped"}}
