{"type":"FeatureCollection","totalFeatures":16,"numberMatched":16,"timeStamp":"2026-08-23T03:17:15.568Z","crs":{"type":"name","properties":{"name":"urn:ogc:def:crs:EPSG::31370"}},"bbox":[147911.105,176090.40661581,148869.91241014,176897.69058162],"features":[{"type":"Feature","id":"StreetAxes.fid-6b1d3889_1a02c238f6c_-fe5","geometry":{"type":"LineString","coordinates":[[148078.21919607,176578.3804819],[148057.24265094,176555.51381709],[148054.85729696,176553.45867223],[148051.763157,176550.91554815],[148046.89403051,176547.30679981],[148041.75002284,176543.12723068],[148036.60601517,176538.56066441],[148029.7795689,176532.10748707],[148024.02640242,176526.21545559],[148019.50674799,176521.12920745],[148014.43042463,176514.83082897],[148010.03094439,176508.05837899],[148003.32596728,176497.16743287],[147999.5651566,176490.19672401]]},"geometry_name":"GEOM","properties":{"INSPIRE_ID":"https://databrussels.be/id/streetaxe/85123","TYPE":"S","HIERARCHY":"DR","LVL":0,"STARTSN_ID":"https://databrussels.be/id/streetnode/1059","ENDSN_ID":"https://databrussels.be/id/streetnode/12045","STRNAMEFRE":"Avenue de Miramar","STRNAMEDUT":"Miramarlaan","SLOPE":1.67,"LENGTH":119.059823241369},"bbox":[147999.5651566,176490.19672401,148078.21919607,176578.3804819]},{"type":"Feature","id":"StreetAxes.fid-6b1d3889_1a02c238f6c_-fd6","geometry":{"type":"LineString","coordinates":[[148583.04275861,176574.05298642],[148583.21397382,176576.16711929],[148581.05953383,176581.20114506],[148573.50100753,176593.51119763],[148569.32685884,176601.6696267],[148563.25808838,176615.60013334],[148560.7739929,176622.70200757],[148554.89391254,176645.47756339],[148547.115835,176677.25504916],[148537.54184601,176715.32213842],[148536.27428302,176721.29804235],[148535.71019845,176725.52836023],[148535.34098107,176728.81421121],[148535.05695861,176732.83718726],[148535.04252077,176739.45825267],[148535.11679475,176743.86177275],[148535.35983472,176749.83235622],[148535.60216896,176756.06108504],[148535.64056518,176762.22101677],[148535.34212248,176764.36619094],[148533.44362145,176770.84831242],[148530.26910289,176775.17258876],[148526.04223335,176778.53675326],[148520.78614185,176780.76623054],[148515.68886142,176781.39197626],[148510.25334352,176780.66994334],[148505.7003893,176778.82238167],[148502.22106738,176776.33152531],[148499.22087322,176772.99990314],[148496.60139345,176768.32872212],[148495.57239623,176763.0971848],[148495.73169725,176758.56145024],[148496.73451995,176754.16858825],[148498.75356543,176750.75520994],[148500.43399091,176748.55011122],[148504.65985784,176744.12144472],[148514.57628997,176735.0228358],[148519.54712205,176730.36288744],[148524.8649244,176724.71435044],[148527.05792474,176721.47932036],[148528.80006067,176718.78224424],[148531.11982955,176714.01430608],[148533.47272419,176708.26551109],[148545.00134044,176660.97131953],[148556.37163345,176615.84589538],[148557.2801528,176613.06034517],[148558.23735661,176610.65840007],[148561.6625341,176603.75911982],[148564.55729687,176599.27375504]]},"geometry_name":"GEOM","properties":{"INSPIRE_ID":"https://databrussels.be/id/streetaxe/92599","TYPE":"C","HIERARCHY":"IDR","LVL":0,"STARTSN_ID":"https://databrussels.be/id/streetnode/8683","ENDSN_ID":"https://databrussels.be/id/streetnode/10961","STRNAMEFRE":"Avenue de Meysse","STRNAMEDUT":"Meiseselaan","SLOPE":0.06,"LENGTH":439.242590336824},"bbox":[148495.57239623,176574.05298642,148583.21397382,176781.39197626]},{"type":"Feature","id":"StreetAxes.fid-6b1d3889_1a02c238f6c_-fd8","geometry":{"type":"LineString","coordinates":[[148427.52463616,176818.79261972],[148456.2541689,176693.68068933],[148468.23813026,176641.40244475],[148472.90781523,176621.05481579],[148475.25193011,176610.87262937],[148477.88794139,176599.21473439],[148480.52045041,176587.61496136],[148483.31754486,176576.11226989],[148485.83661186,176566.55308916],[148488.48458814,176557.00628112],[148491.25522615,176547.48637288],[148493.1728717,176541.12927373],[148495.1432553,176534.78973555],[148497.17851777,176528.4809171],[148500.00599034,176520.04114453],[148502.9440757,176511.6639917],[148506.03705084,176503.37596206],[148509.33847121,176495.11649459],[148512.8122286,176486.89968428],[148516.42037004,176478.7214285],[148519.94855215,176470.9994443],[148523.58669553,176463.33628943],[148527.3420316,176455.74657836],[148531.42037191,176447.88141954],[148535.64409324,176440.06694074],[148539.96863401,176432.28554713],[148544.82969174,176423.74815932],[148549.79573003,176415.28496685],[148554.88110682,176406.90053861],[148560.44008758,176398.03353791],[148566.13174633,176389.25823674],[148571.96617889,176380.59663765],[148577.40847809,176372.85894023],[148582.99766453,176365.17331232],[148588.65383136,176357.50427118],[148595.4395658,176348.42607235],[148602.30628526,176339.39081017],[148609.20934523,176330.34079852],[148615.34989103,176322.23211623],[148621.47640899,176314.16671326],[148627.66548477,176306.20564495],[148634.11623919,176298.17618721],[148640.6756956,176290.19898086],[148647.30098347,176282.24983168],[148654.39535501,176273.81355119],[148661.5386431,176265.43989743],[148668.75696875,176257.14975978],[148676.19044524,176248.80847644],[148683.7156433,176240.53702708],[148691.31646945,176232.33000618],[148699.060756,176224.11389549],[148706.87968664,176215.96643835],[148714.75435371,176207.89592361],[148726.91366841,176195.78638098],[148739.25527198,176183.79802187],[148767.99680954,176156.44248235],[148790.74611643,176136.07207067],[148808.9231542,176120.42870483],[148846.9777554,176090.40661581]]},"geometry_name":"GEOM","properties":{"INSPIRE_ID":"https://databrussels.be/id/streetaxe/93479","TYPE":"S","HIERARCHY":"H","LVL":0,"STARTSN_ID":"https://databrussels.be/id/streetnode/8842","ENDSN_ID":"https://databrussels.be/id/streetnode/8845","STRNAMEFRE":"Autoroute A12","STRNAMEDUT":"Autosnelweg A12","SLOPE":0.8,"LENGTH":866.276473812544},"bbox":[148427.52463616,176090.40661581,148846.9777554,176818.79261972]},{"type":"Feature","id":"StreetAxes.fid-6b1d3889_1a02c238f6c_-fdb","geometry":{"type":"LineString","coordinates":[[148365.12716021,176861.55969534],[148354.2822265,176865.49210914],[148343.52177249,176869.07166783],[148334.88465395,176872.09923602]]},"geometry_name":"GEOM","properties":{"INSPIRE_ID":"https://databrussels.be/id/streetaxe/93502","TYPE":"S","HIERARCHY":"IDR","LVL":0,"STARTSN_ID":"https://databrussels.be/id/streetnode/13067","ENDSN_ID":"https://databrussels.be/id/streetnode/11974","STRNAMEFRE":"Chaussée Romaine","STRNAMEDUT":"Romeinsesteenweg","SLOPE":4.6,"LENGTH":32.0284742204941},"bbox":[148334.88465395,176861.55969534,148365.12716021,176872.09923602]},{"type":"Feature","id":"StreetAxes.fid-6b1d3889_1a02c238f6c_-fd7","geometry":{"type":"LineString","coordinates":[[148471.85610907,176801.34204116],[148478.27564563,176774.14605454],[148484.64366861,176747.23413538],[148494.39331817,176713.16422774],[148498.15365188,176701.50168644],[148506.14999285,176676.89091432],[148514.91103007,176652.0975842],[148527.68512711,176619.10021951],[148537.25408993,176595.77313417],[148555.68059241,176554.44003896],[148572.44871218,176520.26905237],[148592.63943565,176481.7422686],[148614.02892021,176443.57645539],[148641.29293453,176400.21346639],[148665.8939423,176364.13527661],[148698.53818013,176319.46081054],[148775.91812937,176226.28911239],[148809.01987079,176188.20454989],[148832.33408318,176165.94539883],[148854.17458024,176148.86698688],[148869.91241014,176137.17980813]]},"geometry_name":"GEOM","properties":{"INSPIRE_ID":"https://databrussels.be/id/streetaxe/93548","TYPE":"S","HIERARCHY":"H","LVL":0,"STARTSN_ID":"https://databrussels.be/id/streetnode/8308","ENDSN_ID":"https://databrussels.be/id/streetnode/8303","STRNAMEFRE":"Autoroute A12","STRNAMEDUT":"Autosnelweg A12","SLOPE":1.01,"LENGTH":787.980341680528},"bbox":[148471.85610907,176137.17980813,148869.91241014,176801.34204116]},{"type":"Feature","id":"StreetAxes.fid-6b1d3889_1a02c238f6c_-fe1","geometry":{"type":"LineString","coordinates":[[148466.37301291,176825.05922212],[148471.85610907,176801.34204116]]},"geometry_name":"GEOM","properties":{"INSPIRE_ID":"https://databrussels.be/id/streetaxe/96928","TYPE":"S","HIERARCHY":"H","LVL":1,"STARTSN_ID":"https://databrussels.be/id/streetnode/8940","ENDSN_ID":"https://databrussels.be/id/streetnode/8308","STRNAMEFRE":"Autoroute A12","STRNAMEDUT":"Autosnelweg A12","SLOPE":4.18,"LENGTH":24.34274052596},"bbox":[148466.37301291,176801.34204116,148471.85610907,176825.05922212]},{"type":"Feature","id":"StreetAxes.fid-6b1d3889_1a02c238f6c_-fdf","geometry":{"type":"LineString","coordinates":[[148422.07250703,176842.60395072],[148427.52463616,176818.79261972]]},"geometry_name":"GEOM","properties":{"INSPIRE_ID":"https://databrussels.be/id/streetaxe/96929","TYPE":"S","HIERARCHY":"H","LVL":1,"STARTSN_ID":"https://databrussels.be/id/streetnode/8939","ENDSN_ID":"https://databrussels.be/id/streetnode/8842","STRNAMEFRE":"Autoroute A12","STRNAMEDUT":"Autosnelweg A12","SLOPE":1.61,"LENGTH":24.4275499397631},"bbox":[148422.07250703,176818.79261972,148427.52463616,176842.60395072]},{"type":"Feature","id":"StreetAxes.fid-6b1d3889_1a02c238f6c_-fe2","geometry":{"type":"LineString","coordinates":[[148376.63488719,176759.87067876],[148373.32457326,176767.56709287],[148368.12851501,176778.05823984],[148361.18392062,176792.70670423],[148355.84520507,176802.17765138],[148345.99699864,176819.53750071],[148342.26877652,176829.44160602],[148339.50235344,176839.56193816]]},"geometry_name":"GEOM","properties":{"INSPIRE_ID":"https://databrussels.be/id/streetaxe/96932","TYPE":"S","HIERARCHY":"IDR","LVL":0,"STARTSN_ID":"https://databrussels.be/id/streetnode/11980","ENDSN_ID":"https://databrussels.be/id/streetnode/13497","STRNAMEFRE":"Avenue de Madrid","STRNAMEDUT":"Madridlaan","SLOPE":2.27,"LENGTH":88.2017465943483},"bbox":[148339.50235344,176759.87067876,148376.63488719,176839.56193816]},{"type":"Feature","id":"StreetAxes.fid-6b1d3889_1a02c238f6c_-fdc","geometry":{"type":"LineString","coordinates":[[148365.12716021,176861.55969534],[148354.98801413,176857.85230989],[148351.46553727,176855.70423187],[148349.57612911,176854.26964086],[148347.7812188,176852.67067968],[148346.43938503,176851.2940245],[148345.41191845,176850.13006689],[148339.50235344,176839.56193816]]},"geometry_name":"GEOM","properties":{"INSPIRE_ID":"https://databrussels.be/id/streetaxe/96937","TYPE":"S","HIERARCHY":"IDR","LVL":0,"STARTSN_ID":"https://databrussels.be/id/streetnode/13067","ENDSN_ID":"https://databrussels.be/id/streetnode/13497","STRNAMEFRE":"Avenue de Madrid","STRNAMEDUT":"Madridlaan","SLOPE":5.86,"LENGTH":35.2808093525266},"bbox":[148339.50235344,176839.56193816,148365.12716021,176861.55969534]},{"type":"Feature","id":"StreetAxes.fid-6b1d3889_1a02c238f6c_-fe3","geometry":{"type":"LineString","coordinates":[[148376.63488719,176759.87067876],[148369.38870638,176756.62927232],[148364.45173995,176754.42083795],[148356.66407046,176750.23115261],[148296.61937884,176715.41394451],[148249.98347656,176687.59811521],[148176.83891839,176643.63738487],[148100.91894007,176598.16269008],[148094.79789811,176594.17959092],[148092.84240274,176592.78616936],[148087.29681921,176588.52292638],[148081.11085215,176583.25946176],[148078.21919607,176578.3804819]]},"geometry_name":"GEOM","properties":{"INSPIRE_ID":"https://databrussels.be/id/streetaxe/96942","TYPE":"S","HIERARCHY":"DR","LVL":0,"STARTSN_ID":"https://databrussels.be/id/streetnode/11980","ENDSN_ID":"https://databrussels.be/id/streetnode/1059","STRNAMEFRE":"Esplanade","STRNAMEDUT":"Esplanade","SLOPE":1.16,"LENGTH":350.228569082628},"bbox":[148078.21919607,176578.3804819,148376.63488719,176759.87067876]},{"type":"Feature","id":"StreetAxes.fid-6b1d3889_1a02c238f6c_-fde","geometry":{"type":"LineString","coordinates":[[148365.12716021,176861.55969534],[148434.58379472,176833.28110616],[148473.51266289,176819.14551612]]},"geometry_name":"GEOM","properties":{"INSPIRE_ID":"https://databrussels.be/id/streetaxe/96947","TYPE":"S","HIERARCHY":"IDR","LVL":0,"STARTSN_ID":"https://databrussels.be/id/streetnode/13067","ENDSN_ID":"https://databrussels.be/id/streetnode/13074","STRNAMEFRE":"Autoroute A12","STRNAMEDUT":"Autosnelweg A12","SLOPE":1.98,"LENGTH":116.408522749976},"bbox":[148365.12716021,176819.14551612,148473.51266289,176861.55969534]},{"type":"Feature","id":"StreetAxes.fid-6b1d3889_1a02c238f6c_-fe0","geometry":{"type":"LineString","coordinates":[[148473.51266289,176819.14551612],[148494.22279742,176811.30601842],[148505.64564132,176807.6636277]]},"geometry_name":"GEOM","properties":{"INSPIRE_ID":"https://databrussels.be/id/streetaxe/96954","TYPE":"I","HIERARCHY":"IDR","LVL":0,"STARTSN_ID":"https://databrussels.be/id/streetnode/13074","ENDSN_ID":"https://databrussels.be/id/streetnode/13080","STRNAMEFRE":"Chaussée Romaine","STRNAMEDUT":"Romeinsesteenweg","SLOPE":3.35,"LENGTH":34.1337516615588},"bbox":[148473.51266289,176807.6636277,148505.64564132,176819.14551612]},{"type":"Feature","id":"StreetAxes.fid-6b1d3889_1a02c238f6c_-fe4","geometry":{"type":"LineString","coordinates":[[148469.56800397,176497.64227852],[148462.62831392,176514.52662808],[148452.29596351,176539.66536123],[148441.35754904,176566.45334883],[148430.762,176597.443],[148409.76206613,176667.11907621],[148399.24791115,176701.30677592],[148389.52294563,176728.50386264],[148379.9093826,176751.95971269],[148376.63488719,176759.87067876]]},"geometry_name":"GEOM","properties":{"INSPIRE_ID":"https://databrussels.be/id/streetaxe/96956","TYPE":"S","HIERARCHY":"IDR","LVL":0,"STARTSN_ID":"https://databrussels.be/id/streetnode/14351","ENDSN_ID":"https://databrussels.be/id/streetnode/11980","STRNAMEFRE":"Avenue de Madrid","STRNAMEDUT":"Madridlaan","SLOPE":0.14,"LENGTH":278.455043993275},"bbox":[148376.63488719,176497.64227852,148469.56800397,176759.87067876]},{"type":"Feature","id":"StreetAxes.fid-6b1d3889_1a02c238f6c_-fdd","geometry":{"type":"LineString","coordinates":[[148339.50235344,176839.56193816],[148337.5982348,176845.79648265],[148334.40154357,176865.61820578],[148334.88465395,176872.09923602]]},"geometry_name":"GEOM","properties":{"INSPIRE_ID":"https://databrussels.be/id/streetaxe/96960","TYPE":"S","HIERARCHY":"IDR","LVL":0,"STARTSN_ID":"https://databrussels.be/id/streetnode/13497","ENDSN_ID":"https://databrussels.be/id/streetnode/11974","STRNAMEFRE":"Avenue de Madrid","STRNAMEDUT":"Madridlaan","SLOPE":1.77,"LENGTH":33.0956836902746},"bbox":[148334.40154357,176839.56193816,148339.50235344,176872.09923602]},{"type":"Feature","id":"StreetAxes.fid-6b1d3889_1a02c238f6c_-fd9","geometry":{"type":"LineString","coordinates":[[148334.88465395,176872.09923602],[148315.19880124,176878.99971574],[148284.01262055,176888.73452288],[148267.56864179,176891.03183961],[148250.47837919,176893.05357188],[148231.75667175,176894.81694729],[148199.81765873,176896.73012368],[148171.02925066,176897.69058162],[148150.56631028,176897.64416328]]},"geometry_name":"GEOM","properties":{"INSPIRE_ID":"https://databrussels.be/id/streetaxe/96961","TYPE":"S","HIERARCHY":"IDR","LVL":0,"STARTSN_ID":"https://databrussels.be/id/streetnode/11974","ENDSN_ID":"https://databrussels.be/id/streetnode/11952","STRNAMEFRE":"Chaussée Romaine","STRNAMEDUT":"Romeinsesteenweg","SLOPE":1.75,"LENGTH":187.411828571416},"bbox":[148150.56631028,176872.09923602,148334.88465395,176897.69058162]},{"type":"Feature","id":"StreetAxes.fid-6b1d3889_1a02c238f6c_-fda","geometry":{"type":"LineString","coordinates":[[148150.56631028,176897.64416328],[148128.23232693,176897.05007969],[148097.57121154,176895.08376121],[148070.42716999,176892.04257128],[148048.13694416,176888.91465742],[148028.6800611,176885.91548063],[147978.96419618,176876.46480286],[147923.177,176866.685],[147911.105,176864.398]]},"geometry_name":"GEOM","properties":{"INSPIRE_ID":"https://databrussels.be/id/streetaxe/96963","TYPE":"S","HIERARCHY":"IDR","LVL":0,"STARTSN_ID":"https://databrussels.be/id/streetnode/11952","ENDSN_ID":"https://databrussels.be/id/streetnode/11951","STRNAMEFRE":"Chaussée Romaine","STRNAMEDUT":"Romeinsesteenweg","SLOPE":1.46,"LENGTH":242.105971198938},"bbox":[147911.105,176864.398,148150.56631028,176897.64416328]}],"numberReturned":16,"grand_bruxelles_source":{"authority":"Paradigm / Brussels-Capital Region","service":"https://geoservices-urbis.irisnet.be/geoserver/urbisvector/wfs","layer":"urbisvector:StreetAxes","crs":"EPSG:31370","bbox":[148000.0,176500.0,148500.0,177000.0],"cell_id":"bxl-e148000-n176500-s500","ownership":"bbox_intersection_source_unclipped"}}
