{"type":"FeatureCollection","totalFeatures":40,"numberMatched":40,"timeStamp":"2026-08-23T01:02:14.646Z","crs":{"type":"name","properties":{"name":"urn:ogc:def:crs:EPSG::31370"}},"bbox":[144834.352,171318.23578859,145637.46600935,172003.57963951],"features":[{"type":"Feature","id":"StreetAxes.fid-6d0a8ac7_1a02c00b059_5fa","geometry":{"type":"LineString","coordinates":[[145295.934,171721.642],[145300.317,171712.872],[145310.33,171691.09],[145319.352,171670.492],[145325.1504201,171657.0521467]]},"geometry_name":"GEOM","properties":{"INSPIRE_ID":"https://databrussels.be/id/streetaxe/70154","TYPE":"S","HIERARCHY":"DR","LVL":0,"STARTSN_ID":"https://databrussels.be/id/streetnode/659","ENDSN_ID":"https://databrussels.be/id/streetnode/3234","STRNAMEFRE":"Avenue des Amandiers","STRNAMEDUT":"Amandelbomenlaan","SLOPE":0.55,"LENGTH":70.9020174866846},"bbox":[145295.934,171657.0521467,145325.1504201,171721.642]},{"type":"Feature","id":"StreetAxes.fid-6d0a8ac7_1a02c00b059_60d","geometry":{"type":"LineString","coordinates":[[145219.009,171867.952],[145216.268,171868.11],[145212.94,171867.198],[145209.587,171865.268],[145039.114,171765.255],[145031.363,171759.751]]},"geometry_name":"GEOM","properties":{"INSPIRE_ID":"https://databrussels.be/id/streetaxe/73584","TYPE":"S","HIERARCHY":"DR","LVL":0,"STARTSN_ID":"https://databrussels.be/id/streetnode/15166","ENDSN_ID":"https://databrussels.be/id/streetnode/8808","STRNAMEFRE":"Rue du Bon Pasteur","STRNAMEDUT":"Goede Herderstraat","SLOPE":2.68,"LENGTH":217.21670355346},"bbox":[145031.363,171759.751,145219.009,171868.11]},{"type":"Feature","id":"StreetAxes.fid-6d0a8ac7_1a02c00b059_5f8","geometry":{"type":"LineString","coordinates":[[145325.45086791,171804.78959056],[145269.67965188,171787.69092305],[145261.67197509,171783.67216259]]},"geometry_name":"GEOM","properties":{"INSPIRE_ID":"https://databrussels.be/id/streetaxe/73763","TYPE":"S","HIERARCHY":"DR","LVL":0,"STARTSN_ID":"https://databrussels.be/id/streetnode/8812","ENDSN_ID":"https://databrussels.be/id/streetnode/8650","STRNAMEFRE":"Rue du Korenbeek","STRNAMEDUT":"Korenbeekstraat","SLOPE":4.01,"LENGTH":67.2930016446084},"bbox":[145261.67197509,171783.67216259,145325.45086791,171804.78959056]},{"type":"Feature","id":"StreetAxes.fid-6d0a8ac7_1a02c00b059_5f9","geometry":{"type":"LineString","coordinates":[[145261.67197509,171783.67216259],[145266.79,171774.24],[145279.067,171753.16],[145291.552,171730.412],[145295.934,171721.642]]},"geometry_name":"GEOM","properties":{"INSPIRE_ID":"https://databrussels.be/id/streetaxe/73764","TYPE":"S","HIERARCHY":"DR","LVL":0,"STARTSN_ID":"https://databrussels.be/id/streetnode/8650","ENDSN_ID":"https://databrussels.be/id/streetnode/659","STRNAMEFRE":"Avenue des Amandiers","STRNAMEDUT":"Amandelbomenlaan","SLOPE":3.68,"LENGTH":70.8784886174595},"bbox":[145261.67197509,171721.642,145295.934,171783.67216259]},{"type":"Feature","id":"StreetAxes.fid-6d0a8ac7_1a02c00b059_60a","geometry":{"type":"LineString","coordinates":[[145082.50790265,171682.65503703],[145071.89539506,171677.56371827],[145008.52,171671.053],[144845.06,171656.818],[144834.352,171655.684]]},"geometry_name":"GEOM","properties":{"INSPIRE_ID":"https://databrussels.be/id/streetaxe/74710","TYPE":"S","HIERARCHY":"DR","LVL":0,"STARTSN_ID":"https://databrussels.be/id/streetnode/7784","ENDSN_ID":"https://databrussels.be/id/streetnode/8807","STRNAMEFRE":"Rue Ferdinand Elbers","STRNAMEDUT":"Ferdinand Elbersstraat","SLOPE":3.79,"LENGTH":250.326080657525},"bbox":[144834.352,171655.684,145082.50790265,171682.65503703]},{"type":"Feature","id":"StreetAxes.fid-6d0a8ac7_1a02c00b059_61a","geometry":{"type":"LineString","coordinates":[[145325.1504201,171657.0521467],[145315.5378402,171652.5142934],[145295.723,171641.799],[145269.9593223,171625.06583452],[145254.22745581,171612.61835221],[145232.09622077,171591.3874815],[145223.775,171582.1],[145212.915,171577.04]]},"geometry_name":"GEOM","properties":{"INSPIRE_ID":"https://databrussels.be/id/streetaxe/75417","TYPE":"S","HIERARCHY":"DR","LVL":0,"STARTSN_ID":"https://databrussels.be/id/streetnode/3234","ENDSN_ID":"https://databrussels.be/id/streetnode/8806","STRNAMEFRE":"Avenue Carl Requette","STRNAMEDUT":"Carl Requettelaan","SLOPE":1.54,"LENGTH":139.057035119185},"bbox":[145212.915,171577.04,145325.1504201,171657.0521467]},{"type":"Feature","id":"StreetAxes.fid-6d0a8ac7_1a02c00b059_60b","geometry":{"type":"LineString","coordinates":[[144989.516,171815.346],[144996.297,171806.424],[145010.106,171788.06],[145024.894,171768.372],[145031.363,171759.75]]},"geometry_name":"GEOM","properties":{"INSPIRE_ID":"https://databrussels.be/id/streetaxe/75418","TYPE":"S","HIERARCHY":"DR","LVL":0,"STARTSN_ID":"https://databrussels.be/id/streetnode/675","ENDSN_ID":"https://databrussels.be/id/streetnode/8808","STRNAMEFRE":"Rue du Hoogbosch","STRNAMEDUT":"Hoogboschstraat","SLOPE":0.62,"LENGTH":69.5852532605352},"bbox":[144989.516,171759.75,145031.363,171815.346]},{"type":"Feature","id":"StreetAxes.fid-6d0a8ac7_1a02c00b059_5f6","geometry":{"type":"LineString","coordinates":[[145388.79300969,172003.18386741],[145377.9535765,171992.62630596],[145371.256,171989.992],[145246.1,171970.677],[145237.306,171969.32]]},"geometry_name":"GEOM","properties":{"INSPIRE_ID":"https://databrussels.be/id/streetaxe/76600","TYPE":"S","HIERARCHY":"DR","LVL":0,"STARTSN_ID":"https://databrussels.be/id/streetnode/8599","ENDSN_ID":"https://databrussels.be/id/streetnode/8574","STRNAMEFRE":"Rue du Grand-Pré","STRNAMEDUT":"Weilandstraat","SLOPE":1.77,"LENGTH":157.864022823183},"bbox":[145237.306,171969.32,145388.79300969,172003.18386741]},{"type":"Feature","id":"StreetAxes.fid-6d0a8ac7_1a02c00b059_5fe","geometry":{"type":"LineString","coordinates":[[145388.79300969,172003.18386741],[145392.90791603,172000.46056342],[145397.62324952,171998.52998585],[145402.31167032,171997.61195463],[145410.69263339,171997.95207451],[145428.30901096,172000.25021133],[145447.23490601,172003.57963951],[145459.82679314,172002.6795131]]},"geometry_name":"GEOM","properties":{"INSPIRE_ID":"https://databrussels.be/id/streetaxe/77394","TYPE":"S","HIERARCHY":"DR","LVL":0,"STARTSN_ID":"https://databrussels.be/id/streetnode/8599","ENDSN_ID":"https://databrussels.be/id/streetnode/8652","STRNAMEFRE":"Rue de Grand-Bigard","STRNAMEDUT":"Groot-Bijgaardenstraat","SLOPE":1.57,"LENGTH":72.8011971517199},"bbox":[145388.79300969,171997.61195463,145459.82679314,172003.57963951]},{"type":"Feature","id":"StreetAxes.fid-6d0a8ac7_1a02c00b059_5f7","geometry":{"type":"LineString","coordinates":[[145295.934,171721.642],[145287.35,171717.28],[145262.13,171702.775],[145241.325,171690.545]]},"geometry_name":"GEOM","properties":{"INSPIRE_ID":"https://databrussels.be/id/streetaxe/78153","TYPE":"S","HIERARCHY":"DR","LVL":0,"STARTSN_ID":"https://databrussels.be/id/streetnode/659","ENDSN_ID":"https://databrussels.be/id/streetnode/2813","STRNAMEFRE":"Clos des Rosacées","STRNAMEDUT":"Rozengaarde","SLOPE":2.2,"LENGTH":62.8558115879229},"bbox":[145241.325,171690.545,145295.934,171721.642]},{"type":"Feature","id":"StreetAxes.fid-6d0a8ac7_1a02c00b059_60c","geometry":{"type":"LineString","coordinates":[[145031.363,171759.75],[145037.832,171751.128],[145078.156524,171699.025288],[145082.97718787,171690.8153023]]},"geometry_name":"GEOM","properties":{"INSPIRE_ID":"https://databrussels.be/id/streetaxe/78785","TYPE":"S","HIERARCHY":"DR","LVL":0,"STARTSN_ID":"https://databrussels.be/id/streetnode/8808","ENDSN_ID":"https://databrussels.be/id/streetnode/8120","STRNAMEFRE":"Rue du Hoogbosch","STRNAMEDUT":"Hoogboschstraat","SLOPE":0.96,"LENGTH":86.1840873817862},"bbox":[145031.363,171690.8153023,145082.97718787,171759.75]},{"type":"Feature","id":"StreetAxes.fid-6d0a8ac7_1a02c00b059_615","geometry":{"type":"LineString","coordinates":[[145114.28979088,171683.411449],[145119.33410845,171680.90214504],[145124.37199314,171675.32426514],[145128.59764274,171666.45683267]]},"geometry_name":"GEOM","properties":{"INSPIRE_ID":"https://databrussels.be/id/streetaxe/79445","TYPE":"S","HIERARCHY":"DR","LVL":0,"STARTSN_ID":"https://databrussels.be/id/streetnode/8355","ENDSN_ID":"https://databrussels.be/id/streetnode/8364","STRNAMEFRE":"Rue de la Cité Joyeuse","STRNAMEDUT":"Kindvriendelijk Huisstraat","SLOPE":0.39,"LENGTH":22.9729693946559},"bbox":[145114.28979088,171666.45683267,145128.59764274,171683.411449]},{"type":"Feature","id":"StreetAxes.fid-6d0a8ac7_1a02c00b059_5fd","geometry":{"type":"LineString","coordinates":[[145408.47351363,171834.00865033],[145400.09038215,171829.21002516],[145386.183,171823.55],[145325.45086791,171804.78959056]]},"geometry_name":"GEOM","properties":{"INSPIRE_ID":"https://databrussels.be/id/streetaxe/79452","TYPE":"S","HIERARCHY":"DR","LVL":0,"STARTSN_ID":"https://databrussels.be/id/streetnode/8360","ENDSN_ID":"https://databrussels.be/id/streetnode/8812","STRNAMEFRE":"Rue du Korenbeek","STRNAMEDUT":"Korenbeekstraat","SLOPE":3.29,"LENGTH":88.2381219844684},"bbox":[145325.45086791,171804.78959056,145408.47351363,171834.00865033]},{"type":"Feature","id":"StreetAxes.fid-6d0a8ac7_1a02c00b059_613","geometry":{"type":"LineString","coordinates":[[145261.67197509,171783.67216259],[145251.382,171778.508],[145118.70229549,171697.22639412],[145112.41036563,171691.39366563]]},"geometry_name":"GEOM","properties":{"INSPIRE_ID":"https://databrussels.be/id/streetaxe/79811","TYPE":"S","HIERARCHY":"DR","LVL":0,"STARTSN_ID":"https://databrussels.be/id/streetnode/8650","ENDSN_ID":"https://databrussels.be/id/streetnode/7793","STRNAMEFRE":"Rue du Korenbeek","STRNAMEDUT":"Korenbeekstraat","SLOPE":3.61,"LENGTH":175.690273657732},"bbox":[145112.41036563,171691.39366563,145261.67197509,171783.67216259]},{"type":"Feature","id":"StreetAxes.fid-6d0a8ac7_1a02c00b059_605","geometry":{"type":"LineString","coordinates":[[145535.58667798,171726.01759636],[145434.511,171697.468],[145417.9,171692.218]]},"geometry_name":"GEOM","properties":{"INSPIRE_ID":"https://databrussels.be/id/streetaxe/80424","TYPE":"S","HIERARCHY":"DR","LVL":0,"STARTSN_ID":"https://databrussels.be/id/streetnode/9135","ENDSN_ID":"https://databrussels.be/id/streetnode/10177","STRNAMEFRE":"Avenue Carl Requette","STRNAMEDUT":"Carl Requettelaan","SLOPE":1.93,"LENGTH":122.45124093797},"bbox":[145417.9,171692.218,145535.58667798,171726.01759636]},{"type":"Feature","id":"StreetAxes.fid-6d0a8ac7_1a02c00b059_60f","geometry":{"type":"LineString","coordinates":[[145109.51439429,171677.49449719],[145105.78543367,171677.81613923],[145086.90844685,171678.87256608],[145084.16787246,171680.1267078],[145082.50790265,171682.65503703]]},"geometry_name":"GEOM","properties":{"INSPIRE_ID":"https://databrussels.be/id/streetaxe/80934","TYPE":"S","HIERARCHY":"DR","LVL":0,"STARTSN_ID":"https://databrussels.be/id/streetnode/8111","ENDSN_ID":"https://databrussels.be/id/streetnode/7784","STRNAMEFRE":"Rue Ferdinand Elbers","STRNAMEDUT":"Ferdinand Elbersstraat","SLOPE":3.35,"LENGTH":28.6877929872656},"bbox":[145082.50790265,171677.49449719,145109.51439429,171682.65503703]},{"type":"Feature","id":"StreetAxes.fid-6d0a8ac7_1a02c00b059_612","geometry":{"type":"LineString","coordinates":[[145109.51439429,171677.49449719],[145114.04916258,171673.74050519],[145121.30666482,171669.18030028],[145128.59764274,171666.45683267]]},"geometry_name":"GEOM","properties":{"INSPIRE_ID":"https://databrussels.be/id/streetaxe/80935","TYPE":"S","HIERARCHY":"DR","LVL":0,"STARTSN_ID":"https://databrussels.be/id/streetnode/8111","ENDSN_ID":"https://databrussels.be/id/streetnode/8364","STRNAMEFRE":"Rue de la Cité Joyeuse","STRNAMEDUT":"Kindvriendelijk Huisstraat","SLOPE":1.89,"LENGTH":22.241297022142},"bbox":[145109.51439429,171666.45683267,145128.59764274,171677.49449719]},{"type":"Feature","id":"StreetAxes.fid-6d0a8ac7_1a02c00b059_5ff","geometry":{"type":"LineString","coordinates":[[145419.33384647,171818.7141779],[145416.23094971,171821.4632234],[145408.47351363,171834.00865033]]},"geometry_name":"GEOM","properties":{"INSPIRE_ID":"https://databrussels.be/id/streetaxe/80938","TYPE":"S","HIERARCHY":"DR","LVL":0,"STARTSN_ID":"https://databrussels.be/id/streetnode/8116","ENDSN_ID":"https://databrussels.be/id/streetnode/8360","STRNAMEFRE":"Avenue du Thym","STRNAMEDUT":"Tijmlaan","SLOPE":0.53,"LENGTH":18.8956093792438},"bbox":[145408.47351363,171818.7141779,145419.33384647,171834.00865033]},{"type":"Feature","id":"StreetAxes.fid-6d0a8ac7_1a02c00b059_601","geometry":{"type":"LineString","coordinates":[[145419.33384647,171818.7141779],[145419.182,171816.839],[145413.567,171755.438],[145412.094,171726.324],[145413.032,171713.188],[145417.9,171692.218]]},"geometry_name":"GEOM","properties":{"INSPIRE_ID":"https://databrussels.be/id/streetaxe/81234","TYPE":"S","HIERARCHY":"DR","LVL":0,"STARTSN_ID":"https://databrussels.be/id/streetnode/8116","ENDSN_ID":"https://databrussels.be/id/streetnode/10177","STRNAMEFRE":"Avenue du Thym","STRNAMEDUT":"Tijmlaan","SLOPE":5.13,"LENGTH":127.386825433626},"bbox":[145412.094,171692.218,145419.33384647,171818.7141779]},{"type":"Feature","id":"StreetAxes.fid-6d0a8ac7_1a02c00b059_5fc","geometry":{"type":"LineString","coordinates":[[145417.9,171692.218],[145401.681,171687.129],[145358.14,171671.03],[145334.763,171661.59],[145325.1504201,171657.0521467]]},"geometry_name":"GEOM","properties":{"INSPIRE_ID":"https://databrussels.be/id/streetaxe/81236","TYPE":"S","HIERARCHY":"DR","LVL":0,"STARTSN_ID":"https://databrussels.be/id/streetnode/10177","ENDSN_ID":"https://databrussels.be/id/streetnode/3234","STRNAMEFRE":"Avenue Carl Requette","STRNAMEDUT":"Carl Requettelaan","SLOPE":1.97,"LENGTH":99.2615012348123},"bbox":[145325.1504201,171657.0521467,145417.9,171692.218]},{"type":"Feature","id":"StreetAxes.fid-6d0a8ac7_1a02c00b059_610","geometry":{"type":"LineString","coordinates":[[145112.41036563,171691.39366563],[145107.4317359,171692.87422968],[145089.21363896,171693.89378259],[145086.270035,171693.38259761],[145082.97718787,171690.8153023]]},"geometry_name":"GEOM","properties":{"INSPIRE_ID":"https://databrussels.be/id/streetaxe/81797","TYPE":"S","HIERARCHY":"DR","LVL":0,"STARTSN_ID":"https://databrussels.be/id/streetnode/7793","ENDSN_ID":"https://databrussels.be/id/streetnode/8120","STRNAMEFRE":"Rue du Korenbeek","STRNAMEDUT":"Korenbeekstraat","SLOPE":4.38,"LENGTH":30.6037642357271},"bbox":[145082.97718787,171690.8153023,145112.41036563,171693.89378259]},{"type":"Feature","id":"StreetAxes.fid-6d0a8ac7_1a02c00b059_618","geometry":{"type":"LineString","coordinates":[[145637.46600935,171652.13720196],[145626.80568399,171640.74886033],[145562.96543808,171573.90098487],[145528.08213547,171537.37426673],[145518.7684836,171528.57046218],[145507.25835003,171519.33672534],[145496.83129858,171512.23793473],[145486.38692909,171506.09778472],[145475.57098828,171500.63868951],[145463.87990724,171495.89299928],[145451.97776053,171491.70469944],[145405.65638632,171477.80741611],[145393.13433935,171473.83868586],[145381.18831507,171469.44233915],[145369.51787494,171464.35940815],[145358.55989279,171458.95983326],[145347.31475887,171452.56965972],[145337.29283416,171445.99295397],[145326.78344523,171437.90411505],[145317.32367748,171429.33535841],[145308.35465931,171420.25419608],[145299.87273627,171410.71649312],[145292.16165383,171400.54545563],[145284.88536268,171390.05896988],[145277.1738763,171377.08785746],[145257.18711069,171341.84641091],[145248.88012913,171327.3517115],[145243.6557501,171318.23578859]]},"geometry_name":"GEOM","properties":{"INSPIRE_ID":"https://databrussels.be/id/streetaxe/82341","TYPE":"S","HIERARCHY":"MER","LVL":0,"STARTSN_ID":"https://databrussels.be/id/streetnode/9109","ENDSN_ID":"https://databrussels.be/id/streetnode/9353","STRNAMEFRE":"Boulevard Louis Mettewie","STRNAMEDUT":"Louis Mettewielaan","SLOPE":1.17,"LENGTH":532.185754544235},"bbox":[145243.6557501,171318.23578859,145637.46600935,171652.13720196]},{"type":"Feature","id":"StreetAxes.fid-6d0a8ac7_1a02c00b059_61b","geometry":{"type":"LineString","coordinates":[[145128.59764274,171666.45683267],[145131.84005089,171662.79309892],[145143.98285406,171647.43345274],[145199.26800779,171584.00080565],[145212.915,171577.04]]},"geometry_name":"GEOM","properties":{"INSPIRE_ID":"https://databrussels.be/id/streetaxe/82495","TYPE":"S","HIERARCHY":"DR","LVL":0,"STARTSN_ID":"https://databrussels.be/id/streetnode/8364","ENDSN_ID":"https://databrussels.be/id/streetnode/8806","STRNAMEFRE":"Rue de la Cité Joyeuse","STRNAMEDUT":"Kindvriendelijk Huisstraat","SLOPE":1.02,"LENGTH":123.935524702279},"bbox":[145128.59764274,171577.04,145212.915,171666.45683267]},{"type":"Feature","id":"StreetAxes.fid-6d0a8ac7_1a02c00b059_5f4","geometry":{"type":"LineString","coordinates":[[145595.47067233,171939.27417267],[145593.96066834,171946.54442708],[145591.75438131,171951.68023832],[145587.279,171954.78],[145494.33,171994.919],[145469.99,172001.953],[145459.82679314,172002.6795131]]},"geometry_name":"GEOM","properties":{"INSPIRE_ID":"https://databrussels.be/id/streetaxe/82512","TYPE":"S","HIERARCHY":"DR","LVL":0,"STARTSN_ID":"https://databrussels.be/id/streetnode/7787","ENDSN_ID":"https://databrussels.be/id/streetnode/8652","STRNAMEFRE":"Rue des Béguines","STRNAMEDUT":"Begijnenstraat","SLOPE":0.17,"LENGTH":155.229766538362},"bbox":[145459.82679314,171939.27417267,145595.47067233,172002.6795131]},{"type":"Feature","id":"StreetAxes.fid-6d0a8ac7_1a02c00b059_619","geometry":{"type":"LineString","coordinates":[[145633.65290318,171670.31461233],[145570.63021334,171604.25294455],[145559.61985077,171594.24551728],[145549.26463473,171586.4279586],[145538.31536977,171579.14166825],[145526.90367723,171572.60334251],[145515.35110397,171567.09833746],[145503.03797323,171562.00005253],[145490.97091392,171558.17035756],[145416.03211785,171535.59948445],[145402.93665574,171531.18967032],[145391.58815571,171526.5971866],[145379.88193397,171520.94988681],[145368.21369007,171514.45218882],[145357.37920171,171507.6256536],[145346.98374439,171500.14753966],[145336.61602064,171491.34463168],[145327.52289778,171482.47343569],[145318.51909846,171472.63398451],[145310.11811208,171462.27509319],[145302.84263346,171451.74189611],[145295.78213076,171440.3577515],[145231.81916166,171328.71378331]]},"geometry_name":"GEOM","properties":{"INSPIRE_ID":"https://databrussels.be/id/streetaxe/83190","TYPE":"S","HIERARCHY":"MER","LVL":0,"STARTSN_ID":"https://databrussels.be/id/streetnode/10164","ENDSN_ID":"https://databrussels.be/id/streetnode/10166","STRNAMEFRE":"Boulevard Louis Mettewie","STRNAMEDUT":"Louis Mettewielaan","SLOPE":1.08,"LENGTH":548.377553316693},"bbox":[145231.81916166,171328.71378331,145633.65290318,171670.31461233]},{"type":"Feature","id":"StreetAxes.fid-6d0a8ac7_1a02c00b059_617","geometry":{"type":"LineString","coordinates":[[145219.009,171867.952],[145220.644,171867.713],[145223.195,171866.845],[145224.699,171865.967],[145227.951,171859.573],[145256.672,171792.888],[145261.672,171783.673]]},"geometry_name":"GEOM","properties":{"INSPIRE_ID":"https://databrussels.be/id/streetaxe/91743","TYPE":"S","HIERARCHY":"DR","LVL":0,"STARTSN_ID":"https://databrussels.be/id/streetnode/8650","ENDSN_ID":"https://databrussels.be/id/streetnode/15166","STRNAMEFRE":"Rue du Bon Pasteur","STRNAMEDUT":"Goede Herderstraat","SLOPE":0,"LENGTH":96.3531551000667},"bbox":[145219.009,171783.673,145261.672,171867.952]},{"type":"Feature","id":"StreetAxes.fid-6d0a8ac7_1a02c00b059_616","geometry":{"type":"LineString","coordinates":[[145197.872,171938.32],[145206.607,171921.771],[145219.073,171887.807],[145219.009,171867.952]]},"geometry_name":"GEOM","properties":{"INSPIRE_ID":"https://databrussels.be/id/streetaxe/91744","TYPE":"S","HIERARCHY":"DR","LVL":0,"STARTSN_ID":"https://databrussels.be/id/streetnode/15165","ENDSN_ID":"https://databrussels.be/id/streetnode/15166","STRNAMEFRE":"Rue du Bon Pasteur","STRNAMEDUT":"Goede Herderstraat","SLOPE":0,"LENGTH":74.7473985406454},"bbox":[145197.872,171867.952,145219.073,171938.32]},{"type":"Feature","id":"StreetAxes.fid-6d0a8ac7_1a02c00b059_614","geometry":{"type":"LineString","coordinates":[[145112.41036563,171691.39366563],[145114.19803302,171687.90430798],[145114.28979088,171683.411449]]},"geometry_name":"GEOM","properties":{"INSPIRE_ID":"https://databrussels.be/id/streetaxe/92350","TYPE":"I","HIERARCHY":"DR","LVL":0,"STARTSN_ID":"https://databrussels.be/id/streetnode/7793","ENDSN_ID":"https://databrussels.be/id/streetnode/8355","STRNAMEFRE":"Rue du Korenbeek","STRNAMEDUT":"Korenbeekstraat","SLOPE":1.78,"LENGTH":8.41442994283551},"bbox":[145112.41036563,171683.411449,145114.28979088,171691.39366563]},{"type":"Feature","id":"StreetAxes.fid-6d0a8ac7_1a02c00b059_611","geometry":{"type":"LineString","coordinates":[[145114.28979088,171683.411449],[145112.65424436,171679.81727233],[145109.51439429,171677.49449719]]},"geometry_name":"GEOM","properties":{"INSPIRE_ID":"https://databrussels.be/id/streetaxe/92353","TYPE":"I","HIERARCHY":"DR","LVL":0,"STARTSN_ID":"https://databrussels.be/id/streetnode/8355","ENDSN_ID":"https://databrussels.be/id/streetnode/8111","STRNAMEFRE":"Rue du Korenbeek","STRNAMEDUT":"Korenbeekstraat","SLOPE":4.2,"LENGTH":7.85444189848654},"bbox":[145109.51439429,171677.49449719,145114.28979088,171683.411449]},{"type":"Feature","id":"StreetAxes.fid-6d0a8ac7_1a02c00b059_60e","geometry":{"type":"LineString","coordinates":[[145082.97718787,171690.8153023],[145081.88932087,171687.97912633],[145081.78467217,171685.17790718],[145082.50790265,171682.65503703]]},"geometry_name":"GEOM","properties":{"INSPIRE_ID":"https://databrussels.be/id/streetaxe/92354","TYPE":"I","HIERARCHY":"DR","LVL":0,"STARTSN_ID":"https://databrussels.be/id/streetnode/8120","ENDSN_ID":"https://databrussels.be/id/streetnode/7784","STRNAMEFRE":"Rue Ferdinand Elbers","STRNAMEDUT":"Ferdinand Elbersstraat","SLOPE":1.18,"LENGTH":8.46531613252453},"bbox":[145081.78467217,171682.65503703,145082.97718787,171690.8153023]},{"type":"Feature","id":"StreetAxes.fid-6d0a8ac7_1a02c00b059_5fb","geometry":{"type":"LineString","coordinates":[[145301.18,171889.785],[145325.45086791,171804.78959056]]},"geometry_name":"GEOM","properties":{"INSPIRE_ID":"https://databrussels.be/id/streetaxe/94448","TYPE":"S","HIERARCHY":"DR","LVL":0,"STARTSN_ID":"https://databrussels.be/id/streetnode/2704","ENDSN_ID":"https://databrussels.be/id/streetnode/8812","STRNAMEFRE":"Rue du Korenbeek","STRNAMEDUT":"Korenbeekstraat","SLOPE":2.12,"LENGTH":88.392842778666},"bbox":[145301.18,171804.78959056,145325.45086791,171889.785]},{"type":"Feature","id":"StreetAxes.fid-6d0a8ac7_1a02c00b059_602","geometry":{"type":"LineString","coordinates":[[145414.32820265,171838.80340079],[145419.72304735,171838.80340079],[145430.04061587,171849.20045752],[145430.78538571,171855.84441318]]},"geometry_name":"GEOM","properties":{"INSPIRE_ID":"https://databrussels.be/id/streetaxe/96325","TYPE":"I","HIERARCHY":"DR","LVL":0,"STARTSN_ID":"https://databrussels.be/id/streetnode/","ENDSN_ID":"https://databrussels.be/id/streetnode/","STRNAMEFRE":"Rue du Korenbeek","STRNAMEDUT":"Korenbeekstraat","SLOPE":null,"LENGTH":26.7279732319483},"bbox":[145414.32820265,171838.80340079,145430.78538571,171855.84441318]},{"type":"Feature","id":"StreetAxes.fid-6d0a8ac7_1a02c00b059_600","geometry":{"type":"LineString","coordinates":[[145408.47351363,171834.00865033],[145414.32820265,171838.80340079]]},"geometry_name":"GEOM","properties":{"INSPIRE_ID":"https://databrussels.be/id/streetaxe/96355","TYPE":"I","HIERARCHY":"DR","LVL":0,"STARTSN_ID":"https://databrussels.be/id/streetnode/8360","ENDSN_ID":"https://databrussels.be/id/streetnode/7798","STRNAMEFRE":"Rue du Korenbeek","STRNAMEDUT":"Korenbeekstraat","SLOPE":2.53,"LENGTH":7.56749730858127},"bbox":[145408.47351363,171834.00865033,145414.32820265,171838.80340079]},{"type":"Feature","id":"StreetAxes.fid-6d0a8ac7_1a02c00b059_607","geometry":{"type":"LineString","coordinates":[[145459.82679314,172002.6795131],[145461.86476801,171995.14045817],[145458.68658842,171985.21053793],[145446.42871824,171951.39614631],[145442.64023605,171939.04765975],[145439.01296586,171926.69917318],[145435.7081197,171912.33469175],[145432.64509154,171895.14192975],[145429.8238814,171875.93317288],[145430.20717118,171873.84472672],[145431.60214855,171871.80053946],[145435.00076089,171868.14227766],[145439.72113701,171863.54636372]]},"geometry_name":"GEOM","properties":{"INSPIRE_ID":"https://databrussels.be/id/streetaxe/96362","TYPE":"S","HIERARCHY":"DR","LVL":0,"STARTSN_ID":"https://databrussels.be/id/streetnode/8343","ENDSN_ID":"https://databrussels.be/id/streetnode/8351","STRNAMEFRE":"Avenue des Myrtes","STRNAMEDUT":"Mirtenlaan","SLOPE":0.41,"LENGTH":147.787895252486},"bbox":[145429.8238814,171863.54636372,145461.86476801,172002.6795131]},{"type":"Feature","id":"StreetAxes.fid-6d0a8ac7_1a02c00b059_5f5","geometry":{"type":"LineString","coordinates":[[145556.19009477,171743.96011516],[145549.822,171750.775],[145448.42,171854.584],[145439.72113701,171863.54636372]]},"geometry_name":"GEOM","properties":{"INSPIRE_ID":"https://databrussels.be/id/streetaxe/96366","TYPE":"S","HIERARCHY":"DR","LVL":0,"STARTSN_ID":"https://databrussels.be/id/streetnode/9114","ENDSN_ID":"https://databrussels.be/id/streetnode/8351","STRNAMEFRE":"Avenue Edmond Candries","STRNAMEDUT":"Edmond Candrieslaan","SLOPE":3,"LENGTH":166.932960481279},"bbox":[145439.72113701,171743.96011516,145556.19009477,171863.54636372]},{"type":"Feature","id":"StreetAxes.fid-6d0a8ac7_1a02c00b059_606","geometry":{"type":"LineString","coordinates":[[145430.78538571,171855.84441318],[145426.57765903,171862.65845607],[145422.88837522,171869.00135537],[145421.51055305,171872.87327264],[145421.3617962,171876.5781245],[145423.88937019,171896.60626745],[145426.05421715,171909.77837385],[145428.72573043,171922.83018224],[145433.65421182,171940.35557866],[145439.34925597,171958.06894048],[145453.04571336,171997.26699758],[145459.82679314,172002.6795131]]},"geometry_name":"GEOM","properties":{"INSPIRE_ID":"https://databrussels.be/id/streetaxe/96367","TYPE":"S","HIERARCHY":"DR","LVL":0,"STARTSN_ID":"https://databrussels.be/id/streetnode/7789","ENDSN_ID":"https://databrussels.be/id/streetnode/8343","STRNAMEFRE":"Avenue des Myrtes","STRNAMEDUT":"Mirtenlaan","SLOPE":1.56,"LENGTH":157.032056551564},"bbox":[145421.3617962,171855.84441318,145459.82679314,172002.6795131]},{"type":"Feature","id":"StreetAxes.fid-6d0a8ac7_1a02c00b059_608","geometry":{"type":"LineString","coordinates":[[145430.78538571,171855.84441318],[145439.72113701,171863.54636372]]},"geometry_name":"GEOM","properties":{"INSPIRE_ID":"https://databrussels.be/id/streetaxe/96373","TYPE":"I","HIERARCHY":"DR","LVL":0,"STARTSN_ID":"https://databrussels.be/id/streetnode/7789","ENDSN_ID":"https://databrussels.be/id/streetnode/8351","STRNAMEFRE":"Rue du Korenbeek","STRNAMEDUT":"Korenbeekstraat","SLOPE":3.35,"LENGTH":11.7969357651253},"bbox":[145430.78538571,171855.84441318,145439.72113701,171863.54636372]},{"type":"Feature","id":"StreetAxes.fid-6d0a8ac7_1a02c00b059_604","geometry":{"type":"LineString","coordinates":[[145414.32820265,171838.80340079],[145414.60456609,171844.47609489],[145423.02789352,171853.13790784],[145430.78538571,171855.84441318]]},"geometry_name":"GEOM","properties":{"INSPIRE_ID":"https://databrussels.be/id/streetaxe/96379","TYPE":"I","HIERARCHY":"DR","LVL":0,"STARTSN_ID":"https://databrussels.be/id/streetnode/7798","ENDSN_ID":"https://databrussels.be/id/streetnode/7789","STRNAMEFRE":"Rue du Korenbeek","STRNAMEDUT":"Korenbeekstraat","SLOPE":3.24,"LENGTH":25.9776906356637},"bbox":[145414.32820265,171838.80340079,145430.78538571,171855.84441318]},{"type":"Feature","id":"StreetAxes.fid-6d0a8ac7_1a02c00b059_609","geometry":{"type":"LineString","coordinates":[[145522.152,171911.239],[145512.877,171907.176],[145492.332,171898.425],[145467.014,171883.39],[145448.12684408,171869.05154326],[145439.72113701,171863.54636372]]},"geometry_name":"GEOM","properties":{"INSPIRE_ID":"https://databrussels.be/id/streetaxe/96386","TYPE":"S","HIERARCHY":"DR","LVL":0,"STARTSN_ID":"https://databrussels.be/id/streetnode/10176","ENDSN_ID":"https://databrussels.be/id/streetnode/8351","STRNAMEFRE":"Rue du Korenbeek","STRNAMEDUT":"Korenbeekstraat","SLOPE":2.75,"LENGTH":95.6639509423141},"bbox":[145439.72113701,171863.54636372,145522.152,171911.239]},{"type":"Feature","id":"StreetAxes.fid-6d0a8ac7_1a02c00b059_603","geometry":{"type":"LineString","coordinates":[[145414.32820265,171838.80340079],[145423.4895721,171830.60711357],[145422.65842197,171822.15558697],[145419.33384647,171818.7141779]]},"geometry_name":"GEOM","properties":{"INSPIRE_ID":"https://databrussels.be/id/streetaxe/96387","TYPE":"S","HIERARCHY":"DR","LVL":0,"STARTSN_ID":"https://databrussels.be/id/streetnode/7798","ENDSN_ID":"https://databrussels.be/id/streetnode/8116","STRNAMEFRE":"Avenue du Thym","STRNAMEDUT":"Tijmlaan","SLOPE":1.45,"LENGTH":25.5699572313771},"bbox":[145414.32820265,171818.7141779,145423.4895721,171838.80340079]}],"numberReturned":40,"grand_bruxelles_source":{"authority":"Paradigm / Brussels-Capital Region","service":"https://geoservices-urbis.irisnet.be/geoserver/urbisvector/wfs","layer":"urbisvector:StreetAxes","crs":"EPSG:31370","bbox":[145000.0,171500.0,145500.0,172000.0],"cell_id":"bxl-e145000-n171500-s500","ownership":"bbox_intersection_source_unclipped"}}
