{"type":"FeatureCollection","totalFeatures":40,"numberMatched":40,"timeStamp":"2026-08-22T01:53:42.095Z","crs":{"type":"name","properties":{"name":"urn:ogc:def:crs:EPSG::31370"}},"bbox":[143174.868,168607.12732176,144151.458,169663.10379598],"features":[{"type":"Feature","id":"StreetAxes.fid--1290087_1a027299358_-7c28","geometry":{"type":"LineString","coordinates":[[143481.328,169006.496],[143487.79,169005.532],[143535.515,168998.415],[143559.745,168995.835],[143582.98,168995.36],[143614.07,168997.88]]},"geometry_name":"GEOM","properties":{"INSPIRE_ID":"https://databrussels.be/id/streetaxe/71101","TYPE":"S","HIERARCHY":"DR","LVL":0,"STARTSN_ID":"https://databrussels.be/id/streetnode/1846","ENDSN_ID":"https://databrussels.be/id/streetnode/2067","STRNAMEFRE":"Drève Tyl Uylenspiegel","STRNAMEDUT":"Tijl Uilenspiegeldreef","SLOPE":1.79,"LENGTH":133.5850414995},"bbox":[143481.328,168995.36,143614.07,169006.496]},{"type":"Feature","id":"StreetAxes.fid--1290087_1a027299358_-7c22","geometry":{"type":"LineString","coordinates":[[143807.78,169298.505],[143794.564,169299.363],[143785.184,169294.318],[143733.17,169260.92],[143700.07,169241.452],[143690.987,169235.592]]},"geometry_name":"GEOM","properties":{"INSPIRE_ID":"https://databrussels.be/id/streetaxe/71356","TYPE":"S","HIERARCHY":"DR","LVL":0,"STARTSN_ID":"https://databrussels.be/id/streetnode/4128","ENDSN_ID":"https://databrussels.be/id/streetnode/2358","STRNAMEFRE":"Rue de Scherdemael","STRNAMEDUT":"Scherdemaalstraat","SLOPE":0.08,"LENGTH":134.917732230563},"bbox":[143690.987,169235.592,143807.78,169299.363]},{"type":"Feature","id":"StreetAxes.fid--1290087_1a027299358_-7c3e","geometry":{"type":"LineString","coordinates":[[143811.97,169411.338],[143811.896,169407.087],[143811.607,169390.447],[143810.895,169373.764],[143810.534,169354.251]]},"geometry_name":"GEOM","properties":{"INSPIRE_ID":"https://databrussels.be/id/streetaxe/71378","TYPE":"S","HIERARCHY":"IDR","LVL":0,"STARTSN_ID":"https://databrussels.be/id/streetnode/748","ENDSN_ID":"https://databrussels.be/id/streetnode/1036","STRNAMEFRE":"Avenue d'Itterbeek","STRNAMEDUT":"Itterbeekse Laan","SLOPE":3.2,"LENGTH":57.1086790616578},"bbox":[143810.534,169354.251,143811.97,169411.338]},{"type":"Feature","id":"StreetAxes.fid--1290087_1a027299358_-7c20","geometry":{"type":"LineString","coordinates":[[143810.534,169354.251],[143810.174,169334.738],[143808.802,169314.246],[143808.358,169307.404],[143807.78,169298.505]]},"geometry_name":"GEOM","properties":{"INSPIRE_ID":"https://databrussels.be/id/streetaxe/71388","TYPE":"S","HIERARCHY":"IDR","LVL":0,"STARTSN_ID":"https://databrussels.be/id/streetnode/1036","ENDSN_ID":"https://databrussels.be/id/streetnode/4128","STRNAMEFRE":"Avenue du Luizenmolen","STRNAMEDUT":"Luizenmolenlaan","SLOPE":1,"LENGTH":55.8283412487952},"bbox":[143807.78,169298.505,143810.534,169354.251]},{"type":"Feature","id":"StreetAxes.fid--1290087_1a027299358_-7c40","geometry":{"type":"LineString","coordinates":[[143637.579,169482.996],[143617.37,169488.414],[143577.512,169500.23],[143565.409,169503.818]]},"geometry_name":"GEOM","properties":{"INSPIRE_ID":"https://databrussels.be/id/streetaxe/71616","TYPE":"S","HIERARCHY":"DR","LVL":0,"STARTSN_ID":"https://databrussels.be/id/streetnode/2621","ENDSN_ID":"https://databrussels.be/id/streetnode/1338","STRNAMEFRE":"Place Séverine","STRNAMEDUT":"Séverineplein","SLOPE":0.77,"LENGTH":75.118882740601},"bbox":[143565.409,169482.996,143637.579,169503.818]},{"type":"Feature","id":"StreetAxes.fid--1290087_1a027299358_-7c41","geometry":{"type":"LineString","coordinates":[[143528.827,169450.332],[143532.93,169463.585],[143535.725,169470.61],[143540.795,169479.555],[143548.205,169488.745],[143556.832,169495.046],[143565.409,169503.818]]},"geometry_name":"GEOM","properties":{"INSPIRE_ID":"https://databrussels.be/id/streetaxe/72028","TYPE":"S","HIERARCHY":"DR","LVL":0,"STARTSN_ID":"https://databrussels.be/id/streetnode/759","ENDSN_ID":"https://databrussels.be/id/streetnode/1338","STRNAMEFRE":"Rue de la Modestie","STRNAMEDUT":"Zedigheidsstraat","SLOPE":2.47,"LENGTH":66.4728050861763},"bbox":[143528.827,169450.332,143565.409,169503.818]},{"type":"Feature","id":"StreetAxes.fid--1290087_1a027299358_-7c21","geometry":{"type":"LineString","coordinates":[[143945.759,169334.014],[143942.478,169316.038],[143935.724,169267.056],[143932.588,169246.794]]},"geometry_name":"GEOM","properties":{"INSPIRE_ID":"https://databrussels.be/id/streetaxe/72049","TYPE":"S","HIERARCHY":"IDR","LVL":0,"STARTSN_ID":"https://databrussels.be/id/streetnode/244","ENDSN_ID":"https://databrussels.be/id/streetnode/4112","STRNAMEFRE":"Boulevard Joseph Bracops","STRNAMEDUT":"Joseph Bracopslaan","SLOPE":1.26,"LENGTH":88.221673094249},"bbox":[143932.588,169246.794,143945.759,169334.014]},{"type":"Feature","id":"StreetAxes.fid--1290087_1a027299358_-7c2b","geometry":{"type":"LineString","coordinates":[[143932.588,169246.794],[143929.638,169227.732],[143860.173,168734.46],[143857.748,168717.241]]},"geometry_name":"GEOM","properties":{"INSPIRE_ID":"https://databrussels.be/id/streetaxe/72060","TYPE":"S","HIERARCHY":"IDR","LVL":0,"STARTSN_ID":"https://databrussels.be/id/streetnode/4112","ENDSN_ID":"https://databrussels.be/id/streetnode/3975","STRNAMEFRE":"Boulevard Joseph Bracops","STRNAMEDUT":"Joseph Bracopslaan","SLOPE":1.06,"LENGTH":534.817028598956},"bbox":[143857.748,168717.241,143932.588,169246.794]},{"type":"Feature","id":"StreetAxes.fid--1290087_1a027299358_-7c1e","geometry":{"type":"LineString","coordinates":[[143955.189,169400.167],[143954.968,169392.46],[143949.714,169355.68],[143945.759,169334.014]]},"geometry_name":"GEOM","properties":{"INSPIRE_ID":"https://databrussels.be/id/streetaxe/72368","TYPE":"S","HIERARCHY":"IDR","LVL":0,"STARTSN_ID":"https://databrussels.be/id/streetnode/97","ENDSN_ID":"https://databrussels.be/id/streetnode/244","STRNAMEFRE":"Boulevard Joseph Bracops","STRNAMEDUT":"Joseph Bracopslaan","SLOPE":3.78,"LENGTH":66.887560961459},"bbox":[143945.759,169334.014,143955.189,169400.167]},{"type":"Feature","id":"StreetAxes.fid--1290087_1a027299358_-7c3d","geometry":{"type":"LineString","coordinates":[[144151.458,169371.847],[144141.49,169374.034],[144074.996,169388.545],[144063.855,169390.27],[143968.05,169398.996],[143955.189,169400.167]]},"geometry_name":"GEOM","properties":{"INSPIRE_ID":"https://databrussels.be/id/streetaxe/72536","TYPE":"S","HIERARCHY":"IDR","LVL":0,"STARTSN_ID":"https://databrussels.be/id/streetnode/1273","ENDSN_ID":"https://databrussels.be/id/streetnode/97","STRNAMEFRE":"Avenue d'Itterbeek","STRNAMEDUT":"Itterbeekse Laan","SLOPE":1.18,"LENGTH":198.653567907112},"bbox":[143955.189,169371.847,144151.458,169400.167]},{"type":"Feature","id":"StreetAxes.fid--1290087_1a027299358_-7c2a","geometry":{"type":"LineString","coordinates":[[143807.78,169298.505],[143806.43,169277.7],[143796.496,169190.026],[143730.445,168751.977],[143728.347,168737.789]]},"geometry_name":"GEOM","properties":{"INSPIRE_ID":"https://databrussels.be/id/streetaxe/72788","TYPE":"S","HIERARCHY":"IDR","LVL":0,"STARTSN_ID":"https://databrussels.be/id/streetnode/4128","ENDSN_ID":"https://databrussels.be/id/streetnode/1568","STRNAMEFRE":"Avenue du Luizenmolen","STRNAMEDUT":"Luizenmolenlaan","SLOPE":0.8,"LENGTH":566.426774591451},"bbox":[143728.347,168737.789,143807.78,169298.505]},{"type":"Feature","id":"StreetAxes.fid--1290087_1a027299358_-7c24","geometry":{"type":"LineString","coordinates":[[144017.23274144,169174.66622356],[144018.188,169187.858],[144020.194,169213.71],[144022.238,169240.052],[144006.596,169241.228],[143953.52,169245.22],[143937.385,169246.446],[143932.588,169246.794]]},"geometry_name":"GEOM","properties":{"INSPIRE_ID":"https://databrussels.be/id/streetaxe/72911","TYPE":"S","HIERARCHY":null,"LVL":0,"STARTSN_ID":"https://databrussels.be/id/streetnode/25","ENDSN_ID":"https://databrussels.be/id/streetnode/4112","STRNAMEFRE":"Avenue Jean Sibélius","STRNAMEDUT":"Jean Sibéliuslaan","SLOPE":0.14,"LENGTH":155.48038768868},"bbox":[143932.588,169174.66622356,144022.238,169246.794]},{"type":"Feature","id":"StreetAxes.fid--1290087_1a027299358_-7c29","geometry":{"type":"LineString","coordinates":[[143670.51414719,169002.74894423],[143670.52858543,168984.70144888],[143670.75431692,168965.36948916],[143670.37809777,168939.56846899],[143670.15236628,168917.67897374],[143670.45804433,168884.92465385],[143670.45804433,168880.56179913],[143655.748,168871.364]]},"geometry_name":"GEOM","properties":{"INSPIRE_ID":"https://databrussels.be/id/streetaxe/73311","TYPE":"S","HIERARCHY":"DR","LVL":0,"STARTSN_ID":"https://databrussels.be/id/streetnode/3695","ENDSN_ID":"https://databrussels.be/id/streetnode/5890","STRNAMEFRE":"Drève Soetkin","STRNAMEDUT":"Soetkindreef","SLOPE":1.2,"LENGTH":139.542718478089},"bbox":[143655.748,168871.364,143670.75431692,169002.74894423]},{"type":"Feature","id":"StreetAxes.fid--1290087_1a027299358_-7c25","geometry":{"type":"LineString","coordinates":[[143690.987,169235.592],[143682.488,169231.608],[143678.668,169229.748],[143629.416,169200.372],[143578.463,169171.179],[143564.112,169161.63],[143563.041,169160.918],[143551.734,169152.619],[143545.427,169147.094],[143537.164,169138.847],[143527.097,169122.256],[143515.286,169102.23],[143505.732,169081.591],[143500.947,169068.92],[143494.869,169049.467],[143489.8,169032.74],[143483.526,169013.156],[143481.328,169006.496]]},"geometry_name":"GEOM","properties":{"INSPIRE_ID":"https://databrussels.be/id/streetaxe/73868","TYPE":"S","HIERARCHY":null,"LVL":0,"STARTSN_ID":"https://databrussels.be/id/streetnode/2358","ENDSN_ID":"https://databrussels.be/id/streetnode/1846","STRNAMEFRE":"Rue de Scherdemael","STRNAMEDUT":"Scherdemaalstraat","SLOPE":0.28,"LENGTH":326.694074706176},"bbox":[143481.328,169006.496,143690.987,169235.592]},{"type":"Feature","id":"StreetAxes.fid--1290087_1a027299358_-7c26","geometry":{"type":"LineString","coordinates":[[143690.987,169235.592],[143687.38,169226.925],[143682.516,169152.763],[143680.455,169132.115],[143678.7065,169128.8085],[143671.29273259,169120.04301288],[143671.16374316,169106.80400545],[143670.71496746,169072.34510962],[143670.67264281,169024.37721443],[143670.51414719,169002.74894423]]},"geometry_name":"GEOM","properties":{"INSPIRE_ID":"https://databrussels.be/id/streetaxe/73927","TYPE":"S","HIERARCHY":null,"LVL":0,"STARTSN_ID":"https://databrussels.be/id/streetnode/2358","ENDSN_ID":"https://databrussels.be/id/streetnode/3695","STRNAMEFRE":"Drève Soetkin","STRNAMEDUT":"Soetkindreef","SLOPE":0.86,"LENGTH":236.97843988192},"bbox":[143670.51414719,169002.74894423,143690.987,169235.592]},{"type":"Feature","id":"StreetAxes.fid--1290087_1a027299358_-7c35","geometry":{"type":"LineString","coordinates":[[143878.42338864,169531.19640809],[143872.94529423,169524.90416378],[143866.065,169430.08],[143864.672,169423.67],[143861.096,169417.74],[143856.898,169414.862],[143847.87,169414.64],[143825.487,169415.766],[143811.97,169411.338]]},"geometry_name":"GEOM","properties":{"INSPIRE_ID":"https://databrussels.be/id/streetaxe/77734","TYPE":"S","HIERARCHY":null,"LVL":0,"STARTSN_ID":"https://databrussels.be/id/streetnode/4209","ENDSN_ID":"https://databrussels.be/id/streetnode/748","STRNAMEFRE":"Ring 0","STRNAMEDUT":"Ring 0","SLOPE":2.36,"LENGTH":167.656258031214},"bbox":[143811.97,169411.338,143878.42338864,169531.19640809]},{"type":"Feature","id":"StreetAxes.fid--1290087_1a027299358_-7c38","geometry":{"type":"LineString","coordinates":[[143961.68591333,169553.71364619],[143966.52719491,169546.64841614],[143968.7943512,169536.36952114],[143968.82028514,169531.91177361],[143955.11201927,169423.7732972],[143953.02626422,169410.30619393],[143955.189,169400.167]]},"geometry_name":"GEOM","properties":{"INSPIRE_ID":"https://databrussels.be/id/streetaxe/77736","TYPE":"S","HIERARCHY":"IDR","LVL":0,"STARTSN_ID":"https://databrussels.be/id/streetnode/4211","ENDSN_ID":"https://databrussels.be/id/streetnode/97","STRNAMEFRE":"Boulevard Joseph Bracops","STRNAMEDUT":"Joseph Bracopslaan","SLOPE":2.62,"LENGTH":156.547394382921},"bbox":[143953.02626422,169400.167,143968.82028514,169553.71364619]},{"type":"Feature","id":"StreetAxes.fid--1290087_1a027299358_-7c36","geometry":{"type":"LineString","coordinates":[[143818.3005305,169555.62868155],[143821.12333061,169538.53140374],[143812.225,169426.01],[143811.97,169411.338]]},"geometry_name":"GEOM","properties":{"INSPIRE_ID":"https://databrussels.be/id/streetaxe/77818","TYPE":"S","HIERARCHY":"DR","LVL":0,"STARTSN_ID":"https://databrussels.be/id/streetnode/7197","ENDSN_ID":"https://databrussels.be/id/streetnode/748","STRNAMEFRE":"Rue Ferdinand Craps","STRNAMEDUT":"Ferdinand Crapsstraat","SLOPE":2.64,"LENGTH":144.875653105671},"bbox":[143811.97,169411.338,143821.12333061,169555.62868155]},{"type":"Feature","id":"StreetAxes.fid--1290087_1a027299358_-7c2e","geometry":{"type":"LineString","coordinates":[[143690.47237181,169545.17268476],[143681.07,169536.245],[143660.55,169507.96],[143651.25,169496.479],[143637.579,169482.996]]},"geometry_name":"GEOM","properties":{"INSPIRE_ID":"https://databrussels.be/id/streetaxe/77819","TYPE":"S","HIERARCHY":"DR","LVL":0,"STARTSN_ID":"https://databrussels.be/id/streetnode/7198","ENDSN_ID":"https://databrussels.be/id/streetnode/2621","STRNAMEFRE":"Place Séverine","STRNAMEDUT":"Séverineplein","SLOPE":2.17,"LENGTH":81.8863906754924},"bbox":[143637.579,169482.996,143690.47237181,169545.17268476]},{"type":"Feature","id":"StreetAxes.fid--1290087_1a027299358_-7c23","geometry":{"type":"LineString","coordinates":[[143754.58697201,169395.18836101],[143734.503,169387.925],[143716.465,169380.995],[143497.054,169289.591],[143430.2,169261.741],[143293.628,169204.848],[143269.434,169196.413],[143265.247,169195.192],[143197.393,169179.71],[143174.868,169174.946]]},"geometry_name":"GEOM","properties":{"INSPIRE_ID":"https://databrussels.be/id/streetaxe/77821","TYPE":"S","HIERARCHY":"DR","LVL":0,"STARTSN_ID":"https://databrussels.be/id/streetnode/7200","ENDSN_ID":"https://databrussels.be/id/streetnode/2821","STRNAMEFRE":"Rue du Pommier","STRNAMEDUT":"Appelboomstraat","SLOPE":0.92,"LENGTH":621.345098970779},"bbox":[143174.868,169174.946,143754.58697201,169395.18836101]},{"type":"Feature","id":"StreetAxes.fid--1290087_1a027299358_-7c3a","geometry":{"type":"LineString","coordinates":[[143754.58697201,169395.18836101],[143762.68933405,169395.43683458],[143784.63112834,169400.70875692],[143797.79695203,169404.45242602],[143811.97,169411.338]]},"geometry_name":"GEOM","properties":{"INSPIRE_ID":"https://databrussels.be/id/streetaxe/77822","TYPE":"S","HIERARCHY":"DR","LVL":0,"STARTSN_ID":"https://databrussels.be/id/streetnode/7200","ENDSN_ID":"https://databrussels.be/id/streetnode/748","STRNAMEFRE":"Rue du Pommier","STRNAMEDUT":"Appelboomstraat","SLOPE":0.96,"LENGTH":60.1172556528318},"bbox":[143754.58697201,169395.18836101,143811.97,169411.338]},{"type":"Feature","id":"StreetAxes.fid--1290087_1a027299358_-7c37","geometry":{"type":"LineString","coordinates":[[143811.97,169411.338],[143800.01086322,169416.86670371],[143764.04788683,169416.93005809],[143751.14604786,169415.48423099]]},"geometry_name":"GEOM","properties":{"INSPIRE_ID":"https://databrussels.be/id/streetaxe/78417","TYPE":"S","HIERARCHY":"IDR","LVL":0,"STARTSN_ID":"https://databrussels.be/id/streetnode/748","ENDSN_ID":"https://databrussels.be/id/streetnode/7199","STRNAMEFRE":"Avenue d'Itterbeek","STRNAMEDUT":"Itterbeekse Laan","SLOPE":0.11,"LENGTH":62.1208922954989},"bbox":[143751.14604786,169411.338,143811.97,169416.93005809]},{"type":"Feature","id":"StreetAxes.fid--1290087_1a027299358_-7c3b","geometry":{"type":"LineString","coordinates":[[143943.39039951,169663.10379598],[143907.42734995,169426.70699411],[143901.3041522,169378.99076423]]},"geometry_name":"GEOM","properties":{"INSPIRE_ID":"https://databrussels.be/id/streetaxe/79006","TYPE":"S","HIERARCHY":"H","LVL":0,"STARTSN_ID":"https://databrussels.be/id/streetnode/4827","ENDSN_ID":"https://databrussels.be/id/streetnode/4819","STRNAMEFRE":"Ring 0","STRNAMEDUT":"Ring 0","SLOPE":1.28,"LENGTH":287.224190746584},"bbox":[143901.3041522,169378.99076423,143943.39039951,169663.10379598]},{"type":"Feature","id":"StreetAxes.fid--1290087_1a027299358_-7c3f","geometry":{"type":"LineString","coordinates":[[143637.579,169482.996],[143636.10048541,169470.36368641],[143648.50031974,169430.01559847],[143647.57642147,169421.61799358]]},"geometry_name":"GEOM","properties":{"INSPIRE_ID":"https://databrussels.be/id/streetaxe/79135","TYPE":"S","HIERARCHY":"DR","LVL":0,"STARTSN_ID":"https://databrussels.be/id/streetnode/2621","ENDSN_ID":"https://databrussels.be/id/streetnode/5552","STRNAMEFRE":"Avenue Auguste Bourgeois","STRNAMEDUT":"Auguste Bourgeoislaan","SLOPE":2.29,"LENGTH":63.3772926684331},"bbox":[143636.10048541,169421.61799358,143648.50031974,169482.996]},{"type":"Feature","id":"StreetAxes.fid--1290087_1a027299358_-7c32","geometry":{"type":"LineString","coordinates":[[143637.579,169482.996],[143646.90108169,169473.5099196],[143660.77033958,169428.92373781],[143662.88336969,169420.34454167]]},"geometry_name":"GEOM","properties":{"INSPIRE_ID":"https://databrussels.be/id/streetaxe/79136","TYPE":"S","HIERARCHY":"DR","LVL":0,"STARTSN_ID":"https://databrussels.be/id/streetnode/2621","ENDSN_ID":"https://databrussels.be/id/streetnode/5561","STRNAMEFRE":"Avenue Auguste Bourgeois","STRNAMEDUT":"Auguste Bourgeoislaan","SLOPE":1.99,"LENGTH":68.828976626331},"bbox":[143637.579,169420.34454167,143662.88336969,169482.996]},{"type":"Feature","id":"StreetAxes.fid--1290087_1a027299358_-7c33","geometry":{"type":"LineString","coordinates":[[143751.14604786,169415.48423099],[143751.74798351,169425.67938184],[143749.96,169430.835],[143711.104,169528.293],[143705.68362375,169544.18822681]]},"geometry_name":"GEOM","properties":{"INSPIRE_ID":"https://databrussels.be/id/streetaxe/79225","TYPE":"S","HIERARCHY":"DR","LVL":0,"STARTSN_ID":"https://databrussels.be/id/streetnode/7199","ENDSN_ID":"https://databrussels.be/id/streetnode/5564","STRNAMEFRE":"Rue Léon Nicodème","STRNAMEDUT":"Léon Nicodèmestraat","SLOPE":2.34,"LENGTH":137.382073726711},"bbox":[143705.68362375,169415.48423099,143751.74798351,169544.18822681]},{"type":"Feature","id":"StreetAxes.fid--1290087_1a027299358_-7c1d","geometry":{"type":"LineString","coordinates":[[143842.58,169349.485],[143925.335,169337.09]]},"geometry_name":"GEOM","properties":{"INSPIRE_ID":"https://databrussels.be/id/streetaxe/79335","TYPE":"S","HIERARCHY":"IDR","LVL":1,"STARTSN_ID":"https://databrussels.be/id/streetnode/4824","ENDSN_ID":"https://databrussels.be/id/streetnode/4828","STRNAMEFRE":"Ring 0","STRNAMEDUT":"Ring 0","SLOPE":0.3,"LENGTH":83.678109742009},"bbox":[143842.58,169337.09,143925.335,169349.485]},{"type":"Feature","id":"StreetAxes.fid--1290087_1a027299358_-7c27","geometry":{"type":"LineString","coordinates":[[143614.07,168997.88],[143625.39226874,168998.7652078],[143645.74649255,169000.64574863],[143670.51414719,169002.74894423]]},"geometry_name":"GEOM","properties":{"INSPIRE_ID":"https://databrussels.be/id/streetaxe/79521","TYPE":"S","HIERARCHY":"DR","LVL":0,"STARTSN_ID":"https://databrussels.be/id/streetnode/2067","ENDSN_ID":"https://databrussels.be/id/streetnode/3695","STRNAMEFRE":"Drève Soetkin","STRNAMEDUT":"Soetkindreef","SLOPE":0.99,"LENGTH":56.6545243153208},"bbox":[143614.07,168997.88,143670.51414719,169002.74894423]},{"type":"Feature","id":"StreetAxes.fid--1290087_1a027299358_-7c2d","geometry":{"type":"LineString","coordinates":[[143886.22497064,169428.11234966],[143868.17380319,169323.80712689],[143773.79539992,168717.87251989],[143759.06003517,168607.12732176]]},"geometry_name":"GEOM","properties":{"INSPIRE_ID":"https://databrussels.be/id/streetaxe/79682","TYPE":"S","HIERARCHY":"H","LVL":0,"STARTSN_ID":"https://databrussels.be/id/streetnode/4821","ENDSN_ID":"https://databrussels.be/id/streetnode/4826","STRNAMEFRE":"Ring 0","STRNAMEDUT":"Ring 0","SLOPE":0.77,"LENGTH":830.817488958697},"bbox":[143759.06003517,168607.12732176,143886.22497064,169428.11234966]},{"type":"Feature","id":"StreetAxes.fid--1290087_1a027299358_-7c30","geometry":{"type":"LineString","coordinates":[[143878.42338864,169531.19640809],[143881.52649195,169519.47587358],[143877.648,169460.283],[143886.22497064,169428.11234966]]},"geometry_name":"GEOM","properties":{"INSPIRE_ID":"https://databrussels.be/id/streetaxe/80667","TYPE":"S","HIERARCHY":"H","LVL":0,"STARTSN_ID":"https://databrussels.be/id/streetnode/4209","ENDSN_ID":"https://databrussels.be/id/streetnode/4821","STRNAMEFRE":"Ring 0","STRNAMEDUT":"Ring 0","SLOPE":1.18,"LENGTH":104.738537094214},"bbox":[143877.648,169428.11234966,143886.22497064,169531.19640809]},{"type":"Feature","id":"StreetAxes.fid--1290087_1a027299358_-7c3c","geometry":{"type":"LineString","coordinates":[[143961.68591333,169553.71364619],[143958.10419429,169539.69146193],[143921.93025483,169423.26379526],[143901.3041522,169378.99076423]]},"geometry_name":"GEOM","properties":{"INSPIRE_ID":"https://databrussels.be/id/streetaxe/80672","TYPE":"S","HIERARCHY":"IDR","LVL":0,"STARTSN_ID":"https://databrussels.be/id/streetnode/4211","ENDSN_ID":"https://databrussels.be/id/streetnode/4819","STRNAMEFRE":"Ring 0","STRNAMEDUT":"Ring 0","SLOPE":0.69,"LENGTH":185.232185992151},"bbox":[143901.3041522,169378.99076423,143961.68591333,169553.71364619]},{"type":"Feature","id":"StreetAxes.fid--1290087_1a027299358_-7c42","geometry":{"type":"LineString","coordinates":[[143647.57642147,169421.61799358],[143636.13033849,169422.59735622],[143620.29363194,169425.02936801],[143607.46928871,169427.67103067],[143586.992,169433.134],[143540.961,169446.236],[143528.827,169450.332]]},"geometry_name":"GEOM","properties":{"INSPIRE_ID":"https://databrussels.be/id/streetaxe/81351","TYPE":"S","HIERARCHY":"IDR","LVL":0,"STARTSN_ID":"https://databrussels.be/id/streetnode/5552","ENDSN_ID":"https://databrussels.be/id/streetnode/759","STRNAMEFRE":"Avenue d'Itterbeek","STRNAMEDUT":"Itterbeekse Laan","SLOPE":0.63,"LENGTH":122.463344281203},"bbox":[143528.827,169421.61799358,143647.57642147,169450.332]},{"type":"Feature","id":"StreetAxes.fid--1290087_1a027299358_-7c1c","geometry":{"type":"LineString","coordinates":[[143842.58,169349.485],[143825.648,169352.069],[143810.534,169354.251]]},"geometry_name":"GEOM","properties":{"INSPIRE_ID":"https://databrussels.be/id/streetaxe/83392","TYPE":"S","HIERARCHY":"IDR","LVL":0,"STARTSN_ID":"https://databrussels.be/id/streetnode/4824","ENDSN_ID":"https://databrussels.be/id/streetnode/1036","STRNAMEFRE":"Avenue d'Itterbeek","STRNAMEDUT":"Itterbeekse Laan","SLOPE":2.31,"LENGTH":32.3987326433987},"bbox":[143810.534,169349.485,143842.58,169354.251]},{"type":"Feature","id":"StreetAxes.fid--1290087_1a027299358_-7c34","geometry":{"type":"LineString","coordinates":[[143751.14604786,169415.48423099],[143730.86067593,169417.33366552],[143670.08193984,169419.73836575],[143662.88336969,169420.34454167]]},"geometry_name":"GEOM","properties":{"INSPIRE_ID":"https://databrussels.be/id/streetaxe/83574","TYPE":"S","HIERARCHY":"IDR","LVL":0,"STARTSN_ID":"https://databrussels.be/id/streetnode/7199","ENDSN_ID":"https://databrussels.be/id/streetnode/5561","STRNAMEFRE":"Avenue d'Itterbeek","STRNAMEDUT":"Itterbeekse Laan","SLOPE":0,"LENGTH":88.4198404254452},"bbox":[143662.88336969,169415.48423099,143751.14604786,169420.34454167]},{"type":"Feature","id":"StreetAxes.fid--1290087_1a027299358_-7c2f","geometry":{"type":"LineString","coordinates":[[143922.02368633,169662.41216281],[143891.1728957,169460.49613477],[143886.22497064,169428.11234966]]},"geometry_name":"GEOM","properties":{"INSPIRE_ID":"https://databrussels.be/id/streetaxe/83969","TYPE":"S","HIERARCHY":"H","LVL":0,"STARTSN_ID":"https://databrussels.be/id/streetnode/3832","ENDSN_ID":"https://databrussels.be/id/streetnode/4821","STRNAMEFRE":"Ring 0","STRNAMEDUT":"Ring 0","SLOPE":1.32,"LENGTH":237.01888213845},"bbox":[143886.22497064,169428.11234966,143922.02368633,169662.41216281]},{"type":"Feature","id":"StreetAxes.fid--1290087_1a027299358_-7c2c","geometry":{"type":"LineString","coordinates":[[143901.3041522,169378.99076423],[143892.72826581,169317.88444648],[143793.36113615,168679.52264324]]},"geometry_name":"GEOM","properties":{"INSPIRE_ID":"https://databrussels.be/id/streetaxe/83970","TYPE":"S","HIERARCHY":"H","LVL":0,"STARTSN_ID":"https://databrussels.be/id/streetnode/4819","ENDSN_ID":"https://databrussels.be/id/streetnode/4830","STRNAMEFRE":"Ring 0","STRNAMEDUT":"Ring 0","SLOPE":0.76,"LENGTH":707.75440740698},"bbox":[143793.36113615,168679.52264324,143901.3041522,169378.99076423]},{"type":"Feature","id":"StreetAxes.fid--1290087_1a027299358_-7c43","geometry":{"type":"LineString","coordinates":[[143528.827,169450.332],[143520.641,169453.096],[143478.449,169466.747],[143358.052,169505.7],[143339.46342181,169512.65281363]]},"geometry_name":"GEOM","properties":{"INSPIRE_ID":"https://databrussels.be/id/streetaxe/86365","TYPE":"S","HIERARCHY":"IDR","LVL":0,"STARTSN_ID":"https://databrussels.be/id/streetnode/759","ENDSN_ID":"https://databrussels.be/id/streetnode/5562","STRNAMEFRE":"Avenue d'Itterbeek","STRNAMEDUT":"Itterbeekse Laan","SLOPE":0.86,"LENGTH":199.37336223025},"bbox":[143339.46342181,169450.332,143528.827,169512.65281363]},{"type":"Feature","id":"StreetAxes.fid--1290087_1a027299358_-7c1f","geometry":{"type":"LineString","coordinates":[[143945.759,169334.014],[143929.85,169336.41],[143925.335,169337.09]]},"geometry_name":"GEOM","properties":{"INSPIRE_ID":"https://databrussels.be/id/streetaxe/86844","TYPE":"I","HIERARCHY":"IDR","LVL":0,"STARTSN_ID":"https://databrussels.be/id/streetnode/244","ENDSN_ID":"https://databrussels.be/id/streetnode/4828","STRNAMEFRE":"Boulevard Joseph Bracops","STRNAMEDUT":"Joseph Bracopslaan","SLOPE":2.91,"LENGTH":20.6543349445197},"bbox":[143925.335,169334.014,143945.759,169337.09]},{"type":"Feature","id":"StreetAxes.fid--1290087_1a027299358_-7c31","geometry":{"type":"LineString","coordinates":[[143647.57642147,169421.61799358],[143662.88336969,169420.34454167]]},"geometry_name":"GEOM","properties":{"INSPIRE_ID":"https://databrussels.be/id/streetaxe/88369","TYPE":"I","HIERARCHY":"IDR","LVL":0,"STARTSN_ID":"https://databrussels.be/id/streetnode/5552","ENDSN_ID":"https://databrussels.be/id/streetnode/5561","STRNAMEFRE":"Avenue d'Itterbeek","STRNAMEDUT":"Itterbeekse Laan","SLOPE":0.52,"LENGTH":15.3598288842948},"bbox":[143647.57642147,169420.34454167,143662.88336969,169421.61799358]},{"type":"Feature","id":"StreetAxes.fid--1290087_1a027299358_-7c39","geometry":{"type":"LineString","coordinates":[[143751.14604786,169415.48423099],[143749.00823667,169407.29073932],[143750.78787804,169399.96565301],[143754.58697201,169395.18836101]]},"geometry_name":"GEOM","properties":{"INSPIRE_ID":"https://databrussels.be/id/streetaxe/89414","TYPE":"I","HIERARCHY":"IDR","LVL":0,"STARTSN_ID":"https://databrussels.be/id/streetnode/7199","ENDSN_ID":"https://databrussels.be/id/streetnode/7200","STRNAMEFRE":"Avenue d'Itterbeek","STRNAMEDUT":"Itterbeekse Laan","SLOPE":2.94,"LENGTH":22.109704140983},"bbox":[143749.00823667,169395.18836101,143754.58697201,169415.48423099]}],"numberReturned":40,"grand_bruxelles_source":{"authority":"Paradigm / Brussels-Capital Region","service":"https://geoservices-urbis.irisnet.be/geoserver/urbisvector/wfs","layer":"urbisvector:StreetAxes","crs":"EPSG:31370","bbox":[143500.0,169000.0,144000.0,169500.0],"cell_id":"bxl-e143500-n169000-s500","ownership":"bbox_intersection_source_unclipped"}}
