{"type":"FeatureCollection","totalFeatures":6,"numberMatched":6,"timeStamp":"2026-08-24T03:42:38.184Z","crs":{"type":"name","properties":{"name":"urn:ogc:def:crs:EPSG::31370"}},"bbox":[156129.834,163718.74131863,156224.779,163832.848],"features":[{"type":"Feature","id":"Buildings.fid-6d0a8ac7_1a031465927_12e9","geometry":{"type":"Polygon","coordinates":[[[156130.62204089,163723.16040434],[156137.30729165,163718.74131863],[156142.0528492,163726.20884507],[156135.65231691,163730.73220575],[156130.62204089,163723.16040434]]]},"geometry_name":"GEOM","properties":{"INSPIRE_ID":"https://databrussels.be/id/building/190068","BLOCK_ID":null,"AREA":71},"bbox":[156130.62204089,163718.74131863,156142.0528492,163730.73220575]},{"type":"Feature","id":"Buildings.fid-6d0a8ac7_1a031465927_12ed","geometry":{"type":"Polygon","coordinates":[[[156203.585,163821.826],[156203.873,163821.362],[156203.201,163820.984],[156203.202,163819.791],[156204.257,163818.381],[156205.273,163818.179],[156205.724,163818.506],[156207.648,163815.539],[156210.114,163812.114],[156213.47,163814.532],[156211.046,163817.909],[156216.263,163821.451],[156216.983,163820.529],[156224.779,163825.918],[156219.711,163832.848],[156203.585,163821.826]]]},"geometry_name":"GEOM","properties":{"INSPIRE_ID":"https://databrussels.be/id/building/212725","BLOCK_ID":null,"AREA":180},"bbox":[156203.201,163812.114,156224.779,163832.848]},{"type":"Feature","id":"Buildings.fid-6d0a8ac7_1a031465927_12e8","geometry":{"type":"Polygon","coordinates":[[[156129.834,163755.586],[156133.133,163753.689],[156137.411,163761.329],[156134.351,163763.163],[156129.834,163755.586]]]},"geometry_name":"GEOM","properties":{"INSPIRE_ID":"https://databrussels.be/id/building/223716","BLOCK_ID":null,"AREA":32},"bbox":[156129.834,163753.689,156137.411,163763.163]},{"type":"Feature","id":"Buildings.fid-6d0a8ac7_1a031465927_12eb","geometry":{"type":"Polygon","coordinates":[[[156137.81,163761.449],[156143.888,163757.836],[156144.99,163757.183],[156153.022,163770.696],[156146.004,163774.907],[156137.81,163761.449]]]},"geometry_name":"GEOM","properties":{"INSPIRE_ID":"https://databrussels.be/id/building/229036","BLOCK_ID":null,"AREA":130},"bbox":[156137.81,163757.183,156153.022,163774.907]},{"type":"Feature","id":"Buildings.fid-6d0a8ac7_1a031465927_12ec","geometry":{"type":"Polygon","coordinates":[[[156166.505,163779.141],[156144.255,163741.313],[156151.274,163736.926],[156173.524,163774.754],[156166.505,163779.141]]]},"geometry_name":"GEOM","properties":{"INSPIRE_ID":"https://databrussels.be/id/building/231708","BLOCK_ID":null,"AREA":363},"bbox":[156144.255,163736.926,156173.524,163779.141]},{"type":"Feature","id":"Buildings.fid-6d0a8ac7_1a031465927_12ea","geometry":{"type":"Polygon","coordinates":[[[156132.842,163753.157],[156139.113,163749.543],[156143.888,163757.836],[156137.81,163761.449],[156137.606,163761.645],[156137.411,163761.329],[156133.133,163753.689],[156132.842,163753.157]]]},"geometry_name":"GEOM","properties":{"INSPIRE_ID":"https://databrussels.be/id/building/233061","BLOCK_ID":null,"AREA":70},"bbox":[156132.842,163749.543,156143.888,163761.645]}],"numberReturned":6,"grand_bruxelles_source":{"authority":"Paradigm / Brussels-Capital Region","service":"https://geoservices-urbis.irisnet.be/geoserver/urbisvector/wfs","layer":"urbisvector:Buildings","crs":"EPSG:31370","bbox":[156000.0,163500.0,156500.0,164000.0],"cell_id":"bxl-e156000-n163500-s500","ownership":"polygon_or_multipolygon_centroid_global_500m_cell"}}
