{"type":"FeatureCollection","totalFeatures":45,"numberMatched":45,"timeStamp":"2026-08-23T04:19:24.037Z","crs":{"type":"name","properties":{"name":"urn:ogc:def:crs:EPSG::31370"}},"bbox":[148362.10368809,167385.015,149098.392,168102.052],"features":[{"type":"Feature","id":"StreetAxes.fid--6f55e203_1a02c11fc5a_2258","geometry":{"type":"LineString","coordinates":[[148962.198,167733.574],[148972.748,167729.803],[149057.572,167695.724],[149066.11,167692.238]]},"geometry_name":"GEOM","properties":{"INSPIRE_ID":"https://databrussels.be/id/streetaxe/70064","TYPE":"S","HIERARCHY":"DR","LVL":0,"STARTSN_ID":"https://databrussels.be/id/streetnode/2333","ENDSN_ID":"https://databrussels.be/id/streetnode/1636","STRNAMEFRE":"Rue Emmanuel Van Driessche","STRNAMEDUT":"Emmanuel Van Driesschestraat","SLOPE":1.19,"LENGTH":111.839773214838},"bbox":[148962.198,167692.238,149066.11,167733.574]},{"type":"Feature","id":"StreetAxes.fid--6f55e203_1a02c11fc5a_223a","geometry":{"type":"LineString","coordinates":[[148972.184,168015.938],[148977.204,168012.216],[149045.192,167963.984],[149052.391,167958.73]]},"geometry_name":"GEOM","properties":{"INSPIRE_ID":"https://databrussels.be/id/streetaxe/70187","TYPE":"S","HIERARCHY":"IDR","LVL":0,"STARTSN_ID":"https://databrussels.be/id/streetnode/2962","ENDSN_ID":"https://databrussels.be/id/streetnode/3214","STRNAMEFRE":"Chaussée de Waterloo","STRNAMEDUT":"Waterloose Steenweg","SLOPE":0.64,"LENGTH":98.5204787998662},"bbox":[148972.184,167958.73,149052.391,168015.938]},{"type":"Feature","id":"StreetAxes.fid--6f55e203_1a02c11fc5a_223d","geometry":{"type":"LineString","coordinates":[[148784.852,167840.356],[148776.29,167834.142],[148729.549,167819.672],[148714.782,167814.981]]},"geometry_name":"GEOM","properties":{"INSPIRE_ID":"https://databrussels.be/id/streetaxe/70760","TYPE":"S","HIERARCHY":"DR","LVL":0,"STARTSN_ID":"https://databrussels.be/id/streetnode/2975","ENDSN_ID":"https://databrussels.be/id/streetnode/1426","STRNAMEFRE":"Avenue de la Jonction","STRNAMEDUT":"Verbindingslaan","SLOPE":0.73,"LENGTH":75.0030488952623},"bbox":[148714.782,167814.981,148784.852,167840.356]},{"type":"Feature","id":"StreetAxes.fid--6f55e203_1a02c11fc5a_2260","geometry":{"type":"LineString","coordinates":[[148714.782,167814.981],[148716.37,167807.789],[148717.722,167801.665],[148701.642,167680.459]]},"geometry_name":"GEOM","properties":{"INSPIRE_ID":"https://databrussels.be/id/streetaxe/70789","TYPE":"S","HIERARCHY":"DR","LVL":0,"STARTSN_ID":"https://databrussels.be/id/streetnode/1426","ENDSN_ID":"https://databrussels.be/id/streetnode/79","STRNAMEFRE":"Square Larousse","STRNAMEDUT":"Laroussesquare","SLOPE":2.02,"LENGTH":135.904682983157},"bbox":[148701.642,167680.459,148717.722,167814.981]},{"type":"Feature","id":"StreetAxes.fid--6f55e203_1a02c11fc5a_2255","geometry":{"type":"LineString","coordinates":[[148980.214,167783.072],[148977.513,167776.223],[148965.13,167742.74],[148962.198,167733.574]]},"geometry_name":"GEOM","properties":{"INSPIRE_ID":"https://databrussels.be/id/streetaxe/70840","TYPE":"S","HIERARCHY":"DR","LVL":0,"STARTSN_ID":"https://databrussels.be/id/streetnode/2643","ENDSN_ID":"https://databrussels.be/id/streetnode/2333","STRNAMEFRE":"Rue Franz Merjay","STRNAMEDUT":"Franz Merjaystraat","SLOPE":1.58,"LENGTH":52.6853119917056},"bbox":[148962.198,167733.574,148980.214,167783.072]},{"type":"Feature","id":"StreetAxes.fid--6f55e203_1a02c11fc5a_225c","geometry":{"type":"LineString","coordinates":[[148636.83,168065.118],[148639.892,168056.17],[148677.666,167937.1],[148680.577,167927.745]]},"geometry_name":"GEOM","properties":{"INSPIRE_ID":"https://databrussels.be/id/streetaxe/71125","TYPE":"S","HIERARCHY":"DR","LVL":0,"STARTSN_ID":"https://databrussels.be/id/streetnode/4017","ENDSN_ID":"https://databrussels.be/id/streetnode/4392","STRNAMEFRE":"Rue Henri Wafelaerts","STRNAMEDUT":"Henri Wafelaertsstraat","SLOPE":0.12,"LENGTH":144.172986031101},"bbox":[148636.83,167927.745,148680.577,168065.118]},{"type":"Feature","id":"StreetAxes.fid--6f55e203_1a02c11fc5a_2245","geometry":{"type":"LineString","coordinates":[[148868.112,167504.465],[148864.5,167495.617],[148823.339,167393.428],[148819.9,167385.015]]},"geometry_name":"GEOM","properties":{"INSPIRE_ID":"https://databrussels.be/id/streetaxe/71857","TYPE":"S","HIERARCHY":"DC","LVL":0,"STARTSN_ID":"https://databrussels.be/id/streetnode/1383","ENDSN_ID":"https://databrussels.be/id/streetnode/2759","STRNAMEFRE":"Rue Franz Merjay","STRNAMEDUT":"Franz Merjaystraat","SLOPE":1.77,"LENGTH":128.812844042739},"bbox":[148819.9,167385.015,148868.112,167504.465]},{"type":"Feature","id":"StreetAxes.fid--6f55e203_1a02c11fc5a_225f","geometry":{"type":"LineString","coordinates":[[148680.577,167927.745],[148683.488,167918.39],[148711.559,167829.581],[148714.782,167814.981]]},"geometry_name":"GEOM","properties":{"INSPIRE_ID":"https://databrussels.be/id/streetaxe/71991","TYPE":"S","HIERARCHY":"DR","LVL":0,"STARTSN_ID":"https://databrussels.be/id/streetnode/4392","ENDSN_ID":"https://databrussels.be/id/streetnode/1426","STRNAMEFRE":"Rue Henri Wafelaerts","STRNAMEDUT":"Henri Wafelaertsstraat","SLOPE":0.38,"LENGTH":117.888743341239},"bbox":[148680.577,167814.981,148714.782,167927.745]},{"type":"Feature","id":"StreetAxes.fid--6f55e203_1a02c11fc5a_2256","geometry":{"type":"LineString","coordinates":[[148992.612,167813.891],[148989.842,167806.92],[148982.916,167789.92],[148980.214,167783.072]]},"geometry_name":"GEOM","properties":{"INSPIRE_ID":"https://databrussels.be/id/streetaxe/72980","TYPE":"S","HIERARCHY":"DR","LVL":0,"STARTSN_ID":"https://databrussels.be/id/streetnode/3275","ENDSN_ID":"https://databrussels.be/id/streetnode/2643","STRNAMEFRE":"Rue Franz Merjay","STRNAMEDUT":"Franz Merjaystraat","SLOPE":1.32,"LENGTH":33.2196980091365},"bbox":[148980.214,167783.072,148992.612,167813.891]},{"type":"Feature","id":"StreetAxes.fid--6f55e203_1a02c11fc5a_224a","geometry":{"type":"LineString","coordinates":[[148861.67258623,167830.55672425],[148852.09929132,167806.92575397]]},"geometry_name":"GEOM","properties":{"INSPIRE_ID":"https://databrussels.be/id/streetaxe/73612","TYPE":"S","HIERARCHY":"MAR","LVL":0,"STARTSN_ID":"https://databrussels.be/id/streetnode/7732","ENDSN_ID":"https://databrussels.be/id/streetnode/7715","STRNAMEFRE":"Avenue Brugmann","STRNAMEDUT":"Brugmannlaan","SLOPE":0.78,"LENGTH":25.4964846927478},"bbox":[148852.09929132,167806.92575397,148861.67258623,167830.55672425]},{"type":"Feature","id":"StreetAxes.fid--6f55e203_1a02c11fc5a_2237","geometry":{"type":"LineString","coordinates":[[148852.79884153,167834.14588035],[148905.66284157,167965.60260619],[148910.79777795,167983.35272204],[148934.71427425,168042.77178568]]},"geometry_name":"GEOM","properties":{"INSPIRE_ID":"https://databrussels.be/id/streetaxe/73613","TYPE":"S","HIERARCHY":"MAR","LVL":0,"STARTSN_ID":"https://databrussels.be/id/streetnode/7725","ENDSN_ID":"https://databrussels.be/id/streetnode/7564","STRNAMEFRE":"Avenue Brugmann","STRNAMEDUT":"Brugmannlaan","SLOPE":0.8,"LENGTH":224.217609509413},"bbox":[148852.79884153,167834.14588035,148934.71427425,168042.77178568]},{"type":"Feature","id":"StreetAxes.fid--6f55e203_1a02c11fc5a_223c","geometry":{"type":"LineString","coordinates":[[148685.09459959,167390.23084608],[148688.40899471,167398.46224956],[148754.3612105,167562.48646339],[148756.82508853,167566.45424464]]},"geometry_name":"GEOM","properties":{"INSPIRE_ID":"https://databrussels.be/id/streetaxe/73614","TYPE":"S","HIERARCHY":"MAR","LVL":0,"STARTSN_ID":"https://databrussels.be/id/streetnode/7549","ENDSN_ID":"https://databrussels.be/id/streetnode/7701","STRNAMEFRE":"Avenue Brugmann","STRNAMEDUT":"Brugmannlaan","SLOPE":1.98,"LENGTH":190.331152427321},"bbox":[148685.09459959,167390.23084608,148756.82508853,167566.45424464]},{"type":"Feature","id":"StreetAxes.fid--6f55e203_1a02c11fc5a_223e","geometry":{"type":"LineString","coordinates":[[148745.23933399,167571.1062902],[148751.3014631,167568.67215432]]},"geometry_name":"GEOM","properties":{"INSPIRE_ID":"https://databrussels.be/id/streetaxe/73615","TYPE":"S","HIERARCHY":"MAR","LVL":0,"STARTSN_ID":"https://databrussels.be/id/streetnode/7569","ENDSN_ID":"https://databrussels.be/id/streetnode/7723","STRNAMEFRE":"Avenue Brugmann","STRNAMEDUT":"Brugmannlaan","SLOPE":0.92,"LENGTH":6.53256663278608},"bbox":[148745.23933399,167568.67215432,148751.3014631,167571.1062902]},{"type":"Feature","id":"StreetAxes.fid--6f55e203_1a02c11fc5a_2259","geometry":{"type":"LineString","coordinates":[[148992.612,167813.891],[148999.658,167811.066],[149090.012,167774.884],[149098.392,167771.571]]},"geometry_name":"GEOM","properties":{"INSPIRE_ID":"https://databrussels.be/id/streetaxe/73985","TYPE":"S","HIERARCHY":"DR","LVL":0,"STARTSN_ID":"https://databrussels.be/id/streetnode/3275","ENDSN_ID":"https://databrussels.be/id/streetnode/1705","STRNAMEFRE":"Rue de la Réforme","STRNAMEDUT":"Hervormingsstraat","SLOPE":1.31,"LENGTH":113.931600241924},"bbox":[148992.612,167771.571,149098.392,167813.891]},{"type":"Feature","id":"StreetAxes.fid--6f55e203_1a02c11fc5a_2248","geometry":{"type":"LineString","coordinates":[[148847.85194107,167808.62821989],[148852.09929132,167806.92575397]]},"geometry_name":"GEOM","properties":{"INSPIRE_ID":"https://databrussels.be/id/streetaxe/74203","TYPE":"S","HIERARCHY":"MAR","LVL":0,"STARTSN_ID":"https://databrussels.be/id/streetnode/7551","ENDSN_ID":"https://databrussels.be/id/streetnode/7715","STRNAMEFRE":"Avenue Brugmann","STRNAMEDUT":"Brugmannlaan","SLOPE":3.28,"LENGTH":4.57584683782348},"bbox":[148847.85194107,167806.92575397,148852.09929132,167808.62821989]},{"type":"Feature","id":"StreetAxes.fid--6f55e203_1a02c11fc5a_2241","geometry":{"type":"LineString","coordinates":[[148751.3014631,167568.67215432],[148756.82508853,167566.45424464]]},"geometry_name":"GEOM","properties":{"INSPIRE_ID":"https://databrussels.be/id/streetaxe/74219","TYPE":"S","HIERARCHY":"MAR","LVL":0,"STARTSN_ID":"https://databrussels.be/id/streetnode/7723","ENDSN_ID":"https://databrussels.be/id/streetnode/7701","STRNAMEFRE":"Avenue Brugmann","STRNAMEDUT":"Brugmannlaan","SLOPE":0.34,"LENGTH":5.95227362157731},"bbox":[148751.3014631,167566.45424464,148756.82508853,167568.67215432]},{"type":"Feature","id":"StreetAxes.fid--6f55e203_1a02c11fc5a_224f","geometry":{"type":"LineString","coordinates":[[148868.112,167504.465],[148876.604,167499.661],[148957.574,167453.939],[148976.80075967,167440.74578666]]},"geometry_name":"GEOM","properties":{"INSPIRE_ID":"https://databrussels.be/id/streetaxe/74290","TYPE":"S","HIERARCHY":"DC","LVL":0,"STARTSN_ID":"https://databrussels.be/id/streetnode/1383","ENDSN_ID":"https://databrussels.be/id/streetnode/7192","STRNAMEFRE":"Rue Darwin","STRNAMEDUT":"Darwinstraat","SLOPE":3.14,"LENGTH":126.061986960107},"bbox":[148868.112,167440.74578666,148976.80075967,167504.465]},{"type":"Feature","id":"StreetAxes.fid--6f55e203_1a02c11fc5a_2234","geometry":{"type":"LineString","coordinates":[[149052.391,167958.73],[149047.206,167948.868],[148995.381,167820.862],[148992.612,167813.891]]},"geometry_name":"GEOM","properties":{"INSPIRE_ID":"https://databrussels.be/id/streetaxe/74479","TYPE":"S","HIERARCHY":"DR","LVL":0,"STARTSN_ID":"https://databrussels.be/id/streetnode/3214","ENDSN_ID":"https://databrussels.be/id/streetnode/3275","STRNAMEFRE":"Rue Franz Merjay","STRNAMEDUT":"Franz Merjaystraat","SLOPE":1.48,"LENGTH":156.741892231717},"bbox":[148992.612,167813.891,149052.391,167958.73]},{"type":"Feature","id":"StreetAxes.fid--6f55e203_1a02c11fc5a_225d","geometry":{"type":"LineString","coordinates":[[148675.67119677,167392.57290577],[148678.59898196,167399.90367193],[148717.35526159,167496.95917263],[148720.87510417,167506.468936],[148724.53085323,167519.90794888],[148743.37012072,167566.94931473],[148745.23933399,167571.1062902]]},"geometry_name":"GEOM","properties":{"INSPIRE_ID":"https://databrussels.be/id/streetaxe/74682","TYPE":"S","HIERARCHY":"MAR","LVL":0,"STARTSN_ID":"https://databrussels.be/id/streetnode/7730","ENDSN_ID":"https://databrussels.be/id/streetnode/7569","STRNAMEFRE":"Avenue Brugmann","STRNAMEDUT":"Brugmannlaan","SLOPE":2.06,"LENGTH":191.700375198662},"bbox":[148675.67119677,167392.57290577,148745.23933399,167571.1062902]},{"type":"Feature","id":"StreetAxes.fid--6f55e203_1a02c11fc5a_224c","geometry":{"type":"LineString","coordinates":[[148857.36766555,167832.29793192],[148861.67258623,167830.55672425]]},"geometry_name":"GEOM","properties":{"INSPIRE_ID":"https://databrussels.be/id/streetaxe/74684","TYPE":"S","HIERARCHY":"MAR","LVL":0,"STARTSN_ID":"https://databrussels.be/id/streetnode/7702","ENDSN_ID":"https://databrussels.be/id/streetnode/7732","STRNAMEFRE":"Avenue Brugmann","STRNAMEDUT":"Brugmannlaan","SLOPE":1.29,"LENGTH":4.64372115715897},"bbox":[148857.36766555,167830.55672425,148861.67258623,167832.29793192]},{"type":"Feature","id":"StreetAxes.fid--6f55e203_1a02c11fc5a_223f","geometry":{"type":"LineString","coordinates":[[148745.23933399,167571.1062902],[148748.26341943,167577.8316057],[148764.26835994,167617.31472193],[148773.27774108,167636.38157168],[148843.21210103,167810.48800753]]},"geometry_name":"GEOM","properties":{"INSPIRE_ID":"https://databrussels.be/id/streetaxe/74686","TYPE":"S","HIERARCHY":"MAR","LVL":0,"STARTSN_ID":"https://databrussels.be/id/streetnode/7569","ENDSN_ID":"https://databrussels.be/id/streetnode/7708","STRNAMEFRE":"Avenue Brugmann","STRNAMEDUT":"Brugmannlaan","SLOPE":1.53,"LENGTH":258.692798663745},"bbox":[148745.23933399,167571.1062902,148843.21210103,167810.48800753]},{"type":"Feature","id":"StreetAxes.fid--6f55e203_1a02c11fc5a_2246","geometry":{"type":"LineString","coordinates":[[148843.21210103,167810.48800753],[148847.85194107,167808.62821989]]},"geometry_name":"GEOM","properties":{"INSPIRE_ID":"https://databrussels.be/id/streetaxe/74909","TYPE":"S","HIERARCHY":"MAR","LVL":0,"STARTSN_ID":"https://databrussels.be/id/streetnode/7708","ENDSN_ID":"https://databrussels.be/id/streetnode/7551","STRNAMEFRE":"Avenue Brugmann","STRNAMEDUT":"Brugmannlaan","SLOPE":1,"LENGTH":4.99869240329006},"bbox":[148843.21210103,167808.62821989,148847.85194107,167810.48800753]},{"type":"Feature","id":"StreetAxes.fid--6f55e203_1a02c11fc5a_2242","geometry":{"type":"LineString","coordinates":[[148852.09929132,167806.92575397],[148782.66647434,167634.11640221],[148781.26155762,167628.80625065],[148780.18393108,167623.05580657],[148778.95663419,167618.93016244],[148760.78114721,167572.82500458],[148756.82508853,167566.45424464]]},"geometry_name":"GEOM","properties":{"INSPIRE_ID":"https://databrussels.be/id/streetaxe/74910","TYPE":"S","HIERARCHY":"MAR","LVL":0,"STARTSN_ID":"https://databrussels.be/id/streetnode/7715","ENDSN_ID":"https://databrussels.be/id/streetnode/7701","STRNAMEFRE":"Avenue Brugmann","STRNAMEDUT":"Brugmannlaan","SLOPE":1.58,"LENGTH":258.941625945321},"bbox":[148756.82508853,167566.45424464,148852.09929132,167806.92575397]},{"type":"Feature","id":"StreetAxes.fid--6f55e203_1a02c11fc5a_2235","geometry":{"type":"LineString","coordinates":[[148861.67258623,167830.55672425],[148914.87643267,167962.95669802],[148923.3985493,167978.31803285],[148938.49087405,168016.09095709],[148943.05487036,168036.93600111]]},"geometry_name":"GEOM","properties":{"INSPIRE_ID":"https://databrussels.be/id/streetaxe/75257","TYPE":"S","HIERARCHY":"MAR","LVL":0,"STARTSN_ID":"https://databrussels.be/id/streetnode/7732","ENDSN_ID":"https://databrussels.be/id/streetnode/7572","STRNAMEFRE":"Avenue Brugmann","STRNAMEDUT":"Brugmannlaan","SLOPE":0.79,"LENGTH":222.272080519247},"bbox":[148861.67258623,167830.55672425,148943.05487036,168036.93600111]},{"type":"Feature","id":"StreetAxes.fid--6f55e203_1a02c11fc5a_224b","geometry":{"type":"LineString","coordinates":[[148852.79884153,167834.14588035],[148857.36766555,167832.29793192]]},"geometry_name":"GEOM","properties":{"INSPIRE_ID":"https://databrussels.be/id/streetaxe/75393","TYPE":"S","HIERARCHY":"MAR","LVL":0,"STARTSN_ID":"https://databrussels.be/id/streetnode/7725","ENDSN_ID":"https://databrussels.be/id/streetnode/7702","STRNAMEFRE":"Avenue Brugmann","STRNAMEDUT":"Brugmannlaan","SLOPE":1.22,"LENGTH":4.92839389541363},"bbox":[148852.79884153,167832.29793192,148857.36766555,167834.14588035]},{"type":"Feature","id":"StreetAxes.fid--6f55e203_1a02c11fc5a_2247","geometry":{"type":"LineString","coordinates":[[148852.79884153,167834.14588035],[148843.21210103,167810.48800753]]},"geometry_name":"GEOM","properties":{"INSPIRE_ID":"https://databrussels.be/id/streetaxe/75720","TYPE":"S","HIERARCHY":"MAR","LVL":0,"STARTSN_ID":"https://databrussels.be/id/streetnode/7725","ENDSN_ID":"https://databrussels.be/id/streetnode/7708","STRNAMEFRE":"Avenue Brugmann","STRNAMEDUT":"Brugmannlaan","SLOPE":1.18,"LENGTH":25.5264674369925},"bbox":[148843.21210103,167810.48800753,148852.79884153,167834.14588035]},{"type":"Feature","id":"StreetAxes.fid--6f55e203_1a02c11fc5a_224d","geometry":{"type":"LineString","coordinates":[[148861.67258623,167830.55672425],[148867.66,167828.135],[148934.654,167801.146],[148973.278,167785.872],[148980.214,167783.072]]},"geometry_name":"GEOM","properties":{"INSPIRE_ID":"https://databrussels.be/id/streetaxe/77850","TYPE":"S","HIERARCHY":"DR","LVL":0,"STARTSN_ID":"https://databrussels.be/id/streetnode/7732","ENDSN_ID":"https://databrussels.be/id/streetnode/2643","STRNAMEFRE":"Avenue du Haut-Pont","STRNAMEDUT":"Hoge-Bruglaan","SLOPE":1.35,"LENGTH":127.698947625452},"bbox":[148861.67258623,167783.072,148980.214,167830.55672425]},{"type":"Feature","id":"StreetAxes.fid--6f55e203_1a02c11fc5a_2238","geometry":{"type":"LineString","coordinates":[[148691.00900336,167931.34442624],[148698.84,167927.592],[148718.088,167917.303],[148729.952,167909.4],[148743.124,167898.638],[148753.584,167888.166],[148761.781,167878.764],[148769.876,167867.678],[148775.587,167858.196],[148780.885,167848.422],[148784.852,167840.356]]},"geometry_name":"GEOM","properties":{"INSPIRE_ID":"https://databrussels.be/id/streetaxe/78196","TYPE":"S","HIERARCHY":"DR","LVL":0,"STARTSN_ID":"https://databrussels.be/id/streetnode/13405","ENDSN_ID":"https://databrussels.be/id/streetnode/2975","STRNAMEFRE":"Rue Félix Delhasse","STRNAMEDUT":"Félix Delhassestraat","SLOPE":0.62,"LENGTH":133.950685293318},"bbox":[148691.00900336,167840.356,148784.852,167931.34442624]},{"type":"Feature","id":"StreetAxes.fid--6f55e203_1a02c11fc5a_2243","geometry":{"type":"LineString","coordinates":[[148756.82508853,167566.45424464],[148761.448,167564.598],[148810.728,167536.856],[148860.355,167508.853],[148868.112,167504.465]]},"geometry_name":"GEOM","properties":{"INSPIRE_ID":"https://databrussels.be/id/streetaxe/79430","TYPE":"S","HIERARCHY":"DC","LVL":0,"STARTSN_ID":"https://databrussels.be/id/streetnode/7701","ENDSN_ID":"https://databrussels.be/id/streetnode/1383","STRNAMEFRE":"Rue Darwin","STRNAMEDUT":"Darwinstraat","SLOPE":1.43,"LENGTH":127.428354669583},"bbox":[148756.82508853,167504.465,148868.112,167566.45424464]},{"type":"Feature","id":"StreetAxes.fid--6f55e203_1a02c11fc5a_225b","geometry":{"type":"LineString","coordinates":[[148403.57854828,167533.82542572],[148411.2514575,167534.2412842],[148415.04188779,167534.11801854],[148667.807,167394.924],[148675.67119677,167392.57290577]]},"geometry_name":"GEOM","properties":{"INSPIRE_ID":"https://databrussels.be/id/streetaxe/79541","TYPE":"S","HIERARCHY":"DR","LVL":0,"STARTSN_ID":"https://databrussels.be/id/streetnode/6628","ENDSN_ID":"https://databrussels.be/id/streetnode/7730","STRNAMEFRE":"Rue Berkendael","STRNAMEDUT":"Berkendaelstraat","SLOPE":1.23,"LENGTH":308.241784276009},"bbox":[148403.57854828,167392.57290577,148675.67119677,167534.2412842]},{"type":"Feature","id":"StreetAxes.fid--6f55e203_1a02c11fc5a_225a","geometry":{"type":"LineString","coordinates":[[148714.782,167814.981],[148705.98,167812.184],[148697.028,167809.333],[148368.028,167704.87],[148362.10368809,167703.43325833]]},"geometry_name":"GEOM","properties":{"INSPIRE_ID":"https://databrussels.be/id/streetaxe/82097","TYPE":"S","HIERARCHY":"DR","LVL":0,"STARTSN_ID":"https://databrussels.be/id/streetnode/1426","ENDSN_ID":"https://databrussels.be/id/streetnode/6958","STRNAMEFRE":"Avenue de la Jonction","STRNAMEDUT":"Verbindingslaan","SLOPE":2.37,"LENGTH":369.912987351247},"bbox":[148362.10368809,167703.43325833,148714.782,167814.981]},{"type":"Feature","id":"StreetAxes.fid--6f55e203_1a02c11fc5a_2244","geometry":{"type":"LineString","coordinates":[[148843.21210103,167810.48800753],[148788.82,167832.29],[148784.852,167840.356]]},"geometry_name":"GEOM","properties":{"INSPIRE_ID":"https://databrussels.be/id/streetaxe/83168","TYPE":"S","HIERARCHY":"DR","LVL":0,"STARTSN_ID":"https://databrussels.be/id/streetnode/7708","ENDSN_ID":"https://databrussels.be/id/streetnode/2975","STRNAMEFRE":"Avenue de la Jonction","STRNAMEDUT":"Verbindingslaan","SLOPE":1.09,"LENGTH":67.5880509700914},"bbox":[148784.852,167810.48800753,148843.21210103,167840.356]},{"type":"Feature","id":"StreetAxes.fid--6f55e203_1a02c11fc5a_2239","geometry":{"type":"LineString","coordinates":[[148851.146,168102.052],[148846.07,168093.47],[148698.794,167940.36],[148691.00900336,167931.34442624]]},"geometry_name":"GEOM","properties":{"INSPIRE_ID":"https://databrussels.be/id/streetaxe/84905","TYPE":"S","HIERARCHY":"DR","LVL":0,"STARTSN_ID":"https://databrussels.be/id/streetnode/1292","ENDSN_ID":"https://databrussels.be/id/streetnode/13405","STRNAMEFRE":"Rue de la Glacière","STRNAMEDUT":"Ijskelderstraat","SLOPE":1.66,"LENGTH":234.327438038276},"bbox":[148691.00900336,167931.34442624,148851.146,168102.052]},{"type":"Feature","id":"StreetAxes.fid--6f55e203_1a02c11fc5a_225e","geometry":{"type":"LineString","coordinates":[[148691.00900336,167931.34442624],[148680.577,167927.745]]},"geometry_name":"GEOM","properties":{"INSPIRE_ID":"https://databrussels.be/id/streetaxe/86974","TYPE":"I","HIERARCHY":"DR","LVL":0,"STARTSN_ID":"https://databrussels.be/id/streetnode/13405","ENDSN_ID":"https://databrussels.be/id/streetnode/4392","STRNAMEFRE":"Rue Henri Wafelaerts","STRNAMEDUT":"Henri Wafelaertsstraat","SLOPE":1.54,"LENGTH":11.0355137311781},"bbox":[148680.577,167927.745,148691.00900336,167931.34442624]},{"type":"Feature","id":"StreetAxes.fid--6f55e203_1a02c11fc5a_2240","geometry":{"type":"LineString","coordinates":[[148751.3014631,167568.67215432],[148754.20054879,167575.45698636],[148777.07121523,167632.82216447],[148844.30276659,167799.79989178],[148847.85194107,167808.62821989]]},"geometry_name":"GEOM","properties":{"INSPIRE_ID":"https://databrussels.be/id/streetaxe/90297","TYPE":"C","HIERARCHY":"MAR","LVL":0,"STARTSN_ID":"https://databrussels.be/id/streetnode/7723","ENDSN_ID":"https://databrussels.be/id/streetnode/7551","STRNAMEFRE":"Avenue Brugmann","STRNAMEDUT":"Brugmannlaan","SLOPE":1.53,"LENGTH":258.654082684898},"bbox":[148751.3014631,167568.67215432,148847.85194107,167808.62821989]},{"type":"Feature","id":"StreetAxes.fid--6f55e203_1a02c11fc5a_223b","geometry":{"type":"LineString","coordinates":[[148751.3014631,167568.67215432],[148748.6227916,167561.79824517],[148732.62144685,167521.93051477],[148683.31760665,167399.21034651],[148680.16772221,167391.45535501]]},"geometry_name":"GEOM","properties":{"INSPIRE_ID":"https://databrussels.be/id/streetaxe/91488","TYPE":"C","HIERARCHY":"MAR","LVL":0,"STARTSN_ID":"https://databrussels.be/id/streetnode/7723","ENDSN_ID":"https://databrussels.be/id/streetnode/7706","STRNAMEFRE":"Avenue Brugmann","STRNAMEDUT":"Brugmannlaan","SLOPE":2.04,"LENGTH":190.960668538172},"bbox":[148680.16772221,167391.45535501,148751.3014631,167568.67215432]},{"type":"Feature","id":"StreetAxes.fid--6f55e203_1a02c11fc5a_2249","geometry":{"type":"LineString","coordinates":[[148857.36766555,167832.29793192],[148847.85194107,167808.62821989]]},"geometry_name":"GEOM","properties":{"INSPIRE_ID":"https://databrussels.be/id/streetaxe/91500","TYPE":"C","HIERARCHY":"MAR","LVL":0,"STARTSN_ID":"https://databrussels.be/id/streetnode/7702","ENDSN_ID":"https://databrussels.be/id/streetnode/7551","STRNAMEFRE":"Avenue Brugmann","STRNAMEDUT":"Brugmannlaan","SLOPE":1.14,"LENGTH":25.5108659215677},"bbox":[148847.85194107,167808.62821989,148857.36766555,167832.29793192]},{"type":"Feature","id":"StreetAxes.fid--6f55e203_1a02c11fc5a_2236","geometry":{"type":"LineString","coordinates":[[148939.81910336,168039.19986543],[148937.15152941,168031.28016852],[148910.84766662,167965.37224487],[148860.17269979,167839.27526221],[148857.36766555,167832.29793192]]},"geometry_name":"GEOM","properties":{"INSPIRE_ID":"https://databrussels.be/id/streetaxe/91502","TYPE":"C","HIERARCHY":"MAR","LVL":0,"STARTSN_ID":"https://databrussels.be/id/streetnode/7718","ENDSN_ID":"https://databrussels.be/id/streetnode/7702","STRNAMEFRE":"Avenue Brugmann","STRNAMEDUT":"Brugmannlaan","SLOPE":0.82,"LENGTH":222.738447799145},"bbox":[148857.36766555,167832.29793192,148939.81910336,168039.19986543]},{"type":"Feature","id":"StreetAxes.fid--6f55e203_1a02c11fc5a_2250","geometry":{"type":"LineString","coordinates":[[148954.42599302,167708.13634646],[148944.00676698,167694.2513049],[148929.44862943,167656.24180945]]},"geometry_name":"GEOM","properties":{"INSPIRE_ID":"https://databrussels.be/id/streetaxe/98727","TYPE":"S","HIERARCHY":"DR","LVL":0,"STARTSN_ID":"https://databrussels.be/id/streetnode/","ENDSN_ID":"https://databrussels.be/id/streetnode/","STRNAMEFRE":"Rue Franz Merjay","STRNAMEDUT":"Franz Merjaystraat","SLOPE":null,"LENGTH":58.0616714976663},"bbox":[148929.44862943,167656.24180945,148954.42599302,167708.13634646]},{"type":"Feature","id":"StreetAxes.fid--6f55e203_1a02c11fc5a_2253","geometry":{"type":"LineString","coordinates":[[148954.42599302,167708.13634646],[148956.87953718,167689.6448061],[148955.71461852,167657.51391787],[148955.1294046,167647.03428815]]},"geometry_name":"GEOM","properties":{"INSPIRE_ID":"https://databrussels.be/id/streetaxe/98728","TYPE":"S","HIERARCHY":"DR","LVL":0,"STARTSN_ID":"https://databrussels.be/id/streetnode/","ENDSN_ID":"https://databrussels.be/id/streetnode/","STRNAMEFRE":"Rue Emile Bouilliot","STRNAMEDUT":"Emile Bouilliotstraat","SLOPE":null,"LENGTH":61.3015596893292},"bbox":[148954.42599302,167647.03428815,148956.87953718,167708.13634646]},{"type":"Feature","id":"StreetAxes.fid--6f55e203_1a02c11fc5a_2251","geometry":{"type":"LineString","coordinates":[[148929.44862943,167656.24180945],[148955.1294046,167647.03428815]]},"geometry_name":"GEOM","properties":{"INSPIRE_ID":"https://databrussels.be/id/streetaxe/98729","TYPE":"S","HIERARCHY":"DR","LVL":0,"STARTSN_ID":"https://databrussels.be/id/streetnode/","ENDSN_ID":"https://databrussels.be/id/streetnode/","STRNAMEFRE":"Square Léon Jacquet","STRNAMEDUT":"Léon Jacquetsquare","SLOPE":null,"LENGTH":27.2815076870434},"bbox":[148929.44862943,167647.03428815,148955.1294046,167656.24180945]},{"type":"Feature","id":"StreetAxes.fid--6f55e203_1a02c11fc5a_2254","geometry":{"type":"LineString","coordinates":[[148955.1294046,167647.03428815],[148957.197,167630.181],[148962.041,167600.81],[148970.386,167570.056],[148982.698,167538.562],[148993.416,167517.26],[149005.406,167497.436],[149010.39925798,167488.39451545],[149013.93727842,167474.95645119]]},"geometry_name":"GEOM","properties":{"INSPIRE_ID":"https://databrussels.be/id/streetaxe/98764","TYPE":"S","HIERARCHY":"DR","LVL":0,"STARTSN_ID":"https://databrussels.be/id/streetnode/3213","ENDSN_ID":"https://databrussels.be/id/streetnode/7193","STRNAMEFRE":"Rue Emile Bouilliot","STRNAMEDUT":"Emile Bouilliotstraat","SLOPE":2.91,"LENGTH":183.667497256775},"bbox":[148955.1294046,167474.95645119,149013.93727842,167647.03428815]},{"type":"Feature","id":"StreetAxes.fid--6f55e203_1a02c11fc5a_224e","geometry":{"type":"LineString","coordinates":[[148929.44862943,167656.24180945],[148926.086,167648.76],[148871.781,167513.453],[148868.112,167504.465]]},"geometry_name":"GEOM","properties":{"INSPIRE_ID":"https://databrussels.be/id/streetaxe/98765","TYPE":"S","HIERARCHY":"DR","LVL":0,"STARTSN_ID":"https://databrussels.be/id/streetnode/3213","ENDSN_ID":"https://databrussels.be/id/streetnode/1383","STRNAMEFRE":"Rue Franz Merjay","STRNAMEDUT":"Franz Merjaystraat","SLOPE":1.45,"LENGTH":163.708615307724},"bbox":[148868.112,167504.465,148929.44862943,167656.24180945]},{"type":"Feature","id":"StreetAxes.fid--6f55e203_1a02c11fc5a_2257","geometry":{"type":"LineString","coordinates":[[148955.1294046,167647.03428815],[148959.44924488,167643.44805586],[149027.105,167616.043],[149034.9,167612.892]]},"geometry_name":"GEOM","properties":{"INSPIRE_ID":"https://databrussels.be/id/streetaxe/98782","TYPE":"S","HIERARCHY":"DR","LVL":0,"STARTSN_ID":"https://databrussels.be/id/streetnode/3213","ENDSN_ID":"https://databrussels.be/id/streetnode/2807","STRNAMEFRE":"Rue François Stroobant","STRNAMEDUT":"François Stroobantstraat","SLOPE":0.98,"LENGTH":87.017704203229},"bbox":[148955.1294046,167612.892,149034.9,167647.03428815]},{"type":"Feature","id":"StreetAxes.fid--6f55e203_1a02c11fc5a_2252","geometry":{"type":"LineString","coordinates":[[148962.198,167733.574],[148959.266,167724.407],[148954.42599302,167708.13634646]]},"geometry_name":"GEOM","properties":{"INSPIRE_ID":"https://databrussels.be/id/streetaxe/98785","TYPE":"S","HIERARCHY":"DR","LVL":0,"STARTSN_ID":"https://databrussels.be/id/streetnode/2333","ENDSN_ID":"https://databrussels.be/id/streetnode/3213","STRNAMEFRE":"Rue Franz Merjay","STRNAMEDUT":"Franz Merjaystraat","SLOPE":1.36,"LENGTH":26.5997459438123},"bbox":[148954.42599302,167708.13634646,148962.198,167733.574]}],"numberReturned":45,"grand_bruxelles_source":{"authority":"Paradigm / Brussels-Capital Region","service":"https://geoservices-urbis.irisnet.be/geoserver/urbisvector/wfs","layer":"urbisvector:StreetAxes","crs":"EPSG:31370","bbox":[148500.0,167500.0,149000.0,168000.0],"cell_id":"bxl-e148500-n167500-s500","ownership":"bbox_intersection_source_unclipped"}}
