{"type":"FeatureCollection","totalFeatures":24,"numberMatched":24,"timeStamp":"2026-08-21T13:14:22.223Z","crs":{"type":"name","properties":{"name":"urn:ogc:def:crs:EPSG::31370"}},"bbox":[142377.53119621,167452.668,143164.377,168323.975],"features":[{"type":"Feature","id":"StreetAxes.fid--590544ac_1a024733989_-77ec","geometry":{"type":"LineString","coordinates":[[142872.07330011,167688.58792382],[142852.93234675,167698.71792334],[142847.66127627,167703.30583307],[142833.005,167725.23],[142823.215,167733.685],[142818.394,167736.094],[142811.27,167736.145],[142802.412,167749.545],[142784.928,167779.864],[142771.16168013,167805.80760288]]},"geometry_name":"GEOM","properties":{"INSPIRE_ID":"https://databrussels.be/id/streetaxe/73610","TYPE":"S","HIERARCHY":"DR","LVL":0,"STARTSN_ID":"https://databrussels.be/id/streetnode/7940","ENDSN_ID":"https://databrussels.be/id/streetnode/3020","STRNAMEFRE":"Schollestraat","STRNAMEDUT":"Schollestraat","SLOPE":3.62,"LENGTH":160.897298615619},"bbox":[142771.16168013,167688.58792382,142872.07330011,167805.80760288]},{"type":"Feature","id":"StreetAxes.fid--590544ac_1a024733989_-77eb","geometry":{"type":"LineString","coordinates":[[142455.189,168202.596],[142455.874,168194.508],[142459.208,168189.7],[142465.926,168183.654],[142513.183,168145.966],[142532.515,168129.525],[142533.40560319,168119.54313112],[142529.88,168105.55],[142526.2,168091.035],[142522.31,168069.445],[142508.148,167942.783],[142508.228,167931.7480441],[142512.63639698,167928.08516872]]},"geometry_name":"GEOM","properties":{"INSPIRE_ID":"https://databrussels.be/id/streetaxe/74416","TYPE":"S","HIERARCHY":null,"LVL":0,"STARTSN_ID":"https://databrussels.be/id/streetnode/3601","ENDSN_ID":"https://databrussels.be/id/streetnode/3135","STRNAMEFRE":"Rue des Betteraves","STRNAMEDUT":"Bietenstraat","SLOPE":3.83,"LENGTH":314.410599148428},"bbox":[142455.189,167928.08516872,142533.40560319,168202.596]},{"type":"Feature","id":"StreetAxes.fid--590544ac_1a024733989_-77ea","geometry":{"type":"LineString","coordinates":[[142855.74,168323.975],[142852.11,168318.12],[142831.622,168291.564],[142793.609,168244.594],[142774.401,168221.504],[142715.417,168157.911],[142689.105,168128.76],[142671.7,168107.555],[142594.51,168019.888],[142577.334,168000.298],[142536.766,167955.834],[142519.23577368,167936.24072726],[142512.63639698,167928.08516872]]},"geometry_name":"GEOM","properties":{"INSPIRE_ID":"https://databrussels.be/id/streetaxe/74418","TYPE":"S","HIERARCHY":"DR","LVL":0,"STARTSN_ID":"https://databrussels.be/id/streetnode/2649","ENDSN_ID":"https://databrussels.be/id/streetnode/3135","STRNAMEFRE":"Rue du Chaudron","STRNAMEDUT":"Ketelstraat","SLOPE":1.59,"LENGTH":524.160562322715},"bbox":[142512.63639698,167928.08516872,142855.74,168323.975]},{"type":"Feature","id":"StreetAxes.fid--590544ac_1a024733989_-77ee","geometry":{"type":"LineString","coordinates":[[142872.07330011,167688.58792382],[142862.66935889,167679.41925798],[142855.46920098,167668.75770564],[142850.97836905,167657.67854024]]},"geometry_name":"GEOM","properties":{"INSPIRE_ID":"https://databrussels.be/id/streetaxe/74877","TYPE":"S","HIERARCHY":"DR","LVL":0,"STARTSN_ID":"https://databrussels.be/id/streetnode/7940","ENDSN_ID":"https://databrussels.be/id/streetnode/7946","STRNAMEFRE":"Schollestraat","STRNAMEDUT":"Schollestraat","SLOPE":3.9,"LENGTH":37.9537030226862},"bbox":[142850.97836905,167657.67854024,142872.07330011,167688.58792382]},{"type":"Feature","id":"StreetAxes.fid--590544ac_1a024733989_-77db","geometry":{"type":"LineString","coordinates":[[143027.89503743,167635.90503146],[142925.47800662,167587.04882672]]},"geometry_name":"GEOM","properties":{"INSPIRE_ID":"https://databrussels.be/id/streetaxe/75163","TYPE":"S","HIERARCHY":"MER","LVL":1,"STARTSN_ID":"https://databrussels.be/id/streetnode/5667","ENDSN_ID":"https://databrussels.be/id/streetnode/5639","STRNAMEFRE":"Boulevard Henri Simonet","STRNAMEDUT":"Henri Simonetlaan","SLOPE":0.24,"LENGTH":113.473243285045},"bbox":[142925.47800662,167587.04882672,143027.89503743,167635.90503146]},{"type":"Feature","id":"StreetAxes.fid--590544ac_1a024733989_-77de","geometry":{"type":"LineString","coordinates":[[142951.15456382,167583.81826596],[143053.05265347,167632.41514694]]},"geometry_name":"GEOM","properties":{"INSPIRE_ID":"https://databrussels.be/id/streetaxe/75164","TYPE":"S","HIERARCHY":"MER","LVL":1,"STARTSN_ID":"https://databrussels.be/id/streetnode/5645","ENDSN_ID":"https://databrussels.be/id/streetnode/7449","STRNAMEFRE":"Boulevard Henri Simonet","STRNAMEDUT":"Henri Simonetlaan","SLOPE":0.2,"LENGTH":112.893212885463},"bbox":[142951.15456382,167583.81826596,143053.05265347,167632.41514694]},{"type":"Feature","id":"StreetAxes.fid--590544ac_1a024733989_-77df","geometry":{"type":"LineString","coordinates":[[142925.47800662,167587.04882672],[142873.348,167561.56]]},"geometry_name":"GEOM","properties":{"INSPIRE_ID":"https://databrussels.be/id/streetaxe/76643","TYPE":"S","HIERARCHY":"MER","LVL":0,"STARTSN_ID":"https://databrussels.be/id/streetnode/5639","ENDSN_ID":"https://databrussels.be/id/streetnode/14934","STRNAMEFRE":"Boulevard Henri Simonet","STRNAMEDUT":"Henri Simonetlaan","SLOPE":0.17,"LENGTH":58.0277336975674},"bbox":[142873.348,167561.56,142925.47800662,167587.04882672]},{"type":"Feature","id":"StreetAxes.fid--590544ac_1a024733989_-77e8","geometry":{"type":"LineString","coordinates":[[142675.237,167452.668],[142680.477,167455.182],[142709.925,167469.743],[142799.386,167512.228],[142951.15456382,167583.81826596]]},"geometry_name":"GEOM","properties":{"INSPIRE_ID":"https://databrussels.be/id/streetaxe/77876","TYPE":"S","HIERARCHY":"MER","LVL":0,"STARTSN_ID":"https://databrussels.be/id/streetnode/14933","ENDSN_ID":"https://databrussels.be/id/streetnode/5645","STRNAMEFRE":"Boulevard Henri Simonet","STRNAMEDUT":"Henri Simonetlaan","SLOPE":0.22,"LENGTH":305.505775662812},"bbox":[142675.237,167452.668,142951.15456382,167583.81826596]},{"type":"Feature","id":"StreetAxes.fid--590544ac_1a024733989_-77e6","geometry":{"type":"LineString","coordinates":[[142873.348,167561.56],[142823.498,167537.674],[142767.731,167510.982],[142734.043,167494.816],[142713.753,167483.58],[142676.885,167465.51],[142670.299,167462.641]]},"geometry_name":"GEOM","properties":{"INSPIRE_ID":"https://databrussels.be/id/streetaxe/79729","TYPE":"S","HIERARCHY":"MER","LVL":0,"STARTSN_ID":"https://databrussels.be/id/streetnode/14934","ENDSN_ID":"https://databrussels.be/id/streetnode/7472","STRNAMEFRE":"Boulevard Henri Simonet","STRNAMEDUT":"Henri Simonetlaan","SLOPE":0.18,"LENGTH":225.904232475027},"bbox":[142670.299,167462.641,142873.348,167561.56]},{"type":"Feature","id":"StreetAxes.fid--590544ac_1a024733989_-77e0","geometry":{"type":"LineString","coordinates":[[142845.884,167597.818],[142847.541,167595.429],[142869.972,167568.342],[142873.348,167561.56]]},"geometry_name":"GEOM","properties":{"INSPIRE_ID":"https://databrussels.be/id/streetaxe/80172","TYPE":"S","HIERARCHY":"DR","LVL":0,"STARTSN_ID":"https://databrussels.be/id/streetnode/7947","ENDSN_ID":"https://databrussels.be/id/streetnode/14934","STRNAMEFRE":"Schollestraat","STRNAMEDUT":"Schollestraat","SLOPE":3.73,"LENGTH":45.6521634337324},"bbox":[142845.884,167561.56,142873.348,167597.818]},{"type":"Feature","id":"StreetAxes.fid--590544ac_1a024733989_-77ed","geometry":{"type":"LineString","coordinates":[[143164.377,168136.876],[143160.402,168132.888],[143146.93,168117.47],[143112.75,168082.035],[143101.375,168068.075],[143072.518,168025.211],[143056.511,168000],[143046.59,167984.375],[143037.675,167968.885],[143019.385,167937.435],[143008.47,167916.035],[143000.875,167899.12],[142996.685,167888.51],[142992.82,167877.165],[142986.86,167857.805],[142980.935,167835.595],[142975.19,167820.535],[142970.79,167811.16],[142963.415,167797.325],[142947.65,167773.425],[142926.97,167744.34],[142912.885,167727.105],[142898.645,167712.545],[142884.55396513,167699.70867562],[142872.07330011,167688.58792382]]},"geometry_name":"GEOM","properties":{"INSPIRE_ID":"https://databrussels.be/id/streetaxe/80177","TYPE":"S","HIERARCHY":null,"LVL":0,"STARTSN_ID":"https://databrussels.be/id/streetnode/2464","ENDSN_ID":"https://databrussels.be/id/streetnode/7940","STRNAMEFRE":"Schollestraat","STRNAMEDUT":"Schollestraat","SLOPE":1.74,"LENGTH":541.7184534742},"bbox":[142872.07330011,167688.58792382,143164.377,168136.876]},{"type":"Feature","id":"StreetAxes.fid--590544ac_1a024733989_-77da","geometry":{"type":"LineString","coordinates":[[142843.141,167606.14],[142843.579,167602.571],[142845.884,167597.818]]},"geometry_name":"GEOM","properties":{"INSPIRE_ID":"https://databrussels.be/id/streetaxe/84872","TYPE":"S","HIERARCHY":"DR","LVL":0,"STARTSN_ID":"https://databrussels.be/id/streetnode/13111","ENDSN_ID":"https://databrussels.be/id/streetnode/7947","STRNAMEFRE":"Schollestraat","STRNAMEDUT":"Schollestraat","SLOPE":4.64,"LENGTH":8.87820289851534},"bbox":[142843.141,167597.818,142845.884,167606.14]},{"type":"Feature","id":"StreetAxes.fid--590544ac_1a024733989_-77e9","geometry":{"type":"LineString","coordinates":[[142512.63639698,167928.08516872],[142506.03702027,167919.92961019],[142466.52297112,167874.78972954],[142429.245,167828.93],[142399.23739615,167793.83470399],[142385.94059331,167774.35395831],[142379.89938821,167762.08781378],[142377.53119621,167754.63884503]]},"geometry_name":"GEOM","properties":{"INSPIRE_ID":"https://databrussels.be/id/streetaxe/88631","TYPE":"S","HIERARCHY":"DR","LVL":0,"STARTSN_ID":"https://databrussels.be/id/streetnode/3135","ENDSN_ID":"https://databrussels.be/id/streetnode/13110","STRNAMEFRE":"Rue du Chaudron","STRNAMEDUT":"Ketelstraat","SLOPE":0.73,"LENGTH":220.832836422912},"bbox":[142377.53119621,167754.63884503,142512.63639698,167928.08516872]},{"type":"Feature","id":"StreetAxes.fid--590544ac_1a024733989_-77e7","geometry":{"type":"LineString","coordinates":[[142636.741,167530.757],[142664.455,167474.442],[142670.299,167462.641]]},"geometry_name":"GEOM","properties":{"INSPIRE_ID":"https://databrussels.be/id/streetaxe/91358","TYPE":"S","HIERARCHY":"DR","LVL":0,"STARTSN_ID":"https://databrussels.be/id/streetnode/14813","ENDSN_ID":"https://databrussels.be/id/streetnode/7472","STRNAMEFRE":"Allée des Perce-Neige","STRNAMEDUT":"Sneeuwklokjesdreef","SLOPE":0,"LENGTH":75.9337468727584},"bbox":[142636.741,167462.641,142670.299,167530.757]},{"type":"Feature","id":"StreetAxes.fid--590544ac_1a024733989_-77e5","geometry":{"type":"LineString","coordinates":[[142537.9916575,167484.54624],[142546.9639275,167490.53824],[142636.741475,167530.75632]]},"geometry_name":"GEOM","properties":{"INSPIRE_ID":"https://databrussels.be/id/streetaxe/91360","TYPE":"S","HIERARCHY":"DR","LVL":0,"STARTSN_ID":"https://databrussels.be/id/streetnode/14808","ENDSN_ID":"https://databrussels.be/id/streetnode/14813","STRNAMEFRE":"Allée des Iris","STRNAMEDUT":"Irisdreef","SLOPE":0,"LENGTH":109.163442391021},"bbox":[142537.9916575,167484.54624,142636.741475,167530.75632]},{"type":"Feature","id":"StreetAxes.fid--590544ac_1a024733989_-77dc","geometry":{"type":"LineString","coordinates":[[142539.71039,167637.05648],[142541.1110425,167634.62],[142541.624905,167632.08592],[142541.9626875,167630.39488],[142542.151015,167628.6808],[142538.4524475,167610.67856],[142538.847385,167603.88144],[142539.31847,167602.1144],[142540.75551,167599.22112],[142547.51924446,167586.99091862]]},"geometry_name":"GEOM","properties":{"INSPIRE_ID":"https://databrussels.be/id/streetaxe/94008","TYPE":"S","HIERARCHY":"DR","LVL":0,"STARTSN_ID":"https://databrussels.be/id/streetnode/","ENDSN_ID":"https://databrussels.be/id/streetnode/","STRNAMEFRE":"Avenue des Hortensias","STRNAMEDUT":"Hortensialaan","SLOPE":null,"LENGTH":53.0668800927528},"bbox":[142538.4524475,167586.99091862,142547.51924446,167637.05648]},{"type":"Feature","id":"StreetAxes.fid--590544ac_1a024733989_-77f1","geometry":{"type":"LineString","coordinates":[[142539.71039,167637.05648],[142549.02868646,167636.48449684],[142562.36553218,167632.52079445],[142579.10667787,167626.95357621],[142583.95793368,167624.76843095],[142588.18891884,167621.68792742],[142591.14650071,167619.07849209],[142593.61115226,167615.81339479],[142595.60341227,167612.34301349],[142595.78826113,167610.41162041],[142593.99321029,167604.46582105]]},"geometry_name":"GEOM","properties":{"INSPIRE_ID":"https://databrussels.be/id/streetaxe/94009","TYPE":"S","HIERARCHY":"DR","LVL":0,"STARTSN_ID":"https://databrussels.be/id/streetnode/","ENDSN_ID":"https://databrussels.be/id/streetnode/","STRNAMEFRE":"Avenue des Hortensias","STRNAMEDUT":"Hortensialaan","SLOPE":null,"LENGTH":71.633779515616},"bbox":[142539.71039,167604.46582105,142595.78826113,167637.05648]},{"type":"Feature","id":"StreetAxes.fid--590544ac_1a024733989_-77e2","geometry":{"type":"LineString","coordinates":[[142593.99321029,167604.46582105],[142599.37378488,167602.84141289],[142601.472,167601.433],[142603.867,167597.365],[142606.605,167591.998],[142636.741,167530.757]]},"geometry_name":"GEOM","properties":{"INSPIRE_ID":"https://databrussels.be/id/streetaxe/94024","TYPE":"S","HIERARCHY":"DR","LVL":0,"STARTSN_ID":"https://databrussels.be/id/streetnode/14939","ENDSN_ID":"https://databrussels.be/id/streetnode/14813","STRNAMEFRE":"Allée des Perce-Neige","STRNAMEDUT":"Sneeuwklokjesdreef","SLOPE":0,"LENGTH":87.1474555138304},"bbox":[142593.99321029,167530.757,142636.741,167604.46582105]},{"type":"Feature","id":"StreetAxes.fid--590544ac_1a024733989_-77dd","geometry":{"type":"LineString","coordinates":[[142547.51924446,167586.99091862],[142556.57,167591.998],[142572.773,167601.417],[142579.66,167605.499],[142582.015,167606.388],[142584.78344221,167606.76721159],[142587.3647215,167606.46697744],[142593.99321029,167604.46582105]]},"geometry_name":"GEOM","properties":{"INSPIRE_ID":"https://databrussels.be/id/streetaxe/94030","TYPE":"S","HIERARCHY":"DR","LVL":0,"STARTSN_ID":"https://databrussels.be/id/streetnode/14786","ENDSN_ID":"https://databrussels.be/id/streetnode/14939","STRNAMEFRE":"Avenue des Lilas","STRNAMEDUT":"Seringenlaan","SLOPE":0,"LENGTH":51.9252506882166},"bbox":[142547.51924446,167586.99091862,142593.99321029,167606.76721159]},{"type":"Feature","id":"StreetAxes.fid--590544ac_1a024733989_-77e1","geometry":{"type":"LineString","coordinates":[[142492.54793,167560.76672],[142507.2479475,167566.73136],[142533.7966225,167579.4008],[142547.51924446,167586.99091862]]},"geometry_name":"GEOM","properties":{"INSPIRE_ID":"https://databrussels.be/id/streetaxe/94034","TYPE":"S","HIERARCHY":"DR","LVL":0,"STARTSN_ID":"https://databrussels.be/id/streetnode/","ENDSN_ID":"https://databrussels.be/id/streetnode/","STRNAMEFRE":"Avenue des Lilas","STRNAMEDUT":"Seringenlaan","SLOPE":0,"LENGTH":60.9626530803768},"bbox":[142492.54793,167560.76672,142547.51924446,167586.99091862]},{"type":"Feature","id":"StreetAxes.fid--590544ac_1a024733989_-77e3","geometry":{"type":"LineString","coordinates":[[142636.741475,167530.75632],[142643.7817242,167532.19124356],[142707.43498792,167578.02565603],[142723.22452085,167588.83243275],[142732.081,167594.149],[142740.172,167596.271],[142743.639,167596.84],[142750.42,167597.231],[142764.178,167596.749],[142793.569,167595.275],[142796.543,167594.423],[142798.659,167593.223],[142800.612,167591.794],[142802.419,167588.285],[142802.834,167585.112],[142802.426,167576.903],[142845.884,167597.818]]},"geometry_name":"GEOM","properties":{"INSPIRE_ID":"https://databrussels.be/id/streetaxe/94049","TYPE":"S","HIERARCHY":"DR","LVL":0,"STARTSN_ID":"https://databrussels.be/id/streetnode/","ENDSN_ID":"https://databrussels.be/id/streetnode/","STRNAMEFRE":"Schollestraat","STRNAMEDUT":"Schollestraat","SLOPE":1.33,"LENGTH":248.492344287353},"bbox":[142636.741475,167530.75632,142845.884,167597.818]},{"type":"Feature","id":"StreetAxes.fid--590544ac_1a024733989_-77f0","geometry":{"type":"LineString","coordinates":[[142850.97836905,167657.67854024],[142848.751,167649.386],[142842.965,167613.982],[142843.141,167606.14]]},"geometry_name":"GEOM","properties":{"INSPIRE_ID":"https://databrussels.be/id/streetaxe/94050","TYPE":"S","HIERARCHY":"DR","LVL":0,"STARTSN_ID":"https://databrussels.be/id/streetnode/7946","ENDSN_ID":"https://databrussels.be/id/streetnode/13111","STRNAMEFRE":"Schollestraat","STRNAMEDUT":"Schollestraat","SLOPE":1.3,"LENGTH":52.304121972986},"bbox":[142842.965,167606.14,142850.97836905,167657.67854024]},{"type":"Feature","id":"StreetAxes.fid--590544ac_1a024733989_-77ef","geometry":{"type":"LineString","coordinates":[[142539.71039,167637.05648],[142538.2532925,167638.81248],[142536.38901,167640.36208],[142533.9283275,167641.3672],[142530.1344425,167642.1336],[142523.054145,167643.11376],[142495.80754,167642.61184],[142460.04217865,167640.92096]]},"geometry_name":"GEOM","properties":{"INSPIRE_ID":"https://databrussels.be/id/streetaxe/94054","TYPE":"S","HIERARCHY":"DR","LVL":0,"STARTSN_ID":"https://databrussels.be/id/streetnode/14786","ENDSN_ID":"https://databrussels.be/id/streetnode/14799","STRNAMEFRE":"Avenue des Hortensias","STRNAMEDUT":"Hortensialaan","SLOPE":0,"LENGTH":81.438952046733},"bbox":[142460.04217865,167637.05648,142539.71039,167643.11376]},{"type":"Feature","id":"StreetAxes.fid--590544ac_1a024733989_-77e4","geometry":{"type":"LineString","coordinates":[[142492.54793,167560.76672],[142537.992,167484.547]]},"geometry_name":"GEOM","properties":{"INSPIRE_ID":"https://databrussels.be/id/streetaxe/98545","TYPE":"S","HIERARCHY":"DR","LVL":0,"STARTSN_ID":"https://databrussels.be/id/streetnode/14794","ENDSN_ID":"https://databrussels.be/id/streetnode/14808","STRNAMEFRE":"Place des Tulipes","STRNAMEDUT":"Tulpenplein","SLOPE":null,"LENGTH":88.7389948954042},"bbox":[142492.54793,167484.547,142537.992,167560.76672]}],"numberReturned":24,"grand_bruxelles_source":{"authority":"Paradigm / Brussels-Capital Region","service":"https://geoservices-urbis.irisnet.be/geoserver/urbisvector/wfs","layer":"urbisvector:StreetAxes","crs":"EPSG:31370","bbox":[142500.0,167500.0,143000.0,168000.0],"cell_id":"bxl-e142500-n167500-s500","ownership":"bbox_intersection_source_unclipped"}}
