{"type":"FeatureCollection","totalFeatures":2,"numberMatched":2,"timeStamp":"2026-08-24T01:59:02.081Z","crs":{"type":"name","properties":{"name":"urn:ogc:def:crs:EPSG::31370"}},"bbox":[152527.959,177237.097,153195.21789477,177945.27604647],"features":[{"type":"Feature","id":"StreetAxes.fid-6b1d3889_1a03126b129_7cf6","geometry":{"type":"LineString","coordinates":[[152527.959,177237.097],[152531.721,177255.251],[152551.601,177303.543],[152563.021,177336.359],[152578.775,177378.95],[152600.55,177436.885],[152608.545,177457.608],[152618.102,177480.391],[152628.643,177502.769],[152639.574,177524.825],[152653.99,177553.157],[152685.551,177614.982],[152736.525,177715.179],[152765.85,177772.406],[152771.105,177781.941],[152776.794,177791.439],[152782.473,177800.116],[152788.323,177808.365],[152795.795,177818.41],[152802.669,177826.745],[152811.593,177836.961],[152818.01,177843.768],[152827.276,177852.83],[152837.011,177861.721],[152847.814,177870.697],[152858.659,177878.904],[152872.493,177888.094],[152880.126,177892.839],[152889.562,177898.31],[152898.657,177903.183],[152907.837,177907.543],[152920.134,177913.014],[152932.815,177917.887],[152945.24,177922.076],[152954.89,177924.983],[152965.94,177927.892],[152971.625,177929.137],[152976.724,177930.114],[152981.018,177930.774],[152984.483,177931.042],[152988.533,177931.165],[152992.705,177930.994],[152996.707,177930.505],[153000.659,177929.723],[153005.149,177928.551],[153022.625,177923.239],[153048.146,177915.349],[153053.099,177913.957],[153057.735,177912.955],[153061.077,177912.467],[153064.883,177912.223],[153068.983,177912.296],[153072.886,177912.614],[153077.913,177913.713],[153082.744,177915.154],[153086.47,177916.63],[153090.332,177918.444],[153093.789,177920.733],[153096.921,177923.126],[153098.946,177924.958],[153101.581,177927.498],[153103.899,177930.209],[153105.632,177932.676],[153107.901,177936.34],[153112.59902443,177945.27604647]]},"geometry_name":"GEOM","properties":{"INSPIRE_ID":"https://databrussels.be/id/streetaxe/99249","TYPE":"S","HIERARCHY":"IDR","LVL":0,"STARTSN_ID":"https://databrussels.be/id/streetnode/","ENDSN_ID":"https://databrussels.be/id/streetnode/","STRNAMEFRE":"Chaussée de Vilvorde","STRNAMEDUT":"Vilvoordsesteenweg","SLOPE":0.31,"LENGTH":1011.88921648607},"bbox":[152527.959,177237.097,153112.59902443,177945.27604647]},{"type":"Feature","id":"StreetAxes.fid-6b1d3889_1a03126b129_7cf7","geometry":{"type":"LineString","coordinates":[[153195.21789477,177912.54700508],[153185.88295945,177896.59303241],[153142.09730322,177814.72677295],[153123.47632432,177782.20222838],[153113.55174998,177766.16799503],[153109.25855465,177758.7193666],[153092.93108486,177728.67197193],[153071.67760842,177687.58474286],[153047.80502369,177641.63744242],[153006.72715633,177565.73473769],[152965.91156693,177487.7091078],[152962.91237695,177479.91622541],[152957.73635554,177466.84741643],[152956.72050087,177461.57148985],[152956.90371381,177452.1751545]]},"geometry_name":"GEOM","properties":{"INSPIRE_ID":"https://databrussels.be/id/streetaxe/99286","TYPE":"S","HIERARCHY":"DR","LVL":0,"STARTSN_ID":"https://databrussels.be/id/streetnode/","ENDSN_ID":"https://databrussels.be/id/streetnode/","STRNAMEFRE":"Digue du Canal","STRNAMEDUT":"Vaartdijk","SLOPE":0.06,"LENGTH":520.030437638684},"bbox":[152956.72050087,177452.1751545,153195.21789477,177912.54700508]}],"numberReturned":2,"grand_bruxelles_source":{"authority":"Paradigm / Brussels-Capital Region","service":"https://geoservices-urbis.irisnet.be/geoserver/urbisvector/wfs","layer":"urbisvector:StreetAxes","crs":"EPSG:31370","bbox":[153000.0,177500.0,153500.0,178000.0],"cell_id":"bxl-e153000-n177500-s500","ownership":"bbox_intersection_source_unclipped"}}
