{"type":"FeatureCollection","totalFeatures":35,"numberMatched":35,"timeStamp":"2026-08-24T01:19:02.405Z","crs":{"type":"name","properties":{"name":"urn:ogc:def:crs:EPSG::31370"}},"bbox":[151485.331,177278.14,152080.882,177861.83256991],"features":[{"type":"Feature","id":"Buildings.fid--6f55e203_1a031389953_-d4a","geometry":{"type":"Polygon","coordinates":[[[151894.78383445,177634.71070207],[151893.94790078,177630.55618451],[151896.07642029,177630.12790347],[151896.91235395,177634.28242102],[151894.78383445,177634.71070207]]]},"geometry_name":"GEOM","properties":{"INSPIRE_ID":"https://databrussels.be/id/building/1628494","BLOCK_ID":"https://databrussels.be/id/block/30657","AREA":9},"bbox":[151893.94790078,177630.12790347,151896.91235395,177634.71070207]},{"type":"Feature","id":"Buildings.fid--6f55e203_1a031389953_-d45","geometry":{"type":"Polygon","coordinates":[[[151943.09,177719.38],[151945.35,177719.02],[151946.53,177724.79],[151946.85,177726.33],[151946.72274326,177726.35675544],[151946.9,177727.24],[151947.01672586,177727.21977069],[151948.56,177734.61],[151948.408132,177734.6391573],[151948.61,177735.65],[151946.21,177736.15],[151944.36,177726.79],[151944.6,177726.74],[151943.09,177719.38]]]},"geometry_name":"GEOM","properties":{"INSPIRE_ID":"https://databrussels.be/id/building/1629536","BLOCK_ID":"https://databrussels.be/id/block/30657","AREA":41},"bbox":[151943.09,177719.02,151948.61,177736.15]},{"type":"Feature","id":"Buildings.fid--6f55e203_1a031389953_-d3c","geometry":{"type":"Polygon","coordinates":[[[151988.502,177774.521],[151988.513,177776.357],[151980.59,177776.172],[151980.562,177774.234],[151988.502,177774.521]]]},"geometry_name":"GEOM","properties":{"INSPIRE_ID":"https://databrussels.be/id/building/1654057","BLOCK_ID":"https://databrussels.be/id/block/30657","AREA":15},"bbox":[151980.562,177774.234,151988.513,177776.357]},{"type":"Feature","id":"Buildings.fid--6f55e203_1a031389953_-d3a","geometry":{"type":"Polygon","coordinates":[[[151576.61,177587.41],[151586.75,177581.02],[151588.179,177583.361],[151582.96,177586.68],[151578.11,177589.78],[151576.61,177587.41]]]},"geometry_name":"GEOM","properties":{"INSPIRE_ID":"https://databrussels.be/id/building/1657414","BLOCK_ID":"https://databrussels.be/id/block/24346","AREA":33},"bbox":[151576.61,177581.02,151588.179,177589.78]},{"type":"Feature","id":"Buildings.fid--6f55e203_1a031389953_-d48","geometry":{"type":"Polygon","coordinates":[[[151946.21,177736.15],[151948.61,177735.65],[151952.48,177734.85],[151958.43,177763.63],[151940.18,177767.41],[151934.26,177738.62],[151946.21,177736.15]]]},"geometry_name":"GEOM","properties":{"INSPIRE_ID":"https://databrussels.be/id/building/1658799","BLOCK_ID":"https://databrussels.be/id/block/30657","AREA":547},"bbox":[151934.26,177734.85,151958.43,177767.41]},{"type":"Feature","id":"Buildings.fid--6f55e203_1a031389953_-d4b","geometry":{"type":"Polygon","coordinates":[[[151872.35,177612.18],[151874.39,177606.06],[151876.2,177606.78],[151876.72,177605.33],[151874.98,177604.66],[151876.37,177600.14],[151900.93,177608.4],[151906.55,177607.17],[151925.84,177590.02],[151934.32,177599.43],[151914.96,177616.68],[151913.11,177622.18],[151918.66,177649.18],[151906.35,177651.73],[151900.71,177624.68],[151896.87,177620.45],[151872.35,177612.18]]]},"geometry_name":"GEOM","properties":{"INSPIRE_ID":"https://databrussels.be/id/building/1660166","BLOCK_ID":"https://databrussels.be/id/block/30657","AREA":1212},"bbox":[151872.35,177590.02,151934.32,177651.73]},{"type":"Feature","id":"Buildings.fid--6f55e203_1a031389953_-d58","geometry":{"type":"Polygon","coordinates":[[[151671.799,177719.964],[151671.549,177717.858],[151649.553,177720.088],[151649.678,177721.511],[151644.62,177722.01],[151644.67,177722.31],[151644.88,177722.3],[151645.62,177729.78],[151636.61,177730.61],[151637.32,177737.62],[151673.54,177734.08],[151673.34,177732.02],[151677.29,177731.64],[151677.39,177731.63],[151677.59,177733.72],[151699.68,177731.68],[151699.31,177727.65],[151710.1,177726.65],[151710.14,177727.08],[151711.871,177726.917],[151710.09,177708.216],[151688.613,177710.239],[151688.57,177709.58],[151684.7,177709.95],[151685.13601803,177714.719189],[151676.214,177715.57],[151676.564,177719.521],[151671.799,177719.964]]]},"geometry_name":"GEOM","properties":{"INSPIRE_ID":"https://databrussels.be/id/building/1660351","BLOCK_ID":"https://databrussels.be/id/block/30657","AREA":1242},"bbox":[151636.61,177708.216,151711.871,177737.62]},{"type":"Feature","id":"Buildings.fid--6f55e203_1a031389953_-d46","geometry":{"type":"Polygon","coordinates":[[[151943.61,177623.83],[151942.99,177621.28],[151947.11,177620.47],[151947.66,177622.97],[151943.61,177623.83]]]},"geometry_name":"GEOM","properties":{"INSPIRE_ID":"https://databrussels.be/id/building/1661566","BLOCK_ID":"https://databrussels.be/id/block/30657","AREA":11},"bbox":[151942.99,177620.47,151947.66,177623.83]},{"type":"Feature","id":"Buildings.fid--6f55e203_1a031389953_-d3f","geometry":{"type":"Polygon","coordinates":[[[151974.54,177755.86],[151977.33,177755.23],[151978.75,177761.64],[151975.97,177762.22],[151974.54,177755.86]]]},"geometry_name":"GEOM","properties":{"INSPIRE_ID":"https://databrussels.be/id/building/1661571","BLOCK_ID":"https://databrussels.be/id/block/30657","AREA":19},"bbox":[151974.54,177755.23,151978.75,177762.22]},{"type":"Feature","id":"Buildings.fid--6f55e203_1a031389953_-d57","geometry":{"type":"Polygon","coordinates":[[[151688.637,177688.233],[151688.393,177686.44],[151690.057,177686.149],[151690.3,177688.028],[151688.637,177688.233]]]},"geometry_name":"GEOM","properties":{"INSPIRE_ID":"https://databrussels.be/id/building/1662086","BLOCK_ID":"https://databrussels.be/id/block/30657","AREA":3},"bbox":[151688.393,177686.149,151690.3,177688.233]},{"type":"Feature","id":"Buildings.fid--6f55e203_1a031389953_-d4c","geometry":{"type":"Polygon","coordinates":[[[151860.339,177623.852],[151862.069,177623.498],[151862.634,177626.547],[151860.859,177626.986],[151860.339,177623.852]]]},"geometry_name":"GEOM","properties":{"INSPIRE_ID":"https://databrussels.be/id/building/1662088","BLOCK_ID":"https://databrussels.be/id/block/30657","AREA":6},"bbox":[151860.339,177623.498,151862.634,177626.986]},{"type":"Feature","id":"Buildings.fid--6f55e203_1a031389953_-d4d","geometry":{"type":"Polygon","coordinates":[[[151860.344,177769.565],[151860.755,177772.071],[151856.881,177773.039],[151856.37,177770.511],[151860.344,177769.565]]]},"geometry_name":"GEOM","properties":{"INSPIRE_ID":"https://databrussels.be/id/building/1662089","BLOCK_ID":"https://databrussels.be/id/block/30657","AREA":10},"bbox":[151856.37,177769.565,151860.755,177773.039]},{"type":"Feature","id":"Buildings.fid--6f55e203_1a031389953_-d47","geometry":{"type":"Polygon","coordinates":[[[151943.09,177719.38],[151942.64629415,177717.29741146],[151944.92,177716.819],[151945.35,177719.02],[151943.09,177719.38]]]},"geometry_name":"GEOM","properties":{"INSPIRE_ID":"https://databrussels.be/id/building/1695771","BLOCK_ID":"https://databrussels.be/id/block/30657","AREA":5},"bbox":[151942.64629415,177716.819,151945.35,177719.38]},{"type":"Feature","id":"Buildings.fid--6f55e203_1a031389953_-d4e","geometry":{"type":"Polygon","coordinates":[[[151853.311,177733.717],[151853.159,177733.675],[151853.057,177733.638],[151852.957,177733.594],[151852.861,177733.543],[151852.769,177733.485],[151852.681,177733.421],[151852.597,177733.351],[151852.519,177733.275],[151852.446,177733.194],[151852.379,177733.108],[151852.318,177733.018],[151852.264,177732.923],[151852.216,177732.826],[151852.175,177732.725],[151852.141,177732.621],[151852.115,177732.515],[151852.096,177732.408],[151852.085,177732.3],[151852.081,177732.191],[151852.085,177732.082],[151852.096,177731.974],[151852.115,177731.866],[151852.142,177731.761],[151852.176,177731.657],[151852.216,177731.556],[151852.264,177731.458],[151852.319,177731.364],[151852.38,177731.273],[151852.447,177731.188],[151852.52,177731.107],[151852.598,177731.031],[151852.682,177730.961],[151852.77,177730.897],[151852.862,177730.839],[151852.958,177730.788],[151853.058,177730.744],[151853.16,177730.707],[151853.265,177730.677],[151853.372,177730.654],[151853.479,177730.639],[151853.581,177730.62],[151853.692,177730.606],[151853.803,177730.6],[151853.915,177730.602],[151854.026,177730.612],[151854.137,177730.629],[151854.246,177730.654],[151854.353,177730.687],[151854.457,177730.727],[151854.558,177730.774],[151854.656,177730.828],[151854.75,177730.889],[151854.839,177730.956],[151854.924,177731.03],[151855.003,177731.109],[151855.076,177731.193],[151855.144,177731.282],[151855.205,177731.376],[151855.259,177731.474],[151855.306,177731.575],[151855.346,177731.679],[151855.379,177731.786],[151855.404,177731.895],[151855.422,177732.006],[151855.432,177732.117],[151855.434,177732.229],[151855.428,177732.341],[151855.414,177732.452],[151855.393,177732.561],[151855.364,177732.669],[151855.328,177732.775],[151855.284,177732.878],[151855.233,177732.978],[151855.176,177733.074],[151855.112,177733.165],[151855.041,177733.252],[151854.965,177733.334],[151854.884,177733.41],[151854.797,177733.481],[151854.705,177733.545],[151854.609,177733.602],[151854.51,177733.653],[151854.407,177733.697],[151854.301,177733.733],[151854.193,177733.762],[151854.083,177733.784],[151853.972,177733.797],[151853.861,177733.803],[151853.749,177733.801],[151853.638,177733.792],[151853.527,177733.774],[151853.418,177733.749],[151853.311,177733.717]]]},"geometry_name":"GEOM","properties":{"INSPIRE_ID":"https://databrussels.be/id/building/1695773","BLOCK_ID":"https://databrussels.be/id/block/30657","AREA":8},"bbox":[151852.081,177730.6,151855.434,177733.803]},{"type":"Feature","id":"Buildings.fid--6f55e203_1a031389953_-d49","geometry":{"type":"Polygon","coordinates":[[[151922.00021421,177726.68737473],[151921.02,177721.93],[151919.26,177722.14],[151916.7,177709.61],[151918.43,177709.22],[151916.54,177699.82],[151938.13,177695.32],[151940.06,177704.9],[151950.75,177702.58],[151953.38,177715.17],[151944.92,177716.819],[151942.64629415,177717.29741146],[151943.09,177719.38],[151944.6,177726.74],[151944.36,177726.79],[151938.39493353,177728.01752885],[151939.52766539,177733.52193787],[151932.02860555,177735.06514151],[151930.89587368,177729.56073248],[151922.93,177731.2],[151919.29371267,177731.94829805],[151918.36502706,177727.4354335],[151922.00021421,177726.68737473]]]},"geometry_name":"GEOM","properties":{"INSPIRE_ID":"https://databrussels.be/id/building/1702674","BLOCK_ID":"https://databrussels.be/id/block/30657","AREA":930},"bbox":[151916.54,177695.32,151953.38,177735.06514151]},{"type":"Feature","id":"Buildings.fid--6f55e203_1a031389953_-d56","geometry":{"type":"Polygon","coordinates":[[[151728.53,177705.99],[151742.93,177703.08],[151740.292,177690.22],[151738.942,177690.315],[151738.173,177689.3],[151737.837,177687.137],[151738.132,177686.212],[151739.377,177685.762],[151738.56,177681.78],[151736.26,177670.55],[151748.5,177668.02],[151751.673,177683.455],[151752.895,177683.068],[151753.759,177683.834],[151754.085,177686.246],[151753.617,177687.6],[151752.663,177688.274],[151758.63,177717.3],[151747.05,177719.64],[151748.21,177725.39],[151745.71,177725.9],[151733.12,177728.44],[151728.53,177705.99]]]},"geometry_name":"GEOM","properties":{"INSPIRE_ID":"https://databrussels.be/id/building/1702676","BLOCK_ID":"https://databrussels.be/id/block/30657","AREA":985},"bbox":[151728.53,177668.02,151758.63,177728.44]},{"type":"Feature","id":"Buildings.fid--6f55e203_1a031389953_-d52","geometry":{"type":"MultiPolygon","coordinates":[[[[151779.299,177728.05200033],[151776.408,177715.58600033],[151776.991,177715.48600033],[151764.593,177658.50000033],[151762.147,177659.03200033],[151761.045,177652.67100033],[151763.371,177652.08800033],[151763.058,177650.74000033],[151799.518,177643.45900033],[151802.081,177656.43800033],[151801.403,177656.59900033],[151801.504,177657.14800032],[151803.186,177656.81200033],[151813.394,177707.20100033],[151812.107,177707.48800033],[151814.902,177720.45900033],[151806.929,177722.15910033],[151797.2358,177724.22610033],[151796.7257,177724.33540033],[151797.7011,177728.90880032],[151792.8203,177729.94970033],[151791.8449,177725.37640033],[151790.8845,177725.58120033],[151791.8599,177730.15450033],[151786.9791,177731.19550033],[151786.0037,177726.62210033],[151784.9663,177726.84330033],[151785.9417,177731.41670033],[151781.0609,177732.45760033],[151780.0855,177727.88430033],[151779.299,177728.05200033]]]]},"geometry_name":"GEOM","properties":{"INSPIRE_ID":"https://databrussels.be/id/building/1702677","BLOCK_ID":"https://databrussels.be/id/block/30657","AREA":3031},"bbox":[151761.045,177643.45900033,151814.902,177732.45760033]},{"type":"Feature","id":"Buildings.fid--6f55e203_1a031389953_-d51","geometry":{"type":"MultiPolygon","coordinates":[[[[151806.929,177722.15910033],[151807.7975,177726.63760033],[151804.61,177727.23800033],[151806.949,177738.73400033],[151800.415,177740.11200033],[151797.2358,177724.22610033],[151806.929,177722.15910033]]]]},"geometry_name":"GEOM","properties":{"INSPIRE_ID":"https://databrussels.be/id/building/1705007","BLOCK_ID":"https://databrussels.be/id/block/30657","AREA":123},"bbox":[151797.2358,177722.15910033,151807.7975,177740.11200033]},{"type":"Feature","id":"Buildings.fid--6f55e203_1a031389953_-d43","geometry":{"type":"Polygon","coordinates":[[[151948.56251557,177861.80227589],[151948.57389115,177857.31760909],[151960.51688745,177857.34790311],[151960.50551187,177861.83256991],[151948.56251557,177861.80227589]]]},"geometry_name":"GEOM","properties":{"INSPIRE_ID":"https://databrussels.be/id/building/1706148","BLOCK_ID":"https://databrussels.be/id/block/30657","AREA":54},"bbox":[151948.56251557,177857.31760909,151960.51688745,177861.83256991]},{"type":"Feature","id":"Buildings.fid--6f55e203_1a031389953_-d3d","geometry":{"type":"Polygon","coordinates":[[[151996.9799,177763.7876424],[151995.158,177767.4260424],[151994.9786,177769.0091424],[151978.9266,177770.3326424],[151978.7106,177767.7128424],[151992.6205,177766.5659424],[151994.6074,177762.5980424],[151996.9799,177763.7876424]]]},"geometry_name":"GEOM","properties":{"INSPIRE_ID":"https://databrussels.be/id/building/1773648","BLOCK_ID":"https://databrussels.be/id/block/30657","AREA":53},"bbox":[151978.7106,177762.5980424,151996.9799,177770.3326424]},{"type":"Feature","id":"Buildings.fid--6f55e203_1a031389953_-d44","geometry":{"type":"Polygon","coordinates":[[[151952.642,177673.7815],[151952.9453,177675.6381],[151950.657,177676.0907],[151950.3304,177674.1821],[151952.642,177673.7815]]]},"geometry_name":"GEOM","properties":{"INSPIRE_ID":"https://databrussels.be/id/building/1781636","BLOCK_ID":"https://databrussels.be/id/block/30657","AREA":4},"bbox":[151950.3304,177673.7815,151952.9453,177676.0907]},{"type":"Feature","id":"Buildings.fid--6f55e203_1a031389953_-d55","geometry":{"type":"Polygon","coordinates":[[[151750.3128,177583.1419424],[151750.3007,177584.6074424],[151750.2691,177588.4283424],[151747.4233,177588.4048424],[151747.4361,177586.8602424],[151747.4669,177583.1184424],[151750.3128,177583.1419424]]]},"geometry_name":"GEOM","properties":{"INSPIRE_ID":"https://databrussels.be/id/building/1785215","BLOCK_ID":"https://databrussels.be/id/block/24346","AREA":15},"bbox":[151747.4233,177583.1184424,151750.3128,177588.4283424]},{"type":"Feature","id":"Buildings.fid--6f55e203_1a031389953_-d53","geometry":{"type":"Polygon","coordinates":[[[151761.4787,177583.0496424],[151762.8116,177586.9010424],[151759.95359999,177587.8889424],[151759.4346,177586.38934241],[151758.2117,177582.8561424],[151761.06979999,177581.8682424],[151761.4787,177583.0496424]]]},"geometry_name":"GEOM","properties":{"INSPIRE_ID":"https://databrussels.be/id/building/1785216","BLOCK_ID":"https://databrussels.be/id/block/24346","AREA":16},"bbox":[151758.2117,177581.8682424,151762.8116,177587.8889424]},{"type":"Feature","id":"Buildings.fid--6f55e203_1a031389953_-d37","geometry":{"type":"Polygon","coordinates":[[[151538.3298,177715.7294],[151541.6017,177720.1553],[151537.7941,177723.0582],[151534.403,177718.5905],[151538.3298,177715.7294]]]},"geometry_name":"GEOM","properties":{"INSPIRE_ID":"https://databrussels.be/id/building/1787170","BLOCK_ID":"https://databrussels.be/id/block/30488","AREA":27},"bbox":[151534.403,177715.7294,151541.6017,177723.0582]},{"type":"Feature","id":"Buildings.fid--6f55e203_1a031389953_-d38","geometry":{"type":"Polygon","coordinates":[[[151536.233,177703.371],[151524.464,177711.797],[151522.904,177709.744],[151511.729,177717.802],[151505.439,177709.341],[151513.33,177703.465],[151511.907,177701.687],[151523.994,177692.941],[151527.529,177697.776],[151530.538,177695.161],[151536.233,177703.371]]]},"geometry_name":"GEOM","properties":{"INSPIRE_ID":"https://databrussels.be/id/building/1809484","BLOCK_ID":"https://databrussels.be/id/block/30488","AREA":362},"bbox":[151505.439,177692.941,151536.233,177717.802]},{"type":"Feature","id":"Buildings.fid--6f55e203_1a031389953_-d39","geometry":{"type":"Polygon","coordinates":[[[151530.323,177682.529],[151522.241,177688.467],[151503.52,177662.986],[151505.131,177661.801],[151495.923,177649.268],[151494.606,177650.236],[151485.331,177637.612],[151494.605,177630.799],[151503.792,177643.303],[151505.297,177642.197],[151514.589,177654.844],[151513.206,177655.86],[151522.565,177668.598],[151520.956,177669.78],[151530.323,177682.529]]]},"geometry_name":"GEOM","properties":{"INSPIRE_ID":"https://databrussels.be/id/building/1809492","BLOCK_ID":"https://databrussels.be/id/block/30488","AREA":712},"bbox":[151485.331,177630.799,151530.323,177688.467]},{"type":"Feature","id":"Buildings.fid--6f55e203_1a031389953_-d42","geometry":{"type":"MultiPolygon","coordinates":[[[[151951.6815,177515.26690033],[151962.8552,177513.08090033],[151963.278,177515.24190033],[151977.3096,177512.49680033],[151978.9186,177520.72110033],[151983.7054,177519.78460033],[151986.4862,177533.99830033],[151956.494,177539.86600033],[151951.6815,177515.26690033]]]]},"geometry_name":"GEOM","properties":{"INSPIRE_ID":"https://databrussels.be/id/building/1830687","BLOCK_ID":"https://databrussels.be/id/block/24346","AREA":683},"bbox":[151951.6815,177512.49680033,151986.4862,177539.86600033]},{"type":"Feature","id":"Buildings.fid--6f55e203_1a031389953_-d41","geometry":{"type":"MultiPolygon","coordinates":[[[[151955.134,177502.88310033],[151963.0097,177501.34230033],[151962.8637,177500.59610033],[151966.0952,177499.96390033],[151968.556,177512.54170033],[151962.9638,177513.63580033],[151962.8552,177513.08090033],[151959.2066,177513.79470033],[151957.729,177506.24200033],[151955.8626,177506.60710033],[151955.134,177502.88310033]]]]},"geometry_name":"GEOM","properties":{"INSPIRE_ID":"https://databrussels.be/id/building/1830688","BLOCK_ID":"https://databrussels.be/id/block/24346","AREA":121},"bbox":[151955.134,177499.96390033,151968.556,177513.79470033]},{"type":"Feature","id":"Buildings.fid--6f55e203_1a031389953_-d4f","geometry":{"type":"MultiPolygon","coordinates":[[[[151818.3092,177570.64300033],[151812.3101,177570.67370033],[151812.2976,177568.24050033],[151818.2968,177568.20980033],[151818.3092,177570.64300033]]]]},"geometry_name":"GEOM","properties":{"INSPIRE_ID":"https://databrussels.be/id/building/1830690","BLOCK_ID":"https://databrussels.be/id/block/24346","AREA":15},"bbox":[151812.2976,177568.20980033,151818.3092,177570.67370033]},{"type":"Feature","id":"Buildings.fid--6f55e203_1a031389953_-d50","geometry":{"type":"MultiPolygon","coordinates":[[[[151808.5623,177574.90950033],[151804.5167,177575.73260033],[151803.993,177573.15840033],[151808.0387,177572.33530033],[151808.5623,177574.90950033]]]]},"geometry_name":"GEOM","properties":{"INSPIRE_ID":"https://databrussels.be/id/building/1830691","BLOCK_ID":"https://databrussels.be/id/block/24346","AREA":11},"bbox":[151803.993,177572.33530033,151808.5623,177575.73260033]}],"numberReturned":30,"grand_bruxelles_source":{"authority":"Paradigm / Brussels-Capital Region","service":"https://geoservices-urbis.irisnet.be/geoserver/urbisvector/wfs","layer":"urbisvector:Buildings","crs":"EPSG:31370","bbox":[151500.0,177500.0,152000.0,178000.0],"cell_id":"bxl-e151500-n177500-s500","ownership":"polygon_or_multipolygon_centroid_global_500m_cell"}}
