{"type":"FeatureCollection","totalFeatures":45,"numberMatched":45,"timeStamp":"2026-08-21T19:01:20.672Z","crs":{"type":"name","properties":{"name":"urn:ogc:def:crs:EPSG::31370"}},"bbox":[146831.19152459,168794.53545442,147608.83265438,169541.313742],"features":[{"type":"Feature","id":"StreetAxes.fid-4dd17ab5_1a025577777_-5f4e","geometry":{"type":"LineString","coordinates":[[147272.41263822,168797.9882425],[147314.26318854,168849.61313889],[147336.142116,168876.29500929],[147417.71319179,168977.22176654],[147430.69251668,168995.19695833],[147469.46820566,169043.59568916],[147482.20155402,169058.28482994]]},"geometry_name":"GEOM","properties":{"INSPIRE_ID":"https://databrussels.be/id/streetaxe/100384","TYPE":"S","HIERARCHY":"DR","LVL":0,"STARTSN_ID":"https://databrussels.be/id/streetnode/","ENDSN_ID":"https://databrussels.be/id/streetnode/","STRNAMEFRE":"Avenue Fonsny","STRNAMEDUT":"Fonsnylaan","SLOPE":null,"LENGTH":334.359252169432},"bbox":[147272.41263822,168797.9882425,147482.20155402,169058.28482994]},{"type":"Feature","id":"StreetAxes.fid-4dd17ab5_1a025577777_-5f4f","geometry":{"type":"LineString","coordinates":[[147277.38094663,168795.45894924],[147278.08517529,168796.3283676],[147293.87261882,168815.7951685],[147309.65870091,168835.27616334],[147322.2397136,168850.79798945],[147337.22672189,168869.30089142],[147359.8970465,168897.27852181],[147378.81977918,168920.61857061],[147393.8703835,168939.18713645],[147413.35715318,168963.23120468],[147432.06732182,168986.72993502],[147442.31412117,168999.41553184],[147467.27242242,169029.71263641],[147473.54700841,169036.85410988]]},"geometry_name":"GEOM","properties":{"INSPIRE_ID":"https://databrussels.be/id/streetaxe/100385","TYPE":"S","HIERARCHY":"DR","LVL":0,"STARTSN_ID":"https://databrussels.be/id/streetnode/","ENDSN_ID":"https://databrussels.be/id/streetnode/","STRNAMEFRE":"Avenue Fonsny","STRNAMEDUT":"Fonsnylaan","SLOPE":null,"LENGTH":311.060694911159},"bbox":[147277.38094663,168795.45894924,147473.54700841,169036.85410988]},{"type":"Feature","id":"StreetAxes.fid-4dd17ab5_1a025577777_-5f5e","geometry":{"type":"LineString","coordinates":[[147370.5,169254.66],[147362.11,169244.159],[147332.563,169207.49],[147293.827,169159.417]]},"geometry_name":"GEOM","properties":{"INSPIRE_ID":"https://databrussels.be/id/streetaxe/72652","TYPE":"S","HIERARCHY":"MER","LVL":0,"STARTSN_ID":"https://databrussels.be/id/streetnode/1469","ENDSN_ID":"https://databrussels.be/id/streetnode/1192","STRNAMEFRE":"Rue de France","STRNAMEDUT":"Frankrijkstraat","SLOPE":0,"LENGTH":122.270205025851},"bbox":[147293.827,169159.417,147370.5,169254.66]},{"type":"Feature","id":"StreetAxes.fid-4dd17ab5_1a025577777_-5f5f","geometry":{"type":"LineString","coordinates":[[147203.658,169276.692],[147211.112,169270.651],[147219.156,169270.399],[147343.332,169266.514],[147356.166,169266.112],[147370.5,169254.66]]},"geometry_name":"GEOM","properties":{"INSPIRE_ID":"https://databrussels.be/id/streetaxe/72843","TYPE":"S","HIERARCHY":"DR","LVL":0,"STARTSN_ID":"https://databrussels.be/id/streetnode/865","ENDSN_ID":"https://databrussels.be/id/streetnode/1469","STRNAMEFRE":"Rue Charles Parenté","STRNAMEDUT":"Charles Parentéstraat","SLOPE":0.05,"LENGTH":173.066555629486},"bbox":[147203.658,169254.66,147370.5,169276.692]},{"type":"Feature","id":"StreetAxes.fid-4dd17ab5_1a025577777_-5f5d","geometry":{"type":"LineString","coordinates":[[147482.20155402,169058.28482994],[147377.3385,169110.2035],[147342.20648723,169137.46513208],[147293.827,169159.417]]},"geometry_name":"GEOM","properties":{"INSPIRE_ID":"https://databrussels.be/id/streetaxe/74215","TYPE":"S","HIERARCHY":"IDR","LVL":0,"STARTSN_ID":"https://databrussels.be/id/streetnode/7662","ENDSN_ID":"https://databrussels.be/id/streetnode/1192","STRNAMEFRE":"Rue des Vétérinaires","STRNAMEDUT":"Veeartsenstraat","SLOPE":0.39,"LENGTH":214.607407132134},"bbox":[147293.827,169058.28482994,147482.20155402,169159.417]},{"type":"Feature","id":"StreetAxes.fid-4dd17ab5_1a025577777_-5f5b","geometry":{"type":"LineString","coordinates":[[147437.16619567,169528.27879501],[147470.39887331,169502.39891728],[147489.65948847,169486.72785186],[147508.59153365,169471.54462555]]},"geometry_name":"GEOM","properties":{"INSPIRE_ID":"https://databrussels.be/id/streetaxe/75349","TYPE":"S","HIERARCHY":"MER","LVL":0,"STARTSN_ID":"https://databrussels.be/id/streetnode/7649","ENDSN_ID":"https://databrussels.be/id/streetnode/7967","STRNAMEFRE":"Rue de l'Instruction","STRNAMEDUT":"Onderwijsstraat","SLOPE":0.72,"LENGTH":91.2198482301681},"bbox":[147437.16619567,169471.54462555,147508.59153365,169528.27879501]},{"type":"Feature","id":"StreetAxes.fid-4dd17ab5_1a025577777_-5f72","geometry":{"type":"LineString","coordinates":[[147030.972,169528.135],[147015.915,169507.574],[146957.636,169427.892],[146950.248,169419.734]]},"geometry_name":"GEOM","properties":{"INSPIRE_ID":"https://databrussels.be/id/streetaxe/76008","TYPE":"S","HIERARCHY":"DR","LVL":0,"STARTSN_ID":"https://databrussels.be/id/streetnode/1748","ENDSN_ID":"https://databrussels.be/id/streetnode/11585","STRNAMEFRE":"Rue Georges Moreau","STRNAMEDUT":"Georges Moreaustraat","SLOPE":0.24,"LENGTH":135.210943613784},"bbox":[146950.248,169419.734,147030.972,169528.135]},{"type":"Feature","id":"StreetAxes.fid-4dd17ab5_1a025577777_-5f64","geometry":{"type":"LineString","coordinates":[[147293.827,169159.417],[147248.132,169149.32],[147102.734,169117.259],[147085.015,169113.43]]},"geometry_name":"GEOM","properties":{"INSPIRE_ID":"https://databrussels.be/id/streetaxe/76076","TYPE":"S","HIERARCHY":"MER","LVL":0,"STARTSN_ID":"https://databrussels.be/id/streetnode/1192","ENDSN_ID":"https://databrussels.be/id/streetnode/8950","STRNAMEFRE":"Rue des Deux Gares","STRNAMEDUT":"Tweestationsstraat","SLOPE":0.01,"LENGTH":213.816096185927},"bbox":[147085.015,169113.43,147293.827,169159.417]},{"type":"Feature","id":"StreetAxes.fid-4dd17ab5_1a025577777_-5f4c","geometry":{"type":"LineString","coordinates":[[147502.89843506,168954.89499941],[147501.43109361,168965.42033376],[147493.06517622,169026.02285958],[147483.93861824,169038.0690159]]},"geometry_name":"GEOM","properties":{"INSPIRE_ID":"https://databrussels.be/id/streetaxe/76469","TYPE":"S","HIERARCHY":"IDR","LVL":0,"STARTSN_ID":"https://databrussels.be/id/streetnode/6750","ENDSN_ID":"https://databrussels.be/id/streetnode/7060","STRNAMEFRE":"Avenue du Roi","STRNAMEDUT":"Koningslaan","SLOPE":1.24,"LENGTH":86.917402470407},"bbox":[147483.93861824,168954.89499941,147502.89843506,169038.0690159]},{"type":"Feature","id":"StreetAxes.fid-4dd17ab5_1a025577777_-5f67","geometry":{"type":"LineString","coordinates":[[147172.03896438,169512.04223723],[147036.46967867,169365.06221521]]},"geometry_name":"GEOM","properties":{"INSPIRE_ID":"https://databrussels.be/id/streetaxe/76480","TYPE":"S","HIERARCHY":"DR","LVL":0,"STARTSN_ID":"https://databrussels.be/id/streetnode/9079","ENDSN_ID":"https://databrussels.be/id/streetnode/8791","STRNAMEFRE":"Boulevard de la Révision","STRNAMEDUT":"Herzieningslaan","SLOPE":0.49,"LENGTH":199.955390276611},"bbox":[147036.46967867,169365.06221521,147172.03896438,169512.04223723]},{"type":"Feature","id":"StreetAxes.fid-4dd17ab5_1a025577777_-5f63","geometry":{"type":"LineString","coordinates":[[147203.658,169276.692],[147196.24,169267.541],[147173.116,169239.126],[147161.312,169224.622]]},"geometry_name":"GEOM","properties":{"INSPIRE_ID":"https://databrussels.be/id/streetaxe/76593","TYPE":"S","HIERARCHY":"MER","LVL":0,"STARTSN_ID":"https://databrussels.be/id/streetnode/865","ENDSN_ID":"https://databrussels.be/id/streetnode/14702","STRNAMEFRE":"Rue Bara","STRNAMEDUT":"Barastraat","SLOPE":0.52,"LENGTH":67.1153561058546},"bbox":[147161.312,169224.622,147203.658,169276.692]},{"type":"Feature","id":"StreetAxes.fid-4dd17ab5_1a025577777_-5f62","geometry":{"type":"LineString","coordinates":[[147161.312,169224.622],[147172.76,169218.625],[147251.866,169178.186],[147293.827,169159.417]]},"geometry_name":"GEOM","properties":{"INSPIRE_ID":"https://databrussels.be/id/streetaxe/76594","TYPE":"S","HIERARCHY":"IDR","LVL":0,"STARTSN_ID":"https://databrussels.be/id/streetnode/14702","ENDSN_ID":"https://databrussels.be/id/streetnode/1192","STRNAMEFRE":"Rue des Vétérinaires","STRNAMEDUT":"Veeartsenstraat","SLOPE":0.18,"LENGTH":147.734001038549},"bbox":[147161.312,169159.417,147293.827,169224.622]},{"type":"Feature","id":"StreetAxes.fid-4dd17ab5_1a025577777_-5f70","geometry":{"type":"LineString","coordinates":[[147003.642,169117.954],[147007.602785,169113.13116599],[147009.17931907,169105.32891011],[147010.97153823,169097.14309898]]},"geometry_name":"GEOM","properties":{"INSPIRE_ID":"https://databrussels.be/id/streetaxe/77071","TYPE":"S","HIERARCHY":"DR","LVL":0,"STARTSN_ID":"https://databrussels.be/id/streetnode/10441","ENDSN_ID":"https://databrussels.be/id/streetnode/10346","STRNAMEFRE":"Rue Docteur Kuborn","STRNAMEDUT":"Dokter Kubornstraat","SLOPE":0.58,"LENGTH":22.5804484336761},"bbox":[147003.642,169097.14309898,147010.97153823,169117.954]},{"type":"Feature","id":"StreetAxes.fid-4dd17ab5_1a025577777_-5f6f","geometry":{"type":"LineString","coordinates":[[147003.642,169117.954],[147012.7698906,169117.81338073],[147033.37641386,169111.05705291],[147035.21478998,169102.66042368]]},"geometry_name":"GEOM","properties":{"INSPIRE_ID":"https://databrussels.be/id/streetaxe/77072","TYPE":"S","HIERARCHY":"MER","LVL":0,"STARTSN_ID":"https://databrussels.be/id/streetnode/10441","ENDSN_ID":"https://databrussels.be/id/streetnode/10342","STRNAMEFRE":"Rue Docteur Kuborn","STRNAMEDUT":"Dokter Kubornstraat","SLOPE":0.48,"LENGTH":39.4103618959252},"bbox":[147003.642,169102.66042368,147035.21478998,169117.954]},{"type":"Feature","id":"StreetAxes.fid-4dd17ab5_1a025577777_-5f65","geometry":{"type":"LineString","coordinates":[[147161.312,169224.622],[147153.94,169215.2],[147090.966,169137.032],[147082.252,169126.216],[147085.015,169113.43]]},"geometry_name":"GEOM","properties":{"INSPIRE_ID":"https://databrussels.be/id/streetaxe/77119","TYPE":"S","HIERARCHY":"MER","LVL":0,"STARTSN_ID":"https://databrussels.be/id/streetnode/14702","ENDSN_ID":"https://databrussels.be/id/streetnode/8950","STRNAMEFRE":"Rue Bara","STRNAMEDUT":"Barastraat","SLOPE":0.2,"LENGTH":139.313064684333},"bbox":[147082.252,169113.43,147161.312,169224.622]},{"type":"Feature","id":"StreetAxes.fid-4dd17ab5_1a025577777_-5f66","geometry":{"type":"LineString","coordinates":[[147184.83517851,169500.46388604],[147057.97827315,169362.91014302],[147049.85303146,169354.36267513]]},"geometry_name":"GEOM","properties":{"INSPIRE_ID":"https://databrussels.be/id/streetaxe/77462","TYPE":"S","HIERARCHY":"DR","LVL":0,"STARTSN_ID":"https://databrussels.be/id/streetnode/8384","ENDSN_ID":"https://databrussels.be/id/streetnode/8795","STRNAMEFRE":"Boulevard de la Révision","STRNAMEDUT":"Herzieningslaan","SLOPE":0.49,"LENGTH":198.912664139907},"bbox":[147049.85303146,169354.36267513,147184.83517851,169500.46388604]},{"type":"Feature","id":"StreetAxes.fid-4dd17ab5_1a025577777_-5f59","geometry":{"type":"LineString","coordinates":[[147482.20155402,169058.28482994],[147488.73047277,169065.81656503],[147527.42639172,169113.75917],[147544.41802917,169132.53937797],[147570.83456013,169165.2683412],[147608.83265438,169212.10160571]]},"geometry_name":"GEOM","properties":{"INSPIRE_ID":"https://databrussels.be/id/streetaxe/77696","TYPE":"S","HIERARCHY":"MAR","LVL":0,"STARTSN_ID":"https://databrussels.be/id/streetnode/7662","ENDSN_ID":"https://databrussels.be/id/streetnode/7980","STRNAMEFRE":"Avenue Fonsny","STRNAMEDUT":"Fonsnylaan","SLOPE":0.03,"LENGTH":199.27334460138},"bbox":[147482.20155402,169058.28482994,147608.83265438,169212.10160571]},{"type":"Feature","id":"StreetAxes.fid-4dd17ab5_1a025577777_-5f6a","geometry":{"type":"LineString","coordinates":[[147036.46967867,169365.06221521],[147035.61693051,169359.74238348],[147036.40102961,169356.85621878],[147039.40186188,169354.03811571],[147043.40308319,169352.77908663],[147049.85303146,169354.36267513]]},"geometry_name":"GEOM","properties":{"INSPIRE_ID":"https://databrussels.be/id/streetaxe/77868","TYPE":"S","HIERARCHY":"DR","LVL":0,"STARTSN_ID":"https://databrussels.be/id/streetnode/8791","ENDSN_ID":"https://databrussels.be/id/streetnode/8795","STRNAMEFRE":"Boulevard de la Révision","STRNAMEDUT":"Herzieningslaan","SLOPE":0.13,"LENGTH":23.3312954423112},"bbox":[147035.61693051,169352.77908663,147049.85303146,169365.06221521]},{"type":"Feature","id":"StreetAxes.fid-4dd17ab5_1a025577777_-5f60","geometry":{"type":"LineString","coordinates":[[147418.43882116,169541.313742],[147413.78669141,169537.16480147],[147211.075,169285.844],[147203.658,169276.692]]},"geometry_name":"GEOM","properties":{"INSPIRE_ID":"https://databrussels.be/id/streetaxe/78030","TYPE":"S","HIERARCHY":"MER","LVL":0,"STARTSN_ID":"https://databrussels.be/id/streetnode/7277","ENDSN_ID":"https://databrussels.be/id/streetnode/865","STRNAMEFRE":"Rue Bara","STRNAMEDUT":"Barastraat","SLOPE":0.37,"LENGTH":340.897720849304},"bbox":[147203.658,169276.692,147418.43882116,169541.313742]},{"type":"Feature","id":"StreetAxes.fid-4dd17ab5_1a025577777_-5f68","geometry":{"type":"LineString","coordinates":[[147036.40117797,169340.21179934],[147051.33,169326.407],[147085.075,169295.177],[147144.404,169240.27],[147161.312,169224.622]]},"geometry_name":"GEOM","properties":{"INSPIRE_ID":"https://databrussels.be/id/streetaxe/78380","TYPE":"S","HIERARCHY":"IDR","LVL":0,"STARTSN_ID":"https://databrussels.be/id/streetnode/8378","ENDSN_ID":"https://databrussels.be/id/streetnode/14702","STRNAMEFRE":"Rue des Vétérinaires","STRNAMEDUT":"Veeartsenstraat","SLOPE":0.33,"LENGTH":170.18729590123},"bbox":[147036.40117797,169224.622,147161.312,169340.21179934]},{"type":"Feature","id":"StreetAxes.fid-4dd17ab5_1a025577777_-5f69","geometry":{"type":"LineString","coordinates":[[147036.40117797,169340.21179934],[147049.85303146,169354.36267513]]},"geometry_name":"GEOM","properties":{"INSPIRE_ID":"https://databrussels.be/id/streetaxe/78381","TYPE":"S","HIERARCHY":"DR","LVL":0,"STARTSN_ID":"https://databrussels.be/id/streetnode/8378","ENDSN_ID":"https://databrussels.be/id/streetnode/8795","STRNAMEFRE":"Boulevard de la Révision","STRNAMEDUT":"Herzieningslaan","SLOPE":0.92,"LENGTH":19.5243347650947},"bbox":[147036.40117797,169340.21179934,147049.85303146,169354.36267513]},{"type":"Feature","id":"StreetAxes.fid-4dd17ab5_1a025577777_-5f50","geometry":{"type":"LineString","coordinates":[[147483.93861824,169038.0690159],[147481.60831905,169034.8162695],[147475.22398276,169027.57840379],[147440.28383496,168984.43075415],[147432.3413179,168976.08526297],[147334.03052803,168854.76186748],[147324.48326351,168841.30236743],[147286.52215038,168794.53545442]]},"geometry_name":"GEOM","properties":{"INSPIRE_ID":"https://databrussels.be/id/streetaxe/78480","TYPE":"S","HIERARCHY":"MAR","LVL":0,"STARTSN_ID":"https://databrussels.be/id/streetnode/7060","ENDSN_ID":"https://databrussels.be/id/streetnode/7083","STRNAMEFRE":"Avenue Fonsny","STRNAMEDUT":"Fonsnylaan","SLOPE":0.05,"LENGTH":313.585236987599},"bbox":[147286.52215038,168794.53545442,147483.93861824,169038.0690159]},{"type":"Feature","id":"StreetAxes.fid-4dd17ab5_1a025577777_-5f6c","geometry":{"type":"LineString","coordinates":[[147036.46967867,169365.06221521],[147029.70565385,169357.72783377],[147023.97665084,169351.70112451]]},"geometry_name":"GEOM","properties":{"INSPIRE_ID":"https://databrussels.be/id/streetaxe/78642","TYPE":"S","HIERARCHY":"DR","LVL":0,"STARTSN_ID":"https://databrussels.be/id/streetnode/8791","ENDSN_ID":"https://databrussels.be/id/streetnode/8785","STRNAMEFRE":"Boulevard de la Révision","STRNAMEDUT":"Herzieningslaan","SLOPE":0.77,"LENGTH":18.2924421782272},"bbox":[147023.97665084,169351.70112451,147036.46967867,169365.06221521]},{"type":"Feature","id":"StreetAxes.fid-4dd17ab5_1a025577777_-5f73","geometry":{"type":"LineString","coordinates":[[147010.97153823,169097.14309898],[146917.41576955,169075.16373903],[146879.16269904,169067.46230587]]},"geometry_name":"GEOM","properties":{"INSPIRE_ID":"https://databrussels.be/id/streetaxe/79090","TYPE":"S","HIERARCHY":"MER","LVL":0,"STARTSN_ID":"https://databrussels.be/id/streetnode/10346","ENDSN_ID":"https://databrussels.be/id/streetnode/10118","STRNAMEFRE":"Rue des Deux Gares","STRNAMEDUT":"Tweestationsstraat","SLOPE":0.04,"LENGTH":135.123563865446},"bbox":[146879.16269904,169067.46230587,147010.97153823,169097.14309898]},{"type":"Feature","id":"StreetAxes.fid-4dd17ab5_1a025577777_-5f6e","geometry":{"type":"LineString","coordinates":[[147010.97153823,169097.14309898],[147035.21478998,169102.66042368]]},"geometry_name":"GEOM","properties":{"INSPIRE_ID":"https://databrussels.be/id/streetaxe/79091","TYPE":"S","HIERARCHY":"MER","LVL":0,"STARTSN_ID":"https://databrussels.be/id/streetnode/10346","ENDSN_ID":"https://databrussels.be/id/streetnode/10342","STRNAMEFRE":"Rue des Deux Gares","STRNAMEDUT":"Tweestationsstraat","SLOPE":0.24,"LENGTH":24.8631479751138},"bbox":[147010.97153823,169097.14309898,147035.21478998,169102.66042368]},{"type":"Feature","id":"StreetAxes.fid-4dd17ab5_1a025577777_-5f61","geometry":{"type":"LineString","coordinates":[[147187.154,169403.269],[147210.459,169436.793],[147229.632,169458.023],[147238.044,169460.755],[147249.979,169461.234],[147268.695,169482.634],[147272.062,169490.884],[147270.601,169512.5],[147269.437,169537.602]]},"geometry_name":"GEOM","properties":{"INSPIRE_ID":"https://databrussels.be/id/streetaxe/79378","TYPE":"S","HIERARCHY":null,"LVL":0,"STARTSN_ID":"https://databrussels.be/id/streetnode/4224","ENDSN_ID":"https://databrussels.be/id/streetnode/4223","STRNAMEFRE":"Clos Mudra","STRNAMEDUT":"Mudrahoek","SLOPE":0.58,"LENGTH":174.358681020042},"bbox":[147187.154,169403.269,147272.062,169537.602]},{"type":"Feature","id":"StreetAxes.fid-4dd17ab5_1a025577777_-5f6b","geometry":{"type":"LineString","coordinates":[[147085.015,169113.43],[147067.296,169109.602],[147042.056,169104.172],[147035.21478998,169102.66042368]]},"geometry_name":"GEOM","properties":{"INSPIRE_ID":"https://databrussels.be/id/streetaxe/81998","TYPE":"S","HIERARCHY":"MER","LVL":0,"STARTSN_ID":"https://databrussels.be/id/streetnode/8950","ENDSN_ID":"https://databrussels.be/id/streetnode/10342","STRNAMEFRE":"Rue des Deux Gares","STRNAMEDUT":"Tweestationsstraat","SLOPE":0.04,"LENGTH":50.9514809532973},"bbox":[147035.21478998,169102.66042368,147085.015,169113.43]},{"type":"Feature","id":"StreetAxes.fid-4dd17ab5_1a025577777_-5f74","geometry":{"type":"LineString","coordinates":[[146831.19152459,169176.22361934],[146846.775,169170.91],[146940.481,169139.276],[147003.642,169117.954]]},"geometry_name":"GEOM","properties":{"INSPIRE_ID":"https://databrussels.be/id/streetaxe/82457","TYPE":"S","HIERARCHY":"DR","LVL":0,"STARTSN_ID":"https://databrussels.be/id/streetnode/10116","ENDSN_ID":"https://databrussels.be/id/streetnode/10441","STRNAMEFRE":"Rue Docteur Kuborn","STRNAMEDUT":"Dokter Kubornstraat","SLOPE":0.51,"LENGTH":182.028954393494},"bbox":[146831.19152459,169117.954,147003.642,169176.22361934]},{"type":"Feature","id":"StreetAxes.fid-4dd17ab5_1a025577777_-5f71","geometry":{"type":"LineString","coordinates":[[146950.248,169419.734],[146957.896,169412.672],[147008.883,169365.659],[147023.97665084,169351.70112451]]},"geometry_name":"GEOM","properties":{"INSPIRE_ID":"https://databrussels.be/id/streetaxe/84112","TYPE":"S","HIERARCHY":"IDR","LVL":0,"STARTSN_ID":"https://databrussels.be/id/streetnode/11585","ENDSN_ID":"https://databrussels.be/id/streetnode/8785","STRNAMEFRE":"Rue des Vétérinaires","STRNAMEDUT":"Veeartsenstraat","SLOPE":0.65,"LENGTH":100.321431402513},"bbox":[146950.248,169351.70112451,147023.97665084,169419.734]},{"type":"Feature","id":"StreetAxes.fid-4dd17ab5_1a025577777_-5f5c","geometry":{"type":"LineString","coordinates":[[147370.5,169254.66],[147378.89,169265.162],[147434.49266576,169333.83894186],[147511.87786527,169429.57168926],[147518.08510789,169438.44848114],[147519.58720522,169443.16334895],[147519.85776887,169451.2305284],[147518.55906334,169457.07787995],[147516.3404414,169462.16724148],[147513.3101285,169466.82346585],[147508.59153365,169471.54462555]]},"geometry_name":"GEOM","properties":{"INSPIRE_ID":"https://databrussels.be/id/streetaxe/86665","TYPE":"S","HIERARCHY":"MER","LVL":0,"STARTSN_ID":"https://databrussels.be/id/streetnode/1469","ENDSN_ID":"https://databrussels.be/id/streetnode/7967","STRNAMEFRE":"Rue de France","STRNAMEDUT":"Frankrijkstraat","SLOPE":0.23,"LENGTH":272.528222029152},"bbox":[147370.5,169254.66,147519.85776887,169471.54462555]},{"type":"Feature","id":"StreetAxes.fid-4dd17ab5_1a025577777_-5f4a","geometry":{"type":"LineString","coordinates":[[147498.80003195,169025.10340151],[147498.6707382,169031.26885575],[147499.16298453,169035.67973378],[147500.2074826,169038.57339231],[147501.17315062,169040.34803808],[147502.45413882,169042.26071186],[147504.34888331,169044.21097045]]},"geometry_name":"GEOM","properties":{"INSPIRE_ID":"https://databrussels.be/id/streetaxe/87258","TYPE":"C","HIERARCHY":"IDR","LVL":0,"STARTSN_ID":"https://databrussels.be/id/streetnode/7075","ENDSN_ID":"https://databrussels.be/id/streetnode/6755","STRNAMEFRE":"Avenue du Roi","STRNAMEDUT":"Koningslaan","SLOPE":0.87,"LENGTH":20.7229579397727},"bbox":[147498.6707382,169025.10340151,147504.34888331,169044.21097045]},{"type":"Feature","id":"StreetAxes.fid-4dd17ab5_1a025577777_-5f4d","geometry":{"type":"LineString","coordinates":[[147512.65847604,168916.18163959],[147513.16397694,168921.55087888],[147512.93290791,168924.83480049],[147512.20839277,168930.99417444],[147510.30260449,168942.80566453],[147505.81086237,168974.68693192],[147503.91047727,168987.79548614],[147502.56068165,168999.91365123],[147499.33515542,169021.32486827],[147498.80003195,169025.10340151]]},"geometry_name":"GEOM","properties":{"INSPIRE_ID":"https://databrussels.be/id/streetaxe/87264","TYPE":"C","HIERARCHY":"IDR","LVL":0,"STARTSN_ID":"https://databrussels.be/id/streetnode/7081","ENDSN_ID":"https://databrussels.be/id/streetnode/7075","STRNAMEFRE":"Avenue du Roi","STRNAMEDUT":"Koningslaan","SLOPE":1.16,"LENGTH":109.954994276186},"bbox":[147498.80003195,168916.18163959,147513.16397694,169025.10340151]},{"type":"Feature","id":"StreetAxes.fid-4dd17ab5_1a025577777_-5f57","geometry":{"type":"LineString","coordinates":[[147483.93861824,169038.0690159],[147490.92902439,169056.9986614]]},"geometry_name":"GEOM","properties":{"INSPIRE_ID":"https://databrussels.be/id/streetaxe/87267","TYPE":"IC","HIERARCHY":"MAR","LVL":0,"STARTSN_ID":"https://databrussels.be/id/streetnode/7060","ENDSN_ID":"https://databrussels.be/id/streetnode/7647","STRNAMEFRE":"Avenue Fonsny","STRNAMEDUT":"Fonsnylaan","SLOPE":0.69,"LENGTH":20.1791292414929},"bbox":[147483.93861824,169038.0690159,147490.92902439,169056.9986614]},{"type":"Feature","id":"StreetAxes.fid-4dd17ab5_1a025577777_-5f53","geometry":{"type":"LineString","coordinates":[[147494.76339811,169053.1787769],[147498.5645516,169058.4846142]]},"geometry_name":"GEOM","properties":{"INSPIRE_ID":"https://databrussels.be/id/streetaxe/88576","TYPE":"IC","HIERARCHY":"MAR","LVL":0,"STARTSN_ID":"https://databrussels.be/id/streetnode/6744","ENDSN_ID":"https://databrussels.be/id/streetnode/7965","STRNAMEFRE":"Avenue Fonsny","STRNAMEDUT":"Fonsnylaan","SLOPE":0.92,"LENGTH":6.52691943379852},"bbox":[147494.76339811,169053.1787769,147498.5645516,169058.4846142]},{"type":"Feature","id":"StreetAxes.fid-4dd17ab5_1a025577777_-5f58","geometry":{"type":"LineString","coordinates":[[147482.20155402,169058.28482994],[147490.92902439,169056.9986614]]},"geometry_name":"GEOM","properties":{"INSPIRE_ID":"https://databrussels.be/id/streetaxe/88579","TYPE":"IC","HIERARCHY":"MAR","LVL":0,"STARTSN_ID":"https://databrussels.be/id/streetnode/7662","ENDSN_ID":"https://databrussels.be/id/streetnode/7647","STRNAMEFRE":"Avenue Fonsny","STRNAMEDUT":"Fonsnylaan","SLOPE":0.79,"LENGTH":8.82173273853033},"bbox":[147482.20155402,169056.9986614,147490.92902439,169058.28482994]},{"type":"Feature","id":"StreetAxes.fid-4dd17ab5_1a025577777_-5f49","geometry":{"type":"LineString","coordinates":[[147494.76339811,169053.1787769],[147496.57910784,169040.57392802],[147498.80003195,169025.10340151]]},"geometry_name":"GEOM","properties":{"INSPIRE_ID":"https://databrussels.be/id/streetaxe/88581","TYPE":"IC","HIERARCHY":"IDR","LVL":0,"STARTSN_ID":"https://databrussels.be/id/streetnode/6744","ENDSN_ID":"https://databrussels.be/id/streetnode/7075","STRNAMEFRE":"Avenue du Roi","STRNAMEDUT":"Koningslaan","SLOPE":1.16,"LENGTH":28.3640822526485},"bbox":[147494.76339811,169025.10340151,147498.80003195,169053.1787769]},{"type":"Feature","id":"StreetAxes.fid-4dd17ab5_1a025577777_-5f56","geometry":{"type":"LineString","coordinates":[[147483.93861824,169038.0690159],[147494.76339811,169053.1787769]]},"geometry_name":"GEOM","properties":{"INSPIRE_ID":"https://databrussels.be/id/streetaxe/88733","TYPE":"IC","HIERARCHY":"MAR","LVL":0,"STARTSN_ID":"https://databrussels.be/id/streetnode/7060","ENDSN_ID":"https://databrussels.be/id/streetnode/6744","STRNAMEFRE":"Avenue Fonsny","STRNAMEDUT":"Fonsnylaan","SLOPE":0.22,"LENGTH":18.5871121141757},"bbox":[147483.93861824,169038.0690159,147494.76339811,169053.1787769]},{"type":"Feature","id":"StreetAxes.fid-4dd17ab5_1a025577777_-5f48","geometry":{"type":"LineString","coordinates":[[147473.54700841,169036.85410988],[147476.46485225,169037.80230879],[147481.13372242,169038.36622634],[147483.93861824,169038.0690159]]},"geometry_name":"GEOM","properties":{"INSPIRE_ID":"https://databrussels.be/id/streetaxe/88824","TYPE":"IC","HIERARCHY":"MAR","LVL":0,"STARTSN_ID":"https://databrussels.be/id/streetnode/6761","ENDSN_ID":"https://databrussels.be/id/streetnode/7060","STRNAMEFRE":"Avenue Fonsny","STRNAMEDUT":"Fonsnylaan","SLOPE":1.23,"LENGTH":10.5914447818684},"bbox":[147473.54700841,169036.85410988,147483.93861824,169038.36622634]},{"type":"Feature","id":"StreetAxes.fid-4dd17ab5_1a025577777_-5f52","geometry":{"type":"LineString","coordinates":[[147498.5645516,169058.4846142],[147504.34888331,169044.21097045]]},"geometry_name":"GEOM","properties":{"INSPIRE_ID":"https://databrussels.be/id/streetaxe/88829","TYPE":"IC","HIERARCHY":"MAR","LVL":0,"STARTSN_ID":"https://databrussels.be/id/streetnode/7965","ENDSN_ID":"https://databrussels.be/id/streetnode/6755","STRNAMEFRE":"Avenue Fonsny","STRNAMEDUT":"Fonsnylaan","SLOPE":1.36,"LENGTH":15.4011492834451},"bbox":[147498.5645516,169044.21097045,147504.34888331,169058.4846142]},{"type":"Feature","id":"StreetAxes.fid-4dd17ab5_1a025577777_-5f5a","geometry":{"type":"LineString","coordinates":[[147473.54700841,169036.85410988],[147477.39458806,169041.23326542],[147490.92902439,169056.9986614]]},"geometry_name":"GEOM","properties":{"INSPIRE_ID":"https://databrussels.be/id/streetaxe/88985","TYPE":"IC","HIERARCHY":"MAR","LVL":0,"STARTSN_ID":"https://databrussels.be/id/streetnode/6761","ENDSN_ID":"https://databrussels.be/id/streetnode/7647","STRNAMEFRE":"Avenue Fonsny","STRNAMEDUT":"Fonsnylaan","SLOPE":0.04,"LENGTH":26.6073931428489},"bbox":[147473.54700841,169036.85410988,147490.92902439,169056.9986614]},{"type":"Feature","id":"StreetAxes.fid-4dd17ab5_1a025577777_-5f4b","geometry":{"type":"LineString","coordinates":[[147483.93861824,169038.0690159],[147485.14683607,169037.86179028],[147489.06673977,169036.54942761],[147493.03675412,169033.97381598],[147495.98284,169030.31507627],[147498.80003195,169025.10340151]]},"geometry_name":"GEOM","properties":{"INSPIRE_ID":"https://databrussels.be/id/streetaxe/88987","TYPE":"IC","HIERARCHY":"MAR","LVL":0,"STARTSN_ID":"https://databrussels.be/id/streetnode/7060","ENDSN_ID":"https://databrussels.be/id/streetnode/7075","STRNAMEFRE":"Avenue Fonsny","STRNAMEDUT":"Fonsnylaan","SLOPE":1.4,"LENGTH":20.7137212226073},"bbox":[147483.93861824,169025.10340151,147498.80003195,169038.0690159]},{"type":"Feature","id":"StreetAxes.fid-4dd17ab5_1a025577777_-5f55","geometry":{"type":"LineString","coordinates":[[147490.92902439,169056.9986614],[147494.76339811,169053.1787769]]},"geometry_name":"GEOM","properties":{"INSPIRE_ID":"https://databrussels.be/id/streetaxe/89321","TYPE":"IC","HIERARCHY":"MAR","LVL":0,"STARTSN_ID":"https://databrussels.be/id/streetnode/7647","ENDSN_ID":"https://databrussels.be/id/streetnode/6744","STRNAMEFRE":"Avenue Fonsny","STRNAMEDUT":"Fonsnylaan","SLOPE":1.85,"LENGTH":5.41238759504196},"bbox":[147490.92902439,169053.1787769,147494.76339811,169056.9986614]},{"type":"Feature","id":"StreetAxes.fid-4dd17ab5_1a025577777_-5f6d","geometry":{"type":"LineString","coordinates":[[147036.40117797,169340.21179934],[147023.97665084,169351.70112451]]},"geometry_name":"GEOM","properties":{"INSPIRE_ID":"https://databrussels.be/id/streetaxe/89499","TYPE":"I","HIERARCHY":"IDR","LVL":0,"STARTSN_ID":"https://databrussels.be/id/streetnode/8378","ENDSN_ID":"https://databrussels.be/id/streetnode/8785","STRNAMEFRE":"Boulevard de la Révision","STRNAMEDUT":"Herzieningslaan","SLOPE":0.41,"LENGTH":16.9225727118155},"bbox":[147023.97665084,169340.21179934,147036.40117797,169351.70112451]},{"type":"Feature","id":"StreetAxes.fid-4dd17ab5_1a025577777_-5f51","geometry":{"type":"LineString","coordinates":[[147507.04826619,169069.21931922],[147499.80968548,169060.22263341],[147498.5645516,169058.4846142]]},"geometry_name":"GEOM","properties":{"INSPIRE_ID":"https://databrussels.be/id/streetaxe/92033","TYPE":"IC","HIERARCHY":"MAR","LVL":0,"STARTSN_ID":"https://databrussels.be/id/streetnode/7261","ENDSN_ID":"https://databrussels.be/id/streetnode/7965","STRNAMEFRE":"Avenue Fonsny","STRNAMEDUT":"Fonsnylaan","SLOPE":0.15,"LENGTH":13.6851876268608},"bbox":[147498.5645516,169058.4846142,147507.04826619,169069.21931922]},{"type":"Feature","id":"StreetAxes.fid-4dd17ab5_1a025577777_-5f54","geometry":{"type":"LineString","coordinates":[[147504.20442005,169073.22531728],[147495.58658894,169062.38897052],[147490.92902439,169056.9986614]]},"geometry_name":"GEOM","properties":{"INSPIRE_ID":"https://databrussels.be/id/streetaxe/92473","TYPE":"C","HIERARCHY":"MAR","LVL":0,"STARTSN_ID":"https://databrussels.be/id/streetnode/7275","ENDSN_ID":"https://databrussels.be/id/streetnode/7647","STRNAMEFRE":"Avenue Fonsny","STRNAMEDUT":"Fonsnylaan","SLOPE":0.33,"LENGTH":20.9691263519688},"bbox":[147490.92902439,169056.9986614,147504.20442005,169073.22531728]}],"numberReturned":45,"grand_bruxelles_source":{"authority":"Paradigm / Brussels-Capital Region","service":"https://geoservices-urbis.irisnet.be/geoserver/urbisvector/wfs","layer":"urbisvector:StreetAxes","crs":"EPSG:31370","bbox":[147000.0,169000.0,147500.0,169500.0],"cell_id":"bxl-e147000-n169000-s500","ownership":"bbox_intersection_source_unclipped"}}
