{"type":"FeatureCollection","totalFeatures":10,"numberMatched":10,"timeStamp":"2026-08-23T00:57:30.713Z","crs":{"type":"name","properties":{"name":"urn:ogc:def:crs:EPSG::31370"}},"bbox":[145459.80883824,165240.27588325,146209.496,165808.98244706],"features":[{"type":"Feature","id":"StreetAxes.fid--1290087_1a02c00fa75_-274c","geometry":{"type":"LineString","coordinates":[[146209.496,165565.014],[146200.157,165567.952],[146186.52,165573.34],[146170.94,165581.585],[146147.755,165596.465],[146110.274,165625.57],[146096.915,165632.425],[146078.86,165637.005],[146064.595,165636.58],[146046.915,165631.345],[145950.868,165585.592],[145941.19,165578.99],[145935.335,165569.495],[145934.028,165563.982],[145934.485,165556.415],[145938.525,165543.89],[145964.645,165488.685],[145970.945,165473.45]]},"geometry_name":"GEOM","properties":{"INSPIRE_ID":"https://databrussels.be/id/streetaxe/70513","TYPE":"S","HIERARCHY":null,"LVL":0,"STARTSN_ID":"https://databrussels.be/id/streetnode/3337","ENDSN_ID":"https://databrussels.be/id/streetnode/824","STRNAMEFRE":"Rue de Lusambo","STRNAMEDUT":"Lusambostraat","SLOPE":0.15,"LENGTH":416.659919519436},"bbox":[145934.028,165473.45,146209.496,165637.005]},{"type":"Feature","id":"StreetAxes.fid--1290087_1a02c00fa75_-2753","geometry":{"type":"LineString","coordinates":[[146019.99983773,165306.62499562],[145989.658,165284.387],[145977.04,165276.506],[145963.48507857,165266.75591437]]},"geometry_name":"GEOM","properties":{"INSPIRE_ID":"https://databrussels.be/id/streetaxe/83025","TYPE":"S","HIERARCHY":"DC","LVL":0,"STARTSN_ID":"https://databrussels.be/id/streetnode/12017","ENDSN_ID":"https://databrussels.be/id/streetnode/3117","STRNAMEFRE":"Chaussée de Ruisbroek","STRNAMEDUT":"Ruisbroekse Steenweg","SLOPE":0.03,"LENGTH":69.1928255107909},"bbox":[145963.48507857,165266.75591437,146019.99983773,165306.62499562]},{"type":"Feature","id":"StreetAxes.fid--1290087_1a02c00fa75_-274d","geometry":{"type":"LineString","coordinates":[[145513.3865598,165382.61374294],[145516.84,165397.43],[145519.17,165409.91],[145519.98,165415.52],[145520.68,165421.16],[145521.26,165426.8],[145521.96,165440.06],[145522.23,165446.7],[145521.36,165464.79],[145520.66,165473.81],[145519.98,165480.11],[145519.18,165486.41],[145518.17,165492.67],[145517.18,165497.62],[145516.07,165502.54],[145514.87,165507.44],[145513.45,165512.78],[145502.22,165550.8],[145494.72210534,165576.18467989],[145485.693,165596.172]]},"geometry_name":"GEOM","properties":{"INSPIRE_ID":"https://databrussels.be/id/streetaxe/85190","TYPE":"S","HIERARCHY":"MAR","LVL":0,"STARTSN_ID":"https://databrussels.be/id/streetnode/14560","ENDSN_ID":"https://databrussels.be/id/streetnode/803","STRNAMEFRE":"Boulevard de l'Humanité","STRNAMEDUT":"Humaniteitslaan","SLOPE":0.76,"LENGTH":219.747224961694},"bbox":[145485.693,165382.61374294,145522.23,165596.172]},{"type":"Feature","id":"StreetAxes.fid--1290087_1a02c00fa75_-2752","geometry":{"type":"LineString","coordinates":[[145751.23824316,165308.59354217],[145759.169,165371.448]]},"geometry_name":"GEOM","properties":{"INSPIRE_ID":"https://databrussels.be/id/streetaxe/98991","TYPE":"S","HIERARCHY":"DR","LVL":0,"STARTSN_ID":"https://databrussels.be/id/streetnode/","ENDSN_ID":"https://databrussels.be/id/streetnode/","STRNAMEFRE":"Rue du Tanganika","STRNAMEDUT":"Tanganikastraat","SLOPE":0.14,"LENGTH":63.3528197692856},"bbox":[145751.23824316,165308.59354217,145759.169,165371.448]},{"type":"Feature","id":"StreetAxes.fid--1290087_1a02c00fa75_-2750","geometry":{"type":"LineString","coordinates":[[145586.31860078,165795.39857468],[145598.5955275,165772.86632747],[145613.94131785,165743.65938029],[145623.65763801,165723.14526395],[145633.11586423,165700.55287379],[145642.94925895,165671.97249246],[145646.6928013,165658.31456113],[145650.69976002,165637.9959169],[145652.40494703,165624.89014623],[145653.70481678,165604.26456958],[145653.44477199,165586.56432509],[145652.50923943,165574.14051399],[145649.00515171,165550.5260037],[145643.65441418,165530.70302186],[145636.10470327,165509.38132677],[145630.48954204,165496.76008698],[145621.11757529,165478.6684259],[145607.12786983,165456.14390296],[145585.89241942,165423.93585273],[145568.76786961,165394.57173421],[145556.52278767,165370.73157313],[145546.96689147,165350.62115799]]},"geometry_name":"GEOM","properties":{"INSPIRE_ID":"https://databrussels.be/id/streetaxe/98992","TYPE":"S","HIERARCHY":"H","LVL":0,"STARTSN_ID":"https://databrussels.be/id/streetnode/","ENDSN_ID":"https://databrussels.be/id/streetnode/","STRNAMEFRE":"Ring 0","STRNAMEDUT":"Ring 0","SLOPE":0.14,"LENGTH":484.350499508525},"bbox":[145546.96689147,165350.62115799,145653.70481678,165795.39857468]},{"type":"Feature","id":"StreetAxes.fid--1290087_1a02c00fa75_-274f","geometry":{"type":"LineString","coordinates":[[145508.28434909,165361.51543562],[145511.01,165372.69],[145513.3865598,165382.61374294]]},"geometry_name":"GEOM","properties":{"INSPIRE_ID":"https://databrussels.be/id/streetaxe/98993","TYPE":"S","HIERARCHY":"H","LVL":0,"STARTSN_ID":"https://databrussels.be/id/streetnode/","ENDSN_ID":"https://databrussels.be/id/streetnode/","STRNAMEFRE":"Boulevard de l'Humanité","STRNAMEDUT":"Humaniteitslaan","SLOPE":0.06,"LENGTH":21.7065240277697},"bbox":[145508.28434909,165361.51543562,145513.3865598,165382.61374294]},{"type":"Feature","id":"StreetAxes.fid--1290087_1a02c00fa75_-274e","geometry":{"type":"LineString","coordinates":[[145459.80883824,165467.12812326],[145473.28,165427.365],[145488.07264087,165395.60867936],[145491.695,165390.69],[145499.78,165385.95],[145513.3865598,165382.61374294]]},"geometry_name":"GEOM","properties":{"INSPIRE_ID":"https://databrussels.be/id/streetaxe/98996","TYPE":"S","HIERARCHY":"DR","LVL":0,"STARTSN_ID":"https://databrussels.be/id/streetnode/","ENDSN_ID":"https://databrussels.be/id/streetnode/","STRNAMEFRE":"Rue Emile Pathé","STRNAMEDUT":"Emile Pathéstraat","SLOPE":0.09,"LENGTH":106.505935677567},"bbox":[145459.80883824,165382.61374294,145513.3865598,165467.12812326]},{"type":"Feature","id":"StreetAxes.fid--1290087_1a02c00fa75_-2754","geometry":{"type":"LineString","coordinates":[[145963.48507857,165266.75591437],[145944.68710699,165272.5390742],[145908.50147846,165280.47991115],[145890.29011148,165283.62165128],[145878.01963982,165284.75007257],[145870.08987436,165284.32843734]]},"geometry_name":"GEOM","properties":{"INSPIRE_ID":"https://databrussels.be/id/streetaxe/98998","TYPE":"S","HIERARCHY":"DR","LVL":0,"STARTSN_ID":"https://databrussels.be/id/streetnode/","ENDSN_ID":"https://databrussels.be/id/streetnode/","STRNAMEFRE":"Chaussée de Ruisbroek","STRNAMEDUT":"Ruisbroekse Steenweg","SLOPE":0.36,"LENGTH":95.4577283436297},"bbox":[145870.08987436,165266.75591437,145963.48507857,165284.75007257]},{"type":"Feature","id":"StreetAxes.fid--1290087_1a02c00fa75_-2755","geometry":{"type":"LineString","coordinates":[[145963.48507857,165266.75591437],[145951.01115133,165255.9237301],[145935.22951704,165240.27588325]]},"geometry_name":"GEOM","properties":{"INSPIRE_ID":"https://databrussels.be/id/streetaxe/99001","TYPE":"S","HIERARCHY":"DC","LVL":0,"STARTSN_ID":"https://databrussels.be/id/streetnode/3117","ENDSN_ID":"https://databrussels.be/id/streetnode/80","STRNAMEFRE":"Avenue Maître Paul Gilson","STRNAMEDUT":"Meester Paul Gilsonlaan","SLOPE":0.39,"LENGTH":38.7449474433853},"bbox":[145935.22951704,165240.27588325,145963.48507857,165266.75591437]},{"type":"Feature","id":"StreetAxes.fid--1290087_1a02c00fa75_-2751","geometry":{"type":"LineString","coordinates":[[145601.73224429,165808.98244706],[145613.30856181,165787.05115147],[145632.26391571,165749.35591289],[145639.98130939,165733.29883113],[145649.55207814,165709.96192769],[145660.89238032,165677.45230259],[145666.20460494,165656.98723743],[145670.10651745,165634.36249684],[145672.07554714,165614.28846918],[145672.40503668,165589.57928228],[145670.53138361,165566.27126578],[145666.87166193,165545.28732874],[145658.12514968,165514.8507049],[145648.16091954,165490.39585101],[145635.94120288,165467.51809262],[145613.08479708,165428.83855249],[145590.61050808,165388.56967998],[145575.32456717,165357.85807423],[145569.95585107,165345.89821279]]},"geometry_name":"GEOM","properties":{"INSPIRE_ID":"https://databrussels.be/id/streetaxe/99007","TYPE":"S","HIERARCHY":"H","LVL":0,"STARTSN_ID":"https://databrussels.be/id/streetnode/","ENDSN_ID":"https://databrussels.be/id/streetnode/","STRNAMEFRE":"Ring 0","STRNAMEDUT":"Ring 0","SLOPE":0.14,"LENGTH":500.599903986289},"bbox":[145569.95585107,165345.89821279,145672.40503668,165808.98244706]}],"numberReturned":10,"grand_bruxelles_source":{"authority":"Paradigm / Brussels-Capital Region","service":"https://geoservices-urbis.irisnet.be/geoserver/urbisvector/wfs","layer":"urbisvector:StreetAxes","crs":"EPSG:31370","bbox":[145500.0,165000.0,146000.0,165500.0],"cell_id":"bxl-e145500-n165000-s500","ownership":"bbox_intersection_source_unclipped"}}
