{"type":"FeatureCollection","totalFeatures":57,"numberMatched":57,"timeStamp":"2026-08-24T03:41:54.232Z","crs":{"type":"name","properties":{"name":"urn:ogc:def:crs:EPSG::31370"}},"bbox":[156194.43117098,168587.085,157222.55028336,169775.58677785],"features":[{"type":"Feature","id":"StreetAxes.fid--324554a4_1a031387ba0_4dab","geometry":{"type":"LineString","coordinates":[[157222.55028336,168615.97785444],[157222.121,168615.804],[157213.302,168611.882],[157174.258,168599.365],[157146.686,168590.328],[157134.595,168587.085],[157124.055,168587.168],[157111.745,168590.185],[157099.008,168597.376],[157056.402,168621.22],[157014.99,168644.55],[156999.018,168655.505],[156980.56,168672.888],[156961.51,168693.88],[156941.245,168726.11],[156931.154,168755.898],[156926.062,168797.172],[156927.658,168837.128],[156928.42,168865.418],[156926.844,168882.931],[156921.956,168902.965],[156916.654,168920.46],[156908.265,168946.85],[156899.34,168976.01],[156884.328,169024.595],[156871.92,169064.73],[156872.974,169075.722],[156883.635,169087.26],[156921.845,169117.632],[156960.065,169147.48],[156971.029,169154.538]]},"geometry_name":"GEOM","properties":{"INSPIRE_ID":"https://databrussels.be/id/streetaxe/70538","TYPE":"S","HIERARCHY":null,"LVL":0,"STARTSN_ID":"https://databrussels.be/id/streetnode/2422","ENDSN_ID":"https://databrussels.be/id/streetnode/2523","STRNAMEFRE":"Corniche Verte","STRNAMEDUT":"Groene Corniche","SLOPE":0.27,"LENGTH":823.943332286182},"bbox":[156871.92,168587.085,157222.55028336,169154.538]},{"type":"Feature","id":"StreetAxes.fid--324554a4_1a031387ba0_4da8","geometry":{"type":"LineString","coordinates":[[156746.06,169055.227],[156749.593,169044.808],[156768.17,168984.751],[156772.138,168971.837]]},"geometry_name":"GEOM","properties":{"INSPIRE_ID":"https://databrussels.be/id/streetaxe/71141","TYPE":"S","HIERARCHY":"DR","LVL":0,"STARTSN_ID":"https://databrussels.be/id/streetnode/1120","ENDSN_ID":"https://databrussels.be/id/streetnode/3589","STRNAMEFRE":"Tir aux Pigeons","STRNAMEDUT":"Duivenschieting","SLOPE":1.82,"LENGTH":87.376097445743},"bbox":[156746.06,168971.837,156772.138,169055.227]},{"type":"Feature","id":"StreetAxes.fid--324554a4_1a031387ba0_4dbb","geometry":{"type":"LineString","coordinates":[[156548.457,168921.763],[156557.628,168928.031],[156734.594,169048.917],[156746.06,169055.227]]},"geometry_name":"GEOM","properties":{"INSPIRE_ID":"https://databrussels.be/id/streetaxe/71945","TYPE":"S","HIERARCHY":"DR","LVL":0,"STARTSN_ID":"https://databrussels.be/id/streetnode/2742","ENDSN_ID":"https://databrussels.be/id/streetnode/1120","STRNAMEFRE":"Avenue du Paddock","STRNAMEDUT":"Paddocklaan","SLOPE":1.88,"LENGTH":238.509698116253},"bbox":[156548.457,168921.763,156746.06,169055.227]},{"type":"Feature","id":"StreetAxes.fid--324554a4_1a031387ba0_4db3","geometry":{"type":"LineString","coordinates":[[156605.552,169347.759],[156609.21,169353.87],[156634.39,169397.43],[156637.906,169403.678]]},"geometry_name":"GEOM","properties":{"INSPIRE_ID":"https://databrussels.be/id/streetaxe/73538","TYPE":"S","HIERARCHY":"DR","LVL":0,"STARTSN_ID":"https://databrussels.be/id/streetnode/4357","ENDSN_ID":"https://databrussels.be/id/streetnode/1741","STRNAMEFRE":"Square du Manège","STRNAMEDUT":"Rijschoolplein","SLOPE":1.58,"LENGTH":64.6056047318043},"bbox":[156605.552,169347.759,156637.906,169403.678]},{"type":"Feature","id":"StreetAxes.fid--324554a4_1a031387ba0_4db1","geometry":{"type":"LineString","coordinates":[[156522.238,169469.906],[156529.37,169465.64],[156624.136,169410.036],[156637.906,169403.678]]},"geometry_name":"GEOM","properties":{"INSPIRE_ID":"https://databrussels.be/id/streetaxe/73539","TYPE":"S","HIERARCHY":"DR","LVL":0,"STARTSN_ID":"https://databrussels.be/id/streetnode/3360","ENDSN_ID":"https://databrussels.be/id/streetnode/1741","STRNAMEFRE":"Avenue des Alezans","STRNAMEDUT":"Vossenlaan","SLOPE":0.54,"LENGTH":133.351930834735},"bbox":[156522.238,169403.678,156637.906,169469.906]},{"type":"Feature","id":"StreetAxes.fid--324554a4_1a031387ba0_4dae","geometry":{"type":"LineString","coordinates":[[156488.875,169414.835],[156495.69,169410.765],[156513.855,169398.955],[156528.032,169390.512],[156556.642,169373.47],[156582.595,169358.04],[156592.214,169353.908],[156605.552,169347.759]]},"geometry_name":"GEOM","properties":{"INSPIRE_ID":"https://databrussels.be/id/streetaxe/73540","TYPE":"S","HIERARCHY":"DR","LVL":0,"STARTSN_ID":"https://databrussels.be/id/streetnode/2172","ENDSN_ID":"https://databrussels.be/id/streetnode/4357","STRNAMEFRE":"Avenue des Obstacles","STRNAMEDUT":"Hindernislaan","SLOPE":0.39,"LENGTH":134.755717356799},"bbox":[156488.875,169347.759,156605.552,169414.835]},{"type":"Feature","id":"StreetAxes.fid--324554a4_1a031387ba0_4daf","geometry":{"type":"LineString","coordinates":[[156488.875,169414.835],[156493.258,169422.112],[156516.912,169460.776],[156522.238,169469.906]]},"geometry_name":"GEOM","properties":{"INSPIRE_ID":"https://databrussels.be/id/streetaxe/73541","TYPE":"S","HIERARCHY":"DR","LVL":0,"STARTSN_ID":"https://databrussels.be/id/streetnode/2172","ENDSN_ID":"https://databrussels.be/id/streetnode/3360","STRNAMEFRE":"Avenue des Mille Mètres","STRNAMEDUT":"Duizend Meterlaan","SLOPE":1.29,"LENGTH":64.3906143487634},"bbox":[156488.875,169414.835,156522.238,169469.906]},{"type":"Feature","id":"StreetAxes.fid--324554a4_1a031387ba0_4db0","geometry":{"type":"LineString","coordinates":[[156522.238,169469.906],[156527.564,169479.036],[156560.432,169532.676],[156565.22033913,169538.39496673]]},"geometry_name":"GEOM","properties":{"INSPIRE_ID":"https://databrussels.be/id/streetaxe/74931","TYPE":"S","HIERARCHY":"DR","LVL":0,"STARTSN_ID":"https://databrussels.be/id/streetnode/3360","ENDSN_ID":"https://databrussels.be/id/streetnode/13047","STRNAMEFRE":"Avenue des Mille Mètres","STRNAMEDUT":"Duizend Meterlaan","SLOPE":1.17,"LENGTH":80.9378917657198},"bbox":[156522.238,169469.906,156565.22033913,169538.39496673]},{"type":"Feature","id":"StreetAxes.fid--324554a4_1a031387ba0_4da2","geometry":{"type":"LineString","coordinates":[[156673.28229739,169170.62431204],[156681.37893167,169166.18771897],[156686.07378417,169153.70010539],[156686.76243611,169149.13742512]]},"geometry_name":"GEOM","properties":{"INSPIRE_ID":"https://databrussels.be/id/streetaxe/76043","TYPE":"S","HIERARCHY":"DR","LVL":0,"STARTSN_ID":"https://databrussels.be/id/streetnode/6502","ENDSN_ID":"https://databrussels.be/id/streetnode/6982","STRNAMEFRE":"Tir aux Pigeons","STRNAMEDUT":"Duivenschieting","SLOPE":0.15,"LENGTH":27.1878402300203},"bbox":[156673.28229739,169149.13742512,156686.76243611,169170.62431204]},{"type":"Feature","id":"StreetAxes.fid--324554a4_1a031387ba0_4d8c","geometry":{"type":"LineString","coordinates":[[156825.81113266,169460.31456568],[156821.99627666,169457.55119354],[156816.69713393,169450.27420246],[156811.97540625,169443.10687338],[156807.18909151,169434.67053396],[156799.81965181,169420.63731461],[156796.73032149,169414.71050887]]},"geometry_name":"GEOM","properties":{"INSPIRE_ID":"https://databrussels.be/id/streetaxe/76044","TYPE":"S","HIERARCHY":"DR","LVL":0,"STARTSN_ID":"https://databrussels.be/id/streetnode/6503","ENDSN_ID":"https://databrussels.be/id/streetnode/7026","STRNAMEFRE":"Avenue des Grands Prix","STRNAMEDUT":"Grote Prijzenlaan","SLOPE":1.58,"LENGTH":54.5290818590427},"bbox":[156796.73032149,169414.71050887,156825.81113266,169460.31456568]},{"type":"Feature","id":"StreetAxes.fid--324554a4_1a031387ba0_4d88","geometry":{"type":"LineString","coordinates":[[156792.84344734,169407.4255195],[156789.49349057,169401.14684967],[156758.95708717,169344.71795567],[156756.21172254,169339.70208001]]},"geometry_name":"GEOM","properties":{"INSPIRE_ID":"https://databrussels.be/id/streetaxe/78986","TYPE":"S","HIERARCHY":"DR","LVL":0,"STARTSN_ID":"https://databrussels.be/id/streetnode/6960","ENDSN_ID":"https://databrussels.be/id/streetnode/6986","STRNAMEFRE":"Avenue des Grands Prix","STRNAMEDUT":"Grote Prijzenlaan","SLOPE":1.55,"LENGTH":76.9959505562312},"bbox":[156756.21172254,169339.70208001,156792.84344734,169407.4255195]},{"type":"Feature","id":"StreetAxes.fid--324554a4_1a031387ba0_4da5","geometry":{"type":"LineString","coordinates":[[156703.622497,169288.2193087],[156704.6933092,169285.08802482],[156712.91627159,169276.62278323],[156719.78320304,169272.88244788]]},"geometry_name":"GEOM","properties":{"INSPIRE_ID":"https://databrussels.be/id/streetaxe/78988","TYPE":"S","HIERARCHY":"DR","LVL":0,"STARTSN_ID":"https://databrussels.be/id/streetnode/6971","ENDSN_ID":"https://databrussels.be/id/streetnode/6979","STRNAMEFRE":"Avenue des Obstacles","STRNAMEDUT":"Hindernislaan","SLOPE":0.39,"LENGTH":22.9304201348497},"bbox":[156703.622497,169272.88244788,156719.78320304,169288.2193087]},{"type":"Feature","id":"StreetAxes.fid--324554a4_1a031387ba0_4da0","geometry":{"type":"LineString","coordinates":[[156666.97616461,169158.67356835],[156674.61952158,169154.07023991],[156682.86565853,169150.02959577],[156686.76243611,169149.13742512]]},"geometry_name":"GEOM","properties":{"INSPIRE_ID":"https://databrussels.be/id/streetaxe/79031","TYPE":"S","HIERARCHY":"DR","LVL":0,"STARTSN_ID":"https://databrussels.be/id/streetnode/6482","ENDSN_ID":"https://databrussels.be/id/streetnode/6982","STRNAMEFRE":"Tir aux Pigeons","STRNAMEDUT":"Duivenschieting","SLOPE":0.54,"LENGTH":22.1030306469307},"bbox":[156666.97616461,169149.13742512,156686.76243611,169158.67356835]},{"type":"Feature","id":"StreetAxes.fid--324554a4_1a031387ba0_4d96","geometry":{"type":"LineString","coordinates":[[156819.82773385,169487.29284738],[156824.67205381,169485.43209539],[156829.66033956,169484.2178698],[156834.30556579,169484.02722314],[156837.54900952,169484.51166185],[156843.93907776,169487.07918699]]},"geometry_name":"GEOM","properties":{"INSPIRE_ID":"https://databrussels.be/id/streetaxe/79032","TYPE":"S","HIERARCHY":"DR","LVL":0,"STARTSN_ID":"https://databrussels.be/id/streetnode/6483","ENDSN_ID":"https://databrussels.be/id/streetnode/6972","STRNAMEFRE":"Avenue des Grands Prix","STRNAMEDUT":"Grote Prijzenlaan","SLOPE":0,"LENGTH":25.138487439844},"bbox":[156819.82773385,169484.02722314,156843.93907776,169487.29284738]},{"type":"Feature","id":"StreetAxes.fid--324554a4_1a031387ba0_4d94","geometry":{"type":"LineString","coordinates":[[156819.82773385,169487.29284738],[156825.7683328,169474.61236376],[156828.05469611,169470.72904661]]},"geometry_name":"GEOM","properties":{"INSPIRE_ID":"https://databrussels.be/id/streetaxe/79033","TYPE":"S","HIERARCHY":"DR","LVL":0,"STARTSN_ID":"https://databrussels.be/id/streetnode/6483","ENDSN_ID":"https://databrussels.be/id/streetnode/6990","STRNAMEFRE":"Avenue des Grands Prix","STRNAMEDUT":"Grote Prijzenlaan","SLOPE":0.92,"LENGTH":18.5094454597965},"bbox":[156819.82773385,169470.72904661,156828.05469611,169487.29284738]},{"type":"Feature","id":"StreetAxes.fid--324554a4_1a031387ba0_4da4","geometry":{"type":"LineString","coordinates":[[156703.622497,169288.2193087],[156707.20170785,169288.52717416],[156718.41564057,169286.84640941],[156725.28378276,169283.10541459]]},"geometry_name":"GEOM","properties":{"INSPIRE_ID":"https://databrussels.be/id/streetaxe/79054","TYPE":"S","HIERARCHY":"DR","LVL":0,"STARTSN_ID":"https://databrussels.be/id/streetnode/6971","ENDSN_ID":"https://databrussels.be/id/streetnode/6490","STRNAMEFRE":"Avenue des Obstacles","STRNAMEDUT":"Hindernislaan","SLOPE":0.53,"LENGTH":22.7525144863262},"bbox":[156703.622497,169283.10541459,156725.28378276,169288.52717416]},{"type":"Feature","id":"StreetAxes.fid--324554a4_1a031387ba0_4d87","geometry":{"type":"LineString","coordinates":[[156819.67097091,169441.70404625],[156815.34708497,169435.20519729],[156764.80529855,169343.02226968],[156761.13188563,169336.32234905]]},"geometry_name":"GEOM","properties":{"INSPIRE_ID":"https://databrussels.be/id/streetaxe/79056","TYPE":"S","HIERARCHY":"DR","LVL":0,"STARTSN_ID":"https://databrussels.be/id/streetnode/6975","ENDSN_ID":"https://databrussels.be/id/streetnode/6499","STRNAMEFRE":"Avenue des Grands Prix","STRNAMEDUT":"Grote Prijzenlaan","SLOPE":1.51,"LENGTH":120.575977526463},"bbox":[156761.13188563,169336.32234905,156819.67097091,169441.70404625]},{"type":"Feature","id":"StreetAxes.fid--324554a4_1a031387ba0_4da7","geometry":{"type":"LineString","coordinates":[[156756.21172254,169339.70208001],[156752.33759446,169332.62443251],[156728.1498519,169288.43207667],[156725.28378276,169283.10541459]]},"geometry_name":"GEOM","properties":{"INSPIRE_ID":"https://databrussels.be/id/streetaxe/79534","TYPE":"S","HIERARCHY":"DR","LVL":0,"STARTSN_ID":"https://databrussels.be/id/streetnode/6986","ENDSN_ID":"https://databrussels.be/id/streetnode/6490","STRNAMEFRE":"Avenue des Grands Prix","STRNAMEDUT":"Grote Prijzenlaan","SLOPE":1.43,"LENGTH":64.4960319793804},"bbox":[156725.28378276,169283.10541459,156756.21172254,169339.70208001]},{"type":"Feature","id":"StreetAxes.fid--324554a4_1a031387ba0_4d98","geometry":{"type":"LineString","coordinates":[[156959.06335757,169644.32251096],[156955.7203515,169639.71748292],[156879.3634564,169534.82241272],[156843.93907776,169487.07918699]]},"geometry_name":"GEOM","properties":{"INSPIRE_ID":"https://databrussels.be/id/streetaxe/79535","TYPE":"S","HIERARCHY":"DR","LVL":0,"STARTSN_ID":"https://databrussels.be/id/streetnode/6987","ENDSN_ID":"https://databrussels.be/id/streetnode/6972","STRNAMEFRE":"Avenue des Grands Prix","STRNAMEDUT":"Grote Prijzenlaan","SLOPE":0.61,"LENGTH":194.883918716328},"bbox":[156843.93907776,169487.07918699,156959.06335757,169644.32251096]},{"type":"Feature","id":"StreetAxes.fid--324554a4_1a031387ba0_4d9d","geometry":{"type":"LineString","coordinates":[[156719.78320304,169272.88244788],[156716.92395772,169267.56846804],[156672.27321864,169186.07709078],[156665.99410381,169174.61791581]]},"geometry_name":"GEOM","properties":{"INSPIRE_ID":"https://databrussels.be/id/streetaxe/79722","TYPE":"S","HIERARCHY":"DR","LVL":0,"STARTSN_ID":"https://databrussels.be/id/streetnode/6979","ENDSN_ID":"https://databrussels.be/id/streetnode/6989","STRNAMEFRE":"Avenue des Grands Prix","STRNAMEDUT":"Grote Prijzenlaan","SLOPE":0.63,"LENGTH":112.023312618279},"bbox":[156665.99410381,169174.61791581,156719.78320304,169272.88244788]},{"type":"Feature","id":"StreetAxes.fid--324554a4_1a031387ba0_4d89","geometry":{"type":"LineString","coordinates":[[156778.67537231,169419.64492759],[156783.67811854,169412.31814946],[156792.84344734,169407.4255195]]},"geometry_name":"GEOM","properties":{"INSPIRE_ID":"https://databrussels.be/id/streetaxe/79870","TYPE":"S","HIERARCHY":"DR","LVL":0,"STARTSN_ID":"https://databrussels.be/id/streetnode/6262","ENDSN_ID":"https://databrussels.be/id/streetnode/6960","STRNAMEFRE":"Avenue des Grands Prix","STRNAMEDUT":"Grote Prijzenlaan","SLOPE":0.47,"LENGTH":19.2612872797426},"bbox":[156778.67537231,169407.4255195,156792.84344734,169419.64492759]},{"type":"Feature","id":"StreetAxes.fid--324554a4_1a031387ba0_4d8b","geometry":{"type":"LineString","coordinates":[[156778.67537231,169419.64492759],[156787.78824582,169419.48151415],[156796.73032149,169414.71050887]]},"geometry_name":"GEOM","properties":{"INSPIRE_ID":"https://databrussels.be/id/streetaxe/79871","TYPE":"S","HIERARCHY":"DR","LVL":0,"STARTSN_ID":"https://databrussels.be/id/streetnode/6262","ENDSN_ID":"https://databrussels.be/id/streetnode/7026","STRNAMEFRE":"Avenue des Grands Prix","STRNAMEDUT":"Grote Prijzenlaan","SLOPE":0.47,"LENGTH":19.2495844357738},"bbox":[156778.67537231,169414.71050887,156796.73032149,169419.64492759]},{"type":"Feature","id":"StreetAxes.fid--324554a4_1a031387ba0_4dba","geometry":{"type":"LineString","coordinates":[[156666.97616461,169158.67356835],[156662.16398989,169150.88241174],[156649.11087441,169129.9869446],[156636.92369813,169113.50785138],[156628.17333869,169102.24754632],[156619.69144993,169092.50709157],[156611.21952308,169083.05553387],[156583.41279181,169055.76927905],[156557.53306777,169035.37355178],[156508.93076015,168999.18719611],[156506.60478487,168997.44961543]]},"geometry_name":"GEOM","properties":{"INSPIRE_ID":"https://databrussels.be/id/streetaxe/80049","TYPE":"S","HIERARCHY":"DR","LVL":0,"STARTSN_ID":"https://databrussels.be/id/streetnode/6482","ENDSN_ID":"https://databrussels.be/id/streetnode/6267","STRNAMEFRE":"Avenue des Grands Prix","STRNAMEDUT":"Grote Prijzenlaan","SLOPE":2.33,"LENGTH":229.56647230414},"bbox":[156506.60478487,168997.44961543,156666.97616461,169158.67356835]},{"type":"Feature","id":"StreetAxes.fid--324554a4_1a031387ba0_4db9","geometry":{"type":"LineString","coordinates":[[156659.53046682,169163.15785354],[156654.71350944,169155.15978753],[156645.35599239,169139.7615086],[156630.3866058,169116.597143],[156623.13212088,169107.07839848],[156614.80876732,169096.63524503],[156606.59698639,169087.4739146],[156579.67668331,169061.49440579],[156553.64572779,169040.44743112],[156505.16965282,169004.35641167],[156502.78759999,169002.57573603]]},"geometry_name":"GEOM","properties":{"INSPIRE_ID":"https://databrussels.be/id/streetaxe/80079","TYPE":"S","HIERARCHY":"DR","LVL":0,"STARTSN_ID":"https://databrussels.be/id/streetnode/6264","ENDSN_ID":"https://databrussels.be/id/streetnode/7025","STRNAMEFRE":"Avenue des Grands Prix","STRNAMEDUT":"Grote Prijzenlaan","SLOPE":2.21,"LENGTH":226.85757610652},"bbox":[156502.78759999,169002.57573603,156659.53046682,169163.15785354]},{"type":"Feature","id":"StreetAxes.fid--324554a4_1a031387ba0_4d99","geometry":{"type":"LineString","coordinates":[[156777.58017566,169580.12688312],[156779.508,169576.036],[156818.55938316,169490.00020069],[156819.82773385,169487.29284738]]},"geometry_name":"GEOM","properties":{"INSPIRE_ID":"https://databrussels.be/id/streetaxe/81430","TYPE":"S","HIERARCHY":"DR","LVL":0,"STARTSN_ID":"https://databrussels.be/id/streetnode/6976","ENDSN_ID":"https://databrussels.be/id/streetnode/6483","STRNAMEFRE":"Avenue François Peeters","STRNAMEDUT":"François Peeterslaan","SLOPE":0.89,"LENGTH":101.995796972464},"bbox":[156777.58017566,169487.29284738,156819.82773385,169580.12688312]},{"type":"Feature","id":"StreetAxes.fid--324554a4_1a031387ba0_4db6","geometry":{"type":"LineString","coordinates":[[156684.874,169473.181],[156693.768,169468.185],[156778.67537231,169419.64492759]]},"geometry_name":"GEOM","properties":{"INSPIRE_ID":"https://databrussels.be/id/streetaxe/81945","TYPE":"S","HIERARCHY":"DR","LVL":0,"STARTSN_ID":"https://databrussels.be/id/streetnode/286","ENDSN_ID":"https://databrussels.be/id/streetnode/6262","STRNAMEFRE":"Avenue des Jockeys","STRNAMEDUT":"Jockeylaan","SLOPE":0.82,"LENGTH":108.004005245763},"bbox":[156684.874,169419.64492759,156778.67537231,169473.181]},{"type":"Feature","id":"StreetAxes.fid--324554a4_1a031387ba0_4db4","geometry":{"type":"LineString","coordinates":[[156637.906,169403.678],[156651.676,169397.32],[156661.22,169393.85],[156696.122,169374.223],[156729.405,169355.092],[156748.81354999,169341.84632064],[156756.21172254,169339.70208001]]},"geometry_name":"GEOM","properties":{"INSPIRE_ID":"https://databrussels.be/id/streetaxe/81949","TYPE":"S","HIERARCHY":"DR","LVL":0,"STARTSN_ID":"https://databrussels.be/id/streetnode/1741","ENDSN_ID":"https://databrussels.be/id/streetnode/6986","STRNAMEFRE":"Avenue des Alezans","STRNAMEDUT":"Vossenlaan","SLOPE":0.41,"LENGTH":134.954090663628},"bbox":[156637.906,169339.70208001,156756.21172254,169403.678]},{"type":"Feature","id":"StreetAxes.fid--324554a4_1a031387ba0_4db2","geometry":{"type":"LineString","coordinates":[[156584.978,169530.828],[156675.98,169478.178],[156684.874,169473.181]]},"geometry_name":"GEOM","properties":{"INSPIRE_ID":"https://databrussels.be/id/streetaxe/82298","TYPE":"S","HIERARCHY":"DR","LVL":0,"STARTSN_ID":"https://databrussels.be/id/streetnode/13049","ENDSN_ID":"https://databrussels.be/id/streetnode/286","STRNAMEFRE":"Avenue des Jockeys","STRNAMEDUT":"Jockeylaan","SLOPE":0.54,"LENGTH":115.336716457756},"bbox":[156584.978,169473.181,156684.874,169530.828]},{"type":"Feature","id":"StreetAxes.fid--324554a4_1a031387ba0_4da9","geometry":{"type":"LineString","coordinates":[[156761.13188563,169336.32234905],[156770.40006634,169334.78231869],[156800.89016224,169317.91838314],[156801.6068299,169315.70935606],[156804.4,169307.765],[156811.173,169289.059]]},"geometry_name":"GEOM","properties":{"INSPIRE_ID":"https://databrussels.be/id/streetaxe/83521","TYPE":"S","HIERARCHY":"DR","LVL":0,"STARTSN_ID":"https://databrussels.be/id/streetnode/6499","ENDSN_ID":"https://databrussels.be/id/streetnode/5612","STRNAMEFRE":"Clos des Guinées","STRNAMEDUT":"Guineagaarde","SLOPE":5.84,"LENGTH":74.876182671397},"bbox":[156761.13188563,169289.059,156811.173,169336.32234905]},{"type":"Feature","id":"StreetAxes.fid--324554a4_1a031387ba0_4da1","geometry":{"type":"LineString","coordinates":[[156761.13188563,169336.32234905],[156758.32741709,169331.20729202],[156723.25435541,169265.02999934],[156698.61252991,169219.77781966],[156676.38355407,169177.9739711],[156673.28229739,169170.62431204]]},"geometry_name":"GEOM","properties":{"INSPIRE_ID":"https://databrussels.be/id/streetaxe/83587","TYPE":"S","HIERARCHY":"DR","LVL":0,"STARTSN_ID":"https://databrussels.be/id/streetnode/6499","ENDSN_ID":"https://databrussels.be/id/streetnode/6502","STRNAMEFRE":"Avenue des Grands Prix","STRNAMEDUT":"Grote Prijzenlaan","SLOPE":0.83,"LENGTH":187.580522993619},"bbox":[156673.28229739,169170.62431204,156761.13188563,169336.32234905]},{"type":"Feature","id":"StreetAxes.fid--324554a4_1a031387ba0_4dbe","geometry":{"type":"LineString","coordinates":[[156202.39851421,169371.84893505],[156213.89843582,169381.90442219],[156227.34019898,169393.83194571],[156247.94354119,169410.35670507],[156258.24945313,169418.46686399],[156266.95692653,169425.43481722],[156289.58177806,169443.41988871],[156315.7427701,169464.54971689],[156344.82394483,169487.61665697],[156369.40771802,169507.22544622],[156385.46328837,169519.98289472],[156395.57429221,169528.17382701],[156433.54246013,169558.07165052],[156443.96778058,169566.5957187],[156463.38524496,169581.95589841],[156482.68874921,169597.27927421],[156503.41200927,169613.88886285],[156523.26032768,169629.5346991],[156531.7239606,169636.26501609],[156551.50446003,169652.08510874],[156570.18232528,169666.89108555],[156602.22764692,169692.60529833],[156620.57910471,169707.44048562],[156628.43888852,169714.11685849],[156636.56597431,169721.50481833],[156653.0443059,169737.41159459],[156665.4089958,169750.5664344],[156685.95513617,169774.28227252]]},"geometry_name":"GEOM","properties":{"INSPIRE_ID":"https://databrussels.be/id/streetaxe/85143","TYPE":"S","HIERARCHY":"IDR","LVL":0,"STARTSN_ID":"https://databrussels.be/id/streetnode/9042","ENDSN_ID":"https://databrussels.be/id/streetnode/14003","STRNAMEFRE":"Avenue Orban","STRNAMEDUT":"Orbanlaan","SLOPE":1.04,"LENGTH":629.86121222702},"bbox":[156202.39851421,169371.84893505,156685.95513617,169774.28227252]},{"type":"Feature","id":"StreetAxes.fid--324554a4_1a031387ba0_4d9a","geometry":{"type":"LineString","coordinates":[[156605.552,169347.759],[156618.89,169341.61],[156636.105,169329.232],[156675.742,169305.518],[156703.622497,169288.2193087]]},"geometry_name":"GEOM","properties":{"INSPIRE_ID":"https://databrussels.be/id/streetaxe/87552","TYPE":"S","HIERARCHY":"DR","LVL":0,"STARTSN_ID":"https://databrussels.be/id/streetnode/4357","ENDSN_ID":"https://databrussels.be/id/streetnode/6971","STRNAMEFRE":"Avenue des Obstacles","STRNAMEDUT":"Hindernislaan","SLOPE":0.46,"LENGTH":114.890558724739},"bbox":[156605.552,169288.2193087,156703.622497,169347.759]},{"type":"Feature","id":"StreetAxes.fid--324554a4_1a031387ba0_4da3","geometry":{"type":"LineString","coordinates":[[156686.76243611,169149.13742512],[156738.53042352,169075.1892602],[156741.76,169067.911],[156746.06,169055.227]]},"geometry_name":"GEOM","properties":{"INSPIRE_ID":"https://databrussels.be/id/streetaxe/87554","TYPE":"S","HIERARCHY":"DR","LVL":0,"STARTSN_ID":"https://databrussels.be/id/streetnode/6982","ENDSN_ID":"https://databrussels.be/id/streetnode/1120","STRNAMEFRE":"Tir aux Pigeons","STRNAMEDUT":"Duivenschieting","SLOPE":1.68,"LENGTH":111.623356070822},"bbox":[156686.76243611,169055.227,156746.06,169149.13742512]},{"type":"Feature","id":"StreetAxes.fid--324554a4_1a031387ba0_4d93","geometry":{"type":"LineString","coordinates":[[156828.05469611,169470.72904661],[156829.87590066,169471.54324159],[156831.2839712,169471.64047296],[156832.32905236,169471.72420997],[156834.17587563,169471.34155382]]},"geometry_name":"GEOM","properties":{"INSPIRE_ID":"https://databrussels.be/id/streetaxe/90878","TYPE":"I","HIERARCHY":null,"LVL":0,"STARTSN_ID":"https://databrussels.be/id/streetnode/6990","ENDSN_ID":"https://databrussels.be/id/streetnode/14375","STRNAMEFRE":"Avenue des Grands Prix","STRNAMEDUT":"Grote Prijzenlaan","SLOPE":0.63,"LENGTH":6.34082180913976},"bbox":[156828.05469611,169470.72904661,156834.17587563,169471.72420997]},{"type":"Feature","id":"StreetAxes.fid--324554a4_1a031387ba0_4d9f","geometry":{"type":"LineString","coordinates":[[156673.28229739,169170.62431204],[156666.97616461,169158.67356835]]},"geometry_name":"GEOM","properties":{"INSPIRE_ID":"https://databrussels.be/id/streetaxe/91029","TYPE":"I","HIERARCHY":"DR","LVL":0,"STARTSN_ID":"https://databrussels.be/id/streetnode/6502","ENDSN_ID":"https://databrussels.be/id/streetnode/6482","STRNAMEFRE":"Avenue des Grands Prix","STRNAMEDUT":"Grote Prijzenlaan","SLOPE":1.18,"LENGTH":13.512497377782},"bbox":[156666.97616461,169158.67356835,156673.28229739,169170.62431204]},{"type":"Feature","id":"StreetAxes.fid--324554a4_1a031387ba0_4d9c","geometry":{"type":"LineString","coordinates":[[156659.53046682,169163.15785354],[156665.99410381,169174.61791581]]},"geometry_name":"GEOM","properties":{"INSPIRE_ID":"https://databrussels.be/id/streetaxe/91038","TYPE":"I","HIERARCHY":"DR","LVL":0,"STARTSN_ID":"https://databrussels.be/id/streetnode/6264","ENDSN_ID":"https://databrussels.be/id/streetnode/6989","STRNAMEFRE":"Avenue des Grands Prix","STRNAMEDUT":"Grote Prijzenlaan","SLOPE":1.29,"LENGTH":13.1571893054532},"bbox":[156659.53046682,169163.15785354,156665.99410381,169174.61791581]},{"type":"Feature","id":"StreetAxes.fid--324554a4_1a031387ba0_4db7","geometry":{"type":"LineString","coordinates":[[156493.07003108,169003.81294603],[156497.48036997,169004.63586347],[156502.78759999,169002.57573603]]},"geometry_name":"GEOM","properties":{"INSPIRE_ID":"https://databrussels.be/id/streetaxe/91403","TYPE":"I","HIERARCHY":"DR","LVL":0,"STARTSN_ID":"https://databrussels.be/id/streetnode/6978","ENDSN_ID":"https://databrussels.be/id/streetnode/7025","STRNAMEFRE":"Avenue des Grands Prix","STRNAMEDUT":"Grote Prijzenlaan","SLOPE":1.38,"LENGTH":10.1795051801814},"bbox":[156493.07003108,169002.57573603,156502.78759999,169004.63586347]},{"type":"Feature","id":"StreetAxes.fid--324554a4_1a031387ba0_4d8e","geometry":{"type":"LineString","coordinates":[[156819.67097091,169441.70404625],[156824.14116108,169448.42279207],[156827.68131429,169453.46011787],[156829.23498296,169457.78285128]]},"geometry_name":"GEOM","properties":{"INSPIRE_ID":"https://databrussels.be/id/streetaxe/91404","TYPE":"I","HIERARCHY":"DR","LVL":0,"STARTSN_ID":"https://databrussels.be/id/streetnode/6975","ENDSN_ID":"https://databrussels.be/id/streetnode/6495","STRNAMEFRE":"Avenue des Grands Prix","STRNAMEDUT":"Grote Prijzenlaan","SLOPE":1.91,"LENGTH":18.820310513892},"bbox":[156819.67097091,169441.70404625,156829.23498296,169457.78285128]},{"type":"Feature","id":"StreetAxes.fid--324554a4_1a031387ba0_4d9e","geometry":{"type":"LineString","coordinates":[[156665.99410381,169174.61791581],[156673.28229739,169170.62431204]]},"geometry_name":"GEOM","properties":{"INSPIRE_ID":"https://databrussels.be/id/streetaxe/91410","TYPE":"I","HIERARCHY":"DR","LVL":0,"STARTSN_ID":"https://databrussels.be/id/streetnode/6989","ENDSN_ID":"https://databrussels.be/id/streetnode/6502","STRNAMEFRE":"Avenue des Grands Prix","STRNAMEDUT":"Grote Prijzenlaan","SLOPE":0.12,"LENGTH":8.31063395127121},"bbox":[156665.99410381,169170.62431204,156673.28229739,169174.61791581]},{"type":"Feature","id":"StreetAxes.fid--324554a4_1a031387ba0_4d95","geometry":{"type":"LineString","coordinates":[[156843.93907776,169487.07918699],[156835.60268347,169475.91907731],[156834.17587563,169471.34155382]]},"geometry_name":"GEOM","properties":{"INSPIRE_ID":"https://databrussels.be/id/streetaxe/91576","TYPE":"I","HIERARCHY":null,"LVL":0,"STARTSN_ID":"https://databrussels.be/id/streetnode/6972","ENDSN_ID":"https://databrussels.be/id/streetnode/14375","STRNAMEFRE":"Avenue des Grands Prix","STRNAMEDUT":"Grote Prijzenlaan","SLOPE":1.12,"LENGTH":18.7246872837319},"bbox":[156834.17587563,169471.34155382,156843.93907776,169487.07918699]},{"type":"Feature","id":"StreetAxes.fid--324554a4_1a031387ba0_4da6","geometry":{"type":"LineString","coordinates":[[156725.28378276,169283.10541459],[156719.78320304,169272.88244788]]},"geometry_name":"GEOM","properties":{"INSPIRE_ID":"https://databrussels.be/id/streetaxe/91582","TYPE":"I","HIERARCHY":"DR","LVL":0,"STARTSN_ID":"https://databrussels.be/id/streetnode/6490","ENDSN_ID":"https://databrussels.be/id/streetnode/6979","STRNAMEFRE":"Avenue des Grands Prix","STRNAMEDUT":"Grote Prijzenlaan","SLOPE":0.26,"LENGTH":11.6088511715529},"bbox":[156719.78320304,169272.88244788,156725.28378276,169283.10541459]},{"type":"Feature","id":"StreetAxes.fid--324554a4_1a031387ba0_4d8a","geometry":{"type":"LineString","coordinates":[[156792.84344734,169407.4255195],[156796.73032149,169414.71050887]]},"geometry_name":"GEOM","properties":{"INSPIRE_ID":"https://databrussels.be/id/streetaxe/91585","TYPE":"I","HIERARCHY":"DR","LVL":0,"STARTSN_ID":"https://databrussels.be/id/streetnode/6960","ENDSN_ID":"https://databrussels.be/id/streetnode/7026","STRNAMEFRE":"Avenue des Grands Prix","STRNAMEDUT":"Grote Prijzenlaan","SLOPE":2.18,"LENGTH":8.25704915057442},"bbox":[156792.84344734,169407.4255195,156796.73032149,169414.71050887]},{"type":"Feature","id":"StreetAxes.fid--324554a4_1a031387ba0_4db8","geometry":{"type":"LineString","coordinates":[[156502.78759999,169002.57573603],[156504.68940161,169000.46537229],[156506.60478487,168997.44961543]]},"geometry_name":"GEOM","properties":{"INSPIRE_ID":"https://databrussels.be/id/streetaxe/91602","TYPE":"I","HIERARCHY":"DR","LVL":0,"STARTSN_ID":"https://databrussels.be/id/streetnode/7025","ENDSN_ID":"https://databrussels.be/id/streetnode/6267","STRNAMEFRE":"Avenue des Grands Prix","STRNAMEDUT":"Grote Prijzenlaan","SLOPE":4.65,"LENGTH":6.41346145898134},"bbox":[156502.78759999,168997.44961543,156506.60478487,169002.57573603]},{"type":"Feature","id":"StreetAxes.fid--324554a4_1a031387ba0_4d91","geometry":{"type":"LineString","coordinates":[[156825.81113266,169460.31456568],[156827.34486747,169458.74667372],[156829.23498296,169457.78285128]]},"geometry_name":"GEOM","properties":{"INSPIRE_ID":"https://databrussels.be/id/streetaxe/91603","TYPE":"I","HIERARCHY":"DR","LVL":0,"STARTSN_ID":"https://databrussels.be/id/streetnode/6503","ENDSN_ID":"https://databrussels.be/id/streetnode/6495","STRNAMEFRE":"Avenue des Grands Prix","STRNAMEDUT":"Grote Prijzenlaan","SLOPE":3.25,"LENGTH":4.31498588124283},"bbox":[156825.81113266,169457.78285128,156829.23498296,169460.31456568]},{"type":"Feature","id":"StreetAxes.fid--324554a4_1a031387ba0_4d92","geometry":{"type":"LineString","coordinates":[[156825.81113266,169460.31456568],[156824.78099987,169462.3347199],[156824.42548378,169464.57720596],[156824.53422515,169465.27966087],[156824.78099981,169466.81786852],[156825.810705,169468.83900666],[156827.41456568,169470.44286734],[156828.05469611,169470.72904661]]},"geometry_name":"GEOM","properties":{"INSPIRE_ID":"https://databrussels.be/id/streetaxe/92370","TYPE":"I","HIERARCHY":"DR","LVL":0,"STARTSN_ID":"https://databrussels.be/id/streetnode/6503","ENDSN_ID":"https://databrussels.be/id/streetnode/6990","STRNAMEFRE":"Avenue des Grands Prix","STRNAMEDUT":"Grote Prijzenlaan","SLOPE":1.25,"LENGTH":12.0445460628216},"bbox":[156824.42548378,169460.31456568,156828.05469611,169470.72904661]},{"type":"Feature","id":"StreetAxes.fid--324554a4_1a031387ba0_4d9b","geometry":{"type":"LineString","coordinates":[[156659.53046682,169163.15785354],[156666.97616461,169158.67356835]]},"geometry_name":"GEOM","properties":{"INSPIRE_ID":"https://databrussels.be/id/streetaxe/92371","TYPE":"I","HIERARCHY":"DR","LVL":0,"STARTSN_ID":"https://databrussels.be/id/streetnode/6264","ENDSN_ID":"https://databrussels.be/id/streetnode/6482","STRNAMEFRE":"Avenue des Grands Prix","STRNAMEDUT":"Grote Prijzenlaan","SLOPE":0.23,"LENGTH":8.69179090661828},"bbox":[156659.53046682,169158.67356835,156666.97616461,169163.15785354]},{"type":"Feature","id":"StreetAxes.fid--324554a4_1a031387ba0_4dbd","geometry":{"type":"LineString","coordinates":[[156678.43570715,169775.58677785],[156662.22707508,169756.03767093],[156655.02528928,169747.90028519],[156646.92490683,169739.30864855],[156641.53072669,169733.86802126],[156636.18194221,169728.69832076],[156627.19331855,169720.26472532],[156623.01371754,169716.55394952],[156617.13766692,169711.57009634],[156605.61585736,169702.10705987],[156593.23976835,169692.10221896],[156587.01193158,169687.17616639],[156581.86872918,169683.02134819],[156576.52624867,169678.76594779],[156570.67304491,169674.13907289],[156560.50237048,169666.04925505],[156554.00815793,169660.88368675],[156544.48096769,169653.29772611],[156539.30898087,169649.15134171],[156527.67407738,169639.92365776],[156523.15137028,169636.31114767],[156514.15636089,169629.17467155],[156497.63450416,169616.31185556],[156487.79383547,169608.38635636],[156477.90562876,169600.4414782],[156467.10018878,169591.80839858],[156454.86020381,169582.05290544],[156440.12443975,169570.28877107],[156426.71634153,169559.65962222],[156414.07791173,169549.64376042],[156401.82797123,169539.87803275],[156383.11619997,169524.97625855],[156371.24765753,169515.53152297],[156355.02938902,169502.63647468],[156340.15094769,169490.7925702],[156324.22819359,169478.09218598],[156308.01685586,169465.14897167],[156296.47916223,169456.00115148],[156287.33154969,169448.75403147],[156278.46410911,169441.69674846],[156269.69132973,169434.72478002],[156250.34649848,169420.19181022],[156240.12065098,169411.96019164],[156235.25479878,169408.07753925],[156224.80098466,169399.57211417],[156212.14473558,169389.27925053],[156197.7539503,169377.69974626]]},"geometry_name":"GEOM","properties":{"INSPIRE_ID":"https://databrussels.be/id/streetaxe/92608","TYPE":"C","HIERARCHY":"IDR","LVL":0,"STARTSN_ID":"https://databrussels.be/id/streetnode/14002","ENDSN_ID":"https://databrussels.be/id/streetnode/9043","STRNAMEFRE":"Avenue Orban","STRNAMEDUT":"Orbanlaan","SLOPE":1.02,"LENGTH":624.85761516715},"bbox":[156197.7539503,169377.69974626,156678.43570715,169775.58677785]},{"type":"Feature","id":"StreetAxes.fid--324554a4_1a031387ba0_4db5","geometry":{"type":"LineString","coordinates":[[156684.874,169473.181],[156688.206,169479.034],[156753.153,169582.21]]},"geometry_name":"GEOM","properties":{"INSPIRE_ID":"https://databrussels.be/id/streetaxe/96714","TYPE":"S","HIERARCHY":"DR","LVL":0,"STARTSN_ID":"https://databrussels.be/id/streetnode/286","ENDSN_ID":"https://databrussels.be/id/streetnode/16627","STRNAMEFRE":"Avenue des Etriers","STRNAMEDUT":"Stijgbeugellaan","SLOPE":0.74,"LENGTH":128.650514554457},"bbox":[156684.874,169473.181,156753.153,169582.21]},{"type":"Feature","id":"StreetAxes.fid--324554a4_1a031387ba0_4d8f","geometry":{"type":"LineString","coordinates":[[156834.13104123,169457.67306074],[156840.43749949,169443.73015934]]},"geometry_name":"GEOM","properties":{"INSPIRE_ID":"https://databrussels.be/id/streetaxe/99208","TYPE":"S","HIERARCHY":"H","LVL":0,"STARTSN_ID":"https://databrussels.be/id/streetnode/14372","ENDSN_ID":"https://databrussels.be/id/streetnode/6487","STRNAMEFRE":"Avenue des Grands Prix","STRNAMEDUT":"Grote Prijzenlaan","SLOPE":7.16,"LENGTH":15.3028074319203},"bbox":[156834.13104123,169443.73015934,156840.43749949,169457.67306074]},{"type":"Feature","id":"StreetAxes.fid--324554a4_1a031387ba0_4d8d","geometry":{"type":"LineString","coordinates":[[156819.67097091,169441.70404625],[156825.78589865,169444.39854515],[156829.13539588,169445.48145632],[156832.03073807,169445.8034174],[156834.87835119,169445.18879163],[156836.38672776,169444.75262015],[156840.43749949,169443.73015934]]},"geometry_name":"GEOM","properties":{"INSPIRE_ID":"https://databrussels.be/id/streetaxe/99227","TYPE":"S","HIERARCHY":"DR","LVL":0,"STARTSN_ID":"https://databrussels.be/id/streetnode/6975","ENDSN_ID":"https://databrussels.be/id/streetnode/6487","STRNAMEFRE":"Avenue des Grands Prix","STRNAMEDUT":"Grote Prijzenlaan","SLOPE":4.05,"LENGTH":21.7768376510381},"bbox":[156819.67097091,169441.70404625,156840.43749949,169445.8034174]},{"type":"Feature","id":"StreetAxes.fid--324554a4_1a031387ba0_4dad","geometry":{"type":"LineString","coordinates":[[156971.029,169154.538],[156973.715,169154.367],[156975.871,169150.012],[156979.242,169143.204],[156992.34728974,169114.9258859],[157019.86346447,169055.00214495],[157099.75981806,168881.85806044],[157103.43929621,168874.09980925]]},"geometry_name":"GEOM","properties":{"INSPIRE_ID":"https://databrussels.be/id/streetaxe/99228","TYPE":"S","HIERARCHY":"DR","LVL":0,"STARTSN_ID":"https://databrussels.be/id/streetnode/2523","ENDSN_ID":"https://databrussels.be/id/streetnode/693","STRNAMEFRE":"Route Gouvernementale","STRNAMEDUT":"Goevernementsweg","SLOPE":2.23,"LENGTH":311.529972578398},"bbox":[156971.029,168874.09980925,157103.43929621,169154.538]},{"type":"Feature","id":"StreetAxes.fid--324554a4_1a031387ba0_4d90","geometry":{"type":"LineString","coordinates":[[156834.13104123,169457.67306074],[156831.67720596,169457.32548378],[156829.23498296,169457.78285128]]},"geometry_name":"GEOM","properties":{"INSPIRE_ID":"https://databrussels.be/id/streetaxe/99254","TYPE":"I","HIERARCHY":"DR","LVL":0,"STARTSN_ID":"https://databrussels.be/id/streetnode/14372","ENDSN_ID":"https://databrussels.be/id/streetnode/6495","STRNAMEFRE":"Avenue des Grands Prix","STRNAMEDUT":"Grote Prijzenlaan","SLOPE":2.07,"LENGTH":4.96301024316712},"bbox":[156829.23498296,169457.32548378,156834.13104123,169457.78285128]},{"type":"Feature","id":"StreetAxes.fid--324554a4_1a031387ba0_4daa","geometry":{"type":"LineString","coordinates":[[156925.605,169259.191],[156920.853,169254.232],[156907.983,169237.112],[156894.325,169225.533],[156881.361,169215.344],[156867.703,169206.776],[156838.535,169191.723],[156808.904,169175.976],[156781.44,169162.925]]},"geometry_name":"GEOM","properties":{"INSPIRE_ID":"https://databrussels.be/id/streetaxe/99255","TYPE":"S","HIERARCHY":"DR","LVL":0,"STARTSN_ID":"https://databrussels.be/id/streetnode/","ENDSN_ID":"https://databrussels.be/id/streetnode/","STRNAMEFRE":"Clos des Essarts","STRNAMEDUT":"Rooilandgaarde","SLOPE":0.68,"LENGTH":175.589682620039},"bbox":[156781.44,169162.925,156925.605,169259.191]},{"type":"Feature","id":"StreetAxes.fid--324554a4_1a031387ba0_4d97","geometry":{"type":"LineString","coordinates":[[156964.65073194,169639.58750826],[156961.44642118,169635.10565725],[156883.010214,169528.14826758],[156855.9707242,169491.46357804],[156851.78764952,169485.78836755]]},"geometry_name":"GEOM","properties":{"INSPIRE_ID":"https://databrussels.be/id/streetaxe/99290","TYPE":"S","HIERARCHY":"DR","LVL":0,"STARTSN_ID":"https://databrussels.be/id/streetnode/6506","ENDSN_ID":"https://databrussels.be/id/streetnode/14370","STRNAMEFRE":"Avenue des Grands Prix","STRNAMEDUT":"Grote Prijzenlaan","SLOPE":0.62,"LENGTH":190.768077344241},"bbox":[156851.78764952,169485.78836755,156964.65073194,169639.58750826]},{"type":"Feature","id":"StreetAxes.fid--324554a4_1a031387ba0_4dac","geometry":{"type":"LineString","coordinates":[[156904.99929782,169304.12443619],[156912.25719019,169288.49693081],[156920.47272511,169270.88997633],[156925.605,169259.191]]},"geometry_name":"GEOM","properties":{"INSPIRE_ID":"https://databrussels.be/id/streetaxe/99312","TYPE":"S","HIERARCHY":"H","LVL":0,"STARTSN_ID":"https://databrussels.be/id/streetnode/","ENDSN_ID":"https://databrussels.be/id/streetnode/","STRNAMEFRE":"Route Gouvernementale","STRNAMEDUT":"Goevernementsweg","SLOPE":7.17,"LENGTH":49.4352456403597},"bbox":[156904.99929782,169259.191,156925.605,169304.12443619]},{"type":"Feature","id":"StreetAxes.fid--324554a4_1a031387ba0_4d86","geometry":{"type":"LineString","coordinates":[[156904.99929782,169304.12443619],[156899.77636051,169315.68384877],[156875.39346433,169368.36409049],[156840.43749949,169443.73015934]]},"geometry_name":"GEOM","properties":{"INSPIRE_ID":"https://databrussels.be/id/streetaxe/99330","TYPE":"S","HIERARCHY":"H","LVL":0,"STARTSN_ID":"https://databrussels.be/id/streetnode/","ENDSN_ID":"https://databrussels.be/id/streetnode/","STRNAMEFRE":"Route Gouvernementale","STRNAMEDUT":"Goevernementsweg","SLOPE":8.53,"LENGTH":153.812064807279},"bbox":[156840.43749949,169304.12443619,156904.99929782,169443.73015934]},{"type":"Feature","id":"StreetAxes.fid--324554a4_1a031387ba0_4dbc","geometry":{"type":"LineString","coordinates":[[156194.43117098,169381.67655654],[156206.99056164,169392.76161618],[156230.76034864,169411.95074139],[156245.21129869,169421.90566316],[156505.83591345,169629.7904451]]},"geometry_name":"GEOM","properties":{"INSPIRE_ID":"https://databrussels.be/id/streetaxe/99602","TYPE":"S","HIERARCHY":"DR","LVL":0,"STARTSN_ID":"https://databrussels.be/id/streetnode/","ENDSN_ID":"https://databrussels.be/id/streetnode/","STRNAMEFRE":"Avenue Orban","STRNAMEDUT":"Orbanlaan","SLOPE":null,"LENGTH":398.226877141549},"bbox":[156194.43117098,169381.67655654,156505.83591345,169629.7904451]}],"numberReturned":57,"grand_bruxelles_source":{"authority":"Paradigm / Brussels-Capital Region","service":"https://geoservices-urbis.irisnet.be/geoserver/urbisvector/wfs","layer":"urbisvector:StreetAxes","crs":"EPSG:31370","bbox":[156500.0,169000.0,157000.0,169500.0],"cell_id":"bxl-e156500-n169000-s500","ownership":"bbox_intersection_source_unclipped"}}
