{"type":"FeatureCollection","totalFeatures":2,"numberMatched":2,"timeStamp":"2026-08-24T03:41:58.097Z","crs":{"type":"name","properties":{"name":"urn:ogc:def:crs:EPSG::31370"}},"bbox":[155466.524,163361.472,155845.857,163580.47725516],"features":[{"type":"Feature","id":"StreetSurfaces.fid--324554a4_1a031387ba0_4dc4","geometry":{"type":"Polygon","coordinates":[[[155466.524,163364.879],[155467.96458007,163363.27846655],[155831.29906179,163571.67893483],[155833.26968907,163573.07474164],[155828.196,163570.312],[155825.662,163569.262],[155823.043,163568.449],[155820.833,163567.698],[155817.608,163565.48],[155752.091,163528.351],[155702.241,163499.6],[155686.122,163490.468],[155662.031,163476.517],[155629.896,163458.249],[155589.468,163434.558],[155538.884,163404.999],[155487.091,163376.292],[155466.524,163364.879]]]},"geometry_name":"GEOM","properties":{"INSPIRE_ID":"https://databrussels.be/id/streetsurface/38568","TYPE":"S","STREET_ID":"https://databrussels.be/id/streetname/5336","STRNAMEFRE":"Drève de la Chapelle","STRNAMEDUT":"Kapeldreef","MUNNISCODE":"21017","HIERARCHY":"T","LVL":0,"ADMIN":"MUN_RBC","AREA":650},"bbox":[155466.524,163363.27846655,155833.26968907,163573.07474164]},{"type":"Feature","id":"StreetSurfaces.fid--324554a4_1a031387ba0_4dc3","geometry":{"type":"Polygon","coordinates":[[[155843.72070199,163580.47725516],[155838.00387884,163576.42799592],[155833.26968907,163573.07474164],[155831.29906179,163571.67893483],[155467.96458007,163363.27846655],[155469.589,163361.472],[155472.178,163363.18],[155474.576,163364.403],[155489.759,163373.441],[155540.373,163402.135],[155590.798,163431.918],[155631.542,163455.365],[155663.408,163474.158],[155687.698,163488.281],[155752.429,163525.839],[155820.018,163564.63],[155823.429,163566.554],[155825.597,163567.536],[155827.202,163568.351],[155828.019,163568.747],[155830.14,163569.419],[155833.571,163570.937],[155837.164,163572.166],[155842.144,163575.88],[155845.857,163578.649],[155843.72070199,163580.47725516]]]},"geometry_name":"GEOM","properties":{"INSPIRE_ID":"https://databrussels.be/id/streetsurface/45371","TYPE":"S","STREET_ID":"https://databrussels.be/id/streetname/5336","STRNAMEFRE":"Drève de la Chapelle","STRNAMEDUT":"Kapeldreef","MUNNISCODE":"21017","HIERARCHY":"T","LVL":0,"ADMIN":"MUN_RBC","AREA":586},"bbox":[155467.96458007,163361.472,155845.857,163580.47725516]}],"numberReturned":2,"grand_bruxelles_source":{"authority":"Paradigm / Brussels-Capital Region","service":"https://geoservices-urbis.irisnet.be/geoserver/urbisvector/wfs","layer":"urbisvector:StreetSurfaces","crs":"EPSG:31370","bbox":[155500.0,163000.0,156000.0,163500.0],"cell_id":"bxl-e155500-n163000-s500","ownership":"bbox_intersection_source_unclipped"}}
