{"type":"FeatureCollection","totalFeatures":45,"numberMatched":45,"timeStamp":"2026-08-24T01:20:43.069Z","crs":{"type":"name","properties":{"name":"urn:ogc:def:crs:EPSG::31370"}},"bbox":[151978.59,164034.881,152777.21214119,165093.88400036],"features":[{"type":"Feature","id":"StreetSurfaces.fid-6d0a8ac7_1a031465927_-1fb1","geometry":{"type":"Polygon","coordinates":[[[152313.88776562,164856.48060024],[152314.26,164855.35000036],[152314.73,164854.79000036],[152315.32,164854.34000036],[152316.09,164854.20000036],[152317.25,164854.29000036],[152336.75,164856.77000036],[152337.42,164857.13000036],[152337.83,164857.62000036],[152338.11,164858.24000036],[152338.18,164859.00000036],[152338.22552573,164859.45327827],[152313.88776562,164856.48060024]]]},"geometry_name":"GEOM","properties":{"INSPIRE_ID":"https://databrussels.be/id/streetsurface/131671","TYPE":"SW","STREET_ID":"https://databrussels.be/id/streetname/293","STRNAMEFRE":"Drève des Tumuli","STRNAMEDUT":"Tumulidreef","MUNNISCODE":"21017","HIERARCHY":"DR","LVL":0,"ADMIN":"MUN_RBC","AREA":60},"bbox":[152313.88776562,164854.20000036,152338.22552573,164859.45327827]},{"type":"Feature","id":"StreetSurfaces.fid-6d0a8ac7_1a031465927_-1fa9","geometry":{"type":"Polygon","coordinates":[[[152247.560804,165084.24990256],[152251,165080.35000036],[152255.38,165073.05000036],[152256.79,165069.52000036],[152257.35,165067.02000036],[152257.67,165062.71000036],[152262.2,165000.00000036],[152265.88,164959.65000036],[152271.53999577,164880.40998746],[152273.4200675,164886.14000036],[152274.750075,164891.31008036],[152274.70996,164892.70000036],[152274.5599725,164896.60000036],[152273.1399725,164917.67008036],[152269.49998,164958.79008036],[152266.42,164993.15008036],[152265.9199825,165000.00000036],[152264.2699425,165022.29008036],[152261.45,165056.14000036],[152261.3600075,165059.38000036],[152260.74,165059.32000036],[152259.840075,165070.43008036],[152259.149955,165078.54000036],[152258.780045,165080.99008036],[152258.2299725,165082.82992036],[152258.17088708,165082.96312313],[152247.560804,165084.24990256]]]},"geometry_name":"GEOM","properties":{"INSPIRE_ID":"https://databrussels.be/id/streetsurface/131691","TYPE":"SW","STREET_ID":"https://databrussels.be/id/streetname/33","STRNAMEFRE":"Drève du Comte","STRNAMEDUT":"Gravendreef","MUNNISCODE":"21016","HIERARCHY":"DR","LVL":0,"ADMIN":"MUN_RBC","AREA":769},"bbox":[152247.560804,164880.40998746,152274.750075,165084.24990256]},{"type":"Feature","id":"StreetSurfaces.fid-6d0a8ac7_1a031465927_-1fb9","geometry":{"type":"Polygon","coordinates":[[[152277.44163052,164842.29541692],[152276.7769475,164843.78752036],[152277.2540675,164844.46400036],[152277.5401975,164845.16192036],[152277.80485,164846.23936036],[152278.1500875,164849.20000036],[152276.9700675,164863.25008036],[152275.1400425,164879.57008036],[152274.649965,164878.23008036],[152272.39698487,164871.59081498],[152272.34001011,164871.42303013],[152272.63138488,164869.17861696],[152275.174,164843.00900036],[152277.44163052,164842.29541692]]]},"geometry_name":"GEOM","properties":{"INSPIRE_ID":"https://databrussels.be/id/streetsurface/131832","TYPE":"SW","STREET_ID":"https://databrussels.be/id/streetname/33","STRNAMEFRE":"Drève du Comte","STRNAMEDUT":"Gravendreef","MUNNISCODE":"21016","HIERARCHY":"DR","LVL":0,"ADMIN":"MUN_RBC","AREA":115},"bbox":[152272.34001011,164842.29541692,152278.1500875,164879.57008036]},{"type":"Feature","id":"StreetSurfaces.fid-6d0a8ac7_1a031465927_-1fb3","geometry":{"type":"Polygon","coordinates":[[[152284.07863556,164852.39370727],[152284.09243763,164852.27219908],[152284.99055035,164851.67775937],[152286.06964534,164851.13407082],[152287.19919184,164850.84143673],[152288.32534307,164850.87850001],[152296.49255779,164851.87926269],[152308.99,164853.35000036],[152309.73,164853.69000036],[152310.2,164854.15000036],[152310.43,164854.60000036],[152310.55,164855.18000036],[152310.51,164855.64000036],[152310.477,164856.06400036],[152284.051,164852.63700036],[152284.07863556,164852.39370727]]]},"geometry_name":"GEOM","properties":{"INSPIRE_ID":"https://databrussels.be/id/streetsurface/131839","TYPE":"SW","STREET_ID":"https://databrussels.be/id/streetname/293","STRNAMEFRE":"Drève des Tumuli","STRNAMEDUT":"Tumulidreef","MUNNISCODE":"21017","HIERARCHY":"DR","LVL":0,"ADMIN":"MUN_RBC","AREA":60},"bbox":[152284.051,164850.84143673,152310.55,164856.06400036]},{"type":"Feature","id":"StreetSurfaces.fid-6d0a8ac7_1a031465927_-1fb6","geometry":{"type":"Polygon","coordinates":[[[152285.01383949,164844.16052415],[152285.09407314,164843.45417731],[152315.43,164846.90000036],[152343.41,164849.81000036],[152403.37,164858.24000036],[152404.68,164858.53000036],[152413.88,164859.62000036],[152415.3,164859.65200036],[152415.09368325,164861.05856858],[152414.57996,164861.10992036],[152411.7699575,164860.89008036],[152394.8900625,164858.53008036],[152360.449915,164853.70000036],[152342.579925,164851.50000036],[152285.5642625,164844.39360036],[152285.01383949,164844.16052415]]]},"geometry_name":"GEOM","properties":{"INSPIRE_ID":"https://databrussels.be/id/streetsurface/131840","TYPE":"SW","STREET_ID":"https://databrussels.be/id/streetname/293","STRNAMEFRE":"Drève des Tumuli","STRNAMEDUT":"Tumulidreef","MUNNISCODE":"21017","HIERARCHY":"DR","LVL":0,"ADMIN":"MUN_RBC","AREA":183},"bbox":[152285.01383949,164843.45417731,152415.3,164861.10992036]},{"type":"Feature","id":"StreetSurfaces.fid-6d0a8ac7_1a031465927_-1fca","geometry":{"type":"Polygon","coordinates":[[[152432.787,164867.46900036],[152432.88349283,164866.23750511],[152442.38,164867.25000036],[152461.17,164869.10000036],[152478.75,164870.56000036],[152498.07,164871.83000036],[152523.89014509,164873.32386269],[152523.796,164874.73800036],[152496.47,164872.91900036],[152494.83,164872.81000036],[152467.04,164870.91000036],[152456.29,164869.31000036],[152432.787,164867.46900036]]]},"geometry_name":"GEOM","properties":{"INSPIRE_ID":"https://databrussels.be/id/streetsurface/131842","TYPE":"SW","STREET_ID":"https://databrussels.be/id/streetname/293","STRNAMEFRE":"Drève des Tumuli","STRNAMEDUT":"Tumulidreef","MUNNISCODE":"21017","HIERARCHY":"DR","LVL":0,"ADMIN":"MUN_RBC","AREA":104},"bbox":[152432.787,164866.23750511,152523.89014509,164874.73800036]},{"type":"Feature","id":"StreetSurfaces.fid-6d0a8ac7_1a031465927_-1fb8","geometry":{"type":"Polygon","coordinates":[[[152283.47837431,164843.49614807],[152282.79920827,164843.19354438],[152283.86,164843.31400036],[152283.47837431,164843.49614807]]]},"geometry_name":"GEOM","properties":{"INSPIRE_ID":"https://databrussels.be/id/streetsurface/131981","TYPE":"SW","STREET_ID":"https://databrussels.be/id/streetname/33","STRNAMEFRE":"Drève du Comte","STRNAMEDUT":"Gravendreef","MUNNISCODE":"21016","HIERARCHY":"DR","LVL":0,"ADMIN":"MUN_RBC","AREA":0},"bbox":[152282.79920827,164843.19354438,152283.86,164843.49614807]},{"type":"Feature","id":"StreetSurfaces.fid-6d0a8ac7_1a031465927_-1fbe","geometry":{"type":"Polygon","coordinates":[[[152431.43839451,164791.70794037],[152432.83067594,164791.53922815],[152432.3400775,164794.49008036],[152431.1600575,164801.54000036],[152421.9324253,164855.08192611],[152420.98,164854.93700036],[152431.149,164793.46005036],[152431.43839451,164791.70794037]]]},"geometry_name":"GEOM","properties":{"INSPIRE_ID":"https://databrussels.be/id/streetsurface/131982","TYPE":"SW","STREET_ID":"https://databrussels.be/id/streetname/3134","STRNAMEFRE":"Drève des Rhododendrons","STRNAMEDUT":"Rododendronsdreef","MUNNISCODE":"21017","HIERARCHY":"DR","LVL":0,"ADMIN":"MUN_RBC","AREA":76},"bbox":[152420.98,164791.53922815,152432.83067594,164855.08192611]},{"type":"Feature","id":"StreetSurfaces.fid-6d0a8ac7_1a031465927_-1fcb","geometry":{"type":"Polygon","coordinates":[[[152429.23086845,164856.1918987],[152431.89,164840.63000036],[152436.8,164810.61000036],[152440.9,164786.74000036],[152444.18,164767.20000036],[152446.19,164755.61000036],[152447.51,164749.48000036],[152449.08,164744.34000036],[152450.96,164739.34000036],[152452.67,164735.60000036],[152455.06,164733.15000036],[152457.4,164731.41000036],[152458.96,164730.59000036],[152460.61,164730.08000036],[152462.43,164729.83000036],[152466.11,164730.14000036],[152492.56,164734.58000036],[152506.76,164736.90000036],[152528.29,164740.51000036],[152531.63,164741.11000036],[152534.32,164741.84000036],[152536.74,164742.83000036],[152538.69,164743.98000036],[152540.13,164745.51000036],[152541.39,164747.16000036],[152542.21,164748.66000036],[152542.78,164750.29000036],[152543.2,164752.23000036],[152543.34,164753.61000036],[152543.31,164755.44000036],[152542.84,164760.85000036],[152541.07,164780.08000036],[152540.57,164785.54000036],[152540.24,164789.21000036],[152538.25,164811.03000036],[152535.57,164839.62000036],[152533.51,164861.77000036],[152533.34361337,164862.9094967],[152531.45,164862.64000036],[152531.91,164861.58000036],[152537.08,164805.11000036],[152537.34,164800.97000036],[152539.57,164779.55000036],[152541.844,164760.76100036],[152542.339,164753.65200036],[152542.063,164751.50100036],[152541.406,164749.43400036],[152540.391,164747.51800036],[152539.049,164745.81500036],[152537.424,164744.37900036],[152535.568,164743.25700036],[152533.542,164742.48400036],[152465.985,164731.13300036],[152464.181,164730.96800036],[152462.371,164731.03600036],[152460.585,164731.33600036],[152458.618,164732.22900036],[152456.834,164733.44700036],[152455.287,164734.95500036],[152454.023,164736.70700036],[152453.08,164738.65000036],[152449.51,164748.62000036],[152447.73,164756.12000036],[152445.7,164768.28000036],[152445.08,164771.06000036],[152441.65,164791.61000036],[152440.52,164796.25000036],[152437.03,164817.16000036],[152436.12,164820.63000036],[152430.679,164856.41200036],[152429.23086845,164856.1918987]]]},"geometry_name":"GEOM","properties":{"INSPIRE_ID":"https://databrussels.be/id/streetsurface/131984","TYPE":"SW","STREET_ID":"https://databrussels.be/id/streetname/3134","STRNAMEFRE":"Drève des Rhododendrons","STRNAMEDUT":"Rododendronsdreef","MUNNISCODE":"21017","HIERARCHY":"DR","LVL":0,"ADMIN":"MUN_RBC","AREA":450},"bbox":[152429.23086845,164729.83000036,152543.34,164862.9094967]},{"type":"Feature","id":"StreetSurfaces.fid-6d0a8ac7_1a031465927_-1fac","geometry":{"type":"Polygon","coordinates":[[[152414.478,164865.25500036],[152414.65624439,164864.04024965],[152420.39,164864.77000036],[152421.07,164865.11000036],[152421.62,164865.68000036],[152421.95,164866.77000036],[152421.798,164866.82100036],[152415.67,164865.43000036],[152414.478,164865.25500036]]]},"geometry_name":"GEOM","properties":{"INSPIRE_ID":"https://databrussels.be/id/streetsurface/132027","TYPE":"SW","STREET_ID":"https://databrussels.be/id/streetname/293","STRNAMEFRE":"Drève des Tumuli","STRNAMEDUT":"Tumulidreef","MUNNISCODE":"21017","HIERARCHY":"DR","LVL":0,"ADMIN":"MUN_RBC","AREA":10},"bbox":[152414.478,164864.04024965,152421.95,164866.82100036]},{"type":"Feature","id":"StreetSurfaces.fid-6d0a8ac7_1a031465927_-1fae","geometry":{"type":"Polygon","coordinates":[[[152414.478,164865.25500036],[152351.938,164856.07500036],[152351.38,164861.06000036],[152346.97917104,164860.52247154],[152347.46,164859.26000036],[152348.07,164858.59000036],[152348.62,164858.31000036],[152349.11,164858.15000036],[152349.37,164858.03000036],[152349.41,164857.84000036],[152349.47,164857.02000036],[152349.78,164856.26000036],[152350.26,164855.65000036],[152351.01,164855.31000036],[152351.91,164855.29000036],[152373.74,164858.33000036],[152412.69,164863.79000036],[152414.65624439,164864.04024965],[152414.478,164865.25500036]]]},"geometry_name":"GEOM","properties":{"INSPIRE_ID":"https://databrussels.be/id/streetsurface/132028","TYPE":"SW","STREET_ID":"https://databrussels.be/id/streetname/293","STRNAMEFRE":"Drève des Tumuli","STRNAMEDUT":"Tumulidreef","MUNNISCODE":"21017","HIERARCHY":"DR","LVL":0,"ADMIN":"MUN_RBC","AREA":80},"bbox":[152346.97917104,164855.29000036,152414.65624439,164865.25500036]},{"type":"Feature","id":"StreetSurfaces.fid-6d0a8ac7_1a031465927_-1fab","geometry":{"type":"Polygon","coordinates":[[[152432.787,164867.46900036],[152427.57,164867.06000036],[152426.39898277,164867.0114156],[152426.85,164866.56000036],[152427.37,164866.16000036],[152427.78,164865.92000036],[152428.2,164865.79000036],[152428.78,164865.80000036],[152432.88349283,164866.23750511],[152432.787,164867.46900036]]]},"geometry_name":"GEOM","properties":{"INSPIRE_ID":"https://databrussels.be/id/streetsurface/132029","TYPE":"SW","STREET_ID":"https://databrussels.be/id/streetname/293","STRNAMEFRE":"Drève des Tumuli","STRNAMEDUT":"Tumulidreef","MUNNISCODE":"21017","HIERARCHY":"DR","LVL":0,"ADMIN":"MUN_RBC","AREA":7},"bbox":[152426.39898277,164865.79000036,152432.88349283,164867.46900036]},{"type":"Feature","id":"StreetSurfaces.fid-6d0a8ac7_1a031465927_-1fc0","geometry":{"type":"Polygon","coordinates":[[[152431.43839451,164791.70794037],[152434.856,164771.05300036],[152437.91,164749.82000036],[152438.69,164746.46000036],[152441.27,164738.66000036],[152442.156,164736.89900036],[152443.325,164734.57700036],[152446.341,164730.15300036],[152447.213,164729.03800036],[152446.63316119,164732.44694418],[152445.60696,164734.07904036],[152444.161045,164736.96704036],[152443.0000175,164739.98000036],[152442.6400475,164740.97008036],[152441.32992,164745.18000036],[152440.2800075,164748.75008036],[152440.01003,164750.03008036],[152439.139925,164754.14000036],[152437.4400075,164763.94000036],[152437.2600225,164765.01008036],[152435.920075,164773.14000036],[152433.02008,164790.40000036],[152432.83067594,164791.53922815],[152431.43839451,164791.70794037]]]},"geometry_name":"GEOM","properties":{"INSPIRE_ID":"https://databrussels.be/id/streetsurface/132080","TYPE":"SW","STREET_ID":"https://databrussels.be/id/streetname/5713","STRNAMEFRE":"Drève des Rhododendrons","STRNAMEDUT":"Rhododendronsdreef","MUNNISCODE":"21016","HIERARCHY":"DR","LVL":0,"ADMIN":"MUN_RBC","AREA":105},"bbox":[152431.43839451,164729.03800036,152447.213,164791.70794037]},{"type":"Feature","id":"StreetSurfaces.fid-6d0a8ac7_1a031465927_-1fc7","geometry":{"type":"Polygon","coordinates":[[[152540.450086,164863.92087971],[152540.429945,164863.32992036],[152543.4199325,164832.04000036],[152544.9400425,164816.23008036],[152546.75001,164797.44000036],[152550.1599625,164759.75008036],[152550.479995,164755.10992036],[152550.18996,164751.28000036],[152549.7999925,164748.40000036],[152548.76996,164745.76992036],[152547.059925,164742.92000036],[152544.0500575,164739.40000036],[152541.66002,164737.66000036],[152539.30992,164736.24000036],[152537.05993,164735.31008036],[152534.5900175,164734.60992036],[152531.6300275,164733.99008036],[152519.6200225,164731.90000036],[152494.7700225,164727.79008036],[152474.0600325,164724.26992036],[152466.819985,164723.04992036],[152463.3099225,164722.71008036],[152460.3399925,164722.98000036],[152460.199945,164723.01008036],[152457.0899675,164723.68000036],[152454.5999975,164724.81008036],[152452.5200525,164726.04992036],[152450.2100675,164727.82000036],[152449.300025,164728.79008036],[152447.3260475,164731.34496036],[152446.63316119,164732.44694418],[152447.213,164729.03800036],[152448.231,164727.73700036],[152448.706,164727.23400036],[152450.13774875,164725.720266],[152450.63,164725.20000036],[152454.39,164723.03000036],[152457.1,164721.95000036],[152459.38,164721.34000036],[152461.67,164721.07000036],[152471.72,164722.07000036],[152524.28,164731.25000036],[152530.38,164732.20000036],[152538.956,164734.46700036],[152543.1,164736.13000036],[152544.38,164737.12000036],[152549.61,164743.06000036],[152551.7,164750.51000036],[152552.34,164756.71000036],[152550.92,164767.01000036],[152545.29,164824.69000036],[152545.1,164828.20000036],[152544.42,164834.55000036],[152542.06,164864.15000036],[152540.450086,164863.92087971]]]},"geometry_name":"GEOM","properties":{"INSPIRE_ID":"https://databrussels.be/id/streetsurface/132081","TYPE":"SW","STREET_ID":"https://databrussels.be/id/streetname/3134","STRNAMEFRE":"Drève des Rhododendrons","STRNAMEDUT":"Rododendronsdreef","MUNNISCODE":"21017","HIERARCHY":"DR","LVL":0,"ADMIN":"MUN_RBC","AREA":343},"bbox":[152446.63316119,164721.07000036,152552.34,164864.15000036]},{"type":"Feature","id":"StreetSurfaces.fid-6d0a8ac7_1a031465927_-1fb2","geometry":{"type":"Polygon","coordinates":[[[152284.07863556,164852.39370727],[152284.051,164852.63700036],[152281.563,164879.20500036],[152272.38,165000.00000036],[152268.27,165052.60000036],[152266.939,165067.85700036],[152265.7,165082.05000036],[152263.65373591,165082.2981691],[152263.63,165081.62000036],[152264.08,165074.39000036],[152265.2,165059.98000036],[152266.88,165036.77000036],[152269.52,165005.25000036],[152269.92,165000.00000036],[152270.46,164992.86000036],[152274.21,164948.38000036],[152277.33,164908.46000036],[152279.57,164879.04000036],[152281.37106053,164860.85586961],[152281.82106275,164857.10109731],[152282.14427099,164855.33678632],[152282.56685299,164854.20656199],[152283.19949651,164853.26300552],[152284.07863556,164852.39370727]]]},"geometry_name":"GEOM","properties":{"INSPIRE_ID":"https://databrussels.be/id/streetsurface/132156","TYPE":"SW","STREET_ID":"https://databrussels.be/id/streetname/3809","STRNAMEFRE":"Drève du Comte","STRNAMEDUT":"Gravendreef","MUNNISCODE":"21017","HIERARCHY":"DR","LVL":0,"ADMIN":"MUN_RBC","AREA":512},"bbox":[152263.63,164852.39370727,152284.07863556,165082.2981691]},{"type":"Feature","id":"StreetSurfaces.fid-6d0a8ac7_1a031465927_-1fb7","geometry":{"type":"Polygon","coordinates":[[[152283.47837431,164843.49614807],[152283.86,164843.31400036],[152285.09407314,164843.45417731],[152285.01383949,164844.16052415],[152284.1201225,164843.78208036],[152283.47837431,164843.49614807]]]},"geometry_name":"GEOM","properties":{"INSPIRE_ID":"https://databrussels.be/id/streetsurface/132158","TYPE":"SW","STREET_ID":"https://databrussels.be/id/streetname/3809","STRNAMEFRE":"Drève du Comte","STRNAMEDUT":"Gravendreef","MUNNISCODE":"21017","HIERARCHY":"DR","LVL":0,"ADMIN":"MUN_RBC","AREA":1},"bbox":[152283.47837431,164843.31400036,152285.09407314,164844.16052415]},{"type":"Feature","id":"StreetSurfaces.fid-6d0a8ac7_1a031465927_-1fb0","geometry":{"type":"Polygon","coordinates":[[[152420.98,164854.93700036],[152421.9324253,164855.08192611],[152421.7500725,164856.14000036],[152421.5700875,164856.87008036],[152421.020015,164857.76000036],[152420.549995,164858.46000036],[152419.3999725,164859.53008036],[152417.9700325,164860.47008036],[152416.47992,164860.92000036],[152415.09368325,164861.05856858],[152415.3,164859.65200036],[152416.695,164859.38600036],[152418.002,164858.83200036],[152419.164,164858.01500036],[152420.129,164856.97300036],[152420.657,164855.99800036],[152420.98,164854.93700036]]]},"geometry_name":"GEOM","properties":{"INSPIRE_ID":"https://databrussels.be/id/streetsurface/132159","TYPE":"SW","STREET_ID":"https://databrussels.be/id/streetname/293","STRNAMEFRE":"Drève des Tumuli","STRNAMEDUT":"Tumulidreef","MUNNISCODE":"21017","HIERARCHY":"DR","LVL":0,"ADMIN":"MUN_RBC","AREA":12},"bbox":[152415.09368325,164854.93700036,152421.9324253,164861.05856858]},{"type":"Feature","id":"StreetSurfaces.fid-6d0a8ac7_1a031465927_-1fad","geometry":{"type":"Polygon","coordinates":[[[152429.23086845,164856.1918987],[152430.679,164856.41200036],[152430.58,164857.06000036],[152430.529,164858.24400036],[152430.799,164859.39900036],[152431.37,164860.43800036],[152432.199,164861.28500036],[152433.225,164861.87800036],[152433.09741869,164863.50684669],[152432.897,164863.46300036],[152431.68,164862.87400036],[152430.632,164862.01900036],[152429.812,164860.94400036],[152429.264,164859.70800036],[152429.018,164858.37800036],[152429.088,164857.02800036],[152429.23086845,164856.1918987]]]},"geometry_name":"GEOM","properties":{"INSPIRE_ID":"https://databrussels.be/id/streetsurface/132160","TYPE":"SW","STREET_ID":"https://databrussels.be/id/streetname/293","STRNAMEFRE":"Drève des Tumuli","STRNAMEDUT":"Tumulidreef","MUNNISCODE":"21017","HIERARCHY":"DR","LVL":0,"ADMIN":"MUN_RBC","AREA":12},"bbox":[152429.018,164856.1918987,152433.225,164863.50684669]},{"type":"Feature","id":"StreetSurfaces.fid-6d0a8ac7_1a031465927_-1fc8","geometry":{"type":"Polygon","coordinates":[[[152524.07998118,164870.47236639],[152480.45,164867.93000036],[152474.91,164867.52000036],[152458.57,164866.15000036],[152434.218,164863.75200036],[152433.09741869,164863.50684669],[152433.225,164861.87800036],[152434.373,164862.17300036],[152442.55,164863.03000036],[152447.99,164863.38000036],[152478.15,164866.43000036],[152524.18,164868.97000036],[152524.07998118,164870.47236639]]]},"geometry_name":"GEOM","properties":{"INSPIRE_ID":"https://databrussels.be/id/streetsurface/132161","TYPE":"SW","STREET_ID":"https://databrussels.be/id/streetname/293","STRNAMEFRE":"Drève des Tumuli","STRNAMEDUT":"Tumulidreef","MUNNISCODE":"21017","HIERARCHY":"DR","LVL":0,"ADMIN":"MUN_RBC","AREA":138},"bbox":[152433.09741869,164861.87800036,152524.18,164870.47236639]},{"type":"Feature","id":"StreetSurfaces.fid-6d0a8ac7_1a031465927_-1fc4","geometry":{"type":"Polygon","coordinates":[[[152701.778,164984.45600036],[152702.39771167,164988.29053487],[152702.12304136,164988.47914053],[152701.41677996,164988.85985962],[152700.67380426,164989.16274455],[152699.90266187,164989.38431077],[152696.2219183,164990.2125212],[152693.31508516,164990.90706045],[152692.57849888,164991.07257994],[152683.29357029,164993.33967854],[152681.21320362,164992.03079381],[152675.16904117,164993.45417045],[152666.86475863,164995.29532403],[152658.86122063,164997.04660712],[152652.04239181,164998.6051637],[152646.7311776,164999.78223965],[152641.22,165001.02000036],[152623.95,165004.88000036],[152607.4,165008.52000036],[152603.16,165009.45000036],[152602,165009.71000036],[152580.58,165014.52000036],[152561.27,165018.94000036],[152547.15,165022.19000036],[152536.97,165024.46000036],[152536.46,165024.57000036],[152532.23,165025.52000036],[152526.92,165026.74000036],[152524.82,165027.23000036],[152519.43,165028.47000036],[152518.51,165028.69000036],[152507.48,165031.21000036],[152499.77,165032.83000036],[152496.38,165033.61000036],[152494.88,165033.96000036],[152494.52,165034.01000036],[152494.19,165033.96000036],[152493.72,165033.78000036],[152493.03,165033.44000036],[152492.72,165033.08000036],[152492.37,165032.67000036],[152492.1525762,165031.90769889],[152633.37,165000.00000036],[152646.215,164997.01500036],[152654.763,164995.09400036],[152660.232,164993.86900036],[152675.234,164990.41700036],[152676.649,164990.07100036],[152677.193,164989.99900036],[152677.284,164990.04500036],[152693.109,164986.43200036],[152701.778,164984.45600036]]]},"geometry_name":"GEOM","properties":{"INSPIRE_ID":"https://databrussels.be/id/streetsurface/133521","TYPE":"SW","STREET_ID":"https://databrussels.be/id/streetname/302","STRNAMEFRE":"Chaussée de La Hulpe","STRNAMEDUT":"Terhulpsesteenweg","MUNNISCODE":"21017","HIERARCHY":"MER","LVL":0,"ADMIN":"REGION_RBC","AREA":608},"bbox":[152492.1525762,164984.45600036,152702.39771167,165034.01000036]},{"type":"Feature","id":"StreetSurfaces.fid-6d0a8ac7_1a031465927_-1fbf","geometry":{"type":"Polygon","coordinates":[[[152446.63316119,164732.44694418],[152436.66135693,164791.07503844],[152432.83067594,164791.53922815],[152433.02008,164790.40000036],[152435.920075,164773.14000036],[152437.2600225,164765.01008036],[152437.4400075,164763.94000036],[152439.139925,164754.14000036],[152440.01003,164750.03008036],[152440.2800075,164748.75008036],[152441.32992,164745.18000036],[152442.6400475,164740.97008036],[152443.0000175,164739.98000036],[152444.161045,164736.96704036],[152445.60696,164734.07904036],[152446.63316119,164732.44694418]]]},"geometry_name":"GEOM","properties":{"INSPIRE_ID":"https://databrussels.be/id/streetsurface/27198","TYPE":"S","STREET_ID":"https://databrussels.be/id/streetname/5713","STRNAMEFRE":"Drève des Rhododendrons","STRNAMEDUT":"Rhododendronsdreef","MUNNISCODE":"21016","HIERARCHY":"DR","LVL":0,"ADMIN":"MUN_RBC","AREA":198},"bbox":[152432.83067594,164732.44694418,152446.63316119,164791.53922815]},{"type":"Feature","id":"StreetSurfaces.fid-6d0a8ac7_1a031465927_-1fce","geometry":{"type":"Polygon","coordinates":[[[152551.71,165030.52000036],[152522.96,165036.97000036],[152494.36,165043.44000036],[152469.2,165049.23000036],[152443.4,165055.01000036],[152412.31,165062.02000036],[152384.65,165068.28000036],[152353.27,165075.33000036],[152329.89,165080.54000036],[152310.088,165084.71900036],[152300.517,165086.71800036],[152296.585,165087.48600036],[152295.688,165087.65900036],[152295.279,165087.83200036],[152294.945,165088.12500036],[152294.881,165088.20600036],[152294.823,165088.29100036],[152294.772,165088.38000036],[152294.726,165088.47200036],[152294.687,165088.56700036],[152294.655,165088.66500036],[152294.63,165088.76400036],[152294.612,165088.86600036],[152294.6,165088.96800036],[152294.596,165089.07100036],[152294.6,165089.17400036],[152294.61,165089.27600036],[152294.627,165089.37700036],[152294.652,165089.47700036],[152274.501,165093.88400036],[152272.69376952,165085.41439761],[152274.26,165085.09000036],[152290.83,165081.55000036],[152295.25,165080.57000036],[152299.07,165079.73000036],[152300.48,165079.42000036],[152315.35,165076.20000036],[152326.18,165073.87000036],[152327.93,165073.51000036],[152328.91,165073.22000036],[152329.88,165072.82000036],[152331.32,165072.16000036],[152333.25,165071.13000036],[152334.99,165070.22000036],[152335.7,165069.98000036],[152336.96,165069.60000036],[152345.79,165067.60000036],[152353.99,165065.77000036],[152355.21,165065.50000036],[152356.78,165065.14000036],[152361.65,165064.03000036],[152368.42,165062.50000036],[152373.54,165061.34000036],[152381.86,165059.46000036],[152382.59,165059.29000036],[152396.21,165056.25000036],[152397.02,165056.07000036],[152413.91,165052.29000036],[152424.45,165049.84000036],[152426.42,165049.38000036],[152426.65,165049.33000036],[152442.54,165045.72000036],[152459.35,165041.99000036],[152464.38,165040.85000036],[152465.08,165040.69000036],[152465.53,165040.52000036],[152465.72,165040.45000036],[152466.1,165040.18000036],[152466.49,165039.65000036],[152466.73,165038.76000036],[152467.2883746,165037.52569862],[152470.52954161,165036.79336561],[152473.15,165036.22000036],[152473.284,165036.18900036],[152473.57,165037.28000036],[152473.66,165037.42000036],[152474.01,165037.94000036],[152474.55,165038.57000036],[152475.18,165039.12000036],[152476.43,165039.89000036],[152476.85,165040.03000036],[152477.14,165040.05000036],[152479.31,165039.56000036],[152481.05,165039.08000036],[152481.46,165038.63000036],[152481.83,165037.97000036],[152482.08,165037.20000036],[152482.179,165036.90400036],[152482.396,165036.06600036],[152482.48,165035.44500036],[152482.499,165035.28000036],[152482.26738592,165034.14123114],[152490.83665316,165032.20502817],[152492.1525762,165031.90769889],[152492.37,165032.67000036],[152492.72,165033.08000036],[152493.03,165033.44000036],[152493.72,165033.78000036],[152494.19,165033.96000036],[152494.52,165034.01000036],[152494.88,165033.96000036],[152496.38,165033.61000036],[152499.77,165032.83000036],[152507.48,165031.21000036],[152518.51,165028.69000036],[152519.43,165028.47000036],[152524.82,165027.23000036],[152526.92,165026.74000036],[152532.23,165025.52000036],[152536.46,165024.57000036],[152536.97,165024.46000036],[152547.15,165022.19000036],[152561.27,165018.94000036],[152580.58,165014.52000036],[152602,165009.71000036],[152603.16,165009.45000036],[152607.4,165008.52000036],[152623.95,165004.88000036],[152641.22,165001.02000036],[152646.7311776,164999.78223965],[152652.04239181,164998.6051637],[152658.86122063,164997.04660712],[152666.86475863,164995.29532403],[152675.16904117,164993.45417045],[152681.21320362,164992.03079381],[152683.29357029,164993.33967854],[152692.57849888,164991.07257994],[152693.31508516,164990.90706045],[152696.2219183,164990.2125212],[152699.90266187,164989.38431077],[152700.67380426,164989.16274455],[152701.41677996,164988.85985962],[152702.12304136,164988.47914053],[152702.39771167,164988.29053487],[152703.47261708,164994.94359089],[152700.91658944,164995.53270147],[152697.72977815,164996.27766395],[152694.84048838,164996.99102863],[152694.05354094,164997.18532569],[152688.32298831,164998.64685939],[152686.09467704,164999.33323399],[152679.692,165001.30500036],[152672.95243488,165003.3972614],[152672.514,165003.51300036],[152668.624,165004.32000036],[152668.41678805,165004.36513962],[152657.41763883,165006.76120554],[152652.58759765,165007.81338665],[152650.73937659,165008.21600502],[152648.59472225,165008.68319872],[152636.72,165011.27000036],[152623.48,165014.21000036],[152609.34,165017.33000036],[152596.19016894,165020.35375831],[152581.29,165023.78000036],[152570.38344761,165026.26513096],[152551.71,165030.52000036]]]},"geometry_name":"GEOM","properties":{"INSPIRE_ID":"https://databrussels.be/id/streetsurface/27410","TYPE":"S","STREET_ID":"https://databrussels.be/id/streetname/302","STRNAMEFRE":"Chaussée de La Hulpe","STRNAMEDUT":"Terhulpsesteenweg","MUNNISCODE":"21017","HIERARCHY":"MER","LVL":0,"ADMIN":"REGION_RBC","AREA":3912},"bbox":[152272.69376952,164988.29053487,152703.47261708,165093.88400036]},{"type":"Feature","id":"StreetSurfaces.fid-6d0a8ac7_1a031465927_-1fcc","geometry":{"type":"Polygon","coordinates":[[[152429.23086845,164856.1918987],[152425.83,164855.67500036],[152421.9324253,164855.08192611],[152431.1600575,164801.54000036],[152432.3400775,164794.49008036],[152432.83067594,164791.53922815],[152436.66135693,164791.07503844],[152446.63316119,164732.44694418],[152447.3260475,164731.34496036],[152449.300025,164728.79008036],[152450.2100675,164727.82000036],[152452.5200525,164726.04992036],[152454.5999975,164724.81008036],[152457.0899675,164723.68000036],[152460.199945,164723.01008036],[152460.3399925,164722.98000036],[152463.3099225,164722.71008036],[152466.819985,164723.04992036],[152474.0600325,164724.26992036],[152494.7700225,164727.79008036],[152519.6200225,164731.90000036],[152531.6300275,164733.99008036],[152534.5900175,164734.60992036],[152537.05993,164735.31008036],[152539.30992,164736.24000036],[152541.66002,164737.66000036],[152544.0500575,164739.40000036],[152547.059925,164742.92000036],[152548.76996,164745.76992036],[152549.7999925,164748.40000036],[152550.18996,164751.28000036],[152550.479995,164755.10992036],[152550.1599625,164759.75008036],[152546.75001,164797.44000036],[152544.9400425,164816.23008036],[152543.4199325,164832.04000036],[152540.429945,164863.32992036],[152540.450086,164863.92087971],[152536.755,164863.39500036],[152533.34361337,164862.9094967],[152533.51,164861.77000036],[152535.57,164839.62000036],[152538.25,164811.03000036],[152540.24,164789.21000036],[152540.57,164785.54000036],[152541.07,164780.08000036],[152542.84,164760.85000036],[152543.31,164755.44000036],[152543.34,164753.61000036],[152543.2,164752.23000036],[152542.78,164750.29000036],[152542.21,164748.66000036],[152541.39,164747.16000036],[152540.13,164745.51000036],[152538.69,164743.98000036],[152536.74,164742.83000036],[152534.32,164741.84000036],[152531.63,164741.11000036],[152528.29,164740.51000036],[152506.76,164736.90000036],[152492.56,164734.58000036],[152466.11,164730.14000036],[152462.43,164729.83000036],[152460.61,164730.08000036],[152458.96,164730.59000036],[152457.4,164731.41000036],[152455.06,164733.15000036],[152452.67,164735.60000036],[152450.96,164739.34000036],[152449.08,164744.34000036],[152447.51,164749.48000036],[152446.19,164755.61000036],[152444.18,164767.20000036],[152440.9,164786.74000036],[152436.8,164810.61000036],[152431.89,164840.63000036],[152429.23086845,164856.1918987]]]},"geometry_name":"GEOM","properties":{"INSPIRE_ID":"https://databrussels.be/id/streetsurface/27426","TYPE":"S","STREET_ID":"https://databrussels.be/id/streetname/3134","STRNAMEFRE":"Drève des Rhododendrons","STRNAMEDUT":"Rododendronsdreef","MUNNISCODE":"21017","HIERARCHY":"DR","LVL":0,"ADMIN":"MUN_RBC","AREA":2261},"bbox":[152421.9324253,164722.71008036,152550.479995,164863.92087971]},{"type":"Feature","id":"StreetSurfaces.fid-6d0a8ac7_1a031465927_-1fb4","geometry":{"type":"Polygon","coordinates":[[[152313.88776562,164856.48060024],[152310.477,164856.06400036],[152310.51,164855.64000036],[152310.55,164855.18000036],[152310.43,164854.60000036],[152310.2,164854.15000036],[152309.73,164853.69000036],[152308.99,164853.35000036],[152296.49255779,164851.87926269],[152288.32534307,164850.87850001],[152287.19919184,164850.84143673],[152286.06964534,164851.13407082],[152284.99055035,164851.67775937],[152284.09243763,164852.27219908],[152285.01383949,164844.16052415],[152285.5642625,164844.39360036],[152342.579925,164851.50000036],[152360.449915,164853.70000036],[152394.8900625,164858.53008036],[152411.7699575,164860.89008036],[152414.57996,164861.10992036],[152415.09368325,164861.05856858],[152414.889,164862.45400036],[152414.65624439,164864.04024965],[152412.69,164863.79000036],[152373.74,164858.33000036],[152351.91,164855.29000036],[152351.01,164855.31000036],[152350.26,164855.65000036],[152349.78,164856.26000036],[152349.47,164857.02000036],[152349.41,164857.84000036],[152349.37,164858.03000036],[152349.11,164858.15000036],[152348.62,164858.31000036],[152348.07,164858.59000036],[152347.46,164859.26000036],[152346.97917104,164860.52247154],[152338.69940701,164859.51115938],[152338.22552573,164859.45327827],[152338.18,164859.00000036],[152338.11,164858.24000036],[152337.83,164857.62000036],[152337.42,164857.13000036],[152336.75,164856.77000036],[152317.25,164854.29000036],[152316.09,164854.20000036],[152315.32,164854.34000036],[152314.73,164854.79000036],[152314.26,164855.35000036],[152313.88776562,164856.48060024]]]},"geometry_name":"GEOM","properties":{"INSPIRE_ID":"https://databrussels.be/id/streetsurface/27428","TYPE":"S","STREET_ID":"https://databrussels.be/id/streetname/293","STRNAMEFRE":"Drève des Tumuli","STRNAMEDUT":"Tumulidreef","MUNNISCODE":"21017","HIERARCHY":"DR","LVL":0,"ADMIN":"MUN_RBC","AREA":610},"bbox":[152284.09243763,164844.16052415,152415.09368325,164864.04024965]},{"type":"Feature","id":"StreetSurfaces.fid-6d0a8ac7_1a031465927_-1fb5","geometry":{"type":"Polygon","coordinates":[[[152283.47837431,164843.49614807],[152284.1201225,164843.78208036],[152285.01383949,164844.16052415],[152284.09243763,164852.27219908],[152284.07863556,164852.39370727],[152283.19949651,164853.26300552],[152282.56685299,164854.20656199],[152282.14427099,164855.33678632],[152281.82106275,164857.10109731],[152281.37106053,164860.85586961],[152279.57,164879.04000036],[152277.33,164908.46000036],[152274.21,164948.38000036],[152270.46,164992.86000036],[152269.92,165000.00000036],[152269.52,165005.25000036],[152266.88,165036.77000036],[152265.2,165059.98000036],[152264.08,165074.39000036],[152263.63,165081.62000036],[152263.65373591,165082.2981691],[152261.80126991,165082.52283422],[152261.88934417,165081.42182706],[152274.96627968,164917.93986317],[152280.7384821,164844.80081621],[152283.47837431,164843.49614807]]]},"geometry_name":"GEOM","properties":{"INSPIRE_ID":"https://databrussels.be/id/streetsurface/27433","TYPE":"S","STREET_ID":"https://databrussels.be/id/streetname/3809","STRNAMEFRE":"Drève du Comte","STRNAMEDUT":"Gravendreef","MUNNISCODE":"21017","HIERARCHY":"DR","LVL":0,"ADMIN":"MUN_RBC","AREA":405},"bbox":[152261.80126991,164843.49614807,152285.01383949,165082.52283422]},{"type":"Feature","id":"StreetSurfaces.fid-6d0a8ac7_1a031465927_-1fba","geometry":{"type":"Polygon","coordinates":[[[152283.47837431,164843.49614807],[152280.7384821,164844.80081621],[152274.96627968,164917.93986317],[152261.88934417,165081.42182706],[152261.80126991,165082.52283422],[152258.17088708,165082.96312313],[152258.2299725,165082.82992036],[152258.780045,165080.99008036],[152259.149955,165078.54000036],[152259.840075,165070.43008036],[152260.74,165059.32000036],[152261.3600075,165059.38000036],[152261.45,165056.14000036],[152264.2699425,165022.29008036],[152265.9199825,165000.00000036],[152266.42,164993.15008036],[152269.49998,164958.79008036],[152273.1399725,164917.67008036],[152274.5599725,164896.60000036],[152274.70996,164892.70000036],[152274.750075,164891.31008036],[152273.4200675,164886.14000036],[152271.53999577,164880.40998746],[152272.39698487,164871.59081498],[152274.649965,164878.23008036],[152275.1400425,164879.57008036],[152276.9700675,164863.25008036],[152278.1500875,164849.20000036],[152277.80485,164846.23936036],[152277.5401975,164845.16192036],[152277.2540675,164844.46400036],[152276.7769475,164843.78752036],[152277.44163052,164842.29541692],[152279.39963249,164841.67885707],[152279.87917485,164841.89251806],[152282.79920827,164843.19354438],[152283.47837431,164843.49614807]]]},"geometry_name":"GEOM","properties":{"INSPIRE_ID":"https://databrussels.be/id/streetsurface/29844","TYPE":"S","STREET_ID":"https://databrussels.be/id/streetname/33","STRNAMEFRE":"Drève du Comte","STRNAMEDUT":"Gravendreef","MUNNISCODE":"21016","HIERARCHY":"DR","LVL":0,"ADMIN":"MUN_RBC","AREA":613},"bbox":[152258.17088708,164841.67885707,152283.47837431,165082.96312313]},{"type":"Feature","id":"StreetSurfaces.fid-6d0a8ac7_1a031465927_-1fc5","geometry":{"type":"Polygon","coordinates":[[[152508.523,165050.85700036],[152471.513,165059.20000036],[152471.055,165057.02500036],[152470.479,165057.23300036],[152469.902,165057.44200036],[152469.333,165057.66700036],[152468.758,165057.91500036],[152468.19,165058.18100036],[152467.642,165058.48000036],[152467.157,165058.78000036],[152466.689,165059.10800036],[152466.263,165059.47900036],[152465.963,165059.82700036],[152465.69,165060.20300036],[152465.418,165060.57900036],[152463.75204404,165052.66320963],[152481.19,165048.77000036],[152505.14,165043.32000036],[152526.81,165038.49000036],[152546.81,165033.93000036],[152565.59,165029.63000036],[152588.87,165024.39000036],[152623.15,165016.77000036],[152640.36,165012.87000036],[152649.112,165011.06000036],[152661.9762106,165008.24103698],[152667.34254963,165007.06521744],[152668.42554383,165006.82972806],[152672.547,165005.93400036],[152673.51453935,165005.70555357],[152673.98681128,165005.5942696],[152678.04016433,165004.62306856],[152682.503,165003.55400036],[152695.78,165000.27700036],[152698.637,164999.57700036],[152703.03319597,164998.56180474],[152705.651998,164997.98242756],[152708.95334477,164997.27230248],[152709.07228022,164997.24746453],[152715.59113513,164995.90654246],[152715.69089539,164995.88633254],[152715.7910396,164995.8666632],[152722.313,164994.60600036],[152728.83338178,164993.42413818],[152728.94997696,164993.40336668],[152730.9985744,164993.04856801],[152733.545,164992.60800036],[152736.06175893,164992.1802043],[152737.82213098,164991.88129309],[152739.67408292,164991.59104524],[152742.108,164991.21000036],[152743.99877843,164990.93787622],[152746.40243126,164990.59246457],[152748.9076241,164990.26328742],[152750.259,164990.08600036],[152753.50504665,164989.69684459],[152754.12070726,164989.6230883],[152754.52257543,164989.57959241],[152757.988,164989.20500036],[152762.009,164988.82000036],[152763.403,164988.73200036],[152765.29314646,164988.62381227],[152766.40809536,164988.56024515],[152768.57717723,164988.40338797],[152776.08482413,164988.21000488],[152772.61302152,164996.75994736],[152771.96266591,164996.36147788],[152771.16143998,164996.05426763],[152770.650154,164995.96652861],[152769.298,164995.73500036],[152769.07948673,164995.71523666],[152766.68166136,164995.66449546],[152763.66395481,164995.64113016],[152762.53205021,164995.66242527],[152755.248,164995.94500036],[152751.11030001,164996.32017732],[152748.3219802,164996.57331036],[152741.91673795,164997.50711607],[152731.33012293,164999.15010905],[152730.41826792,164999.32574063],[152727.024,164999.98000036],[152719.462,165001.44500036],[152710.7945222,165003.30845911],[152703.5046203,165004.87637436],[152697.289,165006.33700036],[152694.47490199,165007.0716607],[152691.4679684,165007.86108632],[152686.19807365,165010.89798819],[152681.84661118,165011.85649234],[152670.354,165014.38800036],[152651.23307205,165018.68173018],[152650.79113034,165018.78100762],[152634.17720038,165022.52099848],[152631.49273497,165023.11046861],[152611.199,165027.56700036],[152517.326,165048.87700036],[152516.986,165048.77000036],[152516.814,165048.73300036],[152516.513,165048.73300036],[152516.208,165048.78100036],[152515.903,165048.81700036],[152515.528,165048.82100036],[152508.523,165050.85700036]]]},"geometry_name":"GEOM","properties":{"INSPIRE_ID":"https://databrussels.be/id/streetsurface/29847","TYPE":"S","STREET_ID":"https://databrussels.be/id/streetname/302","STRNAMEFRE":"Chaussée de La Hulpe","STRNAMEDUT":"Terhulpsesteenweg","MUNNISCODE":"21017","HIERARCHY":"MER","LVL":0,"ADMIN":"REGION_RBC","AREA":2388},"bbox":[152463.75204404,164988.21000488,152776.08482413,165060.57900036]},{"type":"Feature","id":"StreetSurfaces.fid-6d0a8ac7_1a031465927_-1fbd","geometry":{"type":"Polygon","coordinates":[[[152222.518,164818.617],[152223.589,164816.373],[152226.04868428,164813.25134393],[152228.15606547,164815.30236536],[152230.672768,164817.49712762],[152231.9040336,164818.53830208],[152235.24425509,164820.71252275],[152237.34350399,164821.87333306],[152245.04069082,164825.40136628],[152243.09148238,164827.78636261],[152242.57429055,164827.71683568],[152242.20327693,164827.71197496],[152241.88507788,164827.77654445],[152241.71021269,164827.8920675],[152241.61803117,164828.22844196],[152241.63652504,164828.52483193],[152241.71069675,164828.89022973],[152241.86724293,164829.22647704],[152242.26,164829.56],[152239.99904259,164832.23192978],[152235.828,164828.19],[152228.814,164821.394],[152222.518,164818.617]]]},"geometry_name":"GEOM","properties":{"INSPIRE_ID":"https://databrussels.be/id/streetsurface/37734","TYPE":"I","STREET_ID":"https://databrussels.be/id/streetname/3925","STRNAMEFRE":"Drève du Caporal","STRNAMEDUT":"Korporaaldreef","MUNNISCODE":"21016","HIERARCHY":"T","LVL":0,"ADMIN":"MUN_RBC","AREA":129},"bbox":[152222.518,164813.25134393,152245.04069082,164832.23192978]},{"type":"Feature","id":"StreetSurfaces.fid-6d0a8ac7_1a031465927_-1fc2","geometry":{"type":"Polygon","coordinates":[[[152236.997,164581.741],[152238.543,164580.259],[152268.272,164594.268],[152292.878,164606.216],[152312.638,164616.466],[152341.791,164630.543],[152364.088,164641.711],[152388.426,164653.22],[152415.143,164665.016],[152416.618,164667.82],[152429.716,164690.89],[152448.30804966,164722.59962666],[152447.78656224,164725.6656529],[152427.984,164691.89],[152426.87024854,164689.92850052],[152414.862,164668.78],[152413.697,164666.564],[152387.594,164655.04],[152363.212,164643.509],[152340.909,164632.337],[152311.742,164618.254],[152298.69,164611.478],[152291.982,164608.004],[152267.408,164596.072],[152236.997,164581.741]]]},"geometry_name":"GEOM","properties":{"INSPIRE_ID":"https://databrussels.be/id/streetsurface/37791","TYPE":"S","STREET_ID":"https://databrussels.be/id/streetname/2868","STRNAMEFRE":"Drève des Enfants Noyés","STRNAMEDUT":"Verdronken Kinderendreef","MUNNISCODE":"21016","HIERARCHY":"T","LVL":0,"ADMIN":"MUN_RBC","AREA":527},"bbox":[152236.997,164580.259,152448.30804966,164725.6656529]},{"type":"Feature","id":"StreetSurfaces.fid-6d0a8ac7_1a031465927_-1fbc","geometry":{"type":"Polygon","coordinates":[[[152243.09148238,164827.78636261],[152245.04069082,164825.40136628],[152245.7587727,164825.75037671],[152270.44857561,164837.75039942],[152276.52907767,164840.46348923],[152279.3997414,164841.67882241],[152277.44163052,164842.29541692],[152275.174,164843.009],[152270.41906739,164840.70018773],[152257.85784472,164834.74951915],[152244.31880534,164828.37204745],[152243.72751887,164828.04992625],[152243.09148238,164827.78636261]]]},"geometry_name":"GEOM","properties":{"INSPIRE_ID":"https://databrussels.be/id/streetsurface/37795","TYPE":"S","STREET_ID":"https://databrussels.be/id/streetname/3925","STRNAMEFRE":"Drève du Caporal","STRNAMEDUT":"Korporaaldreef","MUNNISCODE":"21016","HIERARCHY":"T","LVL":0,"ADMIN":"MUN_RBC","AREA":104},"bbox":[152243.09148238,164825.40136628,152279.3997414,164843.009]},{"type":"Feature","id":"StreetSurfaces.fid-6d0a8ac7_1a031465927_-1fbb","geometry":{"type":"Polygon","coordinates":[[[152239.99904259,164832.23192978],[152242.26,164829.56],[152243.65366838,164830.79401562],[152251.32056955,164838.16246796],[152257.51564843,164844.92749915],[152261.96952911,164850.50493108],[152267.37967556,164859.18347838],[152270.3497854,164865.76314064],[152271.85,164869.98],[152272.39698487,164871.59081462],[152271.54,164880.41],[152269.33,164873.67],[152264.72,164862.55],[152260.17,164854.94],[152254.44,164847.18],[152245.57,164837.63],[152239.99904259,164832.23192978]]]},"geometry_name":"GEOM","properties":{"INSPIRE_ID":"https://databrussels.be/id/streetsurface/37796","TYPE":"S","STREET_ID":"https://databrussels.be/id/streetname/33","STRNAMEFRE":"Drève du Comte","STRNAMEDUT":"Gravendreef","MUNNISCODE":"21016","HIERARCHY":"T","LVL":0,"ADMIN":"MUN_RBC","AREA":211},"bbox":[152239.99904259,164829.56,152272.39698487,164880.41]},{"type":"Feature","id":"StreetSurfaces.fid-6d0a8ac7_1a031465927_-1fc1","geometry":{"type":"Polygon","coordinates":[[[152047.019,164732.05],[152013.413,164715.227],[152000,164708.448],[151983.08488235,164699.73626778],[151984.6,164697.81],[151985.29,164698.44],[151986.1,164699.07],[151987.79,164700.21],[152000,164705.672],[152014.527,164713.013],[152048.081,164729.811],[152082.7,164745.34],[152123.576,164765.693],[152156.342,164782.266],[152202.369,164807.011],[152223.589,164816.373],[152222.518,164818.617],[152201.366,164809.285],[152155.218,164784.474],[152122.464,164767.908],[152081.64,164747.58],[152047.019,164732.05]]]},"geometry_name":"GEOM","properties":{"INSPIRE_ID":"https://databrussels.be/id/streetsurface/37817","TYPE":"S","STREET_ID":"https://databrussels.be/id/streetname/3925","STRNAMEFRE":"Drève du Caporal","STRNAMEDUT":"Korporaaldreef","MUNNISCODE":"21016","HIERARCHY":"T","LVL":0,"ADMIN":"MUN_RBC","AREA":655},"bbox":[151983.08488235,164697.81,152223.589,164818.617]},{"type":"Feature","id":"StreetSurfaces.fid-6d0a8ac7_1a031465927_-1fa7","geometry":{"type":"Polygon","coordinates":[[[152236.997,164581.741],[152233.613,164579.982],[152235.147,164578.498],[152238.543,164580.259],[152236.997,164581.741]]]},"geometry_name":"GEOM","properties":{"INSPIRE_ID":"https://databrussels.be/id/streetsurface/37838","TYPE":"I","STREET_ID":"https://databrussels.be/id/streetname/2868","STRNAMEFRE":"Drève des Enfants Noyés","STRNAMEDUT":"Verdronken Kinderendreef","MUNNISCODE":"21016","HIERARCHY":"T","LVL":0,"ADMIN":"MUN_RBC","AREA":8},"bbox":[152233.613,164578.498,152238.543,164581.741]},{"type":"Feature","id":"StreetSurfaces.fid-6d0a8ac7_1a031465927_-1fa6","geometry":{"type":"Polygon","coordinates":[[[152235.147,164578.498],[152244.54,164569.41],[152259.26,164560.87],[152272.9,164556.5],[152284.78,164554.35],[152294.81,164553.78],[152300.81,164554.25],[152320.63,164555.37],[152329.86,164555.64],[152335.89,164555.6],[152341.21,164555.29],[152348.14,164554.33],[152352.7,164553.15],[152356.82,164551.39],[152363.02,164548.2],[152372.8028053,164542.81807779],[152375.70293813,164541.41941008],[152379.35609638,164544.81714383],[152376.40468595,164546.16814375],[152374.69477588,164546.95079597],[152373.91,164547.31],[152369.27105678,164549.94326345],[152356.76044651,164556.0174631],[152351.57,164557.71],[152345.53,164558.93],[152337.57,164559.81],[152328.27,164559.75],[152314.45,164558.64],[152293.54,164556.8],[152280.16,164558.21],[152269.36,164560.66],[152257.48,164565.07],[152248.17,164571.03],[152238.543,164580.259],[152235.147,164578.498]]]},"geometry_name":"GEOM","properties":{"INSPIRE_ID":"https://databrussels.be/id/streetsurface/37839","TYPE":"S","STREET_ID":"https://databrussels.be/id/streetname/33","STRNAMEFRE":"Drève du Comte","STRNAMEDUT":"Gravendreef","MUNNISCODE":"21016","HIERARCHY":"T","LVL":0,"ADMIN":"MUN_RBC","AREA":548},"bbox":[152235.147,164541.41941008,152379.35609638,164580.259]},{"type":"Feature","id":"StreetSurfaces.fid-6d0a8ac7_1a031465927_-1fa8","geometry":{"type":"Polygon","coordinates":[[[151978.59,164458.05],[151978.84,164452.89],[152000.44,164464.182],[152008.535,164468.15],[152046.552,164486.368],[152082.837,164503.891],[152117.033,164520.623],[152144.252,164534.183],[152176.565,164549.904],[152196.872,164560.203],[152235.147,164578.498],[152233.613,164579.982],[152195.988,164561.997],[152175.675,164551.696],[152143.368,164535.977],[152116.147,164522.417],[152081.963,164505.689],[152045.648,164488.152],[152035.297,164483.141],[152007.665,164469.95],[151999.56,164465.978],[151978.59,164458.05]]]},"geometry_name":"GEOM","properties":{"INSPIRE_ID":"https://databrussels.be/id/streetsurface/37880","TYPE":"S","STREET_ID":"https://databrussels.be/id/streetname/2868","STRNAMEFRE":"Drève des Enfants Noyés","STRNAMEDUT":"Verdronken Kinderendreef","MUNNISCODE":"21016","HIERARCHY":"T","LVL":0,"ADMIN":"MUN_RBC","AREA":600},"bbox":[151978.59,164452.89,152235.147,164579.982]},{"type":"Feature","id":"StreetSurfaces.fid-6d0a8ac7_1a031465927_-1fc3","geometry":{"type":"Polygon","coordinates":[[[152223.589,164816.373],[152220.92,164813.82],[152219.73135607,164812.68177932],[152212.31853972,164805.74519344],[152203.75170157,164797.63137391],[152193.1857039,164787.38344957],[152186.86588346,164780.59144184],[152179.62437084,164771.60795451],[152174.13763794,164763.59490046],[152171.79,164760.01],[152166.21779612,164751.10986184],[152161.88588645,164741.87082527],[152159.06451468,164734.0961362],[152158.12486884,164726.70715879],[152157.52253515,164715.03175415],[152157.79033413,164704.94937124],[152159.79862635,164693.88337855],[152160.43,164691.6],[152161.6645694,164686.95891428],[152164.84021106,164678.19396029],[152170.661003,164665.35446531],[152175.74876887,164656.28422722],[152186.79688889,164639.47339862],[152197.56,164622.44],[152207.92,164608.27],[152225.51,164587.82],[152233.613,164579.982],[152236.997,164581.741],[152235.35,164583.32],[152223.04,164596.34],[152209.71,164612.79],[152201.77,164623.62],[152190.09,164641.23],[152187.96207391,164644.37833567],[152182.69382289,164652.77798792],[152175.98871897,164664.32638506],[152171.20698897,164673.65876048],[152167.25504833,164682.54180307],[152164.85569961,164689.52634159],[152162.67720327,164697.70914951],[152161.61913253,164705.95391397],[152161.58976011,164710.45177056],[152162.04365356,164720.74757412],[152162.84004883,164729.1829728],[152163.86487799,164734.64776454],[152165.71843002,164739.44318483],[152168.95281059,164747.02781775],[152172.74711964,164753.85324881],[152178.15235986,164761.43004893],[152184.9866337,164770.51052164],[152190.32624672,164777.42774514],[152200.90872666,164788.41352115],[152210.97738902,164798.34771791],[152222.67382794,164809.96674467],[152226.04868428,164813.25134393],[152223.589,164816.373]]]},"geometry_name":"GEOM","properties":{"INSPIRE_ID":"https://databrussels.be/id/streetsurface/37882","TYPE":"S","STREET_ID":"https://databrussels.be/id/streetname/33","STRNAMEFRE":"Drève du Comte","STRNAMEDUT":"Gravendreef","MUNNISCODE":"21016","HIERARCHY":"T","LVL":0,"ADMIN":"MUN_RBC","AREA":1167},"bbox":[152157.52253515,164579.982,152236.997,164816.373]},{"type":"Feature","id":"StreetSurfaces.fid-6d0a8ac7_1a031465927_-1fa3","geometry":{"type":"Polygon","coordinates":[[[152375.70293813,164541.41941008],[152380.10496581,164533.31246407],[152383.34330117,164526.48852934],[152386.67376355,164519.44667078],[152392.06305206,164508.11576521],[152395.11883421,164502.50585607],[152398.00793733,164497.39583983],[152402.34345226,164490.36498019],[152404.66108444,164486.90738768],[152408.45303228,164481.07530393],[152412.93153897,164475.64392798],[152419.59870001,164470.14510615],[152423.65455632,164467.70118534],[152429.37720288,164465.31280819],[152435.18120468,164462.97799099],[152443.22148342,164459.47874074],[152447.0947865,164457.54264763],[152450.29542081,164453.28509897],[152454.29571744,164449.39704313],[152460.18504303,164442.44020037],[152473.24228665,164424.37891584],[152485.169,164402.34],[152492.564,164390.88],[152495.012,164387.229],[152501.789,164375.632],[152505.679,164366.933],[152509.542,164355.678],[152511.814,164338.87],[152514.351,164326.841],[152515.199,164319.181],[152515.09943869,164311.62018232],[152514.79,164288.121],[152513.751,164251.707],[152512.76,164229.715],[152512.52,164182.492],[152511.26,164149.88],[152511.23,164118.495],[152510.94,164082.91],[152510.63,164058.245],[152510.522,164051.793],[152510.333,164048.213],[152509.983,164044.425],[152509.717,164041.953],[152509.54,164034.881],[152511.583,164036.592],[152511.714,164041.821],[152511.973,164044.226],[152512.328,164048.068],[152512.521,164051.723],[152512.63,164058.215],[152512.94,164082.89],[152513.23,164118.485],[152513.26,164149.84],[152513.67196307,164160.50134259],[152514.52,164182.448],[152514.76,164229.665],[152515.749,164251.633],[152516.79,164288.079],[152517.201,164319.279],[152516.329,164327.159],[152513.786,164339.21],[152511.498,164356.142],[152507.541,164367.667],[152503.571,164376.548],[152496.708,164388.291],[152494.236,164391.98],[152486.891,164403.36],[152475.17174626,164425],[152463.12176873,164443.03219372],[152452.99998628,164454.33698527],[152448.51552677,164459.82787228],[152438.73702391,164464.25549505],[152428.65889565,164468.6712156],[152423.92838615,164471.01991872],[152420.32891289,164473.29919227],[152414.82850503,164477.74268465],[152410.51072454,164483.18397911],[152408.54232462,164486.32616301],[152406.41518276,164489.88095692],[152404.0578651,164493.69759948],[152399.67472759,164501.06172105],[152395.70362814,164507.93241447],[152393.49484757,164511.99957025],[152388.93782032,164520.62697344],[152384.74023016,164529.598974],[152381.86,164538.45],[152375.70293813,164541.41941008]]]},"geometry_name":"GEOM","properties":{"INSPIRE_ID":"https://databrussels.be/id/streetsurface/38697","TYPE":"S","STREET_ID":"https://databrussels.be/id/streetname/3809","STRNAMEFRE":"Drève du Comte","STRNAMEDUT":"Gravendreef","MUNNISCODE":"21017","HIERARCHY":"T","LVL":0,"ADMIN":"MUN_RBC","AREA":1229},"bbox":[152375.70293813,164034.881,152517.201,164541.41941008]},{"type":"Feature","id":"StreetSurfaces.fid-6d0a8ac7_1a031465927_-1fa2","geometry":{"type":"Polygon","coordinates":[[[152439.4934626,164530.07227758],[152437.32,164529.73],[152429.61,164529.68],[152421.67,164530.67],[152412.42,164532.3],[152399.81,164536.32],[152385.86,164541.84],[152383.8358817,164542.76653453],[152381.86,164538.45],[152389.13,164535.49],[152398.08,164532.15],[152405.26,164529.97],[152411.35,164528.18],[152419.1,164526.99],[152427.7,164526.19],[152436.12,164526.14],[152440.076,164526.586],[152444.55,164527.09],[152446.036,164527.312],[152456.79,164528.92],[152467.89,164531.32],[152471.89,164532.69],[152479.52,164535.72],[152488.43,164539.45],[152497.27,164542.14],[152503.07,164543.38],[152507.71,164543.93],[152512.41,164543.8],[152518.98,164542.75],[152524.5,164540.98],[152528.8,164538.71],[152533.65,164535.01],[152537.48,164531.02],[152539.95,164527.55],[152542.37,164522.77],[152545.41,164513.72],[152548.84,164498.15],[152552.07,164485.72],[152561.66,164457.25],[152571.88,164431.77],[152575.6,164420.92],[152577.24,164414],[152578.68,164406.09],[152579.12,164400.34],[152578.94505906,164390.76198818],[152579.02073154,164374.40297509],[152578.50288411,164357.21038114],[152578.38716386,164343.92935321],[152578.75068477,164331.16687597],[152579.46969701,164321.21706102],[152579.94614953,164312.05222874],[152580.89496416,164303.47934044],[152582.28830625,164295.23298527],[152584.5669811,164282.19317603],[152587.60286818,164270.82252367],[152592.94757173,164250.85936992],[152596.83903624,164240.95164046],[152601.22930436,164231.80067487],[152607.55964972,164218.7025183],[152617.24778312,164201.38705238],[152619.62114806,164197.42176417],[152622.19285795,164192.88883268],[152624.42575945,164186.93652555],[152625.68262066,164183.16230571],[152627.60797517,164177.51509278],[152630.75028499,164165.48764378],[152632.51020754,164159.15034021],[152633.88342824,164153.17817152],[152634.72620103,164148.95844195],[152635.87856582,164142.19123075],[152640.69983736,164143.3145665],[152640.44234032,164145.02664414],[152638.09339026,164155.96233851],[152635.88007581,164164.8752579],[152634.02554409,164171.56135688],[152630.92794935,164181.79517999],[152629.99161406,164184.28968511],[152628.88805078,164186.90537175],[152627.19768452,164190.9921335],[152626.0530323,164193.63057588],[152621.71933841,164202.04214052],[152619.54157555,164206.25791859],[152613.0674802,164217.50076161],[152607.15141489,164228.97036929],[152602.48983627,164237.99169559],[152599.41503857,164245.85058984],[152596.95146388,164253.68523464],[152592.8462267,164268.88776265],[152588.88010491,164283.37839271],[152586.76633272,164295.23747974],[152585.3960472,164307.34111026],[152584.14309986,164320.67895899],[152583.21782415,164335.00501369],[152582.90572712,164351.1911699],[152583.05184062,164368.58964857],[152583.14346789,164386.40398395],[152582.92,164402.94],[152581.73,164412.38],[152579.89,164421.15],[152577.94,164427.73],[152575.84,164433.77],[152571.49,164443.79],[152566.68,164455.7],[152560.82,164472.07],[152556.81,164483.09],[152554.43,164491.4],[152551.09,164506.68],[152548.53,164517.09],[152547.01,164522.56],[152544.75,164527.33],[152541.93,164531.9],[152538.72,164536.01],[152535.25,164539.47],[152531.14,164542.18],[152525.37,164545.17],[152518.72,164547.01],[152510.55,164547.87],[152501.48,164547.33],[152493.84,164545.91],[152485.05,164543.09],[152477.651,164539.647],[152462.92,164534.74],[152453.84,164532.49],[152446.21,164531.13],[152445.4186407,164531.00537649],[152439.4934626,164530.07227758]]]},"geometry_name":"GEOM","properties":{"INSPIRE_ID":"https://databrussels.be/id/streetsurface/38698","TYPE":"S","STREET_ID":"https://databrussels.be/id/streetname/549","STRNAMEFRE":"Chemin des Tumuli","STRNAMEDUT":"Tumuliweg","MUNNISCODE":"21017","HIERARCHY":"T","LVL":0,"ADMIN":"MUN_RBC","AREA":2445},"bbox":[152381.86,164142.19123075,152640.69983736,164547.87]},{"type":"Feature","id":"StreetSurfaces.fid-6d0a8ac7_1a031465927_-1fc6","geometry":{"type":"Polygon","coordinates":[[[152447.78656224,164725.6656529],[152448.30804966,164722.59962666],[152450.138,164725.72],[152448.706,164727.234],[152447.78656224,164725.6656529]]]},"geometry_name":"GEOM","properties":{"INSPIRE_ID":"https://databrussels.be/id/streetsurface/38757","TYPE":"S","STREET_ID":"https://databrussels.be/id/streetname/5265","STRNAMEFRE":"Drève des Enfants Noyés","STRNAMEDUT":"Verdronken Kinderendreef","MUNNISCODE":"21017","HIERARCHY":"T","LVL":0,"ADMIN":"MUN_RBC","AREA":5},"bbox":[152447.78656224,164722.59962666,152450.138,164727.234]},{"type":"Feature","id":"StreetSurfaces.fid-6d0a8ac7_1a031465927_-1faa","geometry":{"type":"Polygon","coordinates":[[[152420.07422385,164953.3203905],[152412.983,165049.79600036],[152407.661,165050.99800036],[152411.02,165002.36000036],[152413.321,164974.01300036],[152419.283,164896.64600036],[152421.798,164866.82100036],[152421.95,164866.77000036],[152423.81,164866.90400036],[152427.57,164867.06000036],[152426.65,164868.15000036],[152422.901,164917.75400036],[152420.07422385,164953.3203905]]]},"geometry_name":"GEOM","properties":{"INSPIRE_ID":"https://databrussels.be/id/streetsurface/38774","TYPE":"S","STREET_ID":"https://databrussels.be/id/streetname/3944","STRNAMEFRE":"Drève des Libellules","STRNAMEDUT":"Libellendreef","MUNNISCODE":"21017","HIERARCHY":"DR","LVL":0,"ADMIN":"MUN_RBC","AREA":963},"bbox":[152407.661,164866.77000036,152427.57,165050.99800036]},{"type":"Feature","id":"StreetSurfaces.fid-6d0a8ac7_1a031465927_-1fcd","geometry":{"type":"Polygon","coordinates":[[[152764.65117948,164985.5646418],[152766.16365639,164985.52263256],[152768.44728854,164985.45920439],[152770.25723711,164985.4533544],[152776.103,164985.43500036],[152776.27146414,164985.49374115],[152776.4068467,164985.54074052],[152776.67890037,164985.71165428],[152776.906,164985.93900036],[152777.05406301,164986.17817907],[152777.17918623,164986.51619813],[152777.21214119,164986.83578956],[152777.19752976,164986.95361747],[152777.173,164987.15300036],[152777.064,164987.45300036],[152776.95705916,164987.61771384],[152776.89008388,164987.72121445],[152776.75689399,164987.85061888],[152776.661,164987.94400036],[152776.388,164988.11000036],[152776.08482413,164988.21000488],[152768.57717723,164988.40338797],[152766.40809536,164988.56024515],[152765.29314646,164988.62381227],[152763.403,164988.73200036],[152762.009,164988.82000036],[152757.988,164989.20500036],[152754.52257543,164989.57959241],[152754.12070726,164989.6230883],[152753.50504665,164989.69684459],[152750.259,164990.08600036],[152748.9076241,164990.26328742],[152746.40243126,164990.59246457],[152743.99877843,164990.93787622],[152742.108,164991.21000036],[152739.67408292,164991.59104524],[152737.82213098,164991.88129309],[152736.06175893,164992.1802043],[152733.545,164992.60800036],[152730.9985744,164993.04856801],[152728.94997696,164993.40336668],[152728.83338178,164993.42413818],[152725.63153496,164994.00449402],[152722.313,164994.60600036],[152719.00199606,164995.24600112],[152715.7910396,164995.8666632],[152715.69089539,164995.88633254],[152715.59113513,164995.90654246],[152712.32205253,164996.57898956],[152709.07228022,164997.24746453],[152708.95334477,164997.27230248],[152705.651998,164997.98242756],[152704.0390512,164998.33927185],[152703.03319597,164998.56180474],[152702.23457504,164998.74622701],[152698.637,164999.57700036],[152695.78,165000.27700036],[152682.503,165003.55400036],[152678.04016433,165004.62306856],[152673.98681128,165005.5942696],[152673.51453935,165005.70555357],[152672.547,165005.93400036],[152668.42554383,165006.82972806],[152667.34254963,165007.06521744],[152661.9762106,165008.24103698],[152649.112,165011.06000036],[152640.36,165012.87000036],[152623.15,165016.77000036],[152607.84703556,165020.17165115],[152588.87,165024.39000036],[152565.59,165029.63000036],[152546.81,165033.93000036],[152526.81,165038.49000036],[152505.14,165043.32000036],[152481.19,165048.77000036],[152463.75204404,165052.66320963],[152461.93150509,165053.07662822],[152442.94431085,165057.38835086],[152441.84508628,165057.63837271],[152424.19,165061.61000036],[152397.56,165067.68000036],[152379.22928884,165071.8068415],[152376.1102554,165072.50903769],[152361.78326666,165075.73451029],[152348.996357,165078.61326084],[152344.98897624,165079.51545299],[152337.24,165081.26000036],[152319.885,165085.26300036],[152301.08031541,165089.44540305],[152297.148,165090.32000036],[152295.992,165090.54900036],[152295.809,165090.52700036],[152295.708,165090.50600036],[152295.609,165090.47700036],[152295.513,165090.44100036],[152295.42067845,165090.39558814],[152295.328,165090.35000036],[152295.241,165090.29500036],[152295.158,165090.23500036],[152295.08,165090.16800036],[152295.006,165090.09600036],[152294.937,165090.02000036],[152294.874,165089.93800036],[152294.817,165089.85300036],[152294.766,165089.76400036],[152294.721,165089.67100036],[152294.683,165089.57500036],[152294.652,165089.47700036],[152294.627,165089.37700036],[152294.61,165089.27600036],[152294.6,165089.17400036],[152294.596,165089.07100036],[152294.6,165088.96800036],[152294.612,165088.86600036],[152294.63,165088.76400036],[152294.655,165088.66500036],[152294.687,165088.56700036],[152294.726,165088.47200036],[152294.772,165088.38000036],[152294.823,165088.29100036],[152294.881,165088.20600036],[152294.945,165088.12500036],[152295.279,165087.83200036],[152295.688,165087.65900036],[152296.585,165087.48600036],[152300.517,165086.71800036],[152310.088,165084.71900036],[152329.89,165080.54000036],[152353.27,165075.33000036],[152384.65,165068.28000036],[152412.31,165062.02000036],[152443.4,165055.01000036],[152469.2,165049.23000036],[152494.36,165043.44000036],[152522.96,165036.97000036],[152551.71,165030.52000036],[152570.38344761,165026.26513096],[152581.29,165023.78000036],[152596.19016894,165020.35375831],[152609.34,165017.33000036],[152623.48,165014.21000036],[152636.72,165011.27000036],[152648.59472225,165008.68319872],[152650.73937659,165008.21600502],[152652.58759765,165007.81338665],[152657.41763883,165006.76120554],[152668.41678805,165004.36513962],[152668.624,165004.32000036],[152672.514,165003.51300036],[152672.95243488,165003.3972614],[152679.692,165001.30500036],[152686.09467704,164999.33323399],[152688.32298831,164998.64685939],[152694.05354094,164997.18532569],[152694.84048838,164996.99102863],[152697.72977815,164996.27766395],[152700.91658944,164995.53270147],[152703.47261708,164994.94359089],[152705.85696077,164994.40833117],[152706.032,164994.36900036],[152707.77199093,164993.98882286],[152708.59452974,164993.8090858],[152711.16024864,164993.26372807],[152714.19906159,164992.6481779],[152717.239,164992.03200036],[152718.67159288,164991.75724363],[152720.28394256,164991.44755872],[152723.33217718,164990.87859213],[152724.11589537,164990.75757039],[152727.09194555,164990.29782062],[152727.48446108,164990.22534202],[152728.572,164990.02400036],[152732.347,164989.30200036],[152735.281829,164988.78394696],[152735.98423605,164988.65984293],[152736.8335776,164988.52302432],[152739.631,164988.07200036],[152743.286,164987.54000036],[152745.97334938,164987.19068897],[152746.94802896,164987.0638674],[152750.61735839,164986.6429023],[152751.49451251,164986.55403743],[152753.369,164986.36400036],[152753.92450079,164986.31421491],[152756.12462143,164986.11653437],[152757.79904771,164985.98523817],[152758.882,164985.90000036],[152761.79205688,164985.70497047],[152763.17148622,164985.60574046],[152764.65117948,164985.5646418]]]},"geometry_name":"GEOM","properties":{"INSPIRE_ID":"https://databrussels.be/id/streetsurface/39588","TYPE":"M","STREET_ID":"https://databrussels.be/id/streetname/302","STRNAMEFRE":"Chaussée de La Hulpe","STRNAMEDUT":"Terhulpsesteenweg","MUNNISCODE":"21017","HIERARCHY":"MER","LVL":0,"ADMIN":"REGION_RBC","AREA":1244},"bbox":[152294.596,164985.43500036,152777.21214119,165090.54900036]},{"type":"Feature","id":"StreetSurfaces.fid-6d0a8ac7_1a031465927_-1faf","geometry":{"type":"Polygon","coordinates":[[[152429.23086845,164856.1918987],[152429.088,164857.02800036],[152429.018,164858.37800036],[152429.264,164859.70800036],[152429.812,164860.94400036],[152430.632,164862.01900036],[152431.68,164862.87400036],[152432.897,164863.46300036],[152433.09741869,164863.50684669],[152433.006,164864.67400036],[152432.88349283,164866.23750511],[152428.78,164865.80000036],[152428.2,164865.79000036],[152427.78,164865.92000036],[152427.37,164866.16000036],[152426.85,164866.56000036],[152426.39898277,164867.0114156],[152423.81,164866.90400036],[152421.95,164866.77000036],[152421.62,164865.68000036],[152421.07,164865.11000036],[152420.39,164864.77000036],[152414.65624439,164864.04024965],[152414.889,164862.45400036],[152415.09368325,164861.05856858],[152416.47992,164860.92000036],[152417.9700325,164860.47008036],[152419.3999725,164859.53008036],[152420.549995,164858.46000036],[152421.020015,164857.76000036],[152421.5700875,164856.87008036],[152421.7500725,164856.14000036],[152421.9324253,164855.08192611],[152425.83,164855.67500036],[152429.23086845,164856.1918987]]]},"geometry_name":"GEOM","properties":{"INSPIRE_ID":"https://databrussels.be/id/streetsurface/3972","TYPE":"I","STREET_ID":"https://databrussels.be/id/streetname/293","STRNAMEFRE":"Drève des Tumuli","STRNAMEDUT":"Tumulidreef","MUNNISCODE":"21017","HIERARCHY":"DR","LVL":0,"ADMIN":"MUN_RBC","AREA":129},"bbox":[152414.65624439,164855.08192611,152433.09741869,164867.0114156]},{"type":"Feature","id":"StreetSurfaces.fid-6d0a8ac7_1a031465927_-1fa4","geometry":{"type":"Polygon","coordinates":[[[152375.70293813,164541.41941008],[152381.86,164538.45],[152383.8358817,164542.76653453],[152379.35609638,164544.81714383],[152375.70293813,164541.41941008]]]},"geometry_name":"GEOM","properties":{"INSPIRE_ID":"https://databrussels.be/id/streetsurface/41066","TYPE":"I","STREET_ID":"https://databrussels.be/id/streetname/3809","STRNAMEFRE":"Drève du Comte","STRNAMEDUT":"Gravendreef","MUNNISCODE":"21017","HIERARCHY":"T","LVL":0,"ADMIN":"MUN_RBC","AREA":28},"bbox":[152375.70293813,164538.45,152383.8358817,164544.81714383]},{"type":"Feature","id":"StreetSurfaces.fid-6d0a8ac7_1a031465927_-1fa5","geometry":{"type":"Polygon","coordinates":[[[152356.76044651,164556.0174631],[152369.27105678,164549.94326345],[152366.74,164551.38],[152364.42,164552.69],[152360.72,164554.46],[152358.93,164555.31],[152356.76044651,164556.0174631]]]},"geometry_name":"GEOM","properties":{"INSPIRE_ID":"https://databrussels.be/id/streetsurface/47064","TYPE":"S","STREET_ID":"https://databrussels.be/id/streetname/3809","STRNAMEFRE":"Drève du Comte","STRNAMEDUT":"Gravendreef","MUNNISCODE":"21017","HIERARCHY":"T","LVL":0,"ADMIN":"MUN_RBC","AREA":3},"bbox":[152356.76044651,164549.94326345,152369.27105678,164556.0174631]},{"type":"Feature","id":"StreetSurfaces.fid-6d0a8ac7_1a031465927_-1fc9","geometry":{"type":"Polygon","coordinates":[[[152524.07998118,164870.47236639],[152523.988,164871.85400036],[152523.89014509,164873.32386269],[152498.07,164871.83000036],[152478.75,164870.56000036],[152461.17,164869.10000036],[152442.38,164867.25000036],[152432.88349283,164866.23750511],[152433.006,164864.67400036],[152433.09741869,164863.50684669],[152434.218,164863.75200036],[152458.57,164866.15000036],[152474.91,164867.52000036],[152480.45,164867.93000036],[152524.07998118,164870.47236639]]]},"geometry_name":"GEOM","properties":{"INSPIRE_ID":"https://databrussels.be/id/streetsurface/565","TYPE":"S","STREET_ID":"https://databrussels.be/id/streetname/293","STRNAMEFRE":"Drève des Tumuli","STRNAMEDUT":"Tumulidreef","MUNNISCODE":"21017","HIERARCHY":"DR","LVL":0,"ADMIN":"MUN_RBC","AREA":252},"bbox":[152432.88349283,164863.50684669,152524.07998118,164873.32386269]}],"numberReturned":45,"grand_bruxelles_source":{"authority":"Paradigm / Brussels-Capital Region","service":"https://geoservices-urbis.irisnet.be/geoserver/urbisvector/wfs","layer":"urbisvector:StreetSurfaces","crs":"EPSG:31370","bbox":[152000.0,164500.0,152500.0,165000.0],"cell_id":"bxl-e152000-n164500-s500","ownership":"bbox_intersection_source_unclipped"}}
