{"type":"FeatureCollection","totalFeatures":26,"numberMatched":26,"timeStamp":"2026-08-24T01:58:43.447Z","crs":{"type":"name","properties":{"name":"urn:ogc:def:crs:EPSG::31370"}},"bbox":[152409.13694832,167400.6855818,152604.36729018,168456.60161267],"features":[{"type":"Feature","id":"TrainNetwork.fid--24aa7d09_1a031580c5b_-604c","geometry":{"type":"LineString","coordinates":[[152572.92660339,167813.395521],[152570.15213073,167797.42475365],[152567.71068691,167783.88649219],[152566.03219429,167775.33569317],[152563.73316803,167764.48472571],[152560.80343545,167752.16796152],[152557.14126972,167738.3854006],[152553.96580328,167727.75710192],[152550.16122,167715.92893664],[152545.38005919,167701.80028483],[152539.64266622,167685.37114649],[152534.35287129,167670.34673001],[152529.44963829,167656.50309423],[152525.25849307,167644.85815354],[152520.41629617,167631.76777441],[152514.71671581,167617.22114948]]},"geometry_name":"GEOM","properties":{"INSPIRE_ID":"https://databrussels.be/id/rail/23798","TYPE":"TB","LVL":0,"SLOPE":null,"LENGTH":205.10058406754},"bbox":[152514.71671581,167617.22114948,152572.92660339,167813.395521]},{"type":"Feature","id":"TrainNetwork.fid--24aa7d09_1a031580c5b_-604b","geometry":{"type":"LineString","coordinates":[[152516.1397516,167616.69946215],[152521.83243367,167631.22848106],[152526.68197818,167644.33872369],[152530.87668887,167655.99357091],[152535.78167999,167669.84217052],[152541.07258692,167684.86974537],[152546.81303268,167701.30762544],[152551.60021091,167715.45405914],[152555.41313988,167727.30817055],[152558.59977554,167737.97385263],[152562.27299439,167751.79801198],[152565.21165564,167764.15231284],[152567.51691553,167775.03270184],[152569.19983982,167783.60607725],[152571.64421853,167797.16061325],[152574.41773741,167813.12589029]]},"geometry_name":"GEOM","properties":{"INSPIRE_ID":"https://databrussels.be/id/rail/23799","TYPE":"TB","LVL":0,"SLOPE":null,"LENGTH":205.361972508158},"bbox":[152516.1397516,167616.69946215,152574.41773741,167813.12589029]},{"type":"Feature","id":"TrainNetwork.fid--24aa7d09_1a031580c5b_-604d","geometry":{"type":"LineString","coordinates":[[152508.68700816,168456.60161267],[152511.91411938,168443.13365637],[152516.78603091,168422.30569992],[152521.87684662,168400.57769612],[152526.94290502,168379.09645793],[152531.9117916,168358.10228161],[152536.8563905,168337.0329446],[152541.77696179,168316.05962268],[152547.40749113,168291.67985895],[152552.45060218,168270.73312454],[152557.27273657,168249.6368312],[152562.28841957,168228.48049504],[152567.40480452,168206.64989903],[152572.06336944,168186.92256559],[152574.97517807,168174.60733265],[152577.70515787,168162.69573099],[152580.45149865,168150.57691026],[152582.94703072,168138.82585185],[152585.33227312,168127.00596362],[152587.54852651,168114.64734564],[152589.39781548,168103.51717565],[152591.17617093,168091.44303486],[152592.88271898,168078.62973194],[152594.43523761,168065.75459876],[152596.07617433,168051.17632169],[152597.4977506,168038.01036857],[152598.56594067,168028.50380106],[152599.53674875,168018.47640142],[152600.3136713,168010.2248284],[152600.98831766,168001.11202404],[152601.38186138,167993.74302793],[152601.62079863,167983.80050836],[152601.59268836,167976.41744927],[152601.4802473,167971.53759879],[152601.19914465,167964.42173613],[152600.77952345,167959.03565111]]},"geometry_name":"GEOM","properties":{"INSPIRE_ID":"https://databrussels.be/id/rail/23812","TYPE":"TB","LVL":0,"SLOPE":null,"LENGTH":507.429696348096},"bbox":[152508.68700816,167959.03565111,152601.62079863,168456.60161267]},{"type":"Feature","id":"TrainNetwork.fid--24aa7d09_1a031580c5b_-604e","geometry":{"type":"LineString","coordinates":[[152599.29280546,167959.23491753],[152599.70227818,167964.49635522],[152599.98228354,167971.58444112],[152600.09410878,167976.43756533],[152600.12208476,167983.78535595],[152599.88417663,167993.68505216],[152599.49262591,168001.01673006],[152598.82022149,168010.0992514],[152598.04488762,168018.3339513],[152597.07538049,168028.34791349],[152596.00811434,168037.84625832],[152594.58655373,168051.01206649],[152592.9466602,168065.58107572],[152591.39596421,168078.44109364],[152589.69201117,168091.23491242],[152587.91717604,168103.28515199],[152586.07171998,168114.39225314],[152583.86002695,168126.72544093],[152581.47950049,168138.52195969],[152578.98766211,168150.25562512],[152576.24397742,168162.36272524],[152573.51555808,168174.26751822],[152570.60488802,168186.5779357],[152565.94598502,168206.3067008],[152560.82975055,168228.13665472],[152555.81311756,168249.29699798],[152550.99156473,168270.39074707],[152545.94884913,168291.33583895],[152540.31733858,168315.71985128],[152535.39737307,168336.69059108],[152530.45310964,168357.75849867],[152525.48441181,168378.7518775],[152520.41796525,168400.23476155],[152515.32683781,168421.96409585],[152510.45578542,168442.7883794],[152507.22961693,168456.2524013]]},"geometry_name":"GEOM","properties":{"INSPIRE_ID":"https://databrussels.be/id/rail/23813","TYPE":"TB","LVL":0,"SLOPE":null,"LENGTH":506.877526118051},"bbox":[152507.22961693,167959.23491753,152600.12208476,168456.2524013]},{"type":"Feature","id":"TrainNetwork.fid--24aa7d09_1a031580c5b_-604f","geometry":{"type":"LineString","coordinates":[[152597.48264303,167959.47753555],[152597.9147425,167966.0579722],[152598.16932677,167972.92142865],[152598.23990847,167983.38746922],[152598.05635342,167991.41188457],[152597.69648786,168000.04071708],[152597.18849522,168007.79443587],[152596.55601425,168015.65563592],[152595.6705409,168024.48718088],[152594.4617995,168036.18757166],[152593.56227102,168044.38628299],[152592.55030148,168053.8928505],[152591.15884336,168066.38076758],[152589.7533301,168078.23585102],[152588.05265906,168091.0050275],[152586.28171236,168103.02886658],[152584.44049,168114.11048669],[152582.23383419,168126.41558517],[152579.85851679,168138.18629079],[152577.37075833,168149.90074454],[152574.63000748,168161.99489847],[152571.90331177,168173.89217083],[152568.99389933,168186.1972693],[152564.33462289,168205.92761577],[152559.21855464,168227.75686046],[152554.20087232,168248.92162984],[152549.37996186,168270.01256863],[152544.33768306,168290.95584623],[152538.70508869,168315.34455141],[152533.7857923,168336.31243921],[152528.84189943,168357.3787678],[152523.87341008,168378.3712658],[152518.80653479,168399.85596773],[152513.71506303,168421.58677164],[152508.8449596,168442.40699826],[152505.6136084,168455.89264961]]},"geometry_name":"GEOM","properties":{"INSPIRE_ID":"https://databrussels.be/id/rail/23814","TYPE":"TB","LVL":0,"SLOPE":null,"LENGTH":506.247714275907},"bbox":[152505.6136084,167959.47753555,152598.23990847,168455.89264961]},{"type":"Feature","id":"TrainNetwork.fid--24aa7d09_1a031580c5b_-6050","geometry":{"type":"LineString","coordinates":[[152595.99219599,167959.67730178],[152596.40257969,167966.13405964],[152596.65557207,167972.95459994],[152596.72584774,167983.37526048],[152596.54313101,167991.36302726],[152596.18535679,167999.94171381],[152595.67809978,168007.68420424],[152595.04771422,168015.51936024],[152594.16395258,168024.33383288],[152592.95593871,168036.02718133],[152592.05666685,168044.22355369],[152591.04483259,168053.72885033],[152589.65437705,168066.2077695],[152588.25077509,168078.04673175],[152586.55292586,168090.79472121],[152584.78553642,168102.79440826],[152582.94818719,168113.85271748],[152580.74613959,168126.13211892],[152578.37558761,168137.87920985],[152575.8915616,168149.57608812],[152573.15349472,168161.65839846],[152570.42837584,168173.54879069],[152567.52011392,168185.84902316],[152562.86049585,168205.58081632],[152557.74457966,168227.40941219],[152552.72593738,168248.57823072],[152547.90561458,168269.66659855],[152542.86373538,168290.6082164],[152537.2301495,168315.00121475],[152532.31146533,168335.96649303],[152527.36791136,168357.03137752],[152522.39961274,168378.02306966],[152517.33234523,168399.50943471],[152512.24055847,168421.24158308],[152507.37132319,168442.05809826],[152504.13857606,168455.54957532]]},"geometry_name":"GEOM","properties":{"INSPIRE_ID":"https://databrussels.be/id/rail/23815","TYPE":"TB","LVL":0,"SLOPE":null,"LENGTH":505.700716180172},"bbox":[152504.13857606,167959.67730178,152596.72584774,168455.54957532]},{"type":"Feature","id":"TrainNetwork.fid--24aa7d09_1a031580c5b_-6048","geometry":{"type":"LineString","coordinates":[[152558.5582,167713.5198],[152553.5727,167699.2474],[152549.5868,167687.8306],[152543.4645,167670.4046],[152539.463,167658.4056],[152537.309,167650.2025],[152535.5267,167642.3183],[152533.8107,167630.226],[152532.5782,167620.6488],[152532.1629,167618.4249],[152531.6694,167616.2171],[152531.098,167614.0281],[152530.4496,167611.8606],[152529.725,167609.7175],[152528.9251,167607.6012],[152528.0509,167605.5146],[152527.1035,167603.4602],[152526.3365,167601.8332]]},"geometry_name":"GEOM","properties":{"INSPIRE_ID":"https://databrussels.be/id/rail/23852","TYPE":"TB","LVL":0,"SLOPE":null,"LENGTH":116.660941367671},"bbox":[152526.3365,167601.8332,152558.5582,167713.5198]},{"type":"Feature","id":"TrainNetwork.fid--24aa7d09_1a031580c5b_-6046","geometry":{"type":"LineString","coordinates":[[152577.6402,167812.6557],[152573.009,167787.15],[152569.1603,167767.5725],[152566.0728,167753.7329],[152563.07,167742.0094],[152558.4177,167726.3075],[152551.4358,167704.5526],[152540.8911,167674.4049],[152537.6171,167664.9127]]},"geometry_name":"GEOM","properties":{"INSPIRE_ID":"https://databrussels.be/id/rail/23908","TYPE":"TB","LVL":0,"SLOPE":null,"LENGTH":153.360730900948},"bbox":[152537.6171,167664.9127,152577.6402,167812.6557]},{"type":"Feature","id":"TrainNetwork.fid--24aa7d09_1a031580c5b_-6047","geometry":{"type":"LineString","coordinates":[[152576.1573,167812.925],[152571.5281,167787.43],[152567.8366,167767.977],[152564.9475,167754.4327],[152561.7483,167742.373],[152557.25,167726.8767],[152550.2195,167705.2042],[152539.4673,167674.8995],[152536.1939,167665.4089],[152535.9686,167664.7693]]},"geometry_name":"GEOM","properties":{"INSPIRE_ID":"https://databrussels.be/id/rail/23909","TYPE":"TB","LVL":0,"SLOPE":null,"LENGTH":153.831167339891},"bbox":[152535.9686,167664.7693,152576.1573,167812.925]},{"type":"Feature","id":"TrainNetwork.fid--24aa7d09_1a031580c5b_-603b","geometry":{"type":"LineString","coordinates":[[152517.9132,167571.7428],[152517.8363,167572.7108],[152517.7498,167574.5905],[152517.7459,167576.4804],[152517.825,167578.3687],[152517.9868,167580.2517],[152518.2311,167582.1257],[152518.5575,167583.9872],[152518.9652,167585.8326],[152519.4535,167587.6584],[152520.0262,167589.4758],[152522.7558,167596.5252],[152522.9715,167597.0177],[152523.6747,167598.7466],[152524.3014,167600.4923],[152524.7986,167602.0832]]},"geometry_name":"GEOM","properties":{"INSPIRE_ID":"https://databrussels.be/id/rail/23910","TYPE":"TB","LVL":0,"SLOPE":null,"LENGTH":31.4727453271313},"bbox":[152517.7459,167571.7428,152524.7986,167602.0832]},{"type":"Feature","id":"TrainNetwork.fid--24aa7d09_1a031580c5b_-6039","geometry":{"type":"LineString","coordinates":[[152519.4509,167571.865],[152519.376,167572.8073],[152519.2923,167574.6276],[152519.2885,167576.4498],[152519.3647,167578.2703],[152519.5207,167580.0858],[152519.7563,167581.8927],[152520.0709,167583.6875],[152520.4641,167585.4668],[152520.9349,167587.2271],[152521.4825,167588.965],[152524.1821,167595.937],[152524.3926,167596.4176],[152525.1157,167598.1953],[152525.764,167600.0015],[152526.3365,167601.8332]]},"geometry_name":"GEOM","properties":{"INSPIRE_ID":"https://databrussels.be/id/rail/23911","TYPE":"TB","LVL":0,"SLOPE":null,"LENGTH":31.1031997817289},"bbox":[152519.2885,167571.865,152526.3365,167601.8332]},{"type":"Feature","id":"TrainNetwork.fid--24aa7d09_1a031580c5b_-6038","geometry":{"type":"LineString","coordinates":[[152537.6171,167664.9127],[152531.625,167647.9082],[152530.529,167644.798],[152526.3489,167633.369],[152519.3554,167615.5206]]},"geometry_name":"GEOM","properties":{"INSPIRE_ID":"https://databrussels.be/id/rail/23969","TYPE":"TB","LVL":0,"SLOPE":null,"LENGTH":52.6660952979305},"bbox":[152519.3554,167615.5206,152537.6171,167664.9127]},{"type":"Feature","id":"TrainNetwork.fid--24aa7d09_1a031580c5b_-603a","geometry":{"type":"LineString","coordinates":[[152535.9686,167664.7693],[152529.1105,167645.3073],[152524.9393,167633.9029],[152517.9404,167616.0406]]},"geometry_name":"GEOM","properties":{"INSPIRE_ID":"https://databrussels.be/id/rail/23970","TYPE":"TB","LVL":0,"SLOPE":null,"LENGTH":51.9628084979588},"bbox":[152517.9404,167616.0406,152535.9686,167664.7693]},{"type":"Feature","id":"TrainNetwork.fid--24aa7d09_1a031580c5b_-6037","geometry":{"type":"LineString","coordinates":[[152524.7986,167602.0832],[152524.8547,167602.2627],[152525.3338,167604.0545],[152525.7377,167605.8647],[152526.0627,167607.6724],[152526.879,167614.8854],[152528.6205,167629.9894],[152529.5453,167637.1008],[152531.0325,167645.2981],[152531.625,167647.9082],[152533.2721,167655.1642],[152535.9686,167664.7693]]},"geometry_name":"GEOM","properties":{"INSPIRE_ID":"https://databrussels.be/id/rail/23971","TYPE":"TB","LVL":0,"SLOPE":null,"LENGTH":63.7932373287827},"bbox":[152524.7986,167602.0832,152535.9686,167664.7693]},{"type":"Feature","id":"TrainNetwork.fid--24aa7d09_1a031580c5b_-6049","geometry":{"type":"LineString","coordinates":[[152526.3365,167601.8332],[152526.8322,167603.6871],[152527.2502,167605.5601],[152527.5898,167607.4489],[152527.6795,167608.2421],[152528.4115,167614.7104],[152530.1516,167629.8016],[152531.07,167636.8635],[152532.5442,167644.9895],[152534.7676,167654.7843],[152537.6171,167664.9127]]},"geometry_name":"GEOM","properties":{"INSPIRE_ID":"https://databrussels.be/id/rail/23972","TYPE":"TB","LVL":0,"SLOPE":null,"LENGTH":64.2018194737564},"bbox":[152526.3365,167601.8332,152537.6171,167664.9127]},{"type":"Feature","id":"TrainNetwork.fid--24aa7d09_1a031580c5b_-604a","geometry":{"type":"LineString","coordinates":[[152524.7986,167602.0832],[152525.8491,167604.0634],[152526.7768,167606.0751],[152527.632,167608.1163],[152527.6795,167608.2421],[152528.4145,167610.1865],[152529.1233,167612.2831],[152529.7576,167614.4033],[152530.3165,167616.5447],[152530.7994,167618.7045],[152531.2029,167620.8655],[152532.4316,167630.4125],[152534.1567,167642.5699],[152535.9569,167650.5327],[152538.1284,167658.8029],[152542.1478,167670.8555],[152548.2733,167688.2906],[152552.2588,167699.7063],[152557.2443,167713.9788]]},"geometry_name":"GEOM","properties":{"INSPIRE_ID":"https://databrussels.be/id/rail/23973","TYPE":"TB","LVL":0,"SLOPE":null,"LENGTH":116.947789647137},"bbox":[152524.7986,167602.0832,152557.2443,167713.9788]},{"type":"Feature","id":"TrainNetwork.fid--24aa7d09_1a031580c5b_-603f","geometry":{"type":"LineString","coordinates":[[152424.5518,167414.0905],[152435.8498,167442.8947],[152445.1335,167466.6814],[152455.7,167494.01],[152466.61,167521.46],[152484.9272,167567.66],[152493.1624,167588.8598],[152499.6778,167605.2971],[152506.5834,167622.8125],[152512.6688,167638.3965],[152519.3628,167655.3299],[152525.9509,167672.131],[152531.1632,167685.4925],[152538.7303,167704.6219]]},"geometry_name":"GEOM","properties":{"INSPIRE_ID":"https://databrussels.be/id/rail/23974","TYPE":"TB","LVL":0,"SLOPE":null,"LENGTH":312.163583926362},"bbox":[152424.5518,167414.0905,152538.7303,167704.6219]},{"type":"Feature","id":"TrainNetwork.fid--24aa7d09_1a031580c5b_-603e","geometry":{"type":"LineString","coordinates":[[152425.9556,167413.5399],[152437.254,167442.3453],[152446.539,167466.1354],[152457.1,167493.45],[152468.01,167520.91],[152486.3235,167567.112],[152494.5587,167588.3119],[152501.0728,167604.7456],[152507.9798,167622.2646],[152514.0649,167637.848],[152520.7585,167654.7804],[152527.3479,167671.5846],[152532.5593,167684.944],[152540.1251,167704.0701]]},"geometry_name":"GEOM","properties":{"INSPIRE_ID":"https://databrussels.be/id/rail/23975","TYPE":"TB","LVL":0,"SLOPE":null,"LENGTH":312.159149902749},"bbox":[152425.9556,167413.5399,152540.1251,167704.0701]},{"type":"Feature","id":"TrainNetwork.fid--24aa7d09_1a031580c5b_-6040","geometry":{"type":"LineString","coordinates":[[152410.50632217,167400.6855818],[152412.00163632,167404.50453689],[152418.0435969,167419.87753785],[152422.84484178,167431.95738773],[152426.97085853,167442.50257367],[152435.83077338,167466.72227938],[152442.21577374,167485.76863618],[152448.27498219,167504.73662187],[152451.20746969,167514.20713618],[152455.40848832,167525.6698249],[152459.98082224,167539.39854747],[152465.33746477,167553.88309345],[152466.86469164,167557.75877887],[152477.71172386,167585.26386058],[152490.02057536,167616.5254834],[152492.04112111,167621.63011664],[152494.0736799,167626.73022812],[152495.86215665,167631.20377757],[152497.6606712,167635.67271508],[152500.8046528,167643.42260404],[152503.97689136,167651.16035361],[152507.18005279,167658.87321382],[152510.42223704,167666.56901252],[152513.835669,167674.52236048],[152517.28487466,167682.46153516],[152519.49133381,167687.49837901],[152521.70878487,167692.53105303],[152525.08091,167700.16054856],[152532.27021911,167715.54347796],[152539.11483837,167731.09814906],[152545.60532344,167746.80388718],[152552.31096929,167763.87857754],[152556.26225084,167774.24003348],[152558.99303208,167781.72692908],[152562.6850131,167792.26559285],[152564.33735757,167797.44226878]]},"geometry_name":"GEOM","properties":{"INSPIRE_ID":"https://databrussels.be/id/rail/25026","TYPE":"RW","LVL":0,"SLOPE":null,"LENGTH":425.76348131989},"bbox":[152410.50632217,167400.6855818,152564.33735757,167797.44226878]},{"type":"Feature","id":"TrainNetwork.fid--24aa7d09_1a031580c5b_-6041","geometry":{"type":"LineString","coordinates":[[152409.13694832,167401.30238977],[152410.6052381,167405.05232602],[152416.6486013,167420.42889575],[152421.44942506,167432.5076861],[152425.5678934,167443.03357999],[152434.41505404,167467.21842043],[152440.79016211,167486.23526869],[152446.84408031,167505.18669357],[152449.78590867,167514.68737434],[152454.00417472,167526.19712349],[152458.57394606,167539.91883528],[152463.9360908,167554.41825943],[152465.46920738,167558.30889133],[152476.3161642,167585.81378184],[152488.62536298,167617.07628668],[152490.64705287,167622.18381044],[152492.68056177,167627.28630594],[152494.46997803,167631.7622054],[152496.26991207,167636.23467005],[152499.41571388,167643.98904581],[152502.59029476,167651.73250878],[152505.79623368,167659.45205687],[152509.0418481,167667.1559976],[152512.45857064,167675.11701265],[152515.91001062,167683.06133016],[152518.11802494,167688.10172411],[152520.33646952,167693.13665298],[152523.71531813,167700.78136055],[152530.90410903,167716.16318112],[152537.73504005,167731.68674515],[152544.21397558,167747.36453559],[152550.91206545,167764.41998603],[152554.85680715,167774.76429249],[152557.58055824,167782.23191374],[152561.26242695,167792.74171223],[152562.84072614,167797.68640963]]},"geometry_name":"GEOM","properties":{"INSPIRE_ID":"https://databrussels.be/id/rail/25027","TYPE":"RW","LVL":0,"SLOPE":null,"LENGTH":425.369554445505},"bbox":[152409.13694832,167401.30238977,152562.84072614,167797.68640963]},{"type":"Feature","id":"TrainNetwork.fid--24aa7d09_1a031580c5b_-603d","geometry":{"type":"LineString","coordinates":[[152428.40287634,167439.28480317],[152437.29634098,167461.99333516],[152437.29674886,167461.9943674],[152450.68859288,167495.9135528],[152454.94078608,167506.81235563],[152466.57649124,167537.14135426],[152472.07485008,167551.18507916],[152476.79974773,167562.42448211],[152487.78739755,167590.29920108],[152495.736048,167610.50483996],[152511.26747232,167649.91908334],[152526.53776868,167688.48436523],[152526.78812193,167689.11895405],[152534.61251685,167708.98760613],[152539.17259987,167720.8345491],[152545.55261226,167737.16370448],[152551.66573622,167753.39756105],[152557.57765285,167769.92211882],[152563.35522202,167786.82461785],[152566.46054899,167797.09591914]]},"geometry_name":"GEOM","properties":{"INSPIRE_ID":"https://databrussels.be/id/rail/25028","TYPE":"RW","LVL":0,"SLOPE":null,"LENGTH":383.582491168448},"bbox":[152428.40287634,167439.28480317,152566.46054899,167797.09591914]},{"type":"Feature","id":"TrainNetwork.fid--24aa7d09_1a031580c5b_-6045","geometry":{"type":"LineString","coordinates":[[152562.84072614,167797.68640963],[152566.31962154,167808.88286679],[152570.98916138,167825.20764268],[152575.28767917,167841.63401338],[152579.79422354,167859.36398478],[152583.40864632,167875.30056098],[152585.06434637,167882.29872418],[152587.22682779,167893.66690223],[152590.0220927,167910.42085738],[152592.43711239,167927.23383425],[152594.47062888,167944.09720647],[152595.99219599,167959.67730178],[152597.18427949,167975.82367529],[152598.13187333,167992.06622158],[152598.8288583,168008.32145016],[152599.25238241,168023.75808186],[152599.14621492,168032.25621686],[152599.06240677,168038.61521208]]},"geometry_name":"GEOM","properties":{"INSPIRE_ID":"https://databrussels.be/id/rail/28670","TYPE":"RW","LVL":-1,"SLOPE":null,"LENGTH":244.72414923598},"bbox":[152562.84072614,167797.68640963,152599.25238241,168038.61521208]},{"type":"Feature","id":"TrainNetwork.fid--24aa7d09_1a031580c5b_-6044","geometry":{"type":"LineString","coordinates":[[152600.77589337,168024.5539595],[152600.32908632,168008.26870986],[152599.6311096,167991.9903514],[152598.68216741,167975.72469326],[152597.48264303,167959.47753555],[152595.96466512,167943.93419188],[152593.92707225,167927.0370154],[152591.50721153,167910.19033611],[152588.70634325,167893.40279604],[152586.53445289,167881.98515511],[152584.87268781,167874.96135679],[152581.25550809,167859.01262482],[152576.74287035,167841.25868045],[152572.43870362,167824.81072288],[152567.75979991,167808.45321074],[152564.33735757,167797.44226878]]},"geometry_name":"GEOM","properties":{"INSPIRE_ID":"https://databrussels.be/id/rail/28671","TYPE":"RW","LVL":-1,"SLOPE":null,"LENGTH":230.903665964174},"bbox":[152564.33735757,167797.44226878,152600.77589337,168024.5539595]},{"type":"Feature","id":"TrainNetwork.fid--24aa7d09_1a031580c5b_-6043","geometry":{"type":"LineString","coordinates":[[152602.80712637,168024.28417645],[152602.29523434,168007.8638373],[152601.50613062,167991.61517775],[152600.50328853,167975.3783083],[152599.29280546,167959.23491753],[152597.77918667,167943.73620907],[152595.736643,167926.79797699],[152593.31090281,167909.91036578],[152590.50322917,167893.0820365],[152588.31991155,167881.60432241],[152586.65078043,167874.54938999],[152583.0302524,167858.58589473],[152578.5102142,167840.80283495],[152574.19918678,167824.32865993],[152569.50891054,167807.93138928],[152566.46054899,167797.09591914]]},"geometry_name":"GEOM","properties":{"INSPIRE_ID":"https://databrussels.be/id/rail/28672","TYPE":"RW","LVL":-1,"SLOPE":null,"LENGTH":230.898451569333},"bbox":[152566.46054899,167797.09591914,152602.80712637,168024.28417645]},{"type":"Feature","id":"TrainNetwork.fid--24aa7d09_1a031580c5b_-6042","geometry":{"type":"LineString","coordinates":[[152604.36729018,168024.07695958],[152603.7914053,168007.80104059],[152603.00134577,167991.53269965],[152601.99728897,167975.2761631],[152600.77952345,167959.03565111],[152599.26948488,167943.57360234],[152597.22287503,167926.60165058],[152594.79230592,167909.68042127],[152591.97904293,167892.81859109],[152589.7863399,167881.29153787],[152588.11115893,167874.21103447],[152584.48788086,167858.23541386],[152579.96176453,167840.42844109],[152575.64510232,167823.93273322],[152570.94548562,167807.50280821],[152567.95010007,167796.85293329]]},"geometry_name":"GEOM","properties":{"INSPIRE_ID":"https://databrussels.be/id/rail/28673","TYPE":"RW","LVL":-1,"SLOPE":null,"LENGTH":230.934922232461},"bbox":[152567.95010007,167796.85293329,152604.36729018,168024.07695958]},{"type":"Feature","id":"TrainNetwork.fid--24aa7d09_1a031580c5b_-603c","geometry":{"type":"LineString","coordinates":[[152567.95010007,167796.85293329],[152564.77958949,167786.36602816],[152558.97260729,167769.15091332],[152553.08079717,167752.90048548],[152546.95092694,167736.60798517],[152540.59394069,167720.27743351],[152536.00805811,167708.44819452],[152528.18003137,167688.57032008],[152527.92720827,167687.92947077],[152512.74620404,167649.39739834],[152497.11220873,167609.76079742],[152489.18920103,167589.76041166],[152477.87674309,167560.98771032],[152473.46941326,167550.64321273],[152467.97214735,167536.60227935],[152456.39631722,167506.40673638],[152452.08551203,167495.38575908],[152438.75646658,167461.57827606],[152438.75596501,167461.57700674],[152429.79854576,167438.73516053]]},"geometry_name":"GEOM","properties":{"INSPIRE_ID":"https://databrussels.be/id/rail/28795","TYPE":"RW","LVL":0,"SLOPE":null,"LENGTH":383.905559369338},"bbox":[152429.79854576,167438.73516053,152567.95010007,167796.85293329]}],"numberReturned":26,"grand_bruxelles_source":{"authority":"Paradigm / Brussels-Capital Region","service":"https://geoservices-urbis.irisnet.be/geoserver/urbisvector/wfs","layer":"urbisvector:TrainNetwork","crs":"EPSG:31370","bbox":[152500.0,167500.0,153000.0,168000.0],"cell_id":"bxl-e152500-n167500-s500","ownership":"bbox_intersection_source_unclipped"}}
