{"type":"FeatureCollection","totalFeatures":6,"numberMatched":6,"timeStamp":"2026-08-23T01:01:32.014Z","crs":{"type":"name","properties":{"name":"urn:ogc:def:crs:EPSG::31370"}},"bbox":[145434.23,165467.91,145539.001,165820.13],"features":[{"type":"Feature","id":"Buildings.fid--578fcb21_1a02bf1d5e2_7f4d","geometry":{"type":"Polygon","coordinates":[[[145501.067,165522.883],[145489.712,165563.207],[145490.43,165563.46],[145490.1,165564.42],[145488.33,165563.91],[145477.765,165560.863],[145473.21,165559.549],[145467.821,165558.016],[145466.612,165562.273],[145465.432,165566.426],[145465.253,165566.965],[145434.23,165558.24],[145435.637,165553.306],[145436.861,165549.017],[145451.3101,165507.4501],[145457.758,165509.309],[145458.9556,165509.6542],[145476.968,165514.847],[145489.961,165518.593],[145499.18,165521.25],[145502.1,165522.1],[145502.06,165522.23],[145501.81,165523.11],[145501.067,165522.883]]]},"geometry_name":"GEOM","properties":{"INSPIRE_ID":"https://databrussels.be/id/building/1656988","BLOCK_ID":"https://databrussels.be/id/block/30601","AREA":2655},"bbox":[145434.23,165507.4501,145502.1,165566.965]},{"type":"Feature","id":"Buildings.fid--578fcb21_1a02bf1d5e2_7f50","geometry":{"type":"Polygon","coordinates":[[[145467.20196482,165763.89735272],[145460.26469772,165744.74216621],[145471.57971832,165740.55423423],[145478.65566364,165759.72233644],[145467.20196482,165763.89735272]]]},"geometry_name":"GEOM","properties":{"INSPIRE_ID":"https://databrussels.be/id/building/1672883","BLOCK_ID":"https://databrussels.be/id/block/30894","AREA":247},"bbox":[145460.26469772,165740.55423423,145478.65566364,165763.89735272]},{"type":"Feature","id":"Buildings.fid--578fcb21_1a02bf1d5e2_7f4e","geometry":{"type":"Polygon","coordinates":[[[145471.55,165668.78],[145483.04,165647.95],[145503.777,165643.773],[145512.8,165688.46],[145476.98,165695.69],[145471.55,165668.78]]]},"geometry_name":"GEOM","properties":{"INSPIRE_ID":"https://databrussels.be/id/building/1748560","BLOCK_ID":"https://databrussels.be/id/block/30601","AREA":1526},"bbox":[145471.55,165643.773,145512.8,165695.69]},{"type":"Feature","id":"Buildings.fid--578fcb21_1a02bf1d5e2_7f51","geometry":{"type":"Polygon","coordinates":[[[145485.79,165815.55],[145489.15,165813.78],[145489.89,165815.19],[145486.53,165816.95],[145485.79,165815.55]]]},"geometry_name":"GEOM","properties":{"INSPIRE_ID":"https://databrussels.be/id/building/1749810","BLOCK_ID":"https://databrussels.be/id/block/30894","AREA":6},"bbox":[145485.79,165813.78,145489.89,165816.95]}],"numberReturned":4,"grand_bruxelles_source":{"authority":"Paradigm / Brussels-Capital Region","service":"https://geoservices-urbis.irisnet.be/geoserver/urbisvector/wfs","layer":"urbisvector:Buildings","crs":"EPSG:31370","bbox":[145000.0,165500.0,145500.0,166000.0],"cell_id":"bxl-e145000-n165500-s500","ownership":"polygon_or_multipolygon_centroid_global_500m_cell"}}
