{"type":"FeatureCollection","totalFeatures":12,"numberMatched":12,"timeStamp":"2026-08-24T03:41:53.580Z","crs":{"type":"name","properties":{"name":"urn:ogc:def:crs:EPSG::31370"}},"bbox":[155688.97051173,166160.461,155836.4072,166255.475],"features":[{"type":"Feature","id":"Buildings.fid--6f55e203_1a031389953_4029","geometry":{"type":"Polygon","coordinates":[[[155832.5149,166183.4272],[155829.0464,166179.3668],[155826.5379,166179.5584],[155826.1912,166174.3209],[155830.1245,166174.0205],[155831.6866,166173.4173],[155836.4072,166180.414],[155834.8696,166181.5649],[155832.5149,166183.4272]]]},"geometry_name":"GEOM","properties":{"INSPIRE_ID":"https://databrussels.be/id/building/1829788","BLOCK_ID":null,"AREA":57},"bbox":[155826.1912,166173.4173,155836.4072,166183.4272]},{"type":"Feature","id":"Buildings.fid--6f55e203_1a031389953_4025","geometry":{"type":"Polygon","coordinates":[[[155777.25,166206.074],[155777.13251615,166205.85752745],[155776.51642469,166206.20827011],[155775.42674933,166204.50085888],[155778.16242101,166202.61659376],[155777.81499361,166202.17699068],[155782.76,166198.79],[155784.31,166201.05],[155784.509,166200.915],[155792.797,166213.381],[155788.055,166216.596],[155785.001,166212.139],[155782.44,166213.61],[155777.25,166206.074]]]},"geometry_name":"GEOM","properties":{"INSPIRE_ID":"https://databrussels.be/id/building/1829794","BLOCK_ID":null,"AREA":139},"bbox":[155775.42674933,166198.79,155792.797,166216.596]},{"type":"Feature","id":"Buildings.fid--6f55e203_1a031389953_4026","geometry":{"type":"Polygon","coordinates":[[[155782.387,166175.552],[155780.26,166174.349],[155779.717,166172.11],[155780.847,166170.047],[155783.076,166169.28],[155785.182,166170.506],[155785.859,166172.77],[155784.727,166174.905],[155782.387,166175.552]]]},"geometry_name":"GEOM","properties":{"INSPIRE_ID":"https://databrussels.be/id/building/1829795","BLOCK_ID":null,"AREA":28},"bbox":[155779.717,166169.28,155785.859,166175.552]},{"type":"Feature","id":"Buildings.fid--6f55e203_1a031389953_4028","geometry":{"type":"Polygon","coordinates":[[[155801.646,166207.092],[155794.672,166196.812],[155803.608,166190.968],[155807.279,166196.638],[155804.866,166198.203],[155807.904,166202.753],[155801.646,166207.092]]]},"geometry_name":"GEOM","properties":{"INSPIRE_ID":"https://databrussels.be/id/building/1829807","BLOCK_ID":null,"AREA":114},"bbox":[155794.672,166190.968,155807.904,166207.092]},{"type":"Feature","id":"Buildings.fid--6f55e203_1a031389953_401f","geometry":{"type":"Polygon","coordinates":[[[155739.6,166234.505],[155752.792,166251.733],[155747.956,166255.475],[155744.05,166250.325],[155739.888,166244.742],[155734.794,166238.227],[155739.6,166234.505]]]},"geometry_name":"GEOM","properties":{"INSPIRE_ID":"https://databrussels.be/id/building/1829808","BLOCK_ID":null,"AREA":131},"bbox":[155734.794,166234.505,155752.792,166255.475]},{"type":"Feature","id":"Buildings.fid--6f55e203_1a031389953_4024","geometry":{"type":"Polygon","coordinates":[[[155771.332,166160.531],[155773.951,166160.461],[155774.404,166166.61],[155771.82,166166.828],[155771.332,166160.531]]]},"geometry_name":"GEOM","properties":{"INSPIRE_ID":"https://databrussels.be/id/building/1829811","BLOCK_ID":null,"AREA":16},"bbox":[155771.332,166160.461,155774.404,166166.828]},{"type":"Feature","id":"Buildings.fid--6f55e203_1a031389953_4020","geometry":{"type":"Polygon","coordinates":[[[155735.054,166219.007],[155742.166,166214.072],[155745.641,166219.079],[155738.529,166224.014],[155738.281,166223.657],[155736.158,166220.597],[155735.054,166219.007]]]},"geometry_name":"GEOM","properties":{"INSPIRE_ID":"https://databrussels.be/id/building/1829812","BLOCK_ID":null,"AREA":53},"bbox":[155735.054,166214.072,155745.641,166224.014]},{"type":"Feature","id":"Buildings.fid--6f55e203_1a031389953_4021","geometry":{"type":"Polygon","coordinates":[[[155746.27581863,166219.16753445],[155742.47754731,166213.68365522],[155747.23067831,166210.44833171],[155750.93875452,166216.01319547],[155751.52,166215.62],[155755.54,166221.29],[155749.77,166225.3],[155745.74,166219.53],[155746.27581863,166219.16753445]]]},"geometry_name":"GEOM","properties":{"INSPIRE_ID":"https://databrussels.be/id/building/1829818","BLOCK_ID":null,"AREA":87},"bbox":[155742.47754731,166210.44833171,155755.54,166225.3]},{"type":"Feature","id":"Buildings.fid--6f55e203_1a031389953_401e","geometry":{"type":"Polygon","coordinates":[[[155691.61675876,166162.04162293],[155694.99446493,166166.92259859],[155692.34821791,166168.75384004],[155688.97051173,166163.87286437],[155691.61675876,166162.04162293]]]},"geometry_name":"GEOM","properties":{"INSPIRE_ID":"https://databrussels.be/id/building/1829820","BLOCK_ID":null,"AREA":19},"bbox":[155688.97051173,166162.04162293,155694.99446493,166168.75384004]},{"type":"Feature","id":"Buildings.fid--6f55e203_1a031389953_4022","geometry":{"type":"Polygon","coordinates":[[[155756.1065,166208.6349],[155753.7376,166210.5218],[155749.9658,166205.7866],[155752.3346,166203.8997],[155756.1065,166208.6349]]]},"geometry_name":"GEOM","properties":{"INSPIRE_ID":"https://databrussels.be/id/building/1829821","BLOCK_ID":null,"AREA":18},"bbox":[155749.9658,166203.8997,155756.1065,166210.5218]},{"type":"Feature","id":"Buildings.fid--6f55e203_1a031389953_4027","geometry":{"type":"Polygon","coordinates":[[[155782.89,166243.12],[155780.02,166238.78],[155786.56,166234.24],[155789.49,166238.72],[155782.89,166243.12]]]},"geometry_name":"GEOM","properties":{"INSPIRE_ID":"https://databrussels.be/id/building/1829829","BLOCK_ID":null,"AREA":42},"bbox":[155780.02,166234.24,155789.49,166243.12]},{"type":"Feature","id":"Buildings.fid--6f55e203_1a031389953_4023","geometry":{"type":"Polygon","coordinates":[[[155767.025,166176.777],[155768.246,166178.582],[155764.574,166181.132],[155763.362,166179.236],[155767.025,166176.777]]]},"geometry_name":"GEOM","properties":{"INSPIRE_ID":"https://databrussels.be/id/building/1829836","BLOCK_ID":null,"AREA":10},"bbox":[155763.362,166176.777,155768.246,166181.132]}],"numberReturned":12,"grand_bruxelles_source":{"authority":"Paradigm / Brussels-Capital Region","service":"https://geoservices-urbis.irisnet.be/geoserver/urbisvector/wfs","layer":"urbisvector:Buildings","crs":"EPSG:31370","bbox":[155500.0,166000.0,156000.0,166500.0],"cell_id":"bxl-e155500-n166000-s500","ownership":"polygon_or_multipolygon_centroid_global_500m_cell"}}
