{"type":"FeatureCollection","totalFeatures":16,"numberMatched":16,"timeStamp":"2026-08-24T03:41:54.262Z","crs":{"type":"name","properties":{"name":"urn:ogc:def:crs:EPSG::31370"}},"bbox":[155276.04,165638.98000036,156268.144,166602.68000036],"features":[{"type":"Feature","id":"StreetSurfaces.fid--6f55e203_1a031389953_402c","geometry":{"type":"Polygon","coordinates":[[[155448.90695066,166501.23921485],[155460.83,166493.13000036],[155472.02021061,166485.60254692],[155476.8999525,166482.32000036],[155486.71270372,166475.69290029],[155495.69,166469.63000036],[155502.39069806,166465.03902063],[155516.4299125,166455.42000036],[155522.44213798,166451.41853112],[155531.56,166445.35000036],[155540.16758633,166439.48093324],[155545.9957988,166435.50691921],[155546.71,166435.02000036],[155548.36092952,166433.90016481],[155550.8849,166435.01390036],[155542.67343485,166440.59257237],[155535.449925,166445.50000036],[155525.07077554,166452.50966616],[155505.91,166465.45000036],[155488.45263676,166477.29016786],[155477.3799125,166484.80000036],[155462.37455356,166494.96577268],[155446.84,166505.49000036],[155443.97093007,166507.42890362],[155443.44409899,166507.78492218],[155442.13241917,166505.84623171],[155442.25994,166505.76000035],[155448.90695066,166501.23921485]]]},"geometry_name":"GEOM","properties":{"INSPIRE_ID":"https://databrussels.be/id/streetsurface/131136","TYPE":"M","STREET_ID":"https://databrussels.be/id/streetname/5572","STRNAMEFRE":"Autoroute E411","STRNAMEDUT":"Autosnelweg E411","MUNNISCODE":"21002","HIERARCHY":"H","LVL":1,"ADMIN":"REGION_RBC","AREA":302},"bbox":[155442.13241917,166433.90016481,155550.8849,166507.78492218]},{"type":"Feature","id":"StreetSurfaces.fid--6f55e203_1a031389953_402a","geometry":{"type":"Polygon","coordinates":[[[155424.28,166501.77000036],[155435.68,166494.08000036],[155451.11,166483.66000036],[155458.59059698,166478.61373172],[155465.43008,166474.00000036],[155475.68454579,166467.07636376],[155479.53,166464.48000035],[155493.82,166454.84000036],[155504.74,166447.46000036],[155520.39,166436.90000036],[155525.2,166433.61500036],[155529.04470254,166430.98916828],[155530.80372134,166431.45797598],[155512.76056255,166443.66682049],[155510.14,166445.44000036],[155494.01826359,166456.3652159],[155468.939965,166473.36000036],[155460.81649932,166478.84800081],[155445.73,166489.04000036],[155424.494,166503.45300035],[155407.63,166514.86000036],[155386.86,166528.94000036],[155357.81,166548.63000036],[155339.01,166561.30000036],[155318.33,166575.30000036],[155304.29,166584.86000036],[155294.92,166591.09000036],[155287.48,166595.95000036],[155281.75,166599.62000036],[155277.03,166602.61000035],[155276.62,166602.68000036],[155276.34,166602.55000035],[155276.05,166602.19000036],[155276.04,166601.84000035],[155276.22,166601.49000036],[155277.48,166600.72000035],[155283.93,166596.38000036],[155292.58,166590.65000036],[155308.03,166580.12000036],[155328.68,166566.06000035],[155354.12,166548.85000035],[155388.8,166525.25000036],[155416,166506.83000036],[155421.299,166503.25400036],[155421.983,166502.99800036],[155422.70403522,166502.85419278],[155424.28,166501.77000036]]]},"geometry_name":"GEOM","properties":{"INSPIRE_ID":"https://databrussels.be/id/streetsurface/131341","TYPE":"M","STREET_ID":"https://databrussels.be/id/streetname/5572","STRNAMEFRE":"Autoroute E411","STRNAMEDUT":"Autosnelweg E411","MUNNISCODE":"21002","HIERARCHY":"H","LVL":0,"ADMIN":"REGION_RBC","AREA":508},"bbox":[155276.04,166430.98916828,155530.80372134,166602.68000036]},{"type":"Feature","id":"StreetSurfaces.fid--6f55e203_1a031389953_4038","geometry":{"type":"Polygon","coordinates":[[[156202.38,166000.00000036],[156195.84,166004.11000036],[156169.9,166021.26000036],[156145.71,166036.94000036],[156122.98,166052.09000036],[156094.33,166071.20000036],[156070.32,166086.78000036],[156050.5,166100.15000036],[156026.28,166116.13000036],[156002.53,166131.79000036],[156000,166133.48000036],[155978.35,166147.84000036],[155956.23,166162.46000036],[155933.01,166177.72000036],[155910.34,166193.00000036],[155886.12,166209.07000036],[155869.08,166220.27000036],[155846.99,166235.04000036],[155830.33,166246.13000036],[155813.16566661,166257.52882347],[155795.36744009,166268.48907992],[155795.128,166267.84200036],[155807.05,166259.96000036],[155824.5,166248.26000036],[155855.04,166228.07000036],[155888.52,166205.97000036],[155912.56,166189.79000036],[155957.13,166160.41000036],[155988.38,166139.56000036],[156000,166131.93000036],[156021.11,166118.06000036],[156056.91,166094.30000036],[156085.36,166075.50000036],[156125.85,166048.32000036],[156149.18,166033.16000036],[156181.23,166012.00000036],[156205.61,165996.53000036],[156224.37,165984.51000036],[156249.34,165968.94000036],[156259.19806351,165962.82322072],[156259.56000258,165963.41099807],[156259.83604297,165963.85924861],[156253.67,165967.68000036],[156249.96,165970.02000036],[156213.34,165993.12000036],[156202.38,166000.00000036]]]},"geometry_name":"GEOM","properties":{"INSPIRE_ID":"https://databrussels.be/id/streetsurface/131358","TYPE":"M","STREET_ID":"https://databrussels.be/id/streetname/5263","STRNAMEFRE":"Autoroute E411","STRNAMEDUT":"Autosnelweg E411","MUNNISCODE":"21017","HIERARCHY":"H","LVL":0,"ADMIN":"REGION_VL","AREA":727},"bbox":[155795.128,165962.82322072,156259.83604297,166268.48907992]},{"type":"Feature","id":"StreetSurfaces.fid--6f55e203_1a031389953_402e","geometry":{"type":"Polygon","coordinates":[[[155453.07,166515.76000035],[155471.38,166503.33000036],[155479.33364132,166497.92188661],[155488.939955,166491.39008036],[155497.46959194,166485.6084134],[155504.77,166480.66000036],[155511.80469066,166475.89851009],[155521.4499675,166469.37008036],[155533.55469454,166461.1512886],[155538.52,166457.78000035],[155541.75111254,166455.59883353],[155558.0000575,166444.63008036],[155558.93316895,166443.99735966],[155563.7865525,166440.70695053],[155564.27199764,166440.37789583],[155566.09989207,166440.86506949],[155565.31812578,166441.39398909],[155534.95,166461.94000036],[155501.13,166484.84000036],[155479.77,166499.30000036],[155450.92,166518.84000036],[155450.15819339,166517.7134697],[155453.07,166515.76000035]]]},"geometry_name":"GEOM","properties":{"INSPIRE_ID":"https://databrussels.be/id/streetsurface/134041","TYPE":"SW","STREET_ID":"https://databrussels.be/id/streetname/5572","STRNAMEFRE":"Autoroute E411","STRNAMEDUT":"Autosnelweg E411","MUNNISCODE":"21002","HIERARCHY":"H","LVL":1,"ADMIN":"REGION_RBC","AREA":195},"bbox":[155450.15819339,166440.37789583,155566.09989207,166518.84000036]},{"type":"Feature","id":"StreetSurfaces.fid--6f55e203_1a031389953_402f","geometry":{"type":"Polygon","coordinates":[[[155461.58,165747.71000036],[155463.193,165746.09600036],[155464.806,165744.48200036],[155454.11,165773.75000036],[155450.64,165782.83000036],[155448.68,165787.27000036],[155446.28,165790.89000036],[155441.84,165796.77000036],[155435.74,165804.46000036],[155426.72,165814.07000036],[155421.23,165820.29000036],[155417.87,165825.07000036],[155407.11,165843.60000036],[155396.68,165867.57000036],[155394.1,165876.90000036],[155393.31,165882.56000036],[155392.34,165888.01000036],[155391.9,165891.63000036],[155391.98,165895.09000036],[155392.59,165899.02000036],[155393.72,165904.24000036],[155395.6,165911.59000036],[155398.87,165919.68000036],[155402.92,165926.90000036],[155404.97,165930.12000036],[155405.51,165930.44000036],[155411.14,165936.61000036],[155416.09,165941.30000036],[155424.67,165950.66000036],[155430.73,165958.14000036],[155439.37,165971.41000036],[155445.21,165982.49000036],[155449.25,165991.24000036],[155452.55,166000.00000036],[155455.64,166009.45000036],[155458.73,166021.62000036],[155465.2,166050.91000036],[155472.35,166090.97000036],[155474.52,166110.31000035],[155475.86,166126.15000036],[155479.11,166152.24000036],[155481.2,166166.86000036],[155485.05,166187.01000036],[155491.16,166211.48000036],[155494.66,166224.23000035],[155498.1,166238.09000036],[155507.84,166267.37000036],[155519.35,166293.83000036],[155532.3,166316.98000036],[155540.17,166329.24000036],[155541.36,166331.32000036],[155557.05,166355.68000036],[155575.856,166387.44300036],[155573.858,166388.83800036],[155573.26047095,166389.25498536],[155571.85927601,166390.23280774],[155570.52,166384.98000035],[155563.14,166372.11000036],[155548.57,166347.74000036],[155539.47,166333.03000036],[155530.85,166320.12000036],[155523.07,166306.91000035],[155520.33,166301.15000036],[155514.34,166290.52000036],[155506.82,166274.35000036],[155502.89,166263.83000036],[155498.21,166248.91000036],[155493.9,166234.36000036],[155488.16,166212.54000036],[155479.89,166176.92000036],[155476.72,166160.35000036],[155474.15,166137.84000036],[155471.56,166112.59000036],[155469.87,166097.81000035],[155466.22,166069.74000036],[155461.42,166047.22000036],[155457.89,166029.79000036],[155454.32,166015.70000036],[155450.33,166001.35000036],[155445.89,165990.40000036],[155438.99,165975.95000036],[155434.4,165968.31000036],[155424.99,165954.16000036],[155413.51,165941.79000036],[155403.28,165932.41000036],[155398.4,165924.57000036],[155396.61,165921.10000036],[155393.93,165914.17000036],[155391.54,165907.04000036],[155390.6,165902.57000036],[155389.8,165897.12000036],[155389.26,165891.19000036],[155389.7,165883.14000036],[155390.3,165880.26000036],[155393.01,165870.50000036],[155397.95,165856.49000036],[155406.86,165839.28000036],[155412.51,165829.01000036],[155415.3,165823.45000036],[155416.86,165821.07000036],[155432.32,165804.82000035],[155437.9,165798.34000036],[155443.25,165790.92000036],[155449.08,165778.86000036],[155461.58,165747.71000036]]]},"geometry_name":"GEOM","properties":{"INSPIRE_ID":"https://databrussels.be/id/streetsurface/38641","TYPE":"S","STREET_ID":"https://databrussels.be/id/streetname/5327","STRNAMEFRE":"Chemin des Trois Fontaines","STRNAMEDUT":"Drijbronnenweg","MUNNISCODE":"21002","HIERARCHY":"T","LVL":0,"ADMIN":"MUN_RBC","AREA":2010},"bbox":[155389.26,165744.48200036,155575.856,166390.23280774]},{"type":"Feature","id":"StreetSurfaces.fid--6f55e203_1a031389953_4039","geometry":{"type":"Polygon","coordinates":[[[155564.64,165640.82000036],[155565.585,165639.90000036],[155566.53,165638.98000036],[155569.53,165646.30000036],[155574.58,165656.08000036],[155579.473,165662.86000036],[155585.85,165673.12000036],[155592.4,165682.72000036],[155622.34,165729.25000036],[155635.71,165749.38000036],[155663.32,165791.79000036],[155672.75,165805.68000036],[155681.36,165819.33000036],[155720.38,165879.19000036],[155733.49,165898.58000036],[155751.6,165926.80000036],[155768.79,165953.20000036],[155789.09,165985.35000036],[155803.32,166006.92000036],[155813.74,166023.29000036],[155822.2,166035.17000036],[155828.85,166045.28000036],[155837.39,166059.21000036],[155843.6,166070.19000036],[155846.76,166074.32000036],[155851.2,166078.89000036],[155854.02,166081.44000036],[155857.35,166084.10000036],[155861.38,166086.06000036],[155866.59,166088.99000036],[155879.69,166095.43000036],[155903.44,166108.13000036],[155926.53,166118.86000036],[155954.53,166131.05000036],[155957.42,166133.29000036],[155960.23,166135.90000036],[155964.83,166138.92000036],[155961.79310845,166140.88416803],[155958.8000275,166142.82000036],[155958.57,166141.11000036],[155957.86,166138.53000036],[155956.76,166136.69000036],[155955.26,166134.83000036],[155947.09,166130.99000036],[155928.92,166123.01000036],[155913.41,166115.94000036],[155898.44,166107.88000036],[155887.1,166102.59000036],[155870.49,166093.95000036],[155863.85,166090.81000036],[155854.68,166085.63000036],[155852.09,166083.81000036],[155848.64,166080.33000036],[155842.81,166073.12000036],[155838.83,166067.80000035],[155835.9,166063.43000036],[155834.11,166059.73000036],[155828.69,166049.78000036],[155792.32,165994.83000036],[155779.67,165974.88000036],[155765.49,165953.33000036],[155755.04,165936.97000036],[155736.41,165908.85000036],[155722.14,165886.22000036],[155708.42,165864.95000036],[155694.81,165844.68000036],[155681.85,165824.79000036],[155672.23,165809.44000036],[155659.56,165790.00000036],[155646.33,165770.79000036],[155617.37,165725.61000036],[155608.46,165710.93000036],[155598.2,165695.56000036],[155595.22,165690.75000036],[155581.32,165669.68000036],[155569.72,165650.82000036],[155564.64,165640.82000036]]]},"geometry_name":"GEOM","properties":{"INSPIRE_ID":"https://databrussels.be/id/streetsurface/38642","TYPE":"S","STREET_ID":"https://databrussels.be/id/streetname/2909","STRNAMEFRE":"Drève du Relais des Dames","STRNAMEDUT":"Damesrustdreef","MUNNISCODE":"21002","HIERARCHY":"T","LVL":0,"ADMIN":"MUN_RBC","AREA":1647},"bbox":[155564.64,165638.98000036,155964.83,166142.82000036]},{"type":"Feature","id":"StreetSurfaces.fid--6f55e203_1a031389953_402b","geometry":{"type":"Polygon","coordinates":[[[155435.47440031,166496.0005371],[155445.73,166489.04000036],[155460.81649932,166478.84800081],[155468.939965,166473.36000036],[155494.01826359,166456.3652159],[155510.14,166445.44000036],[155512.76056255,166443.66682049],[155530.80372134,166431.45797598],[155547.572,166435.92700036],[155563.06543622,166440.05631759],[155566.09989081,166440.86507423],[155534.95,166461.94000036],[155501.13,166484.84000036],[155479.77,166499.30000036],[155450.92,166518.84000036],[155450.711,166518.53200036],[155450.15819339,166517.7134697],[155443.44409899,166507.78492218],[155442.13241917,166505.84623171],[155435.47440031,166496.0005371]]]},"geometry_name":"GEOM","properties":{"INSPIRE_ID":"https://databrussels.be/id/streetsurface/39400","TYPE":"K","STREET_ID":"https://databrussels.be/id/streetname/1131","STRNAMEFRE":"Chaussée de Wavre","STRNAMEDUT":"Waversesteenweg","MUNNISCODE":"21002","HIERARCHY":"MER","LVL":0,"ADMIN":"REGION_RBC","AREA":3504},"bbox":[155435.47440031,166431.45797598,155566.09989081,166518.84000036]},{"type":"Feature","id":"StreetSurfaces.fid--6f55e203_1a031389953_4037","geometry":{"type":"Polygon","coordinates":[[[156268.144,165977.35000036],[155605.233,166415.51100036],[155596.608,166402.79100035],[155795.36744009,166268.48907992],[155813.16566661,166257.52882347],[155830.33,166246.13000036],[155846.99,166235.04000036],[155869.08,166220.27000036],[155886.12,166209.07000036],[155910.34,166193.00000036],[155933.01,166177.72000036],[155956.23,166162.46000036],[155978.35,166147.84000036],[156000,166133.48000036],[156002.53,166131.79000036],[156026.28,166116.13000036],[156050.5,166100.15000036],[156070.32,166086.78000036],[156094.33,166071.20000036],[156122.98,166052.09000036],[156145.71,166036.94000036],[156169.9,166021.26000036],[156195.84,166004.11000036],[156202.38,166000.00000036],[156213.34,165993.12000036],[156249.96,165970.02000036],[156253.67,165967.68000036],[156259.83604297,165963.85924861],[156268.144,165977.35000036]]]},"geometry_name":"GEOM","properties":{"INSPIRE_ID":"https://databrussels.be/id/streetsurface/42829","TYPE":"S","STREET_ID":"https://databrussels.be/id/streetname/5572","STRNAMEFRE":"Autoroute E411","STRNAMEDUT":"Autosnelweg E411","MUNNISCODE":"21002","HIERARCHY":"H","LVL":0,"ADMIN":"REGION_RBC","AREA":13648},"bbox":[155596.608,165963.85924861,156268.144,166415.51100036]},{"type":"Feature","id":"StreetSurfaces.fid--6f55e203_1a031389953_4036","geometry":{"type":"Polygon","coordinates":[[[155818.26414601,166238.1607047],[155835.7107,166226.60912035],[155985.19613871,166127.62533015],[156251.92475605,165951.01160469],[156259.19806351,165962.82322072],[156249.34,165968.94000036],[156224.37,165984.51000036],[156205.61,165996.53000036],[156181.23,166012.00000036],[156149.18,166033.16000036],[156125.85,166048.32000036],[156085.36,166075.50000036],[156056.91,166094.30000036],[156021.11,166118.06000036],[156000,166131.93000036],[155988.38,166139.56000036],[155957.13,166160.41000036],[155912.56,166189.79000036],[155888.52,166205.97000036],[155855.04,166228.07000036],[155824.5,166248.26000036],[155807.05,166259.96000036],[155795.128,166267.84200036],[155795.36744009,166268.48907992],[155596.608,166402.79100035],[155589.1957939,166391.861322],[155588.41522211,166390.70985322],[155597.11000203,166384.94999891],[155619.85787905,166369.53149447],[155625.4306633,166365.84156324],[155724.23110732,166300.42281262],[155818.26414601,166238.1607047]]]},"geometry_name":"GEOM","properties":{"INSPIRE_ID":"https://databrussels.be/id/streetsurface/42830","TYPE":"S","STREET_ID":"https://databrussels.be/id/streetname/5572","STRNAMEFRE":"Autoroute E411","STRNAMEDUT":"Autosnelweg E411","MUNNISCODE":"21002","HIERARCHY":"H","LVL":0,"ADMIN":"REGION_RBC","AREA":9945},"bbox":[155588.41522211,165951.01160469,156259.19806351,166402.79100035]},{"type":"Feature","id":"StreetSurfaces.fid--6f55e203_1a031389953_4030","geometry":{"type":"Polygon","coordinates":[[[155431.38405195,166489.95098316],[155428.34226906,166485.45339824],[155436.766,166479.80100035],[155438.90013202,166483.05432823],[155501.54898845,166439.31800841],[155571.85927601,166390.23280774],[155573.26047095,166389.25498536],[155573.858,166388.83800036],[155575.856,166387.44300036],[155746.77,166267.17000036],[155766.34,166255.36000036],[155799.75,166235.86000036],[155830.55,166216.97000036],[155832.88587407,166215.68287533],[155833.390065,166216.68000036],[155833.6000475,166217.42000036],[155833.4999375,166218.43008036],[155833.1800825,166219.60000036],[155832.51002,166221.16000036],[155831.9599475,166222.30000036],[155810.50002,166236.96000036],[155787.9300075,166251.60992036],[155765.4599275,166266.59008036],[155743.1300725,166281.44000036],[155719.0099525,166298.14000036],[155694.009965,166315.29008036],[155674.470055,166328.30000036],[155654.590055,166341.34000035],[155635.5799825,166354.32992036],[155618.4100525,166365.76992036],[155601.05996,166377.49008036],[155596.5999175,166380.57008036],[155591.22007,166384.26992036],[155587.989925,166386.49008036],[155587.0000075,166387.17008035],[155581.6299225,166390.54000036],[155580.502975,166388.88800036],[155545.5200325,166412.73008035],[155533.6939175,166420.77904036],[155532.89996,166421.26000035],[155527.56005,166424.96000036],[155525.78008,166426.14000036],[155521.5099625,166428.99008036],[155514.490015,166433.68000036],[155504.9999775,166440.14000036],[155493.9200725,166447.56000036],[155483.739915,166454.56000035],[155472.5799575,166462.18000036],[155458.46001,166471.72000036],[155442.71008,166482.41008036],[155433.909985,166488.34000036],[155431.38405195,166489.95098316]]]},"geometry_name":"GEOM","properties":{"INSPIRE_ID":"https://databrussels.be/id/streetsurface/43093","TYPE":"SW","STREET_ID":"https://databrussels.be/id/streetname/1131","STRNAMEFRE":"Chaussée de Wavre","STRNAMEDUT":"Waversesteenweg","MUNNISCODE":"21002","HIERARCHY":"DR","LVL":0,"ADMIN":"REGION_RBC","AREA":2918},"bbox":[155428.34226906,166215.68287533,155833.6000475,166489.95098316]},{"type":"Feature","id":"StreetSurfaces.fid--6f55e203_1a031389953_402d","geometry":{"type":"Polygon","coordinates":[[[155443.44409899,166507.78492218],[155443.97093007,166507.42890362],[155446.84,166505.49000036],[155462.37455356,166494.96577268],[155477.3799125,166484.80000036],[155488.45263676,166477.29016786],[155505.91,166465.45000036],[155525.07077554,166452.50966616],[155535.449925,166445.50000036],[155542.67343485,166440.59257237],[155548.98611326,166436.30389042],[155563.06543622,166440.05631759],[155564.27199764,166440.37789583],[155563.7865525,166440.70695053],[155561.42611738,166442.30723561],[155558.93316895,166443.99735966],[155558.0000575,166444.63008036],[155541.75111254,166455.59883353],[155538.52,166457.78000035],[155533.55469454,166461.1512886],[155521.4499675,166469.37008036],[155511.80469066,166475.89851009],[155504.77,166480.66000036],[155497.46959194,166485.6084134],[155488.939955,166491.39008036],[155479.33364132,166497.92188661],[155471.38,166503.33000036],[155460.89157357,166510.45021557],[155453.07,166515.76000035],[155450.15819339,166517.7134697],[155443.44409899,166507.78492218]]]},"geometry_name":"GEOM","properties":{"INSPIRE_ID":"https://databrussels.be/id/streetsurface/44764","TYPE":"S","STREET_ID":"https://databrussels.be/id/streetname/5572","STRNAMEFRE":"Autoroute E411","STRNAMEDUT":"Autosnelweg E411","MUNNISCODE":"21002","HIERARCHY":"H","LVL":1,"ADMIN":"REGION_RBC","AREA":1585},"bbox":[155443.44409899,166436.30389042,155564.27199764,166517.7134697]},{"type":"Feature","id":"StreetSurfaces.fid--6f55e203_1a031389953_4032","geometry":{"type":"Polygon","coordinates":[[[155460.81649932,166478.84800081],[155468.939965,166473.36000036],[155494.01826359,166456.3652159],[155510.14,166445.44000036],[155512.76056255,166443.66682049],[155530.80372134,166431.45797598],[155545.99579945,166435.50691677],[155540.16758633,166439.48093324],[155531.56,166445.35000036],[155522.44213798,166451.41853112],[155516.4299125,166455.42000036],[155502.39069806,166465.03902063],[155495.69,166469.63000036],[155486.71270372,166475.69290029],[155476.8999525,166482.32000036],[155472.02021061,166485.60254692],[155460.83,166493.13000036],[155448.90695066,166501.23921485],[155442.25994,166505.76000035],[155442.13241917,166505.84623171],[155435.47440031,166496.0005371],[155445.73,166489.04000036],[155460.81649932,166478.84800081]]]},"geometry_name":"GEOM","properties":{"INSPIRE_ID":"https://databrussels.be/id/streetsurface/44765","TYPE":"S","STREET_ID":"https://databrussels.be/id/streetname/5572","STRNAMEFRE":"Autoroute E411","STRNAMEDUT":"Autosnelweg E411","MUNNISCODE":"21002","HIERARCHY":"H","LVL":1,"ADMIN":"REGION_RBC","AREA":1428},"bbox":[155435.47440031,166431.45797598,155545.99579945,166505.84623171]},{"type":"Feature","id":"StreetSurfaces.fid--6f55e203_1a031389953_4035","geometry":{"type":"Polygon","coordinates":[[[155566.09989207,166440.86506949],[155563.06543622,166440.05631759],[155548.98611326,166436.30389042],[155550.8849,166435.01390036],[155549.69817578,166434.49024251],[155596.608,166402.79100035],[155605.233,166415.51100036],[155566.09989207,166440.86506949]]]},"geometry_name":"GEOM","properties":{"INSPIRE_ID":"https://databrussels.be/id/streetsurface/45448","TYPE":"S","STREET_ID":"https://databrussels.be/id/streetname/5572","STRNAMEFRE":"Autoroute E411","STRNAMEDUT":"Autosnelweg E411","MUNNISCODE":"21002","HIERARCHY":"H","LVL":1,"ADMIN":"MUN_RBC","AREA":784},"bbox":[155548.98611326,166402.79100035,155605.233,166440.86506949]},{"type":"Feature","id":"StreetSurfaces.fid--6f55e203_1a031389953_4033","geometry":{"type":"Polygon","coordinates":[[[155549.69817578,166434.49024251],[155548.36092952,166433.90016481],[155546.71,166435.02000036],[155545.9957988,166435.50691921],[155530.80372134,166431.45797598],[155529.04470254,166430.98916828],[155534.3,166427.40000036],[155551.62,166415.66000036],[155571.81,166401.97000036],[155588.41522211,166390.70985322],[155589.1957939,166391.861322],[155596.608,166402.79100035],[155549.69817578,166434.49024251]]]},"geometry_name":"GEOM","properties":{"INSPIRE_ID":"https://databrussels.be/id/streetsurface/45449","TYPE":"S","STREET_ID":"https://databrussels.be/id/streetname/5572","STRNAMEFRE":"Autoroute E411","STRNAMEDUT":"Autosnelweg E411","MUNNISCODE":"21002","HIERARCHY":"H","LVL":1,"ADMIN":"MUN_RBC","AREA":949},"bbox":[155529.04470254,166390.70985322,155596.608,166435.50691921]},{"type":"Feature","id":"StreetSurfaces.fid--6f55e203_1a031389953_4031","geometry":{"type":"Polygon","coordinates":[[[155840.403,166221.75700036],[155843.205,166219.79800035],[155862.4800075,166206.52000036],[155863.24694474,166206.01133371],[155880.95,166194.27000036],[155907.13,166177.06000036],[155930.3,166161.52000036],[155939.34545766,166155.50341831],[155945.6799375,166151.29008036],[155956.3700525,166144.39008036],[155958.8000275,166142.82000036],[155964.83,166138.92000036],[155967.12,166137.44000036],[155972.77,166133.79000036],[155993.64,166119.73000036],[156000,166115.51000036],[156014.55,166105.84000036],[156040.77,166088.49000036],[156058.58,166076.72000036],[156078.99,166063.18000036],[156100.85,166048.79000036],[156110.43,166042.42000036],[156120.17,166035.94000036],[156141.52,166021.76000036],[156172.74318732,166001.23726947],[156174.2300025,166000.26000036],[156174.6400275,166000.00000036],[156191.820075,165988.87008036],[156206.860005,165979.09008036],[156206.99169445,165979.00709416],[156238.0100125,165959.48000036],[156242.0399725,165956.79008035],[156242.230075,165956.66000036],[156251.56000219,165950.42000391],[156251.92475605,165951.01160469],[155985.19613871,166127.62533015],[155835.7107,166226.60912035],[155818.26414601,166238.1607047],[155625.4306633,166365.84156324],[155619.85787905,166369.53149447],[155597.11000203,166384.94999891],[155588.41522211,166390.70985322],[155571.81,166401.97000036],[155551.62,166415.66000036],[155534.3,166427.40000036],[155529.04470254,166430.98916828],[155525.2,166433.61500036],[155520.39,166436.90000036],[155504.74,166447.46000036],[155493.82,166454.84000036],[155479.53,166464.48000035],[155475.68454579,166467.07636376],[155465.43008,166474.00000036],[155458.59059698,166478.61373172],[155451.11,166483.66000036],[155435.68,166494.08000036],[155434.64733233,166494.77659811],[155431.38405195,166489.95098316],[155433.909985,166488.34000036],[155442.71008,166482.41008036],[155458.46001,166471.72000036],[155472.5799575,166462.18000036],[155483.739915,166454.56000035],[155493.9200725,166447.56000036],[155504.9999775,166440.14000036],[155514.490015,166433.68000036],[155521.5099625,166428.99008036],[155525.78008,166426.14000036],[155527.56005,166424.96000036],[155532.89996,166421.26000035],[155533.6939175,166420.77904036],[155545.5200325,166412.73008035],[155580.502975,166388.88800036],[155581.6299225,166390.54000036],[155587.0000075,166387.17008035],[155587.989925,166386.49008036],[155591.22007,166384.26992036],[155596.5999175,166380.57008036],[155601.05996,166377.49008036],[155618.4100525,166365.76992036],[155635.5799825,166354.32992036],[155654.590055,166341.34000035],[155674.470055,166328.30000036],[155694.009965,166315.29008036],[155719.0099525,166298.14000036],[155743.1300725,166281.44000036],[155765.4599275,166266.59008036],[155787.9300075,166251.60992036],[155810.50002,166236.96000036],[155831.9599475,166222.30000036],[155832.51002,166221.16000036],[155833.1800825,166219.60000036],[155833.4999375,166218.43008036],[155833.6000475,166217.42000036],[155833.390065,166216.68000036],[155832.88587407,166215.68287533],[155834.9111747,166214.56688404],[155835.27360158,166214.9042226],[155840.403,166221.75700036]]]},"geometry_name":"GEOM","properties":{"INSPIRE_ID":"https://databrussels.be/id/streetsurface/45450","TYPE":"S","STREET_ID":"https://databrussels.be/id/streetname/1131","STRNAMEFRE":"Chaussée de Wavre","STRNAMEDUT":"Waversesteenweg","MUNNISCODE":"21002","HIERARCHY":"DR","LVL":0,"ADMIN":"MUN_RBC","AREA":3418},"bbox":[155431.38405195,165950.42000391,156251.92475605,166494.77659811]},{"type":"Feature","id":"StreetSurfaces.fid--6f55e203_1a031389953_4034","geometry":{"type":"Polygon","coordinates":[[[155566.09989081,166440.86507423],[155563.06543622,166440.05631759],[155547.572,166435.92700036],[155529.04473963,166430.98917818],[155534.3,166427.40000036],[155551.62,166415.66000036],[155571.81,166401.97000036],[155588.415,166390.71000036],[155596.608,166402.79100035],[155605.233,166415.51100036],[155566.09989081,166440.86507423]]]},"geometry_name":"GEOM","properties":{"INSPIRE_ID":"https://databrussels.be/id/streetsurface/45452","TYPE":"M","STREET_ID":"https://databrussels.be/id/streetname/2170","STRNAMEFRE":"Chaussée de Wavre","STRNAMEDUT":"Steenweg op Waver","MUNNISCODE":"21005","HIERARCHY":"MER","LVL":0,"ADMIN":"REGION_RBC","AREA":1739},"bbox":[155529.04473963,166390.71000036,155605.233,166440.86507423]}],"numberReturned":16,"grand_bruxelles_source":{"authority":"Paradigm / Brussels-Capital Region","service":"https://geoservices-urbis.irisnet.be/geoserver/urbisvector/wfs","layer":"urbisvector:StreetSurfaces","crs":"EPSG:31370","bbox":[155500.0,166000.0,156000.0,166500.0],"cell_id":"bxl-e155500-n166000-s500","ownership":"bbox_intersection_source_unclipped"}}
