{"type":"FeatureCollection","totalFeatures":16,"numberMatched":16,"timeStamp":"2026-08-23T04:55:16.489Z","crs":{"type":"name","properties":{"name":"urn:ogc:def:crs:EPSG::31370"}},"bbox":[150611.72560453,167741.90438175,152414.21340387,169818.033],"features":[{"type":"Feature","id":"TramNetwork.fid-1cd8d64c_1a02c0ead07_7f1c","geometry":{"type":"LineString","coordinates":[[151038.94888634,167741.90438175],[151043.03511856,167743.68308394],[151047.10567241,167745.46798466],[151051.1714163,167747.26381475],[151055.23455553,167749.07155548],[151058.81473975,167750.69048515],[151062.38813006,167752.31883695],[151065.95678464,167753.95754143],[151069.51988887,167755.60622179],[151072.89748674,167757.17607041],[151076.27191853,167758.75361074],[151079.64282279,167760.33867475],[151083.01040618,167761.93136021],[151086.86676585,167763.76736097],[151090.71874536,167765.61203473],[151094.56651942,167767.46546458],[151098.40896821,167769.32710806],[151101.88187689,167771.01223615],[151105.35174941,167772.7068591],[151108.81728019,167774.41034333],[151112.28008481,167776.12348819],[151115.75776849,167777.86602442],[151119.22913044,167779.61739512],[151122.69564577,167781.37833933],[151126.15697341,167783.1486827],[151131.22215872,167785.75387813],[151136.27975802,167788.37508937],[151141.32918276,167791.01201352],[151146.36946187,167793.66413981],[151148.870639,167794.98556947],[151151.36964131,167796.31102151],[151153.86649788,167797.6405113],[151156.36145462,167798.97417029],[151159.04975874,167800.41814104],[151161.73518295,167801.86740458],[151164.41774023,167803.32196787],[151167.09710991,167804.78165623],[151170.0163219,167806.37764262],[151172.93199318,167807.9818992],[151175.84333703,167809.59399578],[151178.75216143,167811.21493993],[151181.45759438,167812.74238672],[151184.15792874,167814.2732183],[151186.85556915,167815.8087923],[151189.54859799,167817.34801268],[151191.91290012,167818.69534706],[151194.2776544,167820.04447209],[151194.94948738,167820.40431607],[151198.01680721,167822.18520083],[151201.08213945,167823.97197869],[151204.1443981,167825.7640191],[151207.20374961,167827.56141988],[151212.03630273,167830.41360122],[151216.86121001,167833.27992463],[151221.67789232,167836.16004816],[151226.48532538,167839.0533555],[151229.30411711,167840.75472614],[151232.11924079,167842.46407792],[151234.9298244,167844.18088445],[151237.7386012,167845.90682532],[151240.61845032,167847.70475848],[151243.49134511,167849.50707255],[151246.360301,167851.31565006],[151249.22206442,167853.12843009],[151252.08981131,167854.9325343],[151254.95729692,167856.74374642],[151257.82149058,167858.56015984],[151260.68431102,167860.38299627],[151263.68537491,167862.31487564],[151266.67966161,167864.2543904],[151269.66845168,167866.20236478],[151272.65061595,167868.15805837],[151276.18942642,167870.4838868],[151279.72057835,167872.82536161],[151283.24215052,167875.18121977],[151286.75490631,167877.55197682],[151288.71402072,167878.88977037],[151290.66777235,167880.23204571],[151292.61770777,167881.5798589],[151294.56212252,167882.93202467],[151295.04694733,167883.28381437],[151297.53564938,167885.01790913],[151300.02102308,167886.7567709],[151302.50152803,167888.49931758],[151305.04215889,167890.28158279],[151307.57876507,167892.07505428],[151310.10872328,167893.8778916],[151312.63659624,167895.69337181],[151315.17498477,167897.56103838],[151317.70252888,167899.43327384],[151320.22404406,167901.31362115],[151322.73612151,167903.19952133],[151324.6399691,167904.62101543],[151326.54474982,167906.0452831],[151328.44853353,167907.47088321],[151330.35773968,167908.90262982],[151338.17760222,167914.91195283],[151341.22798184,167917.21155115],[151344.29144891,167919.4994245],[151347.36520127,167921.77346084],[151350.4483013,167924.0329726],[151355.60267631,167927.76308571],[151360.78400654,167931.45379531],[151365.99287933,167935.10552976],[151371.23210879,167938.72022735],[151385.51873627,167948.52866397],[151385.85841859,167948.77998017],[151408.00922416,167964.8731579],[151413.13097256,167968.70907474],[151418.33137151,167972.68768298],[151423.94627551,167977.13456897],[151424.10614944,167977.24512418],[151434.07701189,167985.17847798],[151445.8718932,167994.53335242],[151454.60819021,168001.43880365],[151458.69113419,168004.71235915],[151464.02105835,168008.94294116],[151477.88289028,168020.20575344],[151487.17128496,168027.80593116],[151489.25010504,168029.39692844],[151498.1417686,168036.65857667],[151511.07362266,168047.15075119],[151517.80736663,168052.64683175],[151525.36218986,168058.71787625],[151533.2167742,168064.91507518],[151540.49733287,168070.79285575],[151548.04172502,168076.72072821],[151555.521316,168082.66023919],[151564.0554117,168089.42056996],[151568.65746955,168093.04139641],[151582.69123302,168104.12058537],[151582.6913,168104.1207],[151589.1517,168109.1871],[151595.6118,168114.3456],[151605.6384,168122.2781],[151616.2541,168130.577],[151622.9138,168135.7584],[151629.2181,168140.8242],[151636.6118,168146.6154],[151644.5853,168152.9369],[151651.0766,168158.095],[151658.062,168163.6042],[151665.1434,168169.2407],[151672.4577,168175.0317],[151679.886,168180.8569],[151686.4139,168186.0029],[151692.5648,168190.8823],[151698.4598,168195.6492],[151749.7763,168236.4441],[151757.9253,168242.9266],[151771.1548,168253.4569],[151781.7628,168261.8956],[151790.7372,168268.9907],[151801.2151,168277.4839],[151806.8927,168281.9735],[151811.8451,168285.84],[151820.6039,168292.8789],[151829.7819,168300.0731],[151841.5343,168309.4167],[151852.4919,168318.1509],[151861.6172,168325.5043],[151871.6655,168333.4373],[151879.2104,168339.3935],[151888.3967,168346.7532],[151897.0604,168353.7213],[151901.5437,168357.4612],[151906.4405,168361.8557],[151906.44035005,168361.85584793],[151908.85093633,168363.92443075],[151910.69830352,168365.60567916],[151912.53293443,168367.30081667],[151920.61085697,168374.54572385],[151922.67635789,168376.43246843],[151924.75729251,168378.30217704],[151926.85352032,168380.15472342],[151928.96489979,168381.9899825],[151930.89274124,168383.62936358],[151932.82944661,168385.2582636],[151934.77495893,168386.87663464],[151936.72922095,168388.48442907],[151938.66481813,168390.07562047],[151940.60578462,168391.66025784],[151942.55209824,168393.23832305],[151944.50373672,168394.80979807],[151952.48370049,168401.15780483],[151961.04850998,168408.00982024],[151969.28111597,168414.55163149],[151976.44702323,168420.12235392],[151980.08138174,168422.89195974],[151986.86147524,168428.02003315],[151992.7361716,168432.37348332],[151993.44325025,168432.90848937],[151994.15060948,168433.4431244],[151994.8582491,168433.97738826],[151995.56616891,168434.51128079],[151996.3736639,168435.11638965],[151997.18050738,168435.72236695],[151997.98669841,168436.32921199],[151998.79223605,168436.93692408],[151999.59828094,168437.55170421],[152000.40262498,168438.16870796],[152001.20526204,168438.78793062],[152002.006186,168439.40936748],[152009.72771072,168445.54513403],[152020.78272431,168454.28499691],[152028.80819913,168460.71519558],[152042.19546147,168471.39025931],[152048.80383238,168476.65314693],[152054.88003153,168481.47689988],[152059.38702849,168484.96911214],[152064.95669408,168489.41810929],[152072.59418732,168495.30408251],[152077.55291848,168499.18947117],[152083.79585823,168503.97616752],[152089.33658947,168508.36469059],[152094.94370305,168512.67594865],[152100.4005251,168516.99486692],[152112.17658041,168526.38909149],[152118.08745019,168531.12642578],[152130.35533515,168540.79049219],[152139.49718241,168548.17938489],[152155.11120745,168560.53115104],[152165.68103714,168568.98335903],[152174.44435677,168575.84487213],[152185.77565302,168585.04336905],[152194.75,168592.39],[152203,168598.67],[152209.37,168603.79],[152216.85,168609.98],[152229.21,168619.68],[152243.4,168631.5],[152262.34,168648.05],[152270.94,168655.91],[152277.45,168662.08],[152289.6,168673.76],[152301.02,168685.28],[152312.15,168696.89],[152315.65,168700.56],[152323.06,168708.82],[152330.46,168717.08],[152337.76,168725.46],[152344.03,168732.95],[152350.19,168740.51],[152356.31,168748.09],[152363.27,168756.77],[152370.18,168765.5],[152377,168774.31],[152383.45,168782.83],[152389.8,168791.42],[152396.08,168800.06],[152405.63,168813.49],[152411.79082961,168822.42188652]]},"geometry_name":"GEOM","properties":{"INSPIRE_ID":"https://databrussels.be/id/rail/21903","TYPE":"TW","LVL":0,"SLOPE":null,"LENGTH":1756.55559766343},"bbox":[151038.94888634,167741.90438175,152411.79082961,168822.42188652]},{"type":"Feature","id":"TramNetwork.fid-1cd8d64c_1a02c0ead07_7f1d","geometry":{"type":"LineString","coordinates":[[151038.38284824,167743.23940693],[151042.45461083,167745.01181061],[151046.52159705,167746.79514696],[151050.58377754,167748.58940311],[151054.64112299,167750.39456611],[151058.21538874,167752.0108195],[151061.78495383,167753.63742818],[151065.34978825,167755.27437847],[151068.90986204,167756.92165662],[151072.28487129,167758.4903021],[151075.65637286,167760.06647255],[151079.02434995,167761.65016015],[151082.38878581,167763.24135699],[151086.24197324,167765.07584747],[151090.09097838,167766.91909683],[151093.9357813,167768.77109552],[151097.77636213,167770.63183398],[151101.24722012,167772.31596703],[151104.71376318,167774.00896393],[151108.17596868,167775.71081362],[151111.63381402,167777.42150499],[151115.10641845,167779.16149619],[151118.57420766,167780.91106438],[151122.03715525,167782.67019623],[151125.49523485,167784.43887834],[151130.55695056,167787.04228923],[151135.61054702,167789.66142592],[151140.65597538,167792.29626307],[151145.69318687,167794.94677522],[151148.19225605,167796.2670912],[151150.68918777,167797.59144502],[151153.1839755,167798.91983322],[151155.67661273,167800.25225233],[151158.36237107,167801.69485566],[151161.04527565,167803.14275942],[151163.725316,167804.59595795],[151166.40248168,167806.05444559],[151169.31903575,167807.64897886],[151172.23128854,167809.25135452],[151175.13921893,167810.86156097],[151178.04280589,167812.47958656],[151180.74360731,167814.00441845],[151183.44172528,167815.53399356],[151186.13715148,167817.06830715],[151188.82987758,167818.6073545],[151191.19467535,167819.95497133],[151193.55881357,167821.30374489],[151194.22143358,167821.65828484],[151197.28767647,167823.43854433],[151200.35085697,167825.22406794],[151203.41096603,167827.01485041],[151206.46799463,167828.81088645],[151211.29751268,167831.66127649],[151216.11885136,167834.52547991],[151220.93197117,167837.40347325],[151225.73683267,167840.29523292],[151228.55318664,167841.99513217],[151231.36502559,167843.70248945],[151234.17232976,167845.41729278],[151236.97507944,167847.1395301],[151239.84921605,167848.93389686],[151242.7194311,167850.73452979],[151245.58571091,167852.54142031],[151248.44804185,167854.35455983],[151251.31658244,167856.15916336],[151254.18184308,167857.9689701],[151257.04381433,167859.78397411],[151259.90248677,167861.60416939],[151262.89879835,167863.53298956],[151265.88964355,167865.47027513],[151268.87499845,167867.4160106],[151271.85483917,167869.37018041],[151275.39056972,167871.69398462],[151278.91679256,167874.03219099],[151282.43344901,167876.38476064],[151285.94048057,167878.75165441],[151287.89463523,167880.08606115],[151289.84499602,167881.42600691],[151291.79154722,167882.77148089],[151293.73427317,167884.12247226],[151294.21913456,167884.4742882],[151296.70555632,167886.20679409],[151299.18865276,167887.94406261],[151301.66841476,167889.68608736],[151304.20724561,167891.46708986],[151306.73947456,167893.25746649],[151309.26506701,167895.05719278],[151311.78398844,167896.86624414],[151314.31378257,167898.72758722],[151316.83758276,167900.59704943],[151319.35536296,167902.47461149],[151321.86709717,167904.36025399],[151323.77206103,167905.78258155],[151325.67602922,167907.20624166],[151327.57900081,167908.63123364],[151329.48097486,167910.05755677],[151337.2993847,167916.06576342],[151340.35772514,167918.37136318],[151343.42643086,167920.66314889],[151346.50543946,167922.94107393],[151349.59468834,167925.205092],[151354.75699712,167928.9409466],[151359.94718767,167932.63796749],[151365.16496788,167936.29594659],[151370.41004408,167939.91467801],[151384.69804348,167949.72405652],[151385.00614122,167949.95306298],[151407.14843138,167966.04005403],[151412.25581152,167969.86520981],[151417.44066085,167973.83192169],[151426.95856348,167981.36990058],[151433.17509214,167986.31383784],[151444.97179424,167995.67015641],[151453.70508954,168002.57323499],[151457.78688331,168005.84586829],[151463.1131138,168010.07351849],[151476.96658765,168021.32953977],[151486.25591101,168028.93047738],[151488.33292059,168030.51999242],[151497.22638671,168037.78311276],[151510.15840315,168048.27541902],[151516.89478033,168053.77364881],[151524.45895602,168059.85220893],[151532.31225371,168066.04839271],[151539.59394733,168071.92708955],[151547.14293518,168077.858573],[151554.62027837,168083.79629902],[151563.15693139,168090.55865559],[151567.76087463,168094.18096544],[151581.7913955,168105.25759568],[151581.7913,168105.2576],[151588.2171,168110.3603],[151594.6783,168115.5198],[151604.7111,168123.4572],[151615.3317,168131.7597],[151621.9833,168136.935],[151628.2857,168141.9991],[151635.6834,168147.7935],[151643.6527,168154.1117],[151650.1456,168159.2711],[151657.1306,168164.78],[151664.2108,168170.4155],[151671.5294,168176.2098],[151678.9587,168182.0361],[151685.4835,168187.1794],[151691.627,168192.0531],[151697.5166,168196.8157],[151748.8424,168237.618],[151756.9914,168244.1003],[151770.2206,168254.6306],[151780.8306,168263.0709],[151789.7998,168270.1617],[151800.2775,168278.6548],[151805.9658,168283.153],[151810.9136,168287.0157],[151819.6714,168294.0537],[151828.8524,168301.2504],[151840.6,168310.5902],[151851.5538,168319.3214],[151860.6818,168326.6768],[151870.736,168334.6144],[151878.2767,168340.5674],[151887.4578,168347.9229],[151896.1097,168354.8815],[151900.5665,168358.5993],[151905.4745,168362.937],[151905.47426779,168362.93713656],[151907.87902652,168365.00049824],[151909.71830328,168366.67438372],[151911.55680449,168368.37309726],[151919.6378034,168375.62076357],[151921.70282496,168377.50707028],[151923.79262248,168379.38474215],[151925.89777832,168381.24517871],[151928.01958501,168383.08950136],[151929.95640875,168384.73652072],[151931.89913331,168386.37048328],[151933.85069218,168387.99388414],[151935.8082063,168389.60435411],[151937.74591249,168391.19727926],[151939.69067696,168392.78501736],[151941.64079901,168394.36617044],[151943.59769087,168395.94187552],[151951.57944508,168402.29130656],[151960.14455668,168409.14356367],[151968.38508089,168415.69166691],[151975.5570842,168421.26712836],[151979.20669446,168424.04842944],[151985.99245405,168429.18078835],[151991.86703913,168433.53415606],[151992.56864538,168434.06502146],[151993.2766115,168434.60011519],[151993.98485825,168435.13483742],[151994.6948589,168435.67029926],[151995.50351098,168436.2762752],[151996.30910702,168436.88131562],[151997.11405161,168437.48722243],[151997.91591953,168438.09216601],[151998.71733756,168438.70341718],[151999.5185044,168439.31798373],[152000.317971,168439.93476043],[152001.11067611,168440.54982029],[152008.82703662,168446.68148319],[152019.87975954,168455.41953512],[152027.90286578,168461.84783602],[152041.29179822,168472.52423151],[152047.90139428,168477.78809484],[152053.9851618,168482.61785612],[152058.49043533,168486.10873301],[152064.06158149,168490.55891281],[152071.70445951,168496.44903591],[152076.66460069,168500.33552939],[152082.90452171,168505.11991117],[152088.44448303,168509.50782442],[152094.05180021,168513.81923903],[152099.49845811,168518.13011266],[152111.27104909,168527.5215736],[152117.18538815,168532.26168838],[152129.45092696,168541.9239066],[152138.59162247,168549.31186841],[152154.20861614,168561.66598295],[152164.78127372,168570.12045227],[152173.54039663,168576.97867942],[152184.8617834,168586.16913204],[152193.83,168593.55],[152202.08,168599.84],[152208.44,168604.94],[152215.92,168611.13],[152228.28,168620.83],[152242.44,168632.62],[152261.36,168649.15],[152269.93,168656.99],[152276.43,168663.15],[152288.57,168674.81],[152299.96,168686.32],[152308.48,168695.2],[152311.08,168697.92],[152314.55,168701.54],[152329.35,168718.06],[152336.64,168726.42],[152342.89,168733.89],[152349.04,168741.44],[152355.15,168749.02],[152362.11,168757.7],[152369.02,168766.42],[152375.83,168775.21],[152382.26,168783.72],[152388.61,168792.29],[152394.88,168800.92],[152404.41,168814.34],[152411.19156735,168824.16783289]]},"geometry_name":"GEOM","properties":{"INSPIRE_ID":"https://databrussels.be/id/rail/21904","TYPE":"TW","LVL":0,"SLOPE":null,"LENGTH":1756.82096480674},"bbox":[151038.38284824,167743.23940693,152411.19156735,168824.16783289]},{"type":"Feature","id":"TramNetwork.fid-1cd8d64c_1a02c0ead07_7f1e","geometry":{"type":"LineString","coordinates":[[151070.75510741,167752.96198402],[151070.78758215,167752.97705083],[151074.2224412,167754.5647712],[151077.65636746,167756.16038219],[151081.08710376,167757.76284043],[151084.51606238,167759.37280903],[151088.88046927,167761.44423369],[151093.23718632,167763.53063543],[151097.58660871,167765.6322016],[151101.92880408,167767.7489654],[151104.9546755,167769.23780081],[151107.97649072,167770.73210234],[151110.99533217,167772.23240255],[151114.01008087,167773.73814259],[151117.39498319,167775.42994047],[151120.77743759,167777.12967203],[151124.15620619,167778.83671854],[151127.532622,167780.55175714],[151132.52330938,167783.11350293],[151137.50426554,167785.69314054],[151142.47582512,167788.29084143],[151147.43768321,167790.90644518],[151150.14132259,167792.34291782],[151152.84192079,167793.78193095],[151155.54079102,167795.22418228],[151158.23517747,167796.6681949],[151160.88764128,167798.07914889],[151163.54029927,167799.49808824],[151166.1896679,167800.92315987],[151168.840682,167802.35703297],[151171.8429805,167804.0202159],[151174.83617217,167805.68868837],[151177.82495196,167807.36505117],[151180.80526562,167809.04701632],[151183.34803757,167810.46950483],[151185.8920845,167811.89733231],[151188.43415318,167813.32867882],[151190.97557358,167814.76429566],[151193.43900982,167816.16725069],[151196.5276765,167817.93102446],[151199.51436181,167819.67306769],[151202.49987074,167821.41863845],[151205.48354088,167823.16735037],[151208.46386416,167824.91831746],[151213.34188777,167827.77531834],[151218.21280443,167830.65141655],[151223.07348559,167833.54477942],[151227.92644349,167836.45691479],[151230.7038896,167838.15276501],[151233.47376101,167839.85393807],[151236.23917959,167841.56234006],[151239.00072124,167843.27832889],[151242.07032444,167845.20100013],[151245.13638907,167847.1258294],[151248.20048102,167849.0537975],[151251.25834005,167850.98221774],[151253.98269135,167852.67786332],[151256.70842057,167854.38226192],[151259.43058997,167856.09234027],[151262.15473668,167857.81159296],[151265.48314246,167859.96439832],[151268.79893216,167862.1268276],[151272.10654115,167864.30174933],[151275.40263273,167866.48695163],[151278.67199264,167868.64657244],[151281.93802308,167870.81706286],[151285.19800533,167872.99662691],[151288.45275354,167875.18581231],[151290.81498163,167876.78904547],[151293.17212073,167878.39768538],[151295.5251193,167880.01237569],[151297.87242875,167881.63204794],[151299.04392843,167882.50745299],[151301.26634197,167884.07765637],[151303.48627623,167885.65402945],[151306.18696531,167887.59014388],[151308.88276574,167889.52952753],[151311.5753474,167891.47337752],[151314.26055379,167893.41868266],[151316.74269851,167895.19648614],[151319.22443411,167896.9853179],[151321.7007766,167898.78160811],[151324.17524406,167900.58792503],[151326.17982568,167902.07924263],[151328.1749518,167903.57780438],[151330.16317675,167905.08551028],[151332.1423866,167906.60074226],[151339.94988959,167912.5902568],[151344.28273924,167915.8634433],[151348.63894609,167919.10584288],[151353.01811635,167922.31716052],[151357.42021767,167925.49737043],[151361.44275869,167928.36198476],[151365.48394546,167931.20064095],[151369.54341838,167934.01308457],[151373.62576116,167936.80244592],[151385.92636085,167945.23367636],[151387.50461189,167946.32117624],[151409.87748818,167962.53388284],[151422.98025757,167972.64617276],[151429.66368372,167977.93842085],[151441.61646944,167987.40796936],[151452.5513198,167996.08632465],[151457.41459253,167999.93055012],[151478.35134524,168016.77309941],[151484.51274421,168021.78190788],[151492.55820901,168028.35882892],[151504.36322024,168037.96321785],[151511.41591875,168043.67131285],[151518.91722326,168049.74504806],[151524.90571057,168054.54826233],[151531.59707042,168059.91562681],[151538.90142421,168065.73856274],[151546.42312392,168071.74250595],[151554.27868302,168077.93770301],[151562.59850258,168084.5223951],[151569.83198765,168090.17379069],[151584.08116259,168101.46550248],[151584.0813,168101.4655],[151589.9804,168106.1255],[151597.8148,168112.3348],[151604.5127,168117.5858],[151612.6378,168123.9359],[151619.2621,168129.2744],[151626.9778,168135.3822],[151635.7626,168142.1982],[151643.3315,168148.2047],[151650.9103,168154.1896],[151659.4681,168160.9416],[151666.9049,168166.8488],[151673.9588,168172.4725],[151682.552,168179.1614],[151690.1358,168185.2967],[151697.7355,168191.2855],[151700.2512,168193.3436],[151751.6459,168234.2177],[151757.0084,168238.533],[151762.9871,168243.2909],[151768.6666,168247.7642],[151774.7177,168252.5131],[151780.0705,168256.7701],[151785.5945,168261.1512],[151791.2175,168265.6147],[151797.4736,168270.6323],[151805.2341,168276.8215],[151813.0566,168283.0412],[151822.1398,168290.1872],[151829.3019,168295.9362],[151836.3982,168301.5718],[151841.7004,168305.8264],[151848.4168,168311.1611],[151855.1074,168316.552],[151864.171,168323.5364],[151870.9657,168328.9939],[151879.3552,168335.8293],[151887.343,168342.0542],[151894.0692,168347.5854],[151902.0097,168354.396],[151906.3641,168358.2257],[151907.9512,168359.7505],[151910.7074167,168362.17774205],[151912.56391378,168363.91996054],[151914.40379762,168365.67971454],[151922.20593604,168372.70218183],[151924.18984906,168374.49713376],[151926.18488009,168376.27972021],[151928.19095207,168378.04987233],[151930.20798749,168379.80752173],[151932.19234145,168381.51776248],[151934.18786229,168383.21496037],[151936.19446427,168384.89904248],[151938.2120612,168386.56993647],[151940.18171716,168388.17598089],[151942.16226958,168389.76856855],[151944.15362649,168391.34762553],[151946.15569549,168392.91307852],[151953.89559204,168399.13318765],[151962.9309067,168406.35155779],[151970.44857064,168412.40488477],[151978.06201227,168418.18551308],[151981.67437249,168420.91790622],[151988.84376505,168426.33720754],[151994.23584619,168430.32860989],[151994.96079144,168430.86275839],[151995.68415713,168431.39904406],[151996.40593696,168431.93746222],[151997.12612463,168432.47800819],[151997.87847343,168433.04706955],[151998.62932168,168433.61810936],[151999.37866416,168434.19112365],[152000.12649571,168434.76610846],[152001.03373355,168435.46613809],[152001.93912043,168436.16856004],[152002.84265003,168436.87336941],[152003.74431606,168437.58056129],[152011.03839464,168443.36779048],[152022.14071629,168452.22599193],[152030.45101189,168458.85972326],[152042.64011644,168468.54038818],[152051.09337957,168475.22528189],[152052.42710016,168476.28425028],[152053.76418241,168477.33897095],[152055.1046128,168478.38943324],[152056.44837777,168479.43562651],[152057.75298128,168480.44411247],[152059.0604679,168481.44885772],[152060.37082688,168482.44985403],[152061.68404749,168483.44709317],[152063.01921157,168484.45844698],[152064.35785286,168485.46519378],[152065.69995547,168486.46732162],[152067.04550346,168487.46481861],[152068.4229955,168488.4713234],[152069.80375802,168489.47333692],[152071.18777637,168490.47084854],[152072.57503587,168491.46384768],[152074.22149048,168492.64012298],[152075.87105523,168493.81203274],[152077.52371855,168494.97956874],[152079.17946884,168496.14272279],[152085.77315503,168500.57381533],[152092.1275951,168504.99772052],[152093.49157452,168505.94082027],[152094.85210519,168506.88888846],[152096.20916902,168507.84191247],[152097.56274795,168508.79987963],[152099.20982963,168509.9733187],[152100.85095206,168511.15507778],[152102.48607321,168512.34512659],[152104.11515119,168513.54343467],[152107.03461509,168515.73109866],[152109.93153813,168517.9485251],[152112.80561693,168520.19548176],[152115.65655046,168522.47173332],[152120.67288771,168526.46351649],[152132.32690189,168535.73996378],[152143.36454033,168544.61658441],[152157.27798955,168555.57330659],[152169.20945602,168565.13994176],[152178.21040844,168572.21514726],[152188.7733042,168580.70422833],[152205.2541,168593.7951],[152226.2139,168610.3051],[152229.7291,168613.0741],[152266.1571,168643.7121],[152278.0541,168654.6641],[152295.3421,168671.4319],[152297.69,168673.7404],[152299.7051,168675.7216],[152305.0484,168681.1762],[152309.4959,168685.7667],[152313.2792,168689.7413],[152317.2338,168693.9347],[152321.3635,168698.3732],[152325.1465,168702.4926],[152328.9782,168706.8029],[152332.53,168710.7481],[152333.8006,168712.2167],[152336.1274,168714.9061],[152336.5253,168715.366],[152336.8731,168715.8082],[152338.4818,168717.7135],[152340.7772,168720.3742],[152343.9925,168724.2263],[152349.4781,168730.739],[152352.4582,168734.4805],[152356.6145,168739.5155],[152362.128,168746.357],[152368.72,168754.78],[152374.49,168762.17],[152380.24,168769.57],[152386.39,168777.4],[152392.52,168785.25],[152398.53,168793.19],[152404.02,168800.72],[152409.4,168808.34],[152414.21340387,168815.36373355]]},"geometry_name":"GEOM","properties":{"INSPIRE_ID":"https://databrussels.be/id/rail/21905","TYPE":"TW","LVL":0,"SLOPE":null,"LENGTH":1721.0956218525},"bbox":[151070.75510741,167752.96198402,152414.21340387,168815.36373355]},{"type":"Feature","id":"TramNetwork.fid-1cd8d64c_1a02c0ead07_7f1f","geometry":{"type":"LineString","coordinates":[[151070.17825886,167754.29281152],[151073.6127357,167755.88035521],[151077.04403867,167757.47474726],[151080.47215412,167759.07598133],[151083.89706842,167760.68405104],[151088.25646387,167762.75309718],[151092.60862513,167764.83731719],[151096.95349938,167766.93668578],[151101.29103388,167769.05117746],[151104.31322699,167770.53820301],[151107.33246075,167772.03122799],[151110.34872327,167773.53024653],[151113.36200264,167775.0352527],[151116.7453205,167776.72625866],[151120.12497145,167778.42458145],[151123.50093967,167780.13021313],[151126.87320936,167781.84314572],[151131.85881399,167784.40228251],[151136.83509642,167786.97949959],[151141.80199107,167789.574763],[151146.75943251,167792.18803855],[151149.46021891,167793.62299537],[151152.15928221,167795.06119063],[151154.85661852,167796.50262225],[151157.55222395,167797.94728816],[151160.2051959,167799.35851244],[151162.85489632,167800.77586976],[151165.50131106,167802.19935252],[151168.14442594,167803.62895311],[151171.13866264,167805.28767005],[151174.12851318,167806.9542801],[151177.11395676,167808.62877166],[151180.09497259,167810.31113309],[151182.63924178,167811.73445919],[151185.18153896,167813.16130463],[151187.72185926,167814.5916667],[151190.26019782,167816.02554264],[151192.72005824,167817.42646121],[151195.17686221,167818.83273301],[151195.79712293,167819.18353852],[151198.78314912,167820.92519731],[151201.76734064,167822.6699978],[151204.74969418,167824.41793807],[151207.73020642,167826.16901618],[151212.60685782,167829.02521338],[151217.4733443,167831.89869572],[151222.32960457,167834.78942702],[151227.17557751,167837.6973709],[151229.94665041,167839.38932977],[151232.71329456,167841.08852074],[151235.47549109,167842.79493223],[151238.23322115,167844.50855259],[151241.29999692,167846.42945284],[151244.36480397,167848.35349262],[151247.42763911,167850.28066992],[151250.4884991,167852.2109827],[151253.2152094,167853.90809652],[151255.93837509,167855.61089216],[151258.65798434,167857.31936221],[151261.37402533,167859.03349924],[151264.6933558,167861.18043472],[151268.00456398,167863.33987611],[151271.30760275,167865.51179268],[151274.60242512,167867.69615354],[151277.87111418,167869.8553312],[151281.13378647,167872.02358991],[151284.39041677,167874.20091292],[151287.64097988,167876.38728337],[151289.99916162,167877.98777029],[151292.35322378,167879.59431032],[151294.70315081,167881.20689287],[151297.0489272,167882.82550728],[151298.20863239,167883.69268862],[151300.42823198,167885.26090386],[151302.64409899,167886.83438878],[151305.34115714,167888.76790022],[151308.03500628,167890.70588009],[151310.725639,167892.64832308],[151313.4130479,167894.59522384],[151315.89660753,167896.37404073],[151318.37480417,167898.16032161],[151320.84761538,167899.95405031],[151323.31501879,167901.75521059],[151325.31166279,167903.24062296],[151327.30146597,167904.7351866],[151329.2843864,167906.23886998],[151331.26038228,167907.75164143],[151339.07158048,167913.74399074],[151343.41283673,167917.02352788],[151347.77732105,167920.27208853],[151352.16481242,167923.48950818],[151356.57508865,167926.67562388],[151360.60546382,167929.54581723],[151364.65432947,167932.38986731],[151368.72151601,167935.207655],[151372.80685311,167937.9990623],[151385.106574,167946.42969038],[151386.65377135,167947.4953016],[151409.00891544,167963.69515842],[151422.08719601,167973.78854865],[151428.76339919,167979.07507726],[151440.71555838,167988.54412941],[151451.65103227,167997.22297955],[151456.51055347,168001.06423958],[151477.44247582,168017.9029031],[151483.59761865,168022.90665515],[151491.64180259,168029.48252912],[151503.44956217,168039.08915407],[151510.50358412,168044.79832019],[151518.00737393,168050.87406772],[151523.99843202,168055.67934394],[151530.69149821,168061.04807715],[151537.99720589,168066.87209238],[151545.52187958,168072.87840948],[151553.37980047,168079.07546912],[151561.70220758,168085.66220912],[151568.9392807,168091.316408],[151583.18427348,168102.60483998],[151583.1844,168102.6049],[151589.0456,168107.2988],[151596.8862,168113.5129],[151603.5881,168118.767],[151611.7051,168125.1108],[151618.3259,168130.4463],[151626.0525,168136.5627],[151634.8364,168143.3784],[151642.4005,168149.3808],[151649.9808,168155.367],[151658.537,168162.1177],[151665.9708,168168.0225],[151673.0306,168173.6508],[151681.6194,168180.3364],[151689.1997,168186.4689],[151696.7963,168192.4551],[151699.3013,168194.5046],[151750.7053,168235.3863],[151756.0712,168239.7042],[151762.056,168244.4668],[151767.7393,168248.9434],[151773.7877,168253.6901],[151779.1377,168257.9446],[151784.6621,168262.3262],[151790.2818,168266.7871],[151796.5366,168271.8036],[151804.2996,168277.9948],[151812.126,168284.2177],[151821.2065,168291.3616],[151828.366,168297.1084],[151835.4623,168302.744],[151840.7645,168306.9985],[151847.4796,168312.3324],[151854.1788,168317.7301],[151863.2435,168324.7151],[151870.0222,168330.1601],[151878.4202,168337.0023],[151886.4053,168343.2252],[151893.1046,168348.7341],[151901.0261,168355.5285],[151905.3759,168359.3543],[151907.6168,168361.3075],[151907.61694182,168361.30738036],[151907.85736447,168361.52457265],[151909.72018692,168363.23978004],[151911.56665212,168364.97258417],[151913.41743493,168366.74276247],[151921.23450466,168373.77866898],[151923.22037133,168375.57538848],[151925.22212287,168377.36397979],[151927.23495254,168379.14009488],[151929.25836308,168380.90329958],[151931.24930848,168382.61922124],[151933.25206891,168384.32257643],[151935.26595069,168386.01276826],[151937.29146272,168387.69021723],[151939.26922893,168389.30287469],[151941.25748018,168390.90165308],[151943.25657792,168392.48684818],[151945.25491881,168394.04938611],[151952.98890615,168400.26474635],[151962.0236804,168407.48268475],[151969.55527558,168413.54722935],[151977.18517884,168419.34035642],[151980.80001526,168422.07462547],[151987.97521523,168427.49831657],[151993.37443783,168431.49500528],[151994.0989529,168432.02883682],[151994.81888095,168432.56257391],[151995.53723068,168433.09843336],[151996.25355556,168433.63608006],[151997.00223677,168434.20236733],[151997.75004696,168434.77109662],[151998.49635747,168435.34179238],[151999.2416891,168435.91485509],[152000.14642615,168436.61295509],[152001.04878897,168437.3130309],[152001.94930071,168438.01548616],[152002.84626176,168438.71898784],[152010.13560605,168444.50246077],[152021.23624848,168453.35932243],[152029.54781444,168459.99406783],[152041.7395112,168469.6767915],[152050.19284782,168476.36174333],[152051.52726205,168477.42126245],[152052.86796551,168478.47883961],[152054.21202617,168479.53214686],[152055.55958669,168480.58129518],[152056.86781429,168481.59258263],[152058.17859391,168482.59985842],[152059.49225315,168483.60337581],[152060.80782723,168484.60240215],[152062.14568322,168485.61579501],[152063.48831794,168486.62554513],[152064.83442431,168487.63066252],[152066.18600345,168488.63263059],[152067.56944652,168489.64348367],[152068.95403082,168490.64827064],[152070.34187995,168491.64854325],[152071.73159368,168492.64329911],[152073.38014566,168493.82107285],[152075.03284166,168494.99520716],[152076.68864212,168496.16495942],[152078.35824315,168497.33784351],[152084.95447641,168501.77064774],[152091.30103074,168506.18906295],[152092.66475083,168507.13198339],[152094.02094259,168508.07702806],[152095.37367856,168509.02701275],[152096.7232476,168509.982142],[152098.3654938,168511.1521361],[152100.00066166,168512.32960733],[152101.62985,168513.51533823],[152103.25079087,168514.70766086],[152106.1591695,168516.88701824],[152109.04430902,168519.09542507],[152111.9066972,168521.33324201],[152114.7518325,168523.60486412],[152119.76985841,168527.5979935],[152131.42102752,168536.87217615],[152142.46161642,168545.75116958],[152156.37590195,168556.70855035],[152168.30787176,168566.2755891],[152177.30817559,168573.35028477],[152187.86496949,168581.83446196],[152204.3331,168594.9531],[152216.2181,168604.315],[152225.2035,168611.3929],[152228.7951,168614.2221],[152265.1791,168644.8241],[152277.0371,168655.7401],[152294.2923,168672.4751],[152296.6376,168674.7811],[152298.6576,168676.7673],[152303.9883,168682.2089],[152308.4284,168686.7919],[152312.2049,168690.7592],[152316.1537,168694.9465],[152320.2767,168699.3778],[152324.0484,168703.4848],[152327.8752,168707.7897],[152331.4203,168711.7275],[152332.702,168713.2089],[152334.994,168715.8581],[152335.3835,168716.3082],[152335.753,168716.7762],[152337.3846,168718.6615],[152339.6716,168721.3124],[152342.8814,168725.1579],[152348.3563,168731.6579],[152351.3319,168735.3938],[152355.4893,168740.4301],[152360.987,168747.3],[152367.56,168755.7],[152373.32,168763.08],[152379.07,168770.48],[152385.22,168778.31],[152391.34,168786.15],[152397.34,168794.07],[152402.81,168801.58],[152408.19,168809.18],[152413.61084708,168817.11927849]]},"geometry_name":"GEOM","properties":{"INSPIRE_ID":"https://databrussels.be/id/rail/21906","TYPE":"TW","LVL":0,"SLOPE":null,"LENGTH":1721.37784190751},"bbox":[151070.17825886,167754.29281152,152413.61084708,168817.11927849]},{"type":"Feature","id":"TramNetwork.fid-1cd8d64c_1a02c0ead07_7f1b","geometry":{"type":"LineString","coordinates":[[150782.93675741,168850.37958091],[150784.47528653,168851.53612396],[150788.289,168854.217],[150792.188421,168856.630917],[150796.205714,168858.848401],[150800.328,168860.864],[150804.742278,168862.767023],[150809.248587,168864.4405],[150813.835,168865.88],[150818.773767,168867.143947],[150823.774458,168868.134943],[150828.822,168868.85],[150833.90541,168869.241104],[150839.002105,168869.374218],[150844.099,168869.249],[150851.110775,168868.660531],[150858.085,168867.727],[150865.477,168866.687],[150882.664,168864.213],[150905.565,168860.933],[150943.267,168855.513],[150980.104,168850.144],[151000,168847.31],[151002.66,168846.94],[151026.1,168843.56],[151052.71,168839.73],[151072.5,168836.9],[151083.65,168835.33],[151097.81,168833.38],[151109.42,168831.64],[151128.488,168828.918],[151128.4881,168828.9181],[151150.3201,168825.7741],[151150.32,168825.774],[151157.332,168824.756],[151160.99140902,168824.22684223],[151164.653,168823.713],[151168.87175956,168823.12808848],[151173.099,168822.608],[151179.56576844,168821.97303157],[151186.051,168821.568],[151192.68988699,168821.48846862],[151199.325,168821.726],[151206.60840783,168822.35178356],[151213.851,168823.344],[151220.50473706,168824.64905963],[151227.101,168826.219],[151231.48897123,168827.38497805],[151235.85,168828.648],[151237.611,168829.167],[151238.086,168829.306],[151245.314,168831.444],[151263.573,168836.733],[151280.922,168841.512],[151297.26,168846.114],[151304.782,168848.31],[151305.812,168848.603],[151332.537,168856.497],[151355.771,168863.382],[151379.417,168870.395],[151386.99,168872.7],[151430.97,168885.68],[151450.2,168891.63],[151470.92,168897.62],[151475.96,168899.13],[151480.96,168900.63],[151483.21935649,168901.33008513],[151484.29281813,168901.67814957],[151485.84458608,168902.22383598],[151487.37977241,168902.81456464],[151488.89707002,168903.44983259],[151490.39518705,168904.12909895],[151491.87284795,168904.85178537],[151493.32879462,168905.61727654],[151493.93266874,168905.92210546],[151495.24570357,168906.62400499],[151496.53543179,168907.36786286],[151497.80051306,168908.15290603],[151499.03963268,168908.97831866],[151500.25150288,168909.84324294],[151501.43486427,168910.74678001],[151502.58848705,168911.68799088],[151503.71117232,168912.66589742],[151504.80175335,168913.67948334],[151505.85909677,168914.7276953],[151506.88210376,168915.80944394],[151507.68528047,168916.68673613],[151508.9103029,168918.08309518],[151510.09883831,168919.51063926],[151511.25009317,168920.96841523],[151512.3632988,168922.45544978],[151513.43771195,168923.97075005],[151514.47261526,168925.51330432],[151515.46731775,168927.08208266],[151516.42115529,168928.67603764],[151525.0379317,168944.05244775],[151530.85623648,168954.87651153],[151536.0450203,168964.42129505],[151541.08020485,168973.64155537],[151546.48611661,168983.70324887],[151551.89229752,168993.66693756],[151555.31463088,169000],[151559.47807333,169007.71967784],[151565.69845041,169019.01881295],[151571.06716008,169028.92125606],[151576.43622255,169038.92197014],[151582.37505537,169049.70681667],[151588.51745984,169061.04528863],[151595.2087187,169073.3078171],[151601.73425876,169085.38321532],[151607.51772778,169096.05774837],[151613.34194731,169106.85308558],[151620.12153129,169119.50334633],[151627.70405675,169133.31361271],[151634.72432593,169146.32712066],[151641.81180771,169159.46259767],[151646.31946333,169167.84541616],[151653.43803967,169180.86865039],[151661.48931612,169195.75066922],[151668.49107848,169208.5223427],[151679.76134007,169229.35339484],[151688.67683755,169245.61946161],[151693.7139468,169255.10228839],[151700.4684396,169267.43136457],[151705.10583123,169276.12062909],[151711.3369161,169287.59485194],[151717.67820343,169299.23372614],[151726.1241263,169314.90050613],[151733.09520571,169327.89907187],[151741.11099733,169342.72326267],[151749.30144905,169357.76856894],[151755.16168508,169368.41888827],[151761.89388894,169380.85639593],[151769.63966975,169395.22043247],[151776.65968563,169408.1633869],[151784.31779264,169422.3211145],[151790.48647376,169433.6090961],[151796.20785564,169444.1855798],[151803.64102724,169457.80487748],[151811.01034276,169471.53527567],[151818.00108731,169484.39644164],[151824.01674347,169495.52370533],[151830.67233205,169507.67675051],[151836.7693626,169519.01034576],[151844.18740654,169532.62717795],[151849.82920312,169543.14473204],[151855.70166463,169554.041948],[151860.44607858,169562.71192979],[151863.43916244,169568.20443019],[151867.9471322,169576.63965942],[151872.48984501,169584.92609565],[151876.26944866,169591.91757389],[151880.34914205,169599.32500188],[151884.76906959,169607.10035928],[151888.11452303,169612.48072339],[151893.02769653,169620.07918382],[151899.16271072,169628.65724012],[151907.97069577,169639.89290981],[151918.6254151,169652.10341216],[151928.65741317,169662.81812832],[151938.37938717,169673.1572472],[151948.07293565,169683.65017602],[151953.92877034,169689.9160571],[151965.55425195,169702.30450003],[151978.94591829,169716.74401989],[151987.71563067,169726.0924959],[151995.96210001,169734.98298667],[152000,169739.45],[152021.01,169761.99084243],[152029.44,169771.04084243],[152059.61088443,169803.44310762]]},"geometry_name":"GEOM","properties":{"INSPIRE_ID":"https://databrussels.be/id/rail/22108","TYPE":"TW","LVL":0,"SLOPE":null,"LENGTH":1798.36266430135},"bbox":[150782.93675741,168821.48846862,152059.61088443,169803.44310762]},{"type":"Feature","id":"TramNetwork.fid-1cd8d64c_1a02c0ead07_7f1a","geometry":{"type":"LineString","coordinates":[[150783.86161372,168849.1948058],[150785.35452309,168850.3176617],[150789.101,168852.947],[150792.9457068,168855.33261908],[150796.90501616,168857.52278305],[150800.969,168859.512],[150805.31113178,168861.38225879],[150809.74407735,168863.02572156],[150814.256,168864.438],[150819.12511144,168865.68137974],[150824.05505157,168866.65602306],[150829.031,168867.359],[150834.02097348,168867.7414706],[150839.02389167,168867.87158117],[150844.027,168867.749],[150850.98634109,168867.17212326],[150857.908,168866.247],[150865.246,168865.204],[150882.441,168862.74],[150905.327,168859.448],[150943.056,168854.048],[150979.893,168848.679],[151000,168845.819],[151002.45,168845.47],[151025.89,168842.09],[151052.5,168838.27],[151072.28,168835.43],[151083.44,168833.86],[151097.6,168831.92],[151109.21,168830.17],[151128.263,168827.438],[151128.2631,168827.4381],[151150.1091,168824.2991],[151150.109,168824.299],[151157.227,168823.26],[151160.82331629,168822.7416502],[151164.422,168822.24],[151168.6772734,168821.64879392],[151172.941,168821.122],[151179.45770969,168820.48112685],[151185.993,168820.071],[151192.59321439,168819.98588312],[151199.19,168820.215],[151206.65084297,168820.84896296],[151214.07,168821.86],[151220.8491665,168823.18722813],[151227.569,168824.788],[151231.94169434,168825.96130779],[151236.29,168827.222],[151237.989,168827.716],[151238.509,168827.864],[151245.859,168830.039],[151264.064,168835.317],[151281.332,168840.061],[151297.685,168844.682],[151310.459,168848.415],[151311.038,168848.579],[151332.963,168855.071],[151356.206,168861.953],[151379.856,168868.968],[151379.8561,168868.9681],[151387.4101,168871.2801],[151431.4101,168884.2701],[151450.6301,168890.2101],[151471.3501,168896.2001],[151476.3801,168897.7101],[151481.3961,168899.2227],[151483.66463551,168899.92558667],[151484.76449581,168900.28221075],[151486.35364093,168900.841041],[151487.92895513,168901.44721058],[151489.48591303,168902.09908365],[151491.02318898,168902.7961052],[151492.53947412,168903.53768175],[151494.00363913,168904.30749387],[151494.61202817,168904.61460187],[151495.96124056,168905.33584058],[151497.29211839,168906.10343171],[151498.59756289,168906.91352219],[151499.87621742,168907.76527014],[151501.12675312,168908.65779038],[151502.34787042,168909.59015538],[151503.53830027,168910.5613962],[151504.69680554,168911.57050347],[151505.82218226,168912.61642851],[151506.9132609,168913.69808434],[151507.96077467,168914.80574696],[151508.78254013,168915.70334322],[151510.03041358,168917.12574934],[151511.24331023,168918.58255357],[151512.41816218,168920.07020935],[151513.55418502,168921.58772342],[151514.65062025,168923.13408257],[151515.70673581,168924.70825434],[151516.72182657,168926.30918769],[151517.68543944,168927.9194782],[151526.27576174,168943.37299455],[151532.09836165,168954.20504874],[151537.28491262,168963.74572494],[151542.32175976,168972.96902973],[151547.72857672,168983.03240805],[151553.13394482,168992.99459869],[151556.91960441,169000],[151556.9197,169000.0001],[151560.7777,169007.0116],[151566.9973,169018.3093],[151572.3696,169028.2186],[151577.7365,169038.2151],[151583.674,169048.9975],[151589.8178,169060.3384],[151596.5093,169072.6017],[151603.036,169084.679],[151608.8196,169095.3538],[151614.6454,169106.1522],[151621.4225,169118.7978],[151629.0041,169132.6062],[151636.0268,169145.6243],[151643.1149,169158.7609],[151647.6206,169167.1401],[151654.7383,169180.1617],[151662.7891,169195.0428],[151669.7908,169207.8144],[151681.0613,169228.6457],[151689.9794,169244.9167],[151695.0165,169254.3996],[151701.7704,169266.7273],[151706.4091,169275.4192],[151712.637,169286.8877],[151718.9795,169298.5285],[151727.4276,169314.1996],[151734.3983,169327.1974],[151742.412,169342.0175],[151750.5998,169357.0581],[151756.4608,169367.7099],[151763.196,169380.153],[151770.9415,169394.5165],[151777.9611,169407.4586],[151785.6181,169421.6142],[151791.7868,169432.9022],[151797.5083,169443.4791],[151804.9427,169457.1004],[151812.3125,169470.8319],[151819.3022,169483.6912],[151825.3167,169494.8163],[151831.9731,169506.9708],[151838.0708,169518.3059],[151845.4894,169531.9235],[151851.1328,169542.4439],[151857.0023,169553.3356],[151861.7451,169562.0026],[151864.7415,169567.5016],[151869.2486,169575.9352],[151873.7898,169584.2184],[151877.5687,169591.2088],[151881.6407,169598.6023],[151886.0413,169606.3435],[151889.3644,169611.6881],[151894.2517,169619.2465],[151900.3476,169627.7698],[151904.3629,169633.2654],[151907.9707,169637.8677],[151918.6255,169650.0781],[151928.6575,169660.7927],[151938.3795,169671.1319],[151948.0729,169681.6249],[151953.9289,169687.8907],[151965.5543,169700.2791],[151978.9459,169714.7187],[151987.7157,169724.0671],[151995.9621,169732.9577],[152000.0001,169737.2801],[152000,169737.28],[152022.1,169760.98],[152060.61205813,169802.34594588]]},"geometry_name":"GEOM","properties":{"INSPIRE_ID":"https://databrussels.be/id/rail/22109","TYPE":"TW","LVL":0,"SLOPE":null,"LENGTH":1798.47887406176},"bbox":[150783.86161372,168819.98588312,152060.61205813,169802.34594588]},{"type":"Feature","id":"TramNetwork.fid-1cd8d64c_1a02c0ead07_7f19","geometry":{"type":"LineString","coordinates":[[150787.00114502,168845.17295017],[150790.05298934,168847.3528177],[150794.75,168850.427],[150794.893,168850.518],[150799.04838901,168852.91914144],[150803.31469559,168855.11717834],[150807.682,168857.107],[150812.28966963,168858.94291845],[150816.98028662,168860.55516167],[150821.743,168861.94],[150826.47942162,168863.07427869],[150831.26475262,168863.98030581],[150836.088,168864.656],[150840.89910442,168865.08544436],[150845.72477817,168865.29525626],[150850.555,168865.285],[150855.4233339,168865.05688067],[150860.27885958,168864.63666209],[150865.114,168864.025],[150882.271,168861.608],[150905.15,168858.335],[150939.072,168853.579],[150977.735,168847.949],[151000,168844.74],[151013.38,168842.81],[151038.07,168839.26],[151070.19,168834.74],[151079,168833.53],[151093.15,168831.5],[151107.25,168829.43],[151128.095,168826.315],[151128.0951,168826.3151],[151149.9361,168823.1621],[151149.936,168823.162],[151157.062,168822.138],[151169.117,168820.426],[151177.48029345,168819.1883129],[151185.876,168818.194],[151190.36528708,168817.86013785],[151194.86442427,168817.70872137],[151199.366,168817.74],[151204.40968857,168818.06856619],[151209.43290531,168818.62896224],[151214.425,168819.42],[151221.01838225,168820.85968513],[151227.522,168822.662],[151238.479,168825.903],[151239.083,168826.072],[151246.199,168828.189],[151264.534,168833.626],[151281.691,168838.698],[151298.014,168843.541],[151308.67,168846.687],[151311.027,168847.377],[151333.259,168853.975],[151356.542,168860.863],[151380.192,168867.876],[151383.27,168868.74],[151409.33,168876.4],[151434.45,168883.92],[151442.95,168886.42],[151453.51,168889.49],[151474.71,168895.78],[151476.35,168896.28],[151477.98,168896.78],[151479.62,168897.28],[151481.58,168897.87],[151481.8265636,168897.94384392],[151487.1241,168899.6833],[151492.601,168901.866],[151497.1239,168904.2036],[151501.5984,168906.9874],[151505.7609,168910.2262],[151507.3176,168911.6334],[151511.6224,168916.1332],[151514.1928,168919.3386],[151519.5645,168927.5003],[151520.0805,168928.3932],[151523.6388,168934.8573],[151527.6251,168942.2101],[151532.4091,168951.0843],[151538.6367,168962.5737],[151545.8057,168975.8037],[151553.1304,168989.9833],[151558.355,169000],[151566.0254404,169014.04821314],[151571.39075487,169024.05775998],[151577.77961229,169035.96230242],[151585.73279662,169050.54355717],[151593.54390145,169064.85444337],[151601.11480752,169078.58663763],[151610.35060468,169095.63395277],[151617.35665533,169108.89823198],[151623.7330385,169120.48658416],[151631.47679955,169134.63896466],[151644.96647733,169159.53404765],[151651.8360423,169172.33139373],[151658.88919512,169185.38006085],[151664.81349733,169196.32874662],[151669.43727242,169204.73458239],[151682.06033399,169227.929391],[151689.76418582,169242.19530583],[151698.3797971,169258.10211764],[151705.39874307,169271.09799173],[151712.89707338,169284.96903561],[151719.05896244,169296.26019134],[151725.67479558,169308.56960692],[151741.24930151,169337.2394268],[151758.09751965,169368.35266082],[151766.0202406,169382.87102991],[151773.37641904,169396.45154708],[151783.84651468,169415.8428857],[151789.11619802,169425.53528092],[151795.32176406,169436.92014244],[151803.24072247,169451.58366559],[151818.38100991,169479.32523771],[151828.24924557,169497.76751211],[151836.40399084,169512.69325601],[151840.51981585,169520.33867549],[151850.29304702,169538.28740993],[151858.13132858,169552.79852276],[151867.52359318,169570.26356317],[151877.30657324,169588.12028986],[151880.73756928,169594.51708665],[151887.41916108,169606.19253614],[151893.22394946,169615.43574559],[151897.40753315,169621.60053862],[151901.4038468,169627.1902294],[151908.23669423,169636.07697587],[151914.93887842,169644.01296649],[151922.38297824,169652.25370932],[151928.93166749,169659.19618943],[151936.22168847,169666.9826613],[151941.74152549,169673.00784773],[151951.55297842,169683.35420478],[151959.03937154,169691.44360771],[151965.79949274,169698.67258609],[151982.9397854,169717.09001319],[152000,169735.6],[152000.0001,169735.6001],[152002.3401,169738.1101],[152011.9701,169748.4101],[152021.6001,169758.7201],[152035.0301,169773.1301],[152048.4401,169787.5501],[152061.8601,169801.9601],[152069.38802511,169810.03101971],[152076.2801,169817.4201],[152076.852,169818.033]]},"geometry_name":"GEOM","properties":{"INSPIRE_ID":"https://databrussels.be/id/rail/22110","TYPE":"TW","LVL":0,"SLOPE":null,"LENGTH":1819.76524344384},"bbox":[150787.00114502,168817.70872137,152076.852,169818.033]},{"type":"Feature","id":"TramNetwork.fid-1cd8d64c_1a02c0ead07_7f18","geometry":{"type":"LineString","coordinates":[[150787.92435044,168843.9902899],[150790.88544265,168846.10707623],[150795.516,168849.143],[150795.702,168849.247],[150799.78472144,168851.60104677],[150803.97524477,168853.7573549],[150808.264,168855.711],[150812.81037674,168857.52608954],[150817.4385961,168859.12098047],[150822.138,168860.492],[150826.79894495,168861.60975467],[150831.50824281,168862.5021094],[150836.255,168863.167],[150841.0118913,168863.59149903],[150845.7832204,168863.79797643],[150850.559,168863.786],[150855.35546019,168863.55456426],[150860.13922566,168863.13601813],[150864.903,168862.531],[150882.071,168860.126],[150904.927,168856.852],[150938.862,168852.114],[150977.523,168846.484],[151000,168843.24],[151013.17,168841.34],[151037.86,168837.79],[151069.99,168833.27],[151078.79,168832.07],[151092.94,168830.03],[151107.04,168827.97],[151127.943,168824.815],[151127.9431,168824.8151],[151149.7191,168821.6881],[151149.719,168821.688],[151156.861,168820.665],[151168.896,168818.94],[151177.28830415,168817.69597886],[151185.714,168816.703],[151190.29091714,168816.36522355],[151194.87776074,168816.21314032],[151199.467,168816.247],[151204.55748605,168816.57780068],[151209.62739065,168817.14219824],[151214.666,168817.939],[151221.3354362,168819.39548208],[151227.914,168821.219],[151237.851,168824.158],[151239.513,168824.639],[151246.838,168826.819],[151264.959,168832.187],[151282.114,168837.258],[151298.416,168842.097],[151311.118,168845.858],[151311.455,168845.953],[151333.718,168852.552],[151356.983,168859.436],[151380.622,168866.448],[151383.69,168867.32],[151409.76,168874.98],[151434.88,168882.5],[151443.36,168885],[151453.93,168888.07],[151475.15,168894.37],[151476.78,168894.87],[151478.42,168895.37],[151480.05,168895.87],[151482.01,168896.46],[151482.27936326,168896.54026481],[151487.6331,168898.2714],[151493.2245,168900.4997],[151497.8656,168902.8985],[151502.4575,168905.7552],[151506.7257,168909.0763],[151508.3639,168910.5572],[151512.7516,168915.1437],[151515.407,168918.4552],[151520.8415,168926.712],[151521.387,168927.6562],[151524.9551,168934.1381],[151528.9447,168941.4967],[151533.7287,168950.371],[151539.9555,168961.859],[151547.1315,168975.1021],[151554.467,168989.3026],[151559.8375,169000],[151567.59192043,169013.71501522],[151572.95723491,169023.72456207],[151579.34609233,169035.62910451],[151587.29927666,169050.21035926],[151595.11038149,169064.52124546],[151602.68128755,169078.25343972],[151611.91708471,169095.30075486],[151618.92313537,169108.56503407],[151625.29951854,169120.15338625],[151633.04327959,169134.30576674],[151646.53295737,169159.20084974],[151653.40252234,169171.99819582],[151660.45567515,169185.04686293],[151666.37997736,169195.99554871],[151671.00375246,169204.40138448],[151683.62681403,169227.59619308],[151691.33066585,169241.86210791],[151699.94627714,169257.76891973],[151706.96522311,169270.76479382],[151714.46355342,169284.63583769],[151720.62544247,169295.92699343],[151727.24127562,169308.236409],[151742.81578154,169336.90622889],[151759.66399969,169368.0194629],[151767.58672064,169382.53783199],[151774.94289908,169396.11834917],[151785.41299472,169415.50968779],[151790.68267806,169425.202083],[151796.8882441,169436.58694453],[151804.80720251,169451.25046768],[151819.94748995,169478.9920398],[151829.81572561,169497.4343142],[151837.97047087,169512.36005809],[151842.08629588,169520.00547758],[151851.85952705,169537.95421202],[151859.69780862,169552.46532485],[151869.09007321,169569.93036525],[151878.87305327,169587.78709195],[151882.30404932,169594.18388873],[151888.98564112,169605.85933823],[151894.7904295,169615.10254767],[151898.97401319,169621.26734071],[151902.97032683,169626.85703149],[151909.80317426,169635.74377796],[151916.50535846,169643.67976857],[151923.94945828,169651.9205114],[151930.49814753,169658.86299151],[151937.78816851,169666.64946338],[151943.30800553,169672.67464981],[151953.11945846,169683.02100687],[151960.60585158,169691.11040979],[151967.36597278,169698.33938818],[151984.50626544,169716.75681528],[152000,169733.44],[152003.42,169737.1],[152013.06,169747.4],[152022.68,169757.71],[152036.11,169772.12],[152049.53,169786.54],[152062.95,169800.95],[152077.87120764,169816.9573429]]},"geometry_name":"GEOM","properties":{"INSPIRE_ID":"https://databrussels.be/id/rail/22111","TYPE":"TW","LVL":0,"SLOPE":null,"LENGTH":1819.92318300906},"bbox":[150787.92435044,168816.21314032,152077.87120764,169816.9573429]},{"type":"Feature","id":"TramNetwork.fid-1cd8d64c_1a02c0ead07_7f20","geometry":{"type":"LineString","coordinates":[[151442.0621414,168013.97960872],[151434.04736659,168026.06439935],[151423.84310781,168040.52307347],[151418.83514702,168047.70742063],[151412.77546507,168056.38844612],[151407.32675118,168064.39357247],[151400.47546251,168073.97795025],[151394.64627923,168081.90639076],[151392.17685001,168085.29908499],[151377.05129426,168105.75236475],[151352.62242561,168137.76631958],[151339.64891301,168155.00005742],[151329.02464192,168168.86069321],[151318.95027874,168182.05087411],[151314.78035478,168187.55609394],[151306.14028276,168198.95914836],[151304.36515131,168201.31153988],[151303.24459094,168202.80735892],[151265.67655811,168252.88683649],[151255.02691114,168267.02557083],[151231.70108239,168297.73242203],[151211.62247803,168323.53145124],[151197.83212984,168341.05188734],[151176.51993482,168367.59996195],[151162.13441587,168384.9884804],[151150.89629433,168398.68653937],[151143.487118,168407.56321157],[151133.26507763,168419.53949101],[151122.63584214,168431.98820383],[151086.38581188,168474.78196942],[151057.25096525,168508.81699344],[150999.75797779,168576.61814362],[150962.90783243,168620.28915191],[150953.33002376,168632.2619978],[150924.6933245,168666.78203052],[150911.58846067,168682.22761972],[150898.92645711,168697.14262392],[150885.87237041,168712.52765474],[150846.23930497,168758.11032563],[150836.94805665,168768.66023415],[150823.7423465,168783.92707961],[150810.65391213,168798.78622199],[150792.42544452,168819.55806709],[150787.02007777,168825.97073436],[150781.49654317,168832.55492158],[150780.85103402,168833.32840307],[150769.02957191,168846.89268829],[150762.86400956,168854.69527429],[150741.94502077,168881.43017033],[150730.5300668,168896.51655266],[150719.427752,168911.57851746],[150707.09820764,168928.59850116],[150706.65242288,168929.24621108],[150706.10383553,168930.04271333],[150705.45685004,168930.98222099],[150704.72739306,168932.04220673],[150703.93132176,168933.20024439],[150703.08446182,168934.43395377],[150702.20261973,168935.72098291],[150701.30160516,168937.03897577],[150700.39442149,168938.3695759],[150699.48256266,168939.71083956],[150698.56457812,168941.06502415],[150697.63899915,168942.43441363],[150696.70435678,168943.82129219],[150695.75918171,168945.22794442],[150694.81003404,168946.64466988],[150689.67411016,168954.02185441],[150688.64798098,168955.57910269],[150687.63118621,168957.12625754],[150686.61653259,168958.67425971],[150685.6068658,168960.21881503],[150684.60423193,168961.75683658],[150683.60743095,168963.29013915],[150682.6144435,168964.82177481],[150681.62324791,168966.35479899],[150680.63182223,168967.89226749],[150679.63814412,168969.43723661],[150678.6401906,168970.9927635],[150677.6359374,168972.56190733],[150676.62394234,168974.14682195],[150675.60511152,168975.74600924],[150674.58093999,168977.35705516],[150673.55292379,168978.97754425],[150672.52255923,168980.60506069],[150671.49134305,168982.23718798],[150670.46077205,168983.87150962],[150669.43234437,168985.50560704],[150668.4072618,168987.13752467],[150667.38552133,168988.76718973],[150666.36681511,168990.39500599],[150665.35083423,168992.02137882],[150664.33726971,168993.64671375],[150663.32581263,168995.27141622],[150662.31615396,168996.89589183],[150661.30798579,168998.52054433],[150660.30118191,169000.14547529],[150659.29632552,169001.76960521],[150658.29417219,169003.3915674],[150657.29547688,169005.00999622],[150656.3009944,169006.62352627],[150655.31147983,169008.2307917],[150654.32768834,169009.83042657],[150653.35037563,169011.42106407],[150652.3807227,169013.00064249],[150651.42160881,169014.56432519],[150650.47633627,169016.10658423],[150649.54820769,169017.62189124],[150648.64052615,169019.10471711],[150647.75659525,169020.54953182],[150646.89971913,169021.95080457],[150646.07320122,169023.30300568],[150645.28051104,169024.60033987],[150644.52579367,169025.83593115],[150643.81336744,169027.00262623],[150643.14755162,169028.09327026],[150642.53266724,169029.10070553],[150641.97303584,169030.01777344],[150640.35267494,169032.67337885],[150640.08471899,169033.11244132],[150639.85110008,169033.49517503],[150639.64054361,169033.84005367],[150639.44175378,169034.16558575],[150639.24344071,169034.49026999],[150638.02626868,169036.48265884],[150637.74863056,169036.93721053],[150637.46866259,169037.39565645],[150637.1903023,169037.85157357],[150636.91749491,169038.2985262],[150636.65222027,169038.73330307],[150636.38861733,169039.16555632],[150636.11703872,169039.61115017],[150625.10884264,169057.87748973],[150615.90169467,169073.39860472]]},"geometry_name":"GEOM","properties":{"INSPIRE_ID":"https://databrussels.be/id/rail/24579","TYPE":"RW","LVL":0,"SLOPE":null,"LENGTH":1345.14985104213},"bbox":[150615.90169467,168013.97960872,151442.0621414,169073.39860472]},{"type":"Feature","id":"TramNetwork.fid-1cd8d64c_1a02c0ead07_7f21","geometry":{"type":"LineString","coordinates":[[151443.21266484,168014.89249616],[151435.29410968,168026.69601056],[151425.07396103,168041.38039525],[151420.06540852,168048.5655913],[151414.01050487,168057.23977143],[151408.55706066,168065.25184748],[151401.68991541,168074.85840728],[151395.85692522,168082.79202568],[151393.3862686,168086.18640622],[151378.25062166,168106.65333161],[151353.8178717,168138.67237289],[151340.84338078,168155.9074103],[151330.21592882,168169.77219592],[151320.14417437,168182.95896126],[151315.97599424,168188.46187885],[151307.33674132,168199.86385223],[151305.56407953,168202.21297099],[151304.44479368,168203.70708868],[151266.87558219,168253.78813744],[151256.22321573,168267.93048225],[151232.89022444,168298.64676243],[151212.80370149,168324.45596625],[151199.00635689,168341.98529118],[151177.68273332,168368.54760206],[151163.29212999,168385.94226626],[151152.05193186,168399.64285637],[151144.63339859,168408.53073879],[151134.40591062,168420.5134007],[151123.77849457,168432.95998264],[151087.52785285,168475.75447009],[151058.39275698,168509.78978526],[151000.90320899,168577.58687928],[150964.06689464,168621.24149648],[150954.49301218,168633.20943438],[150925.84248408,168667.74613704],[150912.73210367,168683.19822816],[150900.07008907,168698.11324536],[150887.01027049,168713.50503154],[150847.36813652,168759.09813231],[150838.07815677,168769.64660041],[150824.87240818,168784.9134903],[150811.78043318,168799.77665232],[150793.562728,168820.53623333],[150788.16811967,168826.93613733],[150782.6469535,168833.51750133],[150781.9923941,168834.30182729],[150770.18410399,168847.85099857],[150764.04314331,168855.6224509],[150743.1338588,168882.34494466],[150731.73191736,168897.4141292],[150720.63886398,168912.46352949],[150708.32357818,168929.46383034],[150707.88791074,168930.09684014],[150707.33920935,168930.89350798],[150706.69238802,168931.83277725],[150705.96328075,168932.89225483],[150705.16771219,168934.04956115],[150704.32150287,168935.2823227],[150703.44047084,168936.56816958],[150702.5404346,168937.88473135],[150701.63433999,168939.21373412],[150700.72360528,168940.55334429],[150699.80675803,168941.90585119],[150698.88232338,168943.27354766],[150697.94882646,168944.65872653],[150697.00479233,168946.06368076],[150696.04874607,168947.49070326],[150690.91609897,168954.86318104],[150689.90100606,168956.40368074],[150688.88521162,168957.9493135],[150687.8715671,168959.49577615],[150686.86292432,168961.03876495],[150685.86132336,168962.57520204],[150684.86555109,168964.10692223],[150683.87358005,168965.63699011],[150682.88338248,168967.16847073],[150681.89293057,168968.70442914],[150680.9001965,168970.24793046],[150679.90315229,168971.80204],[150678.89976989,168973.36982321],[150677.88860857,168974.95343209],[150676.87057995,168976.5513602],[150675.84718398,168978.16118616],[150674.81992069,168979.78048842],[150673.79029015,168981.40684543],[150672.75979256,168983.0378354],[150671.72992801,168984.67103673],[150670.70219688,168986.30402737],[150669.67779848,168987.93485581],[150668.65672563,168989.56345603],[150667.63866902,168991.19023425],[150666.62331924,168992.81559682],[150665.61036682,168994.43995021],[150664.59950232,168996.06370082],[150663.59041632,168997.68725502],[150662.58279948,168999.31101908],[150661.57652064,169000.93510264],[150660.57215879,169002.55843324],[150659.57046978,169004.17964395],[150658.57220951,169005.79736777],[150657.57813369,169007.41023802],[150656.5889982,169009.0168877],[150655.60555885,169010.61594999],[150654.6285716,169012.2060578],[150653.65921709,169013.78515009],[150652.70037498,169015.34838969],[150651.75534931,169016.89024596],[150650.82744429,169018.40518797],[150649.91996403,169019.88768501],[150649.0362129,169021.33220589],[150648.17949516,169022.73321964],[150647.35311508,169024.08519525],[150646.56054565,169025.38233182],[150645.80593607,169026.61774664],[150645.09360519,169027.78428556],[150644.42787199,169028.87479425],[150643.8130558,169029.8821178],[150643.25347571,169030.79910163],[150641.63310025,169033.4547309],[150641.36507904,169033.8939003],[150641.13139387,169034.27674255],[150640.92076191,169034.62174487],[150640.72189672,169034.94740034],[150640.52351249,169035.27220109],[150639.30633818,169037.26459367],[150639.02876332,169037.71904179],[150638.74886529,169038.1773732],[150638.47059508,169038.63314277],[150638.19790467,169039.07990375],[150637.93278303,169039.51442984],[150637.66936912,169039.94637312],[150637.39984135,169040.38860206],[150626.39627225,169058.64726388],[150616.69968859,169074.99345389]]},"geometry_name":"GEOM","properties":{"INSPIRE_ID":"https://databrussels.be/id/rail/24672","TYPE":"RW","LVL":0,"SLOPE":null,"LENGTH":1345.91146224321},"bbox":[150616.69968859,168014.89249616,151443.21266484,169074.99345389]},{"type":"Feature","id":"TramNetwork.fid-1cd8d64c_1a02c0ead07_7f22","geometry":{"type":"LineString","coordinates":[[151444.90109904,168016.23219107],[151437.07797901,168027.96194478],[151426.86880949,168042.63055458],[151421.85939409,168049.81698851],[151415.81145826,168058.48118664],[151410.35111621,168066.50339683],[151403.46084866,168076.14230278],[151397.6301038,168084.07286725],[151396.01163067,168086.35364226],[151394.39879587,168088.62372476],[151392.78466606,168090.89288774],[151391.16913438,168093.16128163],[151390.29181028,168094.39285656],[151389.41460306,168095.62395116],[151388.53638491,168096.85319902],[151387.65557284,168098.07987553],[151386.573657,168099.57810564],[151385.48813423,168101.07431436],[151384.40001846,168102.56935411],[151383.31017065,168104.06428971],[151381.42819043,168106.65018559],[151379.54841414,168109.23568856],[151377.66157716,168111.81218103],[151375.75604,168114.37433089],[151355.58673811,168141.24006898],[151350.22711131,168148.34257443],[151346.98420152,168152.64845465],[151337.45575083,168165.26572727],[151326.8371025,168179.29926251],[151322.66826372,168184.80304965],[151314.03082065,168196.20263441],[151312.26361579,168198.54452168],[151310.50450354,168200.89273394],[151308.75167426,168203.24456518],[151307.00250796,168205.59839123],[151304.74899618,168208.63750253],[151302.52938062,168211.64012479],[151284.07938398,168237.18138158],[151274.60822049,168250.28752011],[151264.54779138,168264.26220428],[151256.27367799,168275.47247873],[151248.33307747,168286.24552708],[151240.26782844,168297.07569006],[151221.4787963,168321.31927957],[151203.75736332,168343.34045393],[151196.57677045,168352.09724629],[151184.87068165,168366.04229545],[151170.47338323,168383.20646852],[151155.26057755,168401.09931107],[151147.15915851,168410.67685877],[151136.92669446,168422.66535072],[151126.30329854,168435.10722437],[151090.0513057,168477.90330683],[151060.91565912,168511.93926534],[151003.42425288,168579.73855079],[150967.35151592,168621.70582205],[150955.28713029,168636.5714252],[150943.7588928,168650.44367184],[150935.65100039,168659.7050061],[150873.59886555,168732.67797492],[150852.56548824,168757.55639634],[150834.25897719,168779.40916604],[150825.98374385,168789.41519247],[150813.1602247,168804.99874296],[150789.14358998,168834.9774779],[150772.53457408,168855.90110169],[150769.11085251,168860.12268171],[150754.92732899,168878.13792444],[150744.775367,168891.08978687],[150734.41232881,168904.90307309],[150727.24150501,168914.81709165],[150708.3734089,168941.72705902],[150695.88515024,168960.51334515],[150686.76878874,168974.33633839],[150682.00483128,168981.58390746],[150677.37714753,168988.70866923],[150673.47206486,168994.81952696],[150667.96892922,169003.39268638],[150663.27908804,169010.74147687],[150656.50705429,169021.01978642],[150648.72345443,169033.14472223],[150640.36021938,169045.89112055],[150633.26171802,169057.04533339],[150621.90363874,169074.77187363],[150618.94534918,169079.48157073]]},"geometry_name":"GEOM","properties":{"INSPIRE_ID":"https://databrussels.be/id/rail/24817","TYPE":"RW","LVL":0,"SLOPE":null,"LENGTH":1347.77028119968},"bbox":[150618.94534918,168016.23219107,151444.90109904,169079.48157073]},{"type":"Feature","id":"TramNetwork.fid-1cd8d64c_1a02c0ead07_7f23","geometry":{"type":"LineString","coordinates":[[151446.08795532,168017.17390695],[151438.15593252,168028.70074772],[151428.1042987,168043.48122565],[151423.0896556,168050.67515916],[151417.04649807,168059.33251196],[151411.58142569,168067.36167184],[151404.67530156,168077.02275981],[151398.84609649,168084.95122997],[151397.23467943,168087.22206146],[151395.62134886,168089.49284177],[151394.0067232,168091.76270182],[151392.39089515,168094.03151185],[151391.51346968,168095.26322908],[151390.63566374,168096.49516393],[151389.75585782,168097.72663421],[151388.87282555,168098.95640271],[151387.7887538,168100.45761832],[151386.70158893,168101.95609039],[151385.61245965,168103.45252267],[151384.52262073,168104.94744608],[151382.64121217,168107.53255649],[151380.76012936,168110.11985647],[151378.86849489,168112.70289996],[151376.95763924,168115.27220096],[151368.44705389,168126.60839686],[151356.78519801,168142.1421207],[151351.42488124,168149.24554047],[151348.18180468,168153.55164213],[151338.65233847,168166.17025947],[151328.03304005,168180.20465387],[151323.86390316,168185.70883459],[151315.22727921,168197.10733828],[151313.46254401,168199.44595278],[151311.70610917,168201.79059099],[151309.95501084,168204.14009975],[151308.20693952,168206.4924523],[151305.9545495,168209.5300508],[151303.74049135,168212.52515518],[151285.29523912,168238.05984403],[151275.82478568,168251.165],[151265.75994667,168265.14580987],[151257.48083542,168276.36285571],[151249.5383341,168287.13848288],[151241.46227311,168297.98316436],[151222.656,168322.249],[151204.9216347,168344.28624444],[151197.7311947,168353.05504545],[151186.01973585,168367.00649176],[151171.61940741,168384.17427716],[151156.40459068,168402.06948505],[151148.30224357,168411.6481299],[151138.06752746,168423.63926041],[151127.44595098,168436.07900318],[151091.19334667,168478.87580749],[151062.05745085,168512.91205715],[151004.56506122,168580.71250232],[150968.50286491,168622.6675105],[150956.44634083,168637.52342673],[150944.9002055,168651.41721035],[150936.7867216,168660.68493155],[150874.74296472,168733.64804793],[150853.71315711,168758.52224709],[150835.41186734,168780.36878407],[150827.14083052,168790.36973626],[150814.32351385,168805.9457493],[150790.31833803,168835.9099841],[150773.70444001,168856.83975824],[150770.28260392,168861.05901341],[150756.1067891,168879.06446491],[150745.96949237,168891.99761741],[150735.62005464,168905.79277507],[150728.46335907,168915.68726066],[150709.61227843,168942.57296029],[150697.13584185,168961.34146227],[150688.02161711,168975.16121559],[150683.26053967,168982.40440318],[150678.63811396,168989.52106969],[150674.7352027,168995.62852951],[150669.23231495,169004.20130274],[150664.53766383,169011.55763021],[150657.76452616,169021.83761524],[150649.98170173,169033.96134313],[150641.62008888,169046.70526905],[150634.52594942,169057.85262783],[150623.17026047,169075.57543748],[150619.7307508,169081.05125329]]},"geometry_name":"GEOM","properties":{"INSPIRE_ID":"https://databrussels.be/id/rail/25435","TYPE":"RW","LVL":0,"SLOPE":null,"LENGTH":1348.51448970588},"bbox":[150619.7307508,168017.17390695,151446.08795532,169081.05125329]},{"type":"Feature","id":"TramNetwork.fid-1cd8d64c_1a02c0ead07_7f25","geometry":{"type":"LineString","coordinates":[[151430.33050052,168004.6710911],[151420.7803771,168018.40945269],[151418.71020219,168021.4066389],[151407.47893779,168037.50374752],[151401.37594667,168046.2290406],[151395.26615944,168054.94586444],[151382.08513195,168073.62262034],[151379.8451324,168076.83534238],[151377.6096091,168080.04065352],[151375.37362171,168083.2456409],[151373.1371085,168086.45039156],[151363.79810133,168099.83040182],[151346.2297705,168125.00487589],[151338.29479464,168136.38284127],[151336.87785341,168138.41311798],[151335.4597292,168140.44257145],[151334.04049237,168142.47215198],[151331.18616912,168146.55328091],[151329.75173835,168148.60399933],[151328.31706527,168150.6534138],[151326.8811775,168152.70157613],[151325.44599961,168154.74611246],[151324.00992175,168156.78985067],[151322.57279313,168158.83207451],[151321.13395262,168160.87278926],[151319.53275638,168163.1396251],[151317.929832,168165.40517856],[151316.32508518,168167.66900403],[151314.71816298,168169.93102281],[151312.91751673,168172.460153],[151311.11426433,168174.98762689],[151309.30855373,168177.51356908],[151307.50054941,168180.0380783],[151306.14685632,168181.92497934],[151304.79170848,168183.81055334],[151303.4349513,168185.69449844],[151302.07674332,168187.57608481],[151295.09552459,168197.21303762],[151288.05724546,168206.80620174],[151286.72217166,168208.61491261],[151285.38340885,168210.42414444],[151284.0425139,168212.23200797],[151282.69935717,168214.03889198],[151281.25424086,168215.97992692],[151279.80834998,168217.91887125],[151278.36082405,168219.85366838],[151276.90852986,168221.78529876],[151271.91427748,168228.40932818],[151263.60971966,168239.35840492],[151243.27170905,168266.03785983],[151242.8155582,168266.63689882],[151242.35981343,168267.23660058],[151241.9049288,168267.83606809],[151241.45081281,168268.43512431],[151240.99734019,168269.03356126],[151240.54427763,168269.63131647],[151240.09143187,168270.22834937],[151239.6408402,168270.82168135],[151211.8478445,168307.83334879],[151208.04612326,168312.50582234],[151199.96881174,168323.48141401],[151191.51207907,168334.11591052],[151190.65305806,168335.23406554],[151189.82198246,168336.31492887],[151189.02030568,168337.35660987],[151188.24165777,168338.3674012],[151187.47966475,168339.35560071],[151186.72795084,168340.32950848],[151185.98014396,168341.29741967],[151185.23109612,168342.26603498],[151184.48046077,168343.23580012],[151183.72907605,168344.2056174],[151182.97777542,168345.17439521],[151182.2273924,168346.14104187],[151181.47876095,168347.10446515],[151180.73271489,168348.06357299],[151179.9900925,168349.01726766],[151179.25047395,168349.96605641],[151178.50834609,168350.91694439],[151177.75689932,168351.8785908],[151176.98931819,168352.85966218],[151176.19878967,168353.86882177],[151175.37850495,168354.91472726],[151174.52165985,168356.00603032],[151173.62145722,168357.15137363],[151172.67412759,168358.35555041],[151171.68797915,168359.60799842],[151170.67434064,168360.89431522],[151169.64453694,168362.20010342],[151168.60989138,168363.51096765],[151167.5817286,168364.81251102],[151166.57137755,168366.09033127],[151165.59017944,168367.33001086],[151164.64526576,168368.52243191],[151163.7268317,168369.67979744],[151162.82078875,168370.81970322],[151161.91302477,168371.95977441],[151160.98942002,168373.11764516],[151160.03585784,168374.31094511],[151159.03823323,168375.55728872],[151157.98246359,168376.87426214],[151156.8587584,168378.27408981],[151155.67433736,168379.74774724],[151154.44065721,168381.28091725],[151153.1691634,168382.85929699],[151151.87129764,168384.46858837],[151150.55850004,168386.09449545],[151149.24221217,168387.72272067],[151147.93387141,168389.33897181],[151146.6424659,168390.93200573],[151145.36730986,168392.50262286],[151144.10532006,168394.05460844],[151142.85341905,168395.59174056],[151141.60852865,168397.11779813],[151140.36756991,168398.63656089],[151139.12746371,168400.15180874],[151137.88513097,168401.66732141],[151136.6380116,168403.18624576],[151135.38561396,168404.70920645],[151134.12796444,168406.23619648],[151132.86508993,168407.76720829],[151131.59701683,168409.30223485],[151130.3237719,168410.84126877],[151129.04538189,168412.38430262],[151127.76186607,168413.93133803],[151126.47446645,168415.48092884],[151125.18942266,168417.02570937],[151123.91425465,168418.55679696],[151122.65648831,168420.06530195],[151121.42364814,168421.54233637],[151120.22325901,168422.97901199],[151119.06284634,168424.3664399],[151117.94994108,168425.69572475],[151116.88858085,168426.96213043],[151115.86878004,168428.17761717],[151114.87701841,168429.35835357],[151113.89976582,168430.5205198],[151112.92349207,168431.68029589],[151111.93467253,168432.85385508],[151110.91979295,168434.05735815],[151109.86535707,168435.30694459],[151108.76296106,168436.61270774],[151107.62444251,168437.96070842],[151106.46667659,168439.3310263],[151105.30652853,168440.70375289],[151104.16085974,168442.05898419],[151103.04653087,168443.3768172],[151101.9804018,168444.63734977],[151100.97956712,168445.82040235],[151099.85027493,168447.15430613],[151097.55442258,168449.86257221],[151092.84326126,168455.41698226],[150989.57866243,168577.12597248],[150981.65399247,168586.48308511],[150973.76504698,168595.78184216],[150964.66380977,168606.50416233],[150958.39270768,168614.29422108],[150948.35365467,168626.04007245],[150934.63828347,168642.11224222],[150922.15171565,168656.45298185],[150913.01541042,168667.41422402],[150900.25623896,168682.61600507],[150892.59141234,168691.29348106],[150879.20614592,168707.18493552],[150866.38589493,168722.32350857],[150856.2528475,168734.27802526],[150843.38589869,168749.64238349],[150831.64311444,168763.3086053],[150818.37051613,168778.9487752],[150805.54321478,168794.09349232],[150792.06325936,168810.05532477],[150783.86345555,168819.70323964],[150775.74342771,168829.08055617],[150763.85712325,168843.14160573],[150757.74040563,168850.7064744],[150752.0044747,168858.49331289],[150745.70958753,168866.35529758],[150737.44500369,168876.84459402],[150731.05811736,168885.12661497],[150727.36980579,168890.38981107],[150718.11947691,168902.75670935],[150703.92852995,168922.4358065],[150696.02320354,168933.3809033],[150688.27464642,168944.78764516],[150680.359269,168956.73561073],[150672.45280986,168968.96821373],[150664.34679154,168981.77382007],[150655.80758306,168995.47329979],[150647.32306799,169009.24266899],[150639.00498075,169022.84260767],[150633.4674983,169031.94105152],[150628.31835148,169040.43329177],[150623.20274837,169048.886011],[150618.59175988,169056.52787281],[150613.88327547,169064.36745352],[150612.52170288,169066.64344407]]},"geometry_name":"GEOM","properties":{"INSPIRE_ID":"https://databrussels.be/id/rail/25508","TYPE":"RW","LVL":0,"SLOPE":null,"LENGTH":1342.06311843182},"bbox":[150612.52170288,168004.6710911,151430.33050052,169066.64344407]},{"type":"Feature","id":"TramNetwork.fid-1cd8d64c_1a02c0ead07_7f24","geometry":{"type":"LineString","coordinates":[[151429.15310906,168003.7368851],[151419.54476587,168017.55900286],[151417.47800697,168020.55123985],[151406.24927524,168036.64471855],[151400.14720781,168045.36869103],[151394.03923203,168054.0829305],[151380.85713232,168072.76120568],[151378.61474636,168075.97735042],[151376.37934745,168079.18248321],[151374.14348452,168082.3872922],[151371.90706446,168085.59190936],[151362.56805446,168098.9719237],[151344.99955475,168124.14663975],[151337.0645912,168135.52458749],[151335.64804623,168137.5542964],[151334.23031765,168139.58318371],[151332.8112611,168141.61250642],[151329.95699583,168145.69355245],[151328.5227512,168147.74400476],[151327.08853534,168149.7927661],[151325.65320102,168151.84013897],[151324.21848809,168153.88401294],[151322.78291534,168155.92703229],[151321.34647792,168157.9682739],[151319.90840233,168160.00790377],[151318.30791429,168162.273737],[151316.70571373,168164.53826742],[151315.1017962,168166.80092302],[151313.49576817,168169.0616831],[151311.69600739,168171.58956958],[151309.89359316,168174.11586867],[151308.08866778,168176.64071246],[151306.28139949,168179.16419395],[151304.92843142,168181.05008439],[151303.57407781,168182.93455328],[151302.21822953,168184.81723633],[151300.86124861,168186.6971228],[151293.88343407,168196.32937641],[151286.84911923,168205.91713723],[151285.51585993,168207.72338987],[151284.17812511,168209.53123244],[151282.83820824,168211.33777729],[151281.49586056,168213.14357291],[151280.05142289,168215.08369633],[151278.60658181,168217.02123287],[151277.16082306,168218.95366795],[151275.71020194,168220.88307306],[151270.71785371,168227.50457694],[151262.41569908,168238.45048521],[151242.0785532,168265.12880577],[151241.62172403,168265.72873556],[151241.16521524,168266.32944268],[151240.70978405,168266.92963047],[151240.25536525,168267.52908614],[151239.80186033,168268.12756573],[151239.3490083,168268.72504316],[151238.89659,168269.32151251],[151238.44381109,168269.9177246],[151210.66590345,168306.90929943],[151206.85960985,168311.5873926],[151198.77732315,168322.56974462],[151190.33022738,168333.19212255],[151189.46374474,168334.3199901],[151188.63305718,168335.40034876],[151187.83179265,168336.44149408],[151187.05357362,168337.45172867],[151186.29201671,168338.43936261],[151185.54073534,168339.41270998],[151184.79334916,168340.38007667],[151184.04471463,168341.34815749],[151183.29449584,168342.31738447],[151182.54353471,168343.28665503],[151181.79266601,168344.25487589],[151181.04272484,168345.22095335],[151180.29454665,168346.18379331],[151179.54896708,168347.14230144],[151178.80682819,168348.09537519],[151178.06771965,168349.04350968],[151177.32613008,168349.99370796],[151176.57523756,168350.95464509],[151175.80821153,168351.93500697],[151175.01822507,168352.94347458],[151174.19845749,168353.9887207],[151173.34209537,168355.07940863],[151172.44233545,168356.22418867],[151171.49540955,168357.42785226],[151170.50963719,168358.67982263],[151169.49636195,168359.96567843],[151168.46692154,168361.27100598],[151167.43265143,168362.58139453],[151166.4048889,168363.88243121],[151165.39497767,168365.15969523],[151164.41428026,168366.39874221],[151163.46995664,168367.59041863],[151162.55221118,168368.74691642],[151161.64693427,168369.88585844],[151160.73998082,168371.02491168],[151159.8171942,168372.18175678],[151158.86442238,168373.37406766],[151157.86753102,168374.61949522],[151156.81241952,168375.93564767],[151155.689304,168377.33474078],[151154.50542944,168378.80771827],[151153.27227445,168380.34023565],[151152.00130085,168381.91796961],[151150.70396444,168383.52660463],[151149.39171905,168385.15182779],[151148.07602034,168386.77932423],[151146.76831786,168388.39478688],[151145.47759383,168389.98698014],[151144.20314648,168391.55672436],[151142.94188509,168393.10781416],[151141.69072741,168394.64403359],[151140.44659017,168396.1691679],[151139.20638899,168397.68700351],[151137.96703919,168399.20132713],[151136.72545613,168400.71592528],[151135.47907585,168402.23394945],[151134.22740549,168403.75602574],[151132.97047154,168405.28214697],[151131.70830093,168406.81230541],[151130.44092021,168408.34649384],[151129.16835627,168409.8847046],[151127.89063591,168411.42693018],[151126.60777488,168412.97317638],[151125.32099917,168414.5220162],[151124.03653691,168416.06609765],[151122.76191351,168417.59653134],[151121.50466325,168419.10441736],[151120.27231852,168420.58085821],[151119.07241204,168422.01695617],[151117.91247746,168423.40381247],[151116.80005667,168424.73251865],[151115.73920159,168425.99832158],[151114.71992789,168427.21318007],[151113.72869871,168428.39328257],[151112.75196248,168429.55483474],[151111.77616733,168430.71404227],[151110.78776989,168431.88710049],[151109.77324242,168433.09018602],[151108.71908425,168434.33944334],[151107.61690583,168435.64494877],[151106.47856642,168436.99273734],[151105.320954,168438.36287354],[151104.16094115,168439.73544014],[151103.01539541,168441.0905259],[151101.90118202,168442.40822233],[151100.83516581,168443.66862146],[151099.83456549,168444.85139701],[151098.70576545,168446.18471947],[151096.41035824,168448.89246045],[151091.69940426,168454.44662605],[150988.43444684,168576.15603891],[150980.5097577,168585.51317419],[150972.62134808,168594.81129959],[150963.50760458,168605.54835364],[150957.23810465,168613.33642216],[150947.21301436,168625.06593692],[150933.50211378,168641.13286786],[150921.00983267,168655.48016917],[150911.86482041,168666.45185757],[150899.1194732,168681.63716786],[150891.45551134,168690.31366484],[150878.06017325,168706.21707673],[150865.24143241,168721.35386655],[150855.10571634,168733.31153157],[150842.24200579,168748.67202302],[150830.50241256,168762.33453113],[150817.22636685,168777.97876337],[150804.3979048,168793.12485089],[150790.91877163,168809.0857097],[150782.7249742,168818.72655745],[150774.60364105,168828.10538139],[150762.70100876,168842.18574616],[150756.55274062,168849.78963504],[150750.81467705,168857.57936869],[150744.53499963,168865.4223572],[150736.26195126,168875.92239672],[150729.84937713,168884.23772762],[150726.15473534,168889.50995689],[150716.91047802,168901.86873803],[150702.71220628,168921.55799271],[150694.79455525,168932.52015322],[150687.02896566,168943.95196878],[150679.10410466,168955.91424945],[150671.1891902,168968.15993423],[150663.0765902,168980.97593809],[150654.53258199,168994.68311801],[150646.0447352,169008.45789422],[150637.72449385,169022.06135482],[150632.18550636,169031.16227154],[150627.03538863,169039.65611308],[150621.91894679,169048.11021818],[150617.30665168,169055.75424546],[150612.59670532,169063.59626031],[150611.72560453,169065.05238332]]},"geometry_name":"GEOM","properties":{"INSPIRE_ID":"https://databrussels.be/id/rail/25509","TYPE":"RW","LVL":0,"SLOPE":null,"LENGTH":1341.30400317009},"bbox":[150611.72560453,168003.7368851,151429.15310906,169065.05238332]},{"type":"Feature","id":"TramNetwork.fid-1cd8d64c_1a02c0ead07_7f26","geometry":{"type":"LineString","coordinates":[[151432.16380455,168006.12573355],[151422.67433545,168019.78074771],[151420.54899667,168022.69169305],[151409.31796316,168038.78847075],[151403.21359059,168047.51573884],[151397.10109425,168056.23642778],[151383.92167032,168074.91091152],[151381.68523961,168078.11851495],[151379.4495303,168081.3240928],[151377.21335707,168084.52934656],[151374.97670421,168087.7342973],[151365.63770243,168101.11429987],[151348.06962309,168126.28841354],[151340.13462887,168137.66640526],[151338.71709509,168139.697531],[151337.29837911,168141.72783137],[151335.87887315,168143.75779675],[151333.0244626,168147.83905051],[151331.58975365,168149.89016663],[151330.15439672,168151.94055797],[151328.71768125,168153.98990091],[151327.28180801,168156.03542785],[151325.84497468,168158.08024118],[151324.40681235,168160.12393398],[151322.96682786,168162.16627125],[151321.3645725,168164.43460649],[151319.76056557,168166.70169002],[151318.15457851,168168.9672651],[151316.54631905,168171.2311663],[151314.74434852,168173.76215654],[151312.9398426,168176.29138738],[151311.13295768,168178.81897229],[151309.32385255,168181.34501857],[151307.96907516,168183.233431],[151306.6127395,168185.12065774],[151305.25462303,168187.00649031],[151303.89457992,168188.89061897],[151296.90827003,168198.53459967],[151289.86406212,168208.13584473],[151288.52627463,168209.94823199],[151287.18597442,168211.7595415],[151285.84361667,168213.56937727],[151284.49924995,168215.377889],[151283.05311872,168217.32028715],[151281.60565782,168219.26133689],[151280.15548897,168221.1996666],[151278.70069261,168223.13462501],[151273.70359248,168229.76243148],[151265.39544055,168240.71624684],[151245.05613685,168267.39739803],[151244.60100028,168267.99510502],[151244.1463982,168268.59330315],[151243.69233094,168269.1916935],[151243.23866783,168269.79015228],[151242.78524361,168270.38852538],[151242.33186606,168270.98669616],[151241.87838104,168271.58457187],[151241.42454104,168272.1821812],[151221.13235589,168298.88342482],[151212.55632685,168310.19646313],[151208.17824446,168315.95893622],[151204.61449572,168320.64673157],[151201.75583839,168324.40401061],[151199.49284963,168327.37517258],[151197.71610208,168329.70462279],[151196.31614508,168331.53679727],[151195.18347333,168333.01620323],[151194.20854477,168334.28739516],[151193.29911541,168335.47208278],[151192.43173901,168336.6011137],[151191.6000831,168337.68273176],[151190.79778973,168338.72521392],[151190.01850038,168339.73683793],[151189.25585523,168340.72588318],[151188.50349433,168341.70062917],[151187.75505842,168342.66935455],[151187.00539234,168343.6387693],[151186.25413397,168344.60933934],[151185.50211581,168345.57997421],[151184.75016921,168346.54958498],[151183.99912542,168347.51708286],[151183.24981601,168348.4813786],[151182.50307234,168349.44138328],[151181.75972689,168350.39600653],[151181.01934549,168351.34577386],[151180.27641263,168352.29769328],[151179.52413698,168353.26040044],[151178.75572561,168354.24253298],[151177.96438647,168355.25272737],[151177.1433283,168356.29961905],[151176.28576092,168357.39184204],[151175.3848961,168358.53802786],[151174.43696279,168359.74297199],[151173.45025192,168360.9961343],[151172.43607005,168362.28314064],[151171.40572295,168363.58961786],[151170.37051596,168364.90119341],[151169.34175466,168366.20349444],[151168.33074573,168367.48214673],[151167.34879885,168368.72277235],[151166.40300265,168369.91630707],[151165.48353883,168371.07497026],[151164.57635014,168372.2163175],[151163.66737402,168373.35791104],[151162.74254571,168374.5173157],[151161.78780149,168375.71209486],[151160.78908026,168376.9598085],[151159.73232639,168378.27800966],[151158.60773925,168379.67893598],[151157.42250095,168381.15361025],[151156.18803537,168382.68775637],[151154.91576365,168384.26710178],[151153.61710612,168385.87737491],[151152.30348277,168387.5043047],[151150.9863137,168389.13361993],[151149.67701836,168390.75105031],[151148.38459367,168392.34534146],[151147.10837771,168393.91726409],[151145.84529857,168395.47058933],[151144.59228587,168397.00908644],[151143.34626906,168398.53652482],[151142.10417735,168400.05667418],[151140.86293996,168401.5733042],[151139.61948601,168403.09018463],[151138.37126129,168404.61045523],[151137.11777592,168406.13473863],[151135.85905632,168407.66302793],[151134.59512905,168409.19531601],[151133.32602044,168410.73159609],[151132.0517571,168412.27186101],[151130.77236554,168413.81610375],[151129.48787042,168415.36431951],[151128.19953777,168416.91503336],[151126.91362425,168418.46085942],[151125.63764178,168419.99292493],[151124.37910357,168421.50235565],[151123.14552243,168422.98027782],[151121.94441149,168424.41781732],[151120.78328387,168425.80610006],[151119.66965393,168427.13625049],[151118.6075383,168428.4035575],[151117.5869492,168429.6199838],[151116.59439117,168430.80166835],[151115.6163664,168431.96475287],[151114.6393769,168433.12537925],[151113.64992612,168434.29968761],[151112.63451982,168435.50381529],[151111.57966862,168436.75389391],[151110.47694744,168438.06004222],[151109.33816078,168439.40836035],[151108.18016527,168440.77894997],[151107.01981477,168442.15191607],[151105.87396228,168443.5073647],[151104.7594607,168444.82540194],[151103.69316286,168446.08613406],[151102.69197756,168447.2696011],[151101.56194937,168448.60437423],[151099.26543125,168451.31342568],[151094.55395998,168456.86820116],[150991.28989743,168578.57655931],[150983.36525603,168587.93363822],[150975.47550934,168597.23333965],[150966.36300366,168607.96893539],[150959.7470989,168615.78332645],[150948.4473974,168628.60899873],[150935.12788615,168644.6506476],[150923.86241568,168657.90406785],[150915.82331114,168667.36811127],[150902.90127728,168682.60615121],[150894.31442594,168692.7301008],[150880.92000861,168708.63241953],[150868.09749922,168723.77365937],[150857.96154563,168735.73160462],[150845.84162665,168750.03750898],[150833.35682263,168764.75627795],[150820.08165185,168780.39947918],[150807.2560864,168795.54214678],[150793.77490127,168811.50543536],[150785.56611459,168821.1639195],[150777.44803891,168830.5389816],[150765.58615358,168844.57114425],[150759.51662145,168852.07765614],[150753.78387998,168859.86016475],[150747.46624583,168867.75055924],[150739.21432116,168878.22378884],[150732.82018661,168886.51520871],[150729.3306553,168891.0941383],[150723.66166516,168898.63552344],[150720.1158477,168903.41348291],[150713.97439853,168911.81801616],[150705.57945416,168923.57914883],[150697.87902105,168934.64124761],[150690.13762786,168946.03744337],[150682.23643362,168957.96399995],[150674.34261986,168970.17703845],[150666.24644481,168982.96709475],[150657.71441455,168996.65505842],[150649.23488226,169010.41634116],[150640.92001658,169024.01101264],[150635.38478502,169033.10575812],[150630.23709027,169041.59560355],[150625.12274149,169050.0462502],[150620.51370712,169057.68487341],[150615.80740915,169065.52081372],[150613.71231006,169069.02295954]]},"geometry_name":"GEOM","properties":{"INSPIRE_ID":"https://databrussels.be/id/rail/25618","TYPE":"RW","LVL":0,"SLOPE":null,"LENGTH":1343.18359899093},"bbox":[150613.71231006,168006.12573355,151432.16380455,169069.02295954]},{"type":"Feature","id":"TramNetwork.fid-1cd8d64c_1a02c0ead07_7f27","geometry":{"type":"LineString","coordinates":[[151433.33407097,168007.05428614],[151423.79396854,168020.77895698],[151421.77958159,168023.54940005],[151410.54762572,168039.64749971],[151404.44232943,168048.37608842],[151398.32802166,168057.09936173],[151385.14966995,168075.77232619],[151382.9156255,168078.97650712],[151380.679792,168082.18226303],[151378.4434944,168085.38769506],[151376.20674809,168088.59277972],[151366.86774972,168101.97277739],[151349.2998388,168127.14664974],[151341.3648323,168138.52465906],[151339.94690228,168140.55635256],[151338.52779061,168142.58721917],[151337.10810452,168144.61744217],[151334.25363597,168148.69877885],[151332.81874079,168150.7501612],[151331.38292665,168152.80120567],[151329.94565773,168154.85133807],[151328.50931952,168156.89752739],[151327.07198111,168158.94305954],[151325.63312756,168160.98773458],[151324.19237813,168163.03115677],[151322.58941459,168165.30049458],[151320.98468385,168167.56860113],[151319.37786747,168169.83534615],[151317.76871387,168172.10050601],[151315.96585786,168174.63273996],[151314.16051378,168177.16314558],[151312.35284364,168179.69182891],[151310.54300245,168182.21890293],[151309.18750005,168184.10832595],[151307.83037017,168185.9966578],[151306.4713448,168187.88375243],[151305.11007463,168189.76958099],[151298.12036054,168199.41826088],[151291.07218835,168209.02490924],[151289.73258635,168210.83975476],[151288.39125817,168212.65245346],[151287.04792231,168214.46360797],[151285.70274657,168216.27320804],[151284.25593668,168218.21651775],[151282.80742599,168220.15897525],[151281.35548995,168222.09966704],[151279.89902053,168224.03685071],[151274.90001626,168230.6671827],[151266.58946112,168241.62416656],[151254.84165124,168257.03497394],[151246.24929277,168268.306452],[151245.79483442,168268.90326831],[151245.34099642,168269.50046102],[151244.88747567,168270.09813115],[151244.43411541,168270.69619042],[151243.98072343,168271.29452096],[151243.52713539,168271.89296946],[151243.07322292,168272.49140872],[151242.61895767,168273.08957801],[151234.04304846,168284.37409171],[151222.32716423,168299.79030621],[151213.75119666,168311.10326343],[151209.37249467,168316.86655204],[151205.80843695,168321.55475383],[151202.9493676,168325.31257441],[151200.68583225,168328.28445402],[151198.90838179,168330.61482581],[151197.50759296,168332.44808891],[151196.37410347,168333.92856295],[151195.39859215,168335.20051474],[151194.48878685,168336.38569207],[151193.62105235,168337.51518912],[151192.78900837,168338.59731188],[151191.98630279,168339.64032967],[151191.2065845,168340.65251051],[151190.44350329,168341.64212125],[151189.69070979,168342.61742772],[151188.94185326,168343.58669752],[151188.19177383,168344.55664679],[151187.44009888,168345.52775501],[151186.68765717,168346.49893656],[151185.93527861,168347.46910433],[151185.18379301,168348.43717134],[151184.43403029,168349.40205046],[151183.68682014,168350.36265484],[151182.94299122,168351.31789897],[151182.20209978,168352.26832059],[151181.45862863,168353.22092972],[151180.70579873,168354.18434618],[151179.93683227,168355.16718818],[151179.14495106,168356.17807456],[151178.32337575,168357.22562563],[151177.46532543,168358.31846371],[151176.56401786,168359.46521285],[151175.61568084,168360.67067013],[151174.62859391,168361.92431007],[151173.61404876,168363.21177741],[151172.58333833,168364.51871533],[151171.54775591,168365.83076654],[151170.51859437,168367.13357422],[151169.50714561,168368.41278278],[151168.52469802,168369.654041],[151167.57831177,168370.84832035],[151166.65815933,168372.00785129],[151165.75020464,168373.15016227],[151164.84041796,168374.29277378],[151163.91477154,168375.45320406],[151162.95923695,168376.6489723],[151161.95978246,168377.897602],[151160.90237045,168379.21662413],[151159.77719364,168380.61828503],[151158.59140888,168382.09363919],[151157.35641811,168383.62843801],[151156.08362623,168385.20842912],[151154.78443931,168386.81935867],[151153.47026377,168388.44697234],[151152.15250556,168390.07701635],[151150.84257189,168391.69523528],[151149.54946576,168393.29036703],[151148.27254105,168394.86316262],[151147.00873354,168396.41738361],[151145.75497753,168397.95679339],[151144.50820755,168399.48515505],[151143.26535828,168401.00623155],[151142.02336447,168402.52378582],[151140.77916085,168404.04158077],[151139.53019705,168405.56275153],[151138.27598439,168407.08791935],[151137.01654926,168408.61707741],[151135.75191801,168410.15021893],[151134.48211706,168411.6873371],[151133.20717275,168413.22842514],[151131.92711152,168414.77347618],[151130.64196158,168416.32248121],[151129.35300505,168417.87394601],[151128.06651003,168419.42047109],[151126.78998293,168420.95319055],[151125.53092861,168422.46324026],[151124.29685205,168423.94175599],[151123.09525845,168425.37987315],[151121.93365277,168426.76872747],[151120.81953834,168428.09945659],[151119.75691753,168429.36736638],[151118.73580136,168430.58442088],[151117.74271087,168431.76673935],[151116.76416974,168432.93043794],[151115.78670165,168434.09163287],[151114.79682874,168435.26644221],[151113.78107038,168436.47098739],[151112.72594139,168437.72139522],[151111.6230027,168439.02780116],[151110.48403692,168440.37633135],[151109.32588788,168441.7471027],[151108.16540198,168443.12022902],[151107.01942665,168444.47582294],[151105.90480959,168445.79399677],[151104.8383988,168447.05486243],[151103.83697924,168448.23860637],[151102.70645883,168449.57396092],[151100.40949561,168452.28353741],[151095.69781699,168457.83855736],[150992.43411307,168579.54649283],[150984.5094908,168588.90354915],[150976.61920822,168598.20388223],[150967.50719864,168608.93889351],[150960.88236381,168616.76383234],[150949.58741503,168629.58411006],[150936.27640112,168645.61552499],[150925.00548225,168658.87535508],[150916.9669401,168668.33873642],[150904.04526273,168683.57635597],[150895.46002964,168693.69839764],[150882.06598127,168709.60027833],[150869.24196174,168724.74330139],[150859.10591297,168736.70135894],[150846.98582764,168751.00745966],[150834.50062131,168765.7267029],[150821.22580111,168781.36949103],[150808.40139639,168796.51078821],[150794.919389,168812.47505043],[150786.70459594,168822.14060169],[150778.58782557,168831.51415637],[150766.74226807,168845.52700382],[150760.70428646,168852.9944955],[150754.97367762,168860.77410895],[150748.64083372,168868.68349962],[150740.3973736,168879.14598614],[150734.01062802,168887.42782456],[150730.52669583,168891.99940704],[150724.86345246,168899.53314733],[150721.32368912,168904.30294893],[150715.19043476,168912.69626761],[150706.80548783,168924.44339411],[150699.11500601,168935.49119731],[150691.38330863,168946.87311975],[150683.49159796,168958.78536124],[150675.60623953,168970.98531795],[150667.51664616,168983.76497673],[150658.98941561,168997.44524019],[150650.51321505,169011.20111594],[150642.20050346,169024.7922655],[150636.66677696,169033.88453808],[150631.52005312,169042.37278224],[150626.40654307,169050.82204303],[150621.79881532,169058.45850076],[150617.0939793,169066.29200692],[150614.50840841,169070.61402029]]},"geometry_name":"GEOM","properties":{"INSPIRE_ID":"https://databrussels.be/id/rail/25699","TYPE":"RW","LVL":0,"SLOPE":null,"LENGTH":1343.94310074038},"bbox":[150614.50840841,168007.05428614,151433.33407097,169070.61402029]}],"numberReturned":16,"grand_bruxelles_source":{"authority":"Paradigm / Brussels-Capital Region","service":"https://geoservices-urbis.irisnet.be/geoserver/urbisvector/wfs","layer":"urbisvector:TramNetwork","crs":"EPSG:31370","bbox":[151000.0,168500.0,151500.0,169000.0],"cell_id":"bxl-e151000-n168500-s500","ownership":"bbox_intersection_source_unclipped"}}
