{"type":"FeatureCollection","totalFeatures":1,"numberMatched":1,"timeStamp":"2026-08-24T01:58:57.072Z","crs":{"type":"name","properties":{"name":"urn:ogc:def:crs:EPSG::31370"}},"bbox":[153869.167,163383.461,153871.185,163385.543],"features":[{"type":"Feature","id":"Buildings.fid-6d0a8ac7_1a031465927_-1099","geometry":{"type":"Polygon","coordinates":[[[153870.166,163385.543],[153869.167,163384.525],[153870.165,163383.461],[153871.185,163384.501],[153870.166,163385.543]]]},"geometry_name":"GEOM","properties":{"INSPIRE_ID":"https://databrussels.be/id/building/215472","BLOCK_ID":"https://databrussels.be/id/block/30474","AREA":2},"bbox":[153869.167,163383.461,153871.185,163385.543]}],"numberReturned":1,"grand_bruxelles_source":{"authority":"Paradigm / Brussels-Capital Region","service":"https://geoservices-urbis.irisnet.be/geoserver/urbisvector/wfs","layer":"urbisvector:Buildings","crs":"EPSG:31370","bbox":[153500.0,163000.0,154000.0,163500.0],"cell_id":"bxl-e153500-n163000-s500","ownership":"polygon_or_multipolygon_centroid_global_500m_cell"}}
