{"type":"FeatureCollection","totalFeatures":10,"numberMatched":10,"timeStamp":"2026-08-23T19:01:19.144Z","crs":{"type":"name","properties":{"name":"urn:ogc:def:crs:EPSG::31370"}},"bbox":[149846.303,162974.878,150948.357,163670.029],"features":[{"type":"Feature","id":"StreetAxes.fid--6f55e203_1a02f8885ae_-5e42","geometry":{"type":"LineString","coordinates":[[150580.919,163222.229],[150575.501,163219.684],[150548.99,163205.735],[150506.454,163185.994],[150438.631,163156.36],[150433.006,163154.222]]},"geometry_name":"GEOM","properties":{"INSPIRE_ID":"https://databrussels.be/id/streetaxe/70089","TYPE":"S","HIERARCHY":"IDR","LVL":0,"STARTSN_ID":"https://databrussels.be/id/streetnode/1596","ENDSN_ID":"https://databrussels.be/id/streetnode/4345","STRNAMEFRE":"Avenue du Prince d'Orange","STRNAMEDUT":"Prins van Oranjelaan","SLOPE":0.81,"LENGTH":162.868445083708},"bbox":[150433.006,163154.222,150580.919,163222.229]},{"type":"Feature","id":"StreetAxes.fid--6f55e203_1a02f8885ae_-5e47","geometry":{"type":"LineString","coordinates":[[150208.032,163574.655],[150214.485,163561.775],[150268.09,163478.865],[150286.486,163447.61],[150293.518,163435.037]]},"geometry_name":"GEOM","properties":{"INSPIRE_ID":"https://databrussels.be/id/streetaxe/71166","TYPE":"S","HIERARCHY":"DR","LVL":0,"STARTSN_ID":"https://databrussels.be/id/streetnode/1191","ENDSN_ID":"https://databrussels.be/id/streetnode/3843","STRNAMEFRE":"Avenue Napoléon","STRNAMEDUT":"Napoléonlaan","SLOPE":2.56,"LENGTH":163.808625661267},"bbox":[150208.032,163435.037,150293.518,163574.655]},{"type":"Feature","id":"StreetAxes.fid--6f55e203_1a02f8885ae_-5e46","geometry":{"type":"LineString","coordinates":[[150948.357,163223.999],[150930.793,163215.396],[150737.556,163103.122],[150677.616,163069.416],[150582.191,163017.719],[150506.31,162978.82],[150498.384,162974.878]]},"geometry_name":"GEOM","properties":{"INSPIRE_ID":"https://databrussels.be/id/streetaxe/74223","TYPE":"S","HIERARCHY":"DR","LVL":0,"STARTSN_ID":"https://databrussels.be/id/streetnode/1585","ENDSN_ID":"https://databrussels.be/id/streetnode/176","STRNAMEFRE":"Avenue de la Sapinière","STRNAMEDUT":"Denneboslaan","SLOPE":1.48,"LENGTH":514.462243135392},"bbox":[150498.384,162974.878,150948.357,163223.999]},{"type":"Feature","id":"StreetAxes.fid--6f55e203_1a02f8885ae_-5e43","geometry":{"type":"LineString","coordinates":[[150433.006,163154.222],[150423.775,163150.712],[150355.931,163123.85],[150350.378,163121.622]]},"geometry_name":"GEOM","properties":{"INSPIRE_ID":"https://databrussels.be/id/streetaxe/74663","TYPE":"S","HIERARCHY":"IDR","LVL":0,"STARTSN_ID":"https://databrussels.be/id/streetnode/4345","ENDSN_ID":"https://databrussels.be/id/streetnode/1918","STRNAMEFRE":"Avenue du Prince d'Orange","STRNAMEDUT":"Prins van Oranjelaan","SLOPE":0.74,"LENGTH":88.8274122581522},"bbox":[150350.378,163121.622,150433.006,163154.222]},{"type":"Feature","id":"StreetAxes.fid--6f55e203_1a02f8885ae_-5e48","geometry":{"type":"LineString","coordinates":[[150208.032,163574.655],[150196.07,163568.455],[150149.9,163545.045],[149891.936,163413.434],[149877.836,163406.515]]},"geometry_name":"GEOM","properties":{"INSPIRE_ID":"https://databrussels.be/id/streetaxe/74935","TYPE":"S","HIERARCHY":"DR","LVL":0,"STARTSN_ID":"https://databrussels.be/id/streetnode/1191","ENDSN_ID":"https://databrussels.be/id/streetnode/1437","STRNAMEFRE":"Avenue des Eglantiers","STRNAMEDUT":"Wilderoselaarslaan","SLOPE":4.31,"LENGTH":370.542998602739},"bbox":[149877.836,163406.515,150208.032,163574.655]},{"type":"Feature","id":"StreetAxes.fid--6f55e203_1a02f8885ae_-5e44","geometry":{"type":"LineString","coordinates":[[150350.378,163121.622],[150344.826,163119.393],[150295.578,163100.608],[150285.647,163098.093],[150269.56,163094.885],[150240.995,163092.53],[150224.245,163093.86],[150190.244,163099.482],[150117.055,163114.095],[149860.743,163161.677],[149846.303,163164.277]]},"geometry_name":"GEOM","properties":{"INSPIRE_ID":"https://databrussels.be/id/streetaxe/76397","TYPE":"S","HIERARCHY":null,"LVL":0,"STARTSN_ID":"https://databrussels.be/id/streetnode/1918","ENDSN_ID":"https://databrussels.be/id/streetnode/11174","STRNAMEFRE":"Avenue du Prince d'Orange","STRNAMEDUT":"Prins van Oranjelaan","SLOPE":1.4,"LENGTH":515.264259747002},"bbox":[149846.303,163092.53,150350.378,163164.277]},{"type":"Feature","id":"StreetAxes.fid--6f55e203_1a02f8885ae_-5e4b","geometry":{"type":"LineString","coordinates":[[150293.518,163435.037],[150300.55,163422.464],[150328.14,163369.336],[150391.744,163239.804],[150427.902,163164.808],[150433.006,163154.222]]},"geometry_name":"GEOM","properties":{"INSPIRE_ID":"https://databrussels.be/id/streetaxe/77904","TYPE":"S","HIERARCHY":"DR","LVL":0,"STARTSN_ID":"https://databrussels.be/id/streetnode/3843","ENDSN_ID":"https://databrussels.be/id/streetnode/4345","STRNAMEFRE":"Avenue Napoléon","STRNAMEDUT":"Napoléonlaan","SLOPE":4.41,"LENGTH":313.585561635593},"bbox":[150293.518,163154.222,150433.006,163435.037]},{"type":"Feature","id":"StreetAxes.fid--6f55e203_1a02f8885ae_-5e49","geometry":{"type":"LineString","coordinates":[[150293.518,163435.037],[150285.352,163423.415],[150276.384,163409.839],[150264.772,163395.379],[150246.642,163374.311],[150225.876,163355.178],[150207.757,163342.307],[150186.954,163329.454],[150172.574,163321.659],[150152.118,163312.59],[150136.346,163306.569],[150074.751,163285.849],[150050.95,163278.548],[150018.977,163271.276],[149869.638,163239.112],[149855.749,163236.558]]},"geometry_name":"GEOM","properties":{"INSPIRE_ID":"https://databrussels.be/id/streetaxe/81136","TYPE":"S","HIERARCHY":null,"LVL":0,"STARTSN_ID":"https://databrussels.be/id/streetnode/3843","ENDSN_ID":"https://databrussels.be/id/streetnode/11175","STRNAMEFRE":"Avenue Maréchal Ney","STRNAMEDUT":"Maarschalk Neylaan","SLOPE":3.7,"LENGTH":496.902266971387},"bbox":[149855.749,163236.558,150293.518,163435.037]},{"type":"Feature","id":"StreetAxes.fid--6f55e203_1a02f8885ae_-5e45","geometry":{"type":"LineString","coordinates":[[150350.378,163121.622],[150354.001,163112.598],[150355.9410854,163111.08890494],[150431.66710782,163049.48699795],[150436.83,163043.09],[150451.65,163031.7],[150475.41,163006.81],[150492.945,162982.945],[150498.384,162974.878]]},"geometry_name":"GEOM","properties":{"INSPIRE_ID":"https://databrussels.be/id/streetaxe/83573","TYPE":"S","HIERARCHY":null,"LVL":0,"STARTSN_ID":"https://databrussels.be/id/streetnode/1918","ENDSN_ID":"https://databrussels.be/id/streetnode/176","STRNAMEFRE":"Avenue des Narcisses","STRNAMEDUT":"Narcisbloemenlaan","SLOPE":3.72,"LENGTH":210.465356733462},"bbox":[150350.378,162974.878,150498.384,163121.622]},{"type":"Feature","id":"StreetAxes.fid--6f55e203_1a02f8885ae_-5e4a","geometry":{"type":"LineString","coordinates":[[150395.603,163670.029],[150399.021,163661.228],[150487.045,163422.841],[150497.798,163394.794],[150513.066,163358.93],[150522.494,163337.63],[150536.356,163309.554],[150577.36,163229.144],[150580.919,163222.229]]},"geometry_name":"GEOM","properties":{"INSPIRE_ID":"https://databrussels.be/id/streetaxe/86806","TYPE":"S","HIERARCHY":"DR","LVL":0,"STARTSN_ID":"https://databrussels.be/id/streetnode/2581","ENDSN_ID":"https://databrussels.be/id/streetnode/1596","STRNAMEFRE":"Avenue Wellington","STRNAMEDUT":"Wellingtonlaan","SLOPE":3.52,"LENGTH":485.220293403435},"bbox":[150395.603,163222.229,150580.919,163670.029]}],"numberReturned":10,"grand_bruxelles_source":{"authority":"Paradigm / Brussels-Capital Region","service":"https://geoservices-urbis.irisnet.be/geoserver/urbisvector/wfs","layer":"urbisvector:StreetAxes","crs":"EPSG:31370","bbox":[150000.0,163000.0,150500.0,163500.0],"cell_id":"bxl-e150000-n163000-s500","ownership":"bbox_intersection_source_unclipped"}}
