{"type":"FeatureCollection","totalFeatures":56,"numberMatched":56,"timeStamp":"2026-08-24T03:41:51.280Z","crs":{"type":"name","properties":{"name":"urn:ogc:def:crs:EPSG::31370"}},"bbox":[154509.88575064,168476.769,154991.006,169115.433],"features":[{"type":"Feature","id":"Buildings.fid-6d0a8ac7_1a031465927_e7e","geometry":{"type":"Polygon","coordinates":[[[154882,168732.67],[154880.29,168721.74],[154888.74,168720.42],[154890.45,168731.35],[154882,168732.67]]]},"geometry_name":"GEOM","properties":{"INSPIRE_ID":"https://databrussels.be/id/building/1592964","BLOCK_ID":"https://databrussels.be/id/block/28017","AREA":95},"bbox":[154880.29,168720.42,154890.45,168732.67]},{"type":"Feature","id":"Buildings.fid-6d0a8ac7_1a031465927_e94","geometry":{"type":"Polygon","coordinates":[[[154942.11,168985.43],[154939.05,168980.37],[154941.6,168978.82],[154941.47,168978.68],[154951.6,168972.55],[154954.94,168978.28],[154945,168984.32],[154944.77,168984.02],[154942.11,168985.43]]]},"geometry_name":"GEOM","properties":{"INSPIRE_ID":"https://databrussels.be/id/building/1592965","BLOCK_ID":"https://databrussels.be/id/block/24184","AREA":96},"bbox":[154939.05,168972.55,154954.94,168985.43]},{"type":"Feature","id":"Buildings.fid-6d0a8ac7_1a031465927_e81","geometry":{"type":"Polygon","coordinates":[[[154835.85,168770.76],[154842.28,168770],[154844.06,168784.98],[154837.62,168785.74],[154835.85,168770.76]]]},"geometry_name":"GEOM","properties":{"INSPIRE_ID":"https://databrussels.be/id/building/1592967","BLOCK_ID":"https://databrussels.be/id/block/28017","AREA":98},"bbox":[154835.85,168770,154844.06,168785.74]},{"type":"Feature","id":"Buildings.fid-6d0a8ac7_1a031465927_e87","geometry":{"type":"Polygon","coordinates":[[[154881.294,168838.722],[154878.148,168834.054],[154888.376,168827.158],[154891.522,168831.826],[154881.294,168838.722]]]},"geometry_name":"GEOM","properties":{"INSPIRE_ID":"https://databrussels.be/id/building/1593826","BLOCK_ID":"https://databrussels.be/id/block/28017","AREA":69},"bbox":[154878.148,168827.158,154891.522,168838.722]},{"type":"Feature","id":"Buildings.fid-6d0a8ac7_1a031465927_e83","geometry":{"type":"Polygon","coordinates":[[[154891.143,168802.055],[154900.095,168793.423],[154904.177,168797.645],[154895.225,168806.287],[154891.143,168802.055]]]},"geometry_name":"GEOM","properties":{"INSPIRE_ID":"https://databrussels.be/id/building/1593829","BLOCK_ID":"https://databrussels.be/id/block/28017","AREA":73},"bbox":[154891.143,168793.423,154904.177,168806.287]},{"type":"Feature","id":"Buildings.fid-6d0a8ac7_1a031465927_e85","geometry":{"type":"Polygon","coordinates":[[[154895.666,168829.203],[154892.377,168824.246],[154902.694,168817.397],[154905.983,168822.354],[154895.666,168829.203]]]},"geometry_name":"GEOM","properties":{"INSPIRE_ID":"https://databrussels.be/id/building/1593830","BLOCK_ID":"https://databrussels.be/id/block/28017","AREA":74},"bbox":[154892.377,168817.397,154905.983,168829.203]},{"type":"Feature","id":"Buildings.fid-6d0a8ac7_1a031465927_e7f","geometry":{"type":"Polygon","coordinates":[[[154971.46,168731.07],[154973.63,168733.39],[154976.21,168730.97],[154976.55,168731.34],[154978.18,168729.8],[154982.7,168734.62],[154981.13,168736.08],[154981.55,168736.53],[154969.78,168747.72],[154969.63,168747.59],[154967.4,168749.61],[154960.43,168742.15],[154962.75,168739.74],[154962.24,168739.3],[154971.46,168731.07]]]},"geometry_name":"GEOM","properties":{"INSPIRE_ID":"https://databrussels.be/id/building/1593884","BLOCK_ID":"https://databrussels.be/id/block/28017","AREA":213},"bbox":[154960.43,168729.8,154982.7,168749.61]},{"type":"Feature","id":"Buildings.fid-6d0a8ac7_1a031465927_ea5","geometry":{"type":"Polygon","coordinates":[[[154690.664,168896.704],[154696.121,168893.393],[154696.9,168894.71],[154700.47,168892.58],[154699.08,168890.24],[154705.51,168886.41],[154712.067,168897.439],[154707.748,168900.006],[154708.265,168900.862],[154700.298,168905.553],[154699.843,168904.824],[154696.546,168906.806],[154693.25,168901.373],[154692.032,168902.094],[154690.234,168898.913],[154691.502,168898.194],[154690.664,168896.704]]]},"geometry_name":"GEOM","properties":{"INSPIRE_ID":"https://databrussels.be/id/building/1593892","BLOCK_ID":"https://databrussels.be/id/block/24184","AREA":228},"bbox":[154690.234,168886.41,154712.067,168906.806]},{"type":"Feature","id":"Buildings.fid-6d0a8ac7_1a031465927_e91","geometry":{"type":"Polygon","coordinates":[[[154784.915,168941.046],[154783.138,168938.191],[154792.318,168932.781],[154794.275,168935.964],[154802.761,168930.803],[154806.097,168936.343],[154788.331,168946.374],[154784.915,168941.046]]]},"geometry_name":"GEOM","properties":{"INSPIRE_ID":"https://databrussels.be/id/building/1653518","BLOCK_ID":"https://databrussels.be/id/block/24184","AREA":166},"bbox":[154783.138,168930.803,154806.097,168946.374]},{"type":"Feature","id":"Buildings.fid-6d0a8ac7_1a031465927_eaa","geometry":{"type":"Polygon","coordinates":[[[154757.126,168942.401],[154749.073,168948.518],[154744.519,168942.302],[154752.289,168936.133],[154757.126,168942.401]]]},"geometry_name":"GEOM","properties":{"INSPIRE_ID":"https://databrussels.be/id/building/1653519","BLOCK_ID":"https://databrussels.be/id/block/26578","AREA":78},"bbox":[154744.519,168936.133,154757.126,168948.518]},{"type":"Feature","id":"Buildings.fid-6d0a8ac7_1a031465927_e8d","geometry":{"type":"Polygon","coordinates":[[[154813.893,168867.9],[154816.734,168872.602],[154813.251,168874.755],[154810.496,168869.874],[154813.893,168867.9]]]},"geometry_name":"GEOM","properties":{"INSPIRE_ID":"https://databrussels.be/id/building/1653717","BLOCK_ID":"https://databrussels.be/id/block/24184","AREA":22},"bbox":[154810.496,168867.9,154816.734,168874.755]},{"type":"Feature","id":"Buildings.fid-6d0a8ac7_1a031465927_eae","geometry":{"type":"Polygon","coordinates":[[[154941.957,168541.604],[154945.51,168534.48],[154946.39,168534.92],[154948.142,168531.417],[154957.96,168536.281],[154957.182,168537.826],[154963.99,168541.16],[154965.85,168542.07],[154964.54,168544.769],[154964.91,168545.838],[154964.036,168547.637],[154962.967,168548.008],[154962.482,168549.007],[154962.853,168550.076],[154961.979,168551.876],[154960.91,168552.246],[154960.401,168553.295],[154959.376,168552.801],[154958.308,168553.174],[154956.506,168552.306],[154956.133,168551.238],[154952.715,168549.591],[154951.647,168549.964],[154949.845,168549.096],[154949.471,168548.028],[154948.751,168547.681],[154948.169,168546.08],[154948.724,168544.971],[154941.957,168541.604]]]},"geometry_name":"GEOM","properties":{"INSPIRE_ID":"https://databrussels.be/id/building/1730599","BLOCK_ID":"https://databrussels.be/id/block/24645","AREA":278},"bbox":[154941.957,168531.417,154965.85,168553.295]},{"type":"Feature","id":"Buildings.fid-6d0a8ac7_1a031465927_ea7","geometry":{"type":"Polygon","coordinates":[[[154602.48,168908.83],[154604.09,168907.76],[154603.88,168907.57],[154603.51,168907.08],[154603.19,168906.61],[154602.99,168905.83],[154602.79,168905.11],[154602.87,168903.94],[154603.07,168902.78],[154603.51,168901.71],[154603.97,168900.85],[154604.69,168900.16],[154605.61,168899.57],[154606.34,168899.17],[154607.33,168898.84],[154608.89,168898.71],[154610.31,168898.9],[154611.18,168899.19],[154611.98,168899.66],[154613.18,168900.87],[154616.72,168905.95],[154617.79,168905.28],[154619.23,168905.42],[154624.09,168911.84],[154617.098,168917.1],[154617.699,168917.899],[154617.56,168918.879],[154616.921,168919.36],[154615.941,168919.222],[154612.427,168921.865],[154611.82,168921.07],[154602.48,168908.83]]]},"geometry_name":"GEOM","properties":{"INSPIRE_ID":"https://databrussels.be/id/building/1730600","BLOCK_ID":"https://databrussels.be/id/block/26602","AREA":280},"bbox":[154602.48,168898.71,154624.09,168921.865]},{"type":"Feature","id":"Buildings.fid-6d0a8ac7_1a031465927_e8b","geometry":{"type":"Polygon","coordinates":[[[154931.41,168852.03],[154940.5,168845.75],[154943.92,168850.69],[154934.87,168857.05],[154931.41,168852.03]]]},"geometry_name":"GEOM","properties":{"INSPIRE_ID":"https://databrussels.be/id/building/1730614","BLOCK_ID":"https://databrussels.be/id/block/28017","AREA":67},"bbox":[154931.41,168845.75,154943.92,168857.05]},{"type":"Feature","id":"Buildings.fid-6d0a8ac7_1a031465927_e82","geometry":{"type":"Polygon","coordinates":[[[154968.28,168781.96],[154972.08,168780.1],[154973.92,168783],[154970.38,168785.25],[154968.28,168781.96]]]},"geometry_name":"GEOM","properties":{"INSPIRE_ID":"https://databrussels.be/id/building/1731954","BLOCK_ID":"https://databrussels.be/id/block/28017","AREA":15},"bbox":[154968.28,168780.1,154973.92,168785.25]},{"type":"Feature","id":"Buildings.fid-6d0a8ac7_1a031465927_ea9","geometry":{"type":"Polygon","coordinates":[[[154584.403,168931.917],[154585.874,168935.093],[154587.008,168934.568],[154588.1,168936.928],[154589.008,168936.508],[154592.368,168943.767],[154593.008,168943.483],[154593.166,168943.851],[154601.451,168952.963],[154606.7,168958.871],[154608.557,168957.475],[154610.91,168960.21],[154611.73,168959.5],[154611.91,168959.71],[154630.942,168981.855],[154628.509,168983.946],[154609.02,168961.63],[154606.81,168959.19],[154606.031,168959.986],[154596.278,168955.936],[154586.57,168951.717],[154578.665,168934.636],[154584.403,168931.917]]]},"geometry_name":"GEOM","properties":{"INSPIRE_ID":"https://databrussels.be/id/building/1731968","BLOCK_ID":"https://databrussels.be/id/block/24402","AREA":360},"bbox":[154578.665,168931.917,154630.942,168983.946]},{"type":"Feature","id":"Buildings.fid-6d0a8ac7_1a031465927_e8e","geometry":{"type":"Polygon","coordinates":[[[154782.984,168895.063],[154778.276,168887.228],[154787.01,168882.03],[154785.31,168879.19],[154791.99,168875.21],[154793.62,168877.94],[154796.414,168876.271],[154801.113,168884.096],[154799.533,168885.046],[154801.673,168888.626],[154793.924,168893.273],[154791.824,168889.763],[154782.984,168895.063]]]},"geometry_name":"GEOM","properties":{"INSPIRE_ID":"https://databrussels.be/id/building/1733285","BLOCK_ID":"https://databrussels.be/id/block/24184","AREA":256},"bbox":[154778.276,168875.21,154801.673,168895.063]},{"type":"Feature","id":"Buildings.fid-6d0a8ac7_1a031465927_e9a","geometry":{"type":"Polygon","coordinates":[[[154731.21,168774.43],[154730.43,168773.03],[154730.81,168771.78],[154731.03,168771.48],[154727.98,168766.41],[154728.89,168765.77],[154729.98,168762.79],[154731.06,168762.12],[154734.22,168762.91],[154735.29,168762.27],[154735.48,168762.59],[154741.55,168758.64],[154741.65,168758.47],[154741.87,168758.07],[154742.15,168757.8],[154742.53,168757.2],[154743.08,168756.25],[154743.65,168755.58],[154744.35,168755.05],[154745.41,168754.65],[154746.03,168754.48],[154747.22,168754.16],[154748.21,168754.18],[154748.44,168754.03],[154748.72,168753.94],[154748.97,168753.93],[154749.37,168753.98],[154755.82,168750.33],[154755.61,168749.89],[154756.45,168749.4],[154757.21,168746.21],[154758.64,168745.53],[154761.54,168746.24],[154762.77,168745.5],[154765.75,168750.83],[154766.19,168750.52],[154767.53,168750.71],[154768.38,168752.1],[154768.01,168753.41],[154769.67,168756.17],[154769.3,168756.4],[154773.17,168762.82],[154765.84,168767.23],[154765.65,168766.91],[154758.42,168771.26],[154758.23,168771.69],[154757.87,168772.29],[154757.41,168773.01],[154756.62,168773.73],[154755.61,168774.27],[154754.94,168774.44],[154753.93,168774.65],[154752.67,168774.6],[154745.56,168778.85],[154745.81,168779.27],[154738.37,168783.72],[154734.65,168777.51],[154734.39,168777.66],[154732.69,168774.81],[154731.21,168774.43]]]},"geometry_name":"GEOM","properties":{"INSPIRE_ID":"https://databrussels.be/id/building/1733321","BLOCK_ID":"https://databrussels.be/id/block/24184","AREA":839},"bbox":[154727.98,168745.5,154773.17,168783.72]},{"type":"Feature","id":"Buildings.fid-6d0a8ac7_1a031465927_ead","geometry":{"type":"Polygon","coordinates":[[[154907.891,168542.463],[154906.801,168541.978],[154910.905,168534.109],[154921.136,168539.046],[154918.606,168544.276],[154920.567,168545.226],[154917.37986715,168551.6927954],[154915.33848941,168550.69143278],[154914.139,168553.088],[154909.309,168550.691],[154909.628,168550.064],[154905.262,168547.851],[154907.891,168542.463]]]},"geometry_name":"GEOM","properties":{"INSPIRE_ID":"https://databrussels.be/id/building/1737339","BLOCK_ID":"https://databrussels.be/id/block/24645","AREA":184},"bbox":[154905.262,168534.109,154921.136,168553.088]},{"type":"Feature","id":"Buildings.fid-6d0a8ac7_1a031465927_eaf","geometry":{"type":"Polygon","coordinates":[[[154967.662,168530.321],[154953.01,168522.967],[154957.984,168513.01],[154972.783,168520.372],[154967.662,168530.321]]]},"geometry_name":"GEOM","properties":{"INSPIRE_ID":"https://databrussels.be/id/building/1737341","BLOCK_ID":"https://databrussels.be/id/block/24645","AREA":184},"bbox":[154953.01,168513.01,154972.783,168530.321]},{"type":"Feature","id":"Buildings.fid-6d0a8ac7_1a031465927_e84","geometry":{"type":"Polygon","coordinates":[[[154846.77,168807.21],[154854.43,168804.45],[154859.21,168817.74],[154851.55,168820.49],[154846.77,168807.21]]]},"geometry_name":"GEOM","properties":{"INSPIRE_ID":"https://databrussels.be/id/building/1744125","BLOCK_ID":"https://databrussels.be/id/block/28017","AREA":115},"bbox":[154846.77,168804.45,154859.21,168820.49]},{"type":"Feature","id":"Buildings.fid-6d0a8ac7_1a031465927_e86","geometry":{"type":"Polygon","coordinates":[[[154854.384,168827.857],[154860.943,168823.906],[154869.015,168837.323],[154862.448,168841.275],[154854.384,168827.857]]]},"geometry_name":"GEOM","properties":{"INSPIRE_ID":"https://databrussels.be/id/building/1744127","BLOCK_ID":"https://databrussels.be/id/block/28017","AREA":120},"bbox":[154854.384,168823.906,154869.015,168841.275]},{"type":"Feature","id":"Buildings.fid-6d0a8ac7_1a031465927_eb0","geometry":{"type":"Polygon","coordinates":[[[154973.448,168510.929],[154971.307,168509.845],[154971.02,168508.971],[154971.133,168508.748],[154962.093,168504.221],[154966.353,168495.715],[154982.337,168503.631],[154979.653,168508.701],[154977.037,168507.443],[154975.371,168510.894],[154974.434,168510.42],[154974.321,168510.643],[154973.448,168510.929]]]},"geometry_name":"GEOM","properties":{"INSPIRE_ID":"https://databrussels.be/id/building/1744140","BLOCK_ID":"https://databrussels.be/id/block/24645","AREA":161},"bbox":[154962.093,168495.715,154982.337,168510.929]},{"type":"Feature","id":"Buildings.fid-6d0a8ac7_1a031465927_e97","geometry":{"type":"Polygon","coordinates":[[[154566.433,168535.764],[154568.306,168535.151],[154568.879,168536.898],[154567.012,168537.517],[154566.433,168535.764]]]},"geometry_name":"GEOM","properties":{"INSPIRE_ID":"https://databrussels.be/id/building/1749559","BLOCK_ID":"https://databrussels.be/id/block/24639","AREA":4},"bbox":[154566.433,168535.151,154568.879,168537.517]},{"type":"Feature","id":"Buildings.fid-6d0a8ac7_1a031465927_e95","geometry":{"type":"Polygon","coordinates":[[[154842.49,168979.11],[154844.32,168978.06],[154845.34,168980.06],[154843.66,168981.07],[154842.49,168979.11]]]},"geometry_name":"GEOM","properties":{"INSPIRE_ID":"https://databrussels.be/id/building/1749561","BLOCK_ID":"https://databrussels.be/id/block/24184","AREA":5},"bbox":[154842.49,168978.06,154845.34,168981.07]},{"type":"Feature","id":"Buildings.fid-6d0a8ac7_1a031465927_e88","geometry":{"type":"Polygon","coordinates":[[[154804.65,168832.39],[154807.81,168830.69],[154811.11,168836.19],[154807.99,168837.98],[154804.65,168832.39]]]},"geometry_name":"GEOM","properties":{"INSPIRE_ID":"https://databrussels.be/id/building/1750941","BLOCK_ID":"https://databrussels.be/id/block/24184","AREA":23},"bbox":[154804.65,168830.69,154811.11,168837.98]},{"type":"Feature","id":"Buildings.fid-6d0a8ac7_1a031465927_ea4","geometry":{"type":"Polygon","coordinates":[[[154742.09,168883.59],[154738.7,168878.03],[154741.74,168876.17],[154745.13,168881.74],[154742.09,168883.59]]]},"geometry_name":"GEOM","properties":{"INSPIRE_ID":"https://databrussels.be/id/building/1750942","BLOCK_ID":"https://databrussels.be/id/block/24184","AREA":23},"bbox":[154738.7,168876.17,154745.13,168883.59]},{"type":"Feature","id":"Buildings.fid-6d0a8ac7_1a031465927_ea0","geometry":{"type":"Polygon","coordinates":[[[154679.31460986,168826.67039685],[154684.75,168827.45999999],[154684.12000001,168831.8],[154693.09000001,168833.14000001],[154693.72000001,168828.83],[154699.12000001,168829.62000001],[154698.49000001,168833.90999999],[154695.25999999,168855.92],[154675.52000001,168852.9],[154679.31460986,168826.67039685]]]},"geometry_name":"GEOM","properties":{"INSPIRE_ID":"https://databrussels.be/id/building/1760611","BLOCK_ID":"https://databrussels.be/id/block/24184","AREA":491},"bbox":[154675.52000001,168826.67039685,154699.12000001,168855.92]},{"type":"Feature","id":"Buildings.fid-6d0a8ac7_1a031465927_ea6","geometry":{"type":"Polygon","coordinates":[[[154774.7688,168900.001],[154772.5163,168896.9545],[154774.6411,168895.3835],[154776.8936,168898.43],[154774.7688,168900.001]]]},"geometry_name":"GEOM","properties":{"INSPIRE_ID":"https://databrussels.be/id/building/1777349","BLOCK_ID":"https://databrussels.be/id/block/24184","AREA":10},"bbox":[154772.5163,168895.3835,154776.8936,168900.001]},{"type":"Feature","id":"Buildings.fid-6d0a8ac7_1a031465927_ea8","geometry":{"type":"Polygon","coordinates":[[[154615.5246,168931.5171],[154613.5989,168928.8191],[154615.7508,168927.2831],[154617.6765,168929.9812],[154615.5246,168931.5171]]]},"geometry_name":"GEOM","properties":{"INSPIRE_ID":"https://databrussels.be/id/building/1777350","BLOCK_ID":"https://databrussels.be/id/block/26602","AREA":9},"bbox":[154613.5989,168927.2831,154617.6765,168931.5171]},{"type":"Feature","id":"Buildings.fid-6d0a8ac7_1a031465927_e92","geometry":{"type":"Polygon","coordinates":[[[154902.4907,168970.5188],[154886.3587,168970.4661],[154886.3656,168968.3617],[154881.7387,168968.3466],[154881.7288,168971.3669],[154851.1483,168971.2669],[154851.1506,168970.554],[154848.8084,168970.5463],[154848.8061,168971.2592],[154841.1309,168971.2341],[154841.1916,168952.6425],[154848.8669,168952.6675],[154848.8578,168955.4265],[154851.2108,168955.4342],[154891.5643,168955.5662],[154891.5454,168961.341],[154892.3805,168961.3438],[154902.5206,168961.3769],[154902.4907,168970.5188]]]},"geometry_name":"GEOM","properties":{"INSPIRE_ID":"https://databrussels.be/id/building/1785256","BLOCK_ID":"https://databrussels.be/id/block/24184","AREA":899},"bbox":[154841.1309,168952.6425,154902.5206,168971.3669]},{"type":"Feature","id":"Buildings.fid-6d0a8ac7_1a031465927_e90","geometry":{"type":"Polygon","coordinates":[[[154832.5008,168935.8179],[154811.7766,168899.0482],[154833.6906,168886.697],[154836.6148,168891.8851],[154835.2913,168892.631],[154851.5792,168919.7174],[154842.7089,168924.7169],[154842.3642,168924.1054],[154837.6674,168926.7526],[154840.2994,168931.4225],[154832.5008,168935.8179]]]},"geometry_name":"GEOM","properties":{"INSPIRE_ID":"https://databrussels.be/id/building/1789452","BLOCK_ID":"https://databrussels.be/id/block/24184","AREA":949},"bbox":[154811.7766,168886.697,154851.5792,168935.8179]},{"type":"Feature","id":"Buildings.fid-6d0a8ac7_1a031465927_e8a","geometry":{"type":"Polygon","coordinates":[[[154825.48218991,168859.51893698],[154820.8053554,168862.41801836],[154819.2167289,168859.80473454],[154808.57690122,168866.3779032],[154804.81243095,168859.96758856],[154819.35416851,168851.08825117],[154823.87824047,168848.32580541],[154831.51907224,168843.66023335],[154835.41025009,168850.11353995],[154824.03792825,168856.94485125],[154825.48218991,168859.51893698]]]},"geometry_name":"GEOM","properties":{"INSPIRE_ID":"https://databrussels.be/id/building/1793271","BLOCK_ID":"https://databrussels.be/id/block/24184","AREA":250},"bbox":[154804.81243095,168843.66023335,154835.41025009,168866.3779032]},{"type":"Feature","id":"Buildings.fid-6d0a8ac7_1a031465927_e89","geometry":{"type":"Polygon","coordinates":[[[154891.19985393,168843.50707518],[154895.66698102,168840.52063329],[154897.80504989,168843.55948384],[154897.08957334,168844.01568467],[154908.01658878,168860.21299257],[154908.51241078,168859.85389934],[154909.50462435,168861.37135514],[154909.70155206,168861.26149641],[154910.38230451,168861.31439927],[154910.73653845,168861.75324271],[154910.72620256,168862.45368246],[154910.14517841,168862.87389237],[154909.48990857,168862.82305346],[154909.33371891,168862.62670895],[154906.16351236,168864.79649474],[154904.56376025,168862.43490123],[154904.16643894,168862.67122083],[154891.19985393,168843.50707518]]]},"geometry_name":"GEOM","properties":{"INSPIRE_ID":"https://databrussels.be/id/building/1794494","BLOCK_ID":"https://databrussels.be/id/block/28017","AREA":124},"bbox":[154891.19985393,168840.52063329,154910.73653845,168864.79649474]},{"type":"Feature","id":"Buildings.fid-6d0a8ac7_1a031465927_e93","geometry":{"type":"Polygon","coordinates":[[[154964.325,168979.746],[154970.589,168975.858],[154970.36,168975.477],[154985.341,168966.617],[154991.006,168976.1],[154984.09118988,168980.29847694],[154985.01868144,168981.88314264],[154978.56222156,168985.53785674],[154977.63597643,168984.21789981],[154976.142,168985.125],[154975.867,168984.667],[154969.767,168988.291],[154964.325,168979.746]]]},"geometry_name":"GEOM","properties":{"INSPIRE_ID":"https://databrussels.be/id/building/1794498","BLOCK_ID":"https://databrussels.be/id/block/24184","AREA":281},"bbox":[154964.325,168966.617,154991.006,168988.291]},{"type":"Feature","id":"Buildings.fid-6d0a8ac7_1a031465927_ea3","geometry":{"type":"Polygon","coordinates":[[[154677.031,168869.627],[154683.376,168865.681],[154684.46364813,168867.45955628],[154689.72304152,168866.08565529],[154690.06567816,168866.6420378],[154691.35,168865.857],[154691.88,168866.73],[154693.75,168865.58],[154694.59447305,168866.96058919],[154695.27904254,168866.53440117],[154698.19910877,168871.22000527],[154697.49887837,168871.70886458],[154700.309,168876.303],[154684.947,168885.69],[154682.529,168881.769],[154682.967,168881.53],[154677.838,168873.076],[154678.693,168872.557],[154677.031,168869.627]]]},"geometry_name":"GEOM","properties":{"INSPIRE_ID":"https://databrussels.be/id/building/1794499","BLOCK_ID":"https://databrussels.be/id/block/24184","AREA":283},"bbox":[154677.031,168865.58,154700.309,168885.69]},{"type":"Feature","id":"Buildings.fid-6d0a8ac7_1a031465927_e7c","geometry":{"type":"Polygon","coordinates":[[[154827.33940671,168675.77828615],[154827.35383801,168671.89917838],[154827.06513875,168671.89310862],[154827.14175741,168667.12728778],[154827.1880232,168664.24947214],[154832.08057329,168664.23173196],[154832.07802631,168667.14462461],[154840.15735847,168667.29513212],[154840.00316385,168672.15063078],[154839.72270339,168672.14899063],[154839.63208292,168675.97599836],[154827.33940671,168675.77828615]]]},"geometry_name":"GEOM","properties":{"INSPIRE_ID":"https://databrussels.be/id/building/1795714","BLOCK_ID":"https://databrussels.be/id/block/28017","AREA":125},"bbox":[154827.06513875,168664.23173196,154840.15735847,168675.97599836]},{"type":"Feature","id":"Buildings.fid-6d0a8ac7_1a031465927_e8f","geometry":{"type":"Polygon","coordinates":[[[154891.29809334,168891.2143796],[154896.20106929,168887.84168713],[154896.76599073,168888.61450216],[154898.61444237,168887.44868305],[154898.9326731,168887.88843337],[154901.94821938,168885.84473345],[154905.4391178,168890.50018045],[154905.59709309,168890.84941108],[154905.6689542,168891.27184279],[154905.6848822,168891.5490869],[154905.67737022,168891.74916673],[154905.578557,168891.94518675],[154905.46141776,168892.1322112],[154905.13105559,168892.47494698],[154899.6581787,168896.15270577],[154898.09708863,168896.13453377],[154897.63602745,168895.53947128],[154895.79633892,168896.77936056],[154896.16604293,168897.36358398],[154895.98887515,168898.56458301],[154893.32457188,168900.28786864],[154892.21882901,168900.10738044],[154891.74506212,168899.50478435],[154888.2987535,168894.3762612],[154891.81359832,168891.92918438],[154891.29809334,168891.2143796]]]},"geometry_name":"GEOM","properties":{"INSPIRE_ID":"https://databrussels.be/id/building/1795715","BLOCK_ID":"https://databrussels.be/id/block/28017","AREA":125},"bbox":[154888.2987535,168885.84473345,154905.6848822,168900.28786864]},{"type":"Feature","id":"Buildings.fid-6d0a8ac7_1a031465927_e9b","geometry":{"type":"Polygon","coordinates":[[[154691.97,168780.962],[154691.613,168779.668],[154692.511,168778.085],[154693.813,168777.731],[154696.192,168773.912],[154695.319,168773.265],[154695.292,168772.227],[154696.505,168771.687],[154697.398,168772.041],[154699.885,168768.69],[154704.55,168769.349],[154705.144,168770.509],[154704.827,168770.691],[154706.53,168773.95],[154706.99,168774.72],[154707.08,168774.88],[154709.542,168778.993],[154707.86,168780],[154707.43,168783.04],[154707.59,168783.21],[154707.5323473,168783.64983421],[154704.81848614,168783.29220495],[154701.46157585,168782.84983548],[154693.92314356,168781.85643022],[154691.97,168780.962]]]},"geometry_name":"GEOM","properties":{"INSPIRE_ID":"https://databrussels.be/id/building/1796927","BLOCK_ID":"https://databrussels.be/id/block/24184","AREA":167},"bbox":[154691.613,168768.69,154709.542,168783.64983421]},{"type":"Feature","id":"Buildings.fid-6d0a8ac7_1a031465927_e9f","geometry":{"type":"Polygon","coordinates":[[[154681.611,168810.292],[154681.938,168805.711],[154682.868,168805.778],[154683.231,168800.908],[154698.01,168801.76],[154700.99,168801.98],[154700.241,168812.132],[154694.064,168811.682],[154694.103,168811.185],[154681.611,168810.292]]]},"geometry_name":"GEOM","properties":{"INSPIRE_ID":"https://databrussels.be/id/building/1796929","BLOCK_ID":"https://databrussels.be/id/block/24184","AREA":178},"bbox":[154681.611,168800.908,154700.99,168812.132]},{"type":"Feature","id":"Buildings.fid-6d0a8ac7_1a031465927_ea1","geometry":{"type":"Polygon","coordinates":[[[154741.48,168831.67],[154746.23,168828.94],[154748.91,168833.59],[154744.15,168836.33],[154741.48,168831.67]]]},"geometry_name":"GEOM","properties":{"INSPIRE_ID":"https://databrussels.be/id/building/1796949","BLOCK_ID":"https://databrussels.be/id/block/24184","AREA":29},"bbox":[154741.48,168828.94,154748.91,168836.33]},{"type":"Feature","id":"Buildings.fid-6d0a8ac7_1a031465927_e7d","geometry":{"type":"Polygon","coordinates":[[[154983.9051028,168717.23500949],[154981.76037721,168720.14981522],[154974.67020131,168715.22350312],[154977.6447995,168710.98971574],[154982.4214593,168714.16994641],[154981.50107267,168715.60845899],[154983.9051028,168717.23500949]]]},"geometry_name":"GEOM","properties":{"INSPIRE_ID":"https://databrussels.be/id/building/1796952","BLOCK_ID":"https://databrussels.be/id/block/28017","AREA":41},"bbox":[154974.67020131,168710.98971574,154983.9051028,168720.14981522]},{"type":"Feature","id":"Buildings.fid-6d0a8ac7_1a031465927_e9d","geometry":{"type":"Polygon","coordinates":[[[154685.88,168793.856],[154684.405,168792.903],[154684.534,168790.203],[154686.488,168788.611],[154688.271,168788.621],[154688.30600032,168787.08400026],[154696.50327161,168787.81413189],[154700.62218731,168788.18100405],[154701.06000048,168788.2200001],[154700.87052184,168790.85911735],[154699.04728887,168790.73399142],[154698.80961722,168794.66696738],[154698.41,168794.66],[154685.88,168793.856]]]},"geometry_name":"GEOM","properties":{"INSPIRE_ID":"https://databrussels.be/id/building/1796959","BLOCK_ID":"https://databrussels.be/id/block/24184","AREA":96},"bbox":[154684.405,168787.08400026,154701.06000048,168794.66696738]},{"type":"Feature","id":"Buildings.fid-6d0a8ac7_1a031465927_e9e","geometry":{"type":"Polygon","coordinates":[[[154683.231,168800.908],[154683.276,168800.31],[154682.672,168799.487],[154682.403,168798.502],[154682.505,168797.486],[154682.965,168796.574],[154683.721,168795.888],[154683.761,168795.499],[154685.693,168795.614],[154685.88,168793.856],[154698.41,168794.66],[154698.01,168801.76],[154683.231,168800.908]]]},"geometry_name":"GEOM","properties":{"INSPIRE_ID":"https://databrussels.be/id/building/1798223","BLOCK_ID":"https://databrussels.be/id/block/24184","AREA":105},"bbox":[154682.403,168793.856,154698.41,168801.76]},{"type":"Feature","id":"Buildings.fid-6d0a8ac7_1a031465927_e9c","geometry":{"type":"Polygon","coordinates":[[[154688.30600032,168787.08400026],[154688.34,168785.58],[154690.525,168783.463],[154691.97,168780.962],[154693.92314356,168781.85643022],[154701.46157585,168782.84983548],[154704.81848614,168783.29220495],[154707.5323473,168783.64983421],[154707.59,168783.21],[154709.03,168784.87],[154708.76,168788.55],[154708.4,168788.77],[154706.33698054,168788.61541409],[154703.87026153,168788.43057822],[154701.06000048,168788.2200001],[154700.62218731,168788.18100405],[154696.50327161,168787.81413189],[154688.30600032,168787.08400026]]]},"geometry_name":"GEOM","properties":{"INSPIRE_ID":"https://databrussels.be/id/building/1799431","BLOCK_ID":"https://databrussels.be/id/block/24184","AREA":105},"bbox":[154688.30600032,168780.962,154709.03,168788.77]},{"type":"Feature","id":"Buildings.fid-6d0a8ac7_1a031465927_ea2","geometry":{"type":"Polygon","coordinates":[[[154763.67,168853.97],[154762.4,168851.91],[154765.91,168849.74],[154767.16,168851.8],[154763.67,168853.97]]]},"geometry_name":"GEOM","properties":{"INSPIRE_ID":"https://databrussels.be/id/building/1800668","BLOCK_ID":"https://databrussels.be/id/block/24184","AREA":10},"bbox":[154762.4,168849.74,154767.16,168853.97]},{"type":"Feature","id":"Buildings.fid-6d0a8ac7_1a031465927_e99","geometry":{"type":"Polygon","coordinates":[[[154509.88575064,168610.46832017],[154510.43659749,168606.45884583],[154514.69323831,168607.01497134],[154514.14225975,168611.00804844],[154509.88575064,168610.46832017]]]},"geometry_name":"GEOM","properties":{"INSPIRE_ID":"https://databrussels.be/id/building/1800669","BLOCK_ID":"https://databrussels.be/id/block/24639","AREA":17},"bbox":[154509.88575064,168606.45884583,154514.69323831,168611.00804844]},{"type":"Feature","id":"Buildings.fid-6d0a8ac7_1a031465927_e80","geometry":{"type":"MultiPolygon","coordinates":[[[[154838.3667,168754.31340035],[154832.8875,168757.44440035],[154829.6148,168751.72660035],[154832.3585,168750.15880035],[154831.3846,168748.45450035],[154834.1295,168746.88600035],[154838.3667,168754.31340035]]]]},"geometry_name":"GEOM","properties":{"INSPIRE_ID":"https://databrussels.be/id/building/1803399","BLOCK_ID":"https://databrussels.be/id/block/28017","AREA":48},"bbox":[154829.6148,168746.88600035,154838.3667,168757.44440035]},{"type":"Feature","id":"Buildings.fid-6d0a8ac7_1a031465927_e79","geometry":{"type":"Polygon","coordinates":[[[154916.303,168987.107],[154914.792,168982.828],[154918.725,168981.219],[154920.394,168985.628],[154916.303,168987.107]]]},"geometry_name":"GEOM","properties":{"INSPIRE_ID":"https://databrussels.be/id/building/1805653","BLOCK_ID":"https://databrussels.be/id/block/24184","AREA":20},"bbox":[154914.792,168981.219,154920.394,168987.107]},{"type":"Feature","id":"Buildings.fid-6d0a8ac7_1a031465927_e7a","geometry":{"type":"Polygon","coordinates":[[[154674.456,168975.645],[154688.915,168994.653],[154681.997,169000],[154678.252,169002.894],[154676.046,169000],[154663.731,168983.842],[154674.456,168975.645]]]},"geometry_name":"GEOM","properties":{"INSPIRE_ID":"https://databrussels.be/id/building/1806586","BLOCK_ID":"https://databrussels.be/id/block/26602","AREA":323},"bbox":[154663.731,168975.645,154688.915,169002.894]},{"type":"Feature","id":"Buildings.fid-6d0a8ac7_1a031465927_e8c","geometry":{"type":"Polygon","coordinates":[[[154927.6581,168861.66360035],[154924.6041,168857.31080035],[154930.4214,168853.22920035],[154933.4754,168857.58200035],[154927.6581,168861.66360035]]]},"geometry_name":"GEOM","properties":{"INSPIRE_ID":"https://databrussels.be/id/building/1829196","BLOCK_ID":"https://databrussels.be/id/block/28017","AREA":38},"bbox":[154924.6041,168853.22920035,154933.4754,168861.66360035]},{"type":"Feature","id":"Buildings.fid-6d0a8ac7_1a031465927_e96","geometry":{"type":"Polygon","coordinates":[[[154546.669,168530.07],[154543.14,168503.349],[154548.801,168502.6],[154552.33,168529.321],[154546.669,168530.07]]]},"geometry_name":"GEOM","properties":{"INSPIRE_ID":"https://databrussels.be/id/building/1829789","BLOCK_ID":null,"AREA":154},"bbox":[154543.14,168502.6,154552.33,168530.07]},{"type":"Feature","id":"Buildings.fid-6d0a8ac7_1a031465927_e98","geometry":{"type":"Polygon","coordinates":[[[154515.24250742,168586.30173164],[154515.70937853,168588.53092046],[154513.48610825,168589.01433831],[154513.0221902,168586.78430449],[154515.24250742,168586.30173164]]]},"geometry_name":"GEOM","properties":{"INSPIRE_ID":"https://databrussels.be/id/building/1829822","BLOCK_ID":null,"AREA":5},"bbox":[154513.0221902,168586.30173164,154515.70937853,168589.01433831]},{"type":"Feature","id":"Buildings.fid-6d0a8ac7_1a031465927_eac","geometry":{"type":"MultiPolygon","coordinates":[[[[154901.3429,168526.26850035],[154895.5131,168524.94930035],[154896.825,168519.15210035],[154902.6548,168520.47120035],[154901.3429,168526.26850035]]]]},"geometry_name":"GEOM","properties":{"INSPIRE_ID":"https://databrussels.be/id/building/1830309","BLOCK_ID":"https://databrussels.be/id/block/24645","AREA":36},"bbox":[154895.5131,168519.15210035,154902.6548,168526.26850035]}],"numberReturned":54,"grand_bruxelles_source":{"authority":"Paradigm / Brussels-Capital Region","service":"https://geoservices-urbis.irisnet.be/geoserver/urbisvector/wfs","layer":"urbisvector:Buildings","crs":"EPSG:31370","bbox":[154500.0,168500.0,155000.0,169000.0],"cell_id":"bxl-e154500-n168500-s500","ownership":"polygon_or_multipolygon_centroid_global_500m_cell"}}
