{"type":"FeatureCollection","totalFeatures":44,"numberMatched":44,"timeStamp":"2026-08-21T20:07:22.790Z","crs":{"type":"name","properties":{"name":"urn:ogc:def:crs:EPSG::31370"}},"bbox":[146832.5845,171629.8233,147379.26245124,172604.60525793],"features":[{"type":"Feature","id":"TramNetwork.fid--2dded296_1a0253c4aaf_-1b5a","geometry":{"type":"LineString","coordinates":[[147083.59296675,172214.34941427],[147081.9677535,172210.72774995],[147080.02972679,172206.12064504],[147078.56461023,172202.26521188],[147076.02337539,172195.22776572],[147074.72038083,172191.9366457],[147073.38687771,172188.71440269],[147071.79503608,172185.30715349],[147070.01862724,172181.38228652]]},"geometry_name":"GEOM","properties":{"INSPIRE_ID":"https://databrussels.be/id/rail/23827","TYPE":"TB","LVL":0,"SLOPE":null,"LENGTH":35.6702459412049},"bbox":[147070.01862724,172181.38228652,147083.59296675,172214.34941427]},{"type":"Feature","id":"TramNetwork.fid--2dded296_1a0253c4aaf_-1b57","geometry":{"type":"LineString","coordinates":[[147071.57868521,172181.13632712],[147073.1784658,172184.67094474],[147074.78082636,172188.10070914],[147076.13182325,172191.36522366],[147077.44766902,172194.68880339],[147079.99247759,172201.73614629],[147081.44362201,172205.55481198],[147083.36433236,172210.12075219],[147085.12725007,172214.04928045]]},"geometry_name":"GEOM","properties":{"INSPIRE_ID":"https://databrussels.be/id/rail/23828","TYPE":"TB","LVL":0,"SLOPE":null,"LENGTH":35.6102727650042},"bbox":[147071.57868521,172181.13632712,147085.12725007,172214.04928045]},{"type":"Feature","id":"TramNetwork.fid--2dded296_1a0253c4aaf_-1b72","geometry":{"type":"LineString","coordinates":[[147250.25396044,172461.17579395],[147245.07136075,172454.21671081],[147239.06080931,172445.93734562],[147231.97906161,172436.10867495],[147220.4060617,172420.08625803],[147208.8932,172404.2506],[147194.9824,172385.0063],[147188.386,172375.9637]]},"geometry_name":"GEOM","properties":{"INSPIRE_ID":"https://databrussels.be/id/rail/23886","TYPE":"TB","LVL":0,"SLOPE":null,"LENGTH":105.303973668114},"bbox":[147188.386,172375.9637,147250.25396044,172461.17579395]},{"type":"Feature","id":"TramNetwork.fid--2dded296_1a0253c4aaf_-1b71","geometry":{"type":"LineString","coordinates":[[147248.13139595,172460.85338441],[147243.85498736,172455.11111515],[147237.83745046,172446.82212767],[147230.75464114,172436.99198359],[147219.18215903,172420.97028356],[147207.676,172405.1272],[147193.7687,172385.8877],[147187.1924,172376.8727]]},"geometry_name":"GEOM","properties":{"INSPIRE_ID":"https://databrussels.be/id/rail/23887","TYPE":"TB","LVL":0,"SLOPE":null,"LENGTH":103.761604637207},"bbox":[147187.1924,172376.8727,147248.13139595,172460.85338441]},{"type":"Feature","id":"TramNetwork.fid--2dded296_1a0253c4aaf_-1b68","geometry":{"type":"LineString","coordinates":[[147097.55556262,172238.26541051],[147099.6652,172242.3637],[147103.5338,172249.8023],[147112.0454,172266.1269],[147118.9811,172279.2726],[147124.2109,172288.8287],[147127.9975,172295.3208],[147132.1913,172302.3486],[147135.1671,172307.0927],[147138.953,172312.952],[147142.8692,172318.7164],[147146.662,172324.2575],[147150.4524,172329.6179],[147157.5176,172339.4244],[147161.4877,172344.9259]]},"geometry_name":"GEOM","properties":{"INSPIRE_ID":"https://databrussels.be/id/rail/23888","TYPE":"TB","LVL":0,"SLOPE":null,"LENGTH":124.556525245297},"bbox":[147097.55556262,172238.26541051,147161.4877,172344.9259]},{"type":"Feature","id":"TramNetwork.fid--2dded296_1a0253c4aaf_-1b67","geometry":{"type":"LineString","coordinates":[[147096.27624376,172239.06097523],[147098.3266,172243.0408],[147102.2034,172250.4951],[147110.7171,172266.8236],[147117.6598,172279.9827],[147122.9048,172289.5668],[147126.7056,172296.083],[147130.9118,172303.1316],[147133.9017,172307.8983],[147137.7025,172313.7806],[147141.6299,172319.5615],[147145.4307,172325.1142],[147149.2315,172330.4894],[147156.3009,172340.3017],[147160.3015,172345.8454]]},"geometry_name":"GEOM","properties":{"INSPIRE_ID":"https://databrussels.be/id/rail/23889","TYPE":"TB","LVL":0,"SLOPE":null,"LENGTH":124.710764609027},"bbox":[147096.27624376,172239.06097523,147160.3015,172345.8454]},{"type":"Feature","id":"TramNetwork.fid--2dded296_1a0253c4aaf_-1b6a","geometry":{"type":"LineString","coordinates":[[147100.33934466,172236.53427152],[147101.26437459,172238.33823329],[147106.2526,172248.0661],[147114.2129,172262.5303],[147120.8279,172273.7476],[147125.3445,172280.8678],[147128.3192,172285.4083],[147133.4473,172292.8654],[147138.5062,172300.003],[147145.8758,172310.2664],[147150.2451,172316.3189]]},"geometry_name":"GEOM","properties":{"INSPIRE_ID":"https://databrussels.be/id/rail/23890","TYPE":"TB","LVL":0,"SLOPE":null,"LENGTH":94.2508974670979},"bbox":[147100.33934466,172236.53427152,147150.2451,172316.3189]},{"type":"Feature","id":"TramNetwork.fid--2dded296_1a0253c4aaf_-1b69","geometry":{"type":"LineString","coordinates":[[147099.06121172,172237.32909875],[147100.16503535,172239.48173529],[147104.9279,172248.7701],[147112.9095,172263.273],[147119.5482,172274.5305],[147124.0837,172281.6806],[147127.0737,172286.2444],[147132.2174,172293.7241],[147137.285,172300.8741],[147144.6585,172311.1428],[147148.9908,172317.1441]]},"geometry_name":"GEOM","properties":{"INSPIRE_ID":"https://databrussels.be/id/rail/23891","TYPE":"TB","LVL":0,"SLOPE":null,"LENGTH":94.2889345007576},"bbox":[147099.06121172,172237.32909875,147148.9908,172317.1441]},{"type":"Feature","id":"TramNetwork.fid--2dded296_1a0253c4aaf_-1b62","geometry":{"type":"LineString","coordinates":[[146832.5845,171630.4626],[146834.74,171635.14],[146839.49,171644.06],[146846.18,171656.15],[146852.94,171668.26],[146861.81,171684.17],[146869.49,171698.1],[146876.22,171710.53],[146878.1836,171714.1719],[146879.6107,171716.8694],[146881.4761,171720.522],[146882.9009,171723.4094],[146884.3412,171726.4107],[146887.8188,171733.8559],[146889.5683,171737.6616],[146891.0895,171741.0402],[146892.2637,171743.7592],[146893.1872,171746.0064],[146898.2782,171758.8785],[146899.4325,171761.8403],[146900.2523,171764.0121],[146901.573,171767.6567],[146905.361,171777.892],[146907.0997,171782.7645],[146910.3002,171791.8552],[146916.8785,171810.706],[146922.9592,171828.0665],[146930.0408,171848.4238],[146944.606,171889.7647],[146946.6645,171895.69],[146948.183,171899.9871],[146948.8488,171901.7753],[146949.4851,171903.4112],[146950.1056,171904.9415],[146950.7244,171906.4133],[146951.9595,171909.2465],[146953.0393,171911.6746],[146956.4008,171919.4272],[146960.027,171927.5119],[146964.2701,171936.9144],[146966.64,171942.0704],[146968.976,171947.056],[146972.9461,171955.3265],[146974.7133,171959.1106],[146976.3216,171962.6563],[146979.1461,171969.0817],[146980.6667,171972.578],[146982.1767,171976.1015],[146983.5716,171979.4632],[146985.1205,171983.3049],[146986.9945,171988.0453],[146987.8799,171990.3718],[146988.6,171992.38],[146992.5387,172002.6208],[146997.429,172016.287],[147004.9038,172037.6167],[147010.4023,172053.2352],[147014.5324,172065.2026],[147019.3214,172078.5139],[147022.5394,172087.1091],[147027.303,172099.4569],[147029.2541,172104.3504],[147032.0413,172111.0187],[147035.7407,172119.4111],[147039.7695,172128.3867],[147045.42,172140.2273],[147050.7664,172150.9778],[147055.606,172160.4097],[147060.2683,172169.4107],[147065.8681,172180.1864],[147070.5303,172189.2127],[147076.9663,172201.5858],[147083.59296675,172214.34941427]]},"geometry_name":"GEOM","properties":{"INSPIRE_ID":"https://databrussels.be/id/rail/23892","TYPE":"TB","LVL":0,"SLOPE":null,"LENGTH":636.804880118847},"bbox":[146832.5845,171630.4626,147083.59296675,172214.34941427]},{"type":"Feature","id":"TramNetwork.fid--2dded296_1a0253c4aaf_-1b61","geometry":{"type":"LineString","coordinates":[[146833.9717,171629.8233],[146836.09,171634.42],[146840.84,171643.33],[146847.51,171655.4],[146854.27,171667.51],[146863.15,171683.43],[146870.84,171697.37],[146877.57,171709.8],[146877.5403,171709.8181],[146879.5067,171713.4652],[146880.9416,171716.1775],[146882.8167,171719.849],[146884.2497,171722.753],[146885.6969,171725.7688],[146889.1798,171733.2252],[146890.9336,171737.0404],[146892.462,171740.4349],[146893.6461,171743.1767],[146894.5784,171745.4455],[146899.6744,171758.3303],[146900.833,171761.3031],[146901.6592,171763.4917],[146902.9815,171767.1409],[146906.7708,171777.3796],[146908.5135,171782.2634],[146911.7158,171791.359],[146918.2945,171810.211],[146924.3754,171827.5722],[146931.4566,171847.9282],[146946.0219,171889.2693],[146948.0801,171895.194],[146949.5931,171899.4755],[146950.2507,171901.2417],[146950.8792,171902.8575],[146951.4921,171904.369],[146952.1033,171905.8229],[146953.3323,171908.642],[146954.4127,171911.0715],[146957.7733,171918.8219],[146961.3949,171926.8965],[146965.6352,171936.2927],[146968.0006,171941.439],[146970.3313,171946.4132],[146974.3018,171954.6846],[146976.0759,171958.4834],[146977.6913,171962.0447],[146980.5205,171968.4808],[146982.0438,171971.9834],[146983.5588,171975.5186],[146984.96,171978.8953],[146986.5136,171982.7487],[146988.393,171987.5028],[146989.287,171989.8518],[146990.0062,171991.8575],[146993.9451,172002.0988],[146998.843,172015.7863],[147006.3191,172037.1196],[147011.8187,172052.7415],[147015.9472,172064.7041],[147020.7296,172077.997],[147023.9415,172086.5762],[147028.6994,172098.9092],[147030.6428,172103.7833],[147033.4197,172110.4269],[147037.1112,172118.8014],[147041.1308,172127.7565],[147046.7685,172139.5703],[147052.1053,172150.3014],[147056.9393,172159.7224],[147061.5997,172168.7199],[147067.1999,172179.4964],[147071.8621,172188.5224],[147078.2973,172200.8942],[147085.12725007,172214.04928045]]},"geometry_name":"GEOM","properties":{"INSPIRE_ID":"https://databrussels.be/id/rail/23893","TYPE":"TB","LVL":0,"SLOPE":null,"LENGTH":637.206033650861},"bbox":[146833.9717,171629.8233,147085.12725007,172214.04928045]},{"type":"Feature","id":"TramNetwork.fid--2dded296_1a0253c4aaf_-1b5f","geometry":{"type":"LineString","coordinates":[[146913.0782,171760.445],[146913.2317,171760.9169],[146913.7545,171762.454],[146914.3231,171764.0529],[146916.2386,171769.1474],[146917.0595,171771.3754],[146918.0829,171774.2715],[146921.5232,171784.2876],[146926.6842,171798.86],[146929.1746,171805.9599],[146933.3526,171818.1474],[146937.4736,171829.6834],[146954.4872,171877.9245],[146959.3851,171891.7054],[146962.5501,171900.8791],[146963.5787,171903.8113],[146966.9397,171913.166],[146974.5083,171934.7006],[146983.7881,171961.3474],[146991.2012,171982.5748],[146992.6033,171986.4957],[146993.1848,171988.1737],[146994.8727,171993.0241],[147000.1353,172007.721],[147010.8239,172038.0322],[147020.444,172065.6246],[147030.2339,172092.6195],[147036.6887,172109.0865],[147039.2117,172115.1457],[147041.4593,172120.3008],[147044.6205,172127.3864],[147046.9672,172132.4867],[147050.9102,172140.6309],[147057.2105,172153.3155],[147066.9865,172172.1958],[147071.57868521,172181.13632712]]},"geometry_name":"GEOM","properties":{"INSPIRE_ID":"https://databrussels.be/id/rail/23894","TYPE":"TB","LVL":0,"SLOPE":null,"LENGTH":450.005006140216},"bbox":[146913.0782,171760.445,147071.57868521,172181.13632712]},{"type":"Feature","id":"TramNetwork.fid--2dded296_1a0253c4aaf_-1b60","geometry":{"type":"LineString","coordinates":[[146911.8084,171761.3905],[146912.3377,171762.9468],[146912.9143,171764.5682],[146914.8328,171769.6706],[146915.6485,171771.8846],[146916.6664,171774.765],[146920.1069,171784.7816],[146925.2695,171799.3586],[146927.7574,171806.4514],[146931.9368,171818.6429],[146936.06,171830.1852],[146953.0732,171878.4251],[146957.9694,171892.2012],[146961.1334,171901.372],[146962.1651,171904.3132],[146965.5263,171913.6683],[146973.0924,171935.1959],[146982.3718,171961.8413],[146989.7869,171983.0746],[146991.1884,171986.9938],[146991.7678,171988.6658],[146993.4582,171993.5234],[146998.7219,172008.2233],[147009.4084,172038.5285],[147019.0307,172066.1272],[147028.8303,172093.149],[147035.2979,172109.6486],[147037.8318,172115.7338],[147040.0869,172120.9061],[147043.2542,172128.0055],[147045.6107,172133.1271],[147049.5634,172141.2913],[147055.8727,172153.9941],[147065.6533,172172.8834],[147070.01862724,172181.38228652]]},"geometry_name":"GEOM","properties":{"INSPIRE_ID":"https://databrussels.be/id/rail/23895","TYPE":"TB","LVL":0,"SLOPE":null,"LENGTH":449.244694860379},"bbox":[146911.8084,171761.3905,147070.01862724,172181.38228652]},{"type":"Feature","id":"TramNetwork.fid--2dded296_1a0253c4aaf_-1b76","geometry":{"type":"LineString","coordinates":[[147150.2451,172316.3189],[147153.6517,172321.0379],[147161.8344,172332.2679],[147171.5907,172345.6819],[147181.247,172358.9964],[147191.7792,172373.642],[147202.6424,172388.4609],[147217.0506,172408.4314],[147223.6539,172417.4684],[147231.8832,172428.7222],[147240.2365,172440.0444],[147248.0672,172450.3398],[147255.5749,172460.5681]]},"geometry_name":"GEOM","properties":{"INSPIRE_ID":"https://databrussels.be/id/rail/24024","TYPE":"TB","LVL":0,"SLOPE":null,"LENGTH":178.615666782002},"bbox":[147150.2451,172316.3189,147255.5749,172460.5681]},{"type":"Feature","id":"TramNetwork.fid--2dded296_1a0253c4aaf_-1b75","geometry":{"type":"LineString","coordinates":[[147148.9908,172317.1441],[147152.4374,172321.9186],[147158.0288,172329.5922],[147160.6217,172333.1507],[147170.377,172346.5634],[147180.031,172359.8746],[147190.5654,172374.5233],[147201.4292,172389.3432],[147215.8369,172409.3128],[147222.4429,172418.3535],[147230.6743,172429.6101],[147239.036,172440.9437],[147246.8656,172451.2377],[147254.3657,172461.4557]]},"geometry_name":"GEOM","properties":{"INSPIRE_ID":"https://databrussels.be/id/rail/24025","TYPE":"TB","LVL":0,"SLOPE":null,"LENGTH":178.692657454317},"bbox":[147148.9908,172317.1441,147254.3657,172461.4557]},{"type":"Feature","id":"TramNetwork.fid--2dded296_1a0253c4aaf_-1b73","geometry":{"type":"LineString","coordinates":[[147160.3015,172345.8454],[147164.677,172351.9087],[147171.6704,172361.5689],[147178.0152345,172370.29195314],[147188.42944123,172384.6711569],[147201.55967022,172402.76004491],[147214.81471055,172421.22771348],[147220.9677043,172430.196815],[147225.81960055,172437.39332364],[147227.88773739,172440.66381477]]},"geometry_name":"GEOM","properties":{"INSPIRE_ID":"https://databrussels.be/id/rail/24028","TYPE":"TB","LVL":0,"SLOPE":null,"LENGTH":116.453720620873},"bbox":[147160.3015,172345.8454,147227.88773739,172440.66381477]},{"type":"Feature","id":"TramNetwork.fid--2dded296_1a0253c4aaf_-1b74","geometry":{"type":"LineString","coordinates":[[147161.4877,172344.9259],[147165.8927,172351.03],[147171.5193,172358.8022],[147172.8868,172360.6911],[147179.39768661,172369.64506809],[147189.64308265,172383.79118995],[147202.77519812,172401.88267688],[147216.04186342,172420.36654199],[147222.20729574,172429.35377499],[147227.07486637,172436.57353243],[147229.15475161,172439.86260215]]},"geometry_name":"GEOM","properties":{"INSPIRE_ID":"https://databrussels.be/id/rail/24029","TYPE":"TB","LVL":0,"SLOPE":null,"LENGTH":116.596988853596},"bbox":[147161.4877,172344.9259,147229.15475161,172439.86260215]},{"type":"Feature","id":"TramNetwork.fid--2dded296_1a0253c4aaf_-1b65","geometry":{"type":"LineString","coordinates":[[147187.1924,172376.8727],[147186.8511,172376.4048],[147178.1341,172364.3351],[147176.0868,172361.5202],[147171.4793,172355.1853],[147167.8354,172349.7319],[147162.0836,172340.0054],[147154.8574,172326.9634],[147148.9908,172317.1441]]},"geometry_name":"GEOM","properties":{"INSPIRE_ID":"https://databrussels.be/id/rail/24030","TYPE":"TB","LVL":0,"SLOPE":null,"LENGTH":70.9886192602211},"bbox":[147148.9908,172317.1441,147187.1924,172376.8727]},{"type":"Feature","id":"TramNetwork.fid--2dded296_1a0253c4aaf_-1b66","geometry":{"type":"LineString","coordinates":[[147188.386,172375.9637],[147188.065,172375.5237],[147179.3486,172363.4548],[147172.71,172354.3271],[147169.1056,172348.9329],[147163.3854,172339.26],[147158.0288,172329.5922],[147156.1576,172326.215],[147150.2451,172316.3189]]},"geometry_name":"GEOM","properties":{"INSPIRE_ID":"https://databrussels.be/id/rail/24031","TYPE":"TB","LVL":0,"SLOPE":null,"LENGTH":70.8851953756391},"bbox":[147150.2451,172316.3189,147188.386,172375.9637]},{"type":"Feature","id":"TramNetwork.fid--2dded296_1a0253c4aaf_-1b63","geometry":{"type":"LineString","coordinates":[[147160.3015,172345.8454],[147167.3121,172354.2761],[147171.5193,172358.8022],[147173.7227,172361.1726],[147179.3479,172367.2577],[147187.1924,172376.8727]]},"geometry_name":"GEOM","properties":{"INSPIRE_ID":"https://databrussels.be/id/rail/24032","TYPE":"TB","LVL":0,"SLOPE":null,"LENGTH":41.0763985057457},"bbox":[147160.3015,172345.8454,147187.1924,172376.8727]},{"type":"Feature","id":"TramNetwork.fid--2dded296_1a0253c4aaf_-1b64","geometry":{"type":"LineString","coordinates":[[147161.4877,172344.9259],[147168.439,172353.2852],[147174.8228,172360.1529],[147176.0868,172361.5202],[147180.4808,172366.2736],[147188.386,172375.9637]]},"geometry_name":"GEOM","properties":{"INSPIRE_ID":"https://databrussels.be/id/rail/24033","TYPE":"TB","LVL":0,"SLOPE":null,"LENGTH":41.0892128945439},"bbox":[147161.4877,172344.9259,147188.386,172375.9637]},{"type":"Feature","id":"TramNetwork.fid--2dded296_1a0253c4aaf_-1b5e","geometry":{"type":"LineString","coordinates":[[147097.3350472,172220.33952293],[147093.94893108,172213.9905073],[147089.73479197,172206.05373672],[147083.65629851,172194.17085799],[147081.25466282,172189.30314763],[147077.39470615,172181.31536462],[147075.34154551,172177.10127832],[147072.13742356,172170.40742241],[147070.16777407,172165.95551051],[147067.41608358,172159.94032308],[147064.23781909,172152.85969763],[147060.77668328,172145.03680194],[147057.07012404,172136.31863299],[147052.81954698,172126.16046288],[147049.62353166,172118.16572968],[147046.32276181,172109.94409147],[147042.66843433,172100.45132048],[147039.49112745,172091.96766873],[147035.82257376,172082.11471215],[147031.59397766,172070.40462543],[147028.10339418,172060.80426823],[147024.31503006,172050.23975311],[147020.78777348,172040.51214929],[147017.99604947,172032.51855932],[147015.17284859,172024.41243994],[147012.28069095,172016.16933197],[147008.31443726,172005.00110374],[147005.26139462,171995.99460274],[147001.79147084,171986.03462898],[146998.42533019,171976.42145719],[146994.51386704,171965.34709168],[146991.30368705,171956.11459519],[146987.48143686,171945.18495719],[146984.2832526,171936.09782929],[146981.23006907,171927.51228887],[146977.96800112,171918.0537525],[146975.44075014,171910.94168257],[146972.37223699,171901.83600196],[146969.85096718,171894.79332126],[146967.46447941,171888.06860148],[146964.30671281,171879.09878544],[146961.48133043,171871.03908025],[146958.90529958,171863.55192713],[146956.68020033,171857.36356834],[146955.50666095,171854.04333476]]},"geometry_name":"GEOM","properties":{"INSPIRE_ID":"https://databrussels.be/id/rail/24172","TYPE":"RW","LVL":0,"SLOPE":null,"LENGTH":393.238979871045},"bbox":[146955.50666095,171854.04333476,147097.3350472,172220.33952293]},{"type":"Feature","id":"TramNetwork.fid--2dded296_1a0253c4aaf_-1b5d","geometry":{"type":"LineString","coordinates":[[147098.75262915,172219.71922647],[147095.31081911,172213.26578396],[147091.1028738,172205.34067856],[147085.03483909,172193.47824569],[147082.64094678,172188.62622988],[147078.78265881,172180.64190006],[147076.73075112,172176.43038543],[147073.53889471,172169.76215393],[147071.57467538,172165.3225156],[147068.82126079,172159.30355927],[147065.64694205,172152.23172429],[147062.19202056,172144.42287425],[147058.49157164,172135.71907734],[147054.24745488,172125.57634628],[147051.05559847,172117.59201646],[147047.75851603,172109.37956293],[147044.11068013,172099.90365502],[147040.9363614,172091.42798182],[147037.27098783,172081.58356638],[147033.04440874,172069.8790653],[147029.5544119,172060.28032154],[147025.76627462,172049.71643901],[147022.24120243,172039.99485941],[147019.45271249,172032.01052959],[147016.62914721,172023.90336393],[147013.73543123,172015.65581445],[147009.77191723,172004.49530068],[147006.7203622,171995.49318816],[147003.24790303,171985.52593687],[146999.8806699,171975.90964513],[146995.96976891,171964.83687125],[146992.76037483,171955.60663502],[146988.93716221,171944.67424496],[146985.73763307,171935.5832958],[146982.68607804,171927.00233475],[146979.42407095,171917.54397481],[146976.89864609,171910.43704387],[146973.82955339,171901.32964348],[146971.30412854,171894.27535648],[146968.91900507,171887.55448105],[146965.76222401,171878.58746448],[146962.93865873,171870.53294275],[146960.36062086,171863.03995631],[146958.13333644,171856.84552021],[146957.01005742,171853.66748565]]},"geometry_name":"GEOM","properties":{"INSPIRE_ID":"https://databrussels.be/id/rail/24173","TYPE":"RW","LVL":0,"SLOPE":null,"LENGTH":392.980380324257},"bbox":[146957.01005742,171853.66748565,147098.75262915,172219.71922647]},{"type":"Feature","id":"TramNetwork.fid--2dded296_1a0253c4aaf_-1b79","geometry":{"type":"LineString","coordinates":[[147106.27796167,172229.10248764],[147109.80520361,172235.37846537],[147112.96198468,172240.90607832],[147117.52177955,172248.64473645],[147123.02860874,172257.8574247],[147128.51790025,172266.91218116],[147133.69151366,172275.08953873],[147137.81286672,172281.5471945],[147139.51055148,172284.22813052],[147141.17663037,172286.77258727],[147149.45441183,172299.3018433],[147153.4354635,172305.16286782],[147158.6792276,172312.79623809],[147162.25691281,172317.95534351],[147169.04399209,172327.46634738],[147176.90086941,172338.36364148],[147183.40734593,172347.17272625],[147191.05377117,172357.45584114],[147201.08531989,172370.75720818],[147206.0660189,172377.28505585],[147214.58932777,172388.42802164],[147223.72645518,172400.43083834],[147232.23037178,172411.67807761],[147240.99980953,172423.17602622],[147249.15356322,172433.82066251],[147258.84838344,172446.53058695],[147266.65491396,172456.74645976]]},"geometry_name":"GEOM","properties":{"INSPIRE_ID":"https://databrussels.be/id/rail/24492","TYPE":"RW","LVL":0,"SLOPE":null,"LENGTH":278.743249060406},"bbox":[147106.27796167,172229.10248764,147266.65491396,172456.74645976]},{"type":"Feature","id":"TramNetwork.fid--2dded296_1a0253c4aaf_-1b7a","geometry":{"type":"LineString","coordinates":[[147107.41538901,172228.04120607],[147111.12033865,172234.63337689],[147114.26946226,172240.14758142],[147118.82163519,172247.87330397],[147124.32360478,172257.07786233],[147129.80296772,172266.11624128],[147134.96726551,172274.27887469],[147139.08845372,172280.73627217],[147140.77525363,172283.40001914],[147142.43963061,172285.94187671],[147150.71036044,172298.46045938],[147154.68373702,172304.3101844],[147159.92336164,172311.93752881],[147163.4933447,172317.08552756],[147170.27236863,172326.58524314],[147178.12200766,172337.47249792],[147184.62187867,172346.27263952],[147192.26379559,172356.5496915],[147202.28971067,172369.8435886],[147207.26728969,172376.36734712],[147215.79110516,172387.51097521],[147224.92952997,172399.51549622],[147233.41935791,172410.74815534],[147242.24461661,172422.31312538],[147250.4326603,172432.99725644],[147260.06946661,172445.63626981],[147268.08440431,172456.14900798]]},"geometry_name":"GEOM","properties":{"INSPIRE_ID":"https://databrussels.be/id/rail/24493","TYPE":"RW","LVL":0,"SLOPE":null,"LENGTH":279.292061105886},"bbox":[147107.41538901,172228.04120607,147268.08440431,172456.14900798]},{"type":"Feature","id":"TramNetwork.fid--2dded296_1a0253c4aaf_-1b5b","geometry":{"type":"LineString","coordinates":[[146961.26940532,171852.60264867],[146964.32395823,171861.55246023],[146968.44286072,171873.14477652],[146972.77620579,171885.45028184],[146976.77615358,171896.93055807],[146980.23010589,171906.91255637],[146984.3164579,171918.49443219],[146987.86073426,171928.74727195],[146991.85810531,171940.32540848],[146995.9439144,171951.95838339],[146999.80335628,171963.06957529],[147003.89005127,171974.88057022],[147007.66026297,171985.79428945],[147011.27172575,171996.17896048],[147015.11360964,172007.11457724],[147018.67415277,172017.50413434],[147022.91596028,172029.64072764],[147027.05503063,172041.36328542],[147030.98242461,172052.62609119],[147035.04820289,172063.98890332],[147039.32543169,172075.81081382],[147043.56674034,172087.38481606],[147048.15791942,172099.6585328],[147052.69427815,172111.52308658],[147057.52814383,172123.63237597],[147062.4838465,172135.739806],[147067.10669989,172146.4977599],[147072.08013543,172157.86978905],[147076.6482428,172167.83446492],[147082.16483649,172179.50497365],[147086.13968641,172187.65207177],[147090.0287378,172195.49609482],[147094.24326205,172203.86010447],[147098.96903043,172212.59915656],[147102.02444259,172218.28756723]]},"geometry_name":"GEOM","properties":{"INSPIRE_ID":"https://databrussels.be/id/rail/24767","TYPE":"RW","LVL":0,"SLOPE":null,"LENGTH":392.288796631567},"bbox":[146961.26940532,171852.60264867,147102.02444259,172218.28756723]},{"type":"Feature","id":"TramNetwork.fid--2dded296_1a0253c4aaf_-1b5c","geometry":{"type":"LineString","coordinates":[[146959.79783081,171852.9705423],[146962.89650488,171862.04962843],[146967.01785793,171873.64884164],[146971.34966306,171885.94997395],[146975.3482524,171897.42635132],[146978.8031739,171907.41115059],[146982.88945161,171918.99281582],[146986.43206147,171929.24083475],[146990.43065082,171940.82249998],[146994.51692853,171952.45680915],[146998.3752165,171963.56467898],[147002.4614942,171975.37446792],[147006.23209381,171986.28931],[147009.84485436,171996.67771275],[147013.68560465,172007.61010281],[147017.24575219,172017.99850557],[147021.48986895,172030.14170608],[147025.62875968,172041.86375514],[147029.55719833,172053.12955677],[147033.62593837,172064.50064627],[147037.90513048,172076.32798319],[147042.14924724,172087.90964842],[147046.74411746,172100.19323275],[147051.28637465,172112.07321361],[147056.12677228,172124.19886614],[147061.08993362,172136.32451868],[147065.71987918,172147.09897694],[147070.70057819,172158.48761442],[147075.27791074,172168.47241369],[147080.8022776,172180.15936678],[147084.78332927,172188.31917638],[147088.67669258,172196.17189636],[147092.90327167,172204.55982967],[147097.63844327,172213.3162705],[147100.63519288,172218.89546625]]},"geometry_name":"GEOM","properties":{"INSPIRE_ID":"https://databrussels.be/id/rail/25366","TYPE":"RW","LVL":0,"SLOPE":null,"LENGTH":392.54200903432},"bbox":[146959.79783081,171852.9705423,147100.63519288,172218.89546625]},{"type":"Feature","id":"TramNetwork.fid--2dded296_1a0253c4aaf_-1b51","geometry":{"type":"LineString","coordinates":[[147104.6742627,172230.59882601],[147102.80788885,172227.31184404],[147098.75262915,172219.71922647]]},"geometry_name":"GEOM","properties":{"INSPIRE_ID":"https://databrussels.be/id/rail/28145","TYPE":"RW","LVL":1,"SLOPE":null,"LENGTH":12.3876219315355},"bbox":[147098.75262915,172219.71922647,147104.6742627,172230.59882601]},{"type":"Feature","id":"TramNetwork.fid--2dded296_1a0253c4aaf_-1b6d","geometry":{"type":"LineString","coordinates":[[147263.24433432,172458.18698251],[147375.33969031,172604.60525793]]},"geometry_name":"GEOM","properties":{"INSPIRE_ID":"https://databrussels.be/id/rail/28474","TYPE":"RW","LVL":-1,"SLOPE":null,"LENGTH":184.400868244965},"bbox":[147263.24433432,172458.18698251,147375.33969031,172604.60525793]},{"type":"Feature","id":"TramNetwork.fid--2dded296_1a0253c4aaf_-1b6e","geometry":{"type":"LineString","coordinates":[[147264.68961604,172457.56283758],[147376.48738137,172603.69679147]]},"geometry_name":"GEOM","properties":{"INSPIRE_ID":"https://databrussels.be/id/rail/28552","TYPE":"RW","LVL":-1,"SLOPE":null,"LENGTH":183.994219509046},"bbox":[147264.68961604,172457.56283758,147376.48738137,172603.69679147]},{"type":"Feature","id":"TramNetwork.fid--2dded296_1a0253c4aaf_-1b70","geometry":{"type":"LineString","coordinates":[[147268.08440431,172456.14900798],[147379.26245124,172601.50015688]]},"geometry_name":"GEOM","properties":{"INSPIRE_ID":"https://databrussels.be/id/rail/28561","TYPE":"RW","LVL":-1,"SLOPE":null,"LENGTH":182.995941506446},"bbox":[147268.08440431,172456.14900798,147379.26245124,172601.50015688]},{"type":"Feature","id":"TramNetwork.fid--2dded296_1a0253c4aaf_-1b6f","geometry":{"type":"LineString","coordinates":[[147266.65491396,172456.74645976],[147378.0769653,172602.43854026]]},"geometry_name":"GEOM","properties":{"INSPIRE_ID":"https://databrussels.be/id/rail/28564","TYPE":"RW","LVL":-1,"SLOPE":null,"LENGTH":183.414982605754},"bbox":[147266.65491396,172456.74645976,147378.0769653,172602.43854026]},{"type":"Feature","id":"TramNetwork.fid--2dded296_1a0253c4aaf_-1b77","geometry":{"type":"LineString","coordinates":[[147103.52158298,172231.67433889],[147104.49236832,172233.4514558],[147105.96255246,172236.04063829],[147108.43066682,172240.3167448],[147111.10819695,172245.00121948],[147113.18739632,172248.5632162],[147116.0294674,172253.41232098],[147120.0682,172260.14718873],[147123.55347664,172265.92420862],[147127.57725097,172272.4794799],[147131.54119222,172278.81025559],[147136.53725402,172286.59276943],[147141.33885832,172293.98615759],[147146.06567129,172301.12137581],[147149.52103139,172306.26980805],[147154.60684281,172313.73802806],[147160.51535901,172322.17906231],[147166.30420906,172330.35070185],[147171.16564644,172337.0855696],[147175.83262633,172343.43131166],[147179.91623373,172348.96886959],[147184.29900651,172354.89555321],[147190.4019802,172363.02229363],[147196.35537121,172370.90957209],[147201.51597397,172377.67437258],[147207.02061691,172384.91809701],[147212.06155352,172391.48833466],[147218.05981934,172399.330714],[147223.53454574,172406.42477469],[147230.23585019,172415.18010277],[147235.26182853,172421.72040768],[147241.6190928,172430.02674457],[147246.83952863,172436.85141056],[147251.11759353,172442.47876672],[147255.75465688,172448.48028221],[147259.64380678,172453.47905072],[147263.24433432,172458.18698251]]},"geometry_name":"GEOM","properties":{"INSPIRE_ID":"https://databrussels.be/id/rail/28879","TYPE":"RW","LVL":0,"SLOPE":null,"LENGTH":277.459657096777},"bbox":[147103.52158298,172231.67433889,147263.24433432,172458.18698251]},{"type":"Feature","id":"TramNetwork.fid--2dded296_1a0253c4aaf_-1b78","geometry":{"type":"LineString","coordinates":[[147264.68961604,172457.56283758],[147260.85304816,172452.54626717],[147256.96157878,172447.54451742],[147252.32973557,172441.54975809],[147248.05391076,172435.92534852],[147242.83197194,172429.09871769],[147236.47367709,172420.79103424],[147231.4476852,172414.25071171],[147224.74542767,172405.49413843],[147219.27086149,172398.40028534],[147213.27390562,172390.55961868],[147208.23441938,172383.9912714],[147202.73105206,172376.74922561],[147197.57195314,172369.98639643],[147191.62203863,172362.10372377],[147185.52357047,172353.98298294],[147181.14475285,172348.06164776],[147177.06233365,172342.52570108],[147172.39996161,172336.18622435],[147167.54646961,172329.46236385],[147161.7640281,172321.29977073],[147155.86360859,172312.87030359],[147150.78622609,172305.41446095],[147147.3362999,172300.27412516],[147142.61586039,172293.14852778],[147137.82023838,172285.76435101],[147132.83101113,172277.99248356],[147128.875248,172271.67476908],[147124.85809476,172265.13028443],[147121.37689705,172259.36002558],[147117.34315373,172252.63347779],[147114.5056464,172247.79215963],[147112.43063566,172244.23733869],[147109.75495636,172239.55610214],[147107.28792484,172235.2818717],[147105.82660195,172232.70829499],[147104.6742627,172230.59882601]]},"geometry_name":"GEOM","properties":{"INSPIRE_ID":"https://databrussels.be/id/rail/28880","TYPE":"RW","LVL":0,"SLOPE":null,"LENGTH":277.999598717809},"bbox":[147104.6742627,172230.59882601,147264.68961604,172457.56283758]},{"type":"Feature","id":"TramNetwork.fid--2dded296_1a0253c4aaf_-1b52","geometry":{"type":"LineString","coordinates":[[147103.52158298,172231.67433889],[147101.4817934,172227.95818329],[147097.3350472,172220.33952293]]},"geometry_name":"GEOM","properties":{"INSPIRE_ID":"https://databrussels.be/id/rail/28886","TYPE":"RW","LVL":1,"SLOPE":null,"LENGTH":12.9132389883882},"bbox":[147097.3350472,172220.33952293,147103.52158298,172231.67433889]},{"type":"Feature","id":"TramNetwork.fid--2dded296_1a0253c4aaf_-1b4f","geometry":{"type":"LineString","coordinates":[[147102.02444259,172218.28756723],[147103.24380312,172220.55771054],[147106.93283789,172227.18260886],[147107.41538901,172228.04120607]]},"geometry_name":"GEOM","properties":{"INSPIRE_ID":"https://databrussels.be/id/rail/29222","TYPE":"RW","LVL":1,"SLOPE":null,"LENGTH":11.1445644639248},"bbox":[147102.02444259,172218.28756723,147107.41538901,172228.04120607]},{"type":"Feature","id":"TramNetwork.fid--2dded296_1a0253c4aaf_-1b50","geometry":{"type":"LineString","coordinates":[[147100.63519288,172218.89546625],[147101.91763538,172221.28305234],[147105.61369987,172227.92057488],[147106.27796167,172229.10248764]]},"geometry_name":"GEOM","properties":{"INSPIRE_ID":"https://databrussels.be/id/rail/29223","TYPE":"RW","LVL":1,"SLOPE":null,"LENGTH":11.663205812359},"bbox":[147100.63519288,172218.89546625,147106.27796167,172229.10248764]},{"type":"Feature","id":"TramNetwork.fid--2dded296_1a0253c4aaf_-1b56","geometry":{"type":"LineString","coordinates":[[147088.46552168,172223.86970956],[147085.7334,172218.4721],[147083.59296675,172214.34941427]]},"geometry_name":"GEOM","properties":{"INSPIRE_ID":"https://databrussels.be/id/rail/29419","TYPE":"TB","LVL":0,"SLOPE":null,"LENGTH":10.6948958599595},"bbox":[147083.59296675,172214.34941427,147088.46552168,172223.86970956]},{"type":"Feature","id":"TramNetwork.fid--2dded296_1a0253c4aaf_-1b55","geometry":{"type":"LineString","coordinates":[[147089.74359499,172223.07497313],[147087.0617,172217.7752],[147085.12725007,172214.04928045]]},"geometry_name":"GEOM","properties":{"INSPIRE_ID":"https://databrussels.be/id/rail/29420","TYPE":"TB","LVL":0,"SLOPE":null,"LENGTH":10.1378731394031},"bbox":[147085.12725007,172214.04928045,147089.74359499,172223.07497313]},{"type":"Feature","id":"TramNetwork.fid--2dded296_1a0253c4aaf_-1b59","geometry":{"type":"LineString","coordinates":[[147091.1810959,172222.18110081],[147089.1674,172218.3191],[147080.679,172202.1174],[147072.6467,172186.4989],[147070.01862724,172181.38228652]]},"geometry_name":"GEOM","properties":{"INSPIRE_ID":"https://databrussels.be/id/rail/29421","TYPE":"TB","LVL":0,"SLOPE":null,"LENGTH":45.961097187284},"bbox":[147070.01862724,172181.38228652,147091.1810959,172222.18110081]},{"type":"Feature","id":"TramNetwork.fid--2dded296_1a0253c4aaf_-1b58","geometry":{"type":"LineString","coordinates":[[147071.57868521,172181.13632712],[147073.9809,172185.8132],[147082.0104,172201.4263],[147090.4968,172217.6243],[147092.45856164,172221.38674217]]},"geometry_name":"GEOM","properties":{"INSPIRE_ID":"https://databrussels.be/id/rail/29422","TYPE":"TB","LVL":0,"SLOPE":null,"LENGTH":45.3441669468091},"bbox":[147071.57868521,172181.13632712,147092.45856164,172221.38674217]},{"type":"Feature","id":"TramNetwork.fid--2dded296_1a0253c4aaf_-1b6b","geometry":{"type":"LineString","coordinates":[[147088.46552168,172223.86970956],[147089.79032413,172226.48700381],[147094.26698335,172235.16091915],[147096.27624376,172239.06097523]]},"geometry_name":"GEOM","properties":{"INSPIRE_ID":"https://databrussels.be/id/rail/29423","TYPE":"TB","LVL":1,"SLOPE":null,"LENGTH":17.0816974652682},"bbox":[147088.46552168,172223.86970956,147096.27624376,172239.06097523]},{"type":"Feature","id":"TramNetwork.fid--2dded296_1a0253c4aaf_-1b6c","geometry":{"type":"LineString","coordinates":[[147089.74359499,172223.07497313],[147091.09372413,172225.74300381],[147095.53168336,172234.33371915],[147097.55556262,172238.26541051]]},"geometry_name":"GEOM","properties":{"INSPIRE_ID":"https://databrussels.be/id/rail/29424","TYPE":"TB","LVL":1,"SLOPE":null,"LENGTH":17.081539024162},"bbox":[147089.74359499,172223.07497313,147097.55556262,172238.26541051]},{"type":"Feature","id":"TramNetwork.fid--2dded296_1a0253c4aaf_-1b54","geometry":{"type":"LineString","coordinates":[[147091.1810959,172222.18110081],[147092.4097,172224.5374],[147097.389,172234.0872],[147097.9852,172235.2307],[147099.06121172,172237.32909875]]},"geometry_name":"GEOM","properties":{"INSPIRE_ID":"https://databrussels.be/id/rail/29425","TYPE":"TB","LVL":1,"SLOPE":null,"LENGTH":17.0751185809469},"bbox":[147091.1810959,172222.18110081,147099.06121172,172237.32909875]},{"type":"Feature","id":"TramNetwork.fid--2dded296_1a0253c4aaf_-1b53","geometry":{"type":"LineString","coordinates":[[147092.45856164,172221.38674217],[147093.7132,172223.793],[147099.3176,172234.5417],[147100.33934466,172236.53427152]]},"geometry_name":"GEOM","properties":{"INSPIRE_ID":"https://databrussels.be/id/rail/29426","TYPE":"TB","LVL":1,"SLOPE":null,"LENGTH":17.07500879605},"bbox":[147092.45856164,172221.38674217,147100.33934466,172236.53427152]}],"numberReturned":44,"grand_bruxelles_source":{"authority":"Paradigm / Brussels-Capital Region","service":"https://geoservices-urbis.irisnet.be/geoserver/urbisvector/wfs","layer":"urbisvector:TramNetwork","crs":"EPSG:31370","bbox":[147000.0,172000.0,147500.0,172500.0],"cell_id":"bxl-e147000-n172000-s500","ownership":"bbox_intersection_source_unclipped"}}
