{"type":"FeatureCollection","totalFeatures":84,"numberMatched":84,"timeStamp":"2026-08-24T01:21:22.342Z","crs":{"type":"name","properties":{"name":"urn:ogc:def:crs:EPSG::31370"}},"bbox":[150473.87,165480.359,150905.14,166009.84631884],"features":[{"type":"Feature","id":"Buildings.fid--324554a4_1a031387ba0_df2","geometry":{"type":"Polygon","coordinates":[[[150602.93,165526.93],[150603.49,165530.43],[150600.45,165530.92],[150599.89,165527.41],[150602.93,165526.93]]]},"geometry_name":"GEOM","properties":{"INSPIRE_ID":"https://databrussels.be/id/building/1585400","BLOCK_ID":"https://databrussels.be/id/block/30719","AREA":11},"bbox":[150599.89,165526.93,150603.49,165530.92]},{"type":"Feature","id":"Buildings.fid--324554a4_1a031387ba0_e36","geometry":{"type":"Polygon","coordinates":[[[150503.19,165535.89],[150504.76,165533.01],[150507.25,165534.38],[150507.77,165536.54],[150505.25,165537.09],[150503.19,165535.89]]]},"geometry_name":"GEOM","properties":{"INSPIRE_ID":"https://databrussels.be/id/building/1585401","BLOCK_ID":"https://databrussels.be/id/block/30818","AREA":12},"bbox":[150503.19,165533.01,150507.77,165537.09]},{"type":"Feature","id":"Buildings.fid--324554a4_1a031387ba0_df0","geometry":{"type":"Polygon","coordinates":[[[150584.95,165517.78],[150581.29,165518.47],[150580.65,165515.09],[150584.32,165514.4],[150584.95,165517.78]]]},"geometry_name":"GEOM","properties":{"INSPIRE_ID":"https://databrussels.be/id/building/1585403","BLOCK_ID":"https://databrussels.be/id/block/30719","AREA":13},"bbox":[150580.65,165514.4,150584.95,165518.47]},{"type":"Feature","id":"Buildings.fid--324554a4_1a031387ba0_e38","geometry":{"type":"Polygon","coordinates":[[[150499.58,165538.53],[150500.74,165538.2],[150500.7,165538.03],[150504.85,165537.18],[150505.54,165540.15],[150500.24,165541.37],[150499.58,165538.53]]]},"geometry_name":"GEOM","properties":{"INSPIRE_ID":"https://databrussels.be/id/building/1585405","BLOCK_ID":"https://databrussels.be/id/block/30818","AREA":17},"bbox":[150499.58,165537.18,150505.54,165541.37]},{"type":"Feature","id":"Buildings.fid--324554a4_1a031387ba0_e33","geometry":{"type":"Polygon","coordinates":[[[150559.67,165523.84],[150566.5,165522.26],[150568.88,165533.41],[150561.915,165534.865],[150559.67,165523.84]]]},"geometry_name":"GEOM","properties":{"INSPIRE_ID":"https://databrussels.be/id/building/1587506","BLOCK_ID":"https://databrussels.be/id/block/30719","AREA":80},"bbox":[150559.67,165522.26,150568.88,165534.865]},{"type":"Feature","id":"Buildings.fid--324554a4_1a031387ba0_e3b","geometry":{"type":"Polygon","coordinates":[[[150546.8,165570.332],[150549.397,165582.761],[150538.634,165585.037],[150537.74,165580.41],[150535.1,165580.92],[150534.47,165577.65],[150534.21,165576.31],[150536.88,165575.79],[150536.246,165572.513],[150546.8,165570.332]]]},"geometry_name":"GEOM","properties":{"INSPIRE_ID":"https://databrussels.be/id/building/1588540","BLOCK_ID":"https://databrussels.be/id/block/30818","AREA":151},"bbox":[150534.21,165570.332,150549.397,165585.037]},{"type":"Feature","id":"Buildings.fid--324554a4_1a031387ba0_e03","geometry":{"type":"Polygon","coordinates":[[[150633.99,165602.64],[150636.78,165603],[150642.501,165603.735],[150641.769,165609.09],[150646.039,165609.556],[150644.297,165620.225],[150634.76,165619.18],[150630.09,165618.72],[150630.61,165613.44],[150631.94,165612.42],[150632.38,165607.93],[150633.46,165608.04],[150633.99,165602.64]]]},"geometry_name":"GEOM","properties":{"INSPIRE_ID":"https://databrussels.be/id/building/1589305","BLOCK_ID":"https://databrussels.be/id/block/30719","AREA":199},"bbox":[150630.09,165602.64,150646.039,165620.225]},{"type":"Feature","id":"Buildings.fid--324554a4_1a031387ba0_ded","geometry":{"type":"Polygon","coordinates":[[[150567.861,165573.629],[150571.25,165573.02],[150576.39,165572.04],[150578.37,165582.77],[150578.04,165582.83],[150578.35,165584.49],[150578.87,165584.39],[150579.45,165587.57],[150579.48,165587.71],[150580.29,165592.11],[150581.77,165591.84],[150582.92,165598.09],[150583.31,165598.04],[150583.92,165598.15],[150584.69,165598.3],[150585.49,165599],[150585.6,165599.59],[150585.68,165600.04],[150591.24,165600.57],[150591.11,165601.87],[150594.14,165602.16],[150593.34,165610.55],[150585.13,165609.93],[150583.07,165609.78],[150575.33,165611.3],[150570.61,165587.23],[150569.65,165582.09],[150567.861,165573.629]]]},"geometry_name":"GEOM","properties":{"INSPIRE_ID":"https://databrussels.be/id/building/1590338","BLOCK_ID":"https://databrussels.be/id/block/30719","AREA":448},"bbox":[150567.861,165572.04,150594.14,165611.3]},{"type":"Feature","id":"Buildings.fid--324554a4_1a031387ba0_def","geometry":{"type":"Polygon","coordinates":[[[150571.11724866,165543.24112184],[150578.415,165541.717],[150578.656,165542.858],[150583.227,165541.877],[150585.492,165552.377],[150581.193,165553.307],[150581.273,165553.685],[150573.5964129,165555.28381229],[150571.11724866,165543.24112184]]]},"geometry_name":"GEOM","properties":{"INSPIRE_ID":"https://databrussels.be/id/building/1591555","BLOCK_ID":"https://databrussels.be/id/block/30719","AREA":143},"bbox":[150571.11724866,165541.717,150585.492,165555.28381229]},{"type":"Feature","id":"Buildings.fid--324554a4_1a031387ba0_df1","geometry":{"type":"Polygon","coordinates":[[[150598.52,165529.36],[150595.6,165529.86],[150594.84,165527.04],[150598.03,165526.5],[150598.52,165529.36]]]},"geometry_name":"GEOM","properties":{"INSPIRE_ID":"https://databrussels.be/id/building/1593648","BLOCK_ID":"https://databrussels.be/id/block/30719","AREA":9},"bbox":[150594.84,165526.5,150598.52,165529.86]},{"type":"Feature","id":"Buildings.fid--324554a4_1a031387ba0_e01","geometry":{"type":"Polygon","coordinates":[[[150623.801,165728.579],[150622.85,165733.273],[150625.487,165733.64],[150624.793,165737.42],[150608.924,165734.732],[150609.926,165729.505],[150611.334,165729.766],[150612.075,165726.479],[150623.801,165728.579]]]},"geometry_name":"GEOM","properties":{"INSPIRE_ID":"https://databrussels.be/id/building/1658124","BLOCK_ID":"https://databrussels.be/id/block/30700","AREA":121},"bbox":[150608.924,165726.479,150625.487,165737.42]},{"type":"Feature","id":"Buildings.fid--324554a4_1a031387ba0_dff","geometry":{"type":"Polygon","coordinates":[[[150580.33,165711.8],[150580.83,165709.21],[150576.37,165708.39],[150577.71,165699.5],[150576.86,165699.34],[150577.44,165696.05],[150578.26,165696.19],[150578.94,165691.6],[150587.15,165693.01],[150586.72,165696.79],[150587,165696.82],[150587.28,165696.86],[150587.55,165696.92],[150587.7,165696.98],[150587.86,165697.05],[150588.01,165697.13],[150588.22,165697.24],[150588.43,165697.36],[150588.64,165697.49],[150588.86,165697.67],[150589.07,165697.87],[150589.27,165698.08],[150589.45,165698.27],[150589.63,165698.48],[150589.8,165698.69],[150589.94,165698.86],[150590.07,165699.04],[150590.19,165699.23],[150590.31,165699.44],[150590.43,165699.66],[150590.53,165699.88],[150590.6,165700.07],[150590.66,165700.27],[150590.71,165700.47],[150590.76,165700.72],[150590.8,165700.98],[150590.83,165701.24],[150590.84,165701.74],[150590.83,165702.24],[150590.81,165702.74],[150594.13,165703.32],[150592.75,165711.17],[150589.06,165710.52],[150588.58,165713.25],[150580.33,165711.8]]]},"geometry_name":"GEOM","properties":{"INSPIRE_ID":"https://databrussels.be/id/building/1731004","BLOCK_ID":"https://databrussels.be/id/block/30700","AREA":255},"bbox":[150576.37,165691.6,150594.13,165713.25]},{"type":"Feature","id":"Buildings.fid--324554a4_1a031387ba0_e14","geometry":{"type":"Polygon","coordinates":[[[150594.412,165958.644],[150595.421,165956.805],[150583.005,165949.427],[150587.713,165941.387],[150595.907,165946.313],[150597.078,165944.511],[150601.172,165946.868],[150608.097,165951.241],[150601.653,165962.849],[150594.412,165958.644]]]},"geometry_name":"GEOM","properties":{"INSPIRE_ID":"https://databrussels.be/id/building/1731005","BLOCK_ID":"https://databrussels.be/id/block/25565","AREA":256},"bbox":[150583.005,165941.387,150608.097,165962.849]},{"type":"Feature","id":"Buildings.fid--324554a4_1a031387ba0_e0c","geometry":{"type":"Polygon","coordinates":[[[150589.48,165869.42],[150595.525,165869.959],[150593.55,165876.45],[150588.11,165874.99],[150589.39,165869.77],[150589.48,165869.42]]]},"geometry_name":"GEOM","properties":{"INSPIRE_ID":"https://databrussels.be/id/building/1736510","BLOCK_ID":"https://databrussels.be/id/block/30704","AREA":36},"bbox":[150588.11,165869.42,150595.525,165876.45]},{"type":"Feature","id":"Buildings.fid--324554a4_1a031387ba0_dea","geometry":{"type":"Polygon","coordinates":[[[150644.25,165526.65],[150645.06,165519.7],[150649.44,165520.16],[150649.11,165523.02],[150651.23,165523.26],[150650.75,165527.41],[150644.25,165526.65]]]},"geometry_name":"GEOM","properties":{"INSPIRE_ID":"https://databrussels.be/id/building/1736511","BLOCK_ID":"https://databrussels.be/id/block/30700","AREA":40},"bbox":[150644.25,165519.7,150651.23,165527.41]},{"type":"Feature","id":"Buildings.fid--324554a4_1a031387ba0_e2b","geometry":{"type":"Polygon","coordinates":[[[150653.07,165798.41],[150653.27,165801.4],[150649.34,165801.65],[150649.22,165798.6],[150653.07,165798.41]]]},"geometry_name":"GEOM","properties":{"INSPIRE_ID":"https://databrussels.be/id/building/1740588","BLOCK_ID":"https://databrussels.be/id/block/25565","AREA":12},"bbox":[150649.22,165798.41,150653.27,165801.65]},{"type":"Feature","id":"Buildings.fid--324554a4_1a031387ba0_df5","geometry":{"type":"Polygon","coordinates":[[[150521.81,165726.66],[150522.39,165723.22],[150528.82,165724.31],[150528.23,165727.76],[150521.81,165726.66]]]},"geometry_name":"GEOM","properties":{"INSPIRE_ID":"https://databrussels.be/id/building/1740592","BLOCK_ID":"https://databrussels.be/id/block/30700","AREA":23},"bbox":[150521.81,165723.22,150528.82,165727.76]},{"type":"Feature","id":"Buildings.fid--324554a4_1a031387ba0_e1d","geometry":{"type":"Polygon","coordinates":[[[150535.35,165740.98],[150535.87,165736.99],[150542.87,165738.14],[150542.84,165738.26],[150542.367,165741.961],[150535.35,165740.98]]]},"geometry_name":"GEOM","properties":{"INSPIRE_ID":"https://databrussels.be/id/building/1740593","BLOCK_ID":"https://databrussels.be/id/block/30700","AREA":28},"bbox":[150535.35,165736.99,150542.87,165741.961]},{"type":"Feature","id":"Buildings.fid--324554a4_1a031387ba0_e0f","geometry":{"type":"Polygon","coordinates":[[[150589.064,165917.244],[150591.315,165908.459],[150597.04,165909.78],[150594.981,165918.707],[150589.064,165917.244]]]},"geometry_name":"GEOM","properties":{"INSPIRE_ID":"https://databrussels.be/id/building/1746061","BLOCK_ID":"https://databrussels.be/id/block/25565","AREA":55},"bbox":[150589.064,165908.459,150597.04,165918.707]},{"type":"Feature","id":"Buildings.fid--324554a4_1a031387ba0_e11","geometry":{"type":"Polygon","coordinates":[[[150539.72,165930.33],[150526.69,165924.67],[150525.3,165924.06],[150527.34,165919.37],[150541.76,165925.64],[150539.72,165930.33]]]},"geometry_name":"GEOM","properties":{"INSPIRE_ID":"https://databrussels.be/id/building/1746065","BLOCK_ID":"https://databrussels.be/id/block/30704","AREA":80},"bbox":[150525.3,165919.37,150541.76,165930.33]},{"type":"Feature","id":"Buildings.fid--324554a4_1a031387ba0_e2c","geometry":{"type":"Polygon","coordinates":[[[150516.03,165816.72],[150508.8,165815.54],[150510.59,165804.58],[150517.82,165805.76],[150516.03,165816.72]]]},"geometry_name":"GEOM","properties":{"INSPIRE_ID":"https://databrussels.be/id/building/1746066","BLOCK_ID":"https://databrussels.be/id/block/30704","AREA":81},"bbox":[150508.8,165804.58,150517.82,165816.72]},{"type":"Feature","id":"Buildings.fid--324554a4_1a031387ba0_dfb","geometry":{"type":"Polygon","coordinates":[[[150536.86,165713.54],[150538.195,165705.395],[150549.142,165707.393],[150548.306,165712.515],[150547.708,165712.456],[150547.116,165715.457],[150536.86,165713.54]]]},"geometry_name":"GEOM","properties":{"INSPIRE_ID":"https://databrussels.be/id/building/1746068","BLOCK_ID":"https://databrussels.be/id/block/30700","AREA":90},"bbox":[150536.86,165705.395,150549.142,165715.457]},{"type":"Feature","id":"Buildings.fid--324554a4_1a031387ba0_e0d","geometry":{"type":"Polygon","coordinates":[[[150515.061,165892.735],[150500.346,165891.82],[150500.439,165889.469],[150499.393,165889.425],[150499.6,165884.454],[150507.219,165884.771],[150507.184,165885.593],[150515.243,165885.929],[150515.061,165892.735]]]},"geometry_name":"GEOM","properties":{"INSPIRE_ID":"https://databrussels.be/id/building/1746070","BLOCK_ID":"https://databrussels.be/id/block/30704","AREA":108},"bbox":[150499.393,165884.454,150515.243,165892.735]},{"type":"Feature","id":"Buildings.fid--324554a4_1a031387ba0_e15","geometry":{"type":"Polygon","coordinates":[[[150582.274,165966.024],[150582.337,165965.91],[150584.14,165962.959],[150585.534,165960.676],[150593.521,165965.355],[150591.34,165968.906],[150592.17,165969.31],[150592.5,165969.77],[150592.65,165970.17],[150592.64,165970.64],[150592.44,165971.07],[150591.97,165972.01],[150595.02,165973.84],[150592.81,165977.86],[150585.75,165973.53],[150588.121,165969.574],[150582.274,165966.024]]]},"geometry_name":"GEOM","properties":{"INSPIRE_ID":"https://databrussels.be/id/building/1746071","BLOCK_ID":"https://databrussels.be/id/block/25565","AREA":101},"bbox":[150582.274,165960.676,150595.02,165977.86]},{"type":"Feature","id":"Buildings.fid--324554a4_1a031387ba0_df3","geometry":{"type":"Polygon","coordinates":[[[150613.25,165514.12],[150617.021,165512.993],[150616.256,165508.515],[150617.183,165508.297],[150618.254,165507.492],[150619.655,165506.964],[150620.634,165506.971],[150621.602,165507.112],[150622.202,165507.337],[150623.091,165507.149],[150623.908,165511.643],[150627.646,165510.973],[150627.856,165512.381],[150636.233,165510.368],[150637.615,165517.62],[150633.62,165518.05],[150629.23,165518.99],[150629.29,165519.3],[150618.4,165521.63],[150615.11,165522.33],[150614.78,165520.8],[150614.66,165520.82],[150614.35,165519.36],[150613.73,165519.5],[150612.99,165515.62],[150613.53,165515.46],[150613.25,165514.12]]]},"geometry_name":"GEOM","properties":{"INSPIRE_ID":"https://databrussels.be/id/building/1747281","BLOCK_ID":"https://databrussels.be/id/block/30700","AREA":223},"bbox":[150612.99,165506.964,150637.615,165522.33]},{"type":"Feature","id":"Buildings.fid--324554a4_1a031387ba0_e13","geometry":{"type":"Polygon","coordinates":[[[150562.938,165952.009],[150550.01,165948.64],[150552,165941.4],[150553.81,165941.89],[150553.57,165942.77],[150558.82,165944.2],[150561.474,165934.515],[150567.289,165936.017],[150564.704,165945.696],[150565.554,165945.926],[150563.953,165951.65],[150563.178,165951.449],[150562.938,165952.009]]]},"geometry_name":"GEOM","properties":{"INSPIRE_ID":"https://databrussels.be/id/building/1747282","BLOCK_ID":"https://databrussels.be/id/block/30704","AREA":155},"bbox":[150550.01,165934.515,150567.289,165952.009]},{"type":"Feature","id":"Buildings.fid--324554a4_1a031387ba0_df9","geometry":{"type":"Polygon","coordinates":[[[150535.34,165687.88],[150538.956,165688.516],[150538.847,165689.106],[150551.476,165691.125],[150549.646,165701.437],[150536.977,165699.216],[150537.743,165695.073],[150534.13,165694.4],[150535.34,165687.88]]]},"geometry_name":"GEOM","properties":{"INSPIRE_ID":"https://databrussels.be/id/building/1747283","BLOCK_ID":"https://databrussels.be/id/block/30700","AREA":158},"bbox":[150534.13,165687.88,150551.476,165701.437]},{"type":"Feature","id":"Buildings.fid--324554a4_1a031387ba0_deb","geometry":{"type":"Polygon","coordinates":[[[150662.529,165525.388],[150655.59,165524.164],[150655.95,165522.4],[150651.99,165521.59],[150653.66,165513.39],[150654.81,165513.63],[150655.11,165513.51],[150655.4,165513.57],[150655.58,165512.68],[150657.09,165512.99],[150657.91,165508.98],[150664.9,165510.39],[150664.8,165510.8],[150665.05,165510.9],[150665.67,165511.24],[150666.24,165511.92],[150666.55,165512.81],[150666.44,165513.82],[150665.91,165514.69],[150664.937,165515.438],[150664.809,165515.821],[150666.211,165516.106],[150665.545,165519.144],[150664.149,165518.933],[150663.69,165521.386],[150663.269,165521.306],[150662.529,165525.388]]]},"geometry_name":"GEOM","properties":{"INSPIRE_ID":"https://databrussels.be/id/building/1747284","BLOCK_ID":"https://databrussels.be/id/block/30700","AREA":158},"bbox":[150651.99,165508.98,150666.55,165525.388]},{"type":"Feature","id":"Buildings.fid--324554a4_1a031387ba0_e12","geometry":{"type":"Polygon","coordinates":[[[150611.61,165942.28],[150609.14,165946.58],[150588.21,165934.17],[150590.53,165930.14],[150611.61,165942.28]]]},"geometry_name":"GEOM","properties":{"INSPIRE_ID":"https://databrussels.be/id/building/1747430","BLOCK_ID":"https://databrussels.be/id/block/25565","AREA":117},"bbox":[150588.21,165930.14,150611.61,165946.58]},{"type":"Feature","id":"Buildings.fid--324554a4_1a031387ba0_e27","geometry":{"type":"Polygon","coordinates":[[[150522.03,165798.09],[150522.36,165796.12],[150524.52,165783.512],[150525.134,165783.611],[150525.295,165782.624],[150528.453,165783.142],[150528.291,165784.129],[150533.568,165784.994],[150533.768,165783.963],[150537.21,165784.522],[150537.022,165785.39],[150537.739,165785.511],[150535.46,165798.35],[150533.16,165811.34],[150528.68,165810.58],[150530.55,165799.58],[150522.03,165798.09]]]},"geometry_name":"GEOM","properties":{"INSPIRE_ID":"https://databrussels.be/id/building/1748670","BLOCK_ID":"https://databrussels.be/id/block/30704","AREA":256},"bbox":[150522.03,165782.624,150537.739,165811.34]},{"type":"Feature","id":"Buildings.fid--324554a4_1a031387ba0_e2a","geometry":{"type":"Polygon","coordinates":[[[150559.19,165817.45],[150562.55,165797.83],[150575.999,165800.127],[150573.08,165816.94],[150568.11,165816.11],[150567.36,165820.59],[150563.62,165819.97],[150563.9,165818.23],[150559.19,165817.45]]]},"geometry_name":"GEOM","properties":{"INSPIRE_ID":"https://databrussels.be/id/building/1748672","BLOCK_ID":"https://databrussels.be/id/block/30704","AREA":263},"bbox":[150559.19,165797.83,150575.999,165820.59]},{"type":"Feature","id":"Buildings.fid--324554a4_1a031387ba0_e08","geometry":{"type":"Polygon","coordinates":[[[150530.36,165861.79],[150530.64,165860.16],[150532.52,165850.2],[150538.58,165851.32],[150538.41,165852.25],[150542.27,165852.59],[150542.4,165851.89],[150547.79,165852.89],[150547.67,165853.53],[150551.34,165854.2],[150551.47,165853.5],[150557.72,165854.66],[150555.58,165866.22],[150548.97,165865],[150548.08,165864.85],[150530.36,165861.79]]]},"geometry_name":"GEOM","properties":{"INSPIRE_ID":"https://databrussels.be/id/building/1748673","BLOCK_ID":"https://databrussels.be/id/block/30704","AREA":295},"bbox":[150530.36,165850.2,150557.72,165866.22]},{"type":"Feature","id":"Buildings.fid--324554a4_1a031387ba0_dfe","geometry":{"type":"Polygon","coordinates":[[[150590.682,165666.268],[150585.43,165667.689],[150584.7,165664.99],[150578.754,165666.599],[150578.692,165666.37],[150577.768,165662.953],[150576.314,165657.581],[150577.76,165652.127],[150575.517,165651.532],[150579.987,165634.675],[150582.18,165635.257],[150583.622,165629.818],[150590.165,165623.252],[150594.509,165627.58],[150596.598,165625.484],[150600.442,165629.315],[150594.632,165635.146],[150592.855,165641.848],[150593.319,165641.971],[150590.708,165651.82],[150590.314,165651.716],[150588.523,165658.214],[150590.682,165666.268]]]},"geometry_name":"GEOM","properties":{"INSPIRE_ID":"https://databrussels.be/id/building/1748675","BLOCK_ID":"https://databrussels.be/id/block/30700","AREA":562},"bbox":[150575.517,165623.252,150600.442,165667.689]},{"type":"Feature","id":"Buildings.fid--324554a4_1a031387ba0_e04","geometry":{"type":"Polygon","coordinates":[[[150589.48,165869.42],[150595.525,165869.959],[150595.607,165869.688],[150598.927,165856.464],[150600.085,165850.627],[150601.524,165841.601],[150603.585,165829.708],[150604.684,165823.629],[150607.65,165824.14],[150614.34,165798.86],[150609.17793245,165797.88138702],[150603.21,165796.75],[150600.37,165812.57],[150595.72,165839.54],[150591.59,165861.04],[150589.62,165860.71],[150589.7,165860.41],[150586.4,165859.86],[150586.32,165860.35],[150582.91,165859.78],[150583.05,165859.2],[150577.93,165858.34],[150577.85,165858.84],[150574.87,165858.34],[150574.99,165857.84],[150569.86,165856.99],[150569.76,165857.42],[150566.75,165856.91],[150566.84,165856.41],[150563.3,165855.82],[150562.4,165861.23],[150564.88,165861.65],[150564.39,165864.62],[150582.38,165867.61],[150582.84,165864.89],[150588.9,165865.9],[150589.01,165865.25],[150590.45,165865.49],[150589.48,165869.42]]]},"geometry_name":"GEOM","properties":{"INSPIRE_ID":"https://databrussels.be/id/building/1750014","BLOCK_ID":"https://databrussels.be/id/block/30704","AREA":765},"bbox":[150562.4,165796.75,150614.34,165869.959]},{"type":"Feature","id":"Buildings.fid--324554a4_1a031387ba0_e25","geometry":{"type":"Polygon","coordinates":[[[150502.748,165785.573],[150503.792,165785.754],[150504.939,165779.68],[150505.852,165779.851],[150506.861,165779.387],[150508.9,165779.772],[150509.678,165780.567],[150510.14,165780.653],[150510.833,165780.136],[150512.883,165780.456],[150513.649,165781.31],[150514.029,165781.381],[150513.957,165781.79],[150511.21,165797.37],[150509.09,165797],[150509.05,165797.24],[150508.58,165799.92],[150506.64,165799.58],[150505.52,165800.87],[150503.08,165800.45],[150502.13,165798.41],[150502.53,165796.13],[150501.95,165796.02],[150501.766,165794.64],[150502.57,165790.103],[150501.892,165789.854],[150502.748,165785.573]]]},"geometry_name":"GEOM","properties":{"INSPIRE_ID":"https://databrussels.be/id/building/1751350","BLOCK_ID":"https://databrussels.be/id/block/30704","AREA":188},"bbox":[150501.766,165779.387,150514.029,165800.87]},{"type":"Feature","id":"Buildings.fid--324554a4_1a031387ba0_e28","geometry":{"type":"Polygon","coordinates":[[[150533.16,165811.34],[150535.46,165798.35],[150537.739,165785.511],[150577.38,165792.173],[150575.999,165800.127],[150562.55,165797.83],[150559.19,165817.45],[150553.68,165849.23],[150553.33,165851.33],[150545.12,165849.93],[150545.05,165850.35],[150535.52,165848.73],[150535.62,165848.14],[150527.49,165846.76],[150527.84,165844.68],[150527.5,165844.62],[150533.16,165811.34]]]},"geometry_name":"GEOM","properties":{"INSPIRE_ID":"https://databrussels.be/id/building/1753847","BLOCK_ID":"https://databrussels.be/id/block/30704","AREA":1771},"bbox":[150527.49,165785.511,150577.38,165851.33]},{"type":"Feature","id":"Buildings.fid--324554a4_1a031387ba0_e1b","geometry":{"type":"Polygon","coordinates":[[[150567.181,165745.401],[150567.26,165744.955],[150567.948,165741.197],[150569.751,165741.438],[150570.40326497,165737.39825999],[150576.50675948,165738.27265877],[150576.98849369,165736.00666402],[150585.21120435,165737.34591459],[150584.0460237,165744.35030712],[150583.7589147,165744.3121859],[150583.47497262,165746.30197785],[150582.61388159,165746.21834389],[150582.28312985,165747.95947132],[150579.98,165747.61],[150567.181,165745.401]]]},"geometry_name":"GEOM","properties":{"INSPIRE_ID":"https://databrussels.be/id/building/1754999","BLOCK_ID":"https://databrussels.be/id/block/30700","AREA":150},"bbox":[150567.181,165736.00666402,150585.21120435,165747.95947132]},{"type":"Feature","id":"Buildings.fid--324554a4_1a031387ba0_e1f","geometry":{"type":"Polygon","coordinates":[[[150509.057,165756.792],[150511.014,165745.339],[150511.33,165745.39],[150512.14988094,165740.19742075],[150519.73559456,165741.63236722],[150518.86799953,165746.22246361],[150518.62004773,165747.53427689],[150516.806,165758.173],[150509.057,165756.792]]]},"geometry_name":"GEOM","properties":{"INSPIRE_ID":"https://databrussels.be/id/building/1756193","BLOCK_ID":"https://databrussels.be/id/block/30700","AREA":131},"bbox":[150509.057,165740.19742075,150519.73559456,165758.173]},{"type":"Feature","id":"Buildings.fid--324554a4_1a031387ba0_e1a","geometry":{"type":"Polygon","coordinates":[[[150516.806,165758.173],[150518.62004773,165747.53427689],[150518.86799953,165746.22246361],[150519.73559456,165741.63236722],[150521.04,165733.48],[150529.94,165734.89],[150532.81,165735.48],[150532.61,165736.45],[150535.87,165736.99],[150535.35,165740.98],[150531.576,165760.805],[150527.835,165760.138],[150527.698,165760.911],[150520.409,165759.613],[150520.547,165758.839],[150516.806,165758.173]]]},"geometry_name":"GEOM","properties":{"INSPIRE_ID":"https://databrussels.be/id/building/1757267","BLOCK_ID":"https://databrussels.be/id/block/30700","AREA":384},"bbox":[150516.806,165733.48,150535.87,165760.911]},{"type":"Feature","id":"Buildings.fid--324554a4_1a031387ba0_e30","geometry":{"type":"Polygon","coordinates":[[[150524.603,165514.781],[150522.475,165515.224],[150523.781,165521.344],[150525.96,165520.84],[150526.5,165520.72],[150543.19,165517.05],[150545.37,165516.6],[150545.788,165516.507],[150544.004,165507.803],[150540.843,165508.451],[150526.15,165511.12],[150523.95,165511.6],[150524.603,165514.781]]]},"geometry_name":"GEOM","properties":{"INSPIRE_ID":"https://databrussels.be/id/building/1757286","BLOCK_ID":"https://databrussels.be/id/block/30818","AREA":200},"bbox":[150522.475,165507.803,150545.788,165521.344]},{"type":"Feature","id":"Buildings.fid--324554a4_1a031387ba0_e10","geometry":{"type":"Polygon","coordinates":[[[150531.3124337,165917.27098176],[150532.27148196,165914.38736983],[150535.02711702,165915.40009364],[150534.12031677,165918.23124266],[150531.3124337,165917.27098176]]]},"geometry_name":"GEOM","properties":{"INSPIRE_ID":"https://databrussels.be/id/building/1757290","BLOCK_ID":"https://databrussels.be/id/block/30704","AREA":9},"bbox":[150531.3124337,165914.38736983,150535.02711702,165918.23124266]},{"type":"Feature","id":"Buildings.fid--324554a4_1a031387ba0_e24","geometry":{"type":"Polygon","coordinates":[[[150598.07,165766.35],[150599.41,165766.63],[150600.27,165762.56],[150601.76,165762.87],[150601.85,165762.43],[150602.49825962,165762.54845695],[150602.99853955,165759.6631963],[150611.74282365,165761.16620958],[150611.25200693,165764.14803548],[150611.613,165764.214],[150610.419,165770.705],[150610.757,165770.925],[150611.105,165771.175],[150611.39,165771.708],[150611.511,165772.305],[150611.53,165772.73],[150611.549,165773.102],[150611.486,165773.57],[150611.331,165773.881],[150610.959,165774.336],[150610.429,165774.749],[150609.939,165775.219],[150609.332,165775.464],[150608.768,165775.52],[150608.185,165775.53],[150607.666,165775.44],[150607.179,165775.113],[150606.801,165774.614],[150606.444,165773.89],[150600.273,165772.818],[150600.861,165769.626],[150598.45,165769.08],[150598.2,165768.94],[150597.98,165768.56],[150597.85,165768.08],[150598.07,165766.35]]]},"geometry_name":"GEOM","properties":{"INSPIRE_ID":"https://databrussels.be/id/building/1757358","BLOCK_ID":"https://databrussels.be/id/block/30700","AREA":152},"bbox":[150597.85,165759.6631963,150611.74282365,165775.53]},{"type":"Feature","id":"Buildings.fid--324554a4_1a031387ba0_e29","geometry":{"type":"Polygon","coordinates":[[[150570.09449471,165847.76109358],[150575.67,165817.23],[150579.78,165792.69],[150598.99,165795.83],[150589.94,165847.18],[150583.69491011,165846.11672668],[150582.99814222,165849.99816457],[150570.09449471,165847.76109358]]]},"geometry_name":"GEOM","properties":{"INSPIRE_ID":"https://databrussels.be/id/building/1757412","BLOCK_ID":"https://databrussels.be/id/block/30704","AREA":1059},"bbox":[150570.09449471,165792.69,150598.99,165849.99816457]},{"type":"Feature","id":"Buildings.fid--324554a4_1a031387ba0_df7","geometry":{"type":"Polygon","coordinates":[[[150529.94,165734.89],[150531.01,165728.64],[150533.86,165729.09],[150533.969,165728.375],[150544.414,165730.173],[150542.92,165737.89],[150542.87,165738.14],[150535.87,165736.99],[150532.61,165736.45],[150532.81,165735.48],[150529.94,165734.89]]]},"geometry_name":"GEOM","properties":{"INSPIRE_ID":"https://databrussels.be/id/building/1758485","BLOCK_ID":"https://databrussels.be/id/block/30700","AREA":104},"bbox":[150529.94,165728.375,150544.414,165738.14]},{"type":"Feature","id":"Buildings.fid--324554a4_1a031387ba0_e3a","geometry":{"type":"Polygon","coordinates":[[[150527.26816848,165553.04516481],[150519.63,165554.57],[150522.18,165567],[150530.7,165565.25],[150549.03,165561.86],[150548.1,165557.25],[150546.9,165557.52],[150545.25429354,165549.30278371],[150538.65133391,165550.62519424],[150538.37281834,165549.19899577],[150532.66754663,165550.33342642],[150532.97671284,165551.76168137],[150531.16061933,165552.12540027],[150530.75239318,165550.20014653],[150526.88823243,165551.02928466],[150527.26816848,165553.04516481]]]},"geometry_name":"GEOM","properties":{"INSPIRE_ID":"https://databrussels.be/id/building/1758491","BLOCK_ID":"https://databrussels.be/id/block/30818","AREA":357},"bbox":[150519.63,165549.19899577,150549.03,165567]},{"type":"Feature","id":"Buildings.fid--324554a4_1a031387ba0_e06","geometry":{"type":"Polygon","coordinates":[[[150506.77,165822.99],[150517.32,165824.81],[150515.76,165833.84],[150505.21,165832.02],[150506.77,165822.99]]]},"geometry_name":"GEOM","properties":{"INSPIRE_ID":"https://databrussels.be/id/building/1758591","BLOCK_ID":"https://databrussels.be/id/block/30704","AREA":98},"bbox":[150505.21,165822.99,150517.32,165833.84]},{"type":"Feature","id":"Buildings.fid--324554a4_1a031387ba0_e23","geometry":{"type":"Polygon","coordinates":[[[150561.21839828,165763.14069169],[150561.33467649,165761.96885182],[150561.01195243,165761.32631106],[150560.90508068,165760.77415566],[150560.91527513,165760.11768306],[150561.1800059,165759.44099558],[150561.55668619,165758.98497177],[150561.96013178,165758.6783569],[150562.15071764,165757.47549228],[150564.774,165757.947],[150564.616,165758.828],[150575.127,165760.65],[150573.774,165768.219],[150563.263,165766.353],[150563.759,165763.598],[150561.21839828,165763.14069169]]]},"geometry_name":"GEOM","properties":{"INSPIRE_ID":"https://databrussels.be/id/building/1758592","BLOCK_ID":"https://databrussels.be/id/block/30700","AREA":99},"bbox":[150560.90508068,165757.47549228,150575.127,165768.219]},{"type":"Feature","id":"Buildings.fid--324554a4_1a031387ba0_e17","geometry":{"type":"Polygon","coordinates":[[[150504.10835712,165643.12361008],[150519.15327389,165644.10338432],[150518.71628166,165650.28872693],[150521.36943778,165650.40527625],[150520.93928852,165656.73926559],[150518.25440807,165656.69162154],[150518.0049013,165661.27638364],[150513.90052593,165660.98135905],[150510.08579237,165660.70715406],[150510.00375495,165663.15170126],[150504.23979709,165662.82429639],[150504.33617028,165660.2972008],[150502.95789511,165660.19479717],[150503.41741616,165653.18165021],[150504.38907721,165653.27087973],[150504.64016231,165649.95339467],[150503.64221312,165649.87649873],[150504.10835712,165643.12361008]]]},"geometry_name":"GEOM","properties":{"INSPIRE_ID":"https://databrussels.be/id/building/1759781","BLOCK_ID":"https://databrussels.be/id/block/30700","AREA":287},"bbox":[150502.95789511,165643.12361008,150521.36943778,165663.15170126]},{"type":"Feature","id":"Buildings.fid--324554a4_1a031387ba0_df8","geometry":{"type":"Polygon","coordinates":[[[150536.86,165713.54],[150547.116,165715.457],[150545.501,165723.803],[150536.099,165722.276],[150536.13,165722.1],[150531.7,165721.37],[150533.09,165712.92],[150536.86,165713.54]]]},"geometry_name":"GEOM","properties":{"INSPIRE_ID":"https://databrussels.be/id/building/1759797","BLOCK_ID":"https://databrussels.be/id/block/30700","AREA":122},"bbox":[150531.7,165712.92,150547.116,165723.803]},{"type":"Feature","id":"Buildings.fid--324554a4_1a031387ba0_e22","geometry":{"type":"Polygon","coordinates":[[[150580.578,165769.226],[150583.666,165751.144],[150588.1978893,165751.95577456],[150588.59120391,165749.28757789],[150591.98066954,165749.94154802],[150591.54972332,165752.55617175],[150593.86,165752.97],[150593.07,165757.4],[150594.16,165757.6],[150592.96,165764.41],[150591.845,165764.192],[150591.059,165768.226],[150589.814,165768.09],[150589.685,165769.069],[150584.592,165768.242],[150584.281,165769.862],[150580.578,165769.226]]]},"geometry_name":"GEOM","properties":{"INSPIRE_ID":"https://databrussels.be/id/building/1760825","BLOCK_ID":"https://databrussels.be/id/block/30700","AREA":193},"bbox":[150580.578,165749.28757789,150594.16,165769.862]},{"type":"Feature","id":"Buildings.fid--324554a4_1a031387ba0_e05","geometry":{"type":"Polygon","coordinates":[[[150553.68,165849.23],[150559.19,165817.45],[150563.9,165818.23],[150563.62,165819.97],[150567.36,165820.59],[150568.11,165816.11],[150573.08,165816.94],[150575.67,165817.23],[150570.09449471,165847.76109358],[150569.39,165851.9],[150564.03,165850.99],[150553.68,165849.23]]]},"geometry_name":"GEOM","properties":{"INSPIRE_ID":"https://databrussels.be/id/building/1760920","BLOCK_ID":"https://databrussels.be/id/block/30704","AREA":532},"bbox":[150553.68,165816.11,150575.67,165851.9]},{"type":"Feature","id":"Buildings.fid--324554a4_1a031387ba0_e07","geometry":{"type":"Polygon","coordinates":[[[150523.03,165864.62],[150499.73,165862.85],[150496.23,165862.67],[150473.87,165861.48],[150475.21,165855.36],[150477.09,165855.5],[150478.57,165844.89],[150491.07,165846.01],[150502.86,165847.06],[150526.52,165849.18],[150526.05,165854.51],[150522.73,165854.22],[150522.78,165853.71],[150519.45,165853.42],[150519.35,165853.93],[150514.92,165853.54],[150514.96,165853.12],[150511.62,165852.83],[150511.58,165853.3],[150507.06,165852.9],[150507.09,165852.57],[150503.75,165852.27],[150503.66,165852.75],[150501.57,165852.56],[150501.46,165853.8],[150493.77,165853.11],[150493.81,165852.73],[150490.48,165852.43],[150490.38,165852.96],[150487.37,165852.69],[150484.7,165849.49],[150483.83,165849.41],[150483.05,165858.24],[150484.04,165858.33],[150487.47,165855.46],[150491.5,165855.82],[150491.45,165856.32],[150494.4,165856.58],[150494.44,165856.11],[150497.05,165856.34],[150497.01,165856.75],[150499.96,165857.02],[150500.05,165856.52],[150505.26,165856.99],[150505.15,165858.17],[150507.41,165858.38],[150507.37,165858.79],[150510.41,165859.07],[150510.45,165858.59],[150516.87,165859.17],[150516.84,165859.51],[150520.04,165859.8],[150520.1,165859.21],[150523.53,165859.52],[150530.64,165860.16],[150530.36,165861.79],[150530.08165467,165865.15653894],[150523.03,165864.62]]]},"geometry_name":"GEOM","properties":{"INSPIRE_ID":"https://databrussels.be/id/building/1762120","BLOCK_ID":"https://databrussels.be/id/block/30704","AREA":617},"bbox":[150473.87,165844.89,150530.64,165865.15653894]},{"type":"Feature","id":"Buildings.fid--324554a4_1a031387ba0_e39","geometry":{"type":"Polygon","coordinates":[[[150551.26075167,165543.22494902],[150552.20594024,165547.60232849],[150546.12846055,165548.97378213],[150545.23634791,165544.52369456],[150551.26075167,165543.22494902]]]},"geometry_name":"GEOM","properties":{"INSPIRE_ID":"https://databrussels.be/id/building/1762122","BLOCK_ID":"https://databrussels.be/id/block/30818","AREA":28},"bbox":[150545.23634791,165543.22494902,150552.20594024,165548.97378213]},{"type":"Feature","id":"Buildings.fid--324554a4_1a031387ba0_e31","geometry":{"type":"Polygon","coordinates":[[[150559.67,165523.84],[150558.5,165524.11],[150557.54,165524.46],[150556.495,165519.632],[150560.242,165518.752],[150559.799,165516.948],[150562.973,165516.214],[150563.391,165518.023],[150564.808,165517.695],[150563.916,165514.785],[150563.00520838,165514.50929825],[150562.58475153,165512.52180614],[150563.04425186,165511.88719955],[150563.85099973,165511.71763074],[150563.56517553,165510.57156843],[150566.87518384,165509.81700005],[150567.721,165514.056],[150568.33,165517],[150569.3,165521.68],[150566.5,165522.26],[150559.67,165523.84]]]},"geometry_name":"GEOM","properties":{"INSPIRE_ID":"https://databrussels.be/id/building/1762126","BLOCK_ID":"https://databrussels.be/id/block/30719","AREA":94},"bbox":[150556.495,165509.81700005,150569.3,165524.46]},{"type":"Feature","id":"Buildings.fid--324554a4_1a031387ba0_e0b","geometry":{"type":"Polygon","coordinates":[[[150526.8,165882.25],[150527.87,165868.21],[150532.91,165868.59],[150532.5985774,165872.39718952],[150536.11341037,165872.72529871],[150535.91759523,165874.5111915],[150537.73,165874.71],[150536.61,165882.77],[150526.8,165882.25]]]},"geometry_name":"GEOM","properties":{"INSPIRE_ID":"https://databrussels.be/id/building/1763311","BLOCK_ID":"https://databrussels.be/id/block/30704","AREA":118},"bbox":[150526.8,165868.21,150537.73,165882.77]},{"type":"Feature","id":"Buildings.fid--324554a4_1a031387ba0_e0a","geometry":{"type":"Polygon","coordinates":[[[150532.91,165868.59],[150532.97,165867.4],[150533.97,165867.45],[150534.07,165865.46],[150547.91,165866.43],[150547.831,165867.164],[150548.281,165867.773],[150548.138,165870.415],[150547.888,165870.397],[150546.918,165874.827],[150537.809,165874.144],[150537.73,165874.71],[150535.91759523,165874.5111915],[150536.11341037,165872.72529871],[150532.5985774,165872.39718952],[150532.91,165868.59]]]},"geometry_name":"GEOM","properties":{"INSPIRE_ID":"https://databrussels.be/id/building/1763317","BLOCK_ID":"https://databrussels.be/id/block/30704","AREA":120},"bbox":[150532.5985774,165865.46,150548.281,165874.827]},{"type":"Feature","id":"Buildings.fid--324554a4_1a031387ba0_e21","geometry":{"type":"Polygon","coordinates":[[[150565.926,165752.342],[150567.181,165745.401],[150579.98,165747.61],[150578.725,165754.58],[150565.926,165752.342]]]},"geometry_name":"GEOM","properties":{"INSPIRE_ID":"https://databrussels.be/id/building/1764506","BLOCK_ID":"https://databrussels.be/id/block/30700","AREA":92},"bbox":[150565.926,165745.401,150579.98,165754.58]},{"type":"Feature","id":"Buildings.fid--324554a4_1a031387ba0_e1c","geometry":{"type":"Polygon","coordinates":[[[150500.182,165754.883],[150502.07,165741.58],[150502.68,165741.66],[150503.35,165736.65],[150509.18391603,165737.4258403],[150508.42207936,165742.21775475],[150506.108,165755.944],[150500.182,165754.883]]]},"geometry_name":"GEOM","properties":{"INSPIRE_ID":"https://databrussels.be/id/building/1765694","BLOCK_ID":"https://databrussels.be/id/block/30700","AREA":114},"bbox":[150500.182,165736.65,150509.18391603,165755.944]},{"type":"Feature","id":"Buildings.fid--324554a4_1a031387ba0_de8","geometry":{"type":"Polygon","coordinates":[[[150830.26555692,166000],[150842.72973662,165980.60691616],[150858.44742543,165990.76478878],[150852.5344989,166000],[150846.26552459,166009.84631884],[150830.26555692,166000]]]},"geometry_name":"GEOM","properties":{"INSPIRE_ID":"https://databrussels.be/id/building/1765700","BLOCK_ID":"https://databrussels.be/id/block/26749","AREA":428},"bbox":[150830.26555692,165980.60691616,150858.44742543,166009.84631884]},{"type":"Feature","id":"Buildings.fid--324554a4_1a031387ba0_e34","geometry":{"type":"Polygon","coordinates":[[[150505.84109106,165530.7446906],[150503.10286383,165535.02970575],[150499.73727589,165532.82737303],[150502.29474469,165528.63078011],[150505.84109106,165530.7446906]]]},"geometry_name":"GEOM","properties":{"INSPIRE_ID":"https://databrussels.be/id/building/1765703","BLOCK_ID":"https://databrussels.be/id/block/30818","AREA":20},"bbox":[150499.73727589,165528.63078011,150505.84109106,165535.02970575]},{"type":"Feature","id":"Buildings.fid--324554a4_1a031387ba0_e18","geometry":{"type":"Polygon","coordinates":[[[150512.4,165607.08],[150511.56,165595.17],[150517.05,165594.78],[150518.85118516,165594.7800346],[150519.55876606,165605.44473527],[150519.28,165607.87],[150512.4,165607.08]]]},"geometry_name":"GEOM","properties":{"INSPIRE_ID":"https://databrussels.be/id/building/1768078","BLOCK_ID":"https://databrussels.be/id/block/30818","AREA":91},"bbox":[150511.56,165594.78,150519.55876606,165607.87]},{"type":"Feature","id":"Buildings.fid--324554a4_1a031387ba0_e2f","geometry":{"type":"Polygon","coordinates":[[[150524.53,165503.63],[150526.15,165511.12],[150540.84287307,165508.45100253],[150539.23496554,165500.19598819],[150524.53,165503.63]]]},"geometry_name":"GEOM","properties":{"INSPIRE_ID":"https://databrussels.be/id/building/1771813","BLOCK_ID":"https://databrussels.be/id/block/30818","AREA":121},"bbox":[150524.53,165500.19598819,150540.84287307,165511.12]},{"type":"Feature","id":"Buildings.fid--324554a4_1a031387ba0_e32","geometry":{"type":"Polygon","coordinates":[[[150528.3,165529.03],[150545.01,165525.39],[150543.19,165517.05],[150526.5000369,165520.72002411],[150528.3,165529.03]]]},"geometry_name":"GEOM","properties":{"INSPIRE_ID":"https://databrussels.be/id/building/1772926","BLOCK_ID":"https://databrussels.be/id/block/30818","AREA":146},"bbox":[150526.5000369,165517.05,150545.01,165529.03]},{"type":"Feature","id":"Buildings.fid--324554a4_1a031387ba0_e02","geometry":{"type":"Polygon","coordinates":[[[150631.27008978,165602.36908671],[150626.21940028,165601.92609947],[150626.53356699,165599.67890482],[150625.95952292,165599.59446929],[150626.56822914,165593.9702807],[150632.04116672,165594.52565891],[150632.2,165592.91],[150645.18,165594.56],[150644.918,165597.291],[150645.417,165597.339],[150645.696,165598.339],[150645.724,165599.377],[150645.499,165600.391],[150645.035,165601.32],[150644.537,165601.273],[150644.27,165604.06],[150642.501,165603.735],[150636.78,165603],[150633.99,165602.64],[150631.27008978,165602.36908671]]]},"geometry_name":"GEOM","properties":{"INSPIRE_ID":"https://databrussels.be/id/building/1774369","BLOCK_ID":"https://databrussels.be/id/block/30719","AREA":170},"bbox":[150625.95952292,165592.91,150645.724,165604.06]},{"type":"Feature","id":"Buildings.fid--324554a4_1a031387ba0_df6","geometry":{"type":"Polygon","coordinates":[[[150530.5055,165696.0132],[150530.0202,165699.2321],[150527.7367,165698.8878],[150528.222,165695.6689],[150530.5055,165696.0132]]]},"geometry_name":"GEOM","properties":{"INSPIRE_ID":"https://databrussels.be/id/building/1775544","BLOCK_ID":"https://databrussels.be/id/block/30700","AREA":8},"bbox":[150527.7367,165695.6689,150530.5055,165699.2321]},{"type":"Feature","id":"Buildings.fid--324554a4_1a031387ba0_e37","geometry":{"type":"Polygon","coordinates":[[[150521.7101,165537.269],[150521.3581,165535.0973],[150523.3414,165534.7759],[150523.6933,165536.9476],[150521.7101,165537.269]]]},"geometry_name":"GEOM","properties":{"INSPIRE_ID":"https://databrussels.be/id/building/1779207","BLOCK_ID":"https://databrussels.be/id/block/30818","AREA":4},"bbox":[150521.3581,165534.7759,150523.6933,165537.269]},{"type":"Feature","id":"Buildings.fid--324554a4_1a031387ba0_e19","geometry":{"type":"Polygon","coordinates":[[[150518.18652842,165691.90209358],[150517.792,165691.83],[150519.495,165682.305],[150530.136,165683.915],[150528.518,165693.79],[150527.82860939,165693.66402521],[150527.01350302,165699.20332873],[150517.24139497,165697.93959536],[150518.18652842,165691.90209358]]]},"geometry_name":"GEOM","properties":{"INSPIRE_ID":"https://databrussels.be/id/building/1782100","BLOCK_ID":"https://databrussels.be/id/block/30700","AREA":164},"bbox":[150517.24139497,165682.305,150530.136,165699.20332873]},{"type":"Feature","id":"Buildings.fid--324554a4_1a031387ba0_df4","geometry":{"type":"Polygon","coordinates":[[[150615.493,165527.9989],[150619.4108,165528.4735],[150619.379,165528.7437],[150631.9066,165530.2614],[150631.8208,165530.9906],[150633.1903,165531.1565],[150632.2373,165539.0221],[150630.8949,165538.8595],[150630.8398,165539.3272],[150618.3123,165537.8095],[150618.3568,165537.4315],[150614.4082,165536.9531],[150615.493,165527.9989]]]},"geometry_name":"GEOM","properties":{"INSPIRE_ID":"https://databrussels.be/id/building/1783339","BLOCK_ID":"https://databrussels.be/id/block/30719","AREA":162},"bbox":[150614.4082,165527.9989,150633.1903,165539.3272]},{"type":"Feature","id":"Buildings.fid--324554a4_1a031387ba0_e26","geometry":{"type":"Polygon","coordinates":[[[150511.21,165797.37],[150513.957,165781.79],[150524.52,165783.512],[150522.36,165796.12],[150522.03,165798.09],[150521.83,165799.23],[150511.21,165797.37]]]},"geometry_name":"GEOM","properties":{"INSPIRE_ID":"https://databrussels.be/id/building/1785184","BLOCK_ID":"https://databrussels.be/id/block/30704","AREA":171},"bbox":[150511.21,165781.79,150524.52,165799.23]},{"type":"Feature","id":"Buildings.fid--324554a4_1a031387ba0_e20","geometry":{"type":"Polygon","coordinates":[[[150531.576,165760.805],[150535.35,165740.98],[150542.367,165741.961],[150542.28,165742.645],[150542.9,165742.834],[150541.042,165755.515],[150542.081,165755.592],[150541.84617675,165757.16051927],[150543.07177121,165757.62995677],[150542.51156905,165761.07097905],[150541.24508781,165761.1755374],[150541.048,165762.492],[150531.576,165760.805]]]},"geometry_name":"GEOM","properties":{"INSPIRE_ID":"https://databrussels.be/id/building/1785186","BLOCK_ID":"https://databrussels.be/id/block/30700","AREA":177},"bbox":[150531.576,165740.98,150543.07177121,165762.492]},{"type":"Feature","id":"Buildings.fid--324554a4_1a031387ba0_dfd","geometry":{"type":"Polygon","coordinates":[[[150567.7388,165666.9599],[150566.6076,165662.4738],[150567.3973,165662.2747],[150568.5286,165666.7607],[150567.7388,165666.9599]]]},"geometry_name":"GEOM","properties":{"INSPIRE_ID":"https://databrussels.be/id/building/1785509","BLOCK_ID":"https://databrussels.be/id/block/30700","AREA":4},"bbox":[150566.6076,165662.2747,150568.5286,165666.9599]},{"type":"Feature","id":"Buildings.fid--324554a4_1a031387ba0_dfa","geometry":{"type":"Polygon","coordinates":[[[150537.47803224,165675.2699735],[150535.25675125,165675.17207898],[150535.32168177,165673.69876961],[150537.54296275,165673.79666413],[150537.47803224,165675.2699735]]]},"geometry_name":"GEOM","properties":{"INSPIRE_ID":"https://databrussels.be/id/building/1786200","BLOCK_ID":"https://databrussels.be/id/block/30700","AREA":3},"bbox":[150535.25675125,165673.69876961,150537.54296275,165675.2699735]},{"type":"Feature","id":"Buildings.fid--324554a4_1a031387ba0_e00","geometry":{"type":"Polygon","coordinates":[[[150613.49925288,165738.269961],[150607.68408625,165737.37950276],[150607.97103671,165735.50556341],[150613.78620334,165736.39602166],[150613.49925288,165738.269961]]]},"geometry_name":"GEOM","properties":{"INSPIRE_ID":"https://databrussels.be/id/building/1787361","BLOCK_ID":"https://databrussels.be/id/block/30700","AREA":11},"bbox":[150607.68408625,165735.50556341,150613.78620334,165738.269961]},{"type":"Feature","id":"Buildings.fid--324554a4_1a031387ba0_e16","geometry":{"type":"Polygon","coordinates":[[[150547.24757812,166000],[150547.24650414,166000.004],[150546.71797073,166001.97229731],[150539.50833979,166000],[150533.61916885,165998.38893335],[150536.57885306,165987.50292699],[150542.2299912,165989.09146018],[150542.68581407,165987.49186597],[150551.80974724,165990.01756272],[150549.29099076,165998.9190304],[150547.67306182,165998.41531801],[150547.24757812,166000]]]},"geometry_name":"GEOM","properties":{"INSPIRE_ID":"https://databrussels.be/id/building/1791052","BLOCK_ID":"https://databrussels.be/id/block/30704","AREA":181},"bbox":[150533.61916885,165987.49186597,150551.80974724,166001.97229731]},{"type":"Feature","id":"Buildings.fid--324554a4_1a031387ba0_dee","geometry":{"type":"Polygon","coordinates":[[[150574.428,165569.462],[150570.772,165565.917],[150574.69,165561.876],[150578.346,165565.421],[150574.428,165569.462]]]},"geometry_name":"GEOM","properties":{"INSPIRE_ID":"https://databrussels.be/id/building/1792311","BLOCK_ID":"https://databrussels.be/id/block/30719","AREA":29},"bbox":[150570.772,165561.876,150578.346,165569.462]},{"type":"Feature","id":"Buildings.fid--324554a4_1a031387ba0_e09","geometry":{"type":"Polygon","coordinates":[[[150503.368,165867.703],[150503.531,165865.224],[150507.884,165865.536],[150507.663,165868.08],[150503.368,165867.703]]]},"geometry_name":"GEOM","properties":{"INSPIRE_ID":"https://databrussels.be/id/building/1794870","BLOCK_ID":"https://databrussels.be/id/block/30704","AREA":11},"bbox":[150503.368,165865.224,150507.884,165868.08]},{"type":"Feature","id":"Buildings.fid--324554a4_1a031387ba0_e0e","geometry":{"type":"Polygon","coordinates":[[[150520.324,165901.121],[150517.722,165900.859],[150518.08,165897.297],[150520.683,165897.559],[150520.324,165901.121]]]},"geometry_name":"GEOM","properties":{"INSPIRE_ID":"https://databrussels.be/id/building/1798567","BLOCK_ID":"https://databrussels.be/id/block/30704","AREA":9},"bbox":[150517.722,165897.297,150520.683,165901.121]},{"type":"Feature","id":"Buildings.fid--324554a4_1a031387ba0_dfc","geometry":{"type":"Polygon","coordinates":[[[150538.422,165662.715],[150539.784,165643.738],[150557.762,165645.029],[150556.673,165660.205],[150548.56,165659.622],[150548.287,165663.424],[150538.422,165662.715]]]},"geometry_name":"GEOM","properties":{"INSPIRE_ID":"https://databrussels.be/id/building/1799815","BLOCK_ID":"https://databrussels.be/id/block/30700","AREA":312},"bbox":[150538.422,165643.738,150557.762,165663.424]},{"type":"Feature","id":"Buildings.fid--324554a4_1a031387ba0_de9","geometry":{"type":"Polygon","coordinates":[[[150900.599,165850.567],[150905.14,165854.124],[150897.314,165864.115],[150892.773,165860.558],[150900.599,165850.567]]]},"geometry_name":"GEOM","properties":{"INSPIRE_ID":"https://databrussels.be/id/building/1809580","BLOCK_ID":"https://databrussels.be/id/block/26749","AREA":73},"bbox":[150892.773,165850.567,150905.14,165864.115]}],"numberReturned":79,"grand_bruxelles_source":{"authority":"Paradigm / Brussels-Capital Region","service":"https://geoservices-urbis.irisnet.be/geoserver/urbisvector/wfs","layer":"urbisvector:Buildings","crs":"EPSG:31370","bbox":[150500.0,165500.0,151000.0,166000.0],"cell_id":"bxl-e150500-n165500-s500","ownership":"polygon_or_multipolygon_centroid_global_500m_cell"}}
