{"type":"FeatureCollection","totalFeatures":17,"numberMatched":17,"timeStamp":"2026-08-23T02:50:00.558Z","crs":{"type":"name","properties":{"name":"urn:ogc:def:crs:EPSG::31370"}},"bbox":[146505.45217418,163416.31101455,147099.111,164122.1444088],"features":[{"type":"Feature","id":"StreetAxes.fid-1cd8d64c_1a02c0ead07_5bda","geometry":{"type":"LineString","coordinates":[[147028.973,163944.701],[147027.946,163940.293],[147022.137,163930.119],[147015.875,163920.665],[147004.76,163908.502],[146998.935,163903.46],[146938.92,163851.2],[146927.498,163841.373]]},"geometry_name":"GEOM","properties":{"INSPIRE_ID":"https://databrussels.be/id/streetaxe/70308","TYPE":"S","HIERARCHY":"DC","LVL":0,"STARTSN_ID":"https://databrussels.be/id/streetnode/4115","ENDSN_ID":"https://databrussels.be/id/streetnode/4162","STRNAMEFRE":"Avenue de Beersel","STRNAMEDUT":"Beersellaan","SLOPE":0.59,"LENGTH":146.409326665944},"bbox":[146927.498,163841.373,147028.973,163944.701]},{"type":"Feature","id":"StreetAxes.fid-1cd8d64c_1a02c0ead07_5bd9","geometry":{"type":"LineString","coordinates":[[147020.534,163754.656],[147014.662,163761.664],[146939.414,163830.31],[146927.498,163841.373]]},"geometry_name":"GEOM","properties":{"INSPIRE_ID":"https://databrussels.be/id/streetaxe/70940","TYPE":"S","HIERARCHY":"DC","LVL":0,"STARTSN_ID":"https://databrussels.be/id/streetnode/1986","ENDSN_ID":"https://databrussels.be/id/streetnode/4162","STRNAMEFRE":"Rue Molensteen","STRNAMEDUT":"Molensteenstraat","SLOPE":3.86,"LENGTH":127.258148819767},"bbox":[146927.498,163754.656,147020.534,163841.373]},{"type":"Feature","id":"StreetAxes.fid-1cd8d64c_1a02c0ead07_5be2","geometry":{"type":"LineString","coordinates":[[146752.568,163644.558],[146759.222,163637.708],[146795.884,163600.773]]},"geometry_name":"GEOM","properties":{"INSPIRE_ID":"https://databrussels.be/id/streetaxe/71012","TYPE":"S","HIERARCHY":"DR","LVL":0,"STARTSN_ID":"https://databrussels.be/id/streetnode/1553","ENDSN_ID":"https://databrussels.be/id/streetnode/2849","STRNAMEFRE":"Rue des Trois Rois","STRNAMEDUT":"Drie Koningenstraat","SLOPE":2.03,"LENGTH":61.5910715085584},"bbox":[146752.568,163600.773,146795.884,163644.558]},{"type":"Feature","id":"StreetAxes.fid-1cd8d64c_1a02c0ead07_5bd6","geometry":{"type":"LineString","coordinates":[[146820.976,163754.24],[146830.07,163742.95],[146883.735,163693.015],[146909.566,163700.353]]},"geometry_name":"GEOM","properties":{"INSPIRE_ID":"https://databrussels.be/id/streetaxe/71096","TYPE":"S","HIERARCHY":"DR","LVL":0,"STARTSN_ID":"https://databrussels.be/id/streetnode/3087","ENDSN_ID":"https://databrussels.be/id/streetnode/3993","STRNAMEFRE":"Rue Steenvelt","STRNAMEDUT":"Steenveltstraat","SLOPE":2.67,"LENGTH":114.653853365961},"bbox":[146820.976,163693.015,146909.566,163754.24]},{"type":"Feature","id":"StreetAxes.fid-1cd8d64c_1a02c0ead07_5bd8","geometry":{"type":"LineString","coordinates":[[146927.498,163841.373],[146915.746,163831.262],[146857.593,163782.908],[146831.566,163762.408],[146820.976,163754.24]]},"geometry_name":"GEOM","properties":{"INSPIRE_ID":"https://databrussels.be/id/streetaxe/71097","TYPE":"S","HIERARCHY":"DR","LVL":0,"STARTSN_ID":"https://databrussels.be/id/streetnode/4162","ENDSN_ID":"https://databrussels.be/id/streetnode/3087","STRNAMEFRE":"Avenue de Beersel","STRNAMEDUT":"Beersellaan","SLOPE":0.45,"LENGTH":137.637744374879},"bbox":[146820.976,163754.24,146927.498,163841.373]},{"type":"Feature","id":"StreetAxes.fid-1cd8d64c_1a02c0ead07_5be3","geometry":{"type":"LineString","coordinates":[[146718.258,163683.099],[146726.515,163670.885],[146745.914,163651.407],[146752.568,163644.558]]},"geometry_name":"GEOM","properties":{"INSPIRE_ID":"https://databrussels.be/id/streetaxe/71122","TYPE":"S","HIERARCHY":"DR","LVL":0,"STARTSN_ID":"https://databrussels.be/id/streetnode/3307","ENDSN_ID":"https://databrussels.be/id/streetnode/1553","STRNAMEFRE":"Rue des Trois Rois","STRNAMEDUT":"Drie Koningenstraat","SLOPE":0.62,"LENGTH":51.7824342624926},"bbox":[146718.258,163644.558,146752.568,163683.099]},{"type":"Feature","id":"StreetAxes.fid-1cd8d64c_1a02c0ead07_5bd5","geometry":{"type":"LineString","coordinates":[[146820.976,163754.24],[146810.387,163746.072],[146778.948,163723.617],[146729.83,163690.522],[146718.258,163683.099]]},"geometry_name":"GEOM","properties":{"INSPIRE_ID":"https://databrussels.be/id/streetaxe/71483","TYPE":"S","HIERARCHY":"DR","LVL":0,"STARTSN_ID":"https://databrussels.be/id/streetnode/3087","ENDSN_ID":"https://databrussels.be/id/streetnode/3307","STRNAMEFRE":"Avenue de Beersel","STRNAMEDUT":"Beersellaan","SLOPE":0.42,"LENGTH":124.983226756285},"bbox":[146718.258,163683.099,146820.976,163754.24]},{"type":"Feature","id":"StreetAxes.fid-1cd8d64c_1a02c0ead07_5bdb","geometry":{"type":"LineString","coordinates":[[146927.498,163841.373],[146916.088,163851.966],[146891.092,163874.729]]},"geometry_name":"GEOM","properties":{"INSPIRE_ID":"https://databrussels.be/id/streetaxe/72932","TYPE":"S","HIERARCHY":"DR","LVL":0,"STARTSN_ID":"https://databrussels.be/id/streetnode/4162","ENDSN_ID":"https://databrussels.be/id/streetnode/4252","STRNAMEFRE":"Rue Molensteen","STRNAMEDUT":"Molensteenstraat","SLOPE":0.02,"LENGTH":49.376797735348},"bbox":[146891.092,163841.373,146927.498,163874.729]},{"type":"Feature","id":"StreetAxes.fid-1cd8d64c_1a02c0ead07_5bd4","geometry":{"type":"LineString","coordinates":[[146619.448,163928.852],[146621.952,163922.18],[146627.46,163913.575],[146629.504,163907.232],[146630.041,163902.404],[146630.46683778,163896.17905038],[146632.62573565,163889.1041062],[146635.66308163,163885.82728996],[146645.89331016,163882.19543462],[146650.05857013,163879.02],[146650.77323977,163873.875],[146649.29923364,163864.44],[146649.59488566,163858.98513415],[146653.26650963,163851.51541743],[146653.8617204,163849.4713372],[146653.506,163846.429],[146652.719,163844.843],[146649.68534797,163839.8475893],[146646.23961934,163831.97471909],[146645.72,163824.1],[146644.95666276,163809.5058059],[146646.31672284,163803.44795145],[146659.81158174,163787.392],[146666.07983006,163775.11473786],[146680.041,163748.6775],[146683.4745,163741.621],[146687.008,163735.989],[146691.59,163735.618],[146710.278,163694.904],[146718.258,163683.099]]},"geometry_name":"GEOM","properties":{"INSPIRE_ID":"https://databrussels.be/id/streetaxe/73674","TYPE":"S","HIERARCHY":null,"LVL":0,"STARTSN_ID":"https://databrussels.be/id/streetnode/4243","ENDSN_ID":"https://databrussels.be/id/streetnode/3307","STRNAMEFRE":"Rue des Trois Rois","STRNAMEDUT":"Drie Koningenstraat","SLOPE":0.81,"LENGTH":284.505075116275},"bbox":[146619.448,163683.099,146718.258,163928.852]},{"type":"Feature","id":"StreetAxes.fid-1cd8d64c_1a02c0ead07_5bdd","geometry":{"type":"LineString","coordinates":[[147024.002,164056.503],[147010.805,164052.335],[147001.714,164049.448],[146904.642,164019.274],[146780.386,163979.551],[146647.786,163937.314],[146621.698,163929.279],[146619.448,163928.852]]},"geometry_name":"GEOM","properties":{"INSPIRE_ID":"https://databrussels.be/id/streetaxe/74181","TYPE":"S","HIERARCHY":"IDR","LVL":0,"STARTSN_ID":"https://databrussels.be/id/streetnode/1079","ENDSN_ID":"https://databrussels.be/id/streetnode/4243","STRNAMEFRE":"Chaussée de Drogenbos","STRNAMEDUT":"Drogenbossesteenweg","SLOPE":0.24,"LENGTH":424.234398251351},"bbox":[146619.448,163928.852,147024.002,164056.503]},{"type":"Feature","id":"StreetAxes.fid-1cd8d64c_1a02c0ead07_5be0","geometry":{"type":"LineString","coordinates":[[147020.534,163754.656],[147010.38903171,163749.08098357],[147006.18256495,163743.80662948],[146989.083,163722.531],[146986.4465,163717.9705],[146985.131,163714.375],[146985.009,163708.3955],[146986.6205,163673.268],[146985.1265,163666.2845],[146978.336,163655.464],[146971.379,163646.897],[146965.732,163621.699],[146962.8955,163605.6485],[146960.63012021,163592.73944471]]},"geometry_name":"GEOM","properties":{"INSPIRE_ID":"https://databrussels.be/id/streetaxe/79778","TYPE":"S","HIERARCHY":"DR","LVL":0,"STARTSN_ID":"https://databrussels.be/id/streetnode/1986","ENDSN_ID":"https://databrussels.be/id/streetnode/4475","STRNAMEFRE":"Rue Steenvelt","STRNAMEDUT":"Steenveltstraat","SLOPE":0.08,"LENGTH":182.040147747109},"bbox":[146960.63012021,163592.73944471,147020.534,163754.656]},{"type":"Feature","id":"StreetAxes.fid-1cd8d64c_1a02c0ead07_5bdf","geometry":{"type":"LineString","coordinates":[[147099.111,163686.484],[147094.503,163674.76],[146991.88475874,163416.31101455]]},"geometry_name":"GEOM","properties":{"INSPIRE_ID":"https://databrussels.be/id/streetaxe/88568","TYPE":"SC","HIERARCHY":"IDR","LVL":0,"STARTSN_ID":"https://databrussels.be/id/streetnode/2383","ENDSN_ID":"https://databrussels.be/id/streetnode/7236","STRNAMEFRE":"Chaussée d'Alsemberg","STRNAMEDUT":"Alsembergsesteenweg","SLOPE":0.63,"LENGTH":290.673272107745},"bbox":[146991.88475874,163416.31101455,147099.111,163686.484]},{"type":"Feature","id":"StreetAxes.fid-1cd8d64c_1a02c0ead07_5bd7","geometry":{"type":"LineString","coordinates":[[147020.534,163754.656],[147007.9615,163753.37],[147002.802,163754.356],[146986.615,163756.67],[146976,163756.74],[146966.355,163756.085],[146955.74,163753.485],[146940.2,163746.995],[146928.275,163746.285],[146908.016,163745.198],[146892.82,163739.8]]},"geometry_name":"GEOM","properties":{"INSPIRE_ID":"https://databrussels.be/id/streetaxe/88599","TYPE":"S","HIERARCHY":null,"LVL":0,"STARTSN_ID":"https://databrussels.be/id/streetnode/1986","ENDSN_ID":"https://databrussels.be/id/streetnode/2225","STRNAMEFRE":"Rue Zandbeek","STRNAMEDUT":"Zandbeekstraat","SLOPE":3.22,"LENGTH":130.655066230269},"bbox":[146892.82,163739.8,147020.534,163756.74]},{"type":"Feature","id":"StreetAxes.fid-1cd8d64c_1a02c0ead07_5be1","geometry":{"type":"LineString","coordinates":[[146725.78608596,163600.22644922],[146727.785,163603.13],[146744.615,163635.14],[146752.568,163644.558]]},"geometry_name":"GEOM","properties":{"INSPIRE_ID":"https://databrussels.be/id/streetaxe/98771","TYPE":"S","HIERARCHY":"DR","LVL":0,"STARTSN_ID":"https://databrussels.be/id/streetnode/2309","ENDSN_ID":"https://databrussels.be/id/streetnode/1553","STRNAMEFRE":"Rue de l'Yser","STRNAMEDUT":"IJzerstraat","SLOPE":0.87,"LENGTH":52.0165955251627},"bbox":[146725.78608596,163600.22644922,146752.568,163644.558]},{"type":"Feature","id":"StreetAxes.fid-1cd8d64c_1a02c0ead07_5be4","geometry":{"type":"LineString","coordinates":[[146718.258,163683.099],[146705.272,163674.77],[146691.574,163666.219],[146687.7850454,163663.37798987]]},"geometry_name":"GEOM","properties":{"INSPIRE_ID":"https://databrussels.be/id/streetaxe/98776","TYPE":"S","HIERARCHY":"DR","LVL":0,"STARTSN_ID":"https://databrussels.be/id/streetnode/3307","ENDSN_ID":"https://databrussels.be/id/streetnode/1874","STRNAMEFRE":"Avenue de Beersel","STRNAMEDUT":"Beersellaan","SLOPE":1.07,"LENGTH":36.3111958986806},"bbox":[146687.7850454,163663.37798987,146718.258,163683.099]},{"type":"Feature","id":"StreetAxes.fid-1cd8d64c_1a02c0ead07_5bdc","geometry":{"type":"LineString","coordinates":[[146619.448,163928.852],[146617.197,163928.425],[146610.055,163926.229],[146605.53563331,163924.7607626]]},"geometry_name":"GEOM","properties":{"INSPIRE_ID":"https://databrussels.be/id/streetaxe/99298","TYPE":"S","HIERARCHY":"IDR","LVL":0,"STARTSN_ID":"https://databrussels.be/id/streetnode/4243","ENDSN_ID":"https://databrussels.be/id/streetnode/12385","STRNAMEFRE":"Chaussée de Drogenbos","STRNAMEDUT":"Drogenbossesteenweg","SLOPE":0.76,"LENGTH":14.5150114407068},"bbox":[146605.53563331,163924.7607626,146619.448,163928.852]},{"type":"Feature","id":"StreetAxes.fid-1cd8d64c_1a02c0ead07_5bde","geometry":{"type":"LineString","coordinates":[[146508.92596527,164122.1444088],[146507.59,164120.11],[146505.45217418,164113.169],[146505.68194056,164105.62273287],[146508.997,164091.458],[146519.19879149,164056.45610586],[146522.69614165,164051.98148152],[146527.3374227,164049.36133149],[146537.97273441,164044.12965034],[146543.34926791,164040.91192223],[146562.99183729,164020.09393767],[146580.14982552,163999.04046418]]},"geometry_name":"GEOM","properties":{"INSPIRE_ID":"https://databrussels.be/id/streetaxe/99316","TYPE":"S","HIERARCHY":"DR","LVL":0,"STARTSN_ID":"https://databrussels.be/id/streetnode/12397","ENDSN_ID":"https://databrussels.be/id/streetnode/12385","STRNAMEFRE":"Rue des Trois Rois","STRNAMEDUT":"Drie Koningenstraat","SLOPE":0.73,"LENGTH":153.161131560852},"bbox":[146505.45217418,163999.04046418,146580.14982552,164122.1444088]}],"numberReturned":17,"grand_bruxelles_source":{"authority":"Paradigm / Brussels-Capital Region","service":"https://geoservices-urbis.irisnet.be/geoserver/urbisvector/wfs","layer":"urbisvector:StreetAxes","crs":"EPSG:31370","bbox":[146500.0,163500.0,147000.0,164000.0],"cell_id":"bxl-e146500-n163500-s500","ownership":"bbox_intersection_source_unclipped"}}
