{"type":"FeatureCollection","totalFeatures":32,"numberMatched":32,"timeStamp":"2026-08-24T03:17:26.972Z","crs":{"type":"name","properties":{"name":"urn:ogc:def:crs:EPSG::31370"}},"bbox":[155878.12464092,168942.28735509,156685.95513617,169775.58677785],"features":[{"type":"Feature","id":"StreetAxes.fid-13d79f14_1a031586a2a_-272f","geometry":{"type":"LineString","coordinates":[[156415.14797116,168942.28735509],[156366.05644924,169013.13549689]]},"geometry_name":"GEOM","properties":{"INSPIRE_ID":"https://databrussels.be/id/streetaxe/100885","TYPE":"S","HIERARCHY":"H","LVL":0,"STARTSN_ID":"https://databrussels.be/id/streetnode/","ENDSN_ID":"https://databrussels.be/id/streetnode/","STRNAMEFRE":"Avenue de la Pelouse","STRNAMEDUT":"Grasperklaan","SLOPE":null,"LENGTH":86.1941803122651},"bbox":[156366.05644924,168942.28735509,156415.14797116,169013.13549689]},{"type":"Feature","id":"StreetAxes.fid-13d79f14_1a031586a2a_-2728","geometry":{"type":"LineString","coordinates":[[156177.452,169136.524],[156192.247,169126.892],[156265.981,169083.013],[156286.459,169082.571]]},"geometry_name":"GEOM","properties":{"INSPIRE_ID":"https://databrussels.be/id/streetaxe/70161","TYPE":"S","HIERARCHY":"DR","LVL":0,"STARTSN_ID":"https://databrussels.be/id/streetnode/556","ENDSN_ID":"https://databrussels.be/id/streetnode/3467","STRNAMEFRE":"Avenue de la Pelouse","STRNAMEDUT":"Grasperklaan","SLOPE":0.78,"LENGTH":123.939377542771},"bbox":[156177.452,169082.571,156286.459,169136.524]},{"type":"Feature","id":"StreetAxes.fid-13d79f14_1a031586a2a_-2736","geometry":{"type":"LineString","coordinates":[[156116.751,169477.876],[156123.214,169483.256],[156426.96,169734.62],[156433.226,169740.02]]},"geometry_name":"GEOM","properties":{"INSPIRE_ID":"https://databrussels.be/id/streetaxe/70371","TYPE":"S","HIERARCHY":"DR","LVL":0,"STARTSN_ID":"https://databrussels.be/id/streetnode/2798","ENDSN_ID":"https://databrussels.be/id/streetnode/669","STRNAMEFRE":"Avenue de l'Escrime","STRNAMEDUT":"Schermlaan","SLOPE":1.83,"LENGTH":410.946776719152},"bbox":[156116.751,169477.876,156433.226,169740.02]},{"type":"Feature","id":"StreetAxes.fid-13d79f14_1a031586a2a_-272c","geometry":{"type":"LineString","coordinates":[[156286.459,169082.571],[156308.63,169082.092],[156340.226,169063.234],[156356.186,169053.381],[156364.915,169044.074],[156366.05644924,169013.13549689]]},"geometry_name":"GEOM","properties":{"INSPIRE_ID":"https://databrussels.be/id/streetaxe/70530","TYPE":"S","HIERARCHY":"DR","LVL":0,"STARTSN_ID":"https://databrussels.be/id/streetnode/3467","ENDSN_ID":"https://databrussels.be/id/streetnode/1402","STRNAMEFRE":"Avenue de la Pelouse","STRNAMEDUT":"Grasperklaan","SLOPE":1.28,"LENGTH":121.447875609596},"bbox":[156286.459,169013.13549689,156366.05644924,169082.571]},{"type":"Feature","id":"StreetAxes.fid-13d79f14_1a031586a2a_-2727","geometry":{"type":"LineString","coordinates":[[156286.459,169082.571],[156300.573,169103.036],[156349.13,169184.455],[156353.772,169191.02]]},"geometry_name":"GEOM","properties":{"INSPIRE_ID":"https://databrussels.be/id/streetaxe/71093","TYPE":"S","HIERARCHY":"DR","LVL":0,"STARTSN_ID":"https://databrussels.be/id/streetnode/3467","ENDSN_ID":"https://databrussels.be/id/streetnode/3405","STRNAMEFRE":"Avenue des Mille Mètres","STRNAMEDUT":"Duizend Meterlaan","SLOPE":1.28,"LENGTH":127.699315649328},"bbox":[156286.459,169082.571,156353.772,169191.02]},{"type":"Feature","id":"StreetAxes.fid-13d79f14_1a031586a2a_-2723","geometry":{"type":"LineString","coordinates":[[156353.772,169191.02],[156358.415,169197.585],[156484.491,169407.558],[156488.875,169414.835]]},"geometry_name":"GEOM","properties":{"INSPIRE_ID":"https://databrussels.be/id/streetaxe/71245","TYPE":"S","HIERARCHY":"DR","LVL":0,"STARTSN_ID":"https://databrussels.be/id/streetnode/3405","ENDSN_ID":"https://databrussels.be/id/streetnode/2172","STRNAMEFRE":"Avenue des Mille Mètres","STRNAMEDUT":"Duizend Meterlaan","SLOPE":0.99,"LENGTH":261.452418219396},"bbox":[156353.772,169191.02,156488.875,169414.835]},{"type":"Feature","id":"StreetAxes.fid-13d79f14_1a031586a2a_-2725","geometry":{"type":"LineString","coordinates":[[156177.452,169136.524],[156184.62,169148.3],[156265.86,169282.184],[156273.01,169288.134]]},"geometry_name":"GEOM","properties":{"INSPIRE_ID":"https://databrussels.be/id/streetaxe/72755","TYPE":"S","HIERARCHY":"DR","LVL":0,"STARTSN_ID":"https://databrussels.be/id/streetnode/556","ENDSN_ID":"https://databrussels.be/id/streetnode/4697","STRNAMEFRE":"Avenue Salomé","STRNAMEDUT":"Salomélaan","SLOPE":1.11,"LENGTH":179.692063840869},"bbox":[156177.452,169136.524,156273.01,169288.134]},{"type":"Feature","id":"StreetAxes.fid-13d79f14_1a031586a2a_-2735","geometry":{"type":"LineString","coordinates":[[156194.43117098,169381.67655654],[156184.21936738,169393.89837496],[156143.62142033,169444.62786795],[156116.751,169477.876]]},"geometry_name":"GEOM","properties":{"INSPIRE_ID":"https://databrussels.be/id/streetaxe/73396","TYPE":"S","HIERARCHY":"DR","LVL":0,"STARTSN_ID":"https://databrussels.be/id/streetnode/9043","ENDSN_ID":"https://databrussels.be/id/streetnode/2798","STRNAMEFRE":"Avenue de l'Aviation","STRNAMEDUT":"Luchtvaartlaan","SLOPE":0.05,"LENGTH":123.649703143219},"bbox":[156116.751,169381.67655654,156194.43117098,169477.876]},{"type":"Feature","id":"StreetAxes.fid-13d79f14_1a031586a2a_-2738","geometry":{"type":"LineString","coordinates":[[155939.488,169331.692],[155946.999,169337.98],[156110.845,169472.96],[156116.751,169477.876]]},"geometry_name":"GEOM","properties":{"INSPIRE_ID":"https://databrussels.be/id/streetaxe/73465","TYPE":"S","HIERARCHY":"DR","LVL":0,"STARTSN_ID":"https://databrussels.be/id/streetnode/4684","ENDSN_ID":"https://databrussels.be/id/streetnode/2798","STRNAMEFRE":"Avenue de l'Hélice","STRNAMEDUT":"Schroeflaan","SLOPE":0.95,"LENGTH":229.765326808837},"bbox":[155939.488,169331.692,156116.751,169477.876]},{"type":"Feature","id":"StreetAxes.fid-13d79f14_1a031586a2a_-273f","geometry":{"type":"LineString","coordinates":[[156488.875,169414.835],[156495.69,169410.765],[156513.855,169398.955],[156528.032,169390.512],[156556.642,169373.47],[156582.595,169358.04],[156592.214,169353.908],[156605.552,169347.759]]},"geometry_name":"GEOM","properties":{"INSPIRE_ID":"https://databrussels.be/id/streetaxe/73540","TYPE":"S","HIERARCHY":"DR","LVL":0,"STARTSN_ID":"https://databrussels.be/id/streetnode/2172","ENDSN_ID":"https://databrussels.be/id/streetnode/4357","STRNAMEFRE":"Avenue des Obstacles","STRNAMEDUT":"Hindernislaan","SLOPE":0.39,"LENGTH":134.755717356799},"bbox":[156488.875,169347.759,156605.552,169414.835]},{"type":"Feature","id":"StreetAxes.fid-13d79f14_1a031586a2a_-273e","geometry":{"type":"LineString","coordinates":[[156488.875,169414.835],[156493.258,169422.112],[156516.912,169460.776],[156522.238,169469.906]]},"geometry_name":"GEOM","properties":{"INSPIRE_ID":"https://databrussels.be/id/streetaxe/73541","TYPE":"S","HIERARCHY":"DR","LVL":0,"STARTSN_ID":"https://databrussels.be/id/streetnode/2172","ENDSN_ID":"https://databrussels.be/id/streetnode/3360","STRNAMEFRE":"Avenue des Mille Mètres","STRNAMEDUT":"Duizend Meterlaan","SLOPE":1.29,"LENGTH":64.3906143487634},"bbox":[156488.875,169414.835,156522.238,169469.906]},{"type":"Feature","id":"StreetAxes.fid-13d79f14_1a031586a2a_-2722","geometry":{"type":"LineString","coordinates":[[156273.01,169288.134],[156282.066,169280.156],[156346.03,169200.295],[156353.772,169191.02]]},"geometry_name":"GEOM","properties":{"INSPIRE_ID":"https://databrussels.be/id/streetaxe/73756","TYPE":"S","HIERARCHY":"DR","LVL":0,"STARTSN_ID":"https://databrussels.be/id/streetnode/4697","ENDSN_ID":"https://databrussels.be/id/streetnode/3405","STRNAMEFRE":"Avenue de l'Aviation","STRNAMEDUT":"Luchtvaartlaan","SLOPE":0.49,"LENGTH":126.46949160595},"bbox":[156273.01,169191.02,156353.772,169288.134]},{"type":"Feature","id":"StreetAxes.fid-13d79f14_1a031586a2a_-272e","geometry":{"type":"LineString","coordinates":[[156048.33940813,168942.31623568],[156071.315,168960.355],[156170.742,169125.5],[156177.452,169136.524]]},"geometry_name":"GEOM","properties":{"INSPIRE_ID":"https://databrussels.be/id/streetaxe/76871","TYPE":"S","HIERARCHY":"DR","LVL":0,"STARTSN_ID":"https://databrussels.be/id/streetnode/13457","ENDSN_ID":"https://databrussels.be/id/streetnode/556","STRNAMEFRE":"Avenue Salomé","STRNAMEDUT":"Salomélaan","SLOPE":0.96,"LENGTH":234.882056587434},"bbox":[156048.33940813,168942.31623568,156177.452,169136.524]},{"type":"Feature","id":"StreetAxes.fid-13d79f14_1a031586a2a_-272d","geometry":{"type":"LineString","coordinates":[[156048.33940813,168942.31623568],[156040.52922324,168950.2062527],[156031.50046911,168958.56042395],[156022.43985065,168966.21399988],[156012.50568252,168973.50537552],[156004.65181123,168978.13894632],[155995.56755781,168982.2434196],[155987.2262046,168985.58718505],[155978.74798328,168988.58920056],[155966.75130355,168992.27789217],[155955.30646942,168994.8520567],[155944.93686968,168996.70379306],[155930.65870491,168998.56585792],[155921.36118254,168999.43500444],[155915.9530316,168999.54614184],[155908.32408776,168999.55104732],[155901.3176162,168999.19196888],[155888.44200698,168997.99464314],[155885.26543115,168998.10037338],[155878.12464092,169003.85279655]]},"geometry_name":"GEOM","properties":{"INSPIRE_ID":"https://databrussels.be/id/streetaxe/81256","TYPE":"S","HIERARCHY":"DC","LVL":0,"STARTSN_ID":"https://databrussels.be/id/streetnode/13457","ENDSN_ID":"https://databrussels.be/id/streetnode/13452","STRNAMEFRE":"Avenue Jules Du Jardin","STRNAMEDUT":"Jules Du Jardinlaan","SLOPE":0.48,"LENGTH":188.539437188538},"bbox":[155878.12464092,168942.31623568,156048.33940813,169003.85279655]},{"type":"Feature","id":"StreetAxes.fid-13d79f14_1a031586a2a_-272b","geometry":{"type":"LineString","coordinates":[[156353.772,169191.02],[156361.515,169181.745],[156480.87607957,169015.2812577]]},"geometry_name":"GEOM","properties":{"INSPIRE_ID":"https://databrussels.be/id/streetaxe/81944","TYPE":"S","HIERARCHY":"DR","LVL":0,"STARTSN_ID":"https://databrussels.be/id/streetnode/3405","ENDSN_ID":"https://databrussels.be/id/streetnode/6489","STRNAMEFRE":"Avenue de l'Aviation","STRNAMEDUT":"Luchtvaartlaan","SLOPE":1.03,"LENGTH":216.916881643612},"bbox":[156353.772,169015.2812577,156480.87607957,169191.02]},{"type":"Feature","id":"StreetAxes.fid-13d79f14_1a031586a2a_-2730","geometry":{"type":"LineString","coordinates":[[156202.39851421,169371.84893505],[156213.89843582,169381.90442219],[156227.34019898,169393.83194571],[156247.94354119,169410.35670507],[156258.24945313,169418.46686399],[156266.95692653,169425.43481722],[156289.58177806,169443.41988871],[156315.7427701,169464.54971689],[156344.82394483,169487.61665697],[156369.40771802,169507.22544622],[156385.46328837,169519.98289472],[156395.57429221,169528.17382701],[156433.54246013,169558.07165052],[156443.96778058,169566.5957187],[156463.38524496,169581.95589841],[156482.68874921,169597.27927421],[156503.41200927,169613.88886285],[156523.26032768,169629.5346991],[156531.7239606,169636.26501609],[156551.50446003,169652.08510874],[156570.18232528,169666.89108555],[156602.22764692,169692.60529833],[156620.57910471,169707.44048562],[156628.43888852,169714.11685849],[156636.56597431,169721.50481833],[156653.0443059,169737.41159459],[156665.4089958,169750.5664344],[156685.95513617,169774.28227252]]},"geometry_name":"GEOM","properties":{"INSPIRE_ID":"https://databrussels.be/id/streetaxe/85143","TYPE":"S","HIERARCHY":"IDR","LVL":0,"STARTSN_ID":"https://databrussels.be/id/streetnode/9042","ENDSN_ID":"https://databrussels.be/id/streetnode/14003","STRNAMEFRE":"Avenue Orban","STRNAMEDUT":"Orbanlaan","SLOPE":1.04,"LENGTH":629.86121222702},"bbox":[156202.39851421,169371.84893505,156685.95513617,169774.28227252]},{"type":"Feature","id":"StreetAxes.fid-13d79f14_1a031586a2a_-2726","geometry":{"type":"LineString","coordinates":[[155958.4408012,169108.1565534],[155961.55653406,169112.66662928],[155964.18520455,169116.3939513],[155977.73460975,169135.83452814],[155999.05098471,169166.3854565],[156023.87528059,169202.0736253],[156035.32261683,169218.65394071],[156056.48666973,169246.7935957],[156064.67517506,169256.49183772],[156076.22547479,169269.05718277],[156083.11279118,169276.17980263],[156092.88345924,169285.5054631],[156102.86770184,169294.51010152],[156113.36664855,169303.23535481],[156141.11044956,169325.44532843],[156150.29241199,169332.29659683],[156160.2644013,169338.9167326],[156172.93565823,169348.45639404],[156181.17711264,169354.9498877],[156202.39851421,169371.84893505]]},"geometry_name":"GEOM","properties":{"INSPIRE_ID":"https://databrussels.be/id/streetaxe/86249","TYPE":"S","HIERARCHY":null,"LVL":0,"STARTSN_ID":"https://databrussels.be/id/streetnode/13454","ENDSN_ID":"https://databrussels.be/id/streetnode/9042","STRNAMEFRE":"Avenue Orban","STRNAMEDUT":"Orbanlaan","SLOPE":1.34,"LENGTH":362.539655087569},"bbox":[155958.4408012,169108.1565534,156202.39851421,169371.84893505]},{"type":"Feature","id":"StreetAxes.fid-13d79f14_1a031586a2a_-2729","geometry":{"type":"LineString","coordinates":[[155958.4408012,169108.1565534],[155963.668,169104.572],[155983.588,169090.756],[155994.682,169080.816],[156005.065,169067.375]]},"geometry_name":"GEOM","properties":{"INSPIRE_ID":"https://databrussels.be/id/streetaxe/86250","TYPE":"S","HIERARCHY":"DR","LVL":0,"STARTSN_ID":"https://databrussels.be/id/streetnode/13454","ENDSN_ID":"https://databrussels.be/id/streetnode/1489","STRNAMEFRE":"Clos des Malouinières","STRNAMEDUT":"Malouinièresgaarde","SLOPE":1.81,"LENGTH":62.4604435356095},"bbox":[155958.4408012,169067.375,156005.065,169108.1565534]},{"type":"Feature","id":"StreetAxes.fid-13d79f14_1a031586a2a_-2737","geometry":{"type":"LineString","coordinates":[[156039.88,169573.201],[156044.526,169567.311],[156111.392,169484.296],[156116.751,169477.876]]},"geometry_name":"GEOM","properties":{"INSPIRE_ID":"https://databrussels.be/id/streetaxe/88530","TYPE":"S","HIERARCHY":"DR","LVL":0,"STARTSN_ID":"https://databrussels.be/id/streetnode/3620","ENDSN_ID":"https://databrussels.be/id/streetnode/2798","STRNAMEFRE":"Avenue de l'Aviation","STRNAMEDUT":"Luchtvaartlaan","SLOPE":1.89,"LENGTH":122.459831970792},"bbox":[156039.88,169477.876,156116.751,169573.201]},{"type":"Feature","id":"StreetAxes.fid-13d79f14_1a031586a2a_-272a","geometry":{"type":"LineString","coordinates":[[155882.72113529,169019.41699882],[155897.28797593,169037.16093283],[155915.8881125,169059.83963164],[155929.12420106,169076.93572154],[155939.19606837,169090.58254881],[155948.1910268,169103.09103985],[155956.23422693,169114.50472936],[155962.59877179,169123.62720414],[155973.67973316,169139.61540948],[155987.72900315,169159.78520967],[156006.76639511,169187.07324973],[156022.27247554,169209.38272196],[156033.77728056,169225.84600375],[156044.27771526,169240.08190608],[156057.04284472,169255.77220687],[156064.75050547,169264.61400644],[156072.87905343,169273.38305433],[156080.28747469,169280.95318317],[156085.92531314,169286.4555443],[156093.5310258,169293.44086349],[156100.5556249,169299.63663253],[156114.70642409,169311.32865824],[156121.46066504,169316.72330329],[156127.79416237,169321.75378361],[156136.53535636,169328.80406484],[156143.92323173,169334.6847598],[156154.63323714,169343.21478913],[156162.45409343,169349.48820591],[156174.80966885,169359.13381985],[156184.28574591,169366.84322734],[156191.55080078,169372.60606917],[156197.7539503,169377.69974626]]},"geometry_name":"GEOM","properties":{"INSPIRE_ID":"https://databrussels.be/id/streetaxe/91025","TYPE":"C","HIERARCHY":"IDR","LVL":0,"STARTSN_ID":"https://databrussels.be/id/streetnode/13453","ENDSN_ID":"https://databrussels.be/id/streetnode/9043","STRNAMEFRE":"Avenue Orban","STRNAMEDUT":"Orbanlaan","SLOPE":1.4,"LENGTH":480.358945651333},"bbox":[155882.72113529,169019.41699882,156197.7539503,169377.69974626]},{"type":"Feature","id":"StreetAxes.fid-13d79f14_1a031586a2a_-273c","geometry":{"type":"LineString","coordinates":[[156480.87607957,169015.2812577],[156485.08020763,169013.21982012],[156490.85087404,169007.13110544],[156493.07003108,169003.81294603]]},"geometry_name":"GEOM","properties":{"INSPIRE_ID":"https://databrussels.be/id/streetaxe/91031","TYPE":"I","HIERARCHY":"DR","LVL":0,"STARTSN_ID":"https://databrussels.be/id/streetnode/6489","ENDSN_ID":"https://databrussels.be/id/streetnode/6978","STRNAMEFRE":"Avenue de l'Aviation","STRNAMEDUT":"Luchtvaartlaan","SLOPE":0.35,"LENGTH":17.0630409163211},"bbox":[156480.87607957,169003.81294603,156493.07003108,169015.2812577]},{"type":"Feature","id":"StreetAxes.fid-13d79f14_1a031586a2a_-2739","geometry":{"type":"LineString","coordinates":[[156493.07003108,169003.81294603],[156497.48036997,169004.63586347],[156502.78759999,169002.57573603]]},"geometry_name":"GEOM","properties":{"INSPIRE_ID":"https://databrussels.be/id/streetaxe/91403","TYPE":"I","HIERARCHY":"DR","LVL":0,"STARTSN_ID":"https://databrussels.be/id/streetnode/6978","ENDSN_ID":"https://databrussels.be/id/streetnode/7025","STRNAMEFRE":"Avenue des Grands Prix","STRNAMEDUT":"Grote Prijzenlaan","SLOPE":1.38,"LENGTH":10.1795051801814},"bbox":[156493.07003108,169002.57573603,156502.78759999,169004.63586347]},{"type":"Feature","id":"StreetAxes.fid-13d79f14_1a031586a2a_-273a","geometry":{"type":"LineString","coordinates":[[156487.83354213,169000.32063971],[156490.0352152,169002.46658625],[156493.07003108,169003.81294603]]},"geometry_name":"GEOM","properties":{"INSPIRE_ID":"https://databrussels.be/id/streetaxe/91575","TYPE":"I","HIERARCHY":"DR","LVL":0,"STARTSN_ID":"https://databrussels.be/id/streetnode/6498","ENDSN_ID":"https://databrussels.be/id/streetnode/6978","STRNAMEFRE":"Avenue des Grands Prix","STRNAMEDUT":"Grote Prijzenlaan","SLOPE":1.88,"LENGTH":6.39454288279325},"bbox":[156487.83354213,169000.32063971,156493.07003108,169003.81294603]},{"type":"Feature","id":"StreetAxes.fid-13d79f14_1a031586a2a_-273b","geometry":{"type":"LineString","coordinates":[[156487.83354213,169000.32063971],[156487.00045152,168996.82157328],[156486.61368106,168994.22396084],[156487.55076505,168992.02417998]]},"geometry_name":"GEOM","properties":{"INSPIRE_ID":"https://databrussels.be/id/streetaxe/91581","TYPE":"I","HIERARCHY":"DR","LVL":0,"STARTSN_ID":"https://databrussels.be/id/streetnode/6498","ENDSN_ID":"https://databrussels.be/id/streetnode/6985","STRNAMEFRE":"Avenue des Grands Prix","STRNAMEDUT":"Grote Prijzenlaan","SLOPE":1.39,"LENGTH":8.61418188767267},"bbox":[156486.61368106,168992.02417998,156487.83354213,169000.32063971]},{"type":"Feature","id":"StreetAxes.fid-13d79f14_1a031586a2a_-273d","geometry":{"type":"LineString","coordinates":[[156480.87607957,169015.2812577],[156481.76804135,169010.69236432],[156485.62977012,169003.42672685],[156487.83354213,169000.32063971]]},"geometry_name":"GEOM","properties":{"INSPIRE_ID":"https://databrussels.be/id/streetaxe/91600","TYPE":"I","HIERARCHY":"DR","LVL":0,"STARTSN_ID":"https://databrussels.be/id/streetnode/6489","ENDSN_ID":"https://databrussels.be/id/streetnode/6498","STRNAMEFRE":"Avenue de l'Aviation","STRNAMEDUT":"Luchtvaartlaan","SLOPE":1.08,"LENGTH":16.7113885989428},"bbox":[156480.87607957,169000.32063971,156487.83354213,169015.2812577]},{"type":"Feature","id":"StreetAxes.fid-13d79f14_1a031586a2a_-2732","geometry":{"type":"LineString","coordinates":[[156678.43570715,169775.58677785],[156662.22707508,169756.03767093],[156655.02528928,169747.90028519],[156646.92490683,169739.30864855],[156641.53072669,169733.86802126],[156636.18194221,169728.69832076],[156627.19331855,169720.26472532],[156623.01371754,169716.55394952],[156617.13766692,169711.57009634],[156605.61585736,169702.10705987],[156593.23976835,169692.10221896],[156587.01193158,169687.17616639],[156581.86872918,169683.02134819],[156576.52624867,169678.76594779],[156570.67304491,169674.13907289],[156560.50237048,169666.04925505],[156554.00815793,169660.88368675],[156544.48096769,169653.29772611],[156539.30898087,169649.15134171],[156527.67407738,169639.92365776],[156523.15137028,169636.31114767],[156514.15636089,169629.17467155],[156497.63450416,169616.31185556],[156487.79383547,169608.38635636],[156477.90562876,169600.4414782],[156467.10018878,169591.80839858],[156454.86020381,169582.05290544],[156440.12443975,169570.28877107],[156426.71634153,169559.65962222],[156414.07791173,169549.64376042],[156401.82797123,169539.87803275],[156383.11619997,169524.97625855],[156371.24765753,169515.53152297],[156355.02938902,169502.63647468],[156340.15094769,169490.7925702],[156324.22819359,169478.09218598],[156308.01685586,169465.14897167],[156296.47916223,169456.00115148],[156287.33154969,169448.75403147],[156278.46410911,169441.69674846],[156269.69132973,169434.72478002],[156250.34649848,169420.19181022],[156240.12065098,169411.96019164],[156235.25479878,169408.07753925],[156224.80098466,169399.57211417],[156212.14473558,169389.27925053],[156197.7539503,169377.69974626]]},"geometry_name":"GEOM","properties":{"INSPIRE_ID":"https://databrussels.be/id/streetaxe/92608","TYPE":"C","HIERARCHY":"IDR","LVL":0,"STARTSN_ID":"https://databrussels.be/id/streetnode/14002","ENDSN_ID":"https://databrussels.be/id/streetnode/9043","STRNAMEFRE":"Avenue Orban","STRNAMEDUT":"Orbanlaan","SLOPE":1.02,"LENGTH":624.85761516715},"bbox":[156197.7539503,169377.69974626,156678.43570715,169775.58677785]},{"type":"Feature","id":"StreetAxes.fid-13d79f14_1a031586a2a_-2731","geometry":{"type":"LineString","coordinates":[[156197.7539503,169377.69974626],[156202.39851421,169371.84893505]]},"geometry_name":"GEOM","properties":{"INSPIRE_ID":"https://databrussels.be/id/streetaxe/92611","TYPE":"I","HIERARCHY":"IDR","LVL":0,"STARTSN_ID":"https://databrussels.be/id/streetnode/9043","ENDSN_ID":"https://databrussels.be/id/streetnode/9042","STRNAMEFRE":"Avenue de l'Aviation","STRNAMEDUT":"Luchtvaartlaan","SLOPE":0.8,"LENGTH":7.47020519963937},"bbox":[156197.7539503,169371.84893505,156202.39851421,169377.69974626]},{"type":"Feature","id":"StreetAxes.fid-13d79f14_1a031586a2a_-2720","geometry":{"type":"LineString","coordinates":[[156273.01,169288.134],[156266.44222891,169298.25837995],[156209.78332628,169368.63353354],[156202.39851421,169371.84893505]]},"geometry_name":"GEOM","properties":{"INSPIRE_ID":"https://databrussels.be/id/streetaxe/96688","TYPE":"S","HIERARCHY":"IDR","LVL":0,"STARTSN_ID":"https://databrussels.be/id/streetnode/4697","ENDSN_ID":"https://databrussels.be/id/streetnode/9042","STRNAMEFRE":"Avenue de l'Aviation","STRNAMEDUT":"Luchtvaartlaan","SLOPE":null,"LENGTH":110.471273765602},"bbox":[156202.39851421,169288.134,156273.01,169371.84893505]},{"type":"Feature","id":"StreetAxes.fid-13d79f14_1a031586a2a_-2721","geometry":{"type":"LineString","coordinates":[[156202.39851421,169371.84893505],[156204.4675032,169364.14897882],[156261.32413538,169293.84559469],[156273.01,169288.134]]},"geometry_name":"GEOM","properties":{"INSPIRE_ID":"https://databrussels.be/id/streetaxe/96701","TYPE":"S","HIERARCHY":"DR","LVL":0,"STARTSN_ID":"https://databrussels.be/id/streetnode/9042","ENDSN_ID":"https://databrussels.be/id/streetnode/4697","STRNAMEFRE":"Avenue de l'Aviation","STRNAMEDUT":"Luchtvaartlaan","SLOPE":1.54,"LENGTH":111.397117948055},"bbox":[156202.39851421,169288.134,156273.01,169371.84893505]},{"type":"Feature","id":"StreetAxes.fid-13d79f14_1a031586a2a_-2724","geometry":{"type":"LineString","coordinates":[[155977.67663766,169153.98364132],[156011.65513401,169203.57305778],[156020.45362301,169216.41388308],[156030.64862756,169231.29283243],[156043.1681092,169248.032369],[156053.74746515,169260.68998446],[156066.35265523,169274.78903655],[156077.24714094,169285.50972153],[156091.9682022,169299.29345935],[156107.27450444,169312.17629928],[156126.27232662,169327.53660843],[156139.11810909,169337.92280891],[156155.03792444,169350.7944572],[156194.43117098,169381.67655654]]},"geometry_name":"GEOM","properties":{"INSPIRE_ID":"https://databrussels.be/id/streetaxe/99600","TYPE":"S","HIERARCHY":"DR","LVL":0,"STARTSN_ID":"https://databrussels.be/id/streetnode/","ENDSN_ID":"https://databrussels.be/id/streetnode/","STRNAMEFRE":"Avenue Orban","STRNAMEDUT":"Orbanlaan","SLOPE":null,"LENGTH":316.963973745333},"bbox":[155977.67663766,169153.98364132,156194.43117098,169381.67655654]},{"type":"Feature","id":"StreetAxes.fid-13d79f14_1a031586a2a_-2733","geometry":{"type":"LineString","coordinates":[[156194.43117098,169381.67655654],[156197.7539503,169377.69974626]]},"geometry_name":"GEOM","properties":{"INSPIRE_ID":"https://databrussels.be/id/streetaxe/99601","TYPE":"S","HIERARCHY":"DR","LVL":0,"STARTSN_ID":"https://databrussels.be/id/streetnode/","ENDSN_ID":"https://databrussels.be/id/streetnode/","STRNAMEFRE":"Avenue de l'Aviation","STRNAMEDUT":"Luchtvaartlaan","SLOPE":null,"LENGTH":5.18226614543107},"bbox":[156194.43117098,169377.69974626,156197.7539503,169381.67655654]},{"type":"Feature","id":"StreetAxes.fid-13d79f14_1a031586a2a_-2734","geometry":{"type":"LineString","coordinates":[[156194.43117098,169381.67655654],[156206.99056164,169392.76161618],[156230.76034864,169411.95074139],[156245.21129869,169421.90566316],[156505.83591345,169629.7904451]]},"geometry_name":"GEOM","properties":{"INSPIRE_ID":"https://databrussels.be/id/streetaxe/99602","TYPE":"S","HIERARCHY":"DR","LVL":0,"STARTSN_ID":"https://databrussels.be/id/streetnode/","ENDSN_ID":"https://databrussels.be/id/streetnode/","STRNAMEFRE":"Avenue Orban","STRNAMEDUT":"Orbanlaan","SLOPE":null,"LENGTH":398.226877141549},"bbox":[156194.43117098,169381.67655654,156505.83591345,169629.7904451]}],"numberReturned":32,"grand_bruxelles_source":{"authority":"Paradigm / Brussels-Capital Region","service":"https://geoservices-urbis.irisnet.be/geoserver/urbisvector/wfs","layer":"urbisvector:StreetAxes","crs":"EPSG:31370","bbox":[156000.0,169000.0,156500.0,169500.0],"cell_id":"bxl-e156000-n169000-s500","ownership":"bbox_intersection_source_unclipped"}}
