{"type":"FeatureCollection","totalFeatures":62,"numberMatched":62,"timeStamp":"2026-08-23T02:03:18.853Z","crs":{"type":"name","properties":{"name":"urn:ogc:def:crs:EPSG::31370"}},"bbox":[145231.81916166,171318.23578859,146073.394,172078.87805761],"features":[{"type":"Feature","id":"StreetAxes.fid--578fcb21_1a02c23451d_-5475","geometry":{"type":"LineString","coordinates":[[145633.65290318,171670.31461233],[145641.95131732,171662.49514616],[145637.46600935,171652.13720196]]},"geometry_name":"GEOM","properties":{"INSPIRE_ID":"https://databrussels.be/id/streetaxe/73761","TYPE":"S","HIERARCHY":"MER","LVL":0,"STARTSN_ID":"https://databrussels.be/id/streetnode/10164","ENDSN_ID":"https://databrussels.be/id/streetnode/9109","STRNAMEFRE":"Boulevard Louis Mettewie","STRNAMEDUT":"Louis Mettewielaan","SLOPE":0.26,"LENGTH":22.6894753004294},"bbox":[145633.65290318,171652.13720196,145641.95131732,171670.31461233]},{"type":"Feature","id":"StreetAxes.fid--578fcb21_1a02c23451d_-5453","geometry":{"type":"LineString","coordinates":[[146054.566,171369.548],[146050.006,171379.686],[145998.86814311,171498.48640156],[145995.48171473,171508.14765564]]},"geometry_name":"GEOM","properties":{"INSPIRE_ID":"https://databrussels.be/id/streetaxe/74303","TYPE":"S","HIERARCHY":"DR","LVL":0,"STARTSN_ID":"https://databrussels.be/id/streetnode/9400","ENDSN_ID":"https://databrussels.be/id/streetnode/9403","STRNAMEFRE":"Rue de l'Elégie","STRNAMEDUT":"Elegiestraat","SLOPE":1.21,"LENGTH":150.693038209806},"bbox":[145995.48171473,171369.548,146054.566,171508.14765564]},{"type":"Feature","id":"StreetAxes.fid--578fcb21_1a02c23451d_-544d","geometry":{"type":"LineString","coordinates":[[146073.394,171543.015],[146060.635,171536.635],[146005.948,171512.908],[145995.48171473,171508.14765564]]},"geometry_name":"GEOM","properties":{"INSPIRE_ID":"https://databrussels.be/id/streetaxe/74305","TYPE":"S","HIERARCHY":"DR","LVL":0,"STARTSN_ID":"https://databrussels.be/id/streetnode/3235","ENDSN_ID":"https://databrussels.be/id/streetnode/9403","STRNAMEFRE":"Rue Van Kalck","STRNAMEDUT":"Van Kalckstraat","SLOPE":1.8,"LENGTH":85.3756215710717},"bbox":[145995.48171473,171508.14765564,146073.394,171543.015]},{"type":"Feature","id":"StreetAxes.fid--578fcb21_1a02c23451d_-545e","geometry":{"type":"LineString","coordinates":[[145636.50369595,171798.04181331],[145618.1,171805.215],[145607.395,171811.185],[145589,171822.97],[145577.655,171831.315],[145566.638,171841.274],[145557.077,171851.794],[145548.359,171862.896],[145537.495,171879.4],[145526.725,171901.405],[145522.152,171911.239]]},"geometry_name":"GEOM","properties":{"INSPIRE_ID":"https://databrussels.be/id/streetaxe/74501","TYPE":"S","HIERARCHY":null,"LVL":0,"STARTSN_ID":"https://databrussels.be/id/streetnode/10165","ENDSN_ID":"https://databrussels.be/id/streetnode/10176","STRNAMEFRE":"Avenue Joseph Lemaire","STRNAMEDUT":"Joseph Lemairelaan","SLOPE":2.06,"LENGTH":166.225198679458},"bbox":[145522.152,171798.04181331,145636.50369595,171911.239]},{"type":"Feature","id":"StreetAxes.fid--578fcb21_1a02c23451d_-545b","geometry":{"type":"LineString","coordinates":[[145925.58670808,171855.3125015],[145913.29670761,171863.86508012],[145883.52587087,171883.58778313],[145873.96677788,171890.38805009],[145866.07113754,171892.69697767]]},"geometry_name":"GEOM","properties":{"INSPIRE_ID":"https://databrussels.be/id/streetaxe/74715","TYPE":"S","HIERARCHY":"DR","LVL":0,"STARTSN_ID":"https://databrussels.be/id/streetnode/12801","ENDSN_ID":"https://databrussels.be/id/streetnode/12804","STRNAMEFRE":"Rue De Koninck","STRNAMEDUT":"De Koninckstraat","SLOPE":0.06,"LENGTH":70.6416373292162},"bbox":[145866.07113754,171855.3125015,145925.58670808,171892.69697767]},{"type":"Feature","id":"StreetAxes.fid--578fcb21_1a02c23451d_-545c","geometry":{"type":"LineString","coordinates":[[145736.07941978,171889.76790069],[145735.25516073,171882.71946659],[145674.69006435,171830.30485276],[145662.81468134,171820.51874874]]},"geometry_name":"GEOM","properties":{"INSPIRE_ID":"https://databrussels.be/id/streetaxe/74716","TYPE":"S","HIERARCHY":"DR","LVL":0,"STARTSN_ID":"https://databrussels.be/id/streetnode/12803","ENDSN_ID":"https://databrussels.be/id/streetnode/9103","STRNAMEFRE":"Rue Armand de Saulnier","STRNAMEDUT":"Armand de Saulnierstraat","SLOPE":4.01,"LENGTH":102.580864562376},"bbox":[145662.81468134,171820.51874874,145736.07941978,171889.76790069]},{"type":"Feature","id":"StreetAxes.fid--578fcb21_1a02c23451d_-5488","geometry":{"type":"LineString","coordinates":[[146067.336,171761.67],[146051.044,171748.654],[146002.401,171721.655],[145986.844,171714.172]]},"geometry_name":"GEOM","properties":{"INSPIRE_ID":"https://databrussels.be/id/streetaxe/76156","TYPE":"S","HIERARCHY":"DR","LVL":0,"STARTSN_ID":"https://databrussels.be/id/streetnode/12798","ENDSN_ID":"https://databrussels.be/id/streetnode/12797","STRNAMEFRE":"Avenue du Daring","STRNAMEDUT":"Daringlaan","SLOPE":1.17,"LENGTH":93.7495865886123},"bbox":[145986.844,171714.172,146067.336,171761.67]},{"type":"Feature","id":"StreetAxes.fid--578fcb21_1a02c23451d_-544c","geometry":{"type":"LineString","coordinates":[[145986.844,171714.172],[145998.518,171691.617],[146066.505,171557.914],[146073.394,171543.015]]},"geometry_name":"GEOM","properties":{"INSPIRE_ID":"https://databrussels.be/id/streetaxe/76158","TYPE":"S","HIERARCHY":"DR","LVL":0,"STARTSN_ID":"https://databrussels.be/id/streetnode/12797","ENDSN_ID":"https://databrussels.be/id/streetnode/3235","STRNAMEFRE":"Rue Charles Malis","STRNAMEDUT":"Charles Malisstraat","SLOPE":0.3,"LENGTH":191.807383466767},"bbox":[145986.844,171543.015,146073.394,171714.172]},{"type":"Feature","id":"StreetAxes.fid--578fcb21_1a02c23451d_-5472","geometry":{"type":"LineString","coordinates":[[145925.58670808,171855.3125015],[145926.34793599,171837.6810418],[145929.95723697,171827.03864208],[145975.171,171736.728],[145986.844,171714.172]]},"geometry_name":"GEOM","properties":{"INSPIRE_ID":"https://databrussels.be/id/streetaxe/76279","TYPE":"S","HIERARCHY":"DR","LVL":0,"STARTSN_ID":"https://databrussels.be/id/streetnode/12801","ENDSN_ID":"https://databrussels.be/id/streetnode/12797","STRNAMEFRE":"Rue Charles Malis","STRNAMEDUT":"Charles Malisstraat","SLOPE":0.37,"LENGTH":155.279664432509},"bbox":[145925.58670808,171714.172,145986.844,171855.3125015]},{"type":"Feature","id":"StreetAxes.fid--578fcb21_1a02c23451d_-5489","geometry":{"type":"LineString","coordinates":[[145925.58670808,171855.3125015],[145946.13816201,171842.56604097],[146021.558,171791.988]]},"geometry_name":"GEOM","properties":{"INSPIRE_ID":"https://databrussels.be/id/streetaxe/76280","TYPE":"S","HIERARCHY":"DR","LVL":0,"STARTSN_ID":"https://databrussels.be/id/streetnode/12801","ENDSN_ID":"https://databrussels.be/id/streetnode/12799","STRNAMEFRE":"Rue De Koninck","STRNAMEDUT":"De Koninckstraat","SLOPE":0.71,"LENGTH":114.992438516257},"bbox":[145925.58670808,171791.988,146021.558,171855.3125015]},{"type":"Feature","id":"StreetAxes.fid--578fcb21_1a02c23451d_-544e","geometry":{"type":"LineString","coordinates":[[145678.57552218,171504.36888324],[145678.07639216,171512.47311724],[145675.96636246,171529.96167368],[145674.20878748,171540.40838341],[145670.75288531,171554.67327658],[145647.77722482,171634.21925272],[145637.46600935,171652.13720196]]},"geometry_name":"GEOM","properties":{"INSPIRE_ID":"https://databrussels.be/id/streetaxe/78972","TYPE":"S","HIERARCHY":"DR","LVL":0,"STARTSN_ID":"https://databrussels.be/id/streetnode/9924","ENDSN_ID":"https://databrussels.be/id/streetnode/9109","STRNAMEFRE":"Avenue des Tamaris","STRNAMEDUT":"Tamariskenlaan","SLOPE":2.45,"LENGTH":154.476683790962},"bbox":[145637.46600935,171504.36888324,145678.57552218,171652.13720196]},{"type":"Feature","id":"StreetAxes.fid--578fcb21_1a02c23451d_-5478","geometry":{"type":"LineString","coordinates":[[145584.983,172056.708],[145588.595,172046.772],[145620.76228288,171957.94794816],[145624.16821476,171945.57603965]]},"geometry_name":"GEOM","properties":{"INSPIRE_ID":"https://databrussels.be/id/streetaxe/79812","TYPE":"S","HIERARCHY":"DR","LVL":0,"STARTSN_ID":"https://databrussels.be/id/streetnode/8651","ENDSN_ID":"https://databrussels.be/id/streetnode/8848","STRNAMEFRE":"Rue Potaerdegat","STRNAMEDUT":"Potaerdegatstraat","SLOPE":0.14,"LENGTH":117.873617222281},"bbox":[145584.983,171945.57603965,145624.16821476,172056.708]},{"type":"Feature","id":"StreetAxes.fid--578fcb21_1a02c23451d_-5451","geometry":{"type":"LineString","coordinates":[[145995.48171473,171508.14765564],[145985.01542946,171503.38731127],[145903.72917318,171468.45338061],[145896.36541535,171465.7518343]]},"geometry_name":"GEOM","properties":{"INSPIRE_ID":"https://databrussels.be/id/streetaxe/80254","TYPE":"S","HIERARCHY":"DR","LVL":0,"STARTSN_ID":"https://databrussels.be/id/streetnode/9403","ENDSN_ID":"https://databrussels.be/id/streetnode/9339","STRNAMEFRE":"Rue Van Kalck","STRNAMEDUT":"Van Kalckstraat","SLOPE":3.21,"LENGTH":107.816730729691},"bbox":[145896.36541535,171465.7518343,145995.48171473,171508.14765564]},{"type":"Feature","id":"StreetAxes.fid--578fcb21_1a02c23451d_-546f","geometry":{"type":"LineString","coordinates":[[145554.68114006,171728.17941482],[145558.3280756,171726.08051453],[145562.78350185,171725.9082889],[145566.99289379,171728.01105251]]},"geometry_name":"GEOM","properties":{"INSPIRE_ID":"https://databrussels.be/id/streetaxe/80414","TYPE":"S","HIERARCHY":"DR","LVL":0,"STARTSN_ID":"https://databrussels.be/id/streetnode/9125","ENDSN_ID":"https://databrussels.be/id/streetnode/9352","STRNAMEFRE":"Avenue Carl Requette","STRNAMEDUT":"Carl Requettelaan","SLOPE":2.09,"LENGTH":13.3719260379768},"bbox":[145554.68114006,171725.9082889,145566.99289379,171728.17941482]},{"type":"Feature","id":"StreetAxes.fid--578fcb21_1a02c23451d_-547f","geometry":{"type":"LineString","coordinates":[[145885.23854837,171915.18843016],[145894.36630634,171925.67107647],[145996.20298985,172048.5523376],[146001.50417046,172055.30236999]]},"geometry_name":"GEOM","properties":{"INSPIRE_ID":"https://databrussels.be/id/streetaxe/80418","TYPE":"S","HIERARCHY":"MER","LVL":0,"STARTSN_ID":"https://databrussels.be/id/streetnode/9130","ENDSN_ID":"https://databrussels.be/id/streetnode/9341","STRNAMEFRE":"Boulevard Louis Mettewie","STRNAMEDUT":"Louis Mettewielaan","SLOPE":1.66,"LENGTH":182.077409212026},"bbox":[145885.23854837,171915.18843016,146001.50417046,172055.30236999]},{"type":"Feature","id":"StreetAxes.fid--578fcb21_1a02c23451d_-547e","geometry":{"type":"LineString","coordinates":[[145885.23854837,171915.18843016],[145872.27930249,171926.75683925]]},"geometry_name":"GEOM","properties":{"INSPIRE_ID":"https://databrussels.be/id/streetaxe/80419","TYPE":"S","HIERARCHY":"MER","LVL":0,"STARTSN_ID":"https://databrussels.be/id/streetnode/9130","ENDSN_ID":"https://databrussels.be/id/streetnode/8880","STRNAMEFRE":"Boulevard Louis Mettewie","STRNAMEDUT":"Louis Mettewielaan","SLOPE":0.12,"LENGTH":17.3715325389133},"bbox":[145872.27930249,171915.18843016,145885.23854837,171926.75683925]},{"type":"Feature","id":"StreetAxes.fid--578fcb21_1a02c23451d_-5460","geometry":{"type":"LineString","coordinates":[[145668.82572757,171789.74972247],[145670.64075353,171795.65612586],[145665.6245044,171812.0873758],[145662.81468134,171820.51874874]]},"geometry_name":"GEOM","properties":{"INSPIRE_ID":"https://databrussels.be/id/streetaxe/80422","TYPE":"S","HIERARCHY":"DR","LVL":0,"STARTSN_ID":"https://databrussels.be/id/streetnode/9133","ENDSN_ID":"https://databrussels.be/id/streetnode/9103","STRNAMEFRE":"Avenue Joseph Lemaire","STRNAMEDUT":"Joseph Lemairelaan","SLOPE":4,"LENGTH":32.2461301972716},"bbox":[145662.81468134,171789.74972247,145670.64075353,171820.51874874]},{"type":"Feature","id":"StreetAxes.fid--578fcb21_1a02c23451d_-5457","geometry":{"type":"LineString","coordinates":[[145535.58667798,171726.01759636],[145434.511,171697.468],[145417.9,171692.218]]},"geometry_name":"GEOM","properties":{"INSPIRE_ID":"https://databrussels.be/id/streetaxe/80424","TYPE":"S","HIERARCHY":"DR","LVL":0,"STARTSN_ID":"https://databrussels.be/id/streetnode/9135","ENDSN_ID":"https://databrussels.be/id/streetnode/10177","STRNAMEFRE":"Avenue Carl Requette","STRNAMEDUT":"Carl Requettelaan","SLOPE":1.93,"LENGTH":122.45124093797},"bbox":[145417.9,171692.218,145535.58667798,171726.01759636]},{"type":"Feature","id":"StreetAxes.fid--578fcb21_1a02c23451d_-5485","geometry":{"type":"LineString","coordinates":[[145736.07941978,171889.76790069],[145729.316,171894.633],[145706.345,171902.864],[145653.798,171925.7],[145641.69119792,171930.59272047]]},"geometry_name":"GEOM","properties":{"INSPIRE_ID":"https://databrussels.be/id/streetaxe/81129","TYPE":"S","HIERARCHY":"DR","LVL":0,"STARTSN_ID":"https://databrussels.be/id/streetnode/12803","ENDSN_ID":"https://databrussels.be/id/streetnode/8339","STRNAMEFRE":"Rue des Béguines","STRNAMEDUT":"Begijnenstraat","SLOPE":0.53,"LENGTH":103.08526777219},"bbox":[145641.69119792,171889.76790069,145736.07941978,171930.59272047]},{"type":"Feature","id":"StreetAxes.fid--578fcb21_1a02c23451d_-5477","geometry":{"type":"LineString","coordinates":[[145840.23806432,172078.87805761],[145834.00083821,172078.71675349],[145825.499,172076.308],[145634.685,171952.405],[145624.16821476,171945.57603965]]},"geometry_name":"GEOM","properties":{"INSPIRE_ID":"https://databrussels.be/id/streetaxe/81130","TYPE":"S","HIERARCHY":"DR","LVL":0,"STARTSN_ID":"https://databrussels.be/id/streetnode/12805","ENDSN_ID":"https://databrussels.be/id/streetnode/8848","STRNAMEFRE":"Rue du Korenbeek","STRNAMEDUT":"Korenbeekstraat","SLOPE":1.07,"LENGTH":255.127722713742},"bbox":[145624.16821476,171945.57603965,145840.23806432,172078.87805761]},{"type":"Feature","id":"StreetAxes.fid--578fcb21_1a02c23451d_-546d","geometry":{"type":"LineString","coordinates":[[145535.58667798,171726.01759636],[145542.81418025,171730.96562351],[145551.53908134,171733.40706678]]},"geometry_name":"GEOM","properties":{"INSPIRE_ID":"https://databrussels.be/id/streetaxe/81202","TYPE":"S","HIERARCHY":"DR","LVL":0,"STARTSN_ID":"https://databrussels.be/id/streetnode/9135","ENDSN_ID":"https://databrussels.be/id/streetnode/9458","STRNAMEFRE":"Avenue Carl Requette","STRNAMEDUT":"Carl Requettelaan","SLOPE":1.8,"LENGTH":17.8190338916177},"bbox":[145535.58667798,171726.01759636,145551.53908134,171733.40706678]},{"type":"Feature","id":"StreetAxes.fid--578fcb21_1a02c23451d_-546e","geometry":{"type":"LineString","coordinates":[[145535.58667798,171726.01759636],[145545.6115966,171725.98693062],[145554.68114006,171728.17941482]]},"geometry_name":"GEOM","properties":{"INSPIRE_ID":"https://databrussels.be/id/streetaxe/81203","TYPE":"S","HIERARCHY":"DR","LVL":0,"STARTSN_ID":"https://databrussels.be/id/streetnode/9135","ENDSN_ID":"https://databrussels.be/id/streetnode/9125","STRNAMEFRE":"Avenue Carl Requette","STRNAMEDUT":"Carl Requettelaan","SLOPE":1.81,"LENGTH":19.3557535768433},"bbox":[145535.58667798,171725.98693062,145554.68114006,171728.17941482]},{"type":"Feature","id":"StreetAxes.fid--578fcb21_1a02c23451d_-5480","geometry":{"type":"LineString","coordinates":[[145595.47067233,171939.27417267],[145589.201,171937.972],[145582.37,171935.817],[145544.586,171920.99],[145531.428,171915.302],[145522.152,171911.239]]},"geometry_name":"GEOM","properties":{"INSPIRE_ID":"https://databrussels.be/id/streetaxe/81235","TYPE":"S","HIERARCHY":"DR","LVL":0,"STARTSN_ID":"https://databrussels.be/id/streetnode/7787","ENDSN_ID":"https://databrussels.be/id/streetnode/10176","STRNAMEFRE":"Rue du Korenbeek","STRNAMEDUT":"Korenbeekstraat","SLOPE":1.39,"LENGTH":78.6169749288179},"bbox":[145522.152,171911.239,145595.47067233,171939.27417267]},{"type":"Feature","id":"StreetAxes.fid--578fcb21_1a02c23451d_-547d","geometry":{"type":"LineString","coordinates":[[145872.27930249,171926.75683925],[145881.85381002,171938.06973729],[145973.73747894,172049.43262198],[145982.30853181,172059.90847555]]},"geometry_name":"GEOM","properties":{"INSPIRE_ID":"https://databrussels.be/id/streetaxe/82184","TYPE":"S","HIERARCHY":"MER","LVL":0,"STARTSN_ID":"https://databrussels.be/id/streetnode/8880","ENDSN_ID":"https://databrussels.be/id/streetnode/9351","STRNAMEFRE":"Boulevard Louis Mettewie","STRNAMEDUT":"Louis Mettewielaan","SLOPE":1.74,"LENGTH":172.731622435738},"bbox":[145872.27930249,171926.75683925,145982.30853181,172059.90847555]},{"type":"Feature","id":"StreetAxes.fid--578fcb21_1a02c23451d_-5471","geometry":{"type":"LineString","coordinates":[[145584.46971801,171716.65909186],[145576.7944359,171720.21822597],[145566.99289379,171728.01105251]]},"geometry_name":"GEOM","properties":{"INSPIRE_ID":"https://databrussels.be/id/streetaxe/82185","TYPE":"S","HIERARCHY":"DR","LVL":0,"STARTSN_ID":"https://databrussels.be/id/streetnode/8881","ENDSN_ID":"https://databrussels.be/id/streetnode/9352","STRNAMEFRE":"Avenue Edmond Candries","STRNAMEDUT":"Edmond Candrieslaan","SLOPE":1.19,"LENGTH":20.9822579688602},"bbox":[145566.99289379,171716.65909186,145584.46971801,171728.01105251]},{"type":"Feature","id":"StreetAxes.fid--578fcb21_1a02c23451d_-5470","geometry":{"type":"LineString","coordinates":[[145584.46971801,171716.65909186],[145580.70500508,171724.42705572],[145572.77343461,171732.01855236],[145570.52458252,171733.94908827]]},"geometry_name":"GEOM","properties":{"INSPIRE_ID":"https://databrussels.be/id/streetaxe/82186","TYPE":"S","HIERARCHY":"DR","LVL":0,"STARTSN_ID":"https://databrussels.be/id/streetnode/8881","ENDSN_ID":"https://databrussels.be/id/streetnode/9195","STRNAMEFRE":"Avenue Edmond Candries","STRNAMEDUT":"Edmond Candrieslaan","SLOPE":0.13,"LENGTH":22.5751005962669},"bbox":[145570.52458252,171716.65909186,145584.46971801,171733.94908827]},{"type":"Feature","id":"StreetAxes.fid--578fcb21_1a02c23451d_-5455","geometry":{"type":"LineString","coordinates":[[145637.46600935,171652.13720196],[145626.80568399,171640.74886033],[145562.96543808,171573.90098487],[145528.08213547,171537.37426673],[145518.7684836,171528.57046218],[145507.25835003,171519.33672534],[145496.83129858,171512.23793473],[145486.38692909,171506.09778472],[145475.57098828,171500.63868951],[145463.87990724,171495.89299928],[145451.97776053,171491.70469944],[145405.65638632,171477.80741611],[145393.13433935,171473.83868586],[145381.18831507,171469.44233915],[145369.51787494,171464.35940815],[145358.55989279,171458.95983326],[145347.31475887,171452.56965972],[145337.29283416,171445.99295397],[145326.78344523,171437.90411505],[145317.32367748,171429.33535841],[145308.35465931,171420.25419608],[145299.87273627,171410.71649312],[145292.16165383,171400.54545563],[145284.88536268,171390.05896988],[145277.1738763,171377.08785746],[145257.18711069,171341.84641091],[145248.88012913,171327.3517115],[145243.6557501,171318.23578859]]},"geometry_name":"GEOM","properties":{"INSPIRE_ID":"https://databrussels.be/id/streetaxe/82341","TYPE":"S","HIERARCHY":"MER","LVL":0,"STARTSN_ID":"https://databrussels.be/id/streetnode/9109","ENDSN_ID":"https://databrussels.be/id/streetnode/9353","STRNAMEFRE":"Boulevard Louis Mettewie","STRNAMEDUT":"Louis Mettewielaan","SLOPE":1.17,"LENGTH":532.185754544235},"bbox":[145243.6557501,171318.23578859,145637.46600935,171652.13720196]},{"type":"Feature","id":"StreetAxes.fid--578fcb21_1a02c23451d_-5476","geometry":{"type":"LineString","coordinates":[[145637.46600935,171652.13720196],[145655.80964054,171671.60439385],[145710.39318709,171729.17249123],[145721.33186252,171740.76012156]]},"geometry_name":"GEOM","properties":{"INSPIRE_ID":"https://databrussels.be/id/streetaxe/82342","TYPE":"S","HIERARCHY":"MER","LVL":0,"STARTSN_ID":"https://databrussels.be/id/streetnode/9109","ENDSN_ID":"https://databrussels.be/id/streetnode/9357","STRNAMEFRE":"Boulevard Louis Mettewie","STRNAMEDUT":"Louis Mettewielaan","SLOPE":2.18,"LENGTH":122.014466589681},"bbox":[145637.46600935,171652.13720196,145721.33186252,171740.76012156]},{"type":"Feature","id":"StreetAxes.fid--578fcb21_1a02c23451d_-5463","geometry":{"type":"LineString","coordinates":[[145710.43322127,171751.11125069],[145696.345,171764.665],[145672.249,171787.481],[145668.82572757,171789.74972247]]},"geometry_name":"GEOM","properties":{"INSPIRE_ID":"https://databrussels.be/id/streetaxe/82345","TYPE":"S","HIERARCHY":"DR","LVL":0,"STARTSN_ID":"https://databrussels.be/id/streetnode/10162","ENDSN_ID":"https://databrussels.be/id/streetnode/9133","STRNAMEFRE":"Avenue Joseph Lemaire","STRNAMEDUT":"Joseph Lemairelaan","SLOPE":1.51,"LENGTH":56.8404279842809},"bbox":[145668.82572757,171751.11125069,145710.43322127,171789.74972247]},{"type":"Feature","id":"StreetAxes.fid--578fcb21_1a02c23451d_-5479","geometry":{"type":"LineString","coordinates":[[145595.47067233,171939.27417267],[145593.96066834,171946.54442708],[145591.75438131,171951.68023832],[145587.279,171954.78],[145494.33,171994.919],[145469.99,172001.953],[145459.82679314,172002.6795131]]},"geometry_name":"GEOM","properties":{"INSPIRE_ID":"https://databrussels.be/id/streetaxe/82512","TYPE":"S","HIERARCHY":"DR","LVL":0,"STARTSN_ID":"https://databrussels.be/id/streetnode/7787","ENDSN_ID":"https://databrussels.be/id/streetnode/8652","STRNAMEFRE":"Rue des Béguines","STRNAMEDUT":"Begijnenstraat","SLOPE":0.17,"LENGTH":155.229766538362},"bbox":[145459.82679314,171939.27417267,145595.47067233,172002.6795131]},{"type":"Feature","id":"StreetAxes.fid--578fcb21_1a02c23451d_-5474","geometry":{"type":"LineString","coordinates":[[145633.65290318,171670.31461233],[145584.46971801,171716.65909186]]},"geometry_name":"GEOM","properties":{"INSPIRE_ID":"https://databrussels.be/id/streetaxe/83188","TYPE":"S","HIERARCHY":"DR","LVL":0,"STARTSN_ID":"https://databrussels.be/id/streetnode/10164","ENDSN_ID":"https://databrussels.be/id/streetnode/8881","STRNAMEFRE":"Avenue Edmond Candries","STRNAMEDUT":"Edmond Candrieslaan","SLOPE":0.89,"LENGTH":67.5780769707377},"bbox":[145584.46971801,171670.31461233,145633.65290318,171716.65909186]},{"type":"Feature","id":"StreetAxes.fid--578fcb21_1a02c23451d_-5462","geometry":{"type":"LineString","coordinates":[[145710.43322127,171751.11125069],[145736.86151194,171778.730134],[145768.64139516,171812.2064376],[145779.05294648,171825.13846286],[145819.46469525,171867.59004788],[145830.54321741,171879.22845999]]},"geometry_name":"GEOM","properties":{"INSPIRE_ID":"https://databrussels.be/id/streetaxe/83189","TYPE":"S","HIERARCHY":"MER","LVL":0,"STARTSN_ID":"https://databrussels.be/id/streetnode/10162","ENDSN_ID":"https://databrussels.be/id/streetnode/9108","STRNAMEFRE":"Boulevard Louis Mettewie","STRNAMEDUT":"Louis Mettewielaan","SLOPE":3.95,"LENGTH":175.666568226864},"bbox":[145710.43322127,171751.11125069,145830.54321741,171879.22845999]},{"type":"Feature","id":"StreetAxes.fid--578fcb21_1a02c23451d_-5454","geometry":{"type":"LineString","coordinates":[[145633.65290318,171670.31461233],[145570.63021334,171604.25294455],[145559.61985077,171594.24551728],[145549.26463473,171586.4279586],[145538.31536977,171579.14166825],[145526.90367723,171572.60334251],[145515.35110397,171567.09833746],[145503.03797323,171562.00005253],[145490.97091392,171558.17035756],[145416.03211785,171535.59948445],[145402.93665574,171531.18967032],[145391.58815571,171526.5971866],[145379.88193397,171520.94988681],[145368.21369007,171514.45218882],[145357.37920171,171507.6256536],[145346.98374439,171500.14753966],[145336.61602064,171491.34463168],[145327.52289778,171482.47343569],[145318.51909846,171472.63398451],[145310.11811208,171462.27509319],[145302.84263346,171451.74189611],[145295.78213076,171440.3577515],[145231.81916166,171328.71378331]]},"geometry_name":"GEOM","properties":{"INSPIRE_ID":"https://databrussels.be/id/streetaxe/83190","TYPE":"S","HIERARCHY":"MER","LVL":0,"STARTSN_ID":"https://databrussels.be/id/streetnode/10164","ENDSN_ID":"https://databrussels.be/id/streetnode/10166","STRNAMEFRE":"Boulevard Louis Mettewie","STRNAMEDUT":"Louis Mettewielaan","SLOPE":1.08,"LENGTH":548.377553316693},"bbox":[145231.81916166,171328.71378331,145633.65290318,171670.31461233]},{"type":"Feature","id":"StreetAxes.fid--578fcb21_1a02c23451d_-5466","geometry":{"type":"LineString","coordinates":[[145568.27388875,171742.31139515],[145565.60067175,171743.87046038],[145561.10315088,171745.27656458],[145556.19009477,171743.96011516]]},"geometry_name":"GEOM","properties":{"INSPIRE_ID":"https://databrussels.be/id/streetaxe/83792","TYPE":"S","HIERARCHY":"DR","LVL":0,"STARTSN_ID":"https://databrussels.be/id/streetnode/9336","ENDSN_ID":"https://databrussels.be/id/streetnode/9114","STRNAMEFRE":"Avenue Carl Requette","STRNAMEDUT":"Carl Requettelaan","SLOPE":1.94,"LENGTH":12.8932055960725},"bbox":[145556.19009477,171742.31139515,145568.27388875,171745.27656458]},{"type":"Feature","id":"StreetAxes.fid--578fcb21_1a02c23451d_-545f","geometry":{"type":"LineString","coordinates":[[145636.50369595,171798.04181331],[145644.45883503,171804.748674],[145655.70109327,171814.65785208],[145662.81468134,171820.51874874]]},"geometry_name":"GEOM","properties":{"INSPIRE_ID":"https://databrussels.be/id/streetaxe/85078","TYPE":"S","HIERARCHY":"DR","LVL":0,"STARTSN_ID":"https://databrussels.be/id/streetnode/10165","ENDSN_ID":"https://databrussels.be/id/streetnode/9103","STRNAMEFRE":"Avenue Carl Requette","STRNAMEDUT":"Carl Requettelaan","SLOPE":3.96,"LENGTH":34.6081133336943},"bbox":[145636.50369595,171798.04181331,145662.81468134,171820.51874874]},{"type":"Feature","id":"StreetAxes.fid--578fcb21_1a02c23451d_-5461","geometry":{"type":"LineString","coordinates":[[145636.50369595,171798.04181331],[145645.63120405,171794.48419533],[145664.63444238,171788.33823444],[145668.82572757,171789.74972247]]},"geometry_name":"GEOM","properties":{"INSPIRE_ID":"https://databrussels.be/id/streetaxe/85080","TYPE":"S","HIERARCHY":"DR","LVL":0,"STARTSN_ID":"https://databrussels.be/id/streetnode/10165","ENDSN_ID":"https://databrussels.be/id/streetnode/9133","STRNAMEFRE":"Avenue Joseph Lemaire","STRNAMEDUT":"Joseph Lemairelaan","SLOPE":0.23,"LENGTH":34.191281917696},"bbox":[145636.50369595,171788.33823444,145668.82572757,171798.04181331]},{"type":"Feature","id":"StreetAxes.fid--578fcb21_1a02c23451d_-5467","geometry":{"type":"LineString","coordinates":[[145721.33186252,171740.76012156],[145710.43322127,171751.11125069]]},"geometry_name":"GEOM","properties":{"INSPIRE_ID":"https://databrussels.be/id/streetaxe/85494","TYPE":"S","HIERARCHY":"MER","LVL":0,"STARTSN_ID":"https://databrussels.be/id/streetnode/9357","ENDSN_ID":"https://databrussels.be/id/streetnode/10162","STRNAMEFRE":"Boulevard Louis Mettewie","STRNAMEDUT":"Louis Mettewielaan","SLOPE":0.2,"LENGTH":15.0308434661347},"bbox":[145710.43322127,171740.76012156,145721.33186252,171751.11125069]},{"type":"Feature","id":"StreetAxes.fid--578fcb21_1a02c23451d_-5482","geometry":{"type":"LineString","coordinates":[[146014.711,171914.687],[146006.69,171914.58],[145908.52,171903.002],[145898.25112957,171904.83481777],[145891.6958362,171909.42416364],[145885.23854837,171915.18843016]]},"geometry_name":"GEOM","properties":{"INSPIRE_ID":"https://databrussels.be/id/streetaxe/85704","TYPE":"S","HIERARCHY":"DR","LVL":0,"STARTSN_ID":"https://databrussels.be/id/streetnode/12796","ENDSN_ID":"https://databrussels.be/id/streetnode/9130","STRNAMEFRE":"Rue des Béguines","STRNAMEDUT":"Begijnenstraat","SLOPE":1.03,"LENGTH":133.961201255456},"bbox":[145885.23854837,171903.002,146014.711,171915.18843016]},{"type":"Feature","id":"StreetAxes.fid--578fcb21_1a02c23451d_-545d","geometry":{"type":"LineString","coordinates":[[145641.69119792,171930.59272047],[145635.80561351,171917.66066801],[145636.73,171911.044],[145659.557,171830.294],[145662.81468134,171820.51874874]]},"geometry_name":"GEOM","properties":{"INSPIRE_ID":"https://databrussels.be/id/streetaxe/85770","TYPE":"S","HIERARCHY":"DR","LVL":0,"STARTSN_ID":"https://databrussels.be/id/streetnode/8339","ENDSN_ID":"https://databrussels.be/id/streetnode/9103","STRNAMEFRE":"Rue Potaerdegat","STRNAMEDUT":"Potaerdegatstraat","SLOPE":3.09,"LENGTH":115.107541821373},"bbox":[145635.80561351,171820.51874874,145662.81468134,171930.59272047]},{"type":"Feature","id":"StreetAxes.fid--578fcb21_1a02c23451d_-5473","geometry":{"type":"LineString","coordinates":[[145633.65290318,171670.31461233],[145710.43322127,171751.11125069]]},"geometry_name":"GEOM","properties":{"INSPIRE_ID":"https://databrussels.be/id/streetaxe/85773","TYPE":"S","HIERARCHY":"MER","LVL":0,"STARTSN_ID":"https://databrussels.be/id/streetnode/10164","ENDSN_ID":"https://databrussels.be/id/streetnode/10162","STRNAMEFRE":"Boulevard Louis Mettewie","STRNAMEDUT":"Louis Mettewielaan","SLOPE":2.31,"LENGTH":111.459921115325},"bbox":[145633.65290318,171670.31461233,145710.43322127,171751.11125069]},{"type":"Feature","id":"StreetAxes.fid--578fcb21_1a02c23451d_-547c","geometry":{"type":"LineString","coordinates":[[145840.23806432,172078.87805761],[145840.90316948,172069.20195605],[145844.975,171992.68],[145845.792,171983.642],[145860.65458382,171937.69939885],[145865.56,171932.755],[145872.27930249,171926.75683925]]},"geometry_name":"GEOM","properties":{"INSPIRE_ID":"https://databrussels.be/id/streetaxe/85830","TYPE":"S","HIERARCHY":"DR","LVL":0,"STARTSN_ID":"https://databrussels.be/id/streetnode/12805","ENDSN_ID":"https://databrussels.be/id/streetnode/8880","STRNAMEFRE":"Rue de Bruges","STRNAMEDUT":"Bruggestraat","SLOPE":0.24,"LENGTH":159.662814911372},"bbox":[145840.23806432,171926.75683925,145872.27930249,172078.87805761]},{"type":"Feature","id":"StreetAxes.fid--578fcb21_1a02c23451d_-5465","geometry":{"type":"LineString","coordinates":[[145568.27388875,171742.31139515],[145571.1140967,171745.53090279],[145618.603,171782.95],[145629.26925517,171791.94256276],[145636.50369595,171798.04181331]]},"geometry_name":"GEOM","properties":{"INSPIRE_ID":"https://databrussels.be/id/streetaxe/86003","TYPE":"S","HIERARCHY":"DR","LVL":0,"STARTSN_ID":"https://databrussels.be/id/streetnode/9336","ENDSN_ID":"https://databrussels.be/id/streetnode/10165","STRNAMEFRE":"Avenue Carl Requette","STRNAMEDUT":"Carl Requettelaan","SLOPE":4.4,"LENGTH":88.1666529486427},"bbox":[145568.27388875,171742.31139515,145636.50369595,171798.04181331]},{"type":"Feature","id":"StreetAxes.fid--578fcb21_1a02c23451d_-5468","geometry":{"type":"LineString","coordinates":[[145721.33186252,171740.76012156],[145732.38662295,171752.47072383],[145776.53487689,171798.90573044],[145788.62516485,171809.81731501],[145856.74566484,171881.71394086],[145866.07113754,171892.69697767]]},"geometry_name":"GEOM","properties":{"INSPIRE_ID":"https://databrussels.be/id/streetaxe/86772","TYPE":"S","HIERARCHY":"MER","LVL":0,"STARTSN_ID":"https://databrussels.be/id/streetnode/9357","ENDSN_ID":"https://databrussels.be/id/streetnode/12804","STRNAMEFRE":"Boulevard Louis Mettewie","STRNAMEDUT":"Louis Mettewielaan","SLOPE":3.68,"LENGTH":209.913882003008},"bbox":[145721.33186252,171740.76012156,145866.07113754,171892.69697767]},{"type":"Feature","id":"StreetAxes.fid--578fcb21_1a02c23451d_-544f","geometry":{"type":"LineString","coordinates":[[145855.6127693,171468.1588823],[145829.431,171479.486],[145685.19725141,171504.77670757],[145678.57552218,171504.36888324]]},"geometry_name":"GEOM","properties":{"INSPIRE_ID":"https://databrussels.be/id/streetaxe/88236","TYPE":"S","HIERARCHY":"DR","LVL":0,"STARTSN_ID":"https://databrussels.be/id/streetnode/9120","ENDSN_ID":"https://databrussels.be/id/streetnode/9924","STRNAMEFRE":"Rue du Géomètre","STRNAMEDUT":"Landmeterstraat","SLOPE":0.68,"LENGTH":181.595522480332},"bbox":[145678.57552218,171468.1588823,145855.6127693,171504.77670757]},{"type":"Feature","id":"StreetAxes.fid--578fcb21_1a02c23451d_-5450","geometry":{"type":"LineString","coordinates":[[145855.6127693,171468.1588823],[145845.81541315,171491.39800768],[145819.695,171542.085]]},"geometry_name":"GEOM","properties":{"INSPIRE_ID":"https://databrussels.be/id/streetaxe/88237","TYPE":"S","HIERARCHY":"DR","LVL":0,"STARTSN_ID":"https://databrussels.be/id/streetnode/9120","ENDSN_ID":"https://databrussels.be/id/streetnode/9394","STRNAMEFRE":"Osseghemveld","STRNAMEDUT":"Osseghemveld","SLOPE":1.01,"LENGTH":82.2413976857038},"bbox":[145819.695,171468.1588823,145855.6127693,171542.085]},{"type":"Feature","id":"StreetAxes.fid--578fcb21_1a02c23451d_-5452","geometry":{"type":"LineString","coordinates":[[145673.92504923,171403.02590212],[145674.22708701,171410.70828741],[145679.22431285,171493.83465117],[145678.57552218,171504.36888324]]},"geometry_name":"GEOM","properties":{"INSPIRE_ID":"https://databrussels.be/id/streetaxe/88238","TYPE":"S","HIERARCHY":"DR","LVL":0,"STARTSN_ID":"https://databrussels.be/id/streetnode/9121","ENDSN_ID":"https://databrussels.be/id/streetnode/9924","STRNAMEFRE":"Avenue des Tamaris","STRNAMEDUT":"Tamariskenlaan","SLOPE":1.9,"LENGTH":101.518947633614},"bbox":[145673.92504923,171403.02590212,145679.22431285,171504.36888324]},{"type":"Feature","id":"StreetAxes.fid--578fcb21_1a02c23451d_-5486","geometry":{"type":"LineString","coordinates":[[145809.74762867,171891.04332736],[145808.112,171894.448],[145807.758,171897.602],[145802.406,171945.294],[145802.01,171948.039],[145794.632,171947.288],[145777.883,171946.772],[145757.304,171948.393],[145743.06,171950.984],[145738.294,171931.11],[145754.30444826,171922.49188671],[145758.80638976,171918.8905325],[145759.39921058,171914.71213431],[145761.78596532,171894.82944448],[145761.53971064,171885.20937067]]},"geometry_name":"GEOM","properties":{"INSPIRE_ID":"https://databrussels.be/id/streetaxe/88461","TYPE":"S","HIERARCHY":null,"LVL":0,"STARTSN_ID":"https://databrussels.be/id/streetnode/9455","ENDSN_ID":"https://databrussels.be/id/streetnode/9119","STRNAMEFRE":"Rue Joseph Diongre","STRNAMEDUT":"Joseph Diongrestraat","SLOPE":0.33,"LENGTH":195.26344827469},"bbox":[145738.294,171885.20937067,145809.74762867,171950.984]},{"type":"Feature","id":"StreetAxes.fid--578fcb21_1a02c23451d_-5458","geometry":{"type":"LineString","coordinates":[[145809.74762867,171891.04332736],[145803.865,171890.46],[145769.12577694,171885.83042874],[145761.53971064,171885.20937067]]},"geometry_name":"GEOM","properties":{"INSPIRE_ID":"https://databrussels.be/id/streetaxe/88462","TYPE":"S","HIERARCHY":"DR","LVL":0,"STARTSN_ID":"https://databrussels.be/id/streetnode/9455","ENDSN_ID":"https://databrussels.be/id/streetnode/9119","STRNAMEFRE":"Rue des Béguines","STRNAMEDUT":"Begijnenstraat","SLOPE":1.34,"LENGTH":48.5692744868967},"bbox":[145761.53971064,171885.20937067,145809.74762867,171891.04332736]},{"type":"Feature","id":"StreetAxes.fid--578fcb21_1a02c23451d_-5484","geometry":{"type":"LineString","coordinates":[[145866.07113754,171892.69697767],[145852.89271936,171903.85034118]]},"geometry_name":"GEOM","properties":{"INSPIRE_ID":"https://databrussels.be/id/streetaxe/89283","TYPE":"S","HIERARCHY":"MER","LVL":0,"STARTSN_ID":"https://databrussels.be/id/streetnode/12804","ENDSN_ID":"https://databrussels.be/id/streetnode/9321","STRNAMEFRE":"Place Edmond Leroy","STRNAMEDUT":"Edmond Leroyplaats","SLOPE":0.46,"LENGTH":17.264652420126},"bbox":[145852.89271936,171892.69697767,145866.07113754,171903.85034118]},{"type":"Feature","id":"StreetAxes.fid--578fcb21_1a02c23451d_-545a","geometry":{"type":"LineString","coordinates":[[145830.54321741,171879.22845999],[145824.69817742,171884.7923122],[145822.23113852,171887.04437911],[145818.41664572,171889.21187384],[145815.65269673,171890.40906671],[145809.74762867,171891.04332736]]},"geometry_name":"GEOM","properties":{"INSPIRE_ID":"https://databrussels.be/id/streetaxe/90513","TYPE":"I","HIERARCHY":"DR","LVL":0,"STARTSN_ID":"https://databrussels.be/id/streetnode/9108","ENDSN_ID":"https://databrussels.be/id/streetnode/9455","STRNAMEFRE":"Rue des Béguines","STRNAMEDUT":"Begijnenstraat","SLOPE":1.45,"LENGTH":24.7485485997988},"bbox":[145809.74762867,171879.22845999,145830.54321741,171891.04332736]},{"type":"Feature","id":"StreetAxes.fid--578fcb21_1a02c23451d_-5459","geometry":{"type":"LineString","coordinates":[[145761.53971064,171885.20937067],[145754.4449762,171884.62853709],[145741.2115479,171886.07623083],[145736.07941978,171889.76790069]]},"geometry_name":"GEOM","properties":{"INSPIRE_ID":"https://databrussels.be/id/streetaxe/90724","TYPE":"I","HIERARCHY":"DR","LVL":0,"STARTSN_ID":"https://databrussels.be/id/streetnode/9119","ENDSN_ID":"https://databrussels.be/id/streetnode/12803","STRNAMEFRE":"Rue des Béguines","STRNAMEDUT":"Begijnenstraat","SLOPE":1.46,"LENGTH":26.7528089040044},"bbox":[145736.07941978,171884.62853709,145761.53971064,171889.76790069]},{"type":"Feature","id":"StreetAxes.fid--578fcb21_1a02c23451d_-5483","geometry":{"type":"LineString","coordinates":[[145866.07113754,171892.69697767],[145885.23854837,171915.18843016]]},"geometry_name":"GEOM","properties":{"INSPIRE_ID":"https://databrussels.be/id/streetaxe/90726","TYPE":"I","HIERARCHY":"MER","LVL":0,"STARTSN_ID":"https://databrussels.be/id/streetnode/12804","ENDSN_ID":"https://databrussels.be/id/streetnode/9130","STRNAMEFRE":"Place Edmond Leroy","STRNAMEDUT":"Edmond Leroyplaats","SLOPE":3.01,"LENGTH":29.5508895399958},"bbox":[145866.07113754,171892.69697767,145885.23854837,171915.18843016]},{"type":"Feature","id":"StreetAxes.fid--578fcb21_1a02c23451d_-5469","geometry":{"type":"LineString","coordinates":[[145570.52458252,171733.94908827],[145570.40732039,171737.94434306],[145568.27388875,171742.31139515]]},"geometry_name":"GEOM","properties":{"INSPIRE_ID":"https://databrussels.be/id/streetaxe/90733","TYPE":"I","HIERARCHY":"DR","LVL":0,"STARTSN_ID":"https://databrussels.be/id/streetnode/9195","ENDSN_ID":"https://databrussels.be/id/streetnode/9336","STRNAMEFRE":"Avenue Carl Requette","STRNAMEDUT":"Carl Requettelaan","SLOPE":1.13,"LENGTH":8.85729156415244},"bbox":[145568.27388875,171733.94908827,145570.52458252,171742.31139515]},{"type":"Feature","id":"StreetAxes.fid--578fcb21_1a02c23451d_-546a","geometry":{"type":"LineString","coordinates":[[145556.19009477,171743.96011516],[145553.16858704,171740.88751471],[145551.59895714,171736.82579695],[145551.53908134,171733.40706678]]},"geometry_name":"GEOM","properties":{"INSPIRE_ID":"https://databrussels.be/id/streetaxe/90738","TYPE":"I","HIERARCHY":"DR","LVL":0,"STARTSN_ID":"https://databrussels.be/id/streetnode/9114","ENDSN_ID":"https://databrussels.be/id/streetnode/9458","STRNAMEFRE":"Avenue Carl Requette","STRNAMEDUT":"Carl Requettelaan","SLOPE":3.15,"LENGTH":12.0830473778963},"bbox":[145551.53908134,171733.40706678,145556.19009477,171743.96011516]},{"type":"Feature","id":"StreetAxes.fid--578fcb21_1a02c23451d_-546c","geometry":{"type":"LineString","coordinates":[[145566.99289379,171728.01105251],[145569.44665938,171730.72900481],[145570.52458252,171733.94908827]]},"geometry_name":"GEOM","properties":{"INSPIRE_ID":"https://databrussels.be/id/streetaxe/90740","TYPE":"I","HIERARCHY":"DR","LVL":0,"STARTSN_ID":"https://databrussels.be/id/streetnode/9352","ENDSN_ID":"https://databrussels.be/id/streetnode/9195","STRNAMEFRE":"Avenue Carl Requette","STRNAMEDUT":"Carl Requettelaan","SLOPE":3.12,"LENGTH":7.05743642196861},"bbox":[145566.99289379,171728.01105251,145570.52458252,171733.94908827]},{"type":"Feature","id":"StreetAxes.fid--578fcb21_1a02c23451d_-5487","geometry":{"type":"LineString","coordinates":[[145830.54321741,171879.22845999],[145844.17024093,171893.54417046],[145852.89271936,171903.85034118]]},"geometry_name":"GEOM","properties":{"INSPIRE_ID":"https://databrussels.be/id/streetaxe/91256","TYPE":"I","HIERARCHY":"MER","LVL":0,"STARTSN_ID":"https://databrussels.be/id/streetnode/9108","ENDSN_ID":"https://databrussels.be/id/streetnode/9321","STRNAMEFRE":"Boulevard Louis Mettewie","STRNAMEDUT":"Louis Mettewielaan","SLOPE":2.68,"LENGTH":33.2663035946718},"bbox":[145830.54321741,171879.22845999,145852.89271936,171903.85034118]},{"type":"Feature","id":"StreetAxes.fid--578fcb21_1a02c23451d_-5481","geometry":{"type":"LineString","coordinates":[[145852.89271936,171903.85034118],[145872.27930249,171926.75683925]]},"geometry_name":"GEOM","properties":{"INSPIRE_ID":"https://databrussels.be/id/streetaxe/91261","TYPE":"I","HIERARCHY":"MER","LVL":0,"STARTSN_ID":"https://databrussels.be/id/streetnode/9321","ENDSN_ID":"https://databrussels.be/id/streetnode/8880","STRNAMEFRE":"Place Edmond Leroy","STRNAMEDUT":"Edmond Leroyplaats","SLOPE":2.77,"LENGTH":30.0091196023648},"bbox":[145852.89271936,171903.85034118,145872.27930249,171926.75683925]},{"type":"Feature","id":"StreetAxes.fid--578fcb21_1a02c23451d_-546b","geometry":{"type":"LineString","coordinates":[[145551.53908134,171733.40706678],[145552.47064104,171730.66237401],[145554.68114006,171728.17941482]]},"geometry_name":"GEOM","properties":{"INSPIRE_ID":"https://databrussels.be/id/streetaxe/92192","TYPE":"I","HIERARCHY":"DR","LVL":0,"STARTSN_ID":"https://databrussels.be/id/streetnode/9458","ENDSN_ID":"https://databrussels.be/id/streetnode/9125","STRNAMEFRE":"Avenue Carl Requette","STRNAMEDUT":"Carl Requettelaan","SLOPE":0.48,"LENGTH":6.22283577025645},"bbox":[145551.53908134,171728.17941482,145554.68114006,171733.40706678]},{"type":"Feature","id":"StreetAxes.fid--578fcb21_1a02c23451d_-547b","geometry":{"type":"LineString","coordinates":[[145641.69119792,171930.59272047],[145630.30483929,171935.19403948],[145625.87378993,171939.38060751],[145624.16821476,171945.57603965]]},"geometry_name":"GEOM","properties":{"INSPIRE_ID":"https://databrussels.be/id/streetaxe/92355","TYPE":"I","HIERARCHY":"DR","LVL":0,"STARTSN_ID":"https://databrussels.be/id/streetnode/8339","ENDSN_ID":"https://databrussels.be/id/streetnode/8848","STRNAMEFRE":"Rue du Korenbeek","STRNAMEDUT":"Korenbeekstraat","SLOPE":0.69,"LENGTH":24.8028734026136},"bbox":[145624.16821476,171930.59272047,145641.69119792,171945.57603965]},{"type":"Feature","id":"StreetAxes.fid--578fcb21_1a02c23451d_-547a","geometry":{"type":"LineString","coordinates":[[145595.47067233,171939.27417267],[145617.67237783,171943.84861889],[145624.16821476,171945.57603965]]},"geometry_name":"GEOM","properties":{"INSPIRE_ID":"https://databrussels.be/id/streetaxe/92357","TYPE":"I","HIERARCHY":"DR","LVL":0,"STARTSN_ID":"https://databrussels.be/id/streetnode/7787","ENDSN_ID":"https://databrussels.be/id/streetnode/8848","STRNAMEFRE":"Rue des Béguines","STRNAMEDUT":"Begijnenstraat","SLOPE":0.85,"LENGTH":29.3896655486655},"bbox":[145595.47067233,171939.27417267,145624.16821476,171945.57603965]},{"type":"Feature","id":"StreetAxes.fid--578fcb21_1a02c23451d_-5464","geometry":{"type":"LineString","coordinates":[[145556.19009477,171743.96011516],[145549.822,171750.775],[145448.42,171854.584],[145439.72113701,171863.54636372]]},"geometry_name":"GEOM","properties":{"INSPIRE_ID":"https://databrussels.be/id/streetaxe/96366","TYPE":"S","HIERARCHY":"DR","LVL":0,"STARTSN_ID":"https://databrussels.be/id/streetnode/9114","ENDSN_ID":"https://databrussels.be/id/streetnode/8351","STRNAMEFRE":"Avenue Edmond Candries","STRNAMEDUT":"Edmond Candrieslaan","SLOPE":3,"LENGTH":166.932960481279},"bbox":[145439.72113701,171743.96011516,145556.19009477,171863.54636372]},{"type":"Feature","id":"StreetAxes.fid--578fcb21_1a02c23451d_-5456","geometry":{"type":"LineString","coordinates":[[145522.152,171911.239],[145512.877,171907.176],[145492.332,171898.425],[145467.014,171883.39],[145448.12684408,171869.05154326],[145439.72113701,171863.54636372]]},"geometry_name":"GEOM","properties":{"INSPIRE_ID":"https://databrussels.be/id/streetaxe/96386","TYPE":"S","HIERARCHY":"DR","LVL":0,"STARTSN_ID":"https://databrussels.be/id/streetnode/10176","ENDSN_ID":"https://databrussels.be/id/streetnode/8351","STRNAMEFRE":"Rue du Korenbeek","STRNAMEDUT":"Korenbeekstraat","SLOPE":2.75,"LENGTH":95.6639509423141},"bbox":[145439.72113701,171863.54636372,145522.152,171911.239]}],"numberReturned":62,"grand_bruxelles_source":{"authority":"Paradigm / Brussels-Capital Region","service":"https://geoservices-urbis.irisnet.be/geoserver/urbisvector/wfs","layer":"urbisvector:StreetAxes","crs":"EPSG:31370","bbox":[145500.0,171500.0,146000.0,172000.0],"cell_id":"bxl-e145500-n171500-s500","ownership":"bbox_intersection_source_unclipped"}}
