{"type":"FeatureCollection","totalFeatures":44,"numberMatched":44,"timeStamp":"2026-08-23T07:04:02.089Z","crs":{"type":"name","properties":{"name":"urn:ogc:def:crs:EPSG::31370"}},"bbox":[149291.80227943,164376.34065813,150381.8400132,165097.675],"features":[{"type":"Feature","id":"StreetAxes.fid--291372a6_1a02d6cd6c1_-3fd0","geometry":{"type":"LineString","coordinates":[[149724.80486842,164882.24409678],[149717.96923454,164886.30543504],[149709.163,164888.348],[149675.665,164887.44],[149654.67,164884.415],[149642.757,164881.454],[149624.57261428,164875.16567259],[149607.45783172,164866.63355737],[149598.66732404,164863.943747],[149589.43116814,164862.45948033],[149578.18646106,164862.84937929]]},"geometry_name":"GEOM","properties":{"INSPIRE_ID":"https://databrussels.be/id/streetaxe/100964","TYPE":"SC","HIERARCHY":"IDR","LVL":0,"STARTSN_ID":"https://databrussels.be/id/streetnode/","ENDSN_ID":"https://databrussels.be/id/streetnode/","STRNAMEFRE":"Avenue Jean et Pierre Carsoel","STRNAMEDUT":"Jean en Pierre Carsoellaan","SLOPE":5.39,"LENGTH":152.152251959652},"bbox":[149578.18646106,164862.45948033,149724.80486842,164888.348]},{"type":"Feature","id":"StreetAxes.fid--291372a6_1a02d6cd6c1_-3fd5","geometry":{"type":"LineString","coordinates":[[149578.18646106,164862.84937929],[149516.41879046,164873.62742327]]},"geometry_name":"GEOM","properties":{"INSPIRE_ID":"https://databrussels.be/id/streetaxe/100965","TYPE":"SC","HIERARCHY":"IDR","LVL":1,"STARTSN_ID":"https://databrussels.be/id/streetnode/","ENDSN_ID":"https://databrussels.be/id/streetnode/","STRNAMEFRE":"Avenue Jean et Pierre Carsoel","STRNAMEDUT":"Jean en Pierre Carsoellaan","SLOPE":0.55,"LENGTH":62.7009678021322},"bbox":[149516.41879046,164862.84937929,149578.18646106,164873.62742327]},{"type":"Feature","id":"StreetAxes.fid--291372a6_1a02d6cd6c1_-3fd9","geometry":{"type":"LineString","coordinates":[[149516.41879046,164873.62742327],[149497.79423709,164876.44990959],[149453.69565729,164883.77358193]]},"geometry_name":"GEOM","properties":{"INSPIRE_ID":"https://databrussels.be/id/streetaxe/100966","TYPE":"SC","HIERARCHY":"IDR","LVL":0,"STARTSN_ID":"https://databrussels.be/id/streetnode/","ENDSN_ID":"https://databrussels.be/id/streetnode/","STRNAMEFRE":"Avenue Jean et Pierre Carsoel","STRNAMEDUT":"Jean en Pierre Carsoellaan","SLOPE":3.65,"LENGTH":63.5397912072298},"bbox":[149453.69565729,164873.62742327,149516.41879046,164883.77358193]},{"type":"Feature","id":"StreetAxes.fid--291372a6_1a02d6cd6c1_-3fd4","geometry":{"type":"LineString","coordinates":[[149613.644,164928.902],[149605.422,164924.532],[149572.302,164907.432],[149546.54797907,164892.79659529],[149535.27057327,164889.25149849],[149526.60577869,164886.7012273],[149522.00459891,164884.02735053],[149518.27123427,164879.86935857],[149516.41879046,164873.62742327]]},"geometry_name":"GEOM","properties":{"INSPIRE_ID":"https://databrussels.be/id/streetaxe/100967","TYPE":"S","HIERARCHY":"IDR","LVL":0,"STARTSN_ID":"https://databrussels.be/id/streetnode/","ENDSN_ID":"https://databrussels.be/id/streetnode/","STRNAMEFRE":"Avenue Latérale","STRNAMEDUT":"Zijlaan","SLOPE":0.16,"LENGTH":114.481737439046},"bbox":[149516.41879046,164873.62742327,149613.644,164928.902]},{"type":"Feature","id":"StreetAxes.fid--291372a6_1a02d6cd6c1_-3fd2","geometry":{"type":"LineString","coordinates":[[149689.99534152,164775.04313423],[149682.35172345,164767.70104367],[149653.216,164745.386],[149565.23895005,164679.83242952]]},"geometry_name":"GEOM","properties":{"INSPIRE_ID":"https://databrussels.be/id/streetaxe/73930","TYPE":"S","HIERARCHY":"DR","LVL":0,"STARTSN_ID":"https://databrussels.be/id/streetnode/3240","ENDSN_ID":"https://databrussels.be/id/streetnode/4237","STRNAMEFRE":"Rue Jean Benaets","STRNAMEDUT":"Jean Benaetsstraat","SLOPE":2.31,"LENGTH":157.012436800235},"bbox":[149565.23895005,164679.83242952,149689.99534152,164775.04313423]},{"type":"Feature","id":"StreetAxes.fid--291372a6_1a02d6cd6c1_-3fcf","geometry":{"type":"LineString","coordinates":[[149670.892,164814.147],[149676.34,164809.23],[149688.215,164784.96],[149689.99534152,164775.04313423]]},"geometry_name":"GEOM","properties":{"INSPIRE_ID":"https://databrussels.be/id/streetaxe/74414","TYPE":"S","HIERARCHY":"DR","LVL":0,"STARTSN_ID":"https://databrussels.be/id/streetnode/4125","ENDSN_ID":"https://databrussels.be/id/streetnode/3240","STRNAMEFRE":"Rue Jean Benaets","STRNAMEDUT":"Jean Benaetsstraat","SLOPE":1.26,"LENGTH":44.4335912306025},"bbox":[149670.892,164775.04313423,149689.99534152,164814.147]},{"type":"Feature","id":"StreetAxes.fid--291372a6_1a02d6cd6c1_-3ff5","geometry":{"type":"LineString","coordinates":[[149659.77,165094.548],[149662.545,165089.3765],[149713.405,164990.145],[149715.824,164983.585]]},"geometry_name":"GEOM","properties":{"INSPIRE_ID":"https://databrussels.be/id/streetaxe/75602","TYPE":"S","HIERARCHY":"DR","LVL":0,"STARTSN_ID":"https://databrussels.be/id/streetnode/2605","ENDSN_ID":"https://databrussels.be/id/streetnode/3465","STRNAMEFRE":"Rue Copernic","STRNAMEDUT":"Copernicusstraat","SLOPE":5.72,"LENGTH":124.366970890999},"bbox":[149659.77,164983.585,149715.824,165094.548]},{"type":"Feature","id":"StreetAxes.fid--291372a6_1a02d6cd6c1_-3ff9","geometry":{"type":"LineString","coordinates":[[149317.67714172,164922.75834913],[149321.80827126,164931.97170375],[149326.02272222,164937.72955039],[149338.15911771,164942.82370463],[149380.97853865,164958.23545288],[149415.02821866,164972.73518323],[149455.245,164990.975],[149504.477,165015.859],[149515.448,165021.387]]},"geometry_name":"GEOM","properties":{"INSPIRE_ID":"https://databrussels.be/id/streetaxe/76503","TYPE":"S","HIERARCHY":"DR","LVL":0,"STARTSN_ID":"https://databrussels.be/id/streetnode/9869","ENDSN_ID":"https://databrussels.be/id/streetnode/3741","STRNAMEFRE":"Avenue Albert Lancaster","STRNAMEDUT":"Albert Lancasterlaan","SLOPE":1.2,"LENGTH":224.519813523522},"bbox":[149317.67714172,164922.75834913,149515.448,165021.387]},{"type":"Feature","id":"StreetAxes.fid--291372a6_1a02d6cd6c1_-3fed","geometry":{"type":"LineString","coordinates":[[149770.72357761,164843.53091545],[149772.97,164835.397],[149781.535,164809.545],[149794.065,164770.735],[149797.49,164758.48],[149796.76,164754.85],[149777.03,164697.785],[149770.68,164678.575],[149760.195,164657.865],[149751.52,164637.9],[149748.614,164628.307],[149748.81604031,164624.49847579]]},"geometry_name":"GEOM","properties":{"INSPIRE_ID":"https://databrussels.be/id/streetaxe/76767","TYPE":"S","HIERARCHY":null,"LVL":0,"STARTSN_ID":"https://databrussels.be/id/streetnode/9650","ENDSN_ID":"https://databrussels.be/id/streetnode/4238","STRNAMEFRE":"Montagne de Saint-Job","STRNAMEDUT":"Berg van Sint-Job","SLOPE":8.36,"LENGTH":232.312544426792},"bbox":[149748.614,164624.49847579,149797.49,164843.53091545]},{"type":"Feature","id":"StreetAxes.fid--291372a6_1a02d6cd6c1_-3fe6","geometry":{"type":"LineString","coordinates":[[149861.882,164872.582],[149858.684,164884.011],[149852.305,164903.574],[149850.181,164910.088]]},"geometry_name":"GEOM","properties":{"INSPIRE_ID":"https://databrussels.be/id/streetaxe/76882","TYPE":"S","HIERARCHY":"DC","LVL":0,"STARTSN_ID":"https://databrussels.be/id/streetnode/9649","ENDSN_ID":"https://databrussels.be/id/streetnode/474","STRNAMEFRE":"Place de Saint-Job","STRNAMEDUT":"Sint-Jobsplein","SLOPE":2.39,"LENGTH":39.2962796456035},"bbox":[149850.181,164872.582,149861.882,164910.088]},{"type":"Feature","id":"StreetAxes.fid--291372a6_1a02d6cd6c1_-3ff8","geometry":{"type":"LineString","coordinates":[[149613.644,164928.902],[149608.449,164938.674],[149606.922,164940.018],[149524.9375,165012.15],[149515.448,165021.387]]},"geometry_name":"GEOM","properties":{"INSPIRE_ID":"https://databrussels.be/id/streetaxe/76883","TYPE":"S","HIERARCHY":"DR","LVL":0,"STARTSN_ID":"https://databrussels.be/id/streetnode/9647","ENDSN_ID":"https://databrussels.be/id/streetnode/3741","STRNAMEFRE":"Rue de l'Equateur","STRNAMEDUT":"Evenaarsstraat","SLOPE":8.01,"LENGTH":135.543415077291},"bbox":[149515.448,164928.902,149613.644,165021.387]},{"type":"Feature","id":"StreetAxes.fid--291372a6_1a02d6cd6c1_-3fe7","geometry":{"type":"LineString","coordinates":[[149822.038,164859.026],[149833.458,164862.949],[149851.491,164869.06],[149861.882,164872.582]]},"geometry_name":"GEOM","properties":{"INSPIRE_ID":"https://databrussels.be/id/streetaxe/77606","TYPE":"S","HIERARCHY":"DC","LVL":0,"STARTSN_ID":"https://databrussels.be/id/streetnode/9646","ENDSN_ID":"https://databrussels.be/id/streetnode/9649","STRNAMEFRE":"Place de Saint-Job","STRNAMEDUT":"Sint-Jobsplein","SLOPE":1.43,"LENGTH":42.0870011920688},"bbox":[149822.038,164859.026,149861.882,164872.582]},{"type":"Feature","id":"StreetAxes.fid--291372a6_1a02d6cd6c1_-3fdd","geometry":{"type":"LineString","coordinates":[[150103.536,164677.453],[150093.793,164674.732],[150057.605,164664.325],[150007.056,164647.418],[149979.347,164637.408],[149969.372,164633.787]]},"geometry_name":"GEOM","properties":{"INSPIRE_ID":"https://databrussels.be/id/streetaxe/77607","TYPE":"S","HIERARCHY":"DR","LVL":0,"STARTSN_ID":"https://databrussels.be/id/streetnode/1213","ENDSN_ID":"https://databrussels.be/id/streetnode/9659","STRNAMEFRE":"Avenue Alphonse XIII","STRNAMEDUT":"Alphonse XIII laan","SLOPE":0.6,"LENGTH":141.145555809868},"bbox":[149969.372,164633.787,150103.536,164677.453]},{"type":"Feature","id":"StreetAxes.fid--291372a6_1a02d6cd6c1_-3fdc","geometry":{"type":"LineString","coordinates":[[149969.372,164633.787],[149973.46,164622.255],[149975.635,164616.665],[149983.965,164603.995],[149990.985,164597.41],[150000.9,164591.718],[150124.118,164555.151],[150138.862,164550.654]]},"geometry_name":"GEOM","properties":{"INSPIRE_ID":"https://databrussels.be/id/streetaxe/77608","TYPE":"S","HIERARCHY":null,"LVL":0,"STARTSN_ID":"https://databrussels.be/id/streetnode/9659","ENDSN_ID":"https://databrussels.be/id/streetnode/1018","STRNAMEFRE":"Avenue Hippolyte Boulenger","STRNAMEDUT":"Hippolyte Boulengerlaan","SLOPE":0.77,"LENGTH":198.398204557017},"bbox":[149969.372,164550.654,150138.862,164633.787]},{"type":"Feature","id":"StreetAxes.fid--291372a6_1a02d6cd6c1_-3ff7","geometry":{"type":"LineString","coordinates":[[149715.824,164983.585],[149709.755,164980.649],[149621.865,164933.272],[149613.644,164928.902]]},"geometry_name":"GEOM","properties":{"INSPIRE_ID":"https://databrussels.be/id/streetaxe/77609","TYPE":"S","HIERARCHY":"IDR","LVL":0,"STARTSN_ID":"https://databrussels.be/id/streetnode/3465","ENDSN_ID":"https://databrussels.be/id/streetnode/9647","STRNAMEFRE":"Avenue Latérale","STRNAMEDUT":"Zijlaan","SLOPE":1.66,"LENGTH":115.898218983845},"bbox":[149613.644,164928.902,149715.824,164983.585]},{"type":"Feature","id":"StreetAxes.fid--291372a6_1a02d6cd6c1_-3fd8","geometry":{"type":"LineString","coordinates":[[149535.25308808,164658.15763809],[149513.30643353,164641.60499029],[149482.2822426,164619.52831335],[149475.28025506,164613.17453804],[149475.49570083,164603.80541172],[149476.24976103,164594.97474095],[149479.78,164584.87]]},"geometry_name":"GEOM","properties":{"INSPIRE_ID":"https://databrussels.be/id/streetaxe/79556","TYPE":"S","HIERARCHY":null,"LVL":0,"STARTSN_ID":"https://databrussels.be/id/streetnode/4236","ENDSN_ID":"https://databrussels.be/id/streetnode/1560","STRNAMEFRE":"Rue Jean Benaets","STRNAMEDUT":"Jean Benaetsstraat","SLOPE":3.8,"LENGTH":103.959442380451},"bbox":[149475.28025506,164584.87,149535.25308808,164658.15763809]},{"type":"Feature","id":"StreetAxes.fid--291372a6_1a02d6cd6c1_-3fe1","geometry":{"type":"LineString","coordinates":[[149969.372,164633.787],[149959.396,164630.166],[149944.132,164624.668],[149889.74,164605.075],[149877.85932508,164601.89193223]]},"geometry_name":"GEOM","properties":{"INSPIRE_ID":"https://databrussels.be/id/streetaxe/80227","TYPE":"S","HIERARCHY":"DR","LVL":0,"STARTSN_ID":"https://databrussels.be/id/streetnode/9659","ENDSN_ID":"https://databrussels.be/id/streetnode/9658","STRNAMEFRE":"Avenue Alphonse XIII","STRNAMEDUT":"Alphonse XIII laan","SLOPE":1.21,"LENGTH":96.9497870183751},"bbox":[149877.85932508,164601.89193223,149969.372,164633.787]},{"type":"Feature","id":"StreetAxes.fid--291372a6_1a02d6cd6c1_-3fd3","geometry":{"type":"LineString","coordinates":[[149535.25308808,164658.15763809],[149565.23895005,164679.83242952]]},"geometry_name":"GEOM","properties":{"INSPIRE_ID":"https://databrussels.be/id/streetaxe/80512","TYPE":"S","HIERARCHY":"DR","LVL":0,"STARTSN_ID":"https://databrussels.be/id/streetnode/4236","ENDSN_ID":"https://databrussels.be/id/streetnode/4237","STRNAMEFRE":"Rue Jean Benaets","STRNAMEDUT":"Jean Benaetsstraat","SLOPE":2.95,"LENGTH":36.9993040664809},"bbox":[149535.25308808,164658.15763809,149565.23895005,164679.83242952]},{"type":"Feature","id":"StreetAxes.fid--291372a6_1a02d6cd6c1_-3ffa","geometry":{"type":"LineString","coordinates":[[150167.89229086,165016.04629447],[150159.788,165013.208],[149854.501,164911.214],[149850.181,164910.088]]},"geometry_name":"GEOM","properties":{"INSPIRE_ID":"https://databrussels.be/id/streetaxe/80690","TYPE":"S","HIERARCHY":"IDR","LVL":0,"STARTSN_ID":"https://databrussels.be/id/streetnode/9672","ENDSN_ID":"https://databrussels.be/id/streetnode/474","STRNAMEFRE":"Avenue du Prince de Ligne","STRNAMEDUT":"Prins de Lignelaan","SLOPE":2.07,"LENGTH":334.925356180019},"bbox":[149850.181,164910.088,150167.89229086,165016.04629447]},{"type":"Feature","id":"StreetAxes.fid--291372a6_1a02d6cd6c1_-3fd6","geometry":{"type":"LineString","coordinates":[[149510.40176571,164727.28042447],[149538.33,164737.606],[149615.262,164774.719],[149623.256,164779.168],[149646.324,164794.434],[149665.35,164809.466],[149670.892,164814.147]]},"geometry_name":"GEOM","properties":{"INSPIRE_ID":"https://databrussels.be/id/streetaxe/81233","TYPE":"S","HIERARCHY":"IDR","LVL":0,"STARTSN_ID":"https://databrussels.be/id/streetnode/11182","ENDSN_ID":"https://databrussels.be/id/streetnode/4125","STRNAMEFRE":"Chaussée de Saint-Job","STRNAMEDUT":"Sint-Jobsesteenweg","SLOPE":1.43,"LENGTH":183.504585392305},"bbox":[149510.40176571,164727.28042447,149670.892,164814.147]},{"type":"Feature","id":"StreetAxes.fid--291372a6_1a02d6cd6c1_-3fde","geometry":{"type":"LineString","coordinates":[[149933.74967339,164819.98756082],[149919.66810578,164812.35200144],[149896.22398725,164805.66601663]]},"geometry_name":"GEOM","properties":{"INSPIRE_ID":"https://databrussels.be/id/streetaxe/81634","TYPE":"S","HIERARCHY":"DR","LVL":0,"STARTSN_ID":"https://databrussels.be/id/streetnode/12865","ENDSN_ID":"https://databrussels.be/id/streetnode/12857","STRNAMEFRE":"Avenue Victor-Emmanuel III","STRNAMEDUT":"Victor-Emmanuel III laan","SLOPE":2.45,"LENGTH":40.3973646682897},"bbox":[149896.22398725,164805.66601663,149933.74967339,164819.98756082]},{"type":"Feature","id":"StreetAxes.fid--291372a6_1a02d6cd6c1_-3fe4","geometry":{"type":"LineString","coordinates":[[149896.22398725,164805.66601663],[149888.26606557,164803.39651166],[149851.57462009,164790.3298593]]},"geometry_name":"GEOM","properties":{"INSPIRE_ID":"https://databrussels.be/id/streetaxe/82209","TYPE":"S","HIERARCHY":"DR","LVL":0,"STARTSN_ID":"https://databrussels.be/id/streetnode/12857","ENDSN_ID":"https://databrussels.be/id/streetnode/9661","STRNAMEFRE":"Avenue Victor-Emmanuel III","STRNAMEDUT":"Victor-Emmanuel III laan","SLOPE":0.19,"LENGTH":47.22389295526},"bbox":[149851.57462009,164790.3298593,149896.22398725,164805.66601663]},{"type":"Feature","id":"StreetAxes.fid--291372a6_1a02d6cd6c1_-3fda","geometry":{"type":"LineString","coordinates":[[149510.40176571,164727.28042447],[149484.36964074,164716.14622428],[149456.37323233,164704.83865804],[149422.62903854,164691.08111911],[149406.41674432,164684.67349825],[149390.9585103,164678.45433681],[149359.4764971,164661.11606858],[149316.30655086,164640.57398991],[149310.557,164638.78],[149291.80227943,164626.57188476]]},"geometry_name":"GEOM","properties":{"INSPIRE_ID":"https://databrussels.be/id/streetaxe/84040","TYPE":"S","HIERARCHY":"IDR","LVL":0,"STARTSN_ID":"https://databrussels.be/id/streetnode/11182","ENDSN_ID":"https://databrussels.be/id/streetnode/13672","STRNAMEFRE":"Chaussée de Saint-Job","STRNAMEDUT":"Sint-Jobsesteenweg","SLOPE":1.05,"LENGTH":241.192754102523},"bbox":[149291.80227943,164626.57188476,149510.40176571,164727.28042447]},{"type":"Feature","id":"StreetAxes.fid--291372a6_1a02d6cd6c1_-3ff3","geometry":{"type":"LineString","coordinates":[[149689.99534152,164775.04313423],[149697.63895959,164782.38522479],[149706.32264644,164787.87110582],[149749.81813645,164831.77050818],[149758.11319074,164842.33233323]]},"geometry_name":"GEOM","properties":{"INSPIRE_ID":"https://databrussels.be/id/streetaxe/84508","TYPE":"S","HIERARCHY":"DR","LVL":0,"STARTSN_ID":"https://databrussels.be/id/streetnode/3240","ENDSN_ID":"https://databrussels.be/id/streetnode/9671","STRNAMEFRE":"Venelle de Saint-Job","STRNAMEDUT":"Sint-Jobsteeg","SLOPE":1.85,"LENGTH":96.0980253213741},"bbox":[149689.99534152,164775.04313423,149758.11319074,164842.33233323]},{"type":"Feature","id":"StreetAxes.fid--291372a6_1a02d6cd6c1_-3fdb","geometry":{"type":"LineString","coordinates":[[150178.956,164891.394],[150168.525,164887.984],[149980.596,164825.568],[149959.836,164821.195],[149933.74967339,164819.98756082]]},"geometry_name":"GEOM","properties":{"INSPIRE_ID":"https://databrussels.be/id/streetaxe/84685","TYPE":"S","HIERARCHY":"DR","LVL":0,"STARTSN_ID":"https://databrussels.be/id/streetnode/9645","ENDSN_ID":"https://databrussels.be/id/streetnode/12865","STRNAMEFRE":"Avenue Victor-Emmanuel III","STRNAMEDUT":"Victor-Emmanuel III laan","SLOPE":3.02,"LENGTH":256.326962202553},"bbox":[149933.74967339,164819.98756082,150178.956,164891.394]},{"type":"Feature","id":"StreetAxes.fid--291372a6_1a02d6cd6c1_-3ff0","geometry":{"type":"LineString","coordinates":[[149850.181,164910.088],[149842.465,164908.079],[149745.628,164875.94],[149734.66623868,164869.3300548]]},"geometry_name":"GEOM","properties":{"INSPIRE_ID":"https://databrussels.be/id/streetaxe/84756","TYPE":"S","HIERARCHY":"IDR","LVL":0,"STARTSN_ID":"https://databrussels.be/id/streetnode/474","ENDSN_ID":"https://databrussels.be/id/streetnode/9648","STRNAMEFRE":"Place de Saint-Job","STRNAMEDUT":"Sint-Jobsplein","SLOPE":1.31,"LENGTH":122.804679098537},"bbox":[149734.66623868,164869.3300548,149850.181,164910.088]},{"type":"Feature","id":"StreetAxes.fid--291372a6_1a02d6cd6c1_-3ff4","geometry":{"type":"LineString","coordinates":[[149670.892,164814.147],[149676.434,164818.828],[149694.81,164836.805],[149710.465,164847.425],[149721.322,164857.412],[149734.66623868,164869.3300548]]},"geometry_name":"GEOM","properties":{"INSPIRE_ID":"https://databrussels.be/id/streetaxe/84758","TYPE":"S","HIERARCHY":"IDR","LVL":0,"STARTSN_ID":"https://databrussels.be/id/streetnode/4125","ENDSN_ID":"https://databrussels.be/id/streetnode/9648","STRNAMEFRE":"Chaussée de Saint-Job","STRNAMEDUT":"Sint-Jobsesteenweg","SLOPE":2.44,"LENGTH":84.5219742494811},"bbox":[149670.892,164814.147,149734.66623868,164869.3300548]},{"type":"Feature","id":"StreetAxes.fid--291372a6_1a02d6cd6c1_-3ff2","geometry":{"type":"LineString","coordinates":[[149724.80486842,164882.24409678],[149728.38,164896.97],[149728.818,164907.012],[149729.533,164910.596],[149733.024,164914.85],[149753.4,164932.31],[149769.04,164945.565],[149773.65,164948.465],[149785.76395337,164951.97718969],[149804.50047392,164954.3112741],[149841.21417177,164960.58502663]]},"geometry_name":"GEOM","properties":{"INSPIRE_ID":"https://databrussels.be/id/streetaxe/85648","TYPE":"S","HIERARCHY":null,"LVL":0,"STARTSN_ID":"https://databrussels.be/id/streetnode/12860","ENDSN_ID":"https://databrussels.be/id/streetnode/9907","STRNAMEFRE":"Chaussée de Saint-Job","STRNAMEDUT":"Sint-Jobsesteenweg","SLOPE":3.42,"LENGTH":155.884001503599},"bbox":[149724.80486842,164882.24409678,149841.21417177,164960.58502663]},{"type":"Feature","id":"StreetAxes.fid--291372a6_1a02d6cd6c1_-3fe3","geometry":{"type":"LineString","coordinates":[[149894.14903523,164834.03016474],[149889.54794037,164839.74863392],[149869.424,164865.478],[149861.882,164872.582]]},"geometry_name":"GEOM","properties":{"INSPIRE_ID":"https://databrussels.be/id/streetaxe/86223","TYPE":"S","HIERARCHY":"DR","LVL":0,"STARTSN_ID":"https://databrussels.be/id/streetnode/12853","ENDSN_ID":"https://databrussels.be/id/streetnode/9649","STRNAMEFRE":"Place de Saint-Job","STRNAMEDUT":"Sint-Jobsplein","SLOPE":5.46,"LENGTH":50.3651567058537},"bbox":[149861.882,164834.03016474,149894.14903523,164872.582]},{"type":"Feature","id":"StreetAxes.fid--291372a6_1a02d6cd6c1_-3fe0","geometry":{"type":"LineString","coordinates":[[149894.14903523,164834.03016474],[149906.91767891,164828.65732338],[149919.52665745,164824.35442182],[149933.74967339,164819.98756082]]},"geometry_name":"GEOM","properties":{"INSPIRE_ID":"https://databrussels.be/id/streetaxe/86224","TYPE":"S","HIERARCHY":"DR","LVL":0,"STARTSN_ID":"https://databrussels.be/id/streetnode/12853","ENDSN_ID":"https://databrussels.be/id/streetnode/12865","STRNAMEFRE":"Avenue Victor-Emmanuel III","STRNAMEDUT":"Victor-Emmanuel III laan","SLOPE":6.35,"LENGTH":42.0542590540864},"bbox":[149894.14903523,164819.98756082,149933.74967339,164834.03016474]},{"type":"Feature","id":"StreetAxes.fid--291372a6_1a02d6cd6c1_-3ff1","geometry":{"type":"LineString","coordinates":[[149734.66623868,164869.3300548],[149724.80486842,164882.24409678]]},"geometry_name":"GEOM","properties":{"INSPIRE_ID":"https://databrussels.be/id/streetaxe/87142","TYPE":"IC","HIERARCHY":"IDR","LVL":0,"STARTSN_ID":"https://databrussels.be/id/streetnode/9648","ENDSN_ID":"https://databrussels.be/id/streetnode/12860","STRNAMEFRE":"Chaussée de Saint-Job","STRNAMEDUT":"Sint-Jobsesteenweg","SLOPE":2.28,"LENGTH":16.2486646756658},"bbox":[149724.80486842,164869.3300548,149734.66623868,164882.24409678]},{"type":"Feature","id":"StreetAxes.fid--291372a6_1a02d6cd6c1_-3fdf","geometry":{"type":"LineString","coordinates":[[149896.22398725,164805.66601663],[149897.58620391,164811.72792799],[149897.17508397,164826.16439474],[149894.14903523,164834.03016474]]},"geometry_name":"GEOM","properties":{"INSPIRE_ID":"https://databrussels.be/id/streetaxe/87145","TYPE":"I","HIERARCHY":"DR","LVL":0,"STARTSN_ID":"https://databrussels.be/id/streetnode/12857","ENDSN_ID":"https://databrussels.be/id/streetnode/12853","STRNAMEFRE":"Avenue Victor-Emmanuel III","STRNAMEDUT":"Victor-Emmanuel III laan","SLOPE":5.78,"LENGTH":29.0831728214225},"bbox":[149894.14903523,164805.66601663,149897.58620391,164834.03016474]},{"type":"Feature","id":"StreetAxes.fid--291372a6_1a02d6cd6c1_-3fe2","geometry":{"type":"LineString","coordinates":[[149877.85932508,164601.89193223],[149881.6902647,164589.83877487],[149889.78,164569.96],[149895.37894824,164562.07158534],[149902.88925099,164553.76997209],[149910.42549171,164547.84640468],[149928.67522969,164537.46035739],[149945.1,164532.13],[150100.06580836,164485.12656221],[150112.14,164479.44],[150119.985,164472.49],[150129.834,164460.105],[150163.245,164418.055],[150185.6,164389.365],[150195.27211897,164376.34065813]]},"geometry_name":"GEOM","properties":{"INSPIRE_ID":"https://databrussels.be/id/streetaxe/90745","TYPE":"SC","HIERARCHY":"DC","LVL":0,"STARTSN_ID":"https://databrussels.be/id/streetnode/9658","ENDSN_ID":"https://databrussels.be/id/streetnode/9666","STRNAMEFRE":"Rue du Ham","STRNAMEDUT":"Hamstraat","SLOPE":0.85,"LENGTH":410.718908200741},"bbox":[149877.85932508,164376.34065813,150195.27211897,164601.89193223]},{"type":"Feature","id":"StreetAxes.fid--291372a6_1a02d6cd6c1_-3fe8","geometry":{"type":"LineString","coordinates":[[149851.57462009,164790.3298593],[149846.96295415,164802.25694503],[149828.61259196,164845.0009548],[149822.038,164859.026]]},"geometry_name":"GEOM","properties":{"INSPIRE_ID":"https://databrussels.be/id/streetaxe/90746","TYPE":"SC","HIERARCHY":"DC","LVL":0,"STARTSN_ID":"https://databrussels.be/id/streetnode/9661","ENDSN_ID":"https://databrussels.be/id/streetnode/9646","STRNAMEFRE":"Rue du Ham","STRNAMEDUT":"Hamstraat","SLOPE":6.85,"LENGTH":74.7937018222099},"bbox":[149822.038,164790.3298593,149851.57462009,164859.026]},{"type":"Feature","id":"StreetAxes.fid--291372a6_1a02d6cd6c1_-3fe5","geometry":{"type":"LineString","coordinates":[[149851.57462009,164790.3298593],[149856.15561971,164778.48208543],[149860.76024667,164751.69523415],[149862.38287146,164729.26518372],[149862.72911532,164706.37362917],[149863.10068556,164677.73534535],[149864.482,164660.195],[149865.88523352,164645.37106433],[149874.03750531,164613.91639614],[149877.85932508,164601.89193223]]},"geometry_name":"GEOM","properties":{"INSPIRE_ID":"https://databrussels.be/id/streetaxe/90747","TYPE":"SC","HIERARCHY":"DC","LVL":0,"STARTSN_ID":"https://databrussels.be/id/streetnode/9661","ENDSN_ID":"https://databrussels.be/id/streetnode/9658","STRNAMEFRE":"Rue du Ham","STRNAMEDUT":"Hamstraat","SLOPE":7.77,"LENGTH":191.501836934757},"bbox":[149851.57462009,164601.89193223,149877.85932508,164790.3298593]},{"type":"Feature","id":"StreetAxes.fid--291372a6_1a02d6cd6c1_-3fef","geometry":{"type":"LineString","coordinates":[[149734.66623868,164869.3300548],[149738.909,164862.219],[149746.96194051,164848.76743295],[149752.97158183,164844.03893542],[149758.11319074,164842.33233323]]},"geometry_name":"GEOM","properties":{"INSPIRE_ID":"https://databrussels.be/id/streetaxe/90748","TYPE":"SC","HIERARCHY":"DC","LVL":0,"STARTSN_ID":"https://databrussels.be/id/streetnode/9648","ENDSN_ID":"https://databrussels.be/id/streetnode/9671","STRNAMEFRE":"Place de Saint-Job","STRNAMEDUT":"Sint-Jobsplein","SLOPE":0.76,"LENGTH":37.0227206045038},"bbox":[149734.66623868,164842.33233323,149758.11319074,164869.3300548]},{"type":"Feature","id":"StreetAxes.fid--291372a6_1a02d6cd6c1_-3feb","geometry":{"type":"LineString","coordinates":[[149770.72357761,164843.53091545],[149765.31842595,164842.22521806],[149758.11319074,164842.33233323]]},"geometry_name":"GEOM","properties":{"INSPIRE_ID":"https://databrussels.be/id/streetaxe/90975","TYPE":"IC","HIERARCHY":"DC","LVL":0,"STARTSN_ID":"https://databrussels.be/id/streetnode/9650","ENDSN_ID":"https://databrussels.be/id/streetnode/9671","STRNAMEFRE":"Place de Saint-Job","STRNAMEDUT":"Sint-Jobsplein","SLOPE":2.19,"LENGTH":12.7666527457494},"bbox":[149758.11319074,164842.22521806,149770.72357761,164843.53091545]},{"type":"Feature","id":"StreetAxes.fid--291372a6_1a02d6cd6c1_-3fe9","geometry":{"type":"LineString","coordinates":[[149770.72357761,164843.53091545],[149776.07689726,164845.31419893],[149805.00110821,164855.12724105],[149822.038,164859.026]]},"geometry_name":"GEOM","properties":{"INSPIRE_ID":"https://databrussels.be/id/streetaxe/91283","TYPE":"SC","HIERARCHY":"DC","LVL":0,"STARTSN_ID":"https://databrussels.be/id/streetnode/9650","ENDSN_ID":"https://databrussels.be/id/streetnode/9646","STRNAMEFRE":"Place de Saint-Job","STRNAMEDUT":"Sint-Jobsplein","SLOPE":2.59,"LENGTH":53.6633347158},"bbox":[149770.72357761,164843.53091545,149822.038,164859.026]},{"type":"Feature","id":"StreetAxes.fid--291372a6_1a02d6cd6c1_-3ff6","geometry":{"type":"LineString","coordinates":[[150381.8400132,165090.81234966],[150360.582,165092.665],[150340.882,165094.464],[150303.015,165096.76],[150282.22,165097.675],[150234.98,165096.76],[150204.495,165094.445],[150179.93,165091.744],[150163.179,165089.552],[150000,165065.44],[149938.725,165055.635],[149910.385,165050.755],[149891.015,165046.145],[149870.444,165041.533],[149846.525,165035.05],[149836.72,165032.355],[149815.79,165025.79],[149787.54,165015.965],[149757.44,165003.395],[149721.892,164986.521],[149715.824,164983.585]]},"geometry_name":"GEOM","properties":{"INSPIRE_ID":"https://databrussels.be/id/streetaxe/94268","TYPE":"S","HIERARCHY":"H","LVL":0,"STARTSN_ID":"https://databrussels.be/id/streetnode/733","ENDSN_ID":"https://databrussels.be/id/streetnode/3465","STRNAMEFRE":"Avenue Latérale","STRNAMEDUT":"Zijlaan","SLOPE":0.26,"LENGTH":681.561510437199},"bbox":[149715.824,164983.585,150381.8400132,165097.675]},{"type":"Feature","id":"StreetAxes.fid--291372a6_1a02d6cd6c1_-3fd7","geometry":{"type":"LineString","coordinates":[[149535.25308808,164658.15763809],[149531.8045,164662.973],[149529.39,164666.505],[149519.8392141,164678.79631427],[149507.69887635,164695.29346158],[149508.30187325,164696.7000393],[149509.58826666,164697.72483165],[149513.06554883,164699.7342284],[149519.25631709,164702.80860542],[149520.58291029,164704.43621679],[149520.10051276,164706.00354625],[149510.40176571,164727.28042447]]},"geometry_name":"GEOM","properties":{"INSPIRE_ID":"https://databrussels.be/id/streetaxe/94568","TYPE":"S","HIERARCHY":null,"LVL":0,"STARTSN_ID":"https://databrussels.be/id/streetnode/4236","ENDSN_ID":"https://databrussels.be/id/streetnode/11182","STRNAMEFRE":"Chemin Avijl","STRNAMEDUT":"Avijlweg","SLOPE":9.02,"LENGTH":87.4759367610564},"bbox":[149507.69887635,164658.15763809,149535.25308808,164727.28042447]},{"type":"Feature","id":"StreetAxes.fid--291372a6_1a02d6cd6c1_-3fd1","geometry":{"type":"LineString","coordinates":[[149565.23895005,164679.83242952],[149569.83040108,164668.49076237],[149573.85038047,164659.12697351],[149578.8753547,164648.79867422],[149584.90532379,164636.15956867],[149589.12630215,164627.19765916],[149596.58336391,164611.76549213],[149603.31682939,164597.67962091],[149606.37201372,164598.48337961],[149615.7385657,164601.03531349],[149618.87414962,164601.87926012],[149627.23570675,164603.78818703],[149635.21536584,164605.63683204],[149648.86319587,164609.25374619],[149660.5010362,164612.87066034],[149670.55098467,164615.68381579],[149683.83701655,164619.64232739],[149690.44988265,164621.43069049],[149695.91705461,164622.61623458],[149698.75114008,164622.93773806],[149702.44952112,164622.25454316],[149704.68060968,164619.84326706],[149707.1930968,164618.55725314],[149714.34866011,164615.62353389],[149726.46889797,164613.13188192],[149727.95629035,164613.41319746],[149732.05666932,164615.10109073],[149736.94094428,164617.67311857],[149748.81604031,164624.49847579]]},"geometry_name":"GEOM","properties":{"INSPIRE_ID":"https://databrussels.be/id/streetaxe/94931","TYPE":"S","HIERARCHY":null,"LVL":0,"STARTSN_ID":"https://databrussels.be/id/streetnode/4237","ENDSN_ID":"https://databrussels.be/id/streetnode/4238","STRNAMEFRE":"Chemin Avijl","STRNAMEDUT":"Avijlweg","SLOPE":7.31,"LENGTH":244.498852179526},"bbox":[149565.23895005,164597.67962091,149748.81604031,164679.83242952]},{"type":"Feature","id":"StreetAxes.fid--291372a6_1a02d6cd6c1_-3fee","geometry":{"type":"LineString","coordinates":[[149765.03812006,164556.69752691],[149760.63299629,164555.35346947],[149755.786,164548.954],[149746.42341861,164529.6646792],[149744.63832246,164522.29165217],[149739.88177857,164514.03972814],[149739.02197749,164507.72053366],[149739.09,164501.965],[149740.03,164491.42],[149741.82,164480.74],[149745.9,164466.32],[149752.19,164454.265],[149775.07511985,164419.24270011]]},"geometry_name":"GEOM","properties":{"INSPIRE_ID":"https://databrussels.be/id/streetaxe/97453","TYPE":"S","HIERARCHY":"H","LVL":0,"STARTSN_ID":"https://databrussels.be/id/streetnode/2070","ENDSN_ID":"https://databrussels.be/id/streetnode/3490","STRNAMEFRE":"Montagne de Saint-Job","STRNAMEDUT":"Berg van Sint-Job","SLOPE":5.51,"LENGTH":155.154627739092},"bbox":[149739.02197749,164419.24270011,149775.07511985,164556.69752691]},{"type":"Feature","id":"StreetAxes.fid--291372a6_1a02d6cd6c1_-3fea","geometry":{"type":"LineString","coordinates":[[149765.03812006,164556.69752691],[149766.65497392,164549.72689491],[149777.01971307,164497.12587896],[149782.17711248,164460.46999152],[149784.96718101,164449.3801041]]},"geometry_name":"GEOM","properties":{"INSPIRE_ID":"https://databrussels.be/id/streetaxe/97455","TYPE":"S","HIERARCHY":"DR","LVL":0,"STARTSN_ID":"https://databrussels.be/id/streetnode/2070","ENDSN_ID":"https://databrussels.be/id/streetnode/9660","STRNAMEFRE":"Montagne de Saint-Job","STRNAMEDUT":"Berg van Sint-Job","SLOPE":6.2,"LENGTH":109.22054244113},"bbox":[149765.03812006,164449.3801041,149784.96718101,164556.69752691]},{"type":"Feature","id":"StreetAxes.fid--291372a6_1a02d6cd6c1_-3fec","geometry":{"type":"LineString","coordinates":[[149748.81604031,164624.49847579],[149752.36715851,164608.01753342],[149758.13143208,164583.10572326],[149763.125,164563.66],[149765.03812006,164556.69752691]]},"geometry_name":"GEOM","properties":{"INSPIRE_ID":"https://databrussels.be/id/streetaxe/97462","TYPE":"S","HIERARCHY":"DR","LVL":0,"STARTSN_ID":"https://databrussels.be/id/streetnode/4238","ENDSN_ID":"https://databrussels.be/id/streetnode/2070","STRNAMEFRE":"Montagne de Saint-Job","STRNAMEDUT":"Berg van Sint-Job","SLOPE":2.98,"LENGTH":69.7263635674614},"bbox":[149748.81604031,164556.69752691,149765.03812006,164624.49847579]}],"numberReturned":44,"grand_bruxelles_source":{"authority":"Paradigm / Brussels-Capital Region","service":"https://geoservices-urbis.irisnet.be/geoserver/urbisvector/wfs","layer":"urbisvector:StreetAxes","crs":"EPSG:31370","bbox":[149500.0,164500.0,150000.0,165000.0],"cell_id":"bxl-e149500-n164500-s500","ownership":"bbox_intersection_source_unclipped"}}
