{"type":"FeatureCollection","totalFeatures":52,"numberMatched":52,"timeStamp":"2026-08-23T02:52:58.395Z","crs":{"type":"name","properties":{"name":"urn:ogc:def:crs:EPSG::31370"}},"bbox":[147430.37319386,173829.53075545,148172.807,174533.9916718],"features":[{"type":"Feature","id":"StreetAxes.fid--324554a4_1a02c2cbca7_-6098","geometry":{"type":"LineString","coordinates":[[147535.2934215,174320.66677056],[147535.51099705,174314.37063968],[147483.52084458,174245.34348725],[147467.61544017,174244.22953547]]},"geometry_name":"GEOM","properties":{"INSPIRE_ID":"https://databrussels.be/id/streetaxe/100320","TYPE":"S","HIERARCHY":"DR","LVL":0,"STARTSN_ID":"https://databrussels.be/id/streetnode/","ENDSN_ID":"https://databrussels.be/id/streetnode/","STRNAMEFRE":"Boulevard de Smet de Naeyer","STRNAMEDUT":"de Smet de Naeyerlaan","SLOPE":null,"LENGTH":108.660246534296},"bbox":[147467.61544017,174244.22953547,147535.51099705,174320.66677056]},{"type":"Feature","id":"StreetAxes.fid--324554a4_1a02c2cbca7_-60a2","geometry":{"type":"LineString","coordinates":[[147936.05028833,174178.79016064],[147925.808,174178.308],[147832.74429002,174172.47303746]]},"geometry_name":"GEOM","properties":{"INSPIRE_ID":"https://databrussels.be/id/streetaxe/100321","TYPE":"S","HIERARCHY":"DR","LVL":0,"STARTSN_ID":"https://databrussels.be/id/streetnode/","ENDSN_ID":"https://databrussels.be/id/streetnode/","STRNAMEFRE":"Rue Jacobs Fontaine","STRNAMEDUT":"Jacobs Fontainestraat","SLOPE":null,"LENGTH":103.500083516197},"bbox":[147832.74429002,174172.47303746,147936.05028833,174178.79016064]},{"type":"Feature","id":"StreetAxes.fid--324554a4_1a02c2cbca7_-607e","geometry":{"type":"LineString","coordinates":[[147691.414,174111.711],[147704.425,174117.879],[147747.136,174138.227],[147756.351,174142.615]]},"geometry_name":"GEOM","properties":{"INSPIRE_ID":"https://databrussels.be/id/streetaxe/70450","TYPE":"S","HIERARCHY":"DR","LVL":0,"STARTSN_ID":"https://databrussels.be/id/streetnode/2725","ENDSN_ID":"https://databrussels.be/id/streetnode/38","STRNAMEFRE":"Rue de la Résistance","STRNAMEDUT":"Verzetsstraat","SLOPE":1.1,"LENGTH":71.9157433869336},"bbox":[147691.414,174111.711,147756.351,174142.615]},{"type":"Feature","id":"StreetAxes.fid--324554a4_1a02c2cbca7_-609b","geometry":{"type":"LineString","coordinates":[[147997.018,174286.998],[147996.714,174281.352],[147998.618,174276.552],[148031.508,174193.662],[148035.11420673,174184.92016759]]},"geometry_name":"GEOM","properties":{"INSPIRE_ID":"https://databrussels.be/id/streetaxe/70798","TYPE":"S","HIERARCHY":"DR","LVL":0,"STARTSN_ID":"https://databrussels.be/id/streetnode/3585","ENDSN_ID":"https://databrussels.be/id/streetnode/4658","STRNAMEFRE":"Avenue Prudent Bols","STRNAMEDUT":"Prudent Bolslaan","SLOPE":1.69,"LENGTH":109.451275329933},"bbox":[147996.714,174184.92016759,148035.11420673,174286.998]},{"type":"Feature","id":"StreetAxes.fid--324554a4_1a02c2cbca7_-608f","geometry":{"type":"LineString","coordinates":[[147523.081,174170.927],[147525.63,174163.598],[147561.57,174060.53],[147564.607,174051.298]]},"geometry_name":"GEOM","properties":{"INSPIRE_ID":"https://databrussels.be/id/streetaxe/70806","TYPE":"S","HIERARCHY":"DR","LVL":0,"STARTSN_ID":"https://databrussels.be/id/streetnode/680","ENDSN_ID":"https://databrussels.be/id/streetnode/913","STRNAMEFRE":"Rue des Augustines","STRNAMEDUT":"Augustijnernonnenstraat","SLOPE":2.88,"LENGTH":126.632779750289},"bbox":[147523.081,174051.298,147564.607,174170.927]},{"type":"Feature","id":"StreetAxes.fid--324554a4_1a02c2cbca7_-608d","geometry":{"type":"LineString","coordinates":[[147564.607,174051.298],[147567.532,174042.409],[147613.424,173891.352],[147616.394,173882.058]]},"geometry_name":"GEOM","properties":{"INSPIRE_ID":"https://databrussels.be/id/streetaxe/71355","TYPE":"S","HIERARCHY":"DR","LVL":0,"STARTSN_ID":"https://databrussels.be/id/streetnode/913","ENDSN_ID":"https://databrussels.be/id/streetnode/3433","STRNAMEFRE":"Rue des Augustines","STRNAMEDUT":"Augustijnernonnenstraat","SLOPE":4.05,"LENGTH":176.989190854012},"bbox":[147564.607,173882.058,147616.394,174051.298]},{"type":"Feature","id":"StreetAxes.fid--324554a4_1a02c2cbca7_-6081","geometry":{"type":"LineString","coordinates":[[147977.676,174037.45],[147967.448,174033.626],[147959.682,174030.632],[147940.542,174025.281],[147866.788,174006.881],[147858.07,174004.706]]},"geometry_name":"GEOM","properties":{"INSPIRE_ID":"https://databrussels.be/id/streetaxe/71496","TYPE":"S","HIERARCHY":"IDR","LVL":0,"STARTSN_ID":"https://databrussels.be/id/streetnode/1263","ENDSN_ID":"https://databrussels.be/id/streetnode/1646","STRNAMEFRE":"Rue Léopold I","STRNAMEDUT":"Leopold I straat","SLOPE":2.32,"LENGTH":124.116319771475},"bbox":[147858.07,174004.706,147977.676,174037.45]},{"type":"Feature","id":"StreetAxes.fid--324554a4_1a02c2cbca7_-6085","geometry":{"type":"LineString","coordinates":[[147691.414,174111.711],[147690.04,174096.517],[147685.102,174038.248],[147696.76,173927.179],[147701.07,173921.168]]},"geometry_name":"GEOM","properties":{"INSPIRE_ID":"https://databrussels.be/id/streetaxe/71588","TYPE":"S","HIERARCHY":"DR","LVL":0,"STARTSN_ID":"https://databrussels.be/id/streetnode/2725","ENDSN_ID":"https://databrussels.be/id/streetnode/2025","STRNAMEFRE":"Rue Esseghem","STRNAMEDUT":"Esseghemstraat","SLOPE":3.04,"LENGTH":192.80950694567},"bbox":[147685.102,173921.168,147701.07,174111.711]},{"type":"Feature","id":"StreetAxes.fid--324554a4_1a02c2cbca7_-6084","geometry":{"type":"LineString","coordinates":[[147756.351,174142.615],[147760.202,174133.758],[147769.661,174043.469],[147780.875,173972.475],[147784.818,173965.613]]},"geometry_name":"GEOM","properties":{"INSPIRE_ID":"https://databrussels.be/id/streetaxe/71589","TYPE":"S","HIERARCHY":"DR","LVL":0,"STARTSN_ID":"https://databrussels.be/id/streetnode/38","ENDSN_ID":"https://databrussels.be/id/streetnode/1503","STRNAMEFRE":"Rue Amélie Gomand","STRNAMEDUT":"Amélie Gomandstraat","SLOPE":3.5,"LENGTH":180.229502462105},"bbox":[147756.351,173965.613,147784.818,174142.615]},{"type":"Feature","id":"StreetAxes.fid--324554a4_1a02c2cbca7_-608e","geometry":{"type":"LineString","coordinates":[[147523.081,174170.927],[147531.394,174172.738],[147616.354,174243.74],[147621.43,174247.551]]},"geometry_name":"GEOM","properties":{"INSPIRE_ID":"https://databrussels.be/id/streetaxe/71683","TYPE":"S","HIERARCHY":"DR","LVL":0,"STARTSN_ID":"https://databrussels.be/id/streetnode/680","ENDSN_ID":"https://databrussels.be/id/streetnode/432","STRNAMEFRE":"Rue Joseph Loossens","STRNAMEDUT":"Joseph Loossensstraat","SLOPE":0.7,"LENGTH":125.577940231897},"bbox":[147523.081,174170.927,147621.43,174247.551]},{"type":"Feature","id":"StreetAxes.fid--324554a4_1a02c2cbca7_-60aa","geometry":{"type":"LineString","coordinates":[[147681.306,174233.81],[147680.138,174227.709],[147693.755,174137.89],[147692.77,174127.009],[147691.414,174111.711]]},"geometry_name":"GEOM","properties":{"INSPIRE_ID":"https://databrussels.be/id/streetaxe/71904","TYPE":"S","HIERARCHY":"DR","LVL":0,"STARTSN_ID":"https://databrussels.be/id/streetnode/2031","ENDSN_ID":"https://databrussels.be/id/streetnode/2725","STRNAMEFRE":"Rue Esseghem","STRNAMEDUT":"Esseghemstraat","SLOPE":2.33,"LENGTH":123.340607487179},"bbox":[147680.138,174111.711,147693.755,174233.81]},{"type":"Feature","id":"StreetAxes.fid--324554a4_1a02c2cbca7_-6083","geometry":{"type":"LineString","coordinates":[[147858.07,174004.706],[147849.59,174001.132],[147834.538,173995.774],[147813.905,173984.82],[147793.212,173971.528],[147784.818,173965.613]]},"geometry_name":"GEOM","properties":{"INSPIRE_ID":"https://databrussels.be/id/streetaxe/71905","TYPE":"S","HIERARCHY":"IDR","LVL":0,"STARTSN_ID":"https://databrussels.be/id/streetnode/1646","ENDSN_ID":"https://databrussels.be/id/streetnode/1503","STRNAMEFRE":"Rue Léopold I","STRNAMEDUT":"Leopold I straat","SLOPE":1.97,"LENGTH":83.4030069514123},"bbox":[147784.818,173965.613,147858.07,174004.706]},{"type":"Feature","id":"StreetAxes.fid--324554a4_1a02c2cbca7_-60af","geometry":{"type":"LineString","coordinates":[[147621.43,174247.551],[147627.305,174245.785],[147674.054,174233.593],[147681.306,174233.81]]},"geometry_name":"GEOM","properties":{"INSPIRE_ID":"https://databrussels.be/id/streetaxe/72251","TYPE":"S","HIERARCHY":"DR","LVL":0,"STARTSN_ID":"https://databrussels.be/id/streetnode/432","ENDSN_ID":"https://databrussels.be/id/streetnode/2031","STRNAMEFRE":"Rue Joseph Loossens","STRNAMEDUT":"Joseph Loossensstraat","SLOPE":2.4,"LENGTH":61.7026003515399},"bbox":[147621.43,174233.593,147681.306,174247.551]},{"type":"Feature","id":"StreetAxes.fid--324554a4_1a02c2cbca7_-607f","geometry":{"type":"LineString","coordinates":[[147564.607,174051.298],[147572.807,174055.298],[147678.541,174105.574],[147691.414,174111.711]]},"geometry_name":"GEOM","properties":{"INSPIRE_ID":"https://databrussels.be/id/streetaxe/72532","TYPE":"S","HIERARCHY":"DR","LVL":0,"STARTSN_ID":"https://databrussels.be/id/streetnode/913","ENDSN_ID":"https://databrussels.be/id/streetnode/2725","STRNAMEFRE":"Rue Dansette","STRNAMEDUT":"Dansettestraat","SLOPE":1.12,"LENGTH":140.463036628344},"bbox":[147564.607,174051.298,147691.414,174111.711]},{"type":"Feature","id":"StreetAxes.fid--324554a4_1a02c2cbca7_-6086","geometry":{"type":"LineString","coordinates":[[148022.021,173850.302],[148019.872,173859.458],[147980.906,174028.742],[147977.676,174037.45]]},"geometry_name":"GEOM","properties":{"INSPIRE_ID":"https://databrussels.be/id/streetaxe/73169","TYPE":"S","HIERARCHY":"DR","LVL":0,"STARTSN_ID":"https://databrussels.be/id/streetnode/2996","ENDSN_ID":"https://databrussels.be/id/streetnode/1263","STRNAMEFRE":"Rue Edmond Tollenaere","STRNAMEDUT":"Edmond Tollenaerestraat","SLOPE":0.3,"LENGTH":192.403299026519},"bbox":[147977.676,173850.302,148022.021,174037.45]},{"type":"Feature","id":"StreetAxes.fid--324554a4_1a02c2cbca7_-6088","geometry":{"type":"LineString","coordinates":[[147619.29346037,174314.60793008],[147618.18382276,174308.4064496],[147618.2566062,174256.04221178],[147621.43,174247.551]]},"geometry_name":"GEOM","properties":{"INSPIRE_ID":"https://databrussels.be/id/streetaxe/77544","TYPE":"S","HIERARCHY":"DR","LVL":0,"STARTSN_ID":"https://databrussels.be/id/streetnode/11711","ENDSN_ID":"https://databrussels.be/id/streetnode/432","STRNAMEFRE":"Rue Gustave Delathouwer","STRNAMEDUT":"Gustave Delathouwerstraat","SLOPE":2.94,"LENGTH":67.7290890235253},"bbox":[147618.18382276,174247.551,147621.43,174314.60793008]},{"type":"Feature","id":"StreetAxes.fid--324554a4_1a02c2cbca7_-6080","geometry":{"type":"LineString","coordinates":[[148053.18967136,174057.27217484],[148024.81,174052.27],[148005.525,174047.165],[147987.904,174041.275],[147977.676,174037.45]]},"geometry_name":"GEOM","properties":{"INSPIRE_ID":"https://databrussels.be/id/streetaxe/81296","TYPE":"S","HIERARCHY":"IDR","LVL":0,"STARTSN_ID":"https://databrussels.be/id/streetnode/11983","ENDSN_ID":"https://databrussels.be/id/streetnode/1263","STRNAMEFRE":"Rue Léopold I","STRNAMEDUT":"Leopold I-straat","SLOPE":1.6,"LENGTH":78.2655436505461},"bbox":[147977.676,174037.45,148053.18967136,174057.27217484]},{"type":"Feature","id":"StreetAxes.fid--324554a4_1a02c2cbca7_-6087","geometry":{"type":"LineString","coordinates":[[147858.07,174004.706],[147861.091,173995.669],[147887.612,173915.336],[147907.542,173842.218],[147910.94489694,173829.53075545]]},"geometry_name":"GEOM","properties":{"INSPIRE_ID":"https://databrussels.be/id/streetaxe/83613","TYPE":"S","HIERARCHY":"DR","LVL":0,"STARTSN_ID":"https://databrussels.be/id/streetnode/1646","ENDSN_ID":"https://databrussels.be/id/streetnode/11992","STRNAMEFRE":"Rue Pannenhuis","STRNAMEDUT":"Pannenhuisstraat","SLOPE":0.5,"LENGTH":183.047384854436},"bbox":[147858.07,173829.53075545,147910.94489694,174004.706]},{"type":"Feature","id":"StreetAxes.fid--324554a4_1a02c2cbca7_-60b1","geometry":{"type":"LineString","coordinates":[[148172.807,174282.801],[148151.478,174282.588],[148007.213,174286.448],[147997.018,174286.998]]},"geometry_name":"GEOM","properties":{"INSPIRE_ID":"https://databrussels.be/id/streetaxe/85160","TYPE":"SC","HIERARCHY":"DC","LVL":0,"STARTSN_ID":"https://databrussels.be/id/streetnode/4333","ENDSN_ID":"https://databrussels.be/id/streetnode/3585","STRNAMEFRE":"Rue Steyls","STRNAMEDUT":"Steylsstraat","SLOPE":0.79,"LENGTH":175.856518902421},"bbox":[147997.018,174282.588,148172.807,174286.998]},{"type":"Feature","id":"StreetAxes.fid--324554a4_1a02c2cbca7_-60a8","geometry":{"type":"LineString","coordinates":[[147696.27874627,174289.19158304],[147700.21320517,174288.83310582],[147704.21970219,174287.27718338],[147708.45049305,174283.25346948],[147740.99374862,174251.52964831],[147745.25802424,174248.71887439],[147763.6792773,174229.25230247],[147765.12118133,174224.74390457],[147803.77222514,174184.18259628],[147806.70421417,174181.34749816]]},"geometry_name":"GEOM","properties":{"INSPIRE_ID":"https://databrussels.be/id/streetaxe/89534","TYPE":"S","HIERARCHY":"DR","LVL":0,"STARTSN_ID":"https://databrussels.be/id/streetnode/13360","ENDSN_ID":"https://databrussels.be/id/streetnode/8263","STRNAMEFRE":"Rue de la Bravoure","STRNAMEDUT":"Dapperheidsstraat","SLOPE":2.26,"LENGTH":156.282794457852},"bbox":[147696.27874627,174181.34749816,147806.70421417,174289.19158304]},{"type":"Feature","id":"StreetAxes.fid--324554a4_1a02c2cbca7_-60a7","geometry":{"type":"LineString","coordinates":[[147756.351,174142.615],[147765.566,174147.003],[147805.4073154,174166.08449037]]},"geometry_name":"GEOM","properties":{"INSPIRE_ID":"https://databrussels.be/id/streetaxe/89535","TYPE":"S","HIERARCHY":"DR","LVL":0,"STARTSN_ID":"https://databrussels.be/id/streetnode/38","ENDSN_ID":"https://databrussels.be/id/streetnode/8260","STRNAMEFRE":"Rue de la Résistance","STRNAMEDUT":"Verzetsstraat","SLOPE":1.04,"LENGTH":54.3814428944597},"bbox":[147756.351,174142.615,147805.4073154,174166.08449037]},{"type":"Feature","id":"StreetAxes.fid--324554a4_1a02c2cbca7_-60a6","geometry":{"type":"LineString","coordinates":[[147805.4073154,174166.08449037],[147804.65712316,174168.61559575],[147804.28214629,174171.17767686],[147804.46904232,174173.799786],[147804.98905581,174176.37770912],[147805.75391968,174178.89444936],[147806.70421417,174181.34749816]]},"geometry_name":"GEOM","properties":{"INSPIRE_ID":"https://databrussels.be/id/streetaxe/89536","TYPE":"I","HIERARCHY":"DR","LVL":0,"STARTSN_ID":"https://databrussels.be/id/streetnode/8260","ENDSN_ID":"https://databrussels.be/id/streetnode/8263","STRNAMEFRE":"Rond Point du Pannenhuis","STRNAMEDUT":"Pannenhuisplein","SLOPE":0.23,"LENGTH":15.7490100962875},"bbox":[147804.28214629,174166.08449037,147806.70421417,174181.34749816]},{"type":"Feature","id":"StreetAxes.fid--324554a4_1a02c2cbca7_-60a5","geometry":{"type":"LineString","coordinates":[[147820.04429037,174159.1729488],[147818.62657154,174158.9640016],[147816.00291527,174159.10355586],[147813.44387361,174159.70186578],[147811.01823681,174160.71367945],[147808.79697775,174162.11775973],[147806.87714718,174163.91041524],[147805.4073154,174166.08449037]]},"geometry_name":"GEOM","properties":{"INSPIRE_ID":"https://databrussels.be/id/streetaxe/89537","TYPE":"I","HIERARCHY":"DR","LVL":0,"STARTSN_ID":"https://databrussels.be/id/streetnode/8261","ENDSN_ID":"https://databrussels.be/id/streetnode/8260","STRNAMEFRE":"Rond Point du Pannenhuis","STRNAMEDUT":"Pannenhuisplein","SLOPE":1.23,"LENGTH":17.1954557219744},"bbox":[147805.4073154,174158.9640016,147820.04429037,174166.08449037]},{"type":"Feature","id":"StreetAxes.fid--324554a4_1a02c2cbca7_-6082","geometry":{"type":"LineString","coordinates":[[147820.04429037,174159.1729488],[147821.282,174153.68],[147827.468,174130.528],[147852.728,174025.532],[147855.695,174011.86],[147858.07,174004.706]]},"geometry_name":"GEOM","properties":{"INSPIRE_ID":"https://databrussels.be/id/streetaxe/89539","TYPE":"S","HIERARCHY":"DR","LVL":0,"STARTSN_ID":"https://databrussels.be/id/streetnode/8261","ENDSN_ID":"https://databrussels.be/id/streetnode/1646","STRNAMEFRE":"Rue de la Loyauté","STRNAMEDUT":"Rechtschapenheidsstraat","SLOPE":3.15,"LENGTH":159.114798373417},"bbox":[147820.04429037,174004.706,147858.07,174159.1729488]},{"type":"Feature","id":"StreetAxes.fid--324554a4_1a02c2cbca7_-60a3","geometry":{"type":"LineString","coordinates":[[147832.74429002,174172.47303746],[147832.12558455,174169.91946778],[147831.07893901,174167.50854007],[147829.67221095,174165.28792476],[147827.95081591,174163.30123079],[147825.94673464,174161.60054611],[147823.69009519,174160.25404386],[147821.22475846,174159.34692935],[147820.04429037,174159.1729488]]},"geometry_name":"GEOM","properties":{"INSPIRE_ID":"https://databrussels.be/id/streetaxe/89540","TYPE":"I","HIERARCHY":"DR","LVL":0,"STARTSN_ID":"https://databrussels.be/id/streetnode/8262","ENDSN_ID":"https://databrussels.be/id/streetnode/8261","STRNAMEFRE":"Rond Point du Pannenhuis","STRNAMEDUT":"Pannenhuisplein","SLOPE":1.22,"LENGTH":19.5895882366489},"bbox":[147820.04429037,174159.1729488,147832.74429002,174172.47303746]},{"type":"Feature","id":"StreetAxes.fid--324554a4_1a02c2cbca7_-609f","geometry":{"type":"LineString","coordinates":[[148035.11420673,174184.92016759],[148022.5405,174184.242],[147937.109,174178.84],[147936.05028833,174178.79016064]]},"geometry_name":"GEOM","properties":{"INSPIRE_ID":"https://databrussels.be/id/streetaxe/89541","TYPE":"S","HIERARCHY":"DR","LVL":0,"STARTSN_ID":"https://databrussels.be/id/streetnode/4658","ENDSN_ID":"https://databrussels.be/id/streetnode/8262","STRNAMEFRE":"Rue Jacobs-Fontaine","STRNAMEDUT":"Jacobs-Fontainestraat","SLOPE":0.93,"LENGTH":99.2539853039286},"bbox":[147936.05028833,174178.79016064,148035.11420673,174184.92016759]},{"type":"Feature","id":"StreetAxes.fid--324554a4_1a02c2cbca7_-60a9","geometry":{"type":"LineString","coordinates":[[147696.27874627,174289.19158304],[147692.84663783,174288.36521141],[147690.13127265,174285.6745988],[147682.474,174239.912],[147681.306,174233.81]]},"geometry_name":"GEOM","properties":{"INSPIRE_ID":"https://databrussels.be/id/streetaxe/89542","TYPE":"S","HIERARCHY":"DR","LVL":0,"STARTSN_ID":"https://databrussels.be/id/streetnode/13360","ENDSN_ID":"https://databrussels.be/id/streetnode/2031","STRNAMEFRE":"Rue Esseghem","STRNAMEDUT":"Esseghemstraat","SLOPE":3.35,"LENGTH":59.9644222487015},"bbox":[147681.306,174233.81,147696.27874627,174289.19158304]},{"type":"Feature","id":"StreetAxes.fid--324554a4_1a02c2cbca7_-6094","geometry":{"type":"LineString","coordinates":[[147518.07426987,173838.29393751],[147517.1865879,173848.12824372],[147493.39293192,173997.87993334],[147490.46509503,174016.20051882]]},"geometry_name":"GEOM","properties":{"INSPIRE_ID":"https://databrussels.be/id/streetaxe/89612","TYPE":"S","HIERARCHY":"IDR","LVL":0,"STARTSN_ID":"https://databrussels.be/id/streetnode/7821","ENDSN_ID":"https://databrussels.be/id/streetnode/7834","STRNAMEFRE":"Avenue Charles Woeste","STRNAMEDUT":"Charles Woestelaan","SLOPE":3.13,"LENGTH":180.057512872072},"bbox":[147490.46509503,173838.29393751,147518.07426987,174016.20051882]},{"type":"Feature","id":"StreetAxes.fid--324554a4_1a02c2cbca7_-6090","geometry":{"type":"LineString","coordinates":[[147504.60495173,174022.8940797],[147530.72022278,173856.97799451],[147532.00999555,173851.73960064],[147533.24722496,173841.75706549]]},"geometry_name":"GEOM","properties":{"INSPIRE_ID":"https://databrussels.be/id/streetaxe/89613","TYPE":"S","HIERARCHY":"IDR","LVL":0,"STARTSN_ID":"https://databrussels.be/id/streetnode/7817","ENDSN_ID":"https://databrussels.be/id/streetnode/8938","STRNAMEFRE":"Avenue Charles Woeste","STRNAMEDUT":"Charles Woestelaan","SLOPE":3.21,"LENGTH":183.412541061477},"bbox":[147504.60495173,173841.75706549,147533.24722496,174022.8940797]},{"type":"Feature","id":"StreetAxes.fid--324554a4_1a02c2cbca7_-6091","geometry":{"type":"LineString","coordinates":[[147504.60495173,174022.8940797],[147556.325,174047.201],[147564.607,174051.298]]},"geometry_name":"GEOM","properties":{"INSPIRE_ID":"https://databrussels.be/id/streetaxe/89617","TYPE":"S","HIERARCHY":"DR","LVL":0,"STARTSN_ID":"https://databrussels.be/id/streetnode/7817","ENDSN_ID":"https://databrussels.be/id/streetnode/913","STRNAMEFRE":"Rue Dansette","STRNAMEDUT":"Dansettestraat","SLOPE":0.64,"LENGTH":66.3870527855884},"bbox":[147504.60495173,174022.8940797,147564.607,174051.298]},{"type":"Feature","id":"StreetAxes.fid--324554a4_1a02c2cbca7_-60b0","geometry":{"type":"LineString","coordinates":[[147619.29346037,174314.60793008],[147631.26797043,174312.38566559]]},"geometry_name":"GEOM","properties":{"INSPIRE_ID":"https://databrussels.be/id/streetaxe/92710","TYPE":"SC","HIERARCHY":"DC","LVL":0,"STARTSN_ID":"https://databrussels.be/id/streetnode/11711","ENDSN_ID":"https://databrussels.be/id/streetnode/11724","STRNAMEFRE":"Rue Jules Lahaye","STRNAMEDUT":"Jules Lahayestraat","SLOPE":1.07,"LENGTH":12.1789716572864},"bbox":[147619.29346037,174312.38566559,147631.26797043,174314.60793008]},{"type":"Feature","id":"StreetAxes.fid--324554a4_1a02c2cbca7_-60a1","geometry":{"type":"LineString","coordinates":[[147874.39760714,174293.29135266],[147935.09025327,174290.71132335],[147954.80246984,174289.94887919]]},"geometry_name":"GEOM","properties":{"INSPIRE_ID":"https://databrussels.be/id/streetaxe/94248","TYPE":"SC","HIERARCHY":"DC","LVL":0,"STARTSN_ID":"https://databrussels.be/id/streetnode/5942","ENDSN_ID":"https://databrussels.be/id/streetnode/3585","STRNAMEFRE":"Rue Jules Lahaye","STRNAMEDUT":"Jules Lahayestraat","SLOPE":0.12,"LENGTH":80.4744158385007},"bbox":[147874.39760714,174289.94887919,147954.80246984,174293.29135266]},{"type":"Feature","id":"StreetAxes.fid--324554a4_1a02c2cbca7_-60ae","geometry":{"type":"LineString","coordinates":[[147874.39760714,174293.29135266],[147805.95835396,174296.20068831],[147705.7646658,174300.6866056],[147699.65347904,174300.94500345],[147694.23763556,174301.31940797],[147688.55323285,174302.13045683],[147685.15308565,174302.48273631],[147677.31877287,174303.9174954],[147631.26797043,174312.38566559]]},"geometry_name":"GEOM","properties":{"INSPIRE_ID":"https://databrussels.be/id/streetaxe/94249","TYPE":"SC","HIERARCHY":"DC","LVL":0,"STARTSN_ID":"https://databrussels.be/id/streetnode/","ENDSN_ID":"https://databrussels.be/id/streetnode/","STRNAMEFRE":"Rue Jules Lahaye","STRNAMEDUT":"Jules Lahayestraat","SLOPE":0.18,"LENGTH":244.288393092312},"bbox":[147631.26797043,174293.29135266,147874.39760714,174312.38566559]},{"type":"Feature","id":"StreetAxes.fid--324554a4_1a02c2cbca7_-60a4","geometry":{"type":"LineString","coordinates":[[147874.39760714,174293.29135266],[147873.11315217,174334.31834069],[147810.86125554,174336.51372972],[147809.59080867,174414.82724974],[147807.8215,174494.445]]},"geometry_name":"GEOM","properties":{"INSPIRE_ID":"https://databrussels.be/id/streetaxe/94673","TYPE":"S","HIERARCHY":"DR","LVL":0,"STARTSN_ID":"https://databrussels.be/id/streetnode/5942","ENDSN_ID":"https://databrussels.be/id/streetnode/4881","STRNAMEFRE":"Rue Jules Lahaye","STRNAMEDUT":"Jules Lahayestraat","SLOPE":1.91,"LENGTH":261.298917219003},"bbox":[147807.8215,174293.29135266,147874.39760714,174494.445]},{"type":"Feature","id":"StreetAxes.fid--324554a4_1a02c2cbca7_-60ad","geometry":{"type":"LineString","coordinates":[[147631.26797043,174312.38566559],[147635.15244424,174336.81425639],[147651.54558748,174333.42795595],[147655.47610721,174335.76003078],[147656.179127,174339.24216992],[147670.845,174336.375]]},"geometry_name":"GEOM","properties":{"INSPIRE_ID":"https://databrussels.be/id/streetaxe/94763","TYPE":"S","HIERARCHY":"DR","LVL":0,"STARTSN_ID":"https://databrussels.be/id/streetnode/11724","ENDSN_ID":"https://databrussels.be/id/streetnode/4863","STRNAMEFRE":"Rue Jules Lahaye","STRNAMEDUT":"Jules Lahayestraat","SLOPE":1.29,"LENGTH":64.5409438415528},"bbox":[147631.26797043,174312.38566559,147670.845,174339.24216992]},{"type":"Feature","id":"StreetAxes.fid--324554a4_1a02c2cbca7_-6097","geometry":{"type":"LineString","coordinates":[[147525.49101068,173843.80696978],[147471.27606039,174183.70776839],[147469.83319918,174192.34535534]]},"geometry_name":"GEOM","properties":{"INSPIRE_ID":"https://databrussels.be/id/streetaxe/95249","TYPE":"C","HIERARCHY":"IDR","LVL":0,"STARTSN_ID":"https://databrussels.be/id/streetnode/","ENDSN_ID":"https://databrussels.be/id/streetnode/","STRNAMEFRE":"Avenue Charles Woeste","STRNAMEDUT":"Charles Woestelaan","SLOPE":2.93,"LENGTH":352.954615872456},"bbox":[147469.83319918,173843.80696978,147525.49101068,174192.34535534]},{"type":"Feature","id":"StreetAxes.fid--324554a4_1a02c2cbca7_-6096","geometry":{"type":"LineString","coordinates":[[147504.60495173,174022.8940797],[147476.09044875,174201.80191597]]},"geometry_name":"GEOM","properties":{"INSPIRE_ID":"https://databrussels.be/id/streetaxe/95250","TYPE":"S","HIERARCHY":"IDR","LVL":0,"STARTSN_ID":"https://databrussels.be/id/streetnode/","ENDSN_ID":"https://databrussels.be/id/streetnode/","STRNAMEFRE":"Avenue Charles Woeste","STRNAMEDUT":"Charles Woestelaan","SLOPE":2.7,"LENGTH":181.165920520903},"bbox":[147476.09044875,174022.8940797,147504.60495173,174201.80191597]},{"type":"Feature","id":"StreetAxes.fid--324554a4_1a02c2cbca7_-6095","geometry":{"type":"LineString","coordinates":[[147477.67759953,174221.99886002],[147482.75397028,174229.09686063],[147489.44836959,174238.46939797],[147507.68608446,174262.78536521],[147551.38432847,174322.60090702],[147562.12758333,174337.94137317],[147570.02527798,174350.79379642]]},"geometry_name":"GEOM","properties":{"INSPIRE_ID":"https://databrussels.be/id/streetaxe/95261","TYPE":"C","HIERARCHY":"MAR","LVL":0,"STARTSN_ID":"https://databrussels.be/id/streetnode/","ENDSN_ID":"https://databrussels.be/id/streetnode/","STRNAMEFRE":"Boulevard de Smet de Naeyer","STRNAMEDUT":"de Smet de Naeyerlaan","SLOPE":0.57,"LENGTH":158.53017034901},"bbox":[147477.67759953,174221.99886002,147570.02527798,174350.79379642]},{"type":"Feature","id":"StreetAxes.fid--324554a4_1a02c2cbca7_-60ac","geometry":{"type":"LineString","coordinates":[[147655.02258745,174451.19826063],[147659.77754762,174457.92631862],[147663.91758998,174464.52211953],[147668.74709737,174473.37385826],[147672.68987552,174482.66759207],[147676.98872169,174497.05280492],[147678.88114565,174506.84799183],[147679.84704712,174516.71302502],[147679.62536482,174531.77109576],[147679.43629823,174533.9916718]]},"geometry_name":"GEOM","properties":{"INSPIRE_ID":"https://databrussels.be/id/streetaxe/95269","TYPE":"S","HIERARCHY":"MAR","LVL":0,"STARTSN_ID":"https://databrussels.be/id/streetnode/","ENDSN_ID":"https://databrussels.be/id/streetnode/","STRNAMEFRE":"Boulevard de Smet de Naeyer","STRNAMEDUT":"de Smet de Naeyerlaan","SLOPE":0.42,"LENGTH":88.3958375135144},"bbox":[147655.02258745,174451.19826063,147679.84704712,174533.9916718]},{"type":"Feature","id":"StreetAxes.fid--324554a4_1a02c2cbca7_-60ab","geometry":{"type":"LineString","coordinates":[[147655.02258745,174451.19826063],[147663.33369754,174445.15134014],[147669.78588255,174440.45691914],[147672.59809118,174437.86212877],[147675.26094704,174435.11443513],[147677.74764335,174432.2065226],[147680.02766573,174429.13407428],[147682.06762956,174425.89745519],[147683.83310524,174422.50349477],[147685.29156771,174418.96687899],[147686.41618847,174415.31047887],[147687.18962039,174411.56406147],[147687.60657344,174407.76138092],[147687.01595777,174372.74019613],[147686.40323701,174315.80193377]]},"geometry_name":"GEOM","properties":{"INSPIRE_ID":"https://databrussels.be/id/streetaxe/95270","TYPE":"S","HIERARCHY":"DR","LVL":0,"STARTSN_ID":"https://databrussels.be/id/streetnode/","ENDSN_ID":"https://databrussels.be/id/streetnode/","STRNAMEFRE":"Rue Esseghem","STRNAMEDUT":"Esseghemstraat","SLOPE":0.77,"LENGTH":148.483422130856},"bbox":[147655.02258745,174315.80193377,147687.60657344,174451.19826063]},{"type":"Feature","id":"StreetAxes.fid--324554a4_1a02c2cbca7_-608c","geometry":{"type":"LineString","coordinates":[[147570.02527798,174350.79379642],[147572.52326289,174338.31909043]]},"geometry_name":"GEOM","properties":{"INSPIRE_ID":"https://databrussels.be/id/streetaxe/95298","TYPE":"IC","HIERARCHY":"MAR","LVL":0,"STARTSN_ID":"https://databrussels.be/id/streetnode/","ENDSN_ID":"https://databrussels.be/id/streetnode/","STRNAMEFRE":"Boulevard de Smet de Naeyer","STRNAMEDUT":"de Smet de Naeyerlaan","SLOPE":0.15,"LENGTH":12.7223511292913},"bbox":[147570.02527798,174338.31909043,147572.52326289,174350.79379642]},{"type":"Feature","id":"StreetAxes.fid--324554a4_1a02c2cbca7_-608b","geometry":{"type":"LineString","coordinates":[[147570.02527798,174350.79379642],[147608.5984008,174403.86570553],[147636.09393433,174440.95360747],[147651.8705854,174462.75879268],[147659.26146723,174474.21644784],[147663.16515409,174483.38452933],[147665.7050989,174490.75781106],[147667.3043784,174496.23826665],[147668.72947894,174502.41288963],[147669.75871822,174507.97055599],[147670.18624838,174512.10383918],[147670.65737532,174515.68673576],[147670.78795749,174519.0706111],[147670.80379195,174524.92950826],[147670.70878524,174531.02566633],[147670.45250504,174532.86078677]]},"geometry_name":"GEOM","properties":{"INSPIRE_ID":"https://databrussels.be/id/streetaxe/95311","TYPE":"C","HIERARCHY":"MAR","LVL":0,"STARTSN_ID":"https://databrussels.be/id/streetnode/","ENDSN_ID":"https://databrussels.be/id/streetnode/","STRNAMEFRE":"Boulevard de Smet de Naeyer","STRNAMEDUT":"de Smet de Naeyerlaan","SLOPE":0.48,"LENGTH":212.751293050934},"bbox":[147570.02527798,174350.79379642,147670.80379195,174532.86078677]},{"type":"Feature","id":"StreetAxes.fid--324554a4_1a02c2cbca7_-608a","geometry":{"type":"LineString","coordinates":[[147619.29346037,174314.60793008],[147596.5208386,174318.69983916],[147591.3904254,174320.11948938],[147587.05166226,174321.62291061],[147584.38837276,174322.99600947],[147580.85465619,174325.16476596],[147578.06286485,174328.15230263],[147577.74763436,174328.56950894],[147574.2871159,174333.58896512],[147572.52326289,174338.31909043]]},"geometry_name":"GEOM","properties":{"INSPIRE_ID":"https://databrussels.be/id/streetaxe/95332","TYPE":"SC","HIERARCHY":"DC","LVL":0,"STARTSN_ID":"https://databrussels.be/id/streetnode/","ENDSN_ID":"https://databrussels.be/id/streetnode/","STRNAMEFRE":"Rue Jules Lahaye","STRNAMEDUT":"Jules Lahayestraat","SLOPE":0.95,"LENGTH":55.9518481012928},"bbox":[147572.52326289,174314.60793008,147619.29346037,174338.31909043]},{"type":"Feature","id":"StreetAxes.fid--324554a4_1a02c2cbca7_-6092","geometry":{"type":"LineString","coordinates":[[147572.52326289,174338.31909043],[147561.26763546,174322.23692647],[147500.82926219,174239.49022692],[147497.20366052,174234.45822471]]},"geometry_name":"GEOM","properties":{"INSPIRE_ID":"https://databrussels.be/id/streetaxe/95468","TYPE":"S","HIERARCHY":"MAR","LVL":0,"STARTSN_ID":"https://databrussels.be/id/streetnode/","ENDSN_ID":"https://databrussels.be/id/streetnode/","STRNAMEFRE":"Boulevard de Smet de Naeyer","STRNAMEDUT":"de Smet de Naeyerlaan","SLOPE":0.33,"LENGTH":128.300396172576},"bbox":[147497.20366052,174234.45822471,147572.52326289,174338.31909043]},{"type":"Feature","id":"StreetAxes.fid--324554a4_1a02c2cbca7_-6099","geometry":{"type":"LineString","coordinates":[[147452.69126053,174337.40795037],[147464.00222534,174341.07183675],[147512.71385346,174331.2115645],[147522.97256808,174330.5795945],[147535.2934215,174320.66677056]]},"geometry_name":"GEOM","properties":{"INSPIRE_ID":"https://databrussels.be/id/streetaxe/95469","TYPE":"SC","HIERARCHY":"DR","LVL":0,"STARTSN_ID":"https://databrussels.be/id/streetnode/","ENDSN_ID":"https://databrussels.be/id/streetnode/","STRNAMEFRE":"Rue Jules Lahaye","STRNAMEDUT":"Jules Lahayestraat","SLOPE":0.94,"LENGTH":87.6808338631513},"bbox":[147452.69126053,174320.66677056,147535.2934215,174341.07183675]},{"type":"Feature","id":"StreetAxes.fid--324554a4_1a02c2cbca7_-609a","geometry":{"type":"LineString","coordinates":[[147570.02527798,174350.79379642],[147564.78962444,174346.35941573],[147560.04312735,174344.10761836],[147556.27248735,174343.09130704],[147552.71288935,174342.79303466],[147548.30951249,174342.90514895],[147544.07349564,174343.84309191],[147537.10220925,174346.98052614],[147489.74030342,174370.25614298],[147475.60764272,174375.72728396],[147465.51735461,174378.81192475],[147459.96315004,174380.35099507],[147442.32638028,174386.18117988],[147436.3505304,174387.46360228],[147430.37319386,174388.11352458]]},"geometry_name":"GEOM","properties":{"INSPIRE_ID":"https://databrussels.be/id/streetaxe/95472","TYPE":"S","HIERARCHY":"DC","LVL":0,"STARTSN_ID":"https://databrussels.be/id/streetnode/","ENDSN_ID":"https://databrussels.be/id/streetnode/","STRNAMEFRE":"Avenue Secrétin","STRNAMEDUT":"Secrétinlaan","SLOPE":0.53,"LENGTH":150.921755463304},"bbox":[147430.37319386,174342.79303466,147570.02527798,174388.11352458]},{"type":"Feature","id":"StreetAxes.fid--324554a4_1a02c2cbca7_-6089","geometry":{"type":"LineString","coordinates":[[147572.52326289,174338.31909043],[147580.48176758,174349.69028924],[147588.71186756,174360.83400971],[147605.55972284,174383.69663044],[147636.1795914,174425.4294132],[147643.67202733,174435.63294643],[147655.02258745,174451.19826063]]},"geometry_name":"GEOM","properties":{"INSPIRE_ID":"https://databrussels.be/id/streetaxe/95473","TYPE":"S","HIERARCHY":"MAR","LVL":0,"STARTSN_ID":"https://databrussels.be/id/streetnode/","ENDSN_ID":"https://databrussels.be/id/streetnode/","STRNAMEFRE":"Boulevard de Smet de Naeyer","STRNAMEDUT":"de Smet de Naeyerlaan","SLOPE":0.31,"LENGTH":139.817048534893},"bbox":[147572.52326289,174338.31909043,147655.02258745,174451.19826063]},{"type":"Feature","id":"StreetAxes.fid--324554a4_1a02c2cbca7_-6093","geometry":{"type":"LineString","coordinates":[[147497.20366052,174234.45822471],[147505.56868128,174220.64560344],[147520.532,174178.256],[147523.081,174170.927]]},"geometry_name":"GEOM","properties":{"INSPIRE_ID":"https://databrussels.be/id/streetaxe/95475","TYPE":"S","HIERARCHY":"DR","LVL":0,"STARTSN_ID":"https://databrussels.be/id/streetnode/","ENDSN_ID":"https://databrussels.be/id/streetnode/","STRNAMEFRE":"Rue des Augustines","STRNAMEDUT":"Augustijnernonnenstraat","SLOPE":1.88,"LENGTH":68.860825198236},"bbox":[147497.20366052,174170.927,147523.081,174234.45822471]},{"type":"Feature","id":"StreetAxes.fid--324554a4_1a02c2cbca7_-609d","geometry":{"type":"LineString","coordinates":[[147997.018,174286.998],[147986.91990575,174288.78004916],[147954.80246984,174289.94887919]]},"geometry_name":"GEOM","properties":{"INSPIRE_ID":"https://databrussels.be/id/streetaxe/96309","TYPE":"S","HIERARCHY":"DR","LVL":0,"STARTSN_ID":"https://databrussels.be/id/streetnode/","ENDSN_ID":"https://databrussels.be/id/streetnode/","STRNAMEFRE":"Rue Steyls","STRNAMEDUT":"Steylsstraat","SLOPE":null,"LENGTH":42.3928283262856},"bbox":[147954.80246984,174286.998,147997.018,174289.94887919]},{"type":"Feature","id":"StreetAxes.fid--324554a4_1a02c2cbca7_-609c","geometry":{"type":"LineString","coordinates":[[147960.34239433,174422.90273327],[147999.86903743,174421.74861952],[148003.63049428,174423.78022898],[148005.4785573,174426.57469203],[148006.40352882,174430.06847675],[148006.55933576,174432.88647014],[148006.34683174,174446.89278148]]},"geometry_name":"GEOM","properties":{"INSPIRE_ID":"https://databrussels.be/id/streetaxe/96311","TYPE":"S","HIERARCHY":"DR","LVL":0,"STARTSN_ID":"https://databrussels.be/id/streetnode/16507","ENDSN_ID":"https://databrussels.be/id/streetnode/16508","STRNAMEFRE":"Rue Eliane Vogel-Polsky","STRNAMEDUT":"Eliane Vogel-Polskystraat","SLOPE":null,"LENGTH":67.6131835466006},"bbox":[147960.34239433,174421.74861952,148006.55933576,174446.89278148]},{"type":"Feature","id":"StreetAxes.fid--324554a4_1a02c2cbca7_-609e","geometry":{"type":"LineString","coordinates":[[147954.80246984,174289.94887919],[147956.19472304,174300.96661641],[147961.61159642,174414.05036875],[147961.64844041,174419.63596275],[147960.34239433,174422.90273327]]},"geometry_name":"GEOM","properties":{"INSPIRE_ID":"https://databrussels.be/id/streetaxe/96312","TYPE":"S","HIERARCHY":"DR","LVL":0,"STARTSN_ID":"https://databrussels.be/id/streetnode/16506","ENDSN_ID":"https://databrussels.be/id/streetnode/16507","STRNAMEFRE":"Rue de l'Egalité des Droits","STRNAMEDUT":"Gelijkerechtenstraat","SLOPE":null,"LENGTH":133.422659851473},"bbox":[147954.80246984,174289.94887919,147961.64844041,174422.90273327]},{"type":"Feature","id":"StreetAxes.fid--324554a4_1a02c2cbca7_-60a0","geometry":{"type":"LineString","coordinates":[[148006.34683174,174446.89278148],[148003.96586839,174449.77604937],[148002.70813273,174452.86924468],[148002.35656835,174455.84818559],[148002.3837489,174458.80393438],[148005.18517359,174502.49120171],[148005.115042,174505.38754272],[148004.55372072,174507.60181485],[148003.6894471,174509.60118294],[148002.32965302,174511.58126576],[148000.59589237,174513.23741745],[147998.94749089,174514.40114158],[147996.34551985,174515.47481654],[147994.04139353,174515.90908335],[147941.84490039,174518.18693781],[147938.77237444,174517.82457059],[147936.30397056,174516.9370062],[147933.7113833,174515.38023898],[147931.94792133,174513.59381565],[147930.44108256,174511.18336773],[147929.47381051,174508.47237674],[147929.15356028,174505.73974148],[147930.28204433,174436.39047953],[147930.52074856,174433.15888161],[147931.05796525,174431.08585875],[147932.53613366,174429.26790477],[147934.54728871,174427.5619552],[147937.20211678,174426.53038514],[147943.11855048,174425.93865594],[147953.94184529,174425.52893391],[147957.33843989,174425.00185432],[147960.34239433,174422.90273327]]},"geometry_name":"GEOM","properties":{"INSPIRE_ID":"https://databrussels.be/id/streetaxe/96313","TYPE":"S","HIERARCHY":"DR","LVL":0,"STARTSN_ID":"https://databrussels.be/id/streetnode/16507","ENDSN_ID":"https://databrussels.be/id/streetnode/16508","STRNAMEFRE":"Rue Eliane Vogel-Polsky","STRNAMEDUT":"Eliane Vogel-Polskystraat","SLOPE":null,"LENGTH":254.565114885908},"bbox":[147929.15356028,174422.90273327,148006.34683174,174518.18693781]}],"numberReturned":52,"grand_bruxelles_source":{"authority":"Paradigm / Brussels-Capital Region","service":"https://geoservices-urbis.irisnet.be/geoserver/urbisvector/wfs","layer":"urbisvector:StreetAxes","crs":"EPSG:31370","bbox":[147500.0,174000.0,148000.0,174500.0],"cell_id":"bxl-e147500-n174000-s500","ownership":"bbox_intersection_source_unclipped"}}
