{"type":"FeatureCollection","features":[{"type":"Feature","id":"StreetAxes.fid-6b790b0d_19ff4f88afb_716","geometry":{"type":"LineString","coordinates":[[151345.256,170409.931],[151356.41362055,170399.7655835],[151360.72099734,170397.88375405],[151512.33245647,170348.11926379],[151519.42607791,170345.75030205]]},"geometry_name":"GEOM","properties":{"INSPIRE_ID":"https://databrussels.be/id/streetaxe/93297","TYPE":"S","HIERARCHY":"IDR","LVL":0,"STARTSN_ID":"https://databrussels.be/id/streetnode/8834","ENDSN_ID":"https://databrussels.be/id/streetnode/8821","STRNAMEFRE":"Avenue de la Renaissance","STRNAMEDUT":"Renaissancelaan","SLOPE":1.95,"LENGTH":186.843075829401},"bbox":[151345.256,170345.75030205,151519.42607791,170409.931]},{"type":"Feature","id":"StreetAxes.fid-6b790b0d_19ff4f88afb_717","geometry":{"type":"LineString","coordinates":[[151362.00168263,170395.95350382],[151358.03467572,170383.75982149],[151362.55617594,170382.28882838],[151515.07500608,170332.66942409]]},"geometry_name":"GEOM","properties":{"INSPIRE_ID":"https://databrussels.be/id/streetaxe/93294","TYPE":"K","HIERARCHY":"IDR","LVL":0,"STARTSN_ID":"https://databrussels.be/id/streetnode/8834","ENDSN_ID":"https://databrussels.be/id/streetnode/8833","STRNAMEFRE":"Avenue de la Renaissance","STRNAMEDUT":"Renaissancelaan","SLOPE":1.74,"LENGTH":177.964796575932},"bbox":[151358.03467572,170332.66942409,151515.07500608,170395.95350382]},{"type":"Feature","id":"StreetAxes.fid-6b790b0d_19ff4f88afb_718","geometry":{"type":"LineString","coordinates":[[151434.767,170476.634],[151444.104,170483.108],[151501.928,170524.026],[151506.836,170527.444]]},"geometry_name":"GEOM","properties":{"INSPIRE_ID":"https://databrussels.be/id/streetaxe/72314","TYPE":"S","HIERARCHY":"MER","LVL":0,"STARTSN_ID":"https://databrussels.be/id/streetnode/2148","ENDSN_ID":"https://databrussels.be/id/streetnode/299","STRNAMEFRE":"Avenue de Cortenbergh","STRNAMEDUT":"Kortenberglaan","SLOPE":2.05,"LENGTH":88.1798996826229},"bbox":[151434.767,170476.634,151506.836,170527.444]},{"type":"Feature","id":"StreetAxes.fid-6b790b0d_19ff4f88afb_719","geometry":{"type":"LineString","coordinates":[[151434.767,170476.634],[151439.88,170469.567],[151448.484,170466.732],[151540.762,170436.329],[151548.22,170432.822]]},"geometry_name":"GEOM","properties":{"INSPIRE_ID":"https://databrussels.be/id/streetaxe/75147","TYPE":"S","HIERARCHY":"DR","LVL":0,"STARTSN_ID":"https://databrussels.be/id/streetnode/2148","ENDSN_ID":"https://databrussels.be/id/streetnode/1959","STRNAMEFRE":"Rue Rembrandt","STRNAMEDUT":"Rembrandtstraat","SLOPE":1.7,"LENGTH":123.180583988921},"bbox":[151434.767,170432.822,151548.22,170476.634]},{"type":"Feature","id":"StreetAxes.fid-6b790b0d_19ff4f88afb_71a","geometry":{"type":"LineString","coordinates":[[151519.42607791,170345.75030205],[151515.07500608,170332.66942409]]},"geometry_name":"GEOM","properties":{"INSPIRE_ID":"https://databrussels.be/id/streetaxe/93291","TYPE":"S","HIERARCHY":"DR","LVL":0,"STARTSN_ID":"https://databrussels.be/id/streetnode/8821","ENDSN_ID":"https://databrussels.be/id/streetnode/8833","STRNAMEFRE":"Avenue de la Renaissance","STRNAMEDUT":"Renaissancelaan","SLOPE":0.87,"LENGTH":13.785542946061},"bbox":[151515.07500608,170332.66942409,151519.42607791,170345.75030205]},{"type":"Feature","id":"StreetAxes.fid-6b790b0d_19ff4f88afb_71b","geometry":{"type":"LineString","coordinates":[[151519.42607791,170345.75030205],[151521.932,170353.284],[151546.079,170426.144],[151548.22,170432.822]]},"geometry_name":"GEOM","properties":{"INSPIRE_ID":"https://databrussels.be/id/streetaxe/88241","TYPE":"S","HIERARCHY":"DR","LVL":0,"STARTSN_ID":"https://databrussels.be/id/streetnode/8821","ENDSN_ID":"https://databrussels.be/id/streetnode/1959","STRNAMEFRE":"Rue Léonard de Vinci","STRNAMEDUT":"Leonardo da Vincistraat","SLOPE":1.07,"LENGTH":91.70948282306},"bbox":[151519.42607791,170345.75030205,151548.22,170432.822]},{"type":"Feature","id":"StreetAxes.fid-6b790b0d_19ff4f88afb_71c","geometry":{"type":"LineString","coordinates":[[151515.07500608,170332.66942409],[151522.34417068,170330.30452517],[151556.36519748,170319.27747131],[151559.45018375,170327.4733488],[151560.91029265,170331.8963745]]},"geometry_name":"GEOM","properties":{"INSPIRE_ID":"https://databrussels.be/id/streetaxe/93290","TYPE":"K","HIERARCHY":"IDR","LVL":0,"STARTSN_ID":"https://databrussels.be/id/streetnode/8833","ENDSN_ID":"https://databrussels.be/id/streetnode/8822","STRNAMEFRE":"Avenue de la Renaissance","STRNAMEDUT":"Renaissancelaan","SLOPE":1.65,"LENGTH":56.8227104175763},"bbox":[151515.07500608,170319.27747131,151560.91029265,170332.66942409]},{"type":"Feature","id":"StreetAxes.fid-6b790b0d_19ff4f88afb_71d","geometry":{"type":"LineString","coordinates":[[151519.42607791,170345.75030205],[151526.57613769,170343.36249236],[151560.91029265,170331.8963745]]},"geometry_name":"GEOM","properties":{"INSPIRE_ID":"https://databrussels.be/id/streetaxe/93300","TYPE":"S","HIERARCHY":"IDR","LVL":0,"STARTSN_ID":"https://databrussels.be/id/streetnode/8821","ENDSN_ID":"https://databrussels.be/id/streetnode/8822","STRNAMEFRE":"Avenue de la Renaissance","STRNAMEDUT":"Renaissancelaan","SLOPE":1.87,"LENGTH":43.7363850915685},"bbox":[151519.42607791,170331.8963745,151560.91029265,170345.75030205]},{"type":"Feature","id":"StreetAxes.fid-6b790b0d_19ff4f88afb_71e","geometry":{"type":"LineString","coordinates":[[151519.42607791,170345.75030205],[151676.43917483,170293.01689612],[151683.95639857,170290.54280048]]},"geometry_name":"GEOM","properties":{"INSPIRE_ID":"https://databrussels.be/id/streetaxe/93305","TYPE":"S","HIERARCHY":"IDR","LVL":0,"STARTSN_ID":"https://databrussels.be/id/streetnode/8822","ENDSN_ID":"https://databrussels.be/id/streetnode/8819","STRNAMEFRE":"Avenue de la Renaissance","STRNAMEDUT":"Renaissancelaan","SLOPE":1.89,"LENGTH":173.5457944864},"bbox":[151519.42607791,170290.54280048,151683.95639857,170345.75030205]},{"type":"Feature","id":"StreetAxes.fid-6b790b0d_19ff4f88afb_71f","geometry":{"type":"LineString","coordinates":[[151548.22,170432.822],[151550.36,170439.5],[151585.866,170545.81],[151587.18253679,170549.75185691]]},"geometry_name":"GEOM","properties":{"INSPIRE_ID":"https://databrussels.be/id/streetaxe/87360","TYPE":"S","HIERARCHY":"DR","LVL":0,"STARTSN_ID":"https://databrussels.be/id/streetnode/1959","ENDSN_ID":"https://databrussels.be/id/streetnode/14455","STRNAMEFRE":"Rue Léonard de Vinci","STRNAMEDUT":"Leonardo da Vincistraat","SLOPE":0.9,"LENGTH":123.250932911379},"bbox":[151548.22,170432.822,151587.18253679,170549.75185691]},{"type":"Feature","id":"StreetAxes.fid-6b790b0d_19ff4f88afb_720","geometry":{"type":"LineString","coordinates":[[151683.95639857,170290.54280048],[151686.73117575,170298.97360666],[151711.29953729,170373.06771643],[151713.086,170379.96]]},"geometry_name":"GEOM","properties":{"INSPIRE_ID":"https://databrussels.be/id/streetaxe/85470","TYPE":"S","HIERARCHY":"DR","LVL":0,"STARTSN_ID":"https://databrussels.be/id/streetnode/8819","ENDSN_ID":"https://databrussels.be/id/streetnode/2222","STRNAMEFRE":"Rue Hobbema","STRNAMEDUT":"Hobbemastraat","SLOPE":0.63,"LENGTH":94.0568735790956},"bbox":[151683.95639857,170290.54280048,151713.086,170379.96]},{"type":"Feature","id":"StreetAxes.fid-6b790b0d_19ff4f88afb_721","geometry":{"type":"LineString","coordinates":[[151713.086,170379.96],[151715.33,170386.697],[151733.931,170443.142],[151735.908,170448.82]]},"geometry_name":"GEOM","properties":{"INSPIRE_ID":"https://databrussels.be/id/streetaxe/72157","TYPE":"S","HIERARCHY":"DR","LVL":0,"STARTSN_ID":"https://databrussels.be/id/streetnode/2222","ENDSN_ID":"https://databrussels.be/id/streetnode/1472","STRNAMEFRE":"Rue Hobbema","STRNAMEDUT":"Hobbemastraat","SLOPE":0.34,"LENGTH":72.5441612529452},"bbox":[151713.086,170379.96,151735.908,170448.82]},{"type":"Feature","id":"StreetAxes.fid-6b790b0d_19ff4f88afb_722","geometry":{"type":"LineString","coordinates":[[151735.908,170448.82],[151737.886,170454.498],[151758.294,170515.072],[151760.216,170520.705]]},"geometry_name":"GEOM","properties":{"INSPIRE_ID":"https://databrussels.be/id/streetaxe/84653","TYPE":"S","HIERARCHY":"DR","LVL":0,"STARTSN_ID":"https://databrussels.be/id/streetnode/1472","ENDSN_ID":"https://databrussels.be/id/streetnode/3380","STRNAMEFRE":"Rue Hobbema","STRNAMEDUT":"Hobbemastraat","SLOPE":0.76,"LENGTH":75.8839875212538},"bbox":[151735.908,170448.82,151760.216,170520.705]},{"type":"Feature","id":"StreetAxes.fid-6b790b0d_19ff4f88afb_723","geometry":{"type":"LineString","coordinates":[[151797.501,170351.662],[151804.074,170349.492],[151911.65,170314.037],[151921.226,170313.457]]},"geometry_name":"GEOM","properties":{"INSPIRE_ID":"https://databrussels.be/id/streetaxe/75500","TYPE":"S","HIERARCHY":"DR","LVL":0,"STARTSN_ID":"https://databrussels.be/id/streetnode/1438","ENDSN_ID":"https://databrussels.be/id/streetnode/3586","STRNAMEFRE":"Rue Leys","STRNAMEDUT":"Leysstraat","SLOPE":0.02,"LENGTH":129.783544190243},"bbox":[151797.501,170313.457,151921.226,170351.662]},{"type":"Feature","id":"StreetAxes.fid-6b790b0d_19ff4f88afb_724","geometry":{"type":"LineString","coordinates":[[151921.226,170313.457],[151922.559,170321.176],[151922.36,170329.003],[151921.137,170333.665]]},"geometry_name":"GEOM","properties":{"INSPIRE_ID":"https://databrussels.be/id/streetaxe/72749","TYPE":"S","HIERARCHY":"IDR","LVL":0,"STARTSN_ID":"https://databrussels.be/id/streetnode/3586","ENDSN_ID":"https://databrussels.be/id/streetnode/2758","STRNAMEFRE":"Avenue de la Chevalerie","STRNAMEDUT":"Ridderschapslaan","SLOPE":1.51,"LENGTH":20.4825304264839},"bbox":[151921.137,170313.457,151922.559,170333.665]},{"type":"Feature","id":"StreetAxes.fid-6b790b0d_19ff4f88afb_725","geometry":{"type":"LineString","coordinates":[[152006.37,170392.626],[151999.822,170388.172],[151928.549,170338.799],[151921.137,170333.665]]},"geometry_name":"GEOM","properties":{"INSPIRE_ID":"https://databrussels.be/id/streetaxe/72492","TYPE":"S","HIERARCHY":"DR","LVL":0,"STARTSN_ID":"https://databrussels.be/id/streetnode/2183","ENDSN_ID":"https://databrussels.be/id/streetnode/2758","STRNAMEFRE":"Rue de l'Orme","STRNAMEDUT":"Olmstraat","SLOPE":3.58,"LENGTH":103.639368367342},"bbox":[151921.137,170333.665,152006.37,170392.626]},{"type":"Feature","id":"StreetAxes.fid-6b790b0d_19ff4f88afb_726","geometry":{"type":"LineString","coordinates":[[151921.137,170333.665],[151918.366,170344.384],[151905.442,170390.914],[151903.191,170398.991]]},"geometry_name":"GEOM","properties":{"INSPIRE_ID":"https://databrussels.be/id/streetaxe/71389","TYPE":"S","HIERARCHY":"IDR","LVL":0,"STARTSN_ID":"https://databrussels.be/id/streetnode/2758","ENDSN_ID":"https://databrussels.be/id/streetnode/150","STRNAMEFRE":"Rue du Noyer","STRNAMEDUT":"Notelaarstraat","SLOPE":2.77,"LENGTH":67.7476987578761},"bbox":[151903.191,170333.665,151921.137,170398.991]},{"type":"Feature","id":"StreetAxes.fid-6b790b0d_19ff4f88afb_727","geometry":{"type":"LineString","coordinates":[[151797.501,170351.662],[151799.388,170357.345],[151818.7,170415.095],[151820.629,170420.814]]},"geometry_name":"GEOM","properties":{"INSPIRE_ID":"https://databrussels.be/id/streetaxe/72874","TYPE":"S","HIERARCHY":"DR","LVL":0,"STARTSN_ID":"https://databrussels.be/id/streetnode/1438","ENDSN_ID":"https://databrussels.be/id/streetnode/4375","STRNAMEFRE":"Rue Murillo","STRNAMEDUT":"Murillostraat","SLOPE":0.64,"LENGTH":72.917133953988},"bbox":[151797.501,170351.662,151820.629,170420.814]},{"type":"Feature","id":"StreetAxes.fid-6b790b0d_19ff4f88afb_728","geometry":{"type":"LineString","coordinates":[[151713.086,170379.96],[151721.182,170376.735],[151791.772,170353.553],[151797.501,170351.662]]},"geometry_name":"GEOM","properties":{"INSPIRE_ID":"https://databrussels.be/id/streetaxe/71023","TYPE":"S","HIERARCHY":"DR","LVL":0,"STARTSN_ID":"https://databrussels.be/id/streetnode/2222","ENDSN_ID":"https://databrussels.be/id/streetnode/1438","STRNAMEFRE":"Rue Leys","STRNAMEDUT":"Leysstraat","SLOPE":1.29,"LENGTH":89.0467899758271},"bbox":[151713.086,170351.662,151797.501,170379.96]},{"type":"Feature","id":"StreetAxes.fid-6b790b0d_19ff4f88afb_729","geometry":{"type":"LineString","coordinates":[[151287.108,170372.143],[151295.092,170377.788],[151642.688,170622.753],[151678.196,170643.926],[151743.564,170689.739],[151752.638,170697.325],[151768.072,170710.049],[151784.524,170722.005],[151823.791,170747.156],[151842.327,170754.798],[151865.091,170761.027],[151899.954,170773.614],[152105.026,170847.197],[152206.982,170884.452],[152337.138,170931.308],[152349.688,170936.664],[152361.918,170944.558],[152400.854,170973.576]]},"geometry_name":"GEOM","properties":{"INSPIRE_ID":"https://databrussels.be/id/streetaxe/93535","TYPE":"S","HIERARCHY":"MER","LVL":-1,"STARTSN_ID":"https://databrussels.be/id/streetnode/1021","ENDSN_ID":"https://databrussels.be/id/streetnode/6197","STRNAMEFRE":null,"STRNAMEDUT":null,"SLOPE":0.65,"LENGTH":1277.21752836163},"bbox":[151287.108,170372.143,152400.854,170973.576]},{"type":"Feature","id":"StreetAxes.fid-6b790b0d_19ff4f88afb_72a","geometry":{"type":"LineString","coordinates":[[151820.629,170420.814],[151826.363,170418.908],[151890.25,170397.814],[151894.24,170396.496],[151903.191,170398.991]]},"geometry_name":"GEOM","properties":{"INSPIRE_ID":"https://databrussels.be/id/streetaxe/72158","TYPE":"S","HIERARCHY":"DR","LVL":0,"STARTSN_ID":"https://databrussels.be/id/streetnode/4375","ENDSN_ID":"https://databrussels.be/id/streetnode/150","STRNAMEFRE":"Rue Van Ostade","STRNAMEDUT":"Van Ostadestraat","SLOPE":1.95,"LENGTH":86.816066579137},"bbox":[151820.629,170396.496,151903.191,170420.814]},{"type":"Feature","id":"StreetAxes.fid-6b790b0d_19ff4f88afb_72b","geometry":{"type":"LineString","coordinates":[[151903.191,170398.991],[151900.94,170407.068],[151893.314,170432.824],[151881.558,170465.554],[151878.314,170474.43]]},"geometry_name":"GEOM","properties":{"INSPIRE_ID":"https://databrussels.be/id/streetaxe/71390","TYPE":"S","HIERARCHY":"IDR","LVL":0,"STARTSN_ID":"https://databrussels.be/id/streetnode/150","ENDSN_ID":"https://databrussels.be/id/streetnode/3984","STRNAMEFRE":"Rue du Noyer","STRNAMEDUT":"Notelaarstraat","SLOPE":1.13,"LENGTH":79.4735394466582},"bbox":[151878.314,170398.991,151903.191,170474.43]},{"type":"Feature","id":"StreetAxes.fid-6b790b0d_19ff4f88afb_72c","geometry":{"type":"LineString","coordinates":[[151735.908,170448.82],[151743.096,170446.396],[151814.895,170422.719],[151820.629,170420.814]]},"geometry_name":"GEOM","properties":{"INSPIRE_ID":"https://databrussels.be/id/streetaxe/77221","TYPE":"S","HIERARCHY":"DR","LVL":0,"STARTSN_ID":"https://databrussels.be/id/streetnode/1472","ENDSN_ID":"https://databrussels.be/id/streetnode/4375","STRNAMEFRE":"Rue Van Ostade","STRNAMEDUT":"Van Ostadestraat","SLOPE":1.54,"LENGTH":89.2301120898806},"bbox":[151735.908,170420.814,151820.629,170448.82]},{"type":"Feature","id":"StreetAxes.fid-6b790b0d_19ff4f88afb_72d","geometry":{"type":"LineString","coordinates":[[151820.629,170420.814],[151822.558,170426.532],[151842.564,170486.582],[151844.73886507,170493.11007396]]},"geometry_name":"GEOM","properties":{"INSPIRE_ID":"https://databrussels.be/id/streetaxe/85341","TYPE":"S","HIERARCHY":"DR","LVL":0,"STARTSN_ID":"https://databrussels.be/id/streetnode/4375","ENDSN_ID":"https://databrussels.be/id/streetnode/14222","STRNAMEFRE":"Rue Murillo","STRNAMEDUT":"Murillostraat","SLOPE":1.59,"LENGTH":76.2103269927326},"bbox":[151820.629,170420.814,151844.73886507,170493.11007396]},{"type":"Feature","id":"StreetAxes.fid-6b790b0d_19ff4f88afb_72e","geometry":{"type":"LineString","coordinates":[[151878.314,170474.43],[151886.84,170477.546],[151920.756,170479.146],[151931.975,170480.389],[151956.893,170484.628],[151985.16,170491.999],[152082.258,170526.212],[152088.935,170528.566]]},"geometry_name":"GEOM","properties":{"INSPIRE_ID":"https://databrussels.be/id/streetaxe/72354","TYPE":"S","HIERARCHY":"DR","LVL":0,"STARTSN_ID":"https://databrussels.be/id/streetnode/3984","ENDSN_ID":"https://databrussels.be/id/streetnode/3305","STRNAMEFRE":"Rue Victor Lefèvre","STRNAMEDUT":"Victor Lefèvrestraat","SLOPE":3.06,"LENGTH":218.83623223842},"bbox":[151878.314,170474.43,152088.935,170528.566]},{"type":"Feature","id":"StreetAxes.fid-6b790b0d_19ff4f88afb_72f","geometry":{"type":"LineString","coordinates":[[151878.314,170474.43],[151875.879,170481.092],[151875.536,170482.03],[151874.875,170483.392],[151865.324,170503.058]]},"geometry_name":"GEOM","properties":{"INSPIRE_ID":"https://databrussels.be/id/streetaxe/71185","TYPE":"S","HIERARCHY":"IDR","LVL":0,"STARTSN_ID":"https://databrussels.be/id/streetnode/3984","ENDSN_ID":"https://databrussels.be/id/streetnode/509","STRNAMEFRE":"Place Wappers","STRNAMEDUT":"Wappersplein","SLOPE":1.27,"LENGTH":31.4683244420541},"bbox":[151865.324,170474.43,151878.314,170503.058]},{"type":"Feature","id":"StreetAxes.fid-6b790b0d_19ff4f88afb_730","geometry":{"type":"LineString","coordinates":[[151844.73886507,170493.11007396],[151865.324,170503.058]]},"geometry_name":"GEOM","properties":{"INSPIRE_ID":"https://databrussels.be/id/streetaxe/89182","TYPE":"I","HIERARCHY":"DR","LVL":0,"STARTSN_ID":"https://databrussels.be/id/streetnode/14222","ENDSN_ID":"https://databrussels.be/id/streetnode/509","STRNAMEFRE":"Place Wappers","STRNAMEDUT":"Wappersplein","SLOPE":4.29,"LENGTH":22.8628303706976},"bbox":[151844.73886507,170493.11007396,151865.324,170503.058]},{"type":"Feature","id":"StreetAxes.fid-6b790b0d_19ff4f88afb_731","geometry":{"type":"LineString","coordinates":[[151760.216,170520.705],[151767.243,170518.36],[151838.122,170495.266],[151844.73886507,170493.11007396]]},"geometry_name":"GEOM","properties":{"INSPIRE_ID":"https://databrussels.be/id/streetaxe/85339","TYPE":"S","HIERARCHY":"DR","LVL":0,"STARTSN_ID":"https://databrussels.be/id/streetnode/3380","ENDSN_ID":"https://databrussels.be/id/streetnode/14222","STRNAMEFRE":"Rue Wappers","STRNAMEDUT":"Wappersstraat","SLOPE":2.25,"LENGTH":88.9135829788768},"bbox":[151760.216,170493.11007396,151844.73886507,170520.705]},{"type":"Feature","id":"StreetAxes.fid-6b790b0d_19ff4f88afb_732","geometry":{"type":"LineString","coordinates":[[151817.93117655,169987.83952613],[151877.58231516,170169.65509987],[151882.81092819,170201.58464324]]},"geometry_name":"GEOM","properties":{"INSPIRE_ID":"https://databrussels.be/id/streetaxe/100418","TYPE":"S","HIERARCHY":"IDR","LVL":0,"STARTSN_ID":"https://databrussels.be/id/streetnode/","ENDSN_ID":"https://databrussels.be/id/streetnode/","STRNAMEFRE":"Avenue de la Chevalerie","STRNAMEDUT":"Ridderschaplaan","SLOPE":null,"LENGTH":223.70570124925},"bbox":[151817.93117655,169987.83952613,151882.81092819,170201.58464324]},{"type":"Feature","id":"StreetAxes.fid-6b790b0d_19ff4f88afb_733","geometry":{"type":"LineString","coordinates":[[151969.35784656,170058.40088018],[151976.184,170062.39],[152077.672,170147.569],[152083.368,170150.904]]},"geometry_name":"GEOM","properties":{"INSPIRE_ID":"https://databrussels.be/id/streetaxe/82826","TYPE":"S","HIERARCHY":"DR","LVL":0,"STARTSN_ID":"https://databrussels.be/id/streetnode/5049","ENDSN_ID":"https://databrussels.be/id/streetnode/1109","STRNAMEFRE":"Rue d'Oultremont","STRNAMEDUT":"d'Oultremontstraat","SLOPE":2.9,"LENGTH":147.003119919287},"bbox":[151969.35784656,170058.40088018,152083.368,170150.904]},{"type":"Feature","id":"StreetAxes.fid-6b790b0d_19ff4f88afb_734","geometry":{"type":"LineString","coordinates":[[151896.23937877,170183.12832004],[151899.47037874,170178.03069081],[151965.74434656,170064.73088017],[151969.35784656,170058.40088018]]},"geometry_name":"GEOM","properties":{"INSPIRE_ID":"https://databrussels.be/id/streetaxe/93292","TYPE":"S","HIERARCHY":"IDR","LVL":0,"STARTSN_ID":"https://databrussels.be/id/streetnode/8820","ENDSN_ID":"https://databrussels.be/id/streetnode/5049","STRNAMEFRE":"Avenue de l'Yser","STRNAMEDUT":"IJzerlaan","SLOPE":1.63,"LENGTH":144.583718472402},"bbox":[151896.23937877,170058.40088018,151969.35784656,170183.12832004]},{"type":"Feature","id":"StreetAxes.fid-6b790b0d_19ff4f88afb_735","geometry":{"type":"LineString","coordinates":[[151570.59243319,170069.58632555],[151570.20136305,170079.26774618],[151600.01228156,170169.58035424]]},"geometry_name":"GEOM","properties":{"INSPIRE_ID":"https://databrussels.be/id/streetaxe/93950","TYPE":"S","HIERARCHY":"IDR","LVL":0,"STARTSN_ID":"https://databrussels.be/id/streetnode/16068","ENDSN_ID":"https://databrussels.be/id/streetnode/16065","STRNAMEFRE":null,"STRNAMEDUT":null,"SLOPE":null,"LENGTH":104.79482585255},"bbox":[151570.20136305,170069.58632555,151600.01228156,170169.58035424]},{"type":"Feature","id":"StreetAxes.fid-6b790b0d_19ff4f88afb_736","geometry":{"type":"LineString","coordinates":[[151882.81092819,170201.58464324],[151885.99257979,170196.87297248],[151896.23937877,170183.12832004]]},"geometry_name":"GEOM","properties":{"INSPIRE_ID":"https://databrussels.be/id/streetaxe/93299","TYPE":"I","HIERARCHY":"IDR","LVL":0,"STARTSN_ID":"https://databrussels.be/id/streetnode/8827","ENDSN_ID":"https://databrussels.be/id/streetnode/8820","STRNAMEFRE":"Avenue de l'Yser","STRNAMEDUT":"IJzerlaan","SLOPE":0.71,"LENGTH":22.8291822462695},"bbox":[151882.81092819,170183.12832004,151896.23937877,170201.58464324]},{"type":"Feature","id":"StreetAxes.fid-6b790b0d_19ff4f88afb_737","geometry":{"type":"LineString","coordinates":[[151896.23937877,170183.12832004],[151900.50746656,170188.05450412],[151910.85474448,170219.54680891],[151912.70232264,170225.19895832]]},"geometry_name":"GEOM","properties":{"INSPIRE_ID":"https://databrussels.be/id/streetaxe/93295","TYPE":"K","HIERARCHY":"IDR","LVL":0,"STARTSN_ID":"https://databrussels.be/id/streetnode/8820","ENDSN_ID":"https://databrussels.be/id/streetnode/8825","STRNAMEFRE":"Avenue de l'Yser","STRNAMEDUT":"IJzerlaan","SLOPE":0.78,"LENGTH":45.6130467842392},"bbox":[151896.23937877,170183.12832004,151912.70232264,170225.19895832]},{"type":"Feature","id":"StreetAxes.fid-6b790b0d_19ff4f88afb_738","geometry":{"type":"LineString","coordinates":[[151921.226,170313.457],[151924.37720771,170306.76267043],[151898.68598905,170230.24888338],[151893.37647125,170213.4085668],[151888.72470083,170203.08192148],[151882.81092819,170201.58464324]]},"geometry_name":"GEOM","properties":{"INSPIRE_ID":"https://databrussels.be/id/streetaxe/93301","TYPE":"S","HIERARCHY":"IDR","LVL":0,"STARTSN_ID":"https://databrussels.be/id/streetnode/3586","ENDSN_ID":"https://databrussels.be/id/streetnode/8825","STRNAMEFRE":"Avenue de la Chevalerie","STRNAMEDUT":"Ridderschaplaan","SLOPE":0.49,"LENGTH":123.194636331783},"bbox":[151882.81092819,170201.58464324,151924.37720771,170313.457]},{"type":"Feature","id":"StreetAxes.fid-6b790b0d_19ff4f88afb_739","geometry":{"type":"LineString","coordinates":[[151844.41855767,170237.42548775],[151848.70560553,170232.79957758],[151858.66707879,170225.64479422],[151866.03725165,170219.49583977],[151874.71126467,170211.48866428],[151879.36705104,170206.08587975],[151882.81092819,170201.58464324]]},"geometry_name":"GEOM","properties":{"INSPIRE_ID":"https://databrussels.be/id/streetaxe/93304","TYPE":"S","HIERARCHY":"IDR","LVL":0,"STARTSN_ID":"https://databrussels.be/id/streetnode/8823","ENDSN_ID":"https://databrussels.be/id/streetnode/8827","STRNAMEFRE":"Avenue de la Renaissance","STRNAMEDUT":"Renaissancelaan","SLOPE":0.47,"LENGTH":52.7744648040841},"bbox":[151844.41855767,170201.58464324,151882.81092819,170237.42548775]},{"type":"Feature","id":"StreetAxes.fid-6b790b0d_19ff4f88afb_73a","geometry":{"type":"LineString","coordinates":[[151888.52947601,170227.78214175],[151884.86793783,170215.1130372],[151881.68635003,170208.75586245],[151882.81092819,170201.58464324]]},"geometry_name":"GEOM","properties":{"INSPIRE_ID":"https://databrussels.be/id/streetaxe/93309","TYPE":"S","HIERARCHY":"IDR","LVL":0,"STARTSN_ID":"https://databrussels.be/id/streetnode/8825","ENDSN_ID":"https://databrussels.be/id/streetnode/8827","STRNAMEFRE":"Avenue de la Renaissance","STRNAMEDUT":"Renaissancelaan","SLOPE":0.9,"LENGTH":27.5553511804228},"bbox":[151881.68635003,170201.58464324,151888.52947601,170227.78214175]},{"type":"Feature","id":"StreetAxes.fid-6b790b0d_19ff4f88afb_73b","geometry":{"type":"LineString","coordinates":[[151921.226,170313.457],[151922.632,170313.372],[151934.245,170312.669],[151936.978,170310.106],[151951.488,170297.414],[151974.322,170276.1],[152019.634,170232.54],[152024.134,170226.921]]},"geometry_name":"GEOM","properties":{"INSPIRE_ID":"https://databrussels.be/id/streetaxe/73111","TYPE":"S","HIERARCHY":"DR","LVL":0,"STARTSN_ID":"https://databrussels.be/id/streetnode/3586","ENDSN_ID":"https://databrussels.be/id/streetnode/2411","STRNAMEFRE":"Rue Gérard","STRNAMEDUT":"Gérardstraat","SLOPE":0.21,"LENGTH":137.356102363695},"bbox":[151921.226,170226.921,152024.134,170313.457]},{"type":"Feature","id":"StreetAxes.fid-6b790b0d_19ff4f88afb_73c","geometry":{"type":"LineString","coordinates":[[151888.52947601,170227.78214175],[151891.01905588,170233.29886476],[151915.90159558,170307.71578752],[151921.226,170313.457]]},"geometry_name":"GEOM","properties":{"INSPIRE_ID":"https://databrussels.be/id/streetaxe/93308","TYPE":"S","HIERARCHY":"IDR","LVL":0,"STARTSN_ID":"https://databrussels.be/id/streetnode/8825","ENDSN_ID":"https://databrussels.be/id/streetnode/3586","STRNAMEFRE":"Avenue de la Chevalerie","STRNAMEDUT":"Ridderschapslaan","SLOPE":0.5,"LENGTH":92.349254516583},"bbox":[151888.52947601,170227.78214175,151921.226,170313.457]},{"type":"Feature","id":"StreetAxes.fid-6b790b0d_19ff4f88afb_73d","geometry":{"type":"LineString","coordinates":[[151888.52947601,170227.78214175],[151883.23052671,170229.34369612],[151864.79557249,170235.43192641],[151854.89106171,170238.09720819],[151850.19481439,170238.98075039],[151844.41855767,170237.42548775]]},"geometry_name":"GEOM","properties":{"INSPIRE_ID":"https://databrussels.be/id/streetaxe/93302","TYPE":"S","HIERARCHY":"IDR","LVL":0,"STARTSN_ID":"https://databrussels.be/id/streetnode/8825","ENDSN_ID":"https://databrussels.be/id/streetnode/8823","STRNAMEFRE":"Avenue de la Renaissance","STRNAMEDUT":"Renaissancelaan","SLOPE":0.99,"LENGTH":45.9559876272864},"bbox":[151844.41855767,170227.78214175,151888.52947601,170238.98075039]},{"type":"Feature","id":"StreetAxes.fid-6b790b0d_19ff4f88afb_73e","geometry":{"type":"LineString","coordinates":[[151768.02040201,170262.87535414],[151773.72586696,170260.99755104],[151831.93530014,170242.58675693],[151844.41855767,170237.42548775]]},"geometry_name":"GEOM","properties":{"INSPIRE_ID":"https://databrussels.be/id/streetaxe/93303","TYPE":"S","HIERARCHY":"IDR","LVL":0,"STARTSN_ID":"https://databrussels.be/id/streetnode/8824","ENDSN_ID":"https://databrussels.be/id/streetnode/8823","STRNAMEFRE":"Avenue de la Renaissance","STRNAMEDUT":"Renaissancelaan","SLOPE":0.87,"LENGTH":80.5662774224492},"bbox":[151768.02040201,170237.42548775,151844.41855767,170262.87535414]},{"type":"Feature","id":"StreetAxes.fid-6b790b0d_19ff4f88afb_73f","geometry":{"type":"LineString","coordinates":[[151768.02040201,170262.87535414],[151770.891,170271.52],[151795.347,170345.178],[151797.501,170351.662]]},"geometry_name":"GEOM","properties":{"INSPIRE_ID":"https://databrussels.be/id/streetaxe/83705","TYPE":"S","HIERARCHY":"DR","LVL":0,"STARTSN_ID":"https://databrussels.be/id/streetnode/8824","ENDSN_ID":"https://databrussels.be/id/streetnode/1438","STRNAMEFRE":"Rue Murillo","STRNAMEDUT":"Murillostraat","SLOPE":0.8,"LENGTH":93.5530553110063},"bbox":[151768.02040201,170262.87535414,151797.501,170351.662]},{"type":"Feature","id":"StreetAxes.fid-6b790b0d_19ff4f88afb_740","geometry":{"type":"LineString","coordinates":[[151683.95639857,170290.54280048],[151690.3021757,170288.45425555],[151762.31493659,170264.75315738],[151768.02040201,170262.87535414]]},"geometry_name":"GEOM","properties":{"INSPIRE_ID":"https://databrussels.be/id/streetaxe/85469","TYPE":"S","HIERARCHY":"IDR","LVL":0,"STARTSN_ID":"https://databrussels.be/id/streetnode/8819","ENDSN_ID":"https://databrussels.be/id/streetnode/8824","STRNAMEFRE":"Avenue de la Renaissance","STRNAMEDUT":"Renaissancelaan","SLOPE":1.12,"LENGTH":88.4999675727636},"bbox":[151683.95639857,170262.87535414,151768.02040201,170290.54280048]},{"type":"Feature","id":"StreetAxes.fid-6b790b0d_19ff4f88afb_741","geometry":{"type":"LineString","coordinates":[[152136.61446711,169863.21273751],[152001.263,169907.394],[151811.368,169969.346],[151730.672,169995.672],[151539.876,170057.94],[151539.638,170058.018],[151539.402,170058.096],[151356.767,170118.369],[151356.53,170118.448],[151356.292,170118.526],[151244.527,170157.826],[151239.344,170160.798],[151232.134,170164.095],[151222.827,170167.086],[151189.187,170178.338]]},"geometry_name":"GEOM","properties":{"INSPIRE_ID":"https://databrussels.be/id/streetaxe/82827","TYPE":"S","HIERARCHY":"DR","LVL":-1,"STARTSN_ID":"https://databrussels.be/id/streetnode/5050","ENDSN_ID":"https://databrussels.be/id/streetnode/2613","STRNAMEFRE":null,"STRNAMEDUT":null,"SLOPE":0.56,"LENGTH":998.653115362362},"bbox":[151189.187,169863.21273751,152136.61446711,170178.338]},{"type":"Feature","id":"StreetAxes.fid-6b790b0d_19ff4f88afb_742","geometry":{"type":"LineString","coordinates":[[152138.86679629,169870.37782123],[151998.758,169916.67],[151814.089,169977.647],[151733.492,170004.26],[151542.962,170067.194],[151542.724,170067.272],[151542.487,170067.35],[151359.677,170127.44],[151359.44,170127.518],[151359.202,170127.596],[151287.095,170151.251],[151249.085,170161.708],[151245.21,170162.496],[151239.396,170162.932],[151222.721,170167.801],[151190.411,170178.328]]},"geometry_name":"GEOM","properties":{"INSPIRE_ID":"https://databrussels.be/id/streetaxe/80561","TYPE":"S","HIERARCHY":"MER","LVL":-1,"STARTSN_ID":"https://databrussels.be/id/streetnode/5854","ENDSN_ID":"https://databrussels.be/id/streetnode/3160","STRNAMEFRE":null,"STRNAMEDUT":null,"SLOPE":0.57,"LENGTH":997.446307751491},"bbox":[151190.411,169870.37782123,152138.86679629,170178.328]},{"type":"Feature","id":"StreetAxes.fid-6b790b0d_19ff4f88afb_743","geometry":{"type":"LineString","coordinates":[[151882.81092819,170201.58464324],[151882.10524748,170187.03683806],[151883.27601034,170179.0183557],[151888.23076964,170169.26746936],[151989.53456255,169995.97524903],[152019.79206061,169946.74226889],[152024.73764446,169939.54104205],[152030.16357643,169933.33535603],[152037.00445647,169928.30658859],[152046.4855285,169922.16247855]]},"geometry_name":"GEOM","properties":{"INSPIRE_ID":"https://databrussels.be/id/streetaxe/93288","TYPE":"C","HIERARCHY":"IDR","LVL":0,"STARTSN_ID":"https://databrussels.be/id/streetnode/8827","ENDSN_ID":"https://databrussels.be/id/streetnode/5852","STRNAMEFRE":"Avenue de l'Yser","STRNAMEDUT":"IJzerlaan","SLOPE":1.55,"LENGTH":328.891162319915},"bbox":[151882.10524748,169922.16247855,152046.4855285,170201.58464324]},{"type":"Feature","id":"StreetAxes.fid-6b790b0d_19ff4f88afb_744","geometry":{"type":"LineString","coordinates":[[151969.35784656,170058.40088018],[151973.03540998,170052.10832079],[152038.39891488,169940.4246859],[152044.91145647,169930.22858859],[152046.4855285,169922.16247855]]},"geometry_name":"GEOM","properties":{"INSPIRE_ID":"https://databrussels.be/id/streetaxe/82825","TYPE":"S","HIERARCHY":"IDR","LVL":0,"STARTSN_ID":"https://databrussels.be/id/streetnode/5049","ENDSN_ID":"https://databrussels.be/id/streetnode/5852","STRNAMEFRE":"Avenue de l'Yser","STRNAMEDUT":"IJzerlaan","SLOPE":1.6,"LENGTH":157.010034601434},"bbox":[151969.35784656,169922.16247855,152046.4855285,170058.40088018]},{"type":"Feature","id":"StreetAxes.fid-6b790b0d_19ff4f88afb_745","geometry":{"type":"LineString","coordinates":[[151525.69002076,169926.47020691],[151527.65881886,169945.97169273],[151556.21275895,170033.62677346],[151561.0882777,170040.31968975]]},"geometry_name":"GEOM","properties":{"INSPIRE_ID":"https://databrussels.be/id/streetaxe/93952","TYPE":"S","HIERARCHY":"IDR","LVL":0,"STARTSN_ID":"https://databrussels.be/id/streetnode/16067","ENDSN_ID":"https://databrussels.be/id/streetnode/16066","STRNAMEFRE":null,"STRNAMEDUT":null,"SLOPE":null,"LENGTH":120.069677366209},"bbox":[151525.69002076,169926.47020691,151561.0882777,170040.31968975]},{"type":"Feature","id":"StreetAxes.fid-6b790b0d_19ff4f88afb_746","geometry":{"type":"LineString","coordinates":[[151561.0882777,170040.31968975],[151808.52329317,169958.6092874]]},"geometry_name":"GEOM","properties":{"INSPIRE_ID":"https://databrussels.be/id/streetaxe/93949","TYPE":"S","HIERARCHY":"IDR","LVL":0,"STARTSN_ID":"https://databrussels.be/id/streetnode/16070","ENDSN_ID":"https://databrussels.be/id/streetnode/16067","STRNAMEFRE":null,"STRNAMEDUT":null,"SLOPE":null,"LENGTH":260.577582941558},"bbox":[151561.0882777,169958.6092874,151808.52329317,170040.31968975]},{"type":"Feature","id":"StreetAxes.fid-6b790b0d_19ff4f88afb_747","geometry":{"type":"LineString","coordinates":[[151570.59243319,170069.58632555],[151817.93117655,169987.83952613]]},"geometry_name":"GEOM","properties":{"INSPIRE_ID":"https://databrussels.be/id/streetaxe/93948","TYPE":"S","HIERARCHY":"IDR","LVL":0,"STARTSN_ID":"https://databrussels.be/id/streetnode/16069","ENDSN_ID":"https://databrussels.be/id/streetnode/16068","STRNAMEFRE":null,"STRNAMEDUT":null,"SLOPE":null,"LENGTH":260.497587666707},"bbox":[151570.59243319,169987.83952613,151817.93117655,170069.58632555]},{"type":"Feature","id":"StreetAxes.fid-6b790b0d_19ff4f88afb_748","geometry":{"type":"LineString","coordinates":[[151561.0882777,170040.31968975],[151570.59243319,170069.58632555]]},"geometry_name":"GEOM","properties":{"INSPIRE_ID":"https://databrussels.be/id/streetaxe/93951","TYPE":"S","HIERARCHY":"IDR","LVL":0,"STARTSN_ID":"https://databrussels.be/id/streetnode/16067","ENDSN_ID":"https://databrussels.be/id/streetnode/16068","STRNAMEFRE":null,"STRNAMEDUT":null,"SLOPE":null,"LENGTH":30.7711706455835},"bbox":[151561.0882777,170040.31968975,151570.59243319,170069.58632555]}],"totalFeatures":51,"numberMatched":51,"numberReturned":51,"timeStamp":"2026-08-12T07:58:36.287Z","crs":{"type":"name","properties":{"name":"urn:ogc:def:crs:EPSG::31370"}},"bbox":[151189.187,169863.21273751,152400.854,170973.576],"grand_bruxelles_source":{"authority":"Paradigm / Brussels-Capital Region","service":"UrbIS WFS","layer":"urbisvector:StreetAxes","crs":"EPSG:31370","bbox":[151500.0,170000.0,152000.0,170500.0],"cell_id":"bxl-e151500-n170000-s500"}}
