{"type":"FeatureCollection","totalFeatures":64,"numberMatched":64,"timeStamp":"2026-08-24T01:59:08.225Z","crs":{"type":"name","properties":{"name":"urn:ogc:def:crs:EPSG::31370"}},"bbox":[152748.93409604,175665.19259349,154062.83796167,177001.37916775],"features":[{"type":"Feature","id":"TrainNetwork.fid--24aa7d09_1a031580c5b_-5648","geometry":{"type":"LineString","coordinates":[[153836.77264074,176779.3281057],[153833.76382675,176802.11933238],[153827.50656812,176848.92048815],[153823.48262711,176877.70252807],[153818.83264446,176910.80078915],[153811.89354722,176957.83002651]]},"geometry_name":"GEOM","properties":{"INSPIRE_ID":"https://databrussels.be/id/rail/24118","TYPE":"RW","LVL":0,"SLOPE":null,"LENGTH":180.230250686359},"bbox":[153811.89354722,176779.3281057,153836.77264074,176957.83002651]},{"type":"Feature","id":"TrainNetwork.fid--24aa7d09_1a031580c5b_-5649","geometry":{"type":"LineString","coordinates":[[153810.66466064,176955.44555259],[153817.28482273,176910.5778755],[153821.93398032,176877.48548709],[153825.95719965,176848.70860917],[153832.21366564,176801.9133819],[153835.22226817,176779.12375703]]},"geometry_name":"GEOM","properties":{"INSPIRE_ID":"https://databrussels.be/id/rail/24119","TYPE":"RW","LVL":0,"SLOPE":null,"LENGTH":178.02654837307},"bbox":[153810.66466064,176779.12375703,153835.22226817,176955.44555259]},{"type":"Feature","id":"TrainNetwork.fid--24aa7d09_1a031580c5b_-5647","geometry":{"type":"LineString","coordinates":[[153813.77184641,176959.44822208],[153820.90565545,176911.09933933],[153825.5567431,176877.99321291],[153829.58165067,176849.20425949],[153835.83997088,176802.39516365],[153838.84906809,176779.60179163]]},"geometry_name":"GEOM","properties":{"INSPIRE_ID":"https://databrussels.be/id/rail/24120","TYPE":"RW","LVL":0,"SLOPE":null,"LENGTH":181.589281457495},"bbox":[153813.77184641,176779.60179163,153838.84906809,176959.44822208]},{"type":"Feature","id":"TrainNetwork.fid--24aa7d09_1a031580c5b_-5646","geometry":{"type":"LineString","coordinates":[[153815.62381388,176957.45614821],[153822.43127641,176911.31905568],[153827.08317728,176878.2071408],[153831.10879619,176849.41309943],[153837.36789766,176802.59816013],[153840.3772033,176779.80320928]]},"geometry_name":"GEOM","properties":{"INSPIRE_ID":"https://databrussels.be/id/rail/24121","TYPE":"RW","LVL":0,"SLOPE":null,"LENGTH":179.37201561156},"bbox":[153815.62381388,176779.80320928,153840.3772033,176957.45614821]},{"type":"Feature","id":"TrainNetwork.fid--24aa7d09_1a031580c5b_-5636","geometry":{"type":"LineString","coordinates":[[153781.82556576,176550.63148932],[153779.0029939,176554.91440785],[153773.3909892,176563.18214708],[153767.48201084,176571.61644598],[153761.23967111,176580.24480474],[153754.88007359,176588.75687163],[153748.7387568,176596.72486082],[153742.75564961,176604.26560056],[153736.83255786,176611.51928449],[153730.48370207,176619.06920313],[153723.80276223,176626.77640545],[153716.9028639,176634.48245393],[153709.74038494,176642.23504301],[153702.80802511,176649.51171615],[153695.93518296,176656.50994721],[153689.30096349,176663.07307852],[153683.10190749,176669.04181656],[153677.14964073,176674.63019443],[153670.5136141,176680.70654629],[153663.31712685,176687.12034333],[153655.92015903,176693.52695529],[153648.67520418,176699.6331753],[153641.58715756,176705.4515597],[153634.40139168,176711.20068565],[153627.156836,176716.8577432],[153619.71738672,176722.52757287],[153612.01647061,176728.25235257],[153604.24527045,176733.88816657],[153596.94866002,176739.05372074],[153590.26504742,176743.67886214],[153583.77395472,176748.0723559],[153576.9852732,176752.56043647],[153569.77229325,176757.21245253],[153562.34004347,176761.88096869],[153554.82899101,176766.47073234],[153547.58377388,176770.7740591],[153540.1692706,176775.05383655],[153535.89647536,176777.45219634]]},"geometry_name":"GEOM","properties":{"INSPIRE_ID":"https://databrussels.be/id/rail/24202","TYPE":"RW","LVL":0,"SLOPE":null,"LENGTH":337.775948277204},"bbox":[153535.89647536,176550.63148932,153781.82556576,176777.45219634]},{"type":"Feature","id":"TrainNetwork.fid--24aa7d09_1a031580c5b_-561e","geometry":{"type":"LineString","coordinates":[[153995.89683653,176678.94860517],[154005.78359371,176679.92967073],[154013.56891176,176680.77222521],[154020.1943763,176681.56708793],[154031.79064157,176683.14772923],[154039.75186694,176684.34016525],[154048.99891817,176685.88219892],[154059.01574762,176687.66328969]]},"geometry_name":"GEOM","properties":{"INSPIRE_ID":"https://databrussels.be/id/rail/24343","TYPE":"RW","LVL":0,"SLOPE":null,"LENGTH":63.7412812588292},"bbox":[153995.89683653,176678.94860517,154059.01574762,176687.66328969]},{"type":"Feature","id":"TrainNetwork.fid--24aa7d09_1a031580c5b_-561a","geometry":{"type":"LineString","coordinates":[[153884.37082515,176233.25228683],[153884.2727953,176234.40136221],[153883.89883237,176238.46534211],[153883.36729498,176243.55088106],[153883.0209852,176246.49651796],[153882.30196201,176251.98411143],[153881.44637105,176257.72033881],[153880.93214002,176260.91016975],[153879.0290923,176271.90983181],[153876.97275697,176282.99382665],[153875.06351428,176292.68173805],[153873.22680179,176301.42489353],[153871.15653587,176310.59217841],[153868.01430558,176323.87288849],[153865.24587031,176335.07557441],[153863.37021048,176342.26765212],[153862.39821082,176345.8735076],[153860.40384899,176353.00309365],[153859.35326376,176356.62070098],[153858.2508523,176360.32976213],[153855.97663985,176367.74960738],[153854.85536214,176371.30031242],[153852.64999278,176378.08963123],[153849.31900589,176387.9489698],[153846.14584589,176397.05800473],[153843.98911147,176403.10239276],[153841.39572318,176410.22459575],[153838.55567392,176417.84775467],[153834.41705858,176428.58107957],[153830.97043928,176437.17905567],[153829.01803287,176441.91398431],[153826.91530348,176446.92175277],[153822.88148877,176456.35391963],[153818.70765055,176465.8528998],[153815.25714075,176473.37304235],[153812.69103892,176478.72909751],[153811.37313612,176481.40895131],[153810.07742167,176483.99218138],[153807.4925099,176488.99253519],[153803.3738855,176496.62234584],[153798.83670051,176504.71104494],[153794.10705289,176512.89263344],[153789.87883267,176519.98174395],[153789.73014561,176520.22303448]]},"geometry_name":"GEOM","properties":{"INSPIRE_ID":"https://databrussels.be/id/rail/24630","TYPE":"RW","LVL":0,"SLOPE":null,"LENGTH":304.327885891856},"bbox":[153789.73014561,176233.25228683,153884.37082515,176520.22303448]},{"type":"Feature","id":"TrainNetwork.fid--24aa7d09_1a031580c5b_-5618","geometry":{"type":"LineString","coordinates":[[153890.08448305,176234.36153896],[153889.66969293,176239.10860037],[153889.06292608,176245.01274269],[153888.71493859,176247.99945903],[153888.16040887,176252.32645178],[153887.45170816,176257.24043312],[153886.3028778,176264.46920268],[153883.74617509,176277.58817056],[153880.0109585,176298.0219936],[153876.36950986,176316.40455732],[153874.61537193,176323.84867439],[153873.08048179,176330.12517009],[153871.6019981,176335.93850209],[153869.86372212,176342.52062031],[153867.84039486,176349.89928195],[153865.55447339,176357.88594831],[153863.00145342,176366.42164183],[153860.31801875,176374.99757642],[153857.34495932,176384.07702536],[153854.25673698,176393.08947999],[153851.00364779,176402.16991149],[153847.76830375,176410.84058432],[153844.31781094,176419.71797574],[153840.03418407,176430.27756359],[153838.47609471,176434.00517097],[153835.36911456,176441.27833353],[153831.0433927,176451.04530502],[153826.77654457,176460.30103925],[153822.53269588,176469.16525861],[153818.11852404,176478.05393483],[153813.59729853,176486.84852946],[153808.92230362,176495.63550709],[153803.98959767,176504.6050316],[153798.98923764,176513.40092276],[153793.91789708,176522.023756],[153791.26995544,176526.3773298]]},"geometry_name":"GEOM","properties":{"INSPIRE_ID":"https://databrussels.be/id/rail/24631","TYPE":"RW","LVL":0,"SLOPE":null,"LENGTH":310.772463655967},"bbox":[153791.26995544,176234.36153896,153890.08448305,176526.3773298]},{"type":"Feature","id":"TrainNetwork.fid--24aa7d09_1a031580c5b_-561f","geometry":{"type":"LineString","coordinates":[[154058.72127688,176689.14554166],[154048.74239404,176687.37119818],[154039.51568283,176685.83255639],[154031.57669808,176684.64345158],[154020.00234658,176683.06579727],[154013.39763499,176682.2734243],[154005.62770933,176681.43253563],[153995.78800621,176680.45613925]]},"geometry_name":"GEOM","properties":{"INSPIRE_ID":"https://databrussels.be/id/rail/24771","TYPE":"RW","LVL":0,"SLOPE":null,"LENGTH":63.553844259292},"bbox":[153995.78800621,176680.45613925,154058.72127688,176689.14554166]},{"type":"Feature","id":"TrainNetwork.fid--24aa7d09_1a031580c5b_-563d","geometry":{"type":"LineString","coordinates":[[153504.87168192,176643.39611334],[153459.03879788,176459.35481]]},"geometry_name":"GEOM","properties":{"INSPIRE_ID":"https://databrussels.be/id/rail/24773","TYPE":"RW","LVL":0,"SLOPE":null,"LENGTH":189.662475454981},"bbox":[153459.03879788,176459.35481,153504.87168192,176643.39611334]},{"type":"Feature","id":"TrainNetwork.fid--24aa7d09_1a031580c5b_-563a","geometry":{"type":"LineString","coordinates":[[153779.17962175,176539.62080542],[153775.72465305,176544.7715009],[153770.90037278,176551.73815614],[153765.49949749,176559.31975614],[153760.07738132,176566.74103594],[153754.45397509,176574.22409845],[153748.72257543,176581.61246828],[153746.93599603,176583.85718271],[153743.45878451,176588.12717008],[153737.65353241,176595.01434963],[153730.83653862,176602.89928183],[153725.08796923,176609.4063741],[153718.42861392,176616.77877706],[153711.7487793,176624.02738022],[153704.84191939,176631.36561208],[153698.81179005,176637.61222609],[153692.11105213,176644.37495155],[153685.67286979,176650.70679224],[153678.32170765,176657.76239821],[153672.35106682,176663.34012513],[153665.31716401,176669.73668354],[153658.43914472,176675.86874443],[153650.73352167,176682.55508624],[153644.4618985,176687.84582847],[153641.03344359,176690.68450292],[153637.49214522,176693.57764322],[153630.63049359,176699.09025279],[153622.00251273,176705.84221695],[153614.08299837,176711.87568277],[153606.98923281,176717.14094546],[153599.8454724,176722.28387945],[153591.58780203,176728.08923291],[153584.25057856,176733.137537],[153576.51994631,176738.3253281],[153568.72230774,176743.40108887],[153559.00167548,176749.55999903],[153550.23326797,176754.986302],[153541.70920719,176760.09754166],[153533.32353925,176764.96263729],[153527.23002658,176768.36733506]]},"geometry_name":"GEOM","properties":{"INSPIRE_ID":"https://databrussels.be/id/rail/25016","TYPE":"RW","LVL":0,"SLOPE":null,"LENGTH":343.388977042582},"bbox":[153527.23002658,176539.62080542,153779.17962175,176768.36733506]},{"type":"Feature","id":"TrainNetwork.fid--24aa7d09_1a031580c5b_-5638","geometry":{"type":"LineString","coordinates":[[153780.73108507,176546.07697836],[153776.081792,176553.10896434],[153770.62083545,176561.12937369],[153764.74068492,176569.50648753],[153758.50613399,176578.11367545],[153752.08015884,176586.70602081],[153746.02120943,176594.55651358],[153740.13513373,176601.95906743],[153734.15619931,176609.27218468],[153727.87774617,176616.73936881],[153721.29912927,176624.33258058],[153714.38764172,176632.06282243],[153707.33216338,176639.71111733],[153700.35458214,176647.04041806],[153693.37142378,176654.15658366],[153686.82788706,176660.63076141],[153680.6029426,176666.62400847],[153674.69437865,176672.1730883],[153668.04102029,176678.26537048],[153660.95360187,176684.58183072],[153653.70904666,176690.85700365],[153646.4986699,176696.93624906],[153639.23186224,176702.90515123],[153631.79233557,176708.85983316],[153624.51930236,176714.53917041],[153617.40285931,176719.96166588],[153609.87577027,176725.55571776],[153602.2294056,176731.09991417],[153595.158383,176736.10032539],[153588.80167046,176740.49309787],[153583.70199539,176743.94362916],[153578.83582329,176747.18045254],[153573.9395607,176750.38493008],[153567.61727657,176754.43445991],[153560.34584174,176758.98095218],[153553.08296464,176763.40256788],[153545.91128474,176767.64671943],[153538.52776692,176771.89828411],[153533.34404678,176774.80204755]]},"geometry_name":"GEOM","properties":{"INSPIRE_ID":"https://databrussels.be/id/rail/25030","TYPE":"RW","LVL":0,"SLOPE":null,"LENGTH":340.248717877817},"bbox":[153533.34404678,176546.07697836,153780.73108507,176774.80204755]},{"type":"Feature","id":"TrainNetwork.fid--24aa7d09_1a031580c5b_-5639","geometry":{"type":"LineString","coordinates":[[153780.22045993,176543.9520914],[153779.66310805,176544.81832753],[153774.76555722,176552.22579965],[153769.31701727,176560.22797296],[153763.45011545,176568.58621212],[153757.22956659,176577.17406932],[153750.81803324,176585.74710415],[153744.77343304,176593.57900485],[153738.9011959,176600.96415481],[153732.93598662,176608.26048418],[153726.67210471,176615.71033825],[153720.10926663,176623.28533769],[153713.21424704,176630.99716073],[153706.17557892,176638.62723298],[153699.21486274,176645.93881853],[153692.24830556,176653.03806675],[153685.7207657,176659.4964172],[153679.51068634,176665.47535245],[153673.61658315,176671.01085134],[153666.97847425,176677.08917004],[153659.90737744,176683.39108411],[153652.67926908,176689.65201092],[153645.48474872,176695.71788742],[153638.23355599,176701.67396359],[153630.80929916,176707.61642337],[153623.55117968,176713.28411483],[153616.44976667,176718.69515791],[153608.93779004,176724.27797842],[153601.30657164,176729.81119263],[153594.25021676,176734.80123128],[153587.90697518,176739.18469472],[153582.81893514,176742.62735355],[153577.96288959,176745.85744106],[153573.07808899,176749.05441704],[153566.76964085,176753.09508468],[153559.51353884,176757.63199004],[153552.26719177,176762.04354231],[153545.11216298,176766.27783984],[153537.74495378,176770.52001372],[153532.21433257,176773.61810067]]},"geometry_name":"GEOM","properties":{"INSPIRE_ID":"https://databrussels.be/id/rail/25031","TYPE":"RW","LVL":0,"SLOPE":null,"LENGTH":341.392196509665},"bbox":[153532.21433257,176543.9520914,153780.22045993,176773.61810067]},{"type":"Feature","id":"TrainNetwork.fid--24aa7d09_1a031580c5b_-5645","geometry":{"type":"LineString","coordinates":[[153527.42016045,176780.36555624],[153525.4265939,176781.45464531],[153518.6798627,176785.04567338],[153511.65333771,176788.68512794],[153504.1709203,176792.45073786],[153496.27123965,176796.30310287],[153487.83389212,176800.28327334],[153479.55352803,176804.06122288],[153471.88086967,176807.45008548],[153465.37762802,176810.23927749],[153459.84346891,176812.55223975],[153454.22002465,176814.84160629],[153447.20248878,176817.62029992],[153439.45912533,176820.58850698],[153430.92287134,176823.73335318],[153422.25350414,176826.79355023],[153414.46141267,176829.42832261],[153407.17053882,176831.79018929],[153399.69991019,176834.11186141],[153392.27822218,176836.32167277],[153384.59342074,176838.50627163],[153376.29215147,176840.75838312],[153367.92024845,176842.9164894],[153358.92068579,176845.11550368],[153349.72182147,176847.26098154],[153348.15639178,176847.6168227],[153341.09201223,176849.1581727],[153333.59281381,176850.69958542],[153325.21488779,176852.33102333],[153321.1697888,176853.07313636]]},"geometry_name":"GEOM","properties":{"INSPIRE_ID":"https://databrussels.be/id/rail/25489","TYPE":"RW","LVL":0,"SLOPE":null,"LENGTH":219.630638463266},"bbox":[153321.1697888,176780.36555624,153527.42016045,176853.07313636]},{"type":"Feature","id":"TrainNetwork.fid--24aa7d09_1a031580c5b_-5644","geometry":{"type":"LineString","coordinates":[[153528.52279834,176781.52426018],[153526.16016496,176782.81497113],[153519.39836667,176786.41401884],[153512.35614913,176790.0616015],[153504.85703821,176793.83561262],[153496.939664,176797.69660608],[153488.48436529,176801.68524471],[153480.1865201,176805.47117007],[153472.49768878,176808.86717595],[153465.98021794,176811.66247075],[153460.43283901,176813.98095815],[153454.79589959,176816.27581872],[153447.76358154,176819.06036556],[153440.00287084,176822.03522222],[153431.44724796,176825.18720411],[153422.75826724,176828.25432454],[153414.94710225,176830.89554633],[153407.63803063,176833.26330815],[153400.14977358,176835.5904587],[153392.71005712,176837.80563805],[153385.00706611,176839.99540776],[153376.68738943,176842.25251312],[153368.29657735,176844.41549377],[153359.27963632,176846.6187544],[153350.06862813,176848.76706462],[153348.4924101,176849.1253581],[153341.41233143,176850.67013343],[153333.89610519,176852.2150461],[153325.50203957,176853.84962689],[153322.95849718,176854.31626465]]},"geometry_name":"GEOM","properties":{"INSPIRE_ID":"https://databrussels.be/id/rail/25572","TYPE":"RW","LVL":0,"SLOPE":null,"LENGTH":219.000090395432},"bbox":[153322.95849718,176781.52426018,153528.52279834,176854.31626465]},{"type":"Feature","id":"TrainNetwork.fid--24aa7d09_1a031580c5b_-564b","geometry":{"type":"LineString","coordinates":[[153524.8467815,176777.65335455],[153524.02639236,176778.10027847],[153517.08926963,176781.77913555],[153510.15597566,176785.3484788],[153502.65144643,176789.09236009],[153494.64402101,176792.95886196],[153486.32655793,176796.83477175],[153478.02522277,176800.56461626],[153469.78560835,176804.13855146],[153461.73680154,176807.50300994],[153453.63658165,176810.7659966],[153446.10047191,176813.69586108],[153438.01768235,176816.73115453],[153429.63375298,176819.75934109],[153420.85207263,176822.8008804],[153413.08085851,176825.38815595],[153405.60272668,176827.78358559],[153398.5620128,176829.94565728],[153390.80321193,176832.22697069],[153383.50625771,176834.2794013],[153376.28228572,176836.20553009],[153368.72655341,176838.13509771],[153363.09458153,176839.51695788],[153356.29468837,176841.11955679],[153349.08645092,176842.77069503],[153348.85384239,176842.82323869],[153345.04643085,176843.65690392],[153339.45201528,176844.83307787],[153333.58542625,176846.02140744],[153328.44830418,176847.01720284],[153321.45594882,176848.32509422]]},"geometry_name":"GEOM","properties":{"INSPIRE_ID":"https://databrussels.be/id/rail/25573","TYPE":"RW","LVL":0,"SLOPE":null,"LENGTH":216.220178512117},"bbox":[153321.45594882,176777.65335455,153524.8467815,176848.32509422]},{"type":"Feature","id":"TrainNetwork.fid--24aa7d09_1a031580c5b_-5619","geometry":{"type":"LineString","coordinates":[[153885.86284298,176233.37957377],[153885.76438961,176234.53361357],[153885.38912071,176238.6117858],[153884.85561654,176243.71614211],[153884.50702119,176246.6812196],[153883.7849792,176252.1918526],[153882.92612432,176257.94996262],[153882.40912277,176261.15697935],[153880.50306234,176272.17405494],[153878.44354926,176283.27517847],[153876.53088621,176292.98044549],[153874.68993682,176301.74376952],[153872.6155038,176310.92950661],[153869.46979773,176324.22490719],[153866.69726988,176335.44415401],[153864.8176357,176342.65147108],[153863.84219738,176346.27008308],[153861.84393642,176353.41360801],[153860.7899796,176357.04282515],[153859.68441567,176360.76249275],[153857.40647892,176368.1944889],[153856.28144398,176371.75709182],[153854.07146428,176378.56060375],[153850.73541374,176388.43493017],[153847.5580855,176397.55593063],[153845.39782902,176403.61018947],[153842.800882,176410.74216576],[153839.95591489,176418.37852503],[153835.81066629,176429.12905299],[153832.35761685,176437.74306979],[153830.400562,176442.48927171],[153828.29405667,176447.50603279],[153824.25539438,176456.94953463],[153820.07370967,176466.46637213],[153816.612962,176474.0088274],[153814.03816625,176479.3830288],[153812.71427445,176482.07506077],[153811.41182578,176484.67171667],[153808.81657592,176489.69206889],[153804.68582945,176497.34433585],[153800.13796133,176505.45208037],[153795.39834549,176513.6509124],[153791.15934468,176520.75809784],[153790.23807863,176522.2531357]]},"geometry_name":"GEOM","properties":{"INSPIRE_ID":"https://databrussels.be/id/rail/25611","TYPE":"RW","LVL":0,"SLOPE":null,"LENGTH":306.489269522178},"bbox":[153790.23807863,176233.37957377,153885.86284298,176522.2531357]},{"type":"Feature","id":"TrainNetwork.fid--24aa7d09_1a031580c5b_-564c","geometry":{"type":"LineString","coordinates":[[153519.84436437,176772.37637888],[153518.78107272,176772.95116413],[153511.99068934,176776.49579992],[153506.82978736,176779.07994745],[153503.92158614,176780.49984305],[153497.63804854,176783.48997967],[153494.50263219,176784.94398586],[153491.52396178,176786.29729303],[153486.01114853,176788.71755062],[153480.41059579,176791.04717516],[153476.7720679,176792.50428344],[153462.04378494,176798.2513963]]},"geometry_name":"GEOM","properties":{"INSPIRE_ID":"https://databrussels.be/id/rail/25635","TYPE":"RW","LVL":0,"SLOPE":null,"LENGTH":63.3789186584601},"bbox":[153462.04378494,176772.37637888,153519.84436437,176798.2513963]},{"type":"Feature","id":"TrainNetwork.fid--24aa7d09_1a031580c5b_-562f","geometry":{"type":"LineString","coordinates":[[153518.77744523,176771.25090169],[153518.07851934,176771.62872116],[153511.30894779,176775.16249301],[153506.1660583,176777.7376214],[153503.27135636,176779.15092613],[153497.00132415,176782.13463595],[153493.87793411,176783.58306511],[153490.91325781,176784.9300143],[153485.42256087,176787.34056229],[153479.84466979,176789.66076042],[153476.22154032,176791.11170215],[153463.14788171,176796.21316522],[153461.49443497,176796.84356214]]},"geometry_name":"GEOM","properties":{"INSPIRE_ID":"https://databrussels.be/id/rail/25636","TYPE":"RW","LVL":0,"SLOPE":null,"LENGTH":62.7906227761142},"bbox":[153461.49443497,176771.25090169,153518.77744523,176796.84356214]},{"type":"Feature","id":"TrainNetwork.fid--24aa7d09_1a031580c5b_-5615","geometry":{"type":"LineString","coordinates":[[153434.32984726,176318.46196537],[153437.22086767,176326.08972451],[153438.4000471,176330.01171784],[153441.90175879,176343.78966654],[153447.45496962,176368.49064882],[153458.06337731,176411.95917445],[153462.74337872,176431.15918022],[153469.72333729,176460.05900177],[153483.15456085,176515.40398258],[153505.57475502,176607.75542098],[153507.24453548,176616.54239816],[153507.71868122,176619.35763849]]},"geometry_name":"GEOM","properties":{"INSPIRE_ID":"https://databrussels.be/id/rail/25676","TYPE":"RW","LVL":0,"SLOPE":null,"LENGTH":309.807876987544},"bbox":[153434.32984726,176318.46196537,153507.71868122,176619.35763849]},{"type":"Feature","id":"TrainNetwork.fid--24aa7d09_1a031580c5b_-5628","geometry":{"type":"LineString","coordinates":[[153791.80312483,176528.50829545],[153795.25920424,176522.82603397],[153800.34223826,176514.18331826],[153805.35373939,176505.36782932],[153810.29698147,176496.37914615],[153814.98223191,176487.57289256],[153819.51346815,176478.75882526],[153823.93749171,176469.85031094],[153828.19111609,176460.96567289],[153832.46764326,176451.6889427],[153836.80230194,176441.90179291],[153839.91573273,176434.61352995],[153841.47934953,176430.87269864],[153845.77037981,176420.2948606],[153849.22886818,176411.39689829],[153852.4715077,176402.70667367],[153855.73171645,176393.60636915],[153858.82692076,176384.57353882],[153861.80651461,176375.47413436],[153864.49597361,176366.87894673],[153867.05447704,176358.32492],[153869.34534327,176350.32097739],[153871.37292117,176342.92681453],[153873.11490612,176336.33065198],[153874.59692562,176330.50341733],[153876.1350879,176324.21354113],[153877.8921746,176316.75691027],[153881.54553233,176298.31422772],[153885.28118255,176277.87803248],[153887.92475355,176264.22145573],[153888.99698895,176257.47464362],[153889.70905236,176252.53734602],[153890.26628848,176248.18923525],[153890.6165415,176245.18307424],[153891.22561171,176239.2565191],[153891.64397047,176234.46861632]]},"geometry_name":"GEOM","properties":{"INSPIRE_ID":"https://databrussels.be/id/rail/27403","TYPE":"RW","LVL":0,"SLOPE":null,"LENGTH":313.062637879067},"bbox":[153791.80312483,176234.46861632,153891.64397047,176528.50829545]},{"type":"Feature","id":"TrainNetwork.fid--24aa7d09_1a031580c5b_-5617","geometry":{"type":"LineString","coordinates":[[153792.4486441,176531.08829991],[153792.69460439,176530.69297136],[153797.22959917,176523.19934731],[153801.99931339,176515.08007395],[153806.89993444,176506.46217453],[153811.92318531,176497.33765542],[153816.62327865,176488.51483133],[153821.15397859,176479.70926895],[153825.60065986,176470.76653196],[153829.95647226,176461.6994631],[153834.1761426,176452.58388563],[153838.47024091,176442.92585193],[153841.44930192,176435.98655432],[153842.94725382,176432.42017182],[153844.43064551,176428.83344061],[153847.29680401,176421.7409788],[153851.19037734,176411.7196184],[153854.59332944,176402.55050317],[153857.65167898,176393.96001944],[153860.44886114,176385.7709235],[153863.21325053,176377.3442285],[153865.86127491,176368.94492063],[153868.32171306,176360.80415371],[153870.5154538,176353.26214795],[153872.52261699,176346.10770143],[153874.472062,176338.89641486],[153876.34539327,176331.69108141],[153878.07636825,176324.71084659],[153879.7364223,176317.64969493],[153881.36309043,176310.37736624],[153882.83236812,176303.53923433],[153883.81212568,176298.78277355],[153884.92852301,176293.1329987],[153885.44260093,176289.50478779],[153885.81839792,176286.79055922],[153886.18245126,176283.97058149],[153886.85244578,176277.86541741]]},"geometry_name":"GEOM","properties":{"INSPIRE_ID":"https://databrussels.be/id/rail/27439","TYPE":"RW","LVL":0,"SLOPE":null,"LENGTH":272.062659281419},"bbox":[153792.4486441,176277.86541741,153886.85244578,176531.08829991]},{"type":"Feature","id":"TrainNetwork.fid--24aa7d09_1a031580c5b_-5627","geometry":{"type":"LineString","coordinates":[[153888.47746045,176277.09857244],[153887.70338003,176284.15219419],[153887.33655417,176286.99364802],[153886.95945854,176289.71725617],[153886.44503978,176293.34787259],[153885.35687097,176298.92187447],[153885.32407069,176299.08786749],[153884.3417365,176303.85683713],[153882.86971867,176310.70772188],[153881.23980888,176317.99454303],[153879.57569151,176325.07297827],[153877.8403623,176332.07077174],[153875.9629669,176339.29173691],[153874.00966666,176346.51728457],[153871.99853755,176353.68586739],[153869.80049085,176361.24267693],[153867.33506725,176369.39993906],[153864.68159774,176377.8165184],[153861.91150021,176386.26061353],[153859.10807723,176394.46798024],[153856.04294391,176403.0775187],[153852.6323299,176412.26727862],[153848.73074848,176422.3092504],[153845.85835466,176429.41714184],[153844.37095519,176433.01356358],[153842.86901528,176436.58944087],[153839.88365024,176443.54342283],[153835.58077072,176453.2212067],[153831.35155014,176462.35741516],[153826.98642014,176471.44387956],[153822.53034516,176480.40550829],[153817.98975042,176489.23030151],[153813.27948887,176498.07221297],[153808.24598227,176507.21536117],[153803.33472468,176515.85196527],[153798.55439829,176523.98930326],[153794.00925555,176531.4996958],[153792.96964798,176533.17064259]]},"geometry_name":"GEOM","properties":{"INSPIRE_ID":"https://databrussels.be/id/rail/27440","TYPE":"RW","LVL":0,"SLOPE":null,"LENGTH":275.183946671793},"bbox":[153792.96964798,176277.09857244,153888.47746045,176533.17064259]},{"type":"Feature","id":"TrainNetwork.fid--24aa7d09_1a031580c5b_-5625","geometry":{"type":"LineString","coordinates":[[153888.47746045,176277.09857244],[153887.90118677,176285.72102658],[153885.52742092,176317.79829901],[153885.49593106,176318.80288407],[153884.91956347,176325.79447344],[153884.34483577,176333.21595725],[153883.76964145,176340.6184581],[153883.16932094,176348.04742439],[153882.56916532,176355.27429835],[153881.96895143,176362.47686494],[153881.34377124,176369.70394796],[153879.61874242,176389.72928251],[153878.91867247,176397.78008694],[153878.72508396,176399.99944101],[153878.21976246,176405.77454386],[153877.51976216,176413.84954728],[153876.8197626,176421.97454213],[153876.09476331,176430.14953422],[153875.3697651,176438.27451417],[153874.76976679,176444.4994966],[153873.56976677,176456.99949673],[153873.04476777,176462.44948638],[153872.49476766,176467.94948752],[153871.96881045,176473.43446988],[153870.60701748,176486.05108693],[153869.088314,176502.17968023],[153866.87736226,176522.94124945],[153865.16528564,176539.63493032],[153863.60858351,176555.85715965],[153861.0453153,176578.74413936],[153858.16353527,176602.27977766],[153855.40630173,176628.05973728],[153853.40898623,176646.81371886],[153853.407761,176646.82394169],[153850.07259166,176673.6749685],[153846.65025476,176701.55338724],[153842.99371789,176730.73309677],[153839.56393373,176757.80621304]]},"geometry_name":"GEOM","properties":{"INSPIRE_ID":"https://databrussels.be/id/rail/27441","TYPE":"RW","LVL":0,"SLOPE":null,"LENGTH":483.264636750661},"bbox":[153839.56393373,176277.09857244,153888.47746045,176757.80621304]},{"type":"Feature","id":"TrainNetwork.fid--24aa7d09_1a031580c5b_-5626","geometry":{"type":"LineString","coordinates":[[153838.01354153,176757.60186179],[153841.44220289,176730.53760836],[153845.09836386,176701.36089853],[153848.46751092,176673.91576521],[153851.85579605,176646.63710988],[153853.85196984,176627.89384855],[153856.61051134,176602.10165959],[153859.49276485,176578.56215426],[153862.0537566,176555.69550071],[153863.60976207,176539.48053117],[153865.32266994,176522.77874517],[153867.53293343,176502.0236389],[153869.05174151,176485.89393473],[153870.41367814,176473.27598669],[153870.93904958,176467.79711303],[153871.48908359,176462.29677294],[153872.01378568,176456.84986555],[153873.21378978,176444.3498229],[153873.81328481,176438.13006193],[153874.53775265,176430.01102581],[153875.26254112,176421.83841094],[153875.96240768,176413.71495983],[153876.66249816,176405.63891606],[153877.16785619,176399.86339575],[153877.36140806,176397.64446173],[153878.06140509,176389.59449589],[153879.78640387,176369.56951011],[153880.41139619,176362.34459883],[153881.0113871,176355.14470801],[153881.61138046,176347.91978788],[153882.21136682,176340.49495674],[153882.78635855,176333.0950632],[153883.36137014,176325.66991351],[153883.93478634,176318.71412562],[153883.96607078,176317.71609404],[153886.22386892,176287.20592129],[153886.85244578,176277.86541741]]},"geometry_name":"GEOM","properties":{"INSPIRE_ID":"https://databrussels.be/id/rail/27442","TYPE":"RW","LVL":0,"SLOPE":null,"LENGTH":482.290545339247},"bbox":[153838.01354153,176277.86541741,153886.85244578,176757.60186179]},{"type":"Feature","id":"TrainNetwork.fid--24aa7d09_1a031580c5b_-5623","geometry":{"type":"LineString","coordinates":[[153841.64038737,176758.07990243],[153845.0716753,176730.99491608],[153848.72871561,176701.81118903],[153852.22229012,176673.35246738],[153854.83855093,176651.47022608],[153856.83752785,176634.39896318],[153860.09169727,176604.56368633],[153863.12174587,176577.92445988],[153866.37599635,176548.51285115],[153868.99526904,176522.81998549],[153870.8150555,176504.6221209],[153873.11488512,176481.44383806],[153874.63459663,176465.90678747],[153875.33301238,176458.4237616],[153876.05801238,176450.9237616],[153876.75762432,176443.4279194],[153879.30747237,176415.52958183],[153880.13895251,176408.02771209],[153882.245991,176385.55925187],[153883.62361784,176370.66536578],[153884.70513814,176357.56136665],[153885.77324697,176343.29978723],[153886.88011602,176328.05112778],[153888.0588902,176312.40769489],[153889.55620634,176292.42404017]]},"geometry_name":"GEOM","properties":{"INSPIRE_ID":"https://databrussels.be/id/rail/27444","TYPE":"RW","LVL":0,"SLOPE":null,"LENGTH":468.176218093907},"bbox":[153841.64038737,176292.42404017,153889.55620634,176758.07990243]},{"type":"Feature","id":"TrainNetwork.fid--24aa7d09_1a031580c5b_-5622","geometry":{"type":"LineString","coordinates":[[153891.0211076,176292.55341975],[153889.58197992,176312.52213962],[153888.40349703,176328.16170689],[153887.29650116,176343.41211345],[153886.22782846,176357.68122177],[153885.14521017,176370.79852445],[153883.76679854,176385.70089507],[153881.58174454,176409.00127583],[153880.84377536,176415.66986598],[153878.29378073,176443.56980727],[153877.59379443,176451.06966049],[153876.86879443,176458.56966049],[153876.17029734,176466.05355783],[153874.65014761,176481.59508865],[153872.35015297,176504.77503463],[153870.53015969,176522.9749675],[153867.91006337,176548.67591224],[153864.65482358,176578.09646233],[153861.62491054,176604.73449692],[153858.37046444,176634.57231042],[153856.37038095,176651.6530234],[153853.8043488,176673.11512446],[153850.25834736,176702.00091683],[153846.60093655,176731.18760056],[153843.16854192,176758.28132263]]},"geometry_name":"GEOM","properties":{"INSPIRE_ID":"https://databrussels.be/id/rail/27445","TYPE":"RW","LVL":0,"SLOPE":null,"LENGTH":468.243093411457},"bbox":[153843.16854192,176292.55341975,153891.0211076,176758.28132263]},{"type":"Feature","id":"TrainNetwork.fid--24aa7d09_1a031580c5b_-561c","geometry":{"type":"LineString","coordinates":[[153996.6198861,176668.93281394],[154006.18155983,176669.29040086],[154017.06792897,176669.85513078],[154024.86571658,176670.36037679],[154036.79727111,176671.33561909],[154051.31151249,176672.71072542],[154062.83796167,176674.03871793]]},"geometry_name":"GEOM","properties":{"INSPIRE_ID":"https://databrussels.be/id/rail/27446","TYPE":"RW","LVL":0,"SLOPE":null,"LENGTH":66.436781918328},"bbox":[153996.6198861,176668.93281394,154062.83796167,176674.03871793]},{"type":"Feature","id":"TrainNetwork.fid--24aa7d09_1a031580c5b_-561d","geometry":{"type":"LineString","coordinates":[[154057.81678563,176674.91481886],[154051.16065242,176674.14794825],[154036.67025778,176672.77510121],[154024.7601322,176671.80161043],[154016.9837782,176671.29775318],[154006.11712401,176670.73404598],[153996.51577509,176670.37497529]]},"geometry_name":"GEOM","properties":{"INSPIRE_ID":"https://databrussels.be/id/rail/27447","TYPE":"RW","LVL":0,"SLOPE":null,"LENGTH":61.4872773151156},"bbox":[153996.51577509,176670.37497529,154057.81678563,176674.91481886]},{"type":"Feature","id":"TrainNetwork.fid--24aa7d09_1a031580c5b_-5637","geometry":{"type":"LineString","coordinates":[[153534.78811277,176776.30139988],[153539.3963666,176773.69604463],[153546.79430931,176769.42582621],[153554.02272259,176765.13248018],[153561.51718117,176760.55285651],[153568.93335688,176755.89443717],[153576.13104663,176751.25228252],[153582.90526046,176746.77376673],[153589.38264007,176742.38955467],[153596.0527534,176737.77375492],[153603.33526945,176732.61817872],[153611.09178396,176726.99301501],[153618.7777991,176721.27931253],[153626.20251711,176715.62071001],[153633.43256378,176709.97498212],[153640.60346321,176704.23775038],[153647.67609562,176698.4320191],[153654.90526011,176692.33910757],[153662.28590613,176685.94663214],[153669.46628243,176679.54719382],[153676.08737364,176673.48451774],[153682.02536203,176667.90954535],[153688.20971152,176661.95496741],[153694.82840044,176655.40720024],[153701.6850331,176648.4254744],[153708.60095589,176641.16605469],[153715.74704909,176633.43120138],[153722.6304482,176625.74357979],[153729.29549344,176618.05471366],[153735.62955137,176610.5223923],[153741.5385762,176603.28593536],[153747.50803433,176595.76239805],[153753.63548968,176587.81239325],[153759.98089897,176579.31931673],[153766.20925521,176570.71028641],[153772.10480507,176562.29515495],[153777.70433926,176554.04578756],[153781.32559887,176548.55095495]]},"geometry_name":"GEOM","properties":{"INSPIRE_ID":"https://databrussels.be/id/rail/27448","TYPE":"RW","LVL":0,"SLOPE":null,"LENGTH":338.896647171071},"bbox":[153534.78811277,176548.55095495,153781.32559887,176776.30139988]},{"type":"Feature","id":"TrainNetwork.fid--24aa7d09_1a031580c5b_-563b","geometry":{"type":"LineString","coordinates":[[153526.16605952,176767.24648862],[153532.58256354,176763.66132222],[153540.9484049,176758.80772934],[153549.45419491,176753.70744529],[153558.20693387,176748.29083874],[153567.91310153,176742.14109324],[153575.69424261,176737.07607127],[153583.40894571,176731.89896974],[153590.73277839,176726.85987904],[153598.97739244,176721.06370452],[153606.10549921,176715.9320399],[153613.18298946,176710.67885736],[153621.08731373,176704.65696407],[153629.70010179,176697.91688928],[153636.54950497,176692.41412003],[153640.08224485,176689.52797179],[153643.50160938,176686.69682394],[153649.75999795,176681.41724642],[153657.45015027,176674.74432892],[153664.31515613,176668.62387008],[153671.33617226,176662.23903068],[153677.29209131,176656.67505673],[153684.62938005,176649.63276637],[153691.05415477,176643.31411185],[153697.74121251,176636.56519312],[153703.7579937,176630.33240646],[153710.65295826,176623.00681289],[153717.32239138,176615.76949688],[153723.97120706,176608.40876208],[153729.70900015,176601.91386805],[153736.51462176,176594.04208957],[153742.30565602,176587.17177764],[153745.76957143,176582.91811779],[153747.54512147,176580.687261],[153753.26376841,176573.31533075],[153758.87422592,176565.84949908],[153764.28509047,176558.44361944],[153769.67496716,176550.87745897],[153774.48725495,176543.92812186],[153778.70403263,176537.64171535]]},"geometry_name":"GEOM","properties":{"INSPIRE_ID":"https://databrussels.be/id/rail/27495","TYPE":"RW","LVL":0,"SLOPE":null,"LENGTH":344.445286603751},"bbox":[153526.16605952,176537.64171535,153778.70403263,176767.24648862]},{"type":"Feature","id":"TrainNetwork.fid--24aa7d09_1a031580c5b_-564a","geometry":{"type":"LineString","coordinates":[[153321.7685373,176849.8041673],[153328.74483427,176848.57426246],[153333.89358457,176847.57621301],[153339.77241068,176846.38540471],[153345.37900413,176845.20667047],[153349.19798,176844.37047314],[153349.4380262,176844.31624939],[153356.65344496,176842.66346618],[153363.4652397,176841.0580623],[153369.11151061,176839.67269373],[153376.68257099,176837.73921166],[153383.92503966,176835.80815109],[153391.24137342,176833.75026956],[153399.01823439,176831.46364595],[153406.0771517,176829.29598433],[153413.5729805,176826.89488591],[153421.36180713,176824.30174661],[153430.16237432,176821.25366584],[153438.56554343,176818.21853009],[153446.66627734,176815.17649808],[153454.21990067,176812.23982473],[153462.33860074,176808.96939374],[153470.40665158,176805.59689113],[153478.66542047,176802.01464768],[153486.98614268,176798.27609244],[153495.32340984,176794.390954],[153503.34987402,176790.51525899],[153510.87254494,176786.76232712],[153517.82334949,176783.18396922],[153524.77685087,176779.4964263],[153525.97513397,176778.84363684]]},"geometry_name":"GEOM","properties":{"INSPIRE_ID":"https://databrussels.be/id/rail/27496","TYPE":"RW","LVL":0,"SLOPE":null,"LENGTH":217.104247361101},"bbox":[153321.7685373,176778.84363684,153525.97513397,176849.8041673]},{"type":"Feature","id":"TrainNetwork.fid--24aa7d09_1a031580c5b_-5629","geometry":{"type":"LineString","coordinates":[[153068.44121131,176815.84131129],[153071.997,176817.3169],[153083.5585,176822.2333],[153098.2871,176828.3971],[153105.1249,176831.2587],[153110.9017,176833.6112],[153111.6255,176833.9059],[153119.9297,176837.4117],[153137.0614,176844.5414],[153141.323,176846.3158],[153154.0523,176851.5129],[153160.8432,176854.2344],[153170.8042,176858.1015],[153179.7369,176861.512],[153185.0248,176863.4673],[153192.8236,176866.2691],[153199.6598,176868.6639],[153209.425,176872.0313],[153215.9662,176874.231],[153235.8658,176880.7589],[153245.1013,176883.7582],[153260.2849,176888.8035],[153285.7347,176897.1842],[153296.9973,176900.9296],[153315.4054,176906.9791],[153326.5058,176910.6557],[153335.8781,176913.7626],[153344.4329,176916.6761],[153349.5888,176918.4549],[153353.6991,176919.8412],[153361.1348,176922.4901],[153368.4812,176925.2387],[153376.0674,176928.2258],[153383.934,176931.4856],[153391.9063,176934.948],[153396.7235,176937.1281],[153402.5899,176939.8644],[153405.9963,176941.4771],[153413.0395,176944.8677],[153419.5694,176948.1083],[153426.615,176951.6985],[153433.9969,176955.5955],[153439.1659,176958.4367],[153441.6783,176959.8551],[153444.0476,176961.2209],[153448.3445,176963.7787],[153463.2820817,176973.71226908],[153481.93506819,176986.17571653],[153492.58029899,176993.63152884],[153502.32507006,177001.37916775]]},"geometry_name":"GEOM","properties":{"INSPIRE_ID":"https://databrussels.be/id/rail/27602","TYPE":"RW","LVL":0,"SLOPE":null,"LENGTH":474.123700969754},"bbox":[153068.44121131,176815.84131129,153502.32507006,177001.37916775]},{"type":"Feature","id":"TrainNetwork.fid--24aa7d09_1a031580c5b_-562a","geometry":{"type":"LineString","coordinates":[[153069.01770013,176814.39820896],[153081.7741,176819.8546],[153091.3689,176823.8726],[153105.9754,176829.9893],[153110.0972,176831.6654],[153111.8937,176832.3959],[153120.176,176835.8918],[153122.2251,176836.7447],[153141.8952,176844.9323],[153156.2249,176850.778],[153160.6493,176852.5484],[153165.6273,176854.4968],[153170.7287,176856.4683],[153179.2366,176859.7232],[153182.3244,176860.8806],[153189.0331,176863.3274],[153193.7299,176865.0016],[153199.4088,176866.9915],[153210.5399,176870.8295],[153215.5008,176872.4992],[153235.7506,176879.1471],[153244.3036,176881.9196],[153261.6773,176887.6859],[153285.7604,176895.6154],[153295.6418,176898.9041],[153314.4542,176905.0864],[153324.2323,176908.3322],[153329.8971,176910.1948],[153336.5254,176912.4009],[153344.024,176914.9529],[153350.0936,176917.0455],[153354.1898,176918.426],[153361.6486,176921.0831],[153369.0181,176923.8403],[153376.6285,176926.837],[153384.519,176930.1067],[153392.5134,176933.5788],[153397.3489,176935.7671],[153403.227,176938.5088],[153406.6416,176940.1254],[153413.6973,176943.5221],[153420.2424,176946.7701],[153427.3046,176950.3689],[153434.7073,176954.2768],[153439.8948,176957.1282],[153442.4206,176958.5541],[153444.8047,176959.9285],[153449.1255,176962.5005],[153464.1122983,176972.46679837],[153482.78030476,176984.94028178],[153493.47622689,176992.43159779],[153503.26590166,177000.21493765]]},"geometry_name":"GEOM","properties":{"INSPIRE_ID":"https://databrussels.be/id/rail/27603","TYPE":"RW","LVL":0,"SLOPE":null,"LENGTH":474.573673760211},"bbox":[153069.01770013,176814.39820896,153503.26590166,177000.21493765]},{"type":"Feature","id":"TrainNetwork.fid--24aa7d09_1a031580c5b_-560d","geometry":{"type":"LineString","coordinates":[[152970.96908474,175665.19259349],[152971.87010641,175670.27994395],[152973.34297961,175679.22774469],[152974.70328093,175688.04954647],[152975.80646813,175695.57832001],[152976.95705736,175703.90499697],[152978.30796124,175714.34969942],[152979.69088265,175725.95670796],[152981.05694034,175738.54491215],[152982.18440173,175750.08697718],[152983.15951718,175761.38610912],[152984.15522503,175774.52947958],[152984.49928024,175779.81137938],[152985.29079679,175794.07284146],[152985.610165,175800.65021878],[152986.0499104,175811.17631737],[152986.40829463,175822.56215267],[152986.64711243,175834.15249996],[152986.7694258,175846.24194183],[152986.75504751,175858.33416768],[152986.6027334,175870.72352469],[152986.27646676,175884.1619494],[152985.93367632,175893.85763768],[152985.7207597,175898.88642279],[152985.21125288,175909.16198078],[152984.91669005,175914.34661529],[152984.59733913,175919.5192078],[152983.88889434,175929.76389525],[152983.50171249,175934.81606675],[152982.67084428,175944.70354591],[152982.23140324,175949.51267922],[152981.33354942,175958.66637779],[152980.03627139,175970.68683517],[152978.89511408,175980.44779502],[152977.85742386,175988.85957301],[152976.73826673,175997.51537834],[152975.32018793,176008.05249501],[152973.87962694,176018.3803782],[152972.4385866,176028.36772334],[152970.89866296,176038.72841703],[152967.82075389,176058.86136904],[152962.32024384,176094.22792102],[152960.32558529,176107.0800753],[152958.88697891,176116.57865406],[152957.41330205,176126.60979592],[152955.93261675,176137.13975416],[152954.54718704,176147.54263437],[152953.22879392,176158.14048921],[152952.04771211,176168.47834096],[152950.92120951,176179.465111],[152949.82345065,176191.74117806],[152949.15994359,176200.36071025],[152948.86014699,176204.6925894],[152948.58523119,176208.9912338],[152948.11159878,176217.36805649],[152947.73455515,176225.42613934],[152947.57409669,176229.52710876],[152947.29833885,176238.22490322],[152947.18891029,176242.77486659],[152947.04142777,176252.17370495],[152947.00689019,176257.01054013],[152947.02204983,176266.93241111],[152947.07234597,176271.95681045],[152947.15118808,176276.98638703],[152947.39157755,176286.97312835],[152947.55152902,176291.88964986],[152947.95443556,176301.67557802],[152948.19880586,176306.59192672],[152948.7660922,176316.36292912],[152949.08339344,176321.12493514],[152949.77233591,176330.29417638],[152950.13768613,176334.66322982],[152950.89433359,176342.93283818],[152952.04017965,176354.02321925],[152953.1773556,176363.73647803],[152954.4496683,176373.50277365],[152955.82806728,176383.13599993],[152957.40458451,176393.27819476],[152959.01448324,176402.87051079],[152960.78256477,176412.67974538],[152962.75588481,176422.92800255],[152965.0886951,176434.42260193],[152965.67785184,176437.21963152],[152966.77996018,176442.17342156],[152968.96965334,176451.55556873],[152970.84336821,176459.26215788],[152973.33874931,176468.9272034],[152975.39515309,176476.42236626],[152976.55708923,176480.47466884],[152979.17624197,176489.21226677],[152980.58539103,176493.719758],[152983.5184732,176502.69590881],[152985.04276828,176507.15912573],[152988.23243678,176516.101384],[152989.89953867,176520.5809582],[152991.61622081,176525.06816465],[152995.16034107,176533.9710399],[152996.9594285,176538.31847327],[153000.53188406,176546.64846375],[153002.26437025,176550.55314225],[153005.58158332,176557.80565473],[153007.15456955,176561.15047153],[153010.19247906,176567.44601554],[153011.68775985,176570.47082377],[153014.69759884,176576.42012457],[153017.80254351,176582.37424709],[153019.42274351,176585.41236011],[153022.84436617,176591.68957529],[153024.62714497,176594.88885532],[153028.31915678,176601.36102843],[153030.23627696,176604.64238177],[153034.21820731,176611.29802019],[153036.23983216,176614.60009401],[153038.25919143,176617.84715291],[153042.33509133,176624.24692884],[153044.41179965,176627.43313367],[153048.59886299,176633.71894506],[153050.66948314,176636.76116406],[153054.77003112,176642.65923329],[153056.80544699,176645.52709372],[153060.83183825,176651.08941533],[153066.65988978,176658.88901206],[153072.24698111,176666.10367437],[153077.9934879,176673.27055897],[153084.42691799,176681.01955234],[153086.60882056,176683.58636717],[153090.9836125,176688.6361939],[153093.18828673,176691.13360038],[153097.59140857,176696.03088211],[153101.95073255,176700.75840033],[153104.19752562,176703.14810183],[153111.34096017,176710.57134534],[153116.04513394,176715.3176034],[153118.39661883,176717.64462351],[153123.23945265,176722.34588302],[153125.75094719,176724.73810831],[153130.95202917,176729.60178453],[153133.56553774,176732.00170923],[153136.14754339,176734.34249831],[153141.31758364,176738.9372286],[153143.05270554,176740.44982028],[153145.34515532,176742.42643985],[153147.23053454,176744.05207087],[153147.97306748,176744.6759727],[153149.33756989,176745.84401104],[153152.0336383,176748.11061204],[153153.57015535,176749.3788393],[153154.52984043,176750.18519985],[153156.01412561,176751.3960702],[153157.39590411,176752.53657765],[153160.04385821,176754.68090039],[153165.31063996,176758.86269886],[153167.93712155,176760.90705278],[153173.10509451,176764.85259806],[153175.6019391,176766.72129853],[153180.60712808,176770.39194969],[153188.39395702,176775.94257921],[153195.53347566,176780.88487236],[153202.42568518,176785.52617273],[153209.37594472,176790.08674064],[153216.3008076,176794.5114833],[153223.00167736,176798.6881044],[153229.22083023,176802.48448222],[153235.43359887,176806.20620657],[153243.1183731,176810.75226864],[153250.70895426,176815.20844183],[153261.87257444,176821.69158427],[153288.65770531,176837.14714796],[153291.79112035,176838.95037587],[153297.18624825,176842.04746792],[153302.74667448,176845.25543214],[153309.1773216,176849.00758077],[153318.66151712,176854.60709179],[153328.55043639,176860.52451609],[153336.97077699,176865.67688137],[153344.93914164,176870.69895644],[153352.03889326,176875.3183251],[153358.84477487,176879.90597076],[153363.79534748,176883.35685527],[153366.77578486,176885.48212998],[153374.18321093,176890.88914651],[153378.35618912,176894.02705126],[153380.95427094,176896.01723088],[153386.81952152,176900.59237642],[153394.24580748,176906.519611],[153401.53260475,176912.48192479],[153408.7305936,176918.48922927],[153416.00041756,176924.64961895],[153422.74220951,176930.42445527],[153429.30341663,176936.08072481],[153479.17538141,176979.18165501],[153503.26590166,177000.21493765]]},"geometry_name":"GEOM","properties":{"INSPIRE_ID":"https://databrussels.be/id/rail/27644","TYPE":"RW","LVL":0,"SLOPE":null,"LENGTH":1579.62590972288},"bbox":[152947.00689019,175665.19259349,153503.26590166,177000.21493765]},{"type":"Feature","id":"TrainNetwork.fid--24aa7d09_1a031580c5b_-560e","geometry":{"type":"LineString","coordinates":[[153502.32507006,177001.37916775],[153478.19619769,176980.31500487],[153428.32476454,176937.21453413],[153421.76605361,176931.5604165],[153415.02908816,176925.78971442],[153407.76659074,176919.63553319],[153400.57850061,176913.63649],[153393.30437718,176907.68454639],[153385.89173409,176901.76820076],[153380.03825351,176897.20223631],[153377.45069425,176895.22011718],[153373.29156195,176892.09262396],[153365.89944304,176886.69678082],[153362.93229004,176884.58097887],[153357.99789735,176881.14137286],[153351.21184494,176876.56709348],[153344.1313921,176871.96028134],[153336.18057932,176866.94926836],[153327.77501553,176861.80594494],[153317.89624063,176855.89459093],[153308.41917169,176850.29928748],[153301.99502663,176846.55093266],[153296.43918036,176843.34561074],[153291.0447568,176840.24892302],[153287.90989522,176838.44486267],[153261.12220956,176822.98782479],[153249.95372994,176816.5018603],[153242.35794359,176812.04263132],[153234.66745768,176807.4931904],[153228.44578511,176803.76613221],[153222.21534647,176799.96286518],[153215.50143375,176795.77811446],[153208.56184849,176791.34396472],[153201.59651179,176786.77350359],[153194.68889722,176782.12182927],[153187.53298616,176777.16818856],[153179.72952737,176771.6057049],[153174.71032068,176767.92477359],[153172.20191148,176766.04741788],[153167.02267958,176762.09327684],[153164.38496486,176760.04017946],[153159.10687371,176755.84940138],[153156.4478828,176753.696141],[153155.064021,176752.55391401],[153153.5746497,176751.33889444],[153152.61167613,176750.52977077],[153151.07499948,176749.2614118],[153148.36864471,176746.98616298],[153147.00429949,176745.81825921],[153146.25971714,176745.19263539],[153144.36710404,176743.5607671],[153142.07465426,176741.58414753],[153140.32799858,176740.06150129],[153135.1470702,176735.45709447],[153132.55603645,176733.10812072],[153129.93400587,176730.70037045],[153124.72293653,176725.82735477],[153122.20131362,176723.4254821],[153117.34822311,176718.71426574],[153114.98647248,176716.3770867],[153110.26941689,176711.61783158],[153103.11229457,176704.18036414],[153100.85457993,176701.7790464],[153096.48395004,176697.03926737],[153092.06997401,176692.12991329],[153089.85617105,176689.62216599],[153085.47220782,176684.56175281],[153083.28012322,176681.98295973],[153076.83297692,176674.21744535],[153071.07055958,176667.03071754],[153065.46782174,176659.79585075],[153059.62525823,176651.97683285],[153055.58811119,176646.39965249],[153053.54444057,176643.5201613],[153049.43550436,176637.61002675],[153047.35649828,176634.5554869],[153043.1611401,176628.2572229],[153041.07604019,176625.05814322],[153036.99158916,176618.64494072],[153034.96521593,176615.38660363],[153032.93685902,176612.07353382],[153028.94700566,176605.40465241],[153027.0220467,176602.10988216],[153023.32247703,176595.62445998],[153021.53264795,176592.41252787],[153018.10440797,176586.12317275],[153016.47773083,176583.07291414],[153013.3653218,176577.10447775],[153010.34818954,176571.14076095],[153008.84667687,176568.10334624],[153005.80241381,176561.7946356],[153004.22285963,176558.43585263],[153000.89879738,176551.16836559],[152999.15907061,176547.24736829],[152995.57916828,176538.90001398],[152993.77255401,176534.53439226],[152990.22096184,176525.61274746],[152988.49823733,176521.10974696],[152986.82518917,176516.61419486],[152983.62868444,176507.65277118],[152982.09790256,176503.17056055],[152979.158748,176494.17582634],[152977.74410358,176489.65075693],[152975.1198429,176480.8961187],[152973.95306465,176476.82692905],[152971.89139529,176469.31257426],[152969.39053429,176459.62630416],[152967.51268241,176451.90269946],[152965.3196547,176442.50626479],[152964.21401997,176437.53662422],[152963.62197936,176434.72590341],[152961.28658066,176423.21855],[152959.31016007,176412.95419041],[152957.53889814,176403.12731109],[152955.92600913,176393.51717798],[152954.34671298,176383.35710559],[152952.96569808,176373.7055974],[152951.69091077,176363.92030657],[152950.55141912,176354.18726817],[152949.40362582,176343.07804022],[152948.64564605,176334.79387058],[152948.27928188,176330.4126918],[152947.58939146,176321.23083415],[152947.2712437,176316.45612374],[152946.70322517,176306.67251005],[152946.45822865,176301.74356269],[152946.054794,176291.94480763],[152945.89442656,176287.0155002],[152945.65373348,176277.01614584],[152945.57472638,176271.97604428],[152945.5243242,176266.94105154],[152945.50914494,176257.00633706],[152945.54377459,176252.15660798],[152945.69145574,176242.74511119],[152945.80117245,176238.18316675],[152946.0772877,176229.47409903],[152946.23818718,176225.36185804],[152946.61583892,176217.29077872],[152947.09019467,176208.9011629],[152947.36571347,176204.59308986],[152947.66618007,176200.25152957],[152948.33084175,176191.6169979],[152949.43029146,176179.32202226],[152950.55867078,176168.31694855],[152951.74158789,176157.96303274],[152953.06170457,176147.35132315],[152954.44870956,176136.93661451],[152955.93079931,176126.39666848],[152957.40563126,176116.35766397],[152958.84514657,176106.85308393],[152960.84026221,176093.9979845],[152966.34051132,176058.63311029],[152969.41765747,176038.50514865],[152970.95665554,176028.15068224],[152972.39673738,176018.16998011],[152973.83631328,176007.84915931],[152975.25339263,175997.31946915],[152976.37149019,175988.67185876],[152977.40806181,175980.26914839],[152978.54789431,175970.51952045],[152979.84367709,175958.51291793],[152980.74033325,175949.37142965],[152981.17882445,175944.57269103],[152982.00877486,175934.69613392],[152982.39511021,175929.65500803],[152983.10278902,175919.42139722],[152983.42157285,175914.25799004],[152983.71562098,175909.082415],[152984.22459229,175898.81765691],[152984.43705896,175893.79949891],[152984.77937205,175884.11731221],[152985.10521978,175870.6961417],[152985.25732138,175858.32407108],[152985.27167971,175846.2486278],[152985.14953143,175834.17550386],[152984.91104298,175822.60114086],[152984.55315706,175811.23113675],[152984.11394466,175800.71779646],[152983.7950737,175794.15065995],[152983.00424309,175779.90155713],[152982.66116969,175774.6347298],[152981.66665209,175761.50707074],[152980.6929378,175750.22417466],[152979.5670788,175738.69851367],[152978.20273492,175726.12610225],[152976.82163232,175714.53435921],[152975.47252715,175704.10356373],[152974.32366714,175695.78940095],[152974.28646617,175695.53552049],[152973.22218249,175688.27224652],[152971.86389552,175679.46350813],[152970.39373471,175670.53218539],[152969.49429961,175665.45379299]]},"geometry_name":"GEOM","properties":{"INSPIRE_ID":"https://databrussels.be/id/rail/27645","TYPE":"RW","LVL":0,"SLOPE":null,"LENGTH":1580.69800647982},"bbox":[152945.50914494,175665.45379299,153502.32507006,177001.37916775]},{"type":"Feature","id":"TrainNetwork.fid--24aa7d09_1a031580c5b_-5642","geometry":{"type":"LineString","coordinates":[[153434.32984726,176318.46196537],[153437.37159046,176325.82496807],[153442.57692138,176340.48508857],[153443.64715346,176343.32480165],[153513.3695973,176547.11270175],[153515.85099476,176554.91070975],[153517.95017182,176562.81082252],[153519.66496164,176570.80318275],[153520.99135397,176578.86909928],[153521.92624688,176586.98970894],[153522.46745399,176595.14602067],[153522.61370962,176603.31895988],[153522.36467175,176611.48941313],[153521.72092277,176619.63827276],[153520.68396817,176627.74648164],[153519.25623301,176635.7950777],[153517.44105622,176643.76523825],[153515.24268282,176651.63832408],[153512.666254,176659.39592298],[153509.71779505,176667.0198928],[153506.40420132,176674.49240394],[153502.73322207,176681.79598098],[153498.71344236,176688.91354356],[153494.35426295,176695.82844637],[153489.66587832,176702.52451804],[153484.65925288,176708.98609894],[153479.34609523,176715.19807785],[153473.73883089,176721.14592726],[153467.85057315,176726.81573739],[153461.69509244,176732.19424864],[153455.28678414,176737.2688827],[153448.6406349,176742.02777189],[153445.60642319,176744.28061712],[153439.95714205,176748.01325698],[153435.75245502,176750.74925514],[153430.06335551,176754.03739795],[153424.19585681,176757.02611371],[153418.1739689,176759.70152532],[153412.02307051,176762.05235748],[153405.76955365,176764.07009465],[153399.40370922,176765.75882675],[153391.93471904,176767.62706657],[153386.37472338,176768.80308219],[153381.28700203,176769.70451162],[153377.00545265,176770.43170407],[153370.82229534,176771.21328896],[153365.61606416,176771.80822526],[153360.57428434,176772.13836001],[153355.54192939,176772.37686139],[153351.50512664,176772.46925563],[153346.7715556,176772.42956775],[153340.97893943,176772.2707816],[153336.53446933,176771.96728862],[153331.00166072,176771.46403873],[153325.35241256,176770.78894562],[153319.15241219,176769.87435723],[153314.10289512,176769.01468962],[153309.3468685,176768.03654241],[153304.60651801,176766.9471438],[153298.28161224,176764.95098638],[153291.99337701,176762.83251013],[153285.74535028,176760.5927572],[153279.54102927,176758.23290577],[153273.38386384,176755.75426802],[153267.2772502,176753.15828771],[153261.22452458,176750.44653735],[153253.74988608,176746.60725064],[153245.92030428,176742.40742414]]},"geometry_name":"GEOM","properties":{"INSPIRE_ID":"https://databrussels.be/id/rail/27646","TYPE":"RW","LVL":0,"SLOPE":null,"LENGTH":677.27701237802},"bbox":[153245.92030428,176318.46196537,153522.61370962,176772.46925563]},{"type":"Feature","id":"TrainNetwork.fid--24aa7d09_1a031580c5b_-5643","geometry":{"type":"LineString","coordinates":[[153435.80011141,176317.88661834],[153438.84560336,176325.25869546],[153443.94124309,176339.97090251],[153445.01938641,176342.83160699],[153514.75418261,176546.65561112],[153517.25104169,176554.5022086],[153519.36833073,176562.47048461],[153521.09791599,176570.53180399],[153522.43575262,176578.66731433],[153523.3787119,176586.85798971],[153523.92458862,176595.08467519],[153524.07210617,176603.32813162],[153523.82091956,176611.56908063],[153523.17161623,176619.78824972],[153522.12571465,176627.96641732],[153520.68566079,176636.08445774],[153518.85482242,176644.12338591],[153516.63748116,176652.06440178],[153514.03882256,176659.88893428],[153511.06492391,176667.57868475],[153507.72274005,176675.11566971],[153504.0200871,176682.48226299],[153499.96562419,176689.66123686],[153495.56883319,176696.63580239],[153490.83999656,176703.38964866],[153485.79017327,176709.90698094],[153480.43117299,176716.17255764],[153474.77552842,176722.1717259],[153468.83646599,176727.89045591],[153462.62787497,176733.31537368],[153456.16427493,176738.43379237],[153449.32721396,176743.40299591],[153446.35698297,176745.51447923],[153442.06101682,176748.36871086],[153436.50878064,176751.98156193],[153430.75349462,176755.30795871],[153424.81773409,176758.33144486],[153418.72578825,176761.03798189],[153412.50333099,176763.41616338],[153406.17706124,176765.45737473],[153399.77432339,176767.15589392],[153392.25971357,176769.03554471],[153386.65040376,176770.22199095],[153381.53407367,176771.1284892],[153377.21717016,176771.86168632],[153370.99496663,176772.64820686],[153365.74539878,176773.24809541],[153360.65571625,176773.58136682],[153355.59268126,176773.82132224],[153351.51560572,176773.91463824],[153346.74569382,176773.87464567],[153340.90987981,176773.71467539],[153336.4197672,176773.40806569],[153330.85042872,176772.90149313],[153325.16117625,176772.22161945],[153318.92564895,176771.30179034],[153313.83596642,176770.43528466],[153309.03940696,176769.44880126],[153304.28281883,176768.35567102],[153297.83480347,176766.32065987],[153291.52029005,176764.19333064],[153285.24615317,176761.9442179],[153279.01590465,176759.57450478],[153272.83300878,176757.08550895],[153266.70087594,176754.47868018],[153260.6354998,176751.76126212],[153253.06557972,176747.91076566],[153245.19963344,176743.69143308]]},"geometry_name":"GEOM","properties":{"INSPIRE_ID":"https://databrussels.be/id/rail/27647","TYPE":"RW","LVL":0,"SLOPE":null,"LENGTH":680.846949652255},"bbox":[153245.19963344,176317.88661834,153524.07210617,176773.91463824]},{"type":"Feature","id":"TrainNetwork.fid--24aa7d09_1a031580c5b_-561b","geometry":{"type":"LineString","coordinates":[[153500.21009806,176600.75856294],[153477.03447269,176505.2957291],[153467.17487742,176464.85738906],[153459.97524015,176434.91889742],[153455.39472755,176415.95677374],[153448.09463771,176385.99640504],[153441.49441271,176358.73548784],[153438.53163807,176346.64416433],[153436.96557346,176340.60076112],[153435.719766,176336.16006034],[153434.43501201,176331.74371849],[153433.08878318,176327.34335859],[153431.84182094,176323.48179813],[153430.53447055,176319.64019928],[153429.16788472,176315.8217977],[153427.702378,176311.86693709],[153426.19456125,176307.92650933],[153424.60485067,176304.00254017],[153422.75600168,176299.64166811],[153420.84649808,176295.32015995],[153418.85660363,176291.01877194],[153415.78622721,176284.63720528],[153412.59171666,176278.2883667],[153409.236514,176272.04005515],[153407.16421173,176268.33807829],[153405.03259151,176264.67812659],[153402.84213859,176261.04076898],[153400.50932989,176257.28012048],[153398.0938463,176253.55624994],[153395.62035639,176249.89628926],[153393.90763579,176247.43803146],[153392.13731953,176244.98372937],[153390.36716258,176242.56987898],[153388.41472348,176239.99346451],[153386.44690895,176237.46341724],[153384.45970962,176234.93425446],[153381.90975111,176231.76186513],[153379.32011611,176228.61013882],[153376.70948355,176225.49746154],[153373.73757818,176222.04362557],[153370.72258246,176218.62663042],[153367.64567301,176215.26817369],[153364.51005933,176211.95165923],[153361.33263724,176208.69379607],[153358.09550864,176205.49688025],[153355.60143605,176203.1033751],[153353.08813018,176200.7509208],[153350.550313,176198.43465909],[153346.8296265,176195.17654443],[153339.28912477,176188.79939321],[153334.88941325,176185.22337198],[153331.0049866,176182.16413441],[153326.68614456,176178.95011243],[153322.96519325,176176.20941173],[153320.56244153,176174.42737087],[153315.23865022,176170.54460579],[153296.90356274,176157.12820048],[153284.1029858,176147.62777229],[153275.50252926,176141.3474389],[153269.39901266,176136.82483316],[153265.60322726,176134.08787211],[153260.85581259,176130.51733754],[153256.38068195,176127.1410113],[153252.47465152,176124.1517023],[153248.42723534,176120.94168257],[153244.0146653,176117.40763326],[153239.92988095,176114.08002845],[153234.8791,176109.7904]]},"geometry_name":"GEOM","properties":{"INSPIRE_ID":"https://databrussels.be/id/rail/27868","TYPE":"RW","LVL":0,"SLOPE":null,"LENGTH":582.214014980518},"bbox":[153234.8791,176109.7904,153500.21009806,176600.75856294]},{"type":"Feature","id":"TrainNetwork.fid--24aa7d09_1a031580c5b_-5616","geometry":{"type":"LineString","coordinates":[[153435.80011141,176317.88661834],[153437.96051357,176323.62926858],[153439.34968355,176327.69319177],[153443.32467186,176343.448969],[153448.87940954,176368.15674276],[153459.48470461,176411.61251428],[153464.16511912,176430.81421483],[153471.14525088,176459.71475343],[153484.57627125,176515.05889698],[153507.00514567,176607.44609038],[153508.68466559,176616.28432],[153509.16135475,176619.11466189]]},"geometry_name":"GEOM","properties":{"INSPIRE_ID":"https://databrussels.be/id/rail/27870","TYPE":"RW","LVL":0,"SLOPE":null,"LENGTH":310.118803414781},"bbox":[153435.80011141,176317.88661834,153509.16135475,176619.11466189]},{"type":"Feature","id":"TrainNetwork.fid--24aa7d09_1a031580c5b_-563c","geometry":{"type":"LineString","coordinates":[[153503.49794658,176643.7382227],[153461.42883859,176474.81030932],[153457.66506254,176459.69691936]]},"geometry_name":"GEOM","properties":{"INSPIRE_ID":"https://databrussels.be/id/rail/27871","TYPE":"RW","LVL":0,"SLOPE":null,"LENGTH":189.662475454953},"bbox":[153457.66506254,176459.69691936,153503.49794658,176643.7382227]},{"type":"Feature","id":"TrainNetwork.fid--24aa7d09_1a031580c5b_-5635","geometry":{"type":"LineString","coordinates":[[153483.8456944,176607.64667023],[153486.89013293,176619.17905643],[153495.96015103,176655.09784885],[153498.2411,176663.8835],[153500.5992,176672.7979],[153500.8067,176673.5652]]},"geometry_name":"GEOM","properties":{"INSPIRE_ID":"https://databrussels.be/id/rail/27874","TYPE":"RW","LVL":0,"SLOPE":null,"LENGTH":68.066517965195},"bbox":[153483.8456944,176607.64667023,153500.8067,176673.5652]},{"type":"Feature","id":"TrainNetwork.fid--24aa7d09_1a031580c5b_-563e","geometry":{"type":"LineString","coordinates":[[153995.78800621,176680.45613925],[153988.25921984,176679.77051384],[153974.96922665,176678.88508027],[153965.97555417,176678.37632085],[153959.87369095,176678.18553141],[153952.02454311,176677.97885983],[153944.73143551,176677.83577806],[153938.3278927,176677.75628539],[153930.8436026,176677.77218445],[153922.040705,176677.9788657],[153912.76150449,176678.28092566],[153905.05519563,176678.58299046],[153898.17468119,176678.93277253],[153891.56435989,176679.42564297],[153885.78086316,176679.9025703],[153879.18698536,176680.42719482],[153871.98884997,176681.07904458],[153866.4432492,176681.68319992],[153859.6109534,176682.46219754],[153853.31383528,176683.22453113],[153846.60827337,176684.09896559],[153826.28612407,176687.13547272],[153801.03865119,176691.39607167],[153776.39536621,176695.94275472],[153757.32911105,176699.47197669],[153735.22827074,176703.71655708],[153714.11261433,176707.69086452],[153693.05246787,176711.70493397],[153669.46050754,176716.21520257],[153646.82576545,176720.47907481],[153619.02104073,176725.80465837],[153601.03545674,176729.20665388],[153580.2692289,176733.10149688],[153565.34997365,176735.97890837],[153548.57184434,176739.15835441],[153532.06779843,176742.32270882],[153508.98207598,176746.66263505],[153492.7443862,176749.68306516],[153476.98340265,176752.46502936],[153467.19648869,176754.15007927],[153455.77316315,176755.99409023],[153446.32000487,176757.44067271],[153434.91263504,176759.06212097],[153423.75971357,176760.52457157],[153412.08249872,176761.81216513],[153402.55013325,176762.75003652],[153390.23737956,176763.75150177],[153380.37156958,176764.40323047],[153365.80288631,176765.03907773],[153357.3669148,176765.24572315],[153344.49797529,176765.38879102],[153335.79199693,176765.35699967],[153325.16335582,176765.08676418],[153317.02908035,176764.81653037],[153309.11732703,176764.41913276],[153301.38028565,176763.94225282],[153290.94226864,176763.1474407],[153281.56882443,176762.30495041],[153271.87762002,176761.27170587],[153263.45739429,176760.25435752],[153255.60910413,176759.20521647],[153245.91796637,176757.79047597],[153237.59293132,176756.39159971],[153229.04557165,176754.96094754],[153215.23965689,176752.27452724],[153202.99053606,176749.61986753],[153194.03010263,176747.53747281],[153185.86417787,176745.53459412],[153174.36177217,176742.48253327],[153164.17803525,176739.60533651],[153153.62887412,176736.44200456],[153144.08059589,176733.40583651],[153135.78756071,176730.65584753],[153125.7944751,176727.12691153],[153117.27894859,176723.99539443],[153107.61951937,176720.25981829],[153098.59557904,176716.60372255],[153089.11081676,176712.59787419],[153080.00747363,176708.6079756],[153070.9836007,176704.44323677],[153060.45028866,176699.38824577],[153050.1871153,176694.23790455],[153040.52773497,176689.1829803],[153032.12341562,176684.57313111],[153025.46674061,176680.82169824],[153016.52205377,176675.59178495],[153009.15026275,176671.20439777],[152999.79270367,176665.46592494],[152991.81744283,176660.33157404],[152985.06536178,176655.84887409],[152977.39183935,176650.63496655],[152969.32115998,176644.92829765],[152962.0289007,176639.618992],[152954.14883053,176633.72154341],[152948.49306076,176629.3342907],[152941.05774248,176623.45266639],[152934.35332037,176617.98440601],[152926.29847235,176611.26034564],[152920.11836046,176605.88748863],[152914.39899793,176600.84846689],[152907.05915208,176594.12447508],[152897.86057637,176585.44533872],[152886.93001837,176574.44510699],[152881.62362484,176569.02448388],[152874.87151872,176561.9506935],[152869.75593786,176556.41897373],[152863.67108575,176549.64719596],[152858.60300626,176543.87685859],[152852.5181428,176536.8189362],[152843.46242031,176525.96191219],[152835.45533028,176515.80441108],[152828.79857541,176507.045664],[152822.49132669,176498.46175597],[152817.59802586,176491.57870569],[152811.43381373,176482.75642893],[152805.46027005,176473.67985075],[152799.16887087,176463.90367465],[152794.06916973,176455.59018754],[152787.09457743,176443.77923391],[152781.99481173,176434.78211485],[152775.94176201,176423.6548314],[152769.23729871,176410.69942561],[152764.40758204,176400.89154705],[152760.45166407,176392.5620062],[152754.59208833,176379.73928025],[152748.93409604,176366.45251215]]},"geometry_name":"GEOM","properties":{"INSPIRE_ID":"https://databrussels.be/id/rail/28161","TYPE":"RW","LVL":1,"SLOPE":null,"LENGTH":1418.94740390102},"bbox":[152748.93409604,176366.45251215,153995.78800621,176765.38879102]},{"type":"Feature","id":"TrainNetwork.fid--24aa7d09_1a031580c5b_-5611","geometry":{"type":"LineString","coordinates":[[153791.80312483,176528.50829545],[153789.58648967,176532.15274315],[153785.43002182,176538.78472322],[153783.24489985,176542.18083909],[153780.73108507,176546.07697836]]},"geometry_name":"GEOM","properties":{"INSPIRE_ID":"https://databrussels.be/id/rail/28386","TYPE":"RW","LVL":1,"SLOPE":null,"LENGTH":20.7675328520052},"bbox":[153780.73108507,176528.50829545,153791.80312483,176546.07697836]},{"type":"Feature","id":"TrainNetwork.fid--24aa7d09_1a031580c5b_-5612","geometry":{"type":"LineString","coordinates":[[153791.26995544,176526.3773298],[153789.11553951,176529.91948067],[153784.09196493,176537.93499955],[153782.77352973,176539.98411111],[153780.22045993,176543.9520914]]},"geometry_name":"GEOM","properties":{"INSPIRE_ID":"https://databrussels.be/id/rail/28387","TYPE":"RW","LVL":1,"SLOPE":null,"LENGTH":20.7605197600822},"bbox":[153780.22045993,176526.3773298,153791.26995544,176543.9520914]},{"type":"Feature","id":"TrainNetwork.fid--24aa7d09_1a031580c5b_-5613","geometry":{"type":"LineString","coordinates":[[153790.23807863,176522.2531357],[153788.19726408,176525.56498576],[153787.30733212,176527.00917441],[153783.61133174,176532.84681281],[153781.82966449,176535.58541228],[153779.17962175,176539.62080542]]},"geometry_name":"GEOM","properties":{"INSPIRE_ID":"https://databrussels.be/id/rail/28388","TYPE":"RW","LVL":1,"SLOPE":null,"LENGTH":20.5907133506714},"bbox":[153779.17962175,176522.2531357,153790.23807863,176539.62080542]},{"type":"Feature","id":"TrainNetwork.fid--24aa7d09_1a031580c5b_-5614","geometry":{"type":"LineString","coordinates":[[153789.73014561,176520.22303448],[153787.7488039,176523.43837154],[153786.03727992,176526.21584623],[153782.35110121,176532.03797183],[153781.38658529,176533.52052857],[153778.70403263,176537.64171535]]},"geometry_name":"GEOM","properties":{"INSPIRE_ID":"https://databrussels.be/id/rail/28389","TYPE":"RW","LVL":1,"SLOPE":null,"LENGTH":20.6162251169034},"bbox":[153778.70403263,176520.22303448,153789.73014561,176537.64171535]},{"type":"Feature","id":"TrainNetwork.fid--24aa7d09_1a031580c5b_-562b","geometry":{"type":"LineString","coordinates":[[153535.89647536,176777.45219634],[153532.97722887,176779.0907966],[153528.52279834,176781.52426018]]},"geometry_name":"GEOM","properties":{"INSPIRE_ID":"https://databrussels.be/id/rail/28390","TYPE":"RW","LVL":1,"SLOPE":null,"LENGTH":8.42348254033216},"bbox":[153528.52279834,176777.45219634,153535.89647536,176781.52426018]},{"type":"Feature","id":"TrainNetwork.fid--24aa7d09_1a031580c5b_-562c","geometry":{"type":"LineString","coordinates":[[153534.78811277,176776.30139988],[153532.22849311,176777.73875528],[153527.42016045,176780.36555624]]},"geometry_name":"GEOM","properties":{"INSPIRE_ID":"https://databrussels.be/id/rail/28391","TYPE":"RW","LVL":1,"SLOPE":null,"LENGTH":8.41464664593416},"bbox":[153527.42016045,176776.30139988,153534.78811277,176780.36555624]},{"type":"Feature","id":"TrainNetwork.fid--24aa7d09_1a031580c5b_-562d","geometry":{"type":"LineString","coordinates":[[153533.34404678,176774.80204755],[153531.57629314,176775.79228975],[153525.97513397,176778.84363684]]},"geometry_name":"GEOM","properties":{"INSPIRE_ID":"https://databrussels.be/id/rail/28392","TYPE":"RW","LVL":1,"SLOPE":null,"LENGTH":8.40458915572991},"bbox":[153525.97513397,176774.80204755,153533.34404678,176778.84363684]},{"type":"Feature","id":"TrainNetwork.fid--24aa7d09_1a031580c5b_-562e","geometry":{"type":"LineString","coordinates":[[153532.21433257,176773.61810067],[153530.80981828,176774.40486715],[153524.8467815,176777.65335455]]},"geometry_name":"GEOM","properties":{"INSPIRE_ID":"https://databrussels.be/id/rail/28393","TYPE":"RW","LVL":1,"SLOPE":null,"LENGTH":8.40033357751045},"bbox":[153524.8467815,176773.61810067,153532.21433257,176777.65335455]},{"type":"Feature","id":"TrainNetwork.fid--24aa7d09_1a031580c5b_-5630","geometry":{"type":"LineString","coordinates":[[153527.23002658,176768.36733506],[153526.31836691,176768.87671706],[153519.84436437,176772.37637888]]},"geometry_name":"GEOM","properties":{"INSPIRE_ID":"https://databrussels.be/id/rail/28394","TYPE":"RW","LVL":1,"SLOPE":null,"LENGTH":8.4036857962995},"bbox":[153519.84436437,176768.36733506,153527.23002658,176772.37637888]},{"type":"Feature","id":"TrainNetwork.fid--24aa7d09_1a031580c5b_-5631","geometry":{"type":"LineString","coordinates":[[153526.16605952,176767.24648862],[153525.59708735,176767.56439693],[153518.77744523,176771.25090169]]},"geometry_name":"GEOM","properties":{"INSPIRE_ID":"https://databrussels.be/id/rail/28395","TYPE":"RW","LVL":1,"SLOPE":null,"LENGTH":8.40404241959167},"bbox":[153518.77744523,176767.24648862,153526.16605952,176771.25090169]},{"type":"Feature","id":"TrainNetwork.fid--24aa7d09_1a031580c5b_-560f","geometry":{"type":"LineString","coordinates":[[153792.96964798,176533.17064259],[153790.63530661,176536.92259704],[153789.34307876,176538.9995769],[153784.2978511,176546.88008909],[153781.82556576,176550.63148932]]},"geometry_name":"GEOM","properties":{"INSPIRE_ID":"https://databrussels.be/id/rail/28699","TYPE":"RW","LVL":1,"SLOPE":null,"LENGTH":20.7149913630019},"bbox":[153781.82556576,176533.17064259,153792.96964798,176550.63148932]},{"type":"Feature","id":"TrainNetwork.fid--24aa7d09_1a031580c5b_-5610","geometry":{"type":"LineString","coordinates":[[153792.4486441,176531.08829991],[153790.15477297,176534.7752071],[153788.03871312,176538.17632068],[153783.81646545,176544.7713599],[153781.32559887,176548.55095495]]},"geometry_name":"GEOM","properties":{"INSPIRE_ID":"https://databrussels.be/id/rail/28700","TYPE":"RW","LVL":1,"SLOPE":null,"LENGTH":20.7052980060439},"bbox":[153781.32559887,176531.08829991,153792.4486441,176548.55095495]},{"type":"Feature","id":"TrainNetwork.fid--24aa7d09_1a031580c5b_-5632","geometry":{"type":"LineString","coordinates":[[153841.64038737,176758.07990243],[153841.15131156,176761.94043875],[153839.34794354,176775.82289952],[153838.84906809,176779.60179163]]},"geometry_name":"GEOM","properties":{"INSPIRE_ID":"https://databrussels.be/id/rail/29011","TYPE":"RW","LVL":1,"SLOPE":null,"LENGTH":21.7021741190966},"bbox":[153838.84906809,176758.07990243,153841.64038737,176779.60179163]},{"type":"Feature","id":"TrainNetwork.fid--24aa7d09_1a031580c5b_-5634","geometry":{"type":"LineString","coordinates":[[153835.22226817,176779.12375703],[153835.72114362,176775.34486492],[153837.52396277,176761.46636814],[153838.01354153,176757.60186179]]},"geometry_name":"GEOM","properties":{"INSPIRE_ID":"https://databrussels.be/id/rail/29012","TYPE":"RW","LVL":1,"SLOPE":null,"LENGTH":21.7021742249487},"bbox":[153835.22226817,176757.60186179,153838.01354153,176779.12375703]},{"type":"Feature","id":"TrainNetwork.fid--24aa7d09_1a031580c5b_-5633","geometry":{"type":"LineString","coordinates":[[153839.56393373,176757.80621304],[153839.07456997,176761.6690223],[153837.27151619,176775.54921359],[153836.77264074,176779.3281057]]},"geometry_name":"GEOM","properties":{"INSPIRE_ID":"https://databrussels.be/id/rail/29013","TYPE":"RW","LVL":1,"SLOPE":null,"LENGTH":21.7021741802358},"bbox":[153836.77264074,176757.80621304,153839.56393373,176779.3281057]},{"type":"Feature","id":"TrainNetwork.fid--24aa7d09_1a031580c5b_-5624","geometry":{"type":"LineString","coordinates":[[153843.16854192,176758.28132263],[153842.67967803,176762.14018619],[153840.87607875,176776.02431716],[153840.3772033,176779.80320928]]},"geometry_name":"GEOM","properties":{"INSPIRE_ID":"https://databrussels.be/id/rail/29014","TYPE":"RW","LVL":1,"SLOPE":null,"LENGTH":21.702174074926},"bbox":[153840.3772033,176758.28132263,153843.16854192,176779.80320928]},{"type":"Feature","id":"TrainNetwork.fid--24aa7d09_1a031580c5b_-563f","geometry":{"type":"LineString","coordinates":[[152749.79208115,176364.56618396],[152755.97475209,176379.129093],[152761.8215113,176391.92377206],[152765.76804755,176400.23355887],[152770.58636,176410.01827845],[152777.27671071,176422.94641371],[152783.31599808,176434.04839792],[152788.40264535,176443.02237315],[152795.36395695,176454.81083691],[152800.44848445,176463.09958808],[152806.72686583,176472.85553589],[152812.68460882,176481.9081055],[152818.83326203,176490.70811421],[152823.71613121,176497.57649102],[152830.00912508,176506.14099878],[152836.65039157,176514.87936674],[152844.63628792,176525.00998233],[152853.6707464,176535.84151265],[152859.74302293,176542.88483528],[152864.80086873,176548.64352092],[152870.87277252,176555.40088862],[152875.97290301,176560.91590118],[152882.71018398,176567.9741601],[152888.0059608,176573.38393795],[152898.91537608,176584.3628922],[152908.08815348,176593.01768707],[152915.40899608,176599.72427011],[152921.11361838,176604.75030503],[152927.2785332,176610.10995002],[152935.31514146,176616.81878413],[152942.0041397,176622.2744645],[152949.42497587,176628.1446329],[152955.06475924,176632.51948476],[152962.9264177,176638.40315401],[152970.20217756,176643.70044686],[152978.25280075,176649.39293431],[152985.90795962,176654.59436441],[152992.64441712,176659.0666919],[153000.59681659,176664.18632499],[153009.93173966,176669.91091642],[153017.28988772,176674.29018387],[153026.21914247,176679.51107409],[153032.85778636,176683.25234535],[153041.24152407,176687.85090532],[153050.87640813,176692.89301024],[153061.11615749,176698.03159665],[153071.62718511,176703.07589324],[153080.6274777,176707.22974916],[153089.70813782,176711.20970603],[153099.17331938,176715.20728456],[153108.17582519,176718.854696],[153117.81231477,176722.58140073],[153126.30688801,176725.70521243],[153136.2770309,176729.22604648],[153144.5474042,176731.96852073],[153154.07490219,176734.99808107],[153164.60052754,176738.15435545],[153174.76101814,176741.02498445],[153186.23798794,176744.07029612],[153194.38114915,176746.06759153],[153203.32163523,176748.14535051],[153215.54405108,176750.79422264],[153229.31467487,176753.47377586],[153237.84287664,176754.90122139],[153246.15234999,176756.29748279],[153255.81837466,176757.7085572],[153263.64815109,176758.75522338],[153272.04836701,176759.7701541],[153281.71658043,176760.80094742],[153291.06728459,176761.64139382],[153301.48414416,176762.43459489],[153309.20171827,176762.91027495],[153317.09207803,176763.30659798],[153325.20764975,176763.57621042],[153335.81396368,176763.84587825],[153344.49233448,176763.87756877],[153357.3400106,176763.7347373],[153365.75143181,176763.52869326],[153380.2888072,176762.89421243],[153390.126313,176762.24435348],[153402.41488461,176761.2448551],[153411.92569471,176760.30910449],[153423.57864209,176759.02418679],[153434.70805901,176757.56481828],[153446.09937111,176755.94565247],[153455.5384503,176754.50122446],[153466.9478612,176752.65945968],[153476.72385454,176750.97629001],[153492.47486013,176748.19608702],[153508.70429452,176745.17719252],[153531.78591677,176740.83803709],[153548.28888236,176737.67388982],[153565.06620013,176734.49459756],[153579.98684734,176731.61691762],[153600.75573657,176727.72157545],[153618.73846916,176724.32011929],[153646.54374844,176718.99442951],[153669.17874626,176714.7305091],[153692.76911403,176710.22054496],[153713.83138264,176706.20607102],[153734.94599686,176702.23195974],[153757.04906943,176697.98695063],[153776.12074583,176694.45672518],[153800.77581065,176689.90786875],[153826.04871077,176685.64297886],[153846.39888896,176682.60228369],[153853.12531563,176681.72512839],[153859.43454517,176680.96132857],[153866.27581917,176680.18130729],[153871.83885824,176679.57525217],[153879.05890744,176678.92141793],[153885.65883702,176678.39631192],[153891.44607795,176677.91907583],[153898.08012377,176677.42443647],[153904.98723652,176677.07330223],[153912.70732606,176676.77069727],[153921.99838515,176676.46825129],[153930.82425969,176676.26103056],[153938.33566712,176676.24507389],[153944.75563596,176676.32477048],[153952.05925279,176676.46805842],[153959.91719347,176676.67496152],[153966.04185349,176676.86646376],[153975.06213327,176677.37672831],[153988.3779933,176678.26388524],[153995.89683653,176678.94860517]]},"geometry_name":"GEOM","properties":{"INSPIRE_ID":"https://databrussels.be/id/rail/29017","TYPE":"RW","LVL":1,"SLOPE":null,"LENGTH":1418.69024241604},"bbox":[152749.79208115,176364.56618396,153995.89683653,176763.87756877]},{"type":"Feature","id":"TrainNetwork.fid--24aa7d09_1a031580c5b_-5641","geometry":{"type":"LineString","coordinates":[[152751.98165945,176359.75227379],[152755.85982318,176369.1980787],[152761.10299656,176381.20050577],[152766.39383515,176392.75780972],[152772.43142873,176405.20535991],[152778.07181221,176416.25395172],[152784.39539707,176428.09740624],[152789.94045013,176437.93780672],[152795.06770332,176446.78669357],[152801.78849829,176457.89887439],[152807.65131943,176467.11928194],[152813.49825216,176476.05353892],[152818.88442118,176483.92267984],[152823.57150041,176490.6313212],[152829.13244187,176498.35738684],[152834.26439642,176505.2726925],[152838.7925916,176511.21826565],[152843.05068392,176516.70281841],[152847.43588348,176522.20326844],[152852.20240473,176528.02166355],[152860.70270096,176538.13231734],[152867.78892922,176546.22401983],[152877.607963,176556.92287204],[152884.04276669,176563.67920516],[152890.81122686,176570.62630533],[152901.55178809,176581.26156853],[152909.94086549,176589.14660671],[152917.40841545,176595.95063159],[152923.27123659,176601.14903378],[152933.37626164,176609.84483193],[152940.68492756,176615.93348037],[152947.10384285,176621.06829354],[152958.40049821,176629.87537248],[152966.61480317,176635.91632915],[152973.43092856,176640.90806703],[152981.74056394,176646.67877038],[152992.48112516,176653.95971289],[153003.12635596,176660.84322404],[153012.84186685,176666.92293027],[153024.67872796,176673.94951672],[153039.07362214,176682.05711646],[153049.76651815,176687.71653903],[153059.8715432,176692.86724945],[153071.51774346,176698.47898026],[153081.16200479,176703.04149227],[153087.73980412,176705.93479257],[153095.12791206,176709.11424345],[153104.0254184,176712.78650921],[153112.38271899,176716.09313813],[153120.35869789,176719.12951372],[153130.00295922,176722.6587042],[153138.328483,176725.5520045],[153145.95491701,176728.0955652],[153155.47207111,176731.10014628],[153162.79662543,176733.35755641],[153173.41007942,176736.45752101],[153187.97974604,176740.27286207],[153198.45020439,176742.83232003],[153209.68330614,176745.37588073],[153219.78833119,176747.47431831],[153232.08595602,176749.79531745],[153242.15920427,176751.51222093],[153250.54828167,176752.79989853],[153260.90752119,176754.29424045],[153270.93310422,176755.48653453],[153277.14547026,176756.23370548],[153287.01216925,176757.15574624],[153297.37140877,176757.99830072],[153307.95308594,176758.72957442],[153322.14143087,176759.38136185],[153335.23347591,176759.66751243],[153346.72079213,176759.73110145],[153356.46038388,176759.61982067],[153366.61307415,176759.33367009],[153374.86596523,176758.99982775],[153383.66303415,176758.54107841],[153395.91980309,176757.61676662],[153404.53585769,176756.89003499],[153412.6888788,176756.0517387],[153426.38184599,176754.49380777],[153436.79782981,176753.07895212],[153445.87010859,176751.79127452],[153460.07434192,176749.51796714],[153472.72151164,176747.43542681],[153482.52465701,176745.70262608],[153491.457664,176744.10650448],[153534.68213342,176735.97620451],[153587.23299982,176726.01389806],[153633.07889379,176717.26630202],[153682.89691921,176707.84272796],[153720.90348166,176700.60852419],[153746.10238935,176695.86122687],[153778.00999331,176689.83716103],[153806.27546433,176684.67055335],[153828.30076628,176680.8848363],[153839.31738852,176679.16197135],[153855.36467674,176676.71379418],[153870.824094,176674.69484287],[153884.47223318,176673.05742566],[153891.93978314,176672.31025471],[153902.4579067,176671.32462493],[153914.15177217,176670.38668692],[153923.70070308,176669.766694],[153933.2814108,176669.22618735],[153945.75380807,176668.78106423],[153956.35137366,176668.52670816],[153966.61528275,176668.43132463],[153978.65869311,176668.44722189],[153987.41320381,176668.6538862],[153996.6198861,176668.93281394]]},"geometry_name":"GEOM","properties":{"INSPIRE_ID":"https://databrussels.be/id/rail/29018","TYPE":"RW","LVL":1,"SLOPE":null,"LENGTH":1418.46480871765},"bbox":[152751.98165945,176359.75227379,153996.6198861,176759.73110145]},{"type":"Feature","id":"TrainNetwork.fid--24aa7d09_1a031580c5b_-5640","geometry":{"type":"LineString","coordinates":[[153996.51577509,176670.37497529],[153987.43497687,176670.11104432],[153978.64054611,176669.90343763],[153966.62108799,176669.88757199],[153956.37561198,176669.98278422],[153945.79724944,176670.23667939],[153933.34839949,176670.68096214],[153923.78889312,176671.22027269],[153914.25716806,176671.83914847],[153902.58405898,176672.77542166],[153892.08020786,176673.75971399],[153884.63147228,176674.50500247],[153871.0051215,176676.13980563],[153855.56880123,176678.15574055],[153839.53970226,176680.60114277],[153828.53662196,176682.32188992],[153806.52973491,176686.10444182],[153778.27599879,176691.26890449],[153746.37227105,176697.29223851],[153721.17442967,176702.03933494],[153683.16839695,176709.27343789],[153633.35069147,176718.69695143],[153587.50508377,176727.44449284],[153534.95234617,176737.40715403],[153491.72033443,176745.53887267],[153482.77946446,176747.1363992],[153472.96655984,176748.87092497],[153460.30771241,176750.9553882],[153446.08751302,176753.23125086],[153436.99815608,176754.52135246],[153426.56218279,176755.93892337],[153412.84566766,176757.4995335],[153404.6715387,176758.3400001],[153396.03575589,176759.06839573],[153383.75571872,176759.99446223],[153374.93331544,176760.45453271],[153366.66301919,176760.78907912],[153356.48921825,176761.0758247],[153346.72508059,176761.18738593],[153335.2135335,176761.12366278],[153322.09209989,176760.83686986],[153307.86946273,176760.18350711],[153297.26218027,176759.45046389],[153286.8853916,176758.60648207],[153276.99075021,176757.6818301],[153270.76017294,176756.93246885],[153260.7175493,176755.73814821],[153250.33385205,176754.24027822],[153241.92638209,176752.94977746],[153231.82856013,176751.22868559],[153219.50522497,176748.902834],[153209.37443606,176746.79904622],[153198.11648469,176744.24985871],[153187.622375,176741.68461928],[153173.02141199,176737.86108268],[153162.37801301,176734.75237178],[153155.03841124,176732.49032406],[153145.5053168,176729.48071059],[153137.85908217,176726.930546],[153129.51369268,176724.03034194],[153119.84940694,176720.49382379],[153111.85576533,176717.45072419],[153103.47972225,176714.13667966],[153094.56227068,176710.45618191],[153087.15880897,176707.27012358],[153080.55735457,176704.36641839],[153070.89029601,176699.79312146],[153059.22473794,176694.17206308],[153049.09521367,176689.00886497],[153038.37557715,176683.33528947],[153023.94964182,176675.21020649],[153012.08384474,176668.1664431],[153002.34470108,176662.07194813],[152991.67710433,176655.17397451],[152980.91665606,176647.87955071],[152972.58526854,176642.0937414],[152965.75321924,176637.09034176],[152957.52126622,176631.03640637],[152946.20129206,176622.21114767],[152939.76395696,176617.06159956],[152932.43522276,176610.95623279],[152922.31318857,176602.24579757],[152916.43491856,176597.03369728],[152908.95174215,176590.21543444],[152900.54062831,176582.30968383],[152889.77730834,176571.65188501],[152882.99396238,176564.68950618],[152876.54417874,176557.9174446],[152866.70457505,176547.19617934],[152859.59749911,176539.08067107],[152851.08178671,176528.95168056],[152846.30325558,176523.11862522],[152841.90617404,176517.60327137],[152837.6381826,176512.10596823],[152833.1003985,176506.14780474],[152827.95671875,176499.21669938],[152822.38360873,176491.47372741],[152817.6866702,176484.75097438],[152812.28802394,176476.86360432],[152806.42759048,176467.90871791],[152800.5508844,176458.66647363],[152793.81455906,176447.52861484],[152788.67606118,176438.66032131],[152783.1185935,176428.79788952],[152776.78090289,176416.9280163],[152771.12766973,176405.85425406],[152765.07650616,176393.37872699],[152759.7736193,176381.7951048],[152754.52273542,176369.77502722],[152751.10152277,176361.68730343]]},"geometry_name":"GEOM","properties":{"INSPIRE_ID":"https://databrussels.be/id/rail/29083","TYPE":"RW","LVL":1,"SLOPE":null,"LENGTH":1418.6252401058},"bbox":[152751.10152277,176361.68730343,153996.51577509,176761.18738593]},{"type":"Feature","id":"TrainNetwork.fid--24aa7d09_1a031580c5b_-5620","geometry":{"type":"LineString","coordinates":[[154019.56574551,176659.28766793],[154011.41578406,176654.37780021],[154007.7893,176652.1297],[154005.4939,176650.6284],[154002.0606,176648.2652],[154000.3153,176647.0382],[153996.381,176644.2082],[153993.2241,176641.86],[153990.0445,176639.4199],[153987.9727,176637.7968],[153983.2262,176633.9988],[153980.7873,176632.0028],[153977.8853,176629.556],[153975.8442,176627.7667],[153972.5553,176624.7583],[153968.9596,176621.3388],[153965.923,176618.3652],[153963.4311,176615.8358],[153960.519,176612.743],[153958.4318,176610.4759],[153955.686,176607.4213],[153953.5067,176604.9171],[153951.3214,176602.3246],[153949.9005,176600.603],[153946.0711,176595.8548],[153943.922,176593.1124],[153941.546,176589.9672],[153940.7012,176588.8196],[153938.3647,176585.579],[153935.8435,176581.9659],[153934.1431,176579.4327],[153932.469,176576.8463],[153931.0111,176574.5243],[153928.4432,176570.3067],[153926.0043,176566.1779],[153924.9907,176564.3992],[153922.6691,176560.1196],[153920.8538,176556.7114],[153919.7138,176554.4934],[153918.1555,176551.3509],[153917.2075,176549.3703],[153915.2173,176545.0883],[153913.634,176541.5113],[153911.9598,176537.5816],[153911.0377,176535.3224],[153909.6815,176531.8737],[153907.9089,176527.1114],[153905.9026,176521.468],[153904.7595,176518.0854],[153904.0439,176515.7396],[153902.1958,176509.2428],[153901.006,176505.0899],[153900.3555,176502.5731],[153899.634,176499.5044],[153898.6211,176494.9415],[153897.4688,176489.2992],[153896.6777,176485.2802],[153896.278,176482.9195],[153895.7732,176479.4698],[153894.7382,176471.6645],[153894.2861,176468.0372],[153893.7803,176463.5382],[153893.273,176458.1255],[153892.9131,176454.0129],[153892.767,176451.9244],[153891.9409,176436.3265],[153891.2702,176421.3098],[153891.1589,176417.6722]]},"geometry_name":"GEOM","properties":{"INSPIRE_ID":"https://databrussels.be/id/rail/29189","TYPE":"RW","LVL":1,"SLOPE":null,"LENGTH":287.906524021568},"bbox":[153891.1589,176417.6722,154019.56574551,176659.28766793]},{"type":"Feature","id":"TrainNetwork.fid--24aa7d09_1a031580c5b_-5621","geometry":{"type":"LineString","coordinates":[[153889.558,176417.7619],[153889.5755,176418.4592],[153889.6856,176421.6391],[153890.3689,176436.8582],[153891.1949,176452.3587],[153891.386,176454.9208],[153891.8934,176460.6073],[153892.2434,176464.1917],[153892.672,176467.9839],[153893.1771,176472.04],[153893.7369,176476.3334],[153894.2645,176480.2062],[153894.6838,176483.0558],[153895.0285,176485.1305],[153895.3655,176486.9176],[153895.7838,176489.0115],[153897.0401,176495.181],[153897.7781,176498.542],[153898.456,176501.4883],[153899.0078,176503.7707],[153899.587,176505.947],[153901.1286,176511.2973],[153902.4028,176515.8078],[153902.9745,176517.7356],[153903.7557,176520.1317],[153904.9072,176523.4547],[153906.1897,176527.0507],[153907.3454,176530.2083],[153908.4428,176533.0973],[153909.5933,176536.0087],[153910.754,176538.8378],[153912.681,176543.3165],[153913.9895,176546.2411],[153915.2426,176548.9444],[153916.8137,176552.2417],[153918.3845,176555.4012],[153919.7872,176558.1155],[153922.8383,176563.7971],[153923.9342,176565.7766],[153925.3355,176568.1988],[153926.9015,176570.8389],[153928.4833,176573.461],[153930.1803,176576.2092],[153932.1511,176579.3036],[153933.2848,176581.0271],[153934.5412,176582.8891],[153935.9247,176584.8885],[153937.3871,176586.9578],[153938.8665,176589.0126],[153940.3014,176590.9686],[153941.6521,176592.7713],[153942.9666,176594.4862],[153945.7675,176598.0337],[153949.1088,176602.154],[153950.9232,176604.3374],[153952.7709,176606.5102],[153954.6033,176608.6063],[153956.365,176610.5746],[153959.449,176613.9364],[153961.7583,176616.397],[153963.7916,176618.4887],[153966.1221,176620.8055],[153968.8593,176623.4566],[153971.9719,176626.3964],[153973.6297,176627.9201],[153975.3292,176629.4441],[153977.0636,176630.9545],[153978.8767,176632.4897],[153980.8249,176634.1012],[153985.3308,176637.7387],[153987.8736,176639.7497],[153990.5216,176641.8064],[153993.2035,176643.8423],[153995.8448,176645.7932],[153998.3576,176647.6052],[154000,176648.7581],[154002.6331,176650.6065],[154004.2659,176651.7253],[154005.7191,176652.6939],[154007.215,176653.6554],[154010.57404479,176655.73563739],[154018.8728698,176660.60365754]]},"geometry_name":"GEOM","properties":{"INSPIRE_ID":"https://databrussels.be/id/rail/29190","TYPE":"RW","LVL":1,"SLOPE":null,"LENGTH":289.545896195845},"bbox":[153889.558,176417.7619,154018.8728698,176660.60365754]}],"numberReturned":64,"grand_bruxelles_source":{"authority":"Paradigm / Brussels-Capital Region","service":"https://geoservices-urbis.irisnet.be/geoserver/urbisvector/wfs","layer":"urbisvector:TrainNetwork","crs":"EPSG:31370","bbox":[153500.0,176500.0,154000.0,177000.0],"cell_id":"bxl-e153500-n176500-s500","ownership":"bbox_intersection_source_unclipped"}}
