{"type":"FeatureCollection","totalFeatures":5,"numberMatched":5,"timeStamp":"2026-08-24T03:42:28.970Z","crs":{"type":"name","properties":{"name":"urn:ogc:def:crs:EPSG::31370"}},"bbox":[156237.10219851,167585.64497143,157616.88630016,167834.22269518],"features":[{"type":"Feature","id":"StreetAxes.fid-77ff224d_1a03149e4eb_1ebb","geometry":{"type":"LineString","coordinates":[[156902.26,167736.334],[157283.78747577,167791.35283354],[157308.31270677,167794.24678364],[157320.86482143,167794.59622812],[157332.87867495,167794.0020037],[157345.17262675,167792.04038785],[157357.40245966,167789.06926575],[157368.862866,167785.04474581],[157371.65778791,167784.0187994],[157375.41745783,167782.29617684]]},"geometry_name":"GEOM","properties":{"INSPIRE_ID":"https://databrussels.be/id/streetaxe/84531","TYPE":"S","HIERARCHY":null,"LVL":0,"STARTSN_ID":"https://databrussels.be/id/streetnode/4678","ENDSN_ID":"https://databrussels.be/id/streetnode/7374","STRNAMEFRE":"Avenue de Tervueren","STRNAMEDUT":"Tervurenlaan","SLOPE":0.21,"LENGTH":479.049338772177},"bbox":[156902.26,167736.334,157375.41745783,167794.59622812]},{"type":"Feature","id":"StreetAxes.fid-77ff224d_1a03149e4eb_1eb9","geometry":{"type":"LineString","coordinates":[[156243.63996578,167585.64497143],[157372.06391618,167746.16067775],[157383.99357493,167747.62918517],[157391.00849734,167747.94724407],[157398.45978627,167747.38002985],[157403.34631995,167746.61192726],[157408.13257748,167745.53923642],[157412.95244405,167744.33535318],[157417.69283352,167742.67450143],[157421.88900451,167740.76063577],[157426.28793166,167738.14119751],[157428.36964554,167736.73099728],[157432.36337521,167733.85736389],[157436.2923268,167730.72748795],[157439.96983045,167727.499011],[157443.53349037,167723.99540208],[157447.06346254,167720.42029093],[157481.90814389,167680.46356496],[157485.35224379,167676.90786494],[157489.1318831,167673.41969042],[157493.06965018,167670.23730996],[157497.18868568,167667.21216745],[157501.52370056,167664.41854095],[157505.93488674,167661.96447127],[157510.53216231,167659.8653928],[157514.70808524,167658.20330079],[157519.81445508,167656.53638553],[157524.64313714,167655.28619909],[157528.14233874,167654.57384441],[157532.06145162,167653.99426692],[157535.07823662,167653.66289979],[157539.11667339,167653.38413562],[157543.22028179,167653.27499236],[157558.8488975,167653.40522011],[157571.83059808,167654.06137254]]},"geometry_name":"GEOM","properties":{"INSPIRE_ID":"https://databrussels.be/id/streetaxe/97230","TYPE":"S","HIERARCHY":"H","LVL":0,"STARTSN_ID":"https://databrussels.be/id/streetnode/16666","ENDSN_ID":"https://databrussels.be/id/streetnode/7377","STRNAMEFRE":"Avenue de Tervueren","STRNAMEDUT":"Tervurenlaan","SLOPE":0.29,"LENGTH":1373.98913350524},"bbox":[156243.63996578,167585.64497143,157571.83059808,167747.94724407]},{"type":"Feature","id":"StreetAxes.fid-77ff224d_1a03149e4eb_1eba","geometry":{"type":"LineString","coordinates":[[156237.10219851,167613.52949909],[157336.44889702,167769.53717639],[157350.12699675,167772.14330794],[157360.64936347,167775.33256143],[157370.0339489,167779.1215576],[157375.41745783,167782.29617684]]},"geometry_name":"GEOM","properties":{"INSPIRE_ID":"https://databrussels.be/id/streetaxe/97247","TYPE":"C","HIERARCHY":"H","LVL":0,"STARTSN_ID":"https://databrussels.be/id/streetnode/16665","ENDSN_ID":"https://databrussels.be/id/streetnode/7374","STRNAMEFRE":"Avenue de Tervueren","STRNAMEDUT":"Tervurenlaan","SLOPE":0.33,"LENGTH":1151.6506857769},"bbox":[156237.10219851,167613.52949909,157375.41745783,167782.29617684]},{"type":"Feature","id":"StreetAxes.fid-77ff224d_1a03149e4eb_1ebc","geometry":{"type":"LineString","coordinates":[[157375.41745783,167782.29617684],[157379.28213821,167780.63762746],[157392.16248627,167774.59264212],[157416.19236276,167763.55174016],[157427.90924462,167759.66805912],[157440.20464271,167757.14742859],[157452.44122497,167756.39114296],[157465.160228,167757.23845613],[157549.88615827,167769.06132752],[157562.52360407,167770.65709984],[157574.82478732,167770.84713589],[157587.27059962,167768.98005575],[157598.91998792,167765.21213272],[157609.29037328,167759.17366468],[157616.88630016,167753.06424514]]},"geometry_name":"GEOM","properties":{"INSPIRE_ID":"https://databrussels.be/id/streetaxe/99331","TYPE":"S","HIERARCHY":"MAR","LVL":0,"STARTSN_ID":"https://databrussels.be/id/streetnode/7374","ENDSN_ID":"https://databrussels.be/id/streetnode/7376","STRNAMEFRE":"Avenue de Tervuren","STRNAMEDUT":"Tervuurselaan","SLOPE":0.12,"LENGTH":251.945107306362},"bbox":[157375.41745783,167753.06424514,157616.88630016,167782.29617684]},{"type":"Feature","id":"StreetAxes.fid-77ff224d_1a03149e4eb_1ebd","geometry":{"type":"LineString","coordinates":[[157375.41745783,167782.29617684],[157381.41954134,167785.88337592],[157416.20285591,167809.25851446],[157428.30843941,167816.53334455],[157440.88112536,167822.76386049],[157453.37378978,167826.59487388],[157495.09769316,167833.31054913],[157507.9551069,167834.22269518],[157517.89452604,167833.76662216],[157527.57340994,167832.51567901],[157541.35898045,167828.22533493],[157552.68900639,167822.95769152],[157606.42341745,167785.32526681]]},"geometry_name":"GEOM","properties":{"INSPIRE_ID":"https://databrussels.be/id/streetaxe/99332","TYPE":"C","HIERARCHY":"H","LVL":0,"STARTSN_ID":"https://databrussels.be/id/streetnode/7374","ENDSN_ID":"https://databrussels.be/id/streetnode/7375","STRNAMEFRE":"Avenue de Tervuren","STRNAMEDUT":"Tervuurselaan","SLOPE":0.12,"LENGTH":257.516408693274},"bbox":[157375.41745783,167782.29617684,157606.42341745,167834.22269518]}],"numberReturned":5,"grand_bruxelles_source":{"authority":"Paradigm / Brussels-Capital Region","service":"https://geoservices-urbis.irisnet.be/geoserver/urbisvector/wfs","layer":"urbisvector:StreetAxes","crs":"EPSG:31370","bbox":[157000.0,167500.0,157500.0,168000.0],"cell_id":"bxl-e157000-n167500-s500","ownership":"bbox_intersection_source_unclipped"}}
