{"type":"FeatureCollection","totalFeatures":52,"numberMatched":52,"timeStamp":"2026-08-24T01:59:09.221Z","crs":{"type":"name","properties":{"name":"urn:ogc:def:crs:EPSG::31370"}},"bbox":[152925.47,168984.40156858,153695.95645084,169556.70051522],"features":[{"type":"Feature","id":"StreetAxes.fid--324554a4_1a031387ba0_29a5","geometry":{"type":"LineString","coordinates":[[153076.819,169386.726],[153074.124,169378.54],[153042.00411848,169280.73865024],[153039.28681617,169271.31661166]]},"geometry_name":"GEOM","properties":{"INSPIRE_ID":"https://databrussels.be/id/streetaxe/70190","TYPE":"S","HIERARCHY":"DR","LVL":0,"STARTSN_ID":"https://databrussels.be/id/streetnode/2556","ENDSN_ID":"https://databrussels.be/id/streetnode/2083","STRNAMEFRE":"Allée de la Minerva","STRNAMEDUT":"Minervalei","SLOPE":1.6,"LENGTH":121.364975725802},"bbox":[153039.28681617,169271.31661166,153076.819,169386.726]},{"type":"Feature","id":"StreetAxes.fid--324554a4_1a031387ba0_29a6","geometry":{"type":"LineString","coordinates":[[153204.835,169344.718],[153195.307,169347.881],[153087.12,169383.322],[153076.819,169386.726]]},"geometry_name":"GEOM","properties":{"INSPIRE_ID":"https://databrussels.be/id/streetaxe/70191","TYPE":"S","HIERARCHY":"DR","LVL":0,"STARTSN_ID":"https://databrussels.be/id/streetnode/515","ENDSN_ID":"https://databrussels.be/id/streetnode/2556","STRNAMEFRE":"Rue du Collège Saint-Michel","STRNAMEDUT":"St-Michielskollegestraat","SLOPE":0.11,"LENGTH":134.732307157617},"bbox":[153076.819,169344.718,153204.835,169386.726]},{"type":"Feature","id":"StreetAxes.fid--324554a4_1a031387ba0_29ba","geometry":{"type":"LineString","coordinates":[[153007.107,169281.853],[153000.056,169284.116],[152934.21,169305.646],[152925.47,169308.442]]},"geometry_name":"GEOM","properties":{"INSPIRE_ID":"https://databrussels.be/id/streetaxe/70908","TYPE":"S","HIERARCHY":"DR","LVL":0,"STARTSN_ID":"https://databrussels.be/id/streetnode/1196","ENDSN_ID":"https://databrussels.be/id/streetnode/873","STRNAMEFRE":"Rue Saint-Hubert","STRNAMEDUT":"Sint-Huibrechtsstraat","SLOPE":0.66,"LENGTH":85.8581157107117},"bbox":[152925.47,169281.853,153007.107,169308.442]},{"type":"Feature","id":"StreetAxes.fid--324554a4_1a031387ba0_29a3","geometry":{"type":"LineString","coordinates":[[153076.819,169386.726],[153069.804,169389.082],[152971.285,169421.5],[152963.379,169424.118]]},"geometry_name":"GEOM","properties":{"INSPIRE_ID":"https://databrussels.be/id/streetaxe/71365","TYPE":"S","HIERARCHY":"DR","LVL":0,"STARTSN_ID":"https://databrussels.be/id/streetnode/2556","ENDSN_ID":"https://databrussels.be/id/streetnode/2680","STRNAMEFRE":"Rue du Collège Saint-Michel","STRNAMEDUT":"St-Michielskollegestraat","SLOPE":0.15,"LENGTH":119.443828623001},"bbox":[152963.379,169386.726,153076.819,169424.118]},{"type":"Feature","id":"StreetAxes.fid--324554a4_1a031387ba0_29b7","geometry":{"type":"LineString","coordinates":[[153166.575,169230.171],[153154.725,169233.745],[153049.76760281,169267.95669419],[153039.28681617,169271.31661166]]},"geometry_name":"GEOM","properties":{"INSPIRE_ID":"https://databrussels.be/id/streetaxe/72087","TYPE":"S","HIERARCHY":"DR","LVL":0,"STARTSN_ID":"https://databrussels.be/id/streetnode/2612","ENDSN_ID":"https://databrussels.be/id/streetnode/2083","STRNAMEFRE":"Rue Saint-Hubert","STRNAMEDUT":"Sint-Huibrechtsstraat","SLOPE":0.52,"LENGTH":133.775873376428},"bbox":[153039.28681617,169230.171,153166.575,169271.31661166]},{"type":"Feature","id":"StreetAxes.fid--324554a4_1a031387ba0_29b8","geometry":{"type":"LineString","coordinates":[[153204.835,169344.718],[153202.36,169338.16],[153169.087,169238.076],[153166.575,169230.171]]},"geometry_name":"GEOM","properties":{"INSPIRE_ID":"https://databrussels.be/id/streetaxe/72805","TYPE":"S","HIERARCHY":"DC","LVL":0,"STARTSN_ID":"https://databrussels.be/id/streetnode/515","ENDSN_ID":"https://databrussels.be/id/streetnode/2612","STRNAMEFRE":"Avenue Roger Vandendriessche","STRNAMEDUT":"Roger Vandendriesschelaan","SLOPE":2.3,"LENGTH":120.773918178107},"bbox":[153166.575,169230.171,153204.835,169344.718]},{"type":"Feature","id":"StreetAxes.fid--324554a4_1a031387ba0_29b9","geometry":{"type":"LineString","coordinates":[[153039.28681617,169271.31661166],[153028.80602952,169274.67652914],[153014.764,169279.396],[153007.107,169281.853]]},"geometry_name":"GEOM","properties":{"INSPIRE_ID":"https://databrussels.be/id/streetaxe/73211","TYPE":"S","HIERARCHY":"DR","LVL":0,"STARTSN_ID":"https://databrussels.be/id/streetnode/2083","ENDSN_ID":"https://databrussels.be/id/streetnode/1196","STRNAMEFRE":"Rue Saint-Hubert","STRNAMEDUT":"Sint-Huibrechtsstraat","SLOPE":0.71,"LENGTH":33.8616376480187},"bbox":[153007.107,169271.31661166,153039.28681617,169281.853]},{"type":"Feature","id":"StreetAxes.fid--324554a4_1a031387ba0_29b6","geometry":{"type":"LineString","coordinates":[[153007.107,169281.853],[153004.674,169275.512],[152971.102,169173.246],[152968.852,169166.486]]},"geometry_name":"GEOM","properties":{"INSPIRE_ID":"https://databrussels.be/id/streetaxe/74357","TYPE":"S","HIERARCHY":"DR","LVL":0,"STARTSN_ID":"https://databrussels.be/id/streetnode/1196","ENDSN_ID":"https://databrussels.be/id/streetnode/3423","STRNAMEFRE":"Rue Paul Bossu","STRNAMEDUT":"Paul Bossustraat","SLOPE":1.2,"LENGTH":121.551915810346},"bbox":[152968.852,169166.486,153007.107,169281.853]},{"type":"Feature","id":"StreetAxes.fid--324554a4_1a031387ba0_298f","geometry":{"type":"LineString","coordinates":[[153569.62644386,169372.52025911],[153567.662,169366.542],[153560.569,169344.945],[153545.338,169308.81],[153527.642,169285.942],[153506.695,169266.952],[153461.415,169239.122],[153428.885,169219.832],[153367.328,169183.17],[153316.255,169152.768],[153264.9475,169121.7965],[153262.71326104,169120.17153004]]},"geometry_name":"GEOM","properties":{"INSPIRE_ID":"https://databrussels.be/id/streetaxe/74381","TYPE":"S","HIERARCHY":null,"LVL":0,"STARTSN_ID":"https://databrussels.be/id/streetnode/5302","ENDSN_ID":"https://databrussels.be/id/streetnode/13414","STRNAMEFRE":"Avenue de l'Horizon","STRNAMEDUT":"Horizonlaan","SLOPE":0.33,"LENGTH":410.173195311887},"bbox":[153262.71326104,169120.17153004,153569.62644386,169372.52025911]},{"type":"Feature","id":"StreetAxes.fid--324554a4_1a031387ba0_29b3","geometry":{"type":"LineString","coordinates":[[153040.176,169143.355],[153052.788,169139.148],[153102.494,169122.357],[153129.19001931,169115.64719414]]},"geometry_name":"GEOM","properties":{"INSPIRE_ID":"https://databrussels.be/id/streetaxe/74382","TYPE":"S","HIERARCHY":"DR","LVL":0,"STARTSN_ID":"https://databrussels.be/id/streetnode/1384","ENDSN_ID":"https://databrussels.be/id/streetnode/12128","STRNAMEFRE":"Rue Père Eudore Devroye","STRNAMEDUT":"Pater Eudore Devroyestraat","SLOPE":1.46,"LENGTH":93.2869524695831},"bbox":[153040.176,169115.64719414,153129.19001931,169143.355]},{"type":"Feature","id":"StreetAxes.fid--324554a4_1a031387ba0_29b4","geometry":{"type":"LineString","coordinates":[[153166.575,169230.171],[153164.225,169222.776],[153136.374089,169138.194098],[153136.559,169133.04],[153138.62593327,169123.5983357]]},"geometry_name":"GEOM","properties":{"INSPIRE_ID":"https://databrussels.be/id/streetaxe/74383","TYPE":"S","HIERARCHY":"DC","LVL":0,"STARTSN_ID":"https://databrussels.be/id/streetnode/2612","ENDSN_ID":"https://databrussels.be/id/streetnode/13415","STRNAMEFRE":"Avenue Roger Vandendriessche","STRNAMEDUT":"Roger Vandendriesschelaan","SLOPE":2.45,"LENGTH":111.631352322207},"bbox":[153136.374089,169123.5983357,153166.575,169230.171]},{"type":"Feature","id":"StreetAxes.fid--324554a4_1a031387ba0_29b5","geometry":{"type":"LineString","coordinates":[[152968.852,169166.486],[152975.286,169164.43],[153027.564,169147.562],[153040.176,169143.355]]},"geometry_name":"GEOM","properties":{"INSPIRE_ID":"https://databrussels.be/id/streetaxe/74695","TYPE":"S","HIERARCHY":"DR","LVL":0,"STARTSN_ID":"https://databrussels.be/id/streetnode/3423","ENDSN_ID":"https://databrussels.be/id/streetnode/1384","STRNAMEFRE":"Rue Père Eudore Devroye","STRNAMEDUT":"Pater Eudore Devroyestraat","SLOPE":1.32,"LENGTH":74.9816268378015},"bbox":[152968.852,169143.355,153040.176,169166.486]},{"type":"Feature","id":"StreetAxes.fid--324554a4_1a031387ba0_29ad","geometry":{"type":"LineString","coordinates":[[152959.5030712,169085.49928269],[152966.314,169089.271],[152980.302,169096.72],[153002.654,169111.74],[153031.84396783,169131.64385338],[153040.176,169143.355]]},"geometry_name":"GEOM","properties":{"INSPIRE_ID":"https://databrussels.be/id/streetaxe/75632","TYPE":"S","HIERARCHY":"DR","LVL":0,"STARTSN_ID":"https://databrussels.be/id/streetnode/11108","ENDSN_ID":"https://databrussels.be/id/streetnode/1384","STRNAMEFRE":"Avenue Nestor Plissart","STRNAMEDUT":"Nestor Plissartlaan","SLOPE":0.03,"LENGTH":100.265867654727},"bbox":[152959.5030712,169085.49928269,153040.176,169143.355]},{"type":"Feature","id":"StreetAxes.fid--324554a4_1a031387ba0_2995","geometry":{"type":"LineString","coordinates":[[153175.10725951,169517.19395943],[153183.77217492,169514.59592632],[153267.58761261,169486.91252472],[153289.33767941,169478.67774449],[153308.2204747,169468.55187255],[153315.68503163,169464.06618482],[153327.40935402,169457.05552189]]},"geometry_name":"GEOM","properties":{"INSPIRE_ID":"https://databrussels.be/id/streetaxe/76621","TYPE":"S","HIERARCHY":"MER","LVL":0,"STARTSN_ID":"https://databrussels.be/id/streetnode/5139","ENDSN_ID":"https://databrussels.be/id/streetnode/4790","STRNAMEFRE":"Avenue de Tervueren","STRNAMEDUT":"Tervurenlaan","SLOPE":0.81,"LENGTH":164.367314236311},"bbox":[153175.10725951,169457.05552189,153327.40935402,169517.19395943]},{"type":"Feature","id":"StreetAxes.fid--324554a4_1a031387ba0_2998","geometry":{"type":"LineString","coordinates":[[153271.5571721,169548.80065704],[153281.76828809,169545.15912681],[153287.685,169542.425],[153295.185,169538.635],[153307.85,169530.21],[153317.63,169522.16],[153329.91,169508.015],[153339.99685541,169497.97620652]]},"geometry_name":"GEOM","properties":{"INSPIRE_ID":"https://databrussels.be/id/streetaxe/76626","TYPE":"S","HIERARCHY":"IDR","LVL":0,"STARTSN_ID":"https://databrussels.be/id/streetnode/5140","ENDSN_ID":"https://databrussels.be/id/streetnode/4788","STRNAMEFRE":"Avenue de Tervueren","STRNAMEDUT":"Tervurenlaan","SLOPE":1.18,"LENGTH":86.6031232837949},"bbox":[153271.5571721,169497.97620652,153339.99685541,169548.80065704]},{"type":"Feature","id":"StreetAxes.fid--324554a4_1a031387ba0_2997","geometry":{"type":"LineString","coordinates":[[153239.81037471,169451.38833708],[153248.67468288,169448.50257731],[153263.50962898,169445.96361664],[153284.86130622,169445.59930011],[153299.94199893,169447.72817869],[153314.7585063,169451.78612908],[153327.40935402,169457.05552189]]},"geometry_name":"GEOM","properties":{"INSPIRE_ID":"https://databrussels.be/id/streetaxe/77686","TYPE":"S","HIERARCHY":"DC","LVL":0,"STARTSN_ID":"https://databrussels.be/id/streetnode/5142","ENDSN_ID":"https://databrussels.be/id/streetnode/4790","STRNAMEFRE":"Avenue de Tervueren","STRNAMEDUT":"Tervurenlaan","SLOPE":1.11,"LENGTH":90.0244052130435},"bbox":[153239.81037471,169445.59930011,153327.40935402,169457.05552189]},{"type":"Feature","id":"StreetAxes.fid--324554a4_1a031387ba0_299a","geometry":{"type":"LineString","coordinates":[[153286.56608119,169495.62576763],[153324.99047021,169477.9576383],[153335.3605409,169473.52120447]]},"geometry_name":"GEOM","properties":{"INSPIRE_ID":"https://databrussels.be/id/streetaxe/77689","TYPE":"S","HIERARCHY":"MER","LVL":0,"STARTSN_ID":"https://databrussels.be/id/streetnode/5138","ENDSN_ID":"https://databrussels.be/id/streetnode/5141","STRNAMEFRE":"Avenue de Tervueren","STRNAMEDUT":"Tervurenlaan","SLOPE":1.9,"LENGTH":53.5709995566455},"bbox":[153286.56608119,169473.52120447,153335.3605409,169495.62576763]},{"type":"Feature","id":"StreetAxes.fid--324554a4_1a031387ba0_29a9","geometry":{"type":"LineString","coordinates":[[153239.81037471,169451.38833708],[153237.5945,169444.9035],[153207.31,169351.276],[153204.835,169344.718]]},"geometry_name":"GEOM","properties":{"INSPIRE_ID":"https://databrussels.be/id/streetaxe/77748","TYPE":"S","HIERARCHY":"DC","LVL":0,"STARTSN_ID":"https://databrussels.be/id/streetnode/5142","ENDSN_ID":"https://databrussels.be/id/streetnode/515","STRNAMEFRE":"Avenue Roger Vandendriessche","STRNAMEDUT":"Roger Vandendriesschelaan","SLOPE":1.86,"LENGTH":112.266019160899},"bbox":[153204.835,169344.718,153239.81037471,169451.38833708]},{"type":"Feature","id":"StreetAxes.fid--324554a4_1a031387ba0_29a7","geometry":{"type":"LineString","coordinates":[[153168.94995595,169504.25861885],[153175.00688256,169502.40499848],[153182.62499924,169492.00309197],[153197.98068435,169475.15766595],[153214.16935311,169463.08393404],[153230.94606653,169454.27409685],[153239.81037471,169451.38833708]]},"geometry_name":"GEOM","properties":{"INSPIRE_ID":"https://databrussels.be/id/streetaxe/78138","TYPE":"S","HIERARCHY":"DC","LVL":0,"STARTSN_ID":"https://databrussels.be/id/streetnode/5143","ENDSN_ID":"https://databrussels.be/id/streetnode/5142","STRNAMEFRE":"Avenue de Tervueren","STRNAMEDUT":"Tervurenlaan","SLOPE":0.06,"LENGTH":90.488054824927},"bbox":[153168.94995595,169451.38833708,153239.81037471,169504.25861885]},{"type":"Feature","id":"StreetAxes.fid--324554a4_1a031387ba0_29a4","geometry":{"type":"LineString","coordinates":[[153006.62972985,169556.70051522],[153005,169551.715],[152965.534,169430.696],[152963.379,169424.118]]},"geometry_name":"GEOM","properties":{"INSPIRE_ID":"https://databrussels.be/id/streetaxe/79069","TYPE":"S","HIERARCHY":"DR","LVL":0,"STARTSN_ID":"https://databrussels.be/id/streetnode/5330","ENDSN_ID":"https://databrussels.be/id/streetnode/2680","STRNAMEFRE":"Rue André Fauchille","STRNAMEDUT":"André Fauchillestraat","SLOPE":2.19,"LENGTH":139.458778580875},"bbox":[152963.379,169424.118,153006.62972985,169556.70051522]},{"type":"Feature","id":"StreetAxes.fid--324554a4_1a031387ba0_29ac","geometry":{"type":"LineString","coordinates":[[153140.42123586,169103.2378005],[153146.719,169083.056],[153148.461,169079.246],[153182.547,169017.256],[153190.44941901,169002.97214522]]},"geometry_name":"GEOM","properties":{"INSPIRE_ID":"https://databrussels.be/id/streetaxe/80798","TYPE":"S","HIERARCHY":"DC","LVL":0,"STARTSN_ID":"https://databrussels.be/id/streetnode/12131","ENDSN_ID":"https://databrussels.be/id/streetnode/13419","STRNAMEFRE":"Avenue Roger Vandendriessche","STRNAMEDUT":"Roger Vandendriesschelaan","SLOPE":8.35,"LENGTH":112.398365250225},"bbox":[153140.42123586,169002.97214522,153190.44941901,169103.2378005]},{"type":"Feature","id":"StreetAxes.fid--324554a4_1a031387ba0_298a","geometry":{"type":"LineString","coordinates":[[153365.24617949,169081.05972319],[153365.1251587,169080.28915538],[153364.03979735,169077.50255446],[153362.17836735,169074.84554624],[153358.2845,169071.951],[153353.09,169069.356],[153234.154,169006.845],[153229.94,169004.871],[153220.351,169001.403],[153210.04639048,168998.46202287],[153203.46310756,168997.08279565]]},"geometry_name":"GEOM","properties":{"INSPIRE_ID":"https://databrussels.be/id/streetaxe/80799","TYPE":"S","HIERARCHY":"IDR","LVL":0,"STARTSN_ID":"https://databrussels.be/id/streetnode/12133","ENDSN_ID":"https://databrussels.be/id/streetnode/13417","STRNAMEFRE":"Avenue Général de Longueville","STRNAMEDUT":"Generaal de Longuevillelaan","SLOPE":0.93,"LENGTH":184.32869104778},"bbox":[153203.46310756,168997.08279565,153365.24617949,169081.05972319]},{"type":"Feature","id":"StreetAxes.fid--324554a4_1a031387ba0_299d","geometry":{"type":"LineString","coordinates":[[153335.3605409,169473.52120447],[153345.15916637,169469.32924139],[153680.56363162,169359.49844339],[153691.6281018,169356.6684933]]},"geometry_name":"GEOM","properties":{"INSPIRE_ID":"https://databrussels.be/id/streetaxe/81542","TYPE":"S","HIERARCHY":"MER","LVL":0,"STARTSN_ID":"https://databrussels.be/id/streetnode/5141","ENDSN_ID":"https://databrussels.be/id/streetnode/5297","STRNAMEFRE":"Avenue de Tervueren","STRNAMEDUT":"Tervurenlaan","SLOPE":3.43,"LENGTH":375.007413614847},"bbox":[153335.3605409,169356.6684933,153691.6281018,169473.52120447]},{"type":"Feature","id":"StreetAxes.fid--324554a4_1a031387ba0_2992","geometry":{"type":"LineString","coordinates":[[153365.39450826,169100.19493016],[153373.0235,169100.561],[153388.024,169101.313],[153402.609,169102.867],[153416.1025,169105.2465],[153421.68011209,169106.67304912]]},"geometry_name":"GEOM","properties":{"INSPIRE_ID":"https://databrussels.be/id/streetaxe/81819","TYPE":"S","HIERARCHY":"IDR","LVL":0,"STARTSN_ID":"https://databrussels.be/id/streetnode/13413","ENDSN_ID":"https://databrussels.be/id/streetnode/12130","STRNAMEFRE":"Avenue Jules César","STRNAMEDUT":"Julius Caesarlaan","SLOPE":5.25,"LENGTH":56.7835123820965},"bbox":[153365.39450826,169100.19493016,153421.68011209,169106.67304912]},{"type":"Feature","id":"StreetAxes.fid--324554a4_1a031387ba0_298d","geometry":{"type":"LineString","coordinates":[[153365.39450826,169100.19493016],[153349.6,169100.378],[153284.675,169101.544],[153261.13813067,169101.95010487]]},"geometry_name":"GEOM","properties":{"INSPIRE_ID":"https://databrussels.be/id/streetaxe/81820","TYPE":"S","HIERARCHY":"DR","LVL":0,"STARTSN_ID":"https://databrussels.be/id/streetnode/13413","ENDSN_ID":"https://databrussels.be/id/streetnode/12129","STRNAMEFRE":"Avenue Jules César","STRNAMEDUT":"Julius Caesarlaan","SLOPE":4.61,"LENGTH":104.271411072358},"bbox":[153261.13813067,169100.19493016,153365.39450826,169101.95010487]},{"type":"Feature","id":"StreetAxes.fid--324554a4_1a031387ba0_298b","geometry":{"type":"LineString","coordinates":[[153262.71326104,169120.17153004],[153259.622258,169120.083179],[153252.03652592,169117.88475495],[153238.1755,169112.219],[153235.67370772,169110.82824875],[153234.332291,169109.061028],[153234.00160757,169102.41844033]]},"geometry_name":"GEOM","properties":{"INSPIRE_ID":"https://databrussels.be/id/streetaxe/81821","TYPE":"S","HIERARCHY":"DR","LVL":0,"STARTSN_ID":"https://databrussels.be/id/streetnode/13414","ENDSN_ID":"https://databrussels.be/id/streetnode/12132","STRNAMEFRE":"Avenue de l'Horizon","STRNAMEDUT":"Horizonlaan","SLOPE":1.54,"LENGTH":37.6962562309682},"bbox":[153234.00160757,169102.41844033,153262.71326104,169120.17153004]},{"type":"Feature","id":"StreetAxes.fid--324554a4_1a031387ba0_2987","geometry":{"type":"LineString","coordinates":[[153497.74267114,168984.40156858],[153498.824,168991.819],[153498.9,168993.8265],[153500.11528708,169002.8626942]]},"geometry_name":"GEOM","properties":{"INSPIRE_ID":"https://databrussels.be/id/streetaxe/81873","TYPE":"S","HIERARCHY":"DC","LVL":0,"STARTSN_ID":"https://databrussels.be/id/streetnode/11907","ENDSN_ID":"https://databrussels.be/id/streetnode/11912","STRNAMEFRE":"Avenue de l'Atlantique","STRNAMEDUT":"Atlantische Oceaanlaan","SLOPE":1.45,"LENGTH":18.6223248960143},"bbox":[153497.74267114,168984.40156858,153500.11528708,169002.8626942]},{"type":"Feature","id":"StreetAxes.fid--324554a4_1a031387ba0_2994","geometry":{"type":"LineString","coordinates":[[153481.15121617,168996.38189981],[153500.11528708,169002.8626942]]},"geometry_name":"GEOM","properties":{"INSPIRE_ID":"https://databrussels.be/id/streetaxe/81876","TYPE":"S","HIERARCHY":"DR","LVL":0,"STARTSN_ID":"https://databrussels.be/id/streetnode/11911","ENDSN_ID":"https://databrussels.be/id/streetnode/11912","STRNAMEFRE":"Rue du Bemel","STRNAMEDUT":"Bemelstraat","SLOPE":3.84,"LENGTH":20.0408752686436},"bbox":[153481.15121617,168996.38189981,153500.11528708,169002.8626942]},{"type":"Feature","id":"StreetAxes.fid--324554a4_1a031387ba0_2999","geometry":{"type":"LineString","coordinates":[[153338.48527793,169493.40039523],[153324.83961136,169493.41757533],[153295.86080419,169497.66795876],[153286.56608119,169495.62576763]]},"geometry_name":"GEOM","properties":{"INSPIRE_ID":"https://databrussels.be/id/streetaxe/83491","TYPE":"S","HIERARCHY":"MER","LVL":0,"STARTSN_ID":"https://databrussels.be/id/streetnode/4789","ENDSN_ID":"https://databrussels.be/id/streetnode/5138","STRNAMEFRE":"Avenue de Tervueren","STRNAMEDUT":"Tervurenlaan","SLOPE":2.61,"LENGTH":52.4509612964713},"bbox":[153286.56608119,169493.40039523,153338.48527793,169497.66795876]},{"type":"Feature","id":"StreetAxes.fid--324554a4_1a031387ba0_2989","geometry":{"type":"LineString","coordinates":[[153466.58087659,169455.03922483],[153486.39448021,169448.49024282],[153629.70742977,169400.41365308],[153638.088,169399.7715],[153669.88,169389.27],[153687.27,169382.715],[153695.95645084,169380.43071838]]},"geometry_name":"GEOM","properties":{"INSPIRE_ID":"https://databrussels.be/id/streetaxe/83599","TYPE":"S","HIERARCHY":"DR","LVL":0,"STARTSN_ID":"https://databrussels.be/id/streetnode/5296","ENDSN_ID":"https://databrussels.be/id/streetnode/5299","STRNAMEFRE":"Avenue de Tervueren","STRNAMEDUT":"Tervurenlaan","SLOPE":3.67,"LENGTH":241.482754066301},"bbox":[153466.58087659,169380.43071838,153695.95645084,169455.03922483]},{"type":"Feature","id":"StreetAxes.fid--324554a4_1a031387ba0_29a2","geometry":{"type":"LineString","coordinates":[[153466.58087659,169455.03922483],[153470.8465,169468.4085],[153525.03,169533.042],[153531.281,169540.452]]},"geometry_name":"GEOM","properties":{"INSPIRE_ID":"https://databrussels.be/id/streetaxe/83600","TYPE":"S","HIERARCHY":"DR","LVL":0,"STARTSN_ID":"https://databrussels.be/id/streetnode/5296","ENDSN_ID":"https://databrussels.be/id/streetnode/4256","STRNAMEFRE":"Avenue Père Damien","STRNAMEDUT":"Pater Damiaanlaan","SLOPE":2.98,"LENGTH":108.068397063444},"bbox":[153466.58087659,169455.03922483,153531.281,169540.452]},{"type":"Feature","id":"StreetAxes.fid--324554a4_1a031387ba0_29a1","geometry":{"type":"LineString","coordinates":[[153339.99685541,169497.97620652],[153351.77800009,169492.96900005],[153447.86946811,169461.22389874],[153466.58087659,169455.03922483]]},"geometry_name":"GEOM","properties":{"INSPIRE_ID":"https://databrussels.be/id/streetaxe/84704","TYPE":"S","HIERARCHY":"DR","LVL":0,"STARTSN_ID":"https://databrussels.be/id/streetnode/4788","ENDSN_ID":"https://databrussels.be/id/streetnode/5296","STRNAMEFRE":"Avenue de Tervueren","STRNAMEDUT":"Tervurenlaan","SLOPE":3.1,"LENGTH":133.70751825464},"bbox":[153339.99685541,169455.03922483,153466.58087659,169497.97620652]},{"type":"Feature","id":"StreetAxes.fid--324554a4_1a031387ba0_299b","geometry":{"type":"LineString","coordinates":[[153327.40935402,169457.05552189],[153338.67741703,169448.87522368],[153562.48175269,169374.89482307],[153569.62644386,169372.52025911]]},"geometry_name":"GEOM","properties":{"INSPIRE_ID":"https://databrussels.be/id/streetaxe/84705","TYPE":"S","HIERARCHY":"MER","LVL":0,"STARTSN_ID":"https://databrussels.be/id/streetnode/4790","ENDSN_ID":"https://databrussels.be/id/streetnode/5302","STRNAMEFRE":"Avenue de Tervueren","STRNAMEDUT":"Tervurenlaan","SLOPE":3.35,"LENGTH":257.168097665335},"bbox":[153327.40935402,169372.52025911,153569.62644386,169457.05552189]},{"type":"Feature","id":"StreetAxes.fid--324554a4_1a031387ba0_2991","geometry":{"type":"LineString","coordinates":[[153421.68011209,169106.67304912],[153421.9595725,169103.3072925],[153421.763,169100.1315],[153421.1847675,169098.5039415],[153419.533,169097.1975],[153377.855644,169079.5959335],[153373.496312,169079.107538],[153367.8788745,169080.4367625],[153365.24617949,169081.05972319]]},"geometry_name":"GEOM","properties":{"INSPIRE_ID":"https://databrussels.be/id/streetaxe/85821","TYPE":"S","HIERARCHY":"IDR","LVL":0,"STARTSN_ID":"https://databrussels.be/id/streetnode/12130","ENDSN_ID":"https://databrussels.be/id/streetnode/12133","STRNAMEFRE":"Avenue Jules César","STRNAMEDUT":"Julius Caesarlaan","SLOPE":3.61,"LENGTH":68.4987287645287},"bbox":[153365.24617949,169079.107538,153421.9595725,169106.67304912]},{"type":"Feature","id":"StreetAxes.fid--324554a4_1a031387ba0_298c","geometry":{"type":"LineString","coordinates":[[153234.00160757,169102.41844033],[153261.13813067,169101.95010487]]},"geometry_name":"GEOM","properties":{"INSPIRE_ID":"https://databrussels.be/id/streetaxe/85822","TYPE":"S","HIERARCHY":"DR","LVL":0,"STARTSN_ID":"https://databrussels.be/id/streetnode/12132","ENDSN_ID":"https://databrussels.be/id/streetnode/12129","STRNAMEFRE":"Avenue Jules César","STRNAMEDUT":"Julius Caesarlaan","SLOPE":3.72,"LENGTH":27.1405641818071},"bbox":[153234.00160757,169101.95010487,153261.13813067,169102.41844033]},{"type":"Feature","id":"StreetAxes.fid--324554a4_1a031387ba0_29ae","geometry":{"type":"LineString","coordinates":[[153234.00160757,169102.41844033],[153210.856,169102.818],[153186.1567445,169103.029235],[153179.0655,169103.578],[153171.05,169104.9215],[153163.43000011,169106.85699986],[153149.54038331,169111.80633533]]},"geometry_name":"GEOM","properties":{"INSPIRE_ID":"https://databrussels.be/id/streetaxe/85823","TYPE":"S","HIERARCHY":"DR","LVL":0,"STARTSN_ID":"https://databrussels.be/id/streetnode/12132","ENDSN_ID":"https://databrussels.be/id/streetnode/12134","STRNAMEFRE":"Avenue Jules César","STRNAMEDUT":"Julius Caesarlaan","SLOPE":4.43,"LENGTH":85.6960238967526},"bbox":[153149.54038331,169102.41844033,153234.00160757,169111.80633533]},{"type":"Feature","id":"StreetAxes.fid--324554a4_1a031387ba0_2990","geometry":{"type":"LineString","coordinates":[[153365.24617949,169081.05972319],[153365.3265,169091.4215],[153365.39450826,169100.19493016]]},"geometry_name":"GEOM","properties":{"INSPIRE_ID":"https://databrussels.be/id/streetaxe/88015","TYPE":"I","HIERARCHY":"IDR","LVL":0,"STARTSN_ID":"https://databrussels.be/id/streetnode/12133","ENDSN_ID":"https://databrussels.be/id/streetnode/13413","STRNAMEFRE":"Avenue Jules César","STRNAMEDUT":"Julius Caesarlaan","SLOPE":2.66,"LENGTH":19.1357818602113},"bbox":[153365.24617949,169081.05972319,153365.39450826,169100.19493016]},{"type":"Feature","id":"StreetAxes.fid--324554a4_1a031387ba0_29b2","geometry":{"type":"LineString","coordinates":[[153138.62593327,169123.5983357],[153134.41311271,169122.27519029],[153131.82527082,169119.82666151],[153129.19001931,169115.64719414]]},"geometry_name":"GEOM","properties":{"INSPIRE_ID":"https://databrussels.be/id/streetaxe/88016","TYPE":"I","HIERARCHY":"DC","LVL":0,"STARTSN_ID":"https://databrussels.be/id/streetnode/13415","ENDSN_ID":"https://databrussels.be/id/streetnode/12128","STRNAMEFRE":"Avenue Roger Vandendriessche","STRNAMEDUT":"Roger Vandendriesschelaan","SLOPE":1.08,"LENGTH":12.9192331797826},"bbox":[153129.19001931,169115.64719414,153138.62593327,169123.5983357]},{"type":"Feature","id":"StreetAxes.fid--324554a4_1a031387ba0_298e","geometry":{"type":"LineString","coordinates":[[153262.71326104,169120.17153004],[153261.5469697,169118.08786219],[153261.275893,169115.978306],[153261.13813067,169101.95010487]]},"geometry_name":"GEOM","properties":{"INSPIRE_ID":"https://databrussels.be/id/streetaxe/88017","TYPE":"I","HIERARCHY":"DR","LVL":0,"STARTSN_ID":"https://databrussels.be/id/streetnode/13414","ENDSN_ID":"https://databrussels.be/id/streetnode/12129","STRNAMEFRE":"Avenue Jules César","STRNAMEDUT":"Julius Caesarlaan","SLOPE":2.32,"LENGTH":18.5436456947968},"bbox":[153261.13813067,169101.95010487,153262.71326104,169120.17153004]},{"type":"Feature","id":"StreetAxes.fid--324554a4_1a031387ba0_29b1","geometry":{"type":"LineString","coordinates":[[153149.54038331,169111.80633533],[153149.311974,169115.4305745],[153147.40320246,169119.45780567],[153144.14311371,169122.26342051],[153141.59854261,169123.50919983],[153138.62593327,169123.5983357]]},"geometry_name":"GEOM","properties":{"INSPIRE_ID":"https://databrussels.be/id/streetaxe/88018","TYPE":"I","HIERARCHY":"DC","LVL":0,"STARTSN_ID":"https://databrussels.be/id/streetnode/12134","ENDSN_ID":"https://databrussels.be/id/streetnode/13415","STRNAMEFRE":"Avenue Roger Vandendriessche","STRNAMEDUT":"Roger Vandendriesschelaan","SLOPE":2.47,"LENGTH":18.1963398649938},"bbox":[153138.62593327,169111.80633533,153149.54038331,169123.5983357]},{"type":"Feature","id":"StreetAxes.fid--324554a4_1a031387ba0_29af","geometry":{"type":"LineString","coordinates":[[153129.19001931,169115.64719414],[153129.56414982,169111.37192157],[153130.17538522,169108.98069232],[153132.60906531,169105.68239572],[153135.56699521,169103.83190535],[153140.42123586,169103.2378005]]},"geometry_name":"GEOM","properties":{"INSPIRE_ID":"https://databrussels.be/id/streetaxe/88019","TYPE":"I","HIERARCHY":"DC","LVL":0,"STARTSN_ID":"https://databrussels.be/id/streetnode/12128","ENDSN_ID":"https://databrussels.be/id/streetnode/12131","STRNAMEFRE":"Avenue Roger Vandendriessche","STRNAMEDUT":"Roger Vandendriesschelaan","SLOPE":4.31,"LENGTH":19.2382350791195},"bbox":[153129.19001931,169103.2378005,153140.42123586,169115.64719414]},{"type":"Feature","id":"StreetAxes.fid--324554a4_1a031387ba0_29b0","geometry":{"type":"LineString","coordinates":[[153140.42123586,169103.2378005],[153144.31447901,169104.4764933],[153145.46325995,169105.60090731],[153147.05747368,169107.28515899],[153149.54038331,169111.80633533]]},"geometry_name":"GEOM","properties":{"INSPIRE_ID":"https://databrussels.be/id/streetaxe/88020","TYPE":"I","HIERARCHY":"DC","LVL":0,"STARTSN_ID":"https://databrussels.be/id/streetnode/12131","ENDSN_ID":"https://databrussels.be/id/streetnode/12134","STRNAMEFRE":"Avenue Roger Vandendriessche","STRNAMEDUT":"Roger Vandendriesschelaan","SLOPE":3.95,"LENGTH":13.1702194508488},"bbox":[153140.42123586,169103.2378005,153149.54038331,169111.80633533]},{"type":"Feature","id":"StreetAxes.fid--324554a4_1a031387ba0_29aa","geometry":{"type":"LineString","coordinates":[[153190.44941901,169002.97214522],[153186.536559,168999.1094805],[153185.533068,168995.4348545],[153185.81407,168991.732084],[153187.86666991,168987.88511741]]},"geometry_name":"GEOM","properties":{"INSPIRE_ID":"https://databrussels.be/id/streetaxe/88022","TYPE":"I","HIERARCHY":"IDR","LVL":0,"STARTSN_ID":"https://databrussels.be/id/streetnode/13419","ENDSN_ID":"https://databrussels.be/id/streetnode/13418","STRNAMEFRE":"Avenue Général de Longueville","STRNAMEDUT":"Generaal de Longuevillelaan","SLOPE":6.27,"LENGTH":17.3811526986099},"bbox":[153185.533068,168987.88511741,153190.44941901,169002.97214522]},{"type":"Feature","id":"StreetAxes.fid--324554a4_1a031387ba0_29ab","geometry":{"type":"LineString","coordinates":[[153190.44941901,169002.97214522],[153195.45520441,169003.83466451],[153199.35042682,169002.43643262],[153202.28109334,168999.80143945],[153203.46310756,168997.08279565]]},"geometry_name":"GEOM","properties":{"INSPIRE_ID":"https://databrussels.be/id/streetaxe/88024","TYPE":"I","HIERARCHY":"IDR","LVL":0,"STARTSN_ID":"https://databrussels.be/id/streetnode/13419","ENDSN_ID":"https://databrussels.be/id/streetnode/13417","STRNAMEFRE":"Avenue Général de Longueville","STRNAMEDUT":"Generaal de Longuevillelaan","SLOPE":12.03,"LENGTH":16.1236777339086},"bbox":[153190.44941901,168997.08279565,153203.46310756,169003.83466451]},{"type":"Feature","id":"StreetAxes.fid--324554a4_1a031387ba0_29a8","geometry":{"type":"LineString","coordinates":[[153179.54007854,169532.32161247],[153188.31607874,169528.45234748],[153232.52262059,169515.13903201],[153273.22530163,169501.76006474],[153286.56608119,169495.62576763]]},"geometry_name":"GEOM","properties":{"INSPIRE_ID":"https://databrussels.be/id/streetaxe/88805","TYPE":"S","HIERARCHY":"MER","LVL":0,"STARTSN_ID":"https://databrussels.be/id/streetnode/5200","ENDSN_ID":"https://databrussels.be/id/streetnode/5138","STRNAMEFRE":"Avenue de Tervueren","STRNAMEDUT":"Tervurenlaan","SLOPE":0.08,"LENGTH":113.287533397239},"bbox":[153179.54007854,169495.62576763,153286.56608119,169532.32161247]},{"type":"Feature","id":"StreetAxes.fid--324554a4_1a031387ba0_2988","geometry":{"type":"LineString","coordinates":[[153506.23180877,169011.60882934],[153502.744873,169010.561599],[153500.81209396,169008.56112974],[153499.70942973,169006.13502701],[153500.11528708,169002.8626942]]},"geometry_name":"GEOM","properties":{"INSPIRE_ID":"https://databrussels.be/id/streetaxe/89132","TYPE":"I","HIERARCHY":"DC","LVL":0,"STARTSN_ID":"https://databrussels.be/id/streetnode/11914","ENDSN_ID":"https://databrussels.be/id/streetnode/11912","STRNAMEFRE":"Avenue de l'Atlantique","STRNAMEDUT":"Atlantische Oceaanlaan","SLOPE":1.78,"LENGTH":12.3847703822241},"bbox":[153499.70942973,169002.8626942,153506.23180877,169011.60882934]},{"type":"Feature","id":"StreetAxes.fid--324554a4_1a031387ba0_2996","geometry":{"type":"LineString","coordinates":[[153182.42667295,169543.44807101],[153189.6877573,169542.52886211],[153197.06537213,169542.52905319],[153212.98504095,169545.31410053],[153222.08139207,169546.80416418],[153229.08368883,169547.48060219],[153239.60535574,169547.57465855],[153245.14110374,169547.28432006],[153250.60049641,169546.6326259],[153260.10132638,169544.87942648],[153270.39680778,169541.93229203],[153277.63759813,169539.29257907],[153283.43728158,169537.00192341],[153291.07991086,169532.96250928],[153297.99105943,169528.61716469],[153307.10427678,169521.73237037],[153313.10629674,169515.42015172],[153326.71445159,169501.32779637],[153338.48527793,169493.40039523]]},"geometry_name":"GEOM","properties":{"INSPIRE_ID":"https://databrussels.be/id/streetaxe/90800","TYPE":"C","HIERARCHY":"IDR","LVL":0,"STARTSN_ID":"https://databrussels.be/id/streetnode/5144","ENDSN_ID":"https://databrussels.be/id/streetnode/4789","STRNAMEFRE":"Avenue de Tervueren","STRNAMEDUT":"Tervurenlaan","SLOPE":0.66,"LENGTH":173.70855288583},"bbox":[153182.42667295,169493.40039523,153338.48527793,169547.57465855]},{"type":"Feature","id":"StreetAxes.fid--324554a4_1a031387ba0_299e","geometry":{"type":"LineString","coordinates":[[153335.3605409,169473.52120447],[153337.24330105,169479.58118252],[153338.48527793,169493.40039523]]},"geometry_name":"GEOM","properties":{"INSPIRE_ID":"https://databrussels.be/id/streetaxe/90801","TYPE":"I","HIERARCHY":"MER","LVL":0,"STARTSN_ID":"https://databrussels.be/id/streetnode/5141","ENDSN_ID":"https://databrussels.be/id/streetnode/4789","STRNAMEFRE":"Avenue de Tervueren","STRNAMEDUT":"Tervurenlaan","SLOPE":1.73,"LENGTH":20.2206273245341},"bbox":[153335.3605409,169473.52120447,153338.48527793,169493.40039523]},{"type":"Feature","id":"StreetAxes.fid--324554a4_1a031387ba0_29a0","geometry":{"type":"LineString","coordinates":[[153339.99685541,169497.97620652],[153338.48527793,169493.40039523]]},"geometry_name":"GEOM","properties":{"INSPIRE_ID":"https://databrussels.be/id/streetaxe/90803","TYPE":"IC","HIERARCHY":"IDR","LVL":0,"STARTSN_ID":"https://databrussels.be/id/streetnode/4788","ENDSN_ID":"https://databrussels.be/id/streetnode/4789","STRNAMEFRE":"Avenue de Tervueren","STRNAMEDUT":"Tervurenlaan","SLOPE":2.28,"LENGTH":4.81901603193588},"bbox":[153338.48527793,169493.40039523,153339.99685541,169497.97620652]},{"type":"Feature","id":"StreetAxes.fid--324554a4_1a031387ba0_299f","geometry":{"type":"LineString","coordinates":[[153338.48527793,169493.40039523],[153350.72078245,169486.87965681],[153662.21237806,169384.23770426],[153686.85438031,169376.57938565],[153694.49322725,169374.57145572]]},"geometry_name":"GEOM","properties":{"INSPIRE_ID":"https://databrussels.be/id/streetaxe/90959","TYPE":"C","HIERARCHY":"DR","LVL":0,"STARTSN_ID":"https://databrussels.be/id/streetnode/4789","ENDSN_ID":"https://databrussels.be/id/streetnode/5300","STRNAMEFRE":"Avenue de Tervueren","STRNAMEDUT":"Tervurenlaan","SLOPE":3.44,"LENGTH":375.534618517295},"bbox":[153338.48527793,169374.57145572,153694.49322725,169493.40039523]},{"type":"Feature","id":"StreetAxes.fid--324554a4_1a031387ba0_299c","geometry":{"type":"LineString","coordinates":[[153327.40935402,169457.05552189],[153333.42300774,169467.28493035],[153335.3605409,169473.52120447]]},"geometry_name":"GEOM","properties":{"INSPIRE_ID":"https://databrussels.be/id/streetaxe/91483","TYPE":"I","HIERARCHY":"MER","LVL":0,"STARTSN_ID":"https://databrussels.be/id/streetnode/4790","ENDSN_ID":"https://databrussels.be/id/streetnode/5141","STRNAMEFRE":"Avenue de Tervueren","STRNAMEDUT":"Tervurenlaan","SLOPE":1.9,"LENGTH":18.3964464263868},"bbox":[153327.40935402,169457.05552189,153335.3605409,169473.52120447]},{"type":"Feature","id":"StreetAxes.fid--324554a4_1a031387ba0_2993","geometry":{"type":"LineString","coordinates":[[153502.70182312,169131.69421888],[153481.976,169122.92],[153447.3275,169112.213],[153421.68011209,169106.67304912]]},"geometry_name":"GEOM","properties":{"INSPIRE_ID":"https://databrussels.be/id/streetaxe/98475","TYPE":"S","HIERARCHY":"IDR","LVL":0,"STARTSN_ID":"https://databrussels.be/id/streetnode/16957","ENDSN_ID":"https://databrussels.be/id/streetnode/12130","STRNAMEFRE":"Avenue Jules César","STRNAMEDUT":"Julius Caesarlaan","SLOPE":3.81,"LENGTH":85.0105983046477},"bbox":[153421.68011209,169106.67304912,153502.70182312,169131.69421888]}],"numberReturned":52,"grand_bruxelles_source":{"authority":"Paradigm / Brussels-Capital Region","service":"https://geoservices-urbis.irisnet.be/geoserver/urbisvector/wfs","layer":"urbisvector:StreetAxes","crs":"EPSG:31370","bbox":[153000.0,169000.0,153500.0,169500.0],"cell_id":"bxl-e153000-n169000-s500","ownership":"bbox_intersection_source_unclipped"}}
