{"type":"FeatureCollection","totalFeatures":54,"numberMatched":54,"timeStamp":"2026-08-23T13:19:20.616Z","crs":{"type":"name","properties":{"name":"urn:ogc:def:crs:EPSG::31370"}},"bbox":[149464.263782,173439.156,150236.53,174225.313],"features":[{"type":"Feature","id":"Buildings.fid--324554a4_1a02ebf4994_-5bfe","geometry":{"type":"Polygon","coordinates":[[[149704.35,173703.52],[149699.87,173707.12],[149698.13,173704.95],[149702.61,173701.36],[149704.35,173703.52]]]},"geometry_name":"GEOM","properties":{"INSPIRE_ID":"https://databrussels.be/id/building/1654949","BLOCK_ID":"https://databrussels.be/id/block/27160","AREA":16},"bbox":[149698.13,173701.36,149704.35,173707.12]},{"type":"Feature","id":"Buildings.fid--324554a4_1a02ebf4994_-5bef","geometry":{"type":"Polygon","coordinates":[[[149531.78,173625.39],[149546.08,173617.97],[149548.46,173622.55],[149541.86,173625.98],[149542.08,173626.4],[149538.66,173628.18],[149538.45,173627.79],[149534.18,173630.01],[149531.78,173625.39]]]},"geometry_name":"GEOM","properties":{"INSPIRE_ID":"https://databrussels.be/id/building/1656325","BLOCK_ID":"https://databrussels.be/id/block/27160","AREA":85},"bbox":[149531.78,173617.97,149548.46,173630.01]},{"type":"Feature","id":"Buildings.fid--324554a4_1a02ebf4994_-5c01","geometry":{"type":"Polygon","coordinates":[[[149702.4,173783.01],[149713.38,173799.73],[149679.79,173821.92],[149677.32,173818.14],[149669.11,173805.54],[149668.88,173805.18],[149702.4,173783.01]]]},"geometry_name":"GEOM","properties":{"INSPIRE_ID":"https://databrussels.be/id/building/1659011","BLOCK_ID":"https://databrussels.be/id/block/27233","AREA":804},"bbox":[149668.88,173783.01,149713.38,173821.92]},{"type":"Feature","id":"Buildings.fid--324554a4_1a02ebf4994_-5bea","geometry":{"type":"Polygon","coordinates":[[[149565.406,173622.021],[149567.99,173620.512],[149569.51,173623.114],[149566.925,173624.624],[149565.406,173622.021]]]},"geometry_name":"GEOM","properties":{"INSPIRE_ID":"https://databrussels.be/id/building/1661912","BLOCK_ID":"https://databrussels.be/id/block/27160","AREA":9},"bbox":[149565.406,173620.512,149569.51,173624.624]},{"type":"Feature","id":"Buildings.fid--324554a4_1a02ebf4994_-5beb","geometry":{"type":"Polygon","coordinates":[[[149562.993,173617.89],[149565.443,173616.459],[149566.947,173619.035],[149564.49729394,173620.46582832],[149562.993,173617.89]]]},"geometry_name":"GEOM","properties":{"INSPIRE_ID":"https://databrussels.be/id/building/1661913","BLOCK_ID":"https://databrussels.be/id/block/27160","AREA":8},"bbox":[149562.993,173616.459,149566.947,173620.46582832]},{"type":"Feature","id":"Buildings.fid--324554a4_1a02ebf4994_-5bec","geometry":{"type":"Polygon","coordinates":[[[149546.811,173612.493],[149556.528,173606.819],[149562.993,173617.89],[149564.497,173620.465],[149565.406,173622.021],[149566.925,173624.624],[149567.71,173625.967],[149557.993,173631.641],[149546.811,173612.493]]]},"geometry_name":"GEOM","properties":{"INSPIRE_ID":"https://databrussels.be/id/building/1668411","BLOCK_ID":"https://databrussels.be/id/block/27160","AREA":250},"bbox":[149546.811,173606.819,149567.71,173631.641]},{"type":"Feature","id":"Buildings.fid--324554a4_1a02ebf4994_-5bfb","geometry":{"type":"Polygon","coordinates":[[[149726.11338552,173982.77959785],[149725.768195,173982.57306768],[149725.29833205,173982.22442045],[149724.87572668,173981.85652254],[149724.52787925,173981.42974637],[149724.28643845,173981.05152902],[149724.00192187,173980.45210229],[149723.80347626,173979.91425785],[149723.69423469,173979.2576511],[149723.68930705,173978.76983316],[149723.74747378,173978.12272903],[149723.89771076,173977.57739357],[149724.15539231,173977.02050602],[149724.38325088,173976.63682987],[149724.93080173,173975.98460405],[149725.44113068,173975.54554999],[149726.01002244,173975.20769659],[149726.34420157,173975.06629598],[149726.68507879,173974.9317597],[149727.37156255,173974.76959064],[149727.88127817,173974.75143227],[149728.22874044,173974.76357464],[149728.65809335,173974.79120954],[149729.36593443,173974.94340499],[149730.091334,173975.2428777],[149730.58775693,173975.60531283],[149731.12889187,173976.09544301],[149731.48170616,173976.52937842],[149731.7770119,173976.98824429],[149731.96833133,173977.55267745],[149732.06890532,173977.98481429],[149732.11436718,173978.41033594],[149732.15738067,173979.01106242],[149732.14141007,173979.55999025],[149732.01375295,173980.35294398],[149731.68518177,173981.13585188],[149731.23206036,173981.75631807],[149730.79557161,173982.18998257],[149730.16463406,173982.62706886],[149729.52837755,173982.98388915],[149728.77462093,173983.15833142],[149728.00260913,173983.22556049],[149727.19998475,173983.12523173],[149726.6131855,173982.9483434],[149726.11338552,173982.77959785]]]},"geometry_name":"GEOM","properties":{"INSPIRE_ID":"https://databrussels.be/id/building/1693926","BLOCK_ID":"https://databrussels.be/id/block/27233","AREA":57},"bbox":[149723.68930705,173974.75143227,149732.15738067,173983.22556049]},{"type":"Feature","id":"Buildings.fid--324554a4_1a02ebf4994_-5be4","geometry":{"type":"Polygon","coordinates":[[[149479.874302,173608.915302],[149495.18864789,173599.76538426],[149498.57064998,173597.73941515],[149502.96,173595.11],[149519.32,173585.201],[149509.69,173568.73],[149529.77,173556.79],[149537.66,173551.94],[149547.94,173568.86],[149555.08,173584.79],[149536.16974258,173594.95998555],[149528.30395423,173599.37709716],[149486.04419,173622.101989],[149479.874302,173608.915302]]]},"geometry_name":"GEOM","properties":{"INSPIRE_ID":"https://databrussels.be/id/building/1696450","BLOCK_ID":"https://databrussels.be/id/block/27160","AREA":1909},"bbox":[149479.874302,173551.94,149555.08,173622.101989]},{"type":"Feature","id":"Buildings.fid--324554a4_1a02ebf4994_-5c00","geometry":{"type":"MultiPolygon","coordinates":[[[[149717.6528,173871.47210034],[149714.5414,173873.53470034],[149681.4598,173823.63210034],[149716.1114,173800.58570034],[149708.1114,173788.56280034],[149716.6493,173782.74720034],[149771.307,173865.29900033],[149760.953,173872.37300034],[149752.6018,173859.95290034],[149739.3464,173868.92330034],[149738.8977,173868.18700034],[149722.6259,173878.97390034],[149717.6528,173871.47210034]]]]},"geometry_name":"GEOM","properties":{"INSPIRE_ID":"https://databrussels.be/id/building/1696454","BLOCK_ID":"https://databrussels.be/id/block/27233","AREA":3901},"bbox":[149681.4598,173782.74720034,149771.307,173878.97390034]},{"type":"Feature","id":"Buildings.fid--324554a4_1a02ebf4994_-5be0","geometry":{"type":"Polygon","coordinates":[[[149501.5603878,173536.142785],[149504.15819493,173534.7167113],[149506.37133429,173538.64775239],[149503.62,173540.25],[149501.5603878,173536.142785]]]},"geometry_name":"GEOM","properties":{"INSPIRE_ID":"https://databrussels.be/id/building/1696459","BLOCK_ID":"https://databrussels.be/id/block/27160","AREA":14},"bbox":[149501.5603878,173534.7167113,149506.37133429,173540.25]},{"type":"Feature","id":"Buildings.fid--324554a4_1a02ebf4994_-5bed","geometry":{"type":"Polygon","coordinates":[[[149545.25,173667.34],[149565.43,173655.19],[149575.76,173672.51],[149575.57,173672.6],[149576.49,173674.05],[149577.97,173673.19],[149577.43,173672.49],[149585.9,173667.81],[149586.15,173668.27],[149587.77,173667.24],[149571.04,173639.17],[149645.78,173594.45],[149685.23,173660.03],[149610.26,173704.67],[149593.65,173676.73],[149591.85,173677.8],[149592.13,173678.26],[149583.87,173683.17],[149583.58,173682.68],[149582.43,173683.37],[149593.57,173702.11],[149578.52,173711.06],[149591.7,173732.81],[149618.19,173716.94],[149650.63,173697.32],[149659.61,173712.16],[149633.2,173727.96],[149589.79,173753.73],[149587.94,173754.83],[149579.3,173740.24],[149588.87,173734.51],[149575.6,173712.8],[149573.27,173714.18],[149545.25,173667.34]]]},"geometry_name":"GEOM","properties":{"INSPIRE_ID":"https://databrussels.be/id/building/1699808","BLOCK_ID":"https://databrussels.be/id/block/27160","AREA":9622},"bbox":[149545.25,173594.45,149685.23,173754.83]},{"type":"Feature","id":"Buildings.fid--324554a4_1a02ebf4994_-5bf6","geometry":{"type":"Polygon","coordinates":[[[149763.32100109,173925.24198889],[149756.80790755,173929.23781729],[149754.985743,173926.26773776],[149761.49883654,173922.27190936],[149763.32100109,173925.24198889]]]},"geometry_name":"GEOM","properties":{"INSPIRE_ID":"https://databrussels.be/id/building/1704551","BLOCK_ID":"https://databrussels.be/id/block/27233","AREA":27},"bbox":[149754.985743,173922.27190936,149763.32100109,173929.23781729]},{"type":"Feature","id":"Buildings.fid--324554a4_1a02ebf4994_-5bdf","geometry":{"type":"Polygon","coordinates":[[[149519.21,173537.12],[149528.12,173531.69],[149535.49,173543.77],[149538.35,173545.13],[149541.098,173549.852],[149537.66,173551.94],[149529.77,173556.79],[149519.21,173537.12]]]},"geometry_name":"GEOM","properties":{"INSPIRE_ID":"https://databrussels.be/id/building/1705504","BLOCK_ID":"https://databrussels.be/id/block/27160","AREA":258},"bbox":[149519.21,173531.69,149541.098,173556.79]},{"type":"Feature","id":"Buildings.fid--324554a4_1a02ebf4994_-5be1","geometry":{"type":"Polygon","coordinates":[[[149495.61,173519.01],[149499.984,173516.61],[149504.79593193,173525.50099584],[149506.76,173529.13],[149502.44,173531.95],[149502.17384429,173531.44574599],[149500.59982801,173528.46364193],[149495.61,173519.01]]]},"geometry_name":"GEOM","properties":{"INSPIRE_ID":"https://databrussels.be/id/building/1707817","BLOCK_ID":"https://databrussels.be/id/block/27160","AREA":73},"bbox":[149495.61,173516.61,149506.76,173531.95]},{"type":"Feature","id":"Buildings.fid--324554a4_1a02ebf4994_-5bf4","geometry":{"type":"Polygon","coordinates":[[[149825.26,173887.81],[149804.95,173900.97],[149807.73,173905.26],[149809.29701902,173904.2440936],[149811.56001037,173907.55004771],[149812.84003472,173909.42000703],[149822.57001991,173902.7400427],[149823.30005405,173903.85996296],[149829.23994186,173900.01999117],[149828.59,173899.02],[149832.9,173896.25],[149829.42,173890.82],[149827.84,173891.83],[149825.26,173887.81]]]},"geometry_name":"GEOM","properties":{"INSPIRE_ID":"https://databrussels.be/id/building/1707882","BLOCK_ID":"https://databrussels.be/id/block/27233","AREA":280},"bbox":[149804.95,173887.81,149832.9,173909.42000703]},{"type":"Feature","id":"Buildings.fid--324554a4_1a02ebf4994_-5bfa","geometry":{"type":"Polygon","coordinates":[[[149825.847,174000],[149826.436,174000.875],[149826.51,174000.988],[149823.962,174002.653],[149812.708,174010.007],[149817.6,174017.941],[149798.487,174030.318],[149793.308,174022.538],[149771.523,174036.637],[149768.113,174031.401],[149765.767,174033.074],[149761.741,174030.053],[149764.746,174026.23],[149758.291,174016.318],[149755.974,174017.938],[149752.058,174014.871],[149755.017,174011.291],[149747.663,174000],[149732.165,173976.234],[149787.022,173940.461],[149813.022,173980.333],[149816.427,173978.113],[149823.338,173988.711],[149819.934,173990.932],[149825.847,174000]]]},"geometry_name":"GEOM","properties":{"INSPIRE_ID":"https://databrussels.be/id/building/1709280","BLOCK_ID":"https://databrussels.be/id/block/27233","AREA":5036},"bbox":[149732.165,173940.461,149826.51,174036.637]},{"type":"Feature","id":"Buildings.fid--324554a4_1a02ebf4994_-5bcf","geometry":{"type":"Polygon","coordinates":[[[149701.683,173501.181],[149714.3,173494.24],[149721.28,173492.51],[149748.21,173485.8],[149754.59,173484.21],[149761.68,173482.44],[149766.85,173481.16],[149769.53,173480.49],[149776.17,173478.84],[149785.669,173476.47],[149791.12,173475.11],[149797.28,173473.58],[149796.45,173505.89],[149796.33,173507.82],[149796.02,173511.02],[149790.52,173543.42],[149788.4,173555.95],[149784.22,173570.95],[149779.609,173586.542],[149776.878,173587.052],[149753.317,173592.817],[149750.016,173579.056],[149740.42,173581.36],[149727.3,173528.22],[149727.49,173528.17],[149725.92,173521.69],[149707.94,173526.21],[149701.683,173501.181]]]},"geometry_name":"GEOM","properties":{"INSPIRE_ID":"https://databrussels.be/id/building/1709282","BLOCK_ID":"https://databrussels.be/id/block/27160","AREA":6921},"bbox":[149701.683,173473.58,149797.28,173592.817]},{"type":"Feature","id":"Buildings.fid--324554a4_1a02ebf4994_-5bf8","geometry":{"type":"Polygon","coordinates":[[[149848.2776,173846.68674241],[149836.0153,173854.61364242],[149822.9979,173863.02874242],[149810.4708,173871.12674242],[149797.4534,173879.54174242],[149736.3002,173784.94244242],[149749.3176,173776.52744242],[149761.8447,173768.42934242],[149774.8621,173760.01434242],[149787.1245,173752.08744242],[149848.2776,173846.68674241]]]},"geometry_name":"GEOM","properties":{"INSPIRE_ID":"https://databrussels.be/id/building/1709283","BLOCK_ID":"https://databrussels.be/id/block/27233","AREA":6817},"bbox":[149736.3002,173752.08744242,149848.2776,173879.54174242]},{"type":"Feature","id":"Buildings.fid--324554a4_1a02ebf4994_-5bff","geometry":{"type":"Polygon","coordinates":[[[149683.60945619,173924.62450169],[149698.62096005,173914.91495528],[149710.35442637,173932.94093042],[149695.25060149,173942.93886107],[149683.60945619,173924.62450169]]]},"geometry_name":"GEOM","properties":{"INSPIRE_ID":"https://databrussels.be/id/building/1711346","BLOCK_ID":"https://databrussels.be/id/block/27233","AREA":389},"bbox":[149683.60945619,173914.91495528,149710.35442637,173942.93886107]},{"type":"Feature","id":"Buildings.fid--324554a4_1a02ebf4994_-5bdd","geometry":{"type":"Polygon","coordinates":[[[149555.31906042,173588.93459659],[149562.12969725,173602.01587241],[149547.6812659,173609.67388935],[149538.84124582,173593.52324417],[149555.08,173584.79000001],[149555.31906042,173588.93459659]]]},"geometry_name":"GEOM","properties":{"INSPIRE_ID":"https://databrussels.be/id/building/1711388","BLOCK_ID":"https://databrussels.be/id/block/27160","AREA":309},"bbox":[149538.84124582,173584.79000001,149562.12969725,173609.67388935]},{"type":"Feature","id":"Buildings.fid--324554a4_1a02ebf4994_-5bdc","geometry":{"type":"Polygon","coordinates":[[[149545.4884,173548.9097],[149548.6414,173554.0748],[149543.1291,173557.4398],[149539.9761,173552.2747],[149545.4884,173548.9097]]]},"geometry_name":"GEOM","properties":{"INSPIRE_ID":"https://databrussels.be/id/building/1775114","BLOCK_ID":"https://databrussels.be/id/block/27160","AREA":39},"bbox":[149539.9761,173548.9097,149548.6414,173557.4398]},{"type":"Feature","id":"Buildings.fid--324554a4_1a02ebf4994_-5bf9","geometry":{"type":"Polygon","coordinates":[[[149737.4954,173636.8218],[149744.6263,173638.5178],[149739.9714,173657.4398],[149732.6615,173655.6431],[149737.4954,173636.8218]]]},"geometry_name":"GEOM","properties":{"INSPIRE_ID":"https://databrussels.be/id/building/1779018","BLOCK_ID":"https://databrussels.be/id/block/27160","AREA":145},"bbox":[149732.6615,173636.8218,149744.6263,173657.4398]},{"type":"Feature","id":"Buildings.fid--324554a4_1a02ebf4994_-5bee","geometry":{"type":"Polygon","coordinates":[[[149551.8388,173646.3487],[149548.3252,173648.446],[149540.0609,173634.6222],[149543.9519,173632.9114],[149551.8388,173646.3487]]]},"geometry_name":"GEOM","properties":{"INSPIRE_ID":"https://databrussels.be/id/building/1782583","BLOCK_ID":"https://databrussels.be/id/block/27160","AREA":66},"bbox":[149540.0609,173632.9114,149551.8388,173648.446]},{"type":"Feature","id":"Buildings.fid--324554a4_1a02ebf4994_-5bce","geometry":{"type":"Polygon","coordinates":[[[149745.5884,173587.5014],[149742.4673,173588.2883],[149741.1251,173582.516],[149744.1746,173581.7796],[149745.5884,173587.5014]]]},"geometry_name":"GEOM","properties":{"INSPIRE_ID":"https://databrussels.be/id/building/1782584","BLOCK_ID":"https://databrussels.be/id/block/27160","AREA":19},"bbox":[149741.1251,173581.7796,149745.5884,173588.2883]},{"type":"Feature","id":"Buildings.fid--324554a4_1a02ebf4994_-5be9","geometry":{"type":"Polygon","coordinates":[[[149658.097,173870.776],[149656.057,173872.027],[149651.986,173865.518],[149637.612,173875.151],[149619.593,173847.455],[149632.327,173839.494],[149636.6,173845.92],[149634.63,173847.23],[149645.69,173863.91],[149649.45,173861.507],[149649.84,173861.965],[149650.922,173861.213],[149651.0566,173861.135],[149651.978,173860.601],[149658.097,173870.776]]]},"geometry_name":"GEOM","properties":{"INSPIRE_ID":"https://databrussels.be/id/building/1783561","BLOCK_ID":"https://databrussels.be/id/block/27233","AREA":490},"bbox":[149619.593,173839.494,149658.097,173875.151]},{"type":"Feature","id":"Buildings.fid--324554a4_1a02ebf4994_-5bfc","geometry":{"type":"Polygon","coordinates":[[[149710.5459,173913.31364242],[149708.0089,173914.99474242],[149704.6967,173909.99614242],[149707.2336,173908.31504242],[149710.5459,173913.31364242]]]},"geometry_name":"GEOM","properties":{"INSPIRE_ID":"https://databrussels.be/id/building/1784465","BLOCK_ID":"https://databrussels.be/id/block/27233","AREA":18},"bbox":[149704.6967,173908.31504242,149710.5459,173914.99474242]},{"type":"Feature","id":"Buildings.fid--324554a4_1a02ebf4994_-5bf7","geometry":{"type":"Polygon","coordinates":[[[149751.2516,173637.937],[149744.1744,173637.3185],[149744.785,173628.127],[149751.8825,173628.6858],[149751.2516,173637.937]]]},"geometry_name":"GEOM","properties":{"INSPIRE_ID":"https://databrussels.be/id/building/1796131","BLOCK_ID":"https://databrussels.be/id/block/27160","AREA":66},"bbox":[149744.1744,173628.127,149751.8825,173637.937]},{"type":"Feature","id":"Buildings.fid--324554a4_1a02ebf4994_-5bd1","geometry":{"type":"Polygon","coordinates":[[[149664.4165,173508.0339],[149666.3785,173511.2574],[149664.688,173512.3524],[149662.7468,173509.0634],[149664.4165,173508.0339]]]},"geometry_name":"GEOM","properties":{"INSPIRE_ID":"https://databrussels.be/id/building/1796132","BLOCK_ID":"https://databrussels.be/id/block/27160","AREA":8},"bbox":[149662.7468,173508.0339,149666.3785,173512.3524]},{"type":"Feature","id":"Buildings.fid--324554a4_1a02ebf4994_-5be8","geometry":{"type":"Polygon","coordinates":[[[149702.8271,173882.8451],[149677.3808,173899.2909],[149667.191,173883.5889],[149675.994,173877.8761],[149675.2917,173876.794],[149677.3364,173875.467],[149677.2571,173875.3447],[149674.8027,173871.5626],[149663.7473,173878.737],[149651.978,173860.601],[149651.0566,173861.135],[149648.5421,173857.2602],[149649.1468,173856.8678],[149633.8641,173833.318],[149656.8844,173818.3789],[149668.5707,173836.3868],[149673.9803,173832.8763],[149685.4405,173848.2816],[149683.7421,173849.4062],[149684.695,173850.8746],[149678.9895,173854.5773],[149684.3253,173862.7994],[149686.8744,173861.1452],[149691.2902,173867.9497],[149692.6065,173867.0955],[149702.8271,173882.8451]]]},"geometry_name":"GEOM","properties":{"INSPIRE_ID":"https://databrussels.be/id/building/1797378","BLOCK_ID":"https://databrussels.be/id/block/27233","AREA":2291},"bbox":[149633.8641,173818.3789,149702.8271,173899.2909]},{"type":"Feature","id":"Buildings.fid--324554a4_1a02ebf4994_-5bfd","geometry":{"type":"MultiPolygon","coordinates":[[[[149745.5992,173912.13970034],[149724.043,173926.31730034],[149698.5955,173887.62570034],[149698.1326,173886.92180034],[149703.277,173883.53830034],[149714.0613,173876.44550034],[149711.295,173872.23950034],[149712.9578,173871.14590034],[149714.5414,173873.53470034],[149717.6528,173871.47210034],[149722.6259,173878.97390034],[149738.8977,173868.18700034],[149739.346,173868.92380034],[149752.602,173859.95380034],[149760.953,173872.37300034],[149731.9786,173891.43030034],[149745.5992,173912.13970034]]]]},"geometry_name":"GEOM","properties":{"INSPIRE_ID":"https://databrussels.be/id/building/1798820","BLOCK_ID":"https://databrussels.be/id/block/27233","AREA":1756},"bbox":[149698.1326,173859.95380034,149760.953,173926.31730034]},{"type":"Feature","id":"Buildings.fid--324554a4_1a02ebf4994_-5bf3","geometry":{"type":"Polygon","coordinates":[[[149874.82,173794.53],[149830.3291,173725.1789],[149848.9396,173719.0486],[149884.0361,173710.2755],[149895.8088,173708.2373],[149905.1831,173706.9223],[149922.9277,173705.0233],[149941.8506,173704.1307],[149971.1061,173704.6124],[149977.2595,173705.2261],[149989.3039,173706.3206],[149996.15,173716.1],[149874.82,173794.53]]]},"geometry_name":"GEOM","properties":{"INSPIRE_ID":"https://databrussels.be/id/building/1800812","BLOCK_ID":"https://databrussels.be/id/block/27233","AREA":7771},"bbox":[149830.3291,173704.1307,149996.15,173794.53]},{"type":"Feature","id":"Buildings.fid--324554a4_1a02ebf4994_-5be6","geometry":{"type":"Polygon","coordinates":[[[149660.80952569,173905.1885071],[149662.70071715,173908.22430029],[149660.43094534,173909.63828761],[149658.53975388,173906.60249442],[149660.80952569,173905.1885071]]]},"geometry_name":"GEOM","properties":{"INSPIRE_ID":"https://databrussels.be/id/building/1803214","BLOCK_ID":"https://databrussels.be/id/block/27233","AREA":10},"bbox":[149658.53975388,173905.1885071,149662.70071715,173909.63828761]},{"type":"Feature","id":"Buildings.fid--324554a4_1a02ebf4994_-5bd2","geometry":{"type":"Polygon","coordinates":[[[149660.6098,173505.5243],[149658.2929,173501.6308],[149660.0002,173500.6491],[149662.2551,173504.4409],[149660.6098,173505.5243]]]},"geometry_name":"GEOM","properties":{"INSPIRE_ID":"https://databrussels.be/id/building/1808356","BLOCK_ID":"https://databrussels.be/id/block/27160","AREA":9},"bbox":[149658.2929,173500.6491,149662.2551,173505.5243]},{"type":"Feature","id":"Buildings.fid--324554a4_1a02ebf4994_-5bd4","geometry":{"type":"Polygon","coordinates":[[[149616.8258,173507.5078],[149620.4413,173505.4372],[149621.6352,173507.505],[149618.0536,173509.5945],[149616.8258,173507.5078]]]},"geometry_name":"GEOM","properties":{"INSPIRE_ID":"https://databrussels.be/id/building/1808360","BLOCK_ID":"https://databrussels.be/id/block/27160","AREA":10},"bbox":[149616.8258,173505.4372,149621.6352,173509.5945]},{"type":"Feature","id":"Buildings.fid--324554a4_1a02ebf4994_-5bd5","geometry":{"type":"Polygon","coordinates":[[[149608.033,173515.3042],[149606.9645,173513.5093],[149609.5812,173511.9029],[149610.5968,173513.6838],[149608.033,173515.3042]]]},"geometry_name":"GEOM","properties":{"INSPIRE_ID":"https://databrussels.be/id/building/1808361","BLOCK_ID":"https://databrussels.be/id/block/27160","AREA":6},"bbox":[149606.9645,173511.9029,149610.5968,173515.3042]},{"type":"Feature","id":"Buildings.fid--324554a4_1a02ebf4994_-5bd6","geometry":{"type":"Polygon","coordinates":[[[149603.7609,173517.6186],[149600.498,173519.5934],[149599.4584,173517.8037],[149602.6632,173515.8774],[149603.7609,173517.6186]]]},"geometry_name":"GEOM","properties":{"INSPIRE_ID":"https://databrussels.be/id/building/1808362","BLOCK_ID":"https://databrussels.be/id/block/27160","AREA":8},"bbox":[149599.4584,173515.8774,149603.7609,173519.5934]},{"type":"Feature","id":"Buildings.fid--324554a4_1a02ebf4994_-5bd8","geometry":{"type":"Polygon","coordinates":[[[149583.5569,173528.9356],[149582.9409,173527.8705],[149584.8775,173526.6584],[149585.4747,173527.7451],[149583.5569,173528.9356]]]},"geometry_name":"GEOM","properties":{"INSPIRE_ID":"https://databrussels.be/id/building/1808363","BLOCK_ID":"https://databrussels.be/id/block/27160","AREA":3},"bbox":[149582.9409,173526.6584,149585.4747,173528.9356]},{"type":"Feature","id":"Buildings.fid--324554a4_1a02ebf4994_-5bd9","geometry":{"type":"Polygon","coordinates":[[[149572.4543,173534.2486],[149574.9511,173532.6634],[149576.0721,173534.4256],[149573.5829,173535.9945],[149572.4543,173534.2486]]]},"geometry_name":"GEOM","properties":{"INSPIRE_ID":"https://databrussels.be/id/building/1808364","BLOCK_ID":"https://databrussels.be/id/block/27160","AREA":6},"bbox":[149572.4543,173532.6634,149576.0721,173535.9945]},{"type":"Feature","id":"Buildings.fid--324554a4_1a02ebf4994_-5bda","geometry":{"type":"Polygon","coordinates":[[[149566.2412,173540.5],[149565.1677,173538.649],[149567.6895,173537.098],[149568.7078,173538.8917],[149566.2412,173540.5]]]},"geometry_name":"GEOM","properties":{"INSPIRE_ID":"https://databrussels.be/id/building/1808365","BLOCK_ID":"https://databrussels.be/id/block/27160","AREA":6},"bbox":[149565.1677,173537.098,149568.7078,173540.5]},{"type":"Feature","id":"Buildings.fid--324554a4_1a02ebf4994_-5bdb","geometry":{"type":"Polygon","coordinates":[[[149547.8468,173548.8547],[149549.9493,173547.6882],[149550.9082,173549.4303],[149548.8419,173550.5903],[149547.8468,173548.8547]]]},"geometry_name":"GEOM","properties":{"INSPIRE_ID":"https://databrussels.be/id/building/1809622","BLOCK_ID":"https://databrussels.be/id/block/27160","AREA":5},"bbox":[149547.8468,173547.6882,149550.9082,173550.5903]},{"type":"Feature","id":"Buildings.fid--324554a4_1a02ebf4994_-5bd3","geometry":{"type":"Polygon","coordinates":[[[149692.2675,173533.4561],[149702.4823,173552.0358],[149656.6286,173577.8878],[149656.9004,173578.3698],[149635.2504,173590.5759],[149623.2357,173569.9359],[149625.7301,173568.4839],[149625.9852,173568.9221],[149645.8278,173558.2885],[149646.287,173559.0776],[149692.2675,173533.4561]]]},"geometry_name":"GEOM","properties":{"INSPIRE_ID":"https://databrussels.be/id/building/1809623","BLOCK_ID":"https://databrussels.be/id/block/27160","AREA":1707},"bbox":[149623.2357,173533.4561,149702.4823,173590.5759]},{"type":"Feature","id":"Buildings.fid--324554a4_1a02ebf4994_-5c03","geometry":{"type":"Polygon","coordinates":[[[150060.5521,173963.69464241],[150058.6045,173960.67784242],[150056.505,173962.03334242],[150054.3281,173958.66144242],[150054.4896,173958.55714242],[150056.4277,173957.30594242],[150055.1265,173955.29044242],[150014.5145,173981.50914242],[150016.9266,173985.24534242],[150027.8922,173978.16604241],[150030.9261,173982.86534242],[150019.9604,173989.94464241],[150006.7689,173998.46094242],[150001.323,173990.02554242],[150000.8643,173990.32164241],[149992.6849,173977.65184242],[149984.3735,173964.77784242],[149976.0755,173951.92444241],[149967.9911,173939.40204242],[149959.1047,173925.63724242],[149950.7765,173912.73714242],[149942.7092,173900.24114242],[149933.7917,173886.42824242],[149925.5429,173873.65114242],[149917.444,173861.10614242],[149909.269,173848.44334242],[149901.003,173835.63954242],[149899.9793,173834.05394242],[149893.0296,173823.28904242],[149886.2428,173812.77644242],[149874.82,173794.53084242],[149880.2501,173791.02074242],[149990.7873,173719.56734242],[149996.15,173716.10084242],[150007.8806,173734.24814242],[150014.6734,173744.75684242],[150021.6294,173755.51774241],[150022.6539,173757.10284242],[150030.9274,173769.90184242],[150039.1097,173782.55984242],[150047.216,173795.10004242],[150055.4722,173807.87244242],[150064.3977,173821.68004242],[150072.4723,173834.17134242],[150080.808,173847.06664242],[150089.7025,173860.82634242],[150097.7941,173873.34394242],[150105.3419,173885.02044242],[150106.1042,173886.19964242],[150112.3458,173895.85534242],[150114.4185,173899.06174242],[150117.1221,173903.23884242],[150090.1992,173920.62004241],[150095.6799,173929.10954242],[150081.7577,173938.09754242],[150084.3959,173942.18404242],[150077.6258,173946.55474242],[150079.0118,173948.70154242],[150072.2703,173953.05374242],[150073.6718,173955.22464242],[150060.5521,173963.69464241]]]},"geometry_name":"GEOM","properties":{"INSPIRE_ID":"https://databrussels.be/id/building/1812876","BLOCK_ID":"https://databrussels.be/id/block/27233","AREA":33901},"bbox":[149874.82,173716.10084242,150117.1221,173998.46094242]},{"type":"Feature","id":"Buildings.fid--324554a4_1a02ebf4994_-5bf0","geometry":{"type":"Polygon","coordinates":[[[149528.5777,173602.0806],[149527.6424,173600.3681],[149531.1131,173598.4718],[149532.0487,173600.1848],[149528.5777,173602.0806]]]},"geometry_name":"GEOM","properties":{"INSPIRE_ID":"https://databrussels.be/id/building/1828559","BLOCK_ID":"https://databrussels.be/id/block/27160","AREA":8},"bbox":[149527.6424,173598.4718,149532.0487,173602.0806]},{"type":"Feature","id":"Buildings.fid--324554a4_1a02ebf4994_-5be7","geometry":{"type":"Polygon","coordinates":[[[149644.9194,173739.9996],[149649.1565,173737.4486],[149650.6324,173739.9],[149646.3952,173742.451],[149644.9194,173739.9996]]]},"geometry_name":"GEOM","properties":{"INSPIRE_ID":"https://databrussels.be/id/building/1828560","BLOCK_ID":"https://databrussels.be/id/block/27160","AREA":14},"bbox":[149644.9194,173737.4486,149650.6324,173742.451]},{"type":"Feature","id":"Buildings.fid--324554a4_1a02ebf4994_-5bf5","geometry":{"type":"MultiPolygon","coordinates":[[[[149771.307,173865.29900033],[149784.9804,173885.95040034],[149774.5254,173892.87270034],[149760.953,173872.37300034],[149771.307,173865.29900033]]]]},"geometry_name":"GEOM","properties":{"INSPIRE_ID":"https://databrussels.be/id/building/1830523","BLOCK_ID":"https://databrussels.be/id/block/27233","AREA":309},"bbox":[149760.953,173865.29900033,149784.9804,173892.87270034]},{"type":"Feature","id":"Buildings.fid--324554a4_1a02ebf4994_-5bf2","geometry":{"type":"Polygon","coordinates":[[[149852.03,173651.431],[149854.474,173657.847],[149852.28,173658.682],[149849.837,173652.266],[149852.03,173651.431]]]},"geometry_name":"GEOM","properties":{"INSPIRE_ID":"https://databrussels.be/id/building/243167","BLOCK_ID":"https://databrussels.be/id/block/30864","AREA":16},"bbox":[149849.837,173651.431,149854.474,173658.682]}],"numberReturned":46,"grand_bruxelles_source":{"authority":"Paradigm / Brussels-Capital Region","service":"https://geoservices-urbis.irisnet.be/geoserver/urbisvector/wfs","layer":"urbisvector:Buildings","crs":"EPSG:31370","bbox":[149500.0,173500.0,150000.0,174000.0],"cell_id":"bxl-e149500-n173500-s500","ownership":"polygon_or_multipolygon_centroid_global_500m_cell"}}
