{"type":"FeatureCollection","totalFeatures":39,"numberMatched":39,"timeStamp":"2026-08-21T19:00:00.068Z","crs":{"type":"name","properties":{"name":"urn:ogc:def:crs:EPSG::31370"}},"bbox":[142451.13,168895.14800035,143736.556,169524.56000034],"features":[{"type":"Feature","id":"StreetSurfaces.fid--248e32d7_1a0253bd0a7_-146f","geometry":{"type":"Polygon","coordinates":[[[143475.24603999,169000.69262221],[143478.899,168999.13200035],[143479.01879275,168999.08084751],[143479.38,168999.32000035],[143479.96,168999.84000035],[143480.13,169000.00000035],[143480.54,169000.37000035],[143481.15,169000.85000035],[143482.02,169001.39000035],[143482.94,169001.85000035],[143483.89,169002.23000035],[143484.78,169002.49000035],[143485.69,169002.68000035],[143486.6,169002.81000035],[143487.60618385,169002.83719451],[143487.79,169005.53200035],[143488.01809697,169008.86805368],[143487.84,169008.98000035],[143487.35,169009.37000035],[143486.9,169009.80000035],[143486.48,169010.25000035],[143486.02,169010.78000035],[143485.59,169011.34000035],[143485.22,169011.94000035],[143484.92,169012.58000035],[143484.86291349,169012.74174547],[143483.526,169013.15600035],[143480.01331765,169014.24368752],[143479.63,169013.05000035],[143478.44,169009.52000035],[143477.22,169006.00000035],[143476.01,169002.48000035],[143475.24603999,169000.69262221]]]},"geometry_name":"GEOM","properties":{"INSPIRE_ID":"https://databrussels.be/id/streetsurface/1361","TYPE":"I","STREET_ID":"https://databrussels.be/id/streetname/1593","STRNAMEFRE":"Rue de Scherdemael","STRNAMEDUT":"Scherdemaalstraat","MUNNISCODE":"21001","HIERARCHY":"DR","LVL":0,"ADMIN":"MUN_RBC","AREA":117},"bbox":[143475.24603999,168999.08084751,143488.01809697,169014.24368752]},{"type":"Feature","id":"StreetSurfaces.fid--248e32d7_1a0253bd0a7_-1476","geometry":{"type":"Polygon","coordinates":[[[143390.77144416,168900.77336747],[143389.93,168902.39000035],[143382.59,168912.55000035],[143378.88,168917.60000035],[143374.86,168922.91000035],[143370.8,168928.20000035],[143366.74,168933.48000035],[143346.97,168961.04000035],[143330.98,168984.19000035],[143330.4,168984.81000035],[143330.12,168985.12000035],[143329.63,168985.69000035],[143329.16,168986.27000035],[143328.69,168986.86000035],[143324.56,168992.84000035],[143320.51283958,168998.88127412],[143319.6,169000.00000035],[143316.22,169004.74000035],[143312.7732882,169009.44638371],[143305.54,169018.59000035],[143301.89,169023.34000035],[143298.25,169028.08000035],[143294.61,169032.83000035],[143285.63,169044.10000035],[143276.64,169055.36000035],[143267.64,169066.61000035],[143261.01,169074.85000035],[143254.36,169083.08000035],[143247.74,169091.34000035],[143239.04,169102.28000035],[143211.29,169137.12000035],[143208.89,169140.08000035],[143206.48,169143.04000035],[143204.1,169146.02000035],[143202.77,169147.71000035],[143200.13,169151.11000035],[143199.57,169151.81000035],[143199.01,169152.52000035],[143198.56278541,169153.29415697],[143198.36649844,169153.54003072],[143192.613,169160.74700035],[143191.53909144,169159.68553997],[143191.70700885,169159.34419594],[143193.47769125,169155.81441579],[143194.11497198,169154.64434642],[143194.99555384,169153.25408839],[143196.15418088,169151.73626754],[143200.62643835,169146.27887407],[143204.13703627,169142.07281783],[143215.22500709,169128.38885844],[143224.74882749,169116.79043712],[143232.175569,169107.60215069],[143232.33783209,169106.87245147],[143232.39576895,169106.74502529],[143232.80152503,169106.00376236],[143234.01022107,169104.38248983],[143237.82221913,169099.66373829],[143241.79692019,169094.78224895],[143248.04453247,169087.17416241],[143254.4794,169078.93190035],[143257.15,169075.65000035],[143264.12,169067.07000035],[143271.08,169058.48000035],[143277.99,169049.85000035],[143285.07,169040.85000035],[143292.11,169031.81000035],[143299.12,169022.74000035],[143305.61,169014.31000035],[143312.09,169005.86000035],[143316.58,169000.00000035],[143318.57,168997.41000035],[143325.83,168985.84000035],[143332.41,168975.99000035],[143339,168966.14000035],[143345.7,168956.37000035],[143351.52,168948.18000035],[143363.32,168931.90000035],[143365.63,168928.65000035],[143367.94,168925.39000035],[143370.27,168922.16000035],[143373.11,168918.41000035],[143375.98,168914.69000035],[143378.82,168910.94000035],[143381.54,168907.21000035],[143384.23,168903.46000035],[143386.91,168899.71000035],[143387.29,168898.95000035],[143387.66,168898.20000035],[143387.84655506,168897.73060374],[143388.292,168898.19400035],[143390.77144416,168900.77336747]]]},"geometry_name":"GEOM","properties":{"INSPIRE_ID":"https://databrussels.be/id/streetsurface/1409","TYPE":"S","STREET_ID":"https://databrussels.be/id/streetname/2745","STRNAMEFRE":"Rue des Papillons","STRNAMEDUT":"Vlindersstraat","MUNNISCODE":"21001","HIERARCHY":"DR","LVL":0,"ADMIN":"MUN_RBC","AREA":947},"bbox":[143191.53909144,168897.73060374,143390.77144416,169160.74700035]},{"type":"Feature","id":"StreetSurfaces.fid--248e32d7_1a0253bd0a7_-1478","geometry":{"type":"Polygon","coordinates":[[[143186.229,169154.43800035],[143189.36,169151.27000035],[143229.21,169106.10000035],[143231.45,169105.95000035],[143306.67,169011.42000035],[143314.85,169000.00000035],[143323.39,168986.73000035],[143328.99,168977.42000035],[143351.371,168947.02200035],[143372.61,168914.26000035],[143385.364,168895.14800035],[143387.84655506,168897.73060374],[143387.66,168898.20000035],[143387.29,168898.95000035],[143386.91,168899.71000035],[143384.23,168903.46000035],[143381.54,168907.21000035],[143378.82,168910.94000035],[143375.98,168914.69000035],[143373.11,168918.41000035],[143370.27,168922.16000035],[143367.94,168925.39000035],[143365.63,168928.65000035],[143363.32,168931.90000035],[143351.52,168948.18000035],[143345.7,168956.37000035],[143339,168966.14000035],[143332.41,168975.99000035],[143325.83,168985.84000035],[143318.57,168997.41000035],[143316.58,169000.00000035],[143312.09,169005.86000035],[143305.61,169014.31000035],[143299.12,169022.74000035],[143292.11,169031.81000035],[143285.07,169040.85000035],[143277.99,169049.85000035],[143271.08,169058.48000035],[143264.12,169067.07000035],[143257.15,169075.65000035],[143254.4794,169078.93190035],[143248.04453247,169087.17416241],[143241.79692019,169094.78224895],[143237.82221913,169099.66373829],[143234.01022107,169104.38248983],[143232.80152503,169106.00376236],[143232.39576895,169106.74502529],[143232.33783209,169106.87245147],[143232.175569,169107.60215069],[143224.74882749,169116.79043712],[143215.22500709,169128.38885844],[143204.13703627,169142.07281783],[143200.62643835,169146.27887407],[143196.15418088,169151.73626754],[143194.99555384,169153.25408839],[143194.11497198,169154.64434642],[143193.47769125,169155.81441579],[143191.70700885,169159.34419594],[143191.53909144,169159.68553997],[143189.421,169157.59200035],[143186.229,169154.43800035]]]},"geometry_name":"GEOM","properties":{"INSPIRE_ID":"https://databrussels.be/id/streetsurface/149714","TYPE":"SW","STREET_ID":"https://databrussels.be/id/streetname/2745","STRNAMEFRE":"Rue des Papillons","STRNAMEDUT":"Vlindersstraat","MUNNISCODE":"21001","HIERARCHY":"DR","LVL":0,"ADMIN":"MUN_RBC","AREA":715},"bbox":[143186.229,168895.14800035,143387.84655506,169159.68553997]},{"type":"Feature","id":"StreetSurfaces.fid--248e32d7_1a0253bd0a7_-1475","geometry":{"type":"Polygon","coordinates":[[[143475.24603999,169000.69262221],[143474.138,169001.16600035],[143466.733,168983.83000035],[143460.949,168971.93200035],[143454.184,168959.53900035],[143450.577,168953.52300035],[143444.621,168943.95500035],[143440.85,168938.65000035],[143430.21,168926.78000035],[143424.601,168921.30900035],[143416.84,168913.74000035],[143410.84,168909.03000035],[143398.07,168899.86000035],[143398.69289435,168898.97479749],[143400.5,168900.25000035],[143403.16,168902.12000035],[143405.78,168904.03000035],[143410.04,168907.30000035],[143414.22,168910.68000035],[143418.3,168914.16000035],[143421.94,168917.43000035],[143425.49,168920.79000035],[143428.95,168924.24000035],[143434.62,168930.41000035],[143440.01,168936.85000035],[143445.11,168943.50000035],[143447.33,168946.58000035],[143449.5,168949.70000035],[143451.59,168952.87000035],[143455.23,168958.94000035],[143458.62,168965.16000035],[143462.02,168971.38000035],[143467.83,168983.33000035],[143474.95,169000.00000035],[143475.24603999,169000.69262221]]]},"geometry_name":"GEOM","properties":{"INSPIRE_ID":"https://databrussels.be/id/streetsurface/149746","TYPE":"SW","STREET_ID":"https://databrussels.be/id/streetname/1593","STRNAMEFRE":"Rue de Scherdemael","STRNAMEDUT":"Scherdemaalstraat","MUNNISCODE":"21001","HIERARCHY":"DR","LVL":0,"ADMIN":"MUN_RBC","AREA":130},"bbox":[143398.07,168898.97479749,143475.24603999,169001.16600035]},{"type":"Feature","id":"StreetSurfaces.fid--248e32d7_1a0253bd0a7_-1470","geometry":{"type":"Polygon","coordinates":[[[143320.51283958,168998.88127412],[143316.331,169004.82200035],[143312.7732882,169009.44638371],[143316.22,169004.74000035],[143319.6,169000.00000035],[143320.51283958,168998.88127412]]]},"geometry_name":"GEOM","properties":{"INSPIRE_ID":"https://databrussels.be/id/streetsurface/149788","TYPE":"SW","STREET_ID":"https://databrussels.be/id/streetname/2745","STRNAMEFRE":"Rue des Papillons","STRNAMEDUT":"Vlindersstraat","MUNNISCODE":"21001","HIERARCHY":"DR","LVL":0,"ADMIN":"MUN_RBC","AREA":1},"bbox":[143312.7732882,168998.88127412,143320.51283958,169009.44638371]},{"type":"Feature","id":"StreetSurfaces.fid--248e32d7_1a0253bd0a7_-1471","geometry":{"type":"Polygon","coordinates":[[[143488.212,169011.70400035],[143488.01809697,169008.86805368],[143488.19,169008.76000035],[143488.56,169008.55000035],[143489.32,169008.13000035],[143489.71,169007.93000035],[143490.12,169007.77000035],[143490.49,169007.68000035],[143491.25,169007.55000035],[143507.58662164,169005.14577546],[143529.03,169001.99000035],[143541.75,169000.18000035],[143550.54,168999.11000035],[143555.38,168998.71000035],[143560.23,168998.43000035],[143565.09,168998.22000035],[143572.26,168998.04000035],[143578.39,168998.01000035],[143580.93,168998.03000035],[143585.76,168998.15000035],[143590.32,168998.36000035],[143595.74,168998.75000035],[143599.8,168999.09000035],[143610.47,169000.00000035],[143613.14,169000.23000035],[143613.26,168999.46000035],[143613.81675566,168999.50690336],[143613.74,169000.00000035],[143613.826,169008.56500035],[143609.42,169008.60000035],[143608.79,169006.02000035],[143607.91,169004.82000035],[143607.36,169004.34000035],[143605.68,169003.73000035],[143602.94,169003.24000035],[143589.215,169002.21800035],[143585.14,169001.52000035],[143573.365,169001.46000035],[143559.62,169002.04000035],[143536.48,169004.42000035],[143488.212,169011.70400035]]]},"geometry_name":"GEOM","properties":{"INSPIRE_ID":"https://databrussels.be/id/streetsurface/149790","TYPE":"SW","STREET_ID":"https://databrussels.be/id/streetname/5559","STRNAMEFRE":"Drève Tyl Uylenspiegel","STRNAMEDUT":"Tijl Uilenspiegeldreef","MUNNISCODE":"21001","HIERARCHY":"DR","LVL":0,"ADMIN":"MUN_RBC","AREA":486},"bbox":[143488.01809697,168998.01000035,143613.826,169011.70400035]},{"type":"Feature","id":"StreetSurfaces.fid--248e32d7_1a0253bd0a7_-1472","geometry":{"type":"Polygon","coordinates":[[[143487.369,168999.36000035],[143487.60618385,169002.83719451],[143486.6,169002.81000035],[143485.69,169002.68000035],[143484.78,169002.49000035],[143483.89,169002.23000035],[143482.94,169001.85000035],[143482.02,169001.39000035],[143481.15,169000.85000035],[143480.54,169000.37000035],[143480.13,169000.00000035],[143479.96,168999.84000035],[143479.38,168999.32000035],[143479.01879275,168999.08084751],[143483.66,168997.09900035],[143484.285,168998.06300035],[143485.166,168998.80100035],[143486.225,168999.24600035],[143487.369,168999.36000035]]]},"geometry_name":"GEOM","properties":{"INSPIRE_ID":"https://databrussels.be/id/streetsurface/149791","TYPE":"SW","STREET_ID":"https://databrussels.be/id/streetname/1593","STRNAMEFRE":"Rue de Scherdemael","STRNAMEDUT":"Scherdemaalstraat","MUNNISCODE":"21001","HIERARCHY":"DR","LVL":0,"ADMIN":"MUN_RBC","AREA":27},"bbox":[143479.01879275,168997.09900035,143487.60618385,169002.83719451]},{"type":"Feature","id":"StreetSurfaces.fid--248e32d7_1a0253bd0a7_-1474","geometry":{"type":"Polygon","coordinates":[[[143487.369,168999.36000035],[143534.55,168992.41000035],[143537.9,168991.80000035],[143544.46,168990.96000035],[143561.33,168989.57000035],[143577.26,168989.13000035],[143580.82,168989.20000035],[143597.74,168990.44000035],[143606.46,168990.46000035],[143608.95,168988.89000035],[143609.49,168988.05000035],[143610.2,168986.06000035],[143614.83,168986.19000035],[143614.4,168995.76000035],[143614.3005225,168996.39906793],[143613.57,168996.33000035],[143613.65,168995.68000035],[143602.1,168994.54000035],[143598.89,168994.25000035],[143595.67,168993.95000035],[143592.46,168993.70000035],[143587.88,168993.46000035],[143583.3,168993.30000035],[143578.72,168993.21000035],[143573.62,168993.18000035],[143568.52,168993.23000035],[143563.43,168993.39000035],[143556.87,168993.80000035],[143543.77,168994.94000035],[143537.02,168995.85000035],[143508.83,169000.00000035],[143489.94,169002.71000035],[143488.82,169002.78000035],[143487.71,169002.84000035],[143487.60618385,169002.83719451],[143487.369,168999.36000035]]]},"geometry_name":"GEOM","properties":{"INSPIRE_ID":"https://databrussels.be/id/streetsurface/149827","TYPE":"SW","STREET_ID":"https://databrussels.be/id/streetname/5559","STRNAMEFRE":"Drève Tyl Uylenspiegel","STRNAMEDUT":"Tijl Uilenspiegeldreef","MUNNISCODE":"21001","HIERARCHY":"DR","LVL":0,"ADMIN":"MUN_RBC","AREA":524},"bbox":[143487.369,168986.06000035,143614.83,169002.84000035]},{"type":"Feature","id":"StreetSurfaces.fid--248e32d7_1a0253bd0a7_-1479","geometry":{"type":"Polygon","coordinates":[[[143359.79251809,169511.05035957],[143364.54000001,169509.53000034],[143372.68,169506.92000035],[143382.22000001,169503.87000035],[143391.75,169500.82000035],[143401.29000001,169497.77000035],[143406.3,169496.16000034],[143411.3,169494.56000034],[143416.30999999,169492.96000034],[143422.69000001,169490.88000034],[143435.47000001,169486.72000035],[143441.97000001,169484.63000034],[143448.48,169482.54000036],[143454.98,169480.44000036],[143463.45999999,169477.69000036],[143471.93,169474.92000035],[143480.39000001,169472.14000036],[143485.94000001,169470.31000034],[143491.49000001,169468.47000035],[143497.04000001,169466.62000035],[143501.34000001,169465.16000034],[143505.63,169463.68000034],[143509.93,169462.24000036],[143513.77000001,169460.99000036],[143517.62000001,169459.76000034],[143521.52000001,169458.51700036],[143522.31140707,169458.36556353],[143522.82000001,169459.97000035],[143517.28,169461.50000035],[143479.29000001,169473.49000036],[143476.35,169475.20000035],[143473.08,169478.25000035],[143471.90999999,169479.06000034],[143469.70799999,169481.25400034],[143462.57000001,169486.05000035],[143455.64000001,169489.97000035],[143448.87000001,169492.74000036],[143442.10999999,169494.77000035],[143433.68,169496.93000034],[143426.94000001,169497.50000035],[143418.67,169497.77000035],[143412.93,169497.10000035],[143410.62000001,169497.08000034],[143406.27000001,169497.40000035],[143402.59000001,169498.46000034],[143378.84000001,169506.24700035],[143369.82000001,169508.99000036],[143360.15999999,169512.18000034],[143359.79251809,169511.05035957]]]},"geometry_name":"GEOM","properties":{"INSPIRE_ID":"https://databrussels.be/id/streetsurface/160898","TYPE":"SW","STREET_ID":"https://databrussels.be/id/streetname/3233","STRNAMEFRE":"Avenue d'Itterbeek","STRNAMEDUT":"Itterbeekse Laan","MUNNISCODE":"21001","HIERARCHY":"IDR","LVL":0,"ADMIN":"MUN_RBC","AREA":629},"bbox":[143359.79251809,169458.36556353,143522.82000001,169512.18000034]},{"type":"Feature","id":"StreetSurfaces.fid--248e32d7_1a0253bd0a7_-1469","geometry":{"type":"Polygon","coordinates":[[[143480.01331766,169014.24368752],[143481.12000001,169017.69000036],[143484.02000001,169027.01000034],[143487.2,169037.10000035],[143490.4,169047.20000035],[143493.59000001,169057.30000035],[143497.52000001,169069.58000034],[143502.30999999,169081.87000035],[143506.42,169091.41000034],[143511.8,169102.78000035],[143517.00999999,169112.21000034],[143523.49000001,169122.92000035],[143529.5,169131.05000035],[143534.75999999,169137.53000034],[143535.34000001,169138.13000034],[143538.3,169141.21000034],[143543.33,169146.45000035],[143552.65999999,169154.52000035],[143558.77000001,169158.98000034],[143564.35999999,169162.81000034],[143567.75,169165.13000034],[143581.45999999,169173.94000036],[143589.02000001,169178.53000035],[143596.58,169183.05000035],[143608.75,169189.83000035],[143620.92,169196.62000035],[143633.04000001,169203.50000035],[143650.45999999,169213.78000035],[143667.77000001,169224.25000035],[143678.25,169230.58000034],[143681.79669817,169232.74915847],[143681.06500001,169233.95700034],[143649.74100001,169214.98300034],[143632.34100001,169204.71500036],[143595.875,169184.26200034],[143580.71600001,169175.12800035],[143564.63499999,169164.66200034],[143563.58199999,169163.97600035],[143557.96099999,169160.12400035],[143551.78699999,169155.61800036],[143542.36400001,169147.46800036],[143533.70899999,169138.45900034],[143528.39200001,169131.90900034],[143522.324,169123.70100035],[143515.797,169112.91200034],[143510.552,169103.41900035],[143505.14300001,169091.98700034],[143501.01300001,169082.40200035],[143496.198,169070.04700035],[143489.54000001,169048.05000035],[143486.15,169038.21000034],[143478.84000001,169014.60700034],[143480.01331766,169014.24368752]]]},"geometry_name":"GEOM","properties":{"INSPIRE_ID":"https://databrussels.be/id/streetsurface/161210","TYPE":"SW","STREET_ID":"https://databrussels.be/id/streetname/1593","STRNAMEFRE":"Rue de Scherdemael","STRNAMEDUT":"Scherdemaalstraat","MUNNISCODE":"21001","HIERARCHY":"DR","LVL":0,"ADMIN":"MUN_RBC","AREA":429},"bbox":[143478.84000001,169014.24368752,143681.79669817,169233.95700034]},{"type":"Feature","id":"StreetSurfaces.fid--248e32d7_1a0253bd0a7_-146e","geometry":{"type":"Polygon","coordinates":[[[143475.24603999,169000.6926222],[143476.00999999,169002.48000034],[143477.22000001,169006.00000035],[143478.44000001,169009.52000035],[143479.63,169013.05000035],[143480.01331766,169014.24368752],[143478.84000001,169014.60700034],[143478.37000001,169013.09000036],[143476.627,169008.00100035],[143474.88399999,169002.91200034],[143474.13800001,169001.16600036],[143475.24603999,169000.6926222]]]},"geometry_name":"GEOM","properties":{"INSPIRE_ID":"https://databrussels.be/id/streetsurface/161363","TYPE":"SW","STREET_ID":"https://databrussels.be/id/streetname/1593","STRNAMEFRE":"Rue de Scherdemael","STRNAMEDUT":"Scherdemaalstraat","MUNNISCODE":"21001","HIERARCHY":"DR","LVL":0,"ADMIN":"MUN_RBC","AREA":17},"bbox":[143474.13800001,169000.6926222,143480.01331766,169014.60700034]},{"type":"Feature","id":"StreetSurfaces.fid--248e32d7_1a0253bd0a7_-146d","geometry":{"type":"Polygon","coordinates":[[[143488.21199999,169011.70400035],[143484.86291349,169012.74174546],[143484.92,169012.58000035],[143485.22000001,169011.94000036],[143485.59000001,169011.34000036],[143486.02000001,169010.78000035],[143486.48,169010.25000035],[143486.9,169009.80000035],[143487.35,169009.37000035],[143487.84000001,169008.98000034],[143488.01809697,169008.86805369],[143488.21199999,169011.70400035]]]},"geometry_name":"GEOM","properties":{"INSPIRE_ID":"https://databrussels.be/id/streetsurface/161368","TYPE":"SW","STREET_ID":"https://databrussels.be/id/streetname/1593","STRNAMEFRE":"Rue de Scherdemael","STRNAMEDUT":"Scherdemaalstraat","MUNNISCODE":"21001","HIERARCHY":"DR","LVL":0,"ADMIN":"MUN_RBC","AREA":6},"bbox":[143484.86291349,169008.86805369,143488.21199999,169012.74174546]},{"type":"Feature","id":"StreetSurfaces.fid--248e32d7_1a0253bd0a7_-146b","geometry":{"type":"Polygon","coordinates":[[[143488.21199999,169011.70400035],[143489.82000001,169017.05000035],[143491.93,169022.35000035],[143493.45,169027.27000035],[143494.60999999,169033.07000035],[143499.202,169046.97900034],[143500.198,169050.88400034],[143505.696,169067.79300035],[143508.226,169074.49700035],[143510.57000001,169079.51000034],[143510.45,169080.78000035],[143514.18,169088.93000034],[143520.02000001,169101.04000036],[143531.87000001,169120.81000034],[143536.19200001,169126.80000035],[143545.05,169138.52500035],[143540.62868605,169139.23328847],[143540.33,169138.94000036],[143536.70999999,169135.03000035],[143534.5,169132.43000034],[143532.37000001,169129.77000035],[143530.32000001,169127.05000035],[143528.03,169123.77000035],[143522.99000001,169116.08000034],[143519.75,169110.96000034],[143517.73,169107.36000034],[143515.84000001,169103.68000034],[143512.75999999,169097.48000034],[143510.35,169092.47000035],[143507.93,169087.26000034],[143506.78,169084.64000036],[143505.01234343,169080.24787878],[143501.94000001,169072.07000035],[143499.89000001,169066.24000036],[143497.55,169058.64000036],[143488.55999999,169030.44000036],[143484.65,169017.58000034],[143484.50999999,169016.99000036],[143484.38,169016.41000034],[143484.3,169015.82000035],[143484.30999999,169015.20000035],[143484.38,169014.57000035],[143484.5,169013.94000036],[143484.68,169013.26000034],[143484.86291349,169012.74174546],[143488.21199999,169011.70400035]]]},"geometry_name":"GEOM","properties":{"INSPIRE_ID":"https://databrussels.be/id/streetsurface/161369","TYPE":"SW","STREET_ID":"https://databrussels.be/id/streetname/1593","STRNAMEFRE":"Rue de Scherdemael","STRNAMEDUT":"Scherdemaalstraat","MUNNISCODE":"21001","HIERARCHY":"DR","LVL":0,"ADMIN":"MUN_RBC","AREA":700},"bbox":[143484.3,169011.70400035,143545.05,169139.23328847]},{"type":"Feature","id":"StreetSurfaces.fid--248e32d7_1a0253bd0a7_-145e","geometry":{"type":"Polygon","coordinates":[[[143186.229,169154.43800036],[143189.421,169157.59200036],[143191.53909144,169159.68553998],[143187.52844915,169167.83840982],[143185.38708341,169172.17810065],[143185.0051332,169172.73364519],[143184.35702367,169173.21993333],[143183.7552248,169173.50951902],[143183.33860378,169173.62545787],[143182.70210593,169173.7415275],[143182.07719278,169173.74189908],[143180.61909153,169173.46510738],[143176.36693411,169172.38243734],[143174.59000001,169171.93000034],[143173.83,169171.81000034],[143172.30999999,169171.41000034],[143160.27000001,169168.83000035],[143154.25,169167.53000035],[143153.02523589,169167.25877232],[143153.775,169164.05200035],[143166.85999999,169167.11000034],[143171.87000001,169168.13000034],[143178.39000001,169162.37000035],[143186.229,169154.43800036]]]},"geometry_name":"GEOM","properties":{"INSPIRE_ID":"https://databrussels.be/id/streetsurface/161514","TYPE":"SW","STREET_ID":"https://databrussels.be/id/streetname/970","STRNAMEFRE":"Rue du Pommier","STRNAMEDUT":"Appelboomstraat","MUNNISCODE":"21001","HIERARCHY":"DR","LVL":0,"ADMIN":"MUN_RBC","AREA":262},"bbox":[143153.02523589,169154.43800036,143191.53909144,169173.74189908]},{"type":"Feature","id":"StreetSurfaces.fid--248e32d7_1a0253bd0a7_-146c","geometry":{"type":"Polygon","coordinates":[[[143312.7732882,169009.44638371],[143294.71800001,169032.91500036],[143261.11800001,169074.93600034],[143198.56278541,169153.29415697],[143199.00999999,169152.52000035],[143199.57000001,169151.81000034],[143200.13,169151.11000034],[143202.77000001,169147.71000034],[143204.1,169146.02000035],[143206.48,169143.04000036],[143208.89000001,169140.08000035],[143211.29000001,169137.12000035],[143239.04000001,169102.28000035],[143247.74000001,169091.34000036],[143254.35999999,169083.08000034],[143261.00999999,169074.85000035],[143267.64000001,169066.61000034],[143276.64000001,169055.36000034],[143285.63,169044.10000035],[143294.60999999,169032.83000034],[143298.25,169028.08000035],[143301.89000001,169023.34000036],[143305.54000001,169018.59000036],[143312.7732882,169009.44638371]]]},"geometry_name":"GEOM","properties":{"INSPIRE_ID":"https://databrussels.be/id/streetsurface/161515","TYPE":"SW","STREET_ID":"https://databrussels.be/id/streetname/2745","STRNAMEFRE":"Rue des Papillons","STRNAMEDUT":"Vlindersstraat","MUNNISCODE":"21001","HIERARCHY":"DR","LVL":0,"ADMIN":"MUN_RBC","AREA":28},"bbox":[143198.56278541,169009.44638371,143312.7732882,169153.29415697]},{"type":"Feature","id":"StreetSurfaces.fid--248e32d7_1a0253bd0a7_-1468","geometry":{"type":"Polygon","coordinates":[[[143197.94129806,169177.24990777],[143198.86800001,169173.09200036],[143207.48299999,169175.08600034],[143247.41500001,169183.96900035],[143265.15999999,169188.19100036],[143273.53299999,169190.63200034],[143289.226,169195.80500034],[143296.88599999,169198.85500034],[143393.43,169239.11000034],[143413.45,169247.19000036],[143423.18,169251.02000035],[143462.44000001,169267.31000034],[143509.71800001,169287.54600035],[143590.75,169322.23000034],[143630.93,169337.88000034],[143659.39000001,169349.63000034],[143687.656,169360.97500035],[143711.24000001,169371.61000034],[143717.95,169371.09800035],[143718.90999999,169375.10000035],[143725.78,169377.41000034],[143727.77000001,169378.32000035],[143736.556,169380.88000034],[143735.76663113,169383.58876983],[143723.17,169379.55000035],[143701.48,169370.50000035],[143663.29000001,169354.49000036],[143630.68,169340.77000035],[143596.15999999,169327.42000036],[143558.52000001,169311.92000035],[143492.68,169284.73000034],[143421.17,169254.91000034],[143413.03,169251.62000035],[143404.89000001,169248.34000036],[143396.75999999,169245.02000035],[143387.68,169241.25000035],[143378.63,169237.43000034],[143369.55999999,169233.62000035],[143356.47000001,169228.21000034],[143343.35999999,169222.82000035],[143330.28,169217.39000036],[143322.90999999,169214.30000035],[143308.19000001,169208.08000035],[143305.13,169206.84000036],[143302.08,169205.59000036],[143299.02000001,169204.35000035],[143295.28,169202.80000035],[143291.54000001,169201.27000035],[143287.77000001,169199.81000034],[143283.98,169198.47000035],[143280.17,169197.20000035],[143276.35,169195.97000036],[143272.27000001,169194.70000035],[143268.18,169193.47000035],[143264.07000001,169192.31000034],[143258.22000001,169190.82000035],[143252.35,169189.45000035],[143246.45999999,169188.12000035],[143241.7,169187.07000035],[143236.93,169186.06000034],[143232.15999999,169185.03000034],[143223.60999999,169183.12000035],[143215.07000001,169181.19000036],[143206.54000001,169179.24000036],[143197.94129806,169177.24990777]]]},"geometry_name":"GEOM","properties":{"INSPIRE_ID":"https://databrussels.be/id/streetsurface/161516","TYPE":"SW","STREET_ID":"https://databrussels.be/id/streetname/970","STRNAMEFRE":"Rue du Pommier","STRNAMEDUT":"Appelboomstraat","MUNNISCODE":"21001","HIERARCHY":"DR","LVL":0,"ADMIN":"MUN_RBC","AREA":2176},"bbox":[143197.94129806,169173.09200036,143736.556,169383.58876983]},{"type":"Feature","id":"StreetSurfaces.fid--248e32d7_1a0253bd0a7_-1461","geometry":{"type":"Polygon","coordinates":[[[143153.775,169164.05200035],[143153.02523589,169167.25877232],[143136.90999999,169163.69000036],[143119.59000001,169159.77000035],[143102.25999999,169155.85000035],[143090.00999999,169153.10000035],[143077.77000001,169150.35000035],[143065.52000001,169147.60000035],[143059.50999999,169146.23000034],[143053.49000001,169144.86000034],[143047.47000001,169143.52000036],[143042.87000001,169142.56000034],[143038.27000001,169141.61000034],[143033.69000001,169140.53000034],[143030.75999999,169139.74000036],[143027.84000001,169138.89000036],[143024.93,169138.00000035],[143022.78,169137.32000035],[143020.64000001,169136.62000035],[143018.50999999,169135.87000035],[143014.94000001,169134.46000034],[143007.88,169131.40000035],[143003.54000001,169129.34000036],[143000,169127.67000035],[142999.2,169127.29000036],[142994.85,169125.27000035],[142991.1,169123.55000035],[142987.35,169121.85000035],[142983.57000001,169120.19000036],[142979.85,169118.57000035],[142976.10999999,169116.99000036],[142972.33,169115.52000035],[142969.22000001,169114.45000035],[142966.09000001,169113.45000035],[142962.93,169112.52000035],[142959.89000001,169111.71000034],[142956.82000001,169110.96000034],[142953.75,169110.24000036],[142950.19000001,169109.44000036],[142946.60999999,169108.69000036],[142943.02000001,169108.00000035],[142937.93,169107.17000035],[142932.82000001,169106.47000036],[142927.7,169105.82000035],[142922.85,169105.25000035],[142918,169104.74000036],[142913.14000001,169104.22000035],[142900.45999999,169102.94000036],[142894.12000001,169102.29000036],[142882.74000001,169101.06000034],[142871.37000001,169099.79000036],[142859.99000001,169098.56000034],[142852.29000001,169097.76000034],[142844.59000001,169096.98000034],[142836.9,169096.17000035],[142834.93,169095.97000035],[142828.1,169095.27000035],[142819.30999999,169094.34000036],[142810.53,169093.24000036],[142806.15,169092.59000036],[142801.78,169091.90000035],[142797.4,169091.22000035],[142793.38,169090.62000036],[142789.35,169090.03000034],[142785.33,169089.45000035],[142779.85999999,169088.67000035],[142768.92,169087.13000034],[142763.03,169086.26000034],[142757.15,169085.38000034],[142751.27000001,169084.53000035],[142745.74000001,169083.70000035],[142740.2,169082.89000036],[142734.65999999,169082.30000035],[142729.87000001,169082.02000035],[142725.08,169081.91000034],[142720.28,169081.91000034],[142716.39000001,169082.01000034],[142712.50999999,169082.19000036],[142708.62000001,169082.39000036],[142703.93,169082.65000035],[142699.23,169082.94000036],[142694.53,169083.24000036],[142673.17,169084.90000035],[142668.72000001,169085.22000035],[142664.27000001,169085.55000035],[142659.82000001,169085.83000035],[142655.65,169086.05000035],[142651.48,169086.24000036],[142647.30999999,169086.35000035],[142643.6,169086.36000034],[142639.89000001,169086.30000035],[142636.18,169086.16000034],[142635.14000001,169086.10000035],[142634.15999999,169086.05000035],[142632.15,169085.92000035],[142630.14000001,169085.75000035],[142627.39000001,169085.41000034],[142621.90999999,169084.57000035],[142611.65999999,169082.78000035],[142601.42,169081.00000035],[142591.19000001,169079.10000035],[142580.50999999,169076.91000034],[142569.85,169074.59000036],[142559.2,169072.24000036],[142551.95,169070.65000035],[142544.70999999,169069.05000035],[142537.47000001,169067.41000034],[142529.79000001,169065.64000036],[142522.12000001,169063.83000035],[142514.45,169061.99000036],[142508.65999999,169060.59000036],[142502.87000001,169059.18000034],[142497.1,169057.72000036],[142491.59000001,169056.29000036],[142486.1,169054.81000034],[142480.63,169053.26000034],[142477.40999999,169052.32000035],[142474.2,169051.35000035],[142471,169050.34000036],[142466.70999999,169048.86000034],[142462.45,169047.29000036],[142458.18,169045.73000034],[142456.28,169045.01000034],[142454.38,169044.30000035],[142454.16367857,169044.20812189],[142455.34100001,169041.94800035],[142471.79400001,169047.92800035],[142485.55,169052.00000035],[142495.25,169055.31000034],[142514.88099999,169060.20500034],[142545.11600001,169067.25900034],[142569.43399999,169072.96000034],[142579.40699999,169074.53800036],[142601.75,169079.19300036],[142627.63,169083.58800036],[142632.48,169084.20000035],[142642.98,169084.60000035],[142655.50999999,169084.50000035],[142676.5,169083.31000034],[142734.72000001,169079.00000035],[142752.84000001,169081.11000034],[142765.398,169082.59700035],[142835.15899999,169089.64200036],[142923.28599999,169101.50400034],[142938.49400001,169103.44000036],[142947.354,169104.99200036],[142960.84000001,169108.05900034],[142970.405,169110.86800036],[142977.51199999,169113.48800036],[142988.89400001,169118.40900034],[143009.40699999,169127.95100035],[143019.849,169132.34200036],[143023.91900001,169133.72400035],[143034.63,169136.87600035],[143039.94000001,169138.05000035],[143044.95999999,169139.07000035],[143075.77000001,169145.69000036],[143097.35,169150.63000034],[143121.12000001,169156.42000035],[143153.775,169164.05200035]]]},"geometry_name":"GEOM","properties":{"INSPIRE_ID":"https://databrussels.be/id/streetsurface/161674","TYPE":"SW","STREET_ID":"https://databrussels.be/id/streetname/970","STRNAMEFRE":"Rue du Pommier","STRNAMEDUT":"Appelboomstraat","MUNNISCODE":"21001","HIERARCHY":"DR","LVL":0,"ADMIN":"MUN_RBC","AREA":2376},"bbox":[142454.16367857,169041.94800035,143153.775,169167.25877232]},{"type":"Feature","id":"StreetSurfaces.fid--248e32d7_1a0253bd0a7_-145c","geometry":{"type":"Polygon","coordinates":[[[143197.94129806,169177.24990777],[143197.38,169177.12000035],[143192.80999999,169176.07000035],[143192.32000001,169175.90000035],[143191.83,169175.72000035],[143191.37000001,169175.52000035],[143190.8,169175.22000035],[143190.27000001,169174.87000035],[143189.87000001,169174.44000036],[143189.67,169173.79000036],[143189.65,169173.05000035],[143189.70999999,169172.30000035],[143189.83,169171.58000034],[143190.03,169170.86000034],[143190.25999999,169170.15000035],[143190.54000001,169169.32000035],[143190.85999999,169168.51000034],[143191.22000001,169167.72000035],[143191.8,169166.77000035],[143192.45999999,169165.86000034],[143193.13,169164.96000034],[143193.79000001,169163.90000035],[143194.023,169163.53100034],[143195.74000001,169166.92000035],[143198.86800001,169173.09200036],[143197.94129806,169177.24990777]]]},"geometry_name":"GEOM","properties":{"INSPIRE_ID":"https://databrussels.be/id/streetsurface/161675","TYPE":"SW","STREET_ID":"https://databrussels.be/id/streetname/970","STRNAMEFRE":"Rue du Pommier","STRNAMEDUT":"Appelboomstraat","MUNNISCODE":"21001","HIERARCHY":"DR","LVL":0,"ADMIN":"MUN_RBC","AREA":77},"bbox":[143189.65,169163.53100034,143198.86800001,169177.24990777]},{"type":"Feature","id":"StreetSurfaces.fid--248e32d7_1a0253bd0a7_-147c","geometry":{"type":"Polygon","coordinates":[[[143195.91800001,169186.32700035],[143196.69188905,169182.8552554],[143202.60188999,169184.17776035],[143214.63390501,169186.86576034],[143226.0874475,169189.55424034],[143238.03852251,169192.13824035],[143254.0504425,169195.62208034],[143264.24302499,169198.16080035],[143274.3197,169201.05808035],[143286.432655,169205.34224035],[143304.44570999,169212.78064035],[143316.08403001,169217.62016036],[143328.717415,169222.91040036],[143339.30316,169227.25312034],[143355.30301001,169234.00752036],[143363.93359251,169237.60240034],[143369.44337001,169239.87024034],[143377.319045,169243.11184036],[143389.64003,169248.27488035],[143406.11433749,169255.12432035],[143421.1542675,169261.26896035],[143428.046415,169264.51504034],[143512.49008751,169299.21008035],[143579.03004501,169326.95008034],[143617.53991251,169342.73008036],[143620.59007249,169345.36000034],[143690.17007251,169374.26992034],[143733.20708809,169392.37200443],[143732.45,169394.97000035],[143721.69000001,169390.38000034],[143680.54000001,169373.65000035],[143624.73,169350.30000035],[143575.53,169329.85000035],[143562.95999999,169324.54000036],[143484.306,169291.65000035],[143431.96500001,169269.76300036],[143391.47000001,169252.83000034],[143353.08299999,169236.92900034],[143326.19200001,169225.98500034],[143290.36900001,169210.84200036],[143283.253,169208.04300036],[143271.32000001,169204.00200035],[143265.33399999,169202.19400035],[143254.98399999,169199.49200036],[143195.91800001,169186.32700035]]]},"geometry_name":"GEOM","properties":{"INSPIRE_ID":"https://databrussels.be/id/streetsurface/161677","TYPE":"SW","STREET_ID":"https://databrussels.be/id/streetname/970","STRNAMEFRE":"Rue du Pommier","STRNAMEDUT":"Appelboomstraat","MUNNISCODE":"21001","HIERARCHY":"DR","LVL":0,"ADMIN":"MUN_RBC","AREA":2044},"bbox":[143195.91800001,169182.8552554,143733.20708809,169394.97000035]},{"type":"Feature","id":"StreetSurfaces.fid--248e32d7_1a0253bd0a7_-145b","geometry":{"type":"Polygon","coordinates":[[[143152.00630205,169189.71002783],[143151.45,169187.78000035],[143152.08,169182.89000036],[143151.87000001,169180.55000035],[143151.60999999,169179.13000034],[143150.90999999,169176.31000034],[143151.6121069,169173.30496322],[143160.40002251,169175.22000035],[143161.08996501,169175.46000034],[143161.78008499,169175.69008035],[143162.4299125,169176.01008035],[143163.109915,169176.50000035],[143163.72992251,169177.09008035],[143164.19994249,169177.76000034],[143164.51003499,169178.63008036],[143164.63996501,169179.59008035],[143164.59008751,169180.52000035],[143164.33999,169181.40000035],[143163.92002499,169182.26000034],[143163.41006751,169183.04000036],[143162.58007751,169183.90000035],[143161.58998251,169184.63008036],[143160.5700675,169185.31008035],[143159.13001001,169186.18000034],[143157.62995751,169186.97008034],[143156.11996501,169187.75008034],[143152.00630205,169189.71002783]]]},"geometry_name":"GEOM","properties":{"INSPIRE_ID":"https://databrussels.be/id/streetsurface/161828","TYPE":"SW","STREET_ID":"https://databrussels.be/id/streetname/970","STRNAMEFRE":"Rue du Pommier","STRNAMEDUT":"Appelboomstraat","MUNNISCODE":"21001","HIERARCHY":"DR","LVL":0,"ADMIN":"MUN_RBC","AREA":149},"bbox":[143150.90999999,169173.30496322,143164.63996501,169189.71002783]},{"type":"Feature","id":"StreetSurfaces.fid--248e32d7_1a0253bd0a7_-145f","geometry":{"type":"Polygon","coordinates":[[[142451.13,169050.03000034],[142451.94440625,169048.46731485],[142458.00998001,169050.68528034],[142464.40708001,169053.03264035],[142472.9421675,169055.94928035],[142481.348035,169058.54976036],[142487.86707749,169060.46784035],[142492.296945,169061.57392036],[142498.48424001,169062.98960034],[142506.45328,169064.91728036],[142514.786905,169066.82912034],[142523.99507251,169069.05776035],[142535.13018,169071.85328035],[142545.77024,169074.45536036],[142560.4063575,169077.76960036],[142571.21007249,169080.34000036],[142577.19998751,169081.60992035],[142583.20002,169082.82992035],[142589.73006749,169084.10992035],[142596.27999499,169085.35008034],[142602.81998251,169086.58000035],[142607.9000325,169087.54992036],[142612.98008251,169088.51008035],[142618.08001249,169089.40000035],[142622.96996,169090.19008035],[142638.20496249,169091.47472035],[142644.03069,169091.47456035],[142652.3424825,169091.22720036],[142658.71526501,169090.92144035],[142665.21531501,169090.61008035],[142671.24073,169090.15376035],[142677.08101251,169089.74960035],[142683.5405925,169089.23552035],[142689.05090251,169088.84864034],[142694.91426001,169088.42720036],[142701.06712,169088.08672034],[142708.6958925,169087.60768036],[142722.00857,169087.02528035],[142728.7864075,169087.13648034],[142734.08833251,169087.37472035],[142737.8967725,169087.78624035],[142743.1119,169088.36592034],[142749.36291749,169089.27584034],[142756.0422425,169090.22624034],[142763.46245251,169091.35040034],[142771.36297751,169092.52096035],[142777.8513125,169093.46560034],[142784.48448751,169094.45072035],[142791.6963125,169095.49376034],[142798.72282751,169096.52528035],[142805.8015275,169097.58576035],[142811.288585,169098.24080035],[142818.12428751,169099.11024035],[142824.80361249,169099.85216035],[142827.6141475,169100.19184035],[142837.78613999,169101.30720035],[142860.26101251,169103.68432035],[142874.57479,169105.22640034],[142892.36721251,169107.03536035],[142908.33067501,169108.82080034],[142915.06786499,169109.56864034],[142922.93963499,169110.37456035],[142928.95919249,169110.98336035],[142934.72971749,169111.66160034],[142938.8796675,169112.36272034],[142943.31326251,169113.20848035],[142948.67873249,169114.33808035],[142954.56498749,169115.67040035],[142958.27509251,169116.49872035],[142961.18059001,169117.24592034],[142966.38968251,169118.84432036],[142972.357055,169120.98704034],[142977.38083749,169123.00800034],[142982.93712001,169125.38784036],[142987.150615,169127.27552034],[142991.9834075,169129.57424034],[143000.0000175,169133.71008035],[143004.35995,169135.78000035],[143007.369995,169137.13008036],[143010.38998001,169138.48000035],[143013.4200825,169139.79008035],[143017.58991251,169141.45008034],[143021.800035,169143.02000036],[143026.0399775,169144.49008035],[143029.40999251,169145.60000035],[143032.810005,169146.64000036],[143036.230075,169147.62000035],[143040.26003499,169148.63008036],[143048.37995,169150.47008034],[143059.46997249,169152.86000034],[143070.550055,169155.26000034],[143081.62995999,169157.68000034],[143095.49998751,169160.79008035],[143109.370015,169163.95008034],[143123.2400425,169167.08000035],[143135.61995749,169169.81008035],[143148.00999,169172.52000035],[143151.6121069,169173.30496322],[143150.90999999,169176.31000034],[143128.6,169171.78000034],[143076.44000001,169160.40000035],[143073.73,169158.35000035],[143062.28,169156.40000035],[143039.2,169151.56000034],[143033.35999999,169149.86000034],[143027.75999999,169147.67000035],[143020.928,169145.42400035],[143009.378,169140.82800035],[142991.45699999,169132.49400035],[142975.83399999,169125.47300035],[142966.59100001,169121.98300034],[142957.75,169119.33200034],[142948.705,169117.51300036],[142928.39400001,169114.08400034],[142914.25699999,169112.60200035],[142853.556,169106.41000034],[142824.873,169102.92500035],[142798.856,169099.37000035],[142750.70999999,169092.10200035],[142738.331,169090.54500035],[142726.45,169089.71600036],[142717.846,169089.77500035],[142703.401,169090.54000036],[142673.527,169092.96000034],[142650.93499999,169094.26500036],[142642.15999999,169093.04000036],[142605.746,169088.19400035],[142575.545,169082.52500035],[142563.851,169080.56500036],[142555.87000001,169078.35000035],[142540.18499999,169074.96500036],[142509.25,169067.67000035],[142488.2,169061.52000036],[142482.83,169060.05000035],[142464.05999999,169054.51000034],[142451.13,169050.03000034]]]},"geometry_name":"GEOM","properties":{"INSPIRE_ID":"https://databrussels.be/id/streetsurface/161829","TYPE":"SW","STREET_ID":"https://databrussels.be/id/streetname/970","STRNAMEFRE":"Rue du Pommier","STRNAMEDUT":"Appelboomstraat","MUNNISCODE":"21001","HIERARCHY":"DR","LVL":0,"ADMIN":"MUN_RBC","AREA":1819},"bbox":[142451.13,169048.46731485,143151.6121069,169176.31000034]},{"type":"Feature","id":"StreetSurfaces.fid--248e32d7_1a0253bd0a7_-145a","geometry":{"type":"Polygon","coordinates":[[[143172.0427048,169190.06802744],[143171.993435,169188.12896034],[143172.1782125,169187.20368034],[143172.20181999,169187.08816034],[143172.67414751,169184.24960035],[143179.289395,169181.53088035],[143182.12407,169180.44208035],[143182.9340025,169180.17552034],[143183.38520751,169180.07120034],[143183.81333749,169180.07088036],[143185.49089,169180.35904035],[143191.9811775,169181.80112034],[143196.69188905,169182.8552554],[143195.91800001,169186.32700035],[143183.82000001,169183.63100034],[143180.102,169185.02200035],[143176.38399999,169186.41300036],[143175.581,169188.24200036],[143175.39000001,169189.82900035],[143172.0427048,169190.06802744]]]},"geometry_name":"GEOM","properties":{"INSPIRE_ID":"https://databrussels.be/id/streetsurface/161830","TYPE":"SW","STREET_ID":"https://databrussels.be/id/streetname/970","STRNAMEFRE":"Rue du Pommier","STRNAMEDUT":"Appelboomstraat","MUNNISCODE":"21001","HIERARCHY":"DR","LVL":0,"ADMIN":"MUN_RBC","AREA":98},"bbox":[143171.993435,169180.07088036,143196.69188905,169190.06802744]},{"type":"Feature","id":"StreetSurfaces.fid--248e32d7_1a0253bd0a7_-1467","geometry":{"type":"Polygon","coordinates":[[[143152.00630205,169189.71002783],[143146.99007499,169192.10000035],[143137.8500675,169196.45008034],[143128.78993499,169200.94000036],[143121.1100425,169204.94000036],[143113.48996749,169209.04992036],[143105.9100075,169213.23008036],[143097.50999751,169217.99008035],[143089.1600425,169222.84000036],[143080.8200275,169227.71008035],[143070.8200325,169233.64000036],[143060.83991749,169239.59008035],[143050.82004249,169245.47008034],[143048.98007751,169246.52000035],[143047.12999499,169247.57008034],[143045.29003,169248.62000035],[143039.6400275,169252.04000036],[143033.999965,169255.46000034],[143028.36008,169258.90000035],[143022.24005749,169262.70000035],[143016.12997501,169266.51008035],[143010.02007001,169270.32992035],[143007.51998251,169271.78000034],[143005.009955,169273.22000035],[143002.48004749,169274.60992035],[143000.32005,169275.71008035],[143000.0000175,169275.87008034],[142998.139995,169276.78000034],[142995.94006,169277.76992034],[142992.6699775,169279.04000036],[142989.3500175,169280.18000034],[142986.01994,169281.31008035],[142948.08002501,169293.59008035],[142942.3700275,169295.41008035],[142936.66003001,169297.22000035],[142930.98002999,169299.10000035],[142927.1799325,169300.42000035],[142923.38995249,169301.76000034],[142919.62003,169303.18000034],[142915.69994249,169304.78000035],[142911.7999125,169306.46000034],[142907.90999999,169308.15008034],[142903.3200275,169310.17008034],[142894.15996251,169314.25008034],[142888.29997749,169317.03008036],[142882.4499325,169319.82000035],[142876.610005,169322.64000036],[142869.53006251,169326.18000034],[142862.49005749,169329.76992034],[142855.43993499,169333.35008034],[142849.28991499,169336.42000035],[142843.12995501,169339.47008034],[142836.979935,169342.54000036],[142828.57992499,169346.81008035],[142820.19997251,169351.10992035],[142811.81008,169355.42000035],[142805.2899725,169358.46000034],[142798.75992501,169361.50000035],[142792.18994,169364.44000036],[142787.24993751,169366.53008036],[142782.29005499,169368.56000034],[142777.32005501,169370.59008035],[142776.4000725,169370.65008034],[142775.96005001,169370.62000035],[142775.37997999,169370.41008035],[142774.83008499,169370.07008034],[142774.31995001,169369.70000035],[142773.5199575,169368.98000034],[142773.38292749,169368.81600036],[142774.75,169367.99000036],[142850.37000001,169334.40000035],[142880.63,169318.92000035],[142923.3,169299.88000034],[142950.77000001,169291.36000034],[142988.56700001,169278.90100035],[142994.93,169276.51000034],[143012.57000001,169267.46000034],[143020.05999999,169262.33000034],[143039.15,169250.39000036],[143060.83,169237.52000035],[143064.45999999,169235.68000034],[143091.78,169219.72000035],[143111.33,169208.74000036],[143151.45,169187.78000035],[143152.00630205,169189.71002783]]]},"geometry_name":"GEOM","properties":{"INSPIRE_ID":"https://databrussels.be/id/streetsurface/161978","TYPE":"SW","STREET_ID":"https://databrussels.be/id/streetname/2745","STRNAMEFRE":"Rue des Papillons","STRNAMEDUT":"Vlindersstraat","MUNNISCODE":"21001","HIERARCHY":"DR","LVL":0,"ADMIN":"MUN_RBC","AREA":734},"bbox":[142773.38292749,169187.78000035,143152.00630205,169370.65008034]},{"type":"Feature","id":"StreetSurfaces.fid--248e32d7_1a0253bd0a7_-1465","geometry":{"type":"Polygon","coordinates":[[[143172.0427048,169190.06802744],[143175.39000001,169189.82900035],[143175.56300001,169192.36600036],[143180.54100001,169213.66900035],[143185.09000001,169231.63300034],[143190.26099999,169256.31700036],[143195.179,169283.54100036],[143199.499,169307.68600034],[143203.356,169325.33000034],[143211.53499999,169357.57600035],[143220.806,169394.65900034],[143228.248,169421.21600036],[143255.16600001,169512.16500036],[143258.453,169523.27000035],[143255.5483351,169523.48857457],[143254.9116725,169521.76384036],[143253.80992999,169518.32000035],[143246.52994499,169493.72000035],[143245.07000749,169488.75008034],[143243.62001,169483.79008035],[143242.16007249,169478.82992035],[143240.33998749,169472.70000035],[143236.69999499,169460.46000034],[143234.92002499,169454.38000034],[143233.12993751,169448.29008035],[143231.3400275,169442.21008035],[143229.3300175,169435.50000035],[143227.31006751,169428.78000034],[143225.31993749,169422.06000034],[143223.339925,169415.23008035],[143221.40002749,169408.40000035],[143219.5000675,169401.54992036],[143217.85996749,169395.44000036],[143216.2699225,169389.32992036],[143214.69993501,169383.21008035],[143213.140065,169376.97008034],[143211.60007501,169370.73008036],[143210.079965,169364.49008035],[143208.5799125,169358.32000035],[143207.0800375,169352.14000036],[143205.54998751,169345.98000034],[143204.1299875,169340.51008035],[143202.67999001,169335.04000036],[143201.22999251,169329.58000034],[143199.54995501,169322.48000034],[143198.74002249,169318.93008036],[143197.59993999,169313.60992035],[143196.50991249,169308.28000034],[143195.46994,169302.94000036],[143194.62007001,169298.26000034],[143193.80996001,169293.57008034],[143193.150015,169289.74000036],[143193.00002749,169288.89008035],[143192.17997749,169284.08000035],[143191.370045,169279.26992034],[143190.52993751,169274.46000034],[143189.48002501,169268.60000035],[143188.38999751,169262.75008034],[143187.26997249,169256.90000035],[143186.1499475,169251.22000035],[143184.98998499,169245.54000036],[143183.79008501,169239.88000034],[143182.97003501,169236.09008035],[143182.53001249,169234.15008034],[143182.11998751,169232.32000035],[143181.2399425,169228.54000036],[143180.0400425,169223.82000035],[143178.80002749,169219.10992035],[143177.58007,169214.39008035],[143176.14995251,169208.43008036],[143174.7700675,169202.45008034],[143173.399945,169196.48000034],[143173.15002501,169195.57008034],[143172.910045,169194.67008034],[143172.71000249,169193.76000034],[143172.0624825,169190.84640035],[143172.0427048,169190.06802744]]]},"geometry_name":"GEOM","properties":{"INSPIRE_ID":"https://databrussels.be/id/streetsurface/161979","TYPE":"SW","STREET_ID":"https://databrussels.be/id/streetname/884","STRNAMEFRE":"Rue Pierre Van Reymenant","STRNAMEDUT":"Pierre Van Reymenantstraat","MUNNISCODE":"21001","HIERARCHY":"DR","LVL":0,"ADMIN":"MUN_RBC","AREA":1048},"bbox":[143172.0427048,169189.82900035,143258.453,169523.48857457]},{"type":"Feature","id":"StreetSurfaces.fid--248e32d7_1a0253bd0a7_-1459","geometry":{"type":"Polygon","coordinates":[[[143152.95605378,169193.00454811],[143157.04278751,169191.14128036],[143161.8913775,169189.01456036],[143166.377335,169186.97440035],[143166.693995,169186.85328035],[143166.88977749,169186.83600034],[143167.02804999,169186.84160034],[143167.2099875,169186.99008035],[143167.56001749,169187.39008035],[143167.89993,169187.79008035],[143168.2199625,169188.21008035],[143168.8500875,169189.58000034],[143169.02800002,169190.28256396],[143168.08,169190.35000035],[143153.40999999,169194.57900035],[143152.95605378,169193.00454811]]]},"geometry_name":"GEOM","properties":{"INSPIRE_ID":"https://databrussels.be/id/streetsurface/162123","TYPE":"SW","STREET_ID":"https://databrussels.be/id/streetname/970","STRNAMEFRE":"Rue du Pommier","STRNAMEDUT":"Appelboomstraat","MUNNISCODE":"21001","HIERARCHY":"DR","LVL":0,"ADMIN":"MUN_RBC","AREA":44},"bbox":[143152.95605378,169186.83600034,143169.02800002,169194.57900035]},{"type":"Feature","id":"StreetSurfaces.fid--248e32d7_1a0253bd0a7_-1462","geometry":{"type":"Polygon","coordinates":[[[143152.95605378,169193.00454811],[143153.40999999,169194.57900035],[143148.076,169196.11700036],[143130.41800001,169204.83700034],[143112.972,169214.01000034],[143089.14400001,169227.45400035],[143048.653,169251.48800036],[143009.996,169275.29200036],[143002.928,169279.20800034],[142996.41199999,169282.23000034],[142956.65799999,169295.40100035],[142937.022,169301.56000034],[142923.64300001,169306.20200034],[142914.01600001,169310.10300035],[142893.4,169319.48000034],[142835.68,169348.82000035],[142818.40999999,169357.42000035],[142799.74000001,169366.39000036],[142788.83,169370.74000036],[142771.44000001,169378.40000035],[142760.39000001,169383.61000034],[142751.75999999,169388.18000034],[142739.71800001,169395.22300035],[142725.70999999,169404.45000035],[142710.37000001,169414.04000036],[142705.17,169419.11000034],[142696.94100001,169423.07900035],[142693.19000001,169424.69000036],[142676.78,169432.47000035],[142642.03,169441.29000036],[142587.4,169446.26000034],[142585.45815592,169446.06799778],[142584.29979938,169440.86546499],[142592.2512775,169440.37856034],[142596.5684325,169440.03536035],[142601.11403,169439.69872035],[142607.79140251,169439.20416035],[142616.6269975,169438.44544035],[142628.21828001,169437.43312034],[142629.11252501,169437.34368035],[142640.30798249,169436.19504036],[142643.07751501,169435.90256034],[142650.850595,169434.78752035],[142655.1725425,169434.16752035],[142661.54834249,169433.05392035],[142664.01470499,169432.45424034],[142666.6582125,169431.81152035],[142670.31489,169430.76832034],[142673.85423999,169429.58448035],[142679.60825751,169427.61664034],[142685.17519,169425.28416034],[142692.93868501,169421.92048034],[142694.5427525,169421.20672034],[142702.08703499,169417.59536034],[142714.017875,169410.58640036],[142726.42885251,169402.50224034],[142741.16135249,169393.33648035],[142754.67442751,169385.41328036],[142766.2066025,169379.49440035],[142776.75453999,169374.75904035],[142787.2556175,169370.32864036],[142797.03001001,169366.09744035],[142808.66833,169361.00032035],[142819.20810249,169355.69872035],[142852.4836725,169338.70208036],[142867.50159249,169330.99360036],[142875.76865499,169326.89136035],[142884.45390749,169322.63760034],[142894.4162725,169317.77280034],[142901.42113249,169314.60816034],[142908.4440975,169311.38048035],[142914.457265,169308.80192036],[142920.77697501,169306.30432035],[142927.727875,169303.74384035],[142935.10229001,169301.46272034],[142944.56570251,169298.34992036],[142955.77749,169294.71856035],[142963.10699749,169292.24800035],[142982.99480751,169285.92768034],[142994.71477749,169281.84336034],[142997.121855,169280.86048035],[143000.0000175,169279.51888036],[143003.2908675,169277.88192035],[143006.95908251,169275.91680035],[143010.46027,169273.90000035],[143014.28965499,169271.56640035],[143027.885445,169263.00992035],[143035.18726251,169258.59056035],[143039.11462751,169256.04384035],[143042.8634275,169253.81952034],[143047.458725,169251.03648035],[143052.01373,169248.24768035],[143056.01600001,169245.95424034],[143064.86100249,169240.79712035],[143069.66362,169238.07152035],[143073.83274,169235.58800036],[143081.96951749,169230.74784035],[143085.6146575,169228.53520035],[143089.61106999,169226.13248035],[143098.962835,169220.87712034],[143104.7214675,169217.70208036],[143115.51275749,169211.74944035],[143121.69739001,169208.59152035],[143127.16226001,169205.68144034],[143133.07620499,169202.52352034],[143138.178265,169199.83232035],[143141.6045475,169198.04592034],[143146.9309675,169195.57920035],[143152.25188501,169193.32560035],[143152.95605378,169193.00454811]]]},"geometry_name":"GEOM","properties":{"INSPIRE_ID":"https://databrussels.be/id/streetsurface/162260","TYPE":"SW","STREET_ID":"https://databrussels.be/id/streetname/2745","STRNAMEFRE":"Rue des Papillons","STRNAMEDUT":"Vlindersstraat","MUNNISCODE":"21001","HIERARCHY":"DR","LVL":0,"ADMIN":"MUN_RBC","AREA":1050},"bbox":[142584.29979938,169193.00454811,143153.40999999,169446.26000034]},{"type":"Feature","id":"StreetSurfaces.fid--248e32d7_1a0253bd0a7_-147f","geometry":{"type":"Polygon","coordinates":[[[143241.30999999,169524.56000034],[143244.927,169519.34200036],[143248.54400001,169514.12500035],[143242.90283492,169495.12589974],[143245.99993,169504.86000034],[143247.3764425,169504.57616035],[143248.10685501,169506.76768035],[143250.542155,169514.23472034],[143251.26103001,169517.42320036],[143251.6783325,169519.83488034],[143251.71312251,169520.60016035],[143251.8893837,169523.76390835],[143241.30999999,169524.56000034]]]},"geometry_name":"GEOM","properties":{"INSPIRE_ID":"https://databrussels.be/id/streetsurface/162261","TYPE":"SW","STREET_ID":"https://databrussels.be/id/streetname/884","STRNAMEFRE":"Rue Pierre Van Reymenant","STRNAMEDUT":"Pierre Van Reymenantstraat","MUNNISCODE":"21001","HIERARCHY":"DR","LVL":0,"ADMIN":"MUN_RBC","AREA":82},"bbox":[143241.30999999,169495.12589974,143251.8893837,169524.56000034]},{"type":"Feature","id":"StreetSurfaces.fid--248e32d7_1a0253bd0a7_-1463","geometry":{"type":"Polygon","coordinates":[[[143168.08,169190.35000035],[143169.02800002,169190.28256396],[143169.22993751,169191.08000035],[143169.5799675,169192.59008035],[143170.31996501,169195.56000034],[143170.96003001,169198.54992036],[143171.61003499,169201.54000036],[143171.55199251,169201.94496035],[143174.16993999,169211.18000034],[143175.25002749,169215.69008035],[143176.34005499,169220.19008035],[143177.41996501,169224.70000035],[143179.36004,169233.02000035],[143180.31001999,169237.18000034],[143181.34005251,169241.72000035],[143182.35996749,169246.26000034],[143183.320065,169250.81008035],[143184.30004251,169255.99008035],[143185.21008501,169261.18000034],[143186.11995001,169266.36000034],[143187.65994,169274.62000035],[143190.780035,169291.12000035],[143191.58996749,169296.32992035],[143192.38996,169301.54000036],[143193.3000025,169306.72000035],[143194.22992499,169311.32992035],[143195.2500175,169315.91008035],[143196.340045,169320.48000034],[143197.1599175,169323.63008036],[143198.00996499,169326.76992034],[143198.86001251,169329.92000035],[143200.54999001,169336.88000034],[143202.23002751,169343.85008034],[143203.9500025,169350.80000035],[143205.7200325,169357.65008034],[143207.53,169364.48000034],[143209.27997251,169371.32992035],[143210.84995999,169377.90000035],[143212.37007001,169384.49008035],[143213.9599375,169391.04992036],[143216.460025,169400.48000034],[143219.12004001,169409.87008034],[143221.84005001,169419.24000036],[143224.36001749,169427.66000034],[143226.93004,169436.06000034],[143229.45994749,169444.47008034],[143232.1600775,169453.93008036],[143234.809975,169463.41008035],[143237.49998751,169472.87008034],[143239.24001999,169478.80000035],[143242.7600225,169490.64000036],[143243.62995,169494.97008034],[143242.90283492,169495.12589974],[143240.79000001,169488.01000034],[143232.20999999,169458.37000035],[143211.33,169385.66000034],[143209.56900001,169378.21400036],[143204.44100001,169357.97100035],[143199.271,169337.20300035],[143195.05699999,169320.78600034],[143192.004,169306.96800036],[143190.00999999,169289.10000035],[143181.55,169248.47000035],[143175.55,169224.20000035],[143171.08499999,169201.53500034],[143168.08,169190.35000035]]]},"geometry_name":"GEOM","properties":{"INSPIRE_ID":"https://databrussels.be/id/streetsurface/162262","TYPE":"SW","STREET_ID":"https://databrussels.be/id/streetname/884","STRNAMEFRE":"Rue Pierre Van Reymenant","STRNAMEDUT":"Pierre Van Reymenantstraat","MUNNISCODE":"21001","HIERARCHY":"DR","LVL":0,"ADMIN":"MUN_RBC","AREA":345},"bbox":[143168.08,169190.28256396,143243.62995,169495.12589974]},{"type":"Feature","id":"StreetSurfaces.fid--248e32d7_1a0253bd0a7_-147e","geometry":{"type":"Polygon","coordinates":[[[143303.03021781,169517.52497977],[143302.68,169516.12000035],[143313.53,169513.02000035],[143327.73165279,169508.39962484],[143355.94400001,169499.22100035],[143356.397207,169500.61394543],[143354.550055,169501.22000035],[143346.4899575,169503.85008034],[143330.35006001,169509.10992035],[143324.88998251,169510.90000035],[143319.43008251,169512.70000035],[143313.9499475,169514.41008035],[143308.50992751,169516.01008035],[143303.03021781,169517.52497977]]]},"geometry_name":"GEOM","properties":{"INSPIRE_ID":"https://databrussels.be/id/streetsurface/162590","TYPE":"SW","STREET_ID":"https://databrussels.be/id/streetname/3233","STRNAMEFRE":"Avenue d'Itterbeek","STRNAMEDUT":"Itterbeekse Laan","MUNNISCODE":"21001","HIERARCHY":"IDR","LVL":0,"ADMIN":"MUN_RBC","AREA":83},"bbox":[143302.68,169499.22100035,143356.397207,169517.52497977]},{"type":"Feature","id":"StreetSurfaces.fid--248e32d7_1a0253bd0a7_-147b","geometry":{"type":"Polygon","coordinates":[[[143355.94400001,169499.22100035],[143361.10999999,169497.54000036],[143420.75,169478.11000034],[143476.43299999,169459.88500034],[143509.23,169449.15000035],[143518.46199999,169446.22300035],[143518.90016146,169447.60504881],[143509.690025,169450.58000034],[143500.0100625,169453.74000036],[143490.32992251,169456.91008035],[143478.86998999,169460.65008034],[143473.1500525,169462.52000035],[143452.12997,169469.34000036],[143441.6200175,169472.76992034],[143431.41998,169476.14000036],[143421.2199425,169479.53008036],[143411.0300225,169482.92000035],[143404.96005499,169484.81008035],[143398.90002749,169486.70000035],[143392.84993999,169488.62000035],[143387.0799475,169490.50000035],[143381.32007251,169492.41008035],[143375.56996,169494.31008035],[143368.5599525,169496.62000036],[143361.5600625,169498.92000035],[143356.397207,169500.61394543],[143355.94400001,169499.22100035]]]},"geometry_name":"GEOM","properties":{"INSPIRE_ID":"https://databrussels.be/id/streetsurface/162877","TYPE":"SW","STREET_ID":"https://databrussels.be/id/streetname/3233","STRNAMEFRE":"Avenue d'Itterbeek","STRNAMEDUT":"Itterbeekse Laan","MUNNISCODE":"21001","HIERARCHY":"IDR","LVL":0,"ADMIN":"MUN_RBC","AREA":249},"bbox":[143355.94400001,169446.22300035,143518.90016146,169500.61394543]},{"type":"Feature","id":"StreetSurfaces.fid--248e32d7_1a0253bd0a7_-1460","geometry":{"type":"Polygon","coordinates":[[[143153.02523589,169167.25877232],[143152.34200001,169170.18100034],[143151.6121069,169173.30496322],[143148.00999,169172.52000035],[143135.61995749,169169.81008035],[143123.2400425,169167.08000035],[143109.370015,169163.95008034],[143095.49998751,169160.79008035],[143081.62995999,169157.68000034],[143070.550055,169155.26000034],[143059.46997249,169152.86000034],[143048.37995,169150.47008034],[143040.26003499,169148.63008036],[143036.230075,169147.62000035],[143032.810005,169146.64000036],[143029.40999251,169145.60000035],[143026.0399775,169144.49008035],[143021.800035,169143.02000036],[143017.58991251,169141.45008034],[143013.4200825,169139.79008035],[143010.38998001,169138.48000035],[143007.369995,169137.13008036],[143004.35995,169135.78000035],[143000.0000175,169133.71008035],[142991.9834075,169129.57424034],[142987.150615,169127.27552034],[142982.93712001,169125.38784036],[142977.38083749,169123.00800034],[142972.357055,169120.98704034],[142966.38968251,169118.84432036],[142961.18059001,169117.24592034],[142958.27509251,169116.49872035],[142954.56498749,169115.67040035],[142948.67873249,169114.33808035],[142943.31326251,169113.20848035],[142938.8796675,169112.36272034],[142934.72971749,169111.66160034],[142928.95919249,169110.98336035],[142922.93963499,169110.37456035],[142915.06786499,169109.56864034],[142908.33067501,169108.82080034],[142892.36721251,169107.03536035],[142874.57479,169105.22640034],[142860.26101251,169103.68432035],[142837.78613999,169101.30720035],[142827.6141475,169100.19184035],[142824.80361249,169099.85216035],[142818.12428751,169099.11024035],[142811.288585,169098.24080035],[142805.8015275,169097.58576035],[142798.72282751,169096.52528035],[142791.6963125,169095.49376034],[142784.48448751,169094.45072035],[142777.8513125,169093.46560034],[142771.36297751,169092.52096035],[142763.46245251,169091.35040034],[142756.0422425,169090.22624034],[142749.36291749,169089.27584034],[142743.1119,169088.36592034],[142737.8967725,169087.78624035],[142734.08833251,169087.37472035],[142728.7864075,169087.13648034],[142722.00857,169087.02528035],[142708.6958925,169087.60768036],[142701.06712,169088.08672034],[142694.91426001,169088.42720036],[142689.05090251,169088.84864034],[142683.5405925,169089.23552035],[142677.08101251,169089.74960035],[142671.24073,169090.15376035],[142665.21531501,169090.61008035],[142658.71526501,169090.92144035],[142652.3424825,169091.22720036],[142644.03069,169091.47456035],[142638.20496249,169091.47472035],[142622.96996,169090.19008035],[142618.08001249,169089.40000035],[142612.98008251,169088.51008035],[142607.9000325,169087.54992036],[142602.81998251,169086.58000035],[142596.27999499,169085.35008034],[142589.73006749,169084.10992035],[142583.20002,169082.82992035],[142577.19998751,169081.60992035],[142571.21007249,169080.34000036],[142560.4063575,169077.76960036],[142545.77024,169074.45536036],[142535.13018,169071.85328035],[142523.99507251,169069.05776035],[142514.786905,169066.82912034],[142506.45328,169064.91728036],[142498.48424001,169062.98960034],[142492.296945,169061.57392036],[142487.86707749,169060.46784035],[142481.348035,169058.54976036],[142472.9421675,169055.94928035],[142464.40708001,169053.03264035],[142458.00998001,169050.68528034],[142451.94440625,169048.46731485],[142453.23599999,169045.98900036],[142454.16367857,169044.20812189],[142454.38,169044.30000035],[142456.28,169045.01000034],[142458.18,169045.73000034],[142462.45,169047.29000036],[142466.70999999,169048.86000034],[142471,169050.34000036],[142474.2,169051.35000035],[142477.40999999,169052.32000035],[142480.63,169053.26000034],[142486.1,169054.81000034],[142491.59000001,169056.29000036],[142497.1,169057.72000036],[142502.87000001,169059.18000034],[142508.65999999,169060.59000036],[142514.45,169061.99000036],[142522.12000001,169063.83000035],[142529.79000001,169065.64000036],[142537.47000001,169067.41000034],[142544.70999999,169069.05000035],[142551.95,169070.65000035],[142559.2,169072.24000036],[142569.85,169074.59000036],[142580.50999999,169076.91000034],[142591.19000001,169079.10000035],[142601.42,169081.00000035],[142611.65999999,169082.78000035],[142621.90999999,169084.57000035],[142627.39000001,169085.41000034],[142630.14000001,169085.75000035],[142632.15,169085.92000035],[142634.15999999,169086.05000035],[142635.14000001,169086.10000035],[142636.18,169086.16000034],[142639.89000001,169086.30000035],[142643.6,169086.36000034],[142647.30999999,169086.35000035],[142651.48,169086.24000036],[142655.65,169086.05000035],[142659.82000001,169085.83000035],[142664.27000001,169085.55000035],[142668.72000001,169085.22000035],[142673.17,169084.90000035],[142694.53,169083.24000036],[142699.23,169082.94000036],[142703.93,169082.65000035],[142708.62000001,169082.39000036],[142712.50999999,169082.19000036],[142716.39000001,169082.01000034],[142720.28,169081.91000034],[142725.08,169081.91000034],[142729.87000001,169082.02000035],[142734.65999999,169082.30000035],[142740.2,169082.89000036],[142745.74000001,169083.70000035],[142751.27000001,169084.53000035],[142757.15,169085.38000034],[142763.03,169086.26000034],[142768.92,169087.13000034],[142779.85999999,169088.67000035],[142785.33,169089.45000035],[142789.35,169090.03000034],[142793.38,169090.62000036],[142797.4,169091.22000035],[142801.78,169091.90000035],[142806.15,169092.59000036],[142810.53,169093.24000036],[142819.30999999,169094.34000036],[142828.1,169095.27000035],[142834.93,169095.97000035],[142836.9,169096.17000035],[142844.59000001,169096.98000034],[142852.29000001,169097.76000034],[142859.99000001,169098.56000034],[142871.37000001,169099.79000036],[142882.74000001,169101.06000034],[142894.12000001,169102.29000036],[142900.45999999,169102.94000036],[142913.14000001,169104.22000035],[142918,169104.74000036],[142922.85,169105.25000035],[142927.7,169105.82000035],[142932.82000001,169106.47000036],[142937.93,169107.17000035],[142943.02000001,169108.00000035],[142946.60999999,169108.69000036],[142950.19000001,169109.44000036],[142953.75,169110.24000036],[142956.82000001,169110.96000034],[142959.89000001,169111.71000034],[142962.93,169112.52000035],[142966.09000001,169113.45000035],[142969.22000001,169114.45000035],[142972.33,169115.52000035],[142976.10999999,169116.99000036],[142979.85,169118.57000035],[142983.57000001,169120.19000036],[142987.35,169121.85000035],[142991.1,169123.55000035],[142994.85,169125.27000035],[142999.2,169127.29000036],[143000,169127.67000035],[143003.54000001,169129.34000036],[143007.88,169131.40000035],[143014.94000001,169134.46000034],[143018.50999999,169135.87000035],[143020.64000001,169136.62000035],[143022.78,169137.32000035],[143024.93,169138.00000035],[143027.84000001,169138.89000036],[143030.75999999,169139.74000036],[143033.69000001,169140.53000034],[143038.27000001,169141.61000034],[143042.87000001,169142.56000034],[143047.47000001,169143.52000036],[143053.49000001,169144.86000034],[143059.50999999,169146.23000034],[143065.52000001,169147.60000035],[143077.77000001,169150.35000035],[143090.00999999,169153.10000035],[143102.25999999,169155.85000035],[143119.59000001,169159.77000035],[143136.90999999,169163.69000036],[143153.02523589,169167.25877232]]]},"geometry_name":"GEOM","properties":{"INSPIRE_ID":"https://databrussels.be/id/streetsurface/2232","TYPE":"S","STREET_ID":"https://databrussels.be/id/streetname/970","STRNAMEFRE":"Rue du Pommier","STRNAMEDUT":"Appelboomstraat","MUNNISCODE":"21001","HIERARCHY":"DR","LVL":0,"ADMIN":"MUN_RBC","AREA":3785},"bbox":[142451.94440625,169044.20812189,143153.02523589,169173.30496322]},{"type":"Feature","id":"StreetSurfaces.fid--248e32d7_1a0253bd0a7_-1466","geometry":{"type":"Polygon","coordinates":[[[143152.00630205,169189.71002783],[143152.43,169191.18000034],[143152.95605378,169193.00454811],[143152.25188501,169193.32560035],[143146.9309675,169195.57920035],[143141.6045475,169198.04592034],[143138.178265,169199.83232035],[143133.07620499,169202.52352034],[143127.16226001,169205.68144034],[143121.69739001,169208.59152035],[143115.51275749,169211.74944035],[143104.7214675,169217.70208036],[143098.962835,169220.87712034],[143089.61106999,169226.13248035],[143085.6146575,169228.53520035],[143081.96951749,169230.74784035],[143073.83274,169235.58800036],[143069.66362,169238.07152035],[143064.86100249,169240.79712035],[143056.01600001,169245.95424034],[143052.01373,169248.24768035],[143047.458725,169251.03648035],[143042.8634275,169253.81952034],[143039.11462751,169256.04384035],[143035.18726251,169258.59056035],[143027.885445,169263.00992035],[143014.28965499,169271.56640035],[143010.46027,169273.90000035],[143006.95908251,169275.91680035],[143003.2908675,169277.88192035],[143000.0000175,169279.51888036],[142997.121855,169280.86048035],[142994.71477749,169281.84336034],[142982.99480751,169285.92768034],[142963.10699749,169292.24800035],[142955.77749,169294.71856035],[142944.56570251,169298.34992036],[142935.10229001,169301.46272034],[142927.727875,169303.74384035],[142920.77697501,169306.30432035],[142914.457265,169308.80192036],[142908.4440975,169311.38048035],[142901.42113249,169314.60816034],[142894.4162725,169317.77280034],[142884.45390749,169322.63760034],[142875.76865499,169326.89136035],[142867.50159249,169330.99360036],[142852.4836725,169338.70208036],[142819.20810249,169355.69872035],[142808.66833,169361.00032035],[142797.03001001,169366.09744035],[142787.2556175,169370.32864036],[142776.75453999,169374.75904035],[142766.2066025,169379.49440035],[142754.67442751,169385.41328036],[142741.16135249,169393.33648035],[142726.42885251,169402.50224034],[142714.017875,169410.58640036],[142702.08703499,169417.59536034],[142694.5427525,169421.20672034],[142692.93868501,169421.92048034],[142685.17519,169425.28416034],[142679.60825751,169427.61664034],[142673.85423999,169429.58448035],[142670.31489,169430.76832034],[142666.6582125,169431.81152035],[142664.01470499,169432.45424034],[142661.54834249,169433.05392035],[142655.1725425,169434.16752035],[142650.850595,169434.78752035],[142643.07751501,169435.90256034],[142640.30798249,169436.19504036],[142629.11252501,169437.34368035],[142628.21828001,169437.43312034],[142616.6269975,169438.44544035],[142607.79140251,169439.20416035],[142601.11403,169439.69872035],[142596.5684325,169440.03536035],[142592.2512775,169440.37856034],[142584.29935939,169440.86526533],[142580.55335941,169441.12970444],[142573.33136637,169441.69555182],[142566.93537471,169442.21430253],[142563.69038007,169442.48668355],[142558.60240405,169443.04028288],[142554.94243374,169443.53971552],[142552.51146114,169443.93400382],[142550.67048371,169444.24722237],[142547.91552012,169444.73754975],[142545.3205684,169445.31285981],[142543.95859547,169445.62902278],[142541.92764025,169446.13626632],[142538.96373723,169447.13362559],[142534.74988096,169448.5991371],[142531.12603498,169450.10658072],[142529.857093,169450.66773657],[142528.0241715,169451.43496102],[142526.80123534,169452.04011218],[142523.23707051,169450.1884282],[142525.72321251,169449.12624034],[142528.247085,169448.10288035],[142530.787465,169447.16208035],[142533.59178751,169446.07264034],[142537.31982,169444.80176035],[142539.2827925,169444.22416035],[142542.05409999,169443.33280035],[142545.6337425,169442.35904035],[142549.41129749,169441.55024034],[142553.2548825,169440.65888034],[142557.4282625,169439.88320035],[142561.78322501,169439.35504035],[142566.210075,169439.08000034],[142576.5400425,169437.99008035],[142583.68494999,169437.41008035],[142586.89006751,169437.15008034],[142597.2500325,169436.32992035],[142604.26998,169435.75008034],[142611.28992751,169435.19008035],[142618.31005249,169434.60992035],[142627.87002499,169433.75008034],[142637.42999749,169432.85008034],[142646.98002999,169431.95008034],[142651.12004001,169431.30000035],[142655.26005001,169430.64000036],[142659.3700625,169429.88000034],[142662.72002001,169429.17008034],[142666.04992001,169428.38000034],[142669.35994001,169427.50000035],[142671.97007749,169426.73008036],[142674.56991999,169425.89008035],[142677.1399425,169424.99008035],[142680.539955,169423.63008036],[142683.90997,169422.17008034],[142687.270045,169420.70000035],[142690.41996,169419.35008034],[142693.57999251,169417.99008035],[142696.68996999,169416.56000034],[142700.7999825,169414.42000035],[142704.84006,169412.14000036],[142708.8499625,169409.78000034],[142713.8199625,169406.72000035],[142718.7200275,169403.54000036],[142723.63003249,169400.37008034],[142727.62005501,169397.82000035],[142731.6200175,169395.26992034],[142735.62992001,169392.74000036],[142739.31996751,169390.42000035],[142743.01995499,169388.10992035],[142746.7600575,169385.86000034],[142750.11001501,169383.94000036],[142753.48996999,169382.08000034],[142756.89992249,169380.26992034],[142759.9699625,169378.72000035],[142763.07000001,169377.22000035],[142766.15992,169375.72000035],[142767.09995999,169375.37008034],[142768.03006001,169375.01008035],[142768.8399925,169374.51008035],[142769.34995,169373.98000034],[142769.7899725,169373.36000034],[142770.119945,169372.71008035],[142770.37004249,169371.84000036],[142770.46003499,169370.91008035],[142770.42899394,169370.60021431],[142772.05630698,169369.61719433],[142773.38292749,169368.81600036],[142773.5199575,169368.98000034],[142774.31995001,169369.70000035],[142774.83008499,169370.07008034],[142775.37997999,169370.41008035],[142775.96005001,169370.62000035],[142776.4000725,169370.65008034],[142777.32005501,169370.59008035],[142782.29005499,169368.56000034],[142787.24993751,169366.53008036],[142792.18994,169364.44000036],[142798.75992501,169361.50000035],[142805.2899725,169358.46000034],[142811.81008,169355.42000035],[142820.19997251,169351.10992035],[142828.57992499,169346.81008035],[142836.979935,169342.54000036],[142843.12995501,169339.47008034],[142849.28991499,169336.42000035],[142855.43993499,169333.35008034],[142862.49005749,169329.76992034],[142869.53006251,169326.18000034],[142876.610005,169322.64000036],[142882.4499325,169319.82000035],[142888.29997749,169317.03008036],[142894.15996251,169314.25008034],[142903.3200275,169310.17008034],[142907.90999999,169308.15008034],[142911.7999125,169306.46000034],[142915.69994249,169304.78000035],[142919.62003,169303.18000034],[142923.38995249,169301.76000034],[142927.1799325,169300.42000035],[142930.98002999,169299.10000035],[142936.66003001,169297.22000035],[142942.3700275,169295.41008035],[142948.08002501,169293.59008035],[142986.01994,169281.31008035],[142989.3500175,169280.18000034],[142992.6699775,169279.04000036],[142995.94006,169277.76992034],[142998.139995,169276.78000034],[143000.0000175,169275.87008034],[143000.32005,169275.71008035],[143002.48004749,169274.60992035],[143005.009955,169273.22000035],[143007.51998251,169271.78000034],[143010.02007001,169270.32992035],[143016.12997501,169266.51008035],[143022.24005749,169262.70000035],[143028.36008,169258.90000035],[143033.999965,169255.46000034],[143039.6400275,169252.04000036],[143045.29003,169248.62000035],[143047.12999499,169247.57008034],[143048.98007751,169246.52000035],[143050.82004249,169245.47008034],[143060.83991749,169239.59008035],[143070.8200325,169233.64000036],[143080.8200275,169227.71008035],[143089.1600425,169222.84000036],[143097.50999751,169217.99008035],[143105.9100075,169213.23008036],[143113.48996749,169209.04992036],[143121.1100425,169204.94000036],[143128.78993499,169200.94000036],[143137.8500675,169196.45008034],[143146.99007499,169192.10000035],[143152.00630205,169189.71002783]]]},"geometry_name":"GEOM","properties":{"INSPIRE_ID":"https://databrussels.be/id/streetsurface/24480","TYPE":"S","STREET_ID":"https://databrussels.be/id/streetname/2745","STRNAMEFRE":"Rue des Papillons","STRNAMEDUT":"Vlindersstraat","MUNNISCODE":"21001","HIERARCHY":"DR","LVL":0,"ADMIN":"MUN_RBC","AREA":2332},"bbox":[142523.23707051,169189.71002783,143152.95605378,169452.04011218]},{"type":"Feature","id":"StreetSurfaces.fid--248e32d7_1a0253bd0a7_-1473","geometry":{"type":"Polygon","coordinates":[[[143614.3005225,168996.39906793],[143614.07,168997.88000035],[143613.81675566,168999.50690336],[143613.26,168999.46000035],[143613.14,169000.23000035],[143610.47,169000.00000035],[143599.8,168999.09000035],[143595.74,168998.75000035],[143590.32,168998.36000035],[143585.76,168998.15000035],[143580.93,168998.03000035],[143578.39,168998.01000035],[143572.26,168998.04000035],[143565.09,168998.22000035],[143560.23,168998.43000035],[143555.38,168998.71000035],[143550.54,168999.11000035],[143541.75,169000.18000035],[143529.03,169001.99000035],[143507.58662164,169005.14577546],[143491.25,169007.55000035],[143490.49,169007.68000035],[143490.12,169007.77000035],[143489.71,169007.93000035],[143489.32,169008.13000035],[143488.56,169008.55000035],[143488.19,169008.76000035],[143488.01809697,169008.86805368],[143487.79,169005.53200035],[143487.60618385,169002.83719451],[143487.71,169002.84000035],[143488.82,169002.78000035],[143489.94,169002.71000035],[143508.83,169000.00000035],[143537.02,168995.85000035],[143543.77,168994.94000035],[143556.87,168993.80000035],[143563.43,168993.39000035],[143568.52,168993.23000035],[143573.62,168993.18000035],[143578.72,168993.21000035],[143583.3,168993.30000035],[143587.88,168993.46000035],[143592.46,168993.70000035],[143595.67,168993.95000035],[143598.89,168994.25000035],[143602.1,168994.54000035],[143613.65,168995.68000035],[143613.57,168996.33000035],[143614.3005225,168996.39906793]]]},"geometry_name":"GEOM","properties":{"INSPIRE_ID":"https://databrussels.be/id/streetsurface/26007","TYPE":"S","STREET_ID":"https://databrussels.be/id/streetname/5559","STRNAMEFRE":"Drève Tyl Uylenspiegel","STRNAMEDUT":"Tijl Uilenspiegeldreef","MUNNISCODE":"21001","HIERARCHY":"DR","LVL":0,"ADMIN":"MUN_RBC","AREA":616},"bbox":[143487.60618385,168993.18000035,143614.3005225,169008.86805368]},{"type":"Feature","id":"StreetSurfaces.fid--248e32d7_1a0253bd0a7_-147a","geometry":{"type":"Polygon","coordinates":[[[143359.79251809,169511.05035957],[143358.052,169505.70000035],[143356.397207,169500.61394543],[143361.5600625,169498.92000035],[143368.5599525,169496.62000036],[143375.56996,169494.31008035],[143381.32007251,169492.41008035],[143387.0799475,169490.50000035],[143392.84993999,169488.62000035],[143398.90002749,169486.70000035],[143404.96005499,169484.81008035],[143411.0300225,169482.92000035],[143421.2199425,169479.53008036],[143431.41998,169476.14000036],[143441.6200175,169472.76992034],[143452.12997,169469.34000036],[143473.1500525,169462.52000035],[143478.86998999,169460.65008034],[143490.32992251,169456.91008035],[143500.0100625,169453.74000036],[143509.690025,169450.58000034],[143518.90016146,169447.60504881],[143520.64100001,169453.09600035],[143522.31140707,169458.36556353],[143521.52000001,169458.51700036],[143517.62000001,169459.76000034],[143513.77000001,169460.99000036],[143509.93,169462.24000036],[143505.63,169463.68000034],[143501.34000001,169465.16000034],[143497.04000001,169466.62000035],[143491.49000001,169468.47000035],[143485.94000001,169470.31000034],[143480.39000001,169472.14000036],[143471.93,169474.92000035],[143463.45999999,169477.69000036],[143454.98,169480.44000036],[143448.48,169482.54000036],[143441.97000001,169484.63000034],[143435.47000001,169486.72000035],[143422.69000001,169490.88000034],[143416.30999999,169492.96000034],[143411.3,169494.56000034],[143406.3,169496.16000034],[143401.29000001,169497.77000035],[143391.75,169500.82000035],[143382.22000001,169503.87000035],[143372.68,169506.92000035],[143364.54000001,169509.53000034],[143359.79251809,169511.05035957]]]},"geometry_name":"GEOM","properties":{"INSPIRE_ID":"https://databrussels.be/id/streetsurface/27965","TYPE":"S","STREET_ID":"https://databrussels.be/id/streetname/3233","STRNAMEFRE":"Avenue d'Itterbeek","STRNAMEDUT":"Itterbeekse Laan","MUNNISCODE":"21001","HIERARCHY":"IDR","LVL":0,"ADMIN":"MUN_RBC","AREA":1926},"bbox":[143356.397207,169447.60504881,143522.31140707,169511.05035957]},{"type":"Feature","id":"StreetSurfaces.fid--248e32d7_1a0253bd0a7_-146a","geometry":{"type":"Polygon","coordinates":[[[143480.01331766,169014.24368752],[143483.526,169013.15600034],[143484.86291349,169012.74174546],[143484.68,169013.26000034],[143484.5,169013.94000036],[143484.38,169014.57000035],[143484.30999999,169015.20000035],[143484.3,169015.82000035],[143484.38,169016.41000034],[143484.50999999,169016.99000036],[143484.65,169017.58000034],[143488.55999999,169030.44000036],[143497.55,169058.64000036],[143499.89000001,169066.24000036],[143501.94000001,169072.07000035],[143505.01234343,169080.24787878],[143506.78,169084.64000036],[143507.93,169087.26000034],[143510.35,169092.47000035],[143512.75999999,169097.48000034],[143515.84000001,169103.68000034],[143517.73,169107.36000034],[143519.75,169110.96000034],[143522.99000001,169116.08000034],[143528.03,169123.77000035],[143530.32000001,169127.05000035],[143532.37000001,169129.77000035],[143534.5,169132.43000034],[143536.70999999,169135.03000035],[143540.33,169138.94000036],[143540.62868605,169139.23328847],[143541.01057303,169139.60827388],[143545.37674825,169143.759801],[143548.52280109,169146.68471936],[143551.68,169149.62000035],[143559.4,169155.60000035],[143562.5,169157.86000034],[143571.25999999,169163.92000035],[143576.20999999,169167.23000034],[143587.00999999,169173.75000035],[143592.44000001,169176.94000036],[143595.02808962,169178.40337898],[143598.63,169180.44000036],[143603.90999999,169183.48000034],[143626.49000001,169196.03000034],[143643.42,169205.94000036],[143664.59000001,169218.68000034],[143678.24777565,169226.75861927],[143679.89000001,169227.73000034],[143682.01600001,169228.75300035],[143683.90999999,169229.26000034],[143682.48800001,169231.60800034],[143681.79669817,169232.74915847],[143678.25,169230.58000034],[143667.77000001,169224.25000035],[143650.45999999,169213.78000035],[143633.04000001,169203.50000035],[143620.92,169196.62000035],[143608.75,169189.83000035],[143596.58,169183.05000035],[143589.02000001,169178.53000035],[143581.45999999,169173.94000036],[143567.75,169165.13000034],[143564.35999999,169162.81000034],[143558.77000001,169158.98000034],[143552.65999999,169154.52000035],[143543.33,169146.45000035],[143538.3,169141.21000034],[143535.34000001,169138.13000034],[143534.75999999,169137.53000034],[143529.5,169131.05000035],[143523.49000001,169122.92000035],[143517.00999999,169112.21000034],[143511.8,169102.78000035],[143506.42,169091.41000034],[143502.30999999,169081.87000035],[143497.52000001,169069.58000034],[143493.59000001,169057.30000035],[143490.4,169047.20000035],[143487.2,169037.10000035],[143484.02000001,169027.01000034],[143481.12000001,169017.69000036],[143480.01331766,169014.24368752]]]},"geometry_name":"GEOM","properties":{"INSPIRE_ID":"https://databrussels.be/id/streetsurface/2819","TYPE":"S","STREET_ID":"https://databrussels.be/id/streetname/1593","STRNAMEFRE":"Rue de Scherdemael","STRNAMEDUT":"Scherdemaalstraat","MUNNISCODE":"21001","HIERARCHY":"DR","LVL":0,"ADMIN":"MUN_RBC","AREA":988},"bbox":[143480.01331766,169012.74174546,143683.90999999,169232.74915847]},{"type":"Feature","id":"StreetSurfaces.fid--248e32d7_1a0253bd0a7_-1477","geometry":{"type":"Polygon","coordinates":[[[143475.24603999,169000.69262221],[143474.95,169000.00000035],[143467.83,168983.33000035],[143462.02,168971.38000035],[143458.62,168965.16000035],[143455.23,168958.94000035],[143451.59,168952.87000035],[143449.5,168949.70000035],[143447.33,168946.58000035],[143445.11,168943.50000035],[143440.01,168936.85000035],[143434.62,168930.41000035],[143428.95,168924.24000035],[143425.49,168920.79000035],[143421.94,168917.43000035],[143418.3,168914.16000035],[143414.22,168910.68000035],[143410.04,168907.30000035],[143405.78,168904.03000035],[143403.16,168902.12000035],[143400.5,168900.25000035],[143398.69289435,168898.97479749],[143399.832,168897.35600035],[143400.87847664,168895.8685892],[143401.72,168896.46000035],[143410.39,168903.20000035],[143414.95,168906.80000035],[143417.2,168908.63000035],[143419.24,168910.39000035],[143420.25,168911.28000035],[143422.46,168913.20000035],[143424.66,168915.14000035],[143426.81,168917.13000035],[143429.11,168919.42000035],[143431.34,168921.78000035],[143433.53,168924.17000035],[143435.51,168926.37000035],[143437.47,168928.59000035],[143439.39,168930.83000035],[143441.39,168933.24000035],[143443.35,168935.67000035],[143445.27,168938.14000035],[143447.51,168941.15000035],[143449.68,168944.21000035],[143451.79,168947.31000035],[143453.92,168950.58000035],[143455.98,168953.89000035],[143457.98,168957.24000035],[143460.05,168960.87000035],[143462.05,168964.55000035],[143463.99,168968.26000035],[143466.15,168972.56000035],[143468.23,168976.91000035],[143470.26,168981.28000035],[143471.44,168983.84000035],[143472.6,168986.42000035],[143473.74,168989.00000035],[143474.87,168991.59000035],[143475.99,168994.19000035],[143477.1,168996.79000035],[143477.46,168997.31000035],[143477.82,168997.82000035],[143478.22,168998.31000035],[143478.59,168998.66000035],[143479.01879275,168999.08084751],[143478.899,168999.13200035],[143475.24603999,169000.69262221]]]},"geometry_name":"GEOM","properties":{"INSPIRE_ID":"https://databrussels.be/id/streetsurface/6463","TYPE":"S","STREET_ID":"https://databrussels.be/id/streetname/1593","STRNAMEFRE":"Rue de Scherdemael","STRNAMEDUT":"Scherdemaalstraat","MUNNISCODE":"21001","HIERARCHY":"DR","LVL":0,"ADMIN":"MUN_RBC","AREA":437},"bbox":[143398.69289435,168895.8685892,143479.01879275,169000.69262221]},{"type":"Feature","id":"StreetSurfaces.fid--248e32d7_1a0253bd0a7_-145d","geometry":{"type":"Polygon","coordinates":[[[143172.0427048,169190.06802744],[143171.73499999,169190.09000036],[143169.02800002,169190.28256396],[143168.8500875,169189.58000034],[143168.2199625,169188.21008035],[143167.89993,169187.79008035],[143167.56001749,169187.39008035],[143167.2099875,169186.99008035],[143167.02804999,169186.84160034],[143166.88977749,169186.83600034],[143166.693995,169186.85328035],[143166.377335,169186.97440035],[143161.8913775,169189.01456036],[143157.04278751,169191.14128036],[143152.95605378,169193.00454811],[143152.43,169191.18000034],[143152.00630205,169189.71002783],[143156.11996501,169187.75008034],[143157.62995751,169186.97008034],[143159.13001001,169186.18000034],[143160.5700675,169185.31008035],[143161.58998251,169184.63008036],[143162.58007751,169183.90000035],[143163.41006751,169183.04000036],[143163.92002499,169182.26000034],[143164.33999,169181.40000035],[143164.59008751,169180.52000035],[143164.63996501,169179.59008035],[143164.51003499,169178.63008036],[143164.19994249,169177.76000034],[143163.72992251,169177.09008035],[143163.109915,169176.50000035],[143162.4299125,169176.01008035],[143161.78008499,169175.69008035],[143161.08996501,169175.46000034],[143160.40002251,169175.22000035],[143151.6121069,169173.30496322],[143152.34200001,169170.18100034],[143153.02523589,169167.25877232],[143154.25,169167.53000035],[143160.27000001,169168.83000035],[143172.30999999,169171.41000034],[143173.83,169171.81000034],[143174.59000001,169171.93000034],[143176.36693411,169172.38243734],[143180.61909153,169173.46510738],[143182.07719278,169173.74189908],[143182.70210593,169173.7415275],[143183.33860378,169173.62545787],[143183.7552248,169173.50951902],[143184.35702367,169173.21993333],[143185.0051332,169172.73364519],[143185.38708341,169172.17810065],[143187.52844915,169167.83840982],[143191.53909144,169159.68553998],[143192.61300001,169160.74700035],[143194.023,169163.53100034],[143193.79000001,169163.90000035],[143193.13,169164.96000034],[143192.45999999,169165.86000034],[143191.8,169166.77000035],[143191.22000001,169167.72000035],[143190.85999999,169168.51000034],[143190.54000001,169169.32000035],[143190.25999999,169170.15000035],[143190.03,169170.86000034],[143189.83,169171.58000034],[143189.70999999,169172.30000035],[143189.65,169173.05000035],[143189.67,169173.79000036],[143189.87000001,169174.44000036],[143190.27000001,169174.87000035],[143190.8,169175.22000035],[143191.37000001,169175.52000035],[143191.83,169175.72000035],[143192.32000001,169175.90000035],[143192.80999999,169176.07000035],[143197.38,169177.12000035],[143197.94129806,169177.24990777],[143197.39300001,169179.71000034],[143196.69188905,169182.8552554],[143191.9811775,169181.80112034],[143185.49089,169180.35904035],[143183.81333749,169180.07088036],[143183.38520751,169180.07120034],[143182.9340025,169180.17552034],[143182.12407,169180.44208035],[143179.289395,169181.53088035],[143172.67414751,169184.24960035],[143172.20181999,169187.08816034],[143172.1782125,169187.20368034],[143171.993435,169188.12896034],[143172.0427048,169190.06802744]]]},"geometry_name":"GEOM","properties":{"INSPIRE_ID":"https://databrussels.be/id/streetsurface/7112","TYPE":"I","STREET_ID":"https://databrussels.be/id/streetname/970","STRNAMEFRE":"Rue du Pommier","STRNAMEDUT":"Appelboomstraat","MUNNISCODE":"21001","HIERARCHY":"DR","LVL":0,"ADMIN":"MUN_RBC","AREA":517},"bbox":[143151.6121069,169159.68553998,143197.94129806,169193.00454811]},{"type":"Feature","id":"StreetSurfaces.fid--248e32d7_1a0253bd0a7_-1464","geometry":{"type":"Polygon","coordinates":[[[143172.0427048,169190.06802744],[143172.0624825,169190.84640035],[143172.71000249,169193.76000034],[143172.910045,169194.67008034],[143173.15002501,169195.57008034],[143173.399945,169196.48000034],[143174.7700675,169202.45008034],[143176.14995251,169208.43008036],[143177.58007,169214.39008035],[143178.80002749,169219.10992035],[143180.0400425,169223.82000035],[143181.2399425,169228.54000036],[143182.11998751,169232.32000035],[143182.53001249,169234.15008034],[143182.97003501,169236.09008035],[143183.79008501,169239.88000034],[143184.98998499,169245.54000036],[143186.1499475,169251.22000035],[143187.26997249,169256.90000035],[143188.38999751,169262.75008034],[143189.48002501,169268.60000035],[143190.52993751,169274.46000034],[143191.370045,169279.26992034],[143192.17997749,169284.08000035],[143193.00002749,169288.89008035],[143193.150015,169289.74000036],[143193.80996001,169293.57008034],[143194.62007001,169298.26000034],[143195.46994,169302.94000036],[143196.50991249,169308.28000034],[143197.59993999,169313.60992035],[143198.74002249,169318.93008036],[143199.54995501,169322.48000034],[143201.22999251,169329.58000034],[143202.67999001,169335.04000036],[143204.1299875,169340.51008035],[143205.54998751,169345.98000034],[143207.0800375,169352.14000036],[143208.5799125,169358.32000035],[143210.079965,169364.49008035],[143211.60007501,169370.73008036],[143213.140065,169376.97008034],[143214.69993501,169383.21008035],[143216.2699225,169389.32992036],[143217.85996749,169395.44000036],[143219.5000675,169401.54992036],[143221.40002749,169408.40000035],[143223.339925,169415.23008035],[143225.31993749,169422.06000034],[143227.31006751,169428.78000034],[143229.3300175,169435.50000035],[143231.3400275,169442.21008035],[143233.12993751,169448.29008035],[143234.92002499,169454.38000034],[143236.69999499,169460.46000034],[143240.33998749,169472.70000035],[143242.16007249,169478.82992035],[143243.62001,169483.79008035],[143245.07000749,169488.75008034],[143246.52994499,169493.72000035],[143253.80992999,169518.32000035],[143254.9116725,169521.76384036],[143255.5483351,169523.48857457],[143251.8893837,169523.76390835],[143251.71312251,169520.60016035],[143251.6783325,169519.83488034],[143251.26103001,169517.42320036],[143250.542155,169514.23472034],[143248.10685501,169506.76768035],[143247.3764425,169504.57616035],[143245.99993,169504.86000034],[143242.90283492,169495.12589974],[143243.62995,169494.97008034],[143242.7600225,169490.64000036],[143239.24001999,169478.80000035],[143237.49998751,169472.87008034],[143234.809975,169463.41008035],[143232.1600775,169453.93008036],[143229.45994749,169444.47008034],[143226.93004,169436.06000034],[143224.36001749,169427.66000034],[143221.84005001,169419.24000036],[143219.12004001,169409.87008034],[143216.460025,169400.48000034],[143213.9599375,169391.04992036],[143212.37007001,169384.49008035],[143210.84995999,169377.90000035],[143209.27997251,169371.32992035],[143207.53,169364.48000034],[143205.7200325,169357.65008034],[143203.9500025,169350.80000035],[143202.23002751,169343.85008034],[143200.54999001,169336.88000034],[143198.86001251,169329.92000035],[143198.00996499,169326.76992034],[143197.1599175,169323.63008036],[143196.340045,169320.48000034],[143195.2500175,169315.91008035],[143194.22992499,169311.32992035],[143193.3000025,169306.72000035],[143192.38996,169301.54000036],[143191.58996749,169296.32992035],[143190.780035,169291.12000035],[143187.65994,169274.62000035],[143186.11995001,169266.36000034],[143185.21008501,169261.18000034],[143184.30004251,169255.99008035],[143183.320065,169250.81008035],[143182.35996749,169246.26000034],[143181.34005251,169241.72000035],[143180.31001999,169237.18000034],[143179.36004,169233.02000035],[143177.41996501,169224.70000035],[143176.34005499,169220.19008035],[143175.25002749,169215.69008035],[143174.16993999,169211.18000034],[143171.55199251,169201.94496035],[143171.61003499,169201.54000036],[143170.96003001,169198.54992036],[143170.31996501,169195.56000034],[143169.5799675,169192.59008035],[143169.22993751,169191.08000035],[143169.02800002,169190.28256396],[143171.73499999,169190.09000036],[143172.0427048,169190.06802744]]]},"geometry_name":"GEOM","properties":{"INSPIRE_ID":"https://databrussels.be/id/streetsurface/9687","TYPE":"S","STREET_ID":"https://databrussels.be/id/streetname/884","STRNAMEFRE":"Rue Pierre Van Reymenant","STRNAMEDUT":"Pierre Van Reymenantstraat","MUNNISCODE":"21001","HIERARCHY":"DR","LVL":0,"ADMIN":"MUN_RBC","AREA":921},"bbox":[143169.02800002,169190.06802744,143255.5483351,169523.76390835]},{"type":"Feature","id":"StreetSurfaces.fid--248e32d7_1a0253bd0a7_-147d","geometry":{"type":"Polygon","coordinates":[[[143197.94129806,169177.24990777],[143206.54000001,169179.24000036],[143215.07000001,169181.19000036],[143223.60999999,169183.12000035],[143232.15999999,169185.03000034],[143236.93,169186.06000034],[143241.7,169187.07000035],[143246.45999999,169188.12000035],[143252.35,169189.45000035],[143258.22000001,169190.82000035],[143264.07000001,169192.31000034],[143268.18,169193.47000035],[143272.27000001,169194.70000035],[143276.35,169195.97000036],[143280.17,169197.20000035],[143283.98,169198.47000035],[143287.77000001,169199.81000034],[143291.54000001,169201.27000035],[143295.28,169202.80000035],[143299.02000001,169204.35000035],[143302.08,169205.59000036],[143305.13,169206.84000036],[143308.19000001,169208.08000035],[143322.90999999,169214.30000035],[143330.28,169217.39000036],[143343.35999999,169222.82000035],[143356.47000001,169228.21000034],[143369.55999999,169233.62000035],[143378.63,169237.43000034],[143387.68,169241.25000035],[143396.75999999,169245.02000035],[143404.89000001,169248.34000036],[143413.03,169251.62000035],[143421.17,169254.91000034],[143492.68,169284.73000034],[143558.52000001,169311.92000035],[143596.15999999,169327.42000036],[143630.68,169340.77000035],[143663.29000001,169354.49000036],[143701.48,169370.50000035],[143723.17,169379.55000035],[143735.76663113,169383.58876983],[143734.503,169387.92500035],[143733.20708809,169392.37200443],[143690.17007251,169374.26992034],[143620.59007249,169345.36000034],[143617.53991251,169342.73008036],[143579.03004501,169326.95008034],[143512.49008751,169299.21008035],[143428.046415,169264.51504034],[143421.1542675,169261.26896035],[143406.11433749,169255.12432035],[143389.64003,169248.27488035],[143377.319045,169243.11184036],[143369.44337001,169239.87024034],[143363.93359251,169237.60240034],[143355.30301001,169234.00752036],[143339.30316,169227.25312034],[143328.717415,169222.91040036],[143316.08403001,169217.62016036],[143304.44570999,169212.78064035],[143286.432655,169205.34224035],[143274.3197,169201.05808035],[143264.24302499,169198.16080035],[143254.0504425,169195.62208034],[143238.03852251,169192.13824035],[143226.0874475,169189.55424034],[143214.63390501,169186.86576034],[143202.60188999,169184.17776035],[143196.69188905,169182.8552554],[143197.39300001,169179.71000034],[143197.94129806,169177.24990777]]]},"geometry_name":"GEOM","properties":{"INSPIRE_ID":"https://databrussels.be/id/streetsurface/9935","TYPE":"S","STREET_ID":"https://databrussels.be/id/streetname/970","STRNAMEFRE":"Rue du Pommier","STRNAMEDUT":"Appelboomstraat","MUNNISCODE":"21001","HIERARCHY":"DR","LVL":0,"ADMIN":"MUN_RBC","AREA":3648},"bbox":[143196.69188905,169177.24990777,143735.76663113,169392.37200443]}],"numberReturned":39,"grand_bruxelles_source":{"authority":"Paradigm / Brussels-Capital Region","service":"https://geoservices-urbis.irisnet.be/geoserver/urbisvector/wfs","layer":"urbisvector:StreetSurfaces","crs":"EPSG:31370","bbox":[143000.0,169000.0,143500.0,169500.0],"cell_id":"bxl-e143000-n169000-s500","ownership":"bbox_intersection_source_unclipped"}}
