{"type":"FeatureCollection","totalFeatures":38,"numberMatched":38,"timeStamp":"2026-08-23T00:57:12.220Z","crs":{"type":"name","properties":{"name":"urn:ogc:def:crs:EPSG::31370"}},"bbox":[144328.19471067,171815.346,145180.67756076,172567.013],"features":[{"type":"Feature","id":"StreetAxes.fid--63af041f_1a02c127ff3_-6b92","geometry":{"type":"LineString","coordinates":[[144835.19929847,172107.09376054],[144832.76488066,172102.65070687],[144796.305,172038.15],[144792.139,172031.749]]},"geometry_name":"GEOM","properties":{"INSPIRE_ID":"https://databrussels.be/id/streetaxe/71443","TYPE":"S","HIERARCHY":"DR","LVL":0,"STARTSN_ID":"https://databrussels.be/id/streetnode/3083","ENDSN_ID":"https://databrussels.be/id/streetnode/3432","STRNAMEFRE":"Rue Kasterlinden","STRNAMEDUT":"Kasterlindenstraat","SLOPE":1.85,"LENGTH":86.7958401392623},"bbox":[144792.139,172031.749,144835.19929847,172107.09376054]},{"type":"Feature","id":"StreetAxes.fid--63af041f_1a02c127ff3_-6bb2","geometry":{"type":"LineString","coordinates":[[144792.139,172031.749],[144796.975,172026.21],[144853.05,171970.086],[144868.782,171956.52],[144888.238,171938.332],[144906.804,171922.756],[144918.715,171909.185],[144926.46,171899.332],[144982.734,171824.268],[144989.516,171815.346]]},"geometry_name":"GEOM","properties":{"INSPIRE_ID":"https://databrussels.be/id/streetaxe/71844","TYPE":"S","HIERARCHY":"DR","LVL":0,"STARTSN_ID":"https://databrussels.be/id/streetnode/3432","ENDSN_ID":"https://databrussels.be/id/streetnode/675","STRNAMEFRE":"Rue Hogenbos","STRNAMEDUT":"Hogenbosstraat","SLOPE":3.45,"LENGTH":293.942900113196},"bbox":[144792.139,171815.346,144989.516,172031.749]},{"type":"Feature","id":"StreetAxes.fid--63af041f_1a02c127ff3_-6b97","geometry":{"type":"LineString","coordinates":[[144518.025,172547.746],[144523.228,172544.816],[144566.78,172520.335],[144570.44,172515.192],[144568.745,172510.412],[144523.575,172467.01],[144519.665,172465.042],[144515.5,172465.298],[144487.37,172481.14],[144482.32,172483.985]]},"geometry_name":"GEOM","properties":{"INSPIRE_ID":"https://databrussels.be/id/streetaxe/72269","TYPE":"S","HIERARCHY":null,"LVL":0,"STARTSN_ID":"https://databrussels.be/id/streetnode/2755","ENDSN_ID":"https://databrussels.be/id/streetnode/2735","STRNAMEFRE":"Clos des Hortensias","STRNAMEDUT":"Hortensiasgaarde","SLOPE":0.75,"LENGTH":176.58915483158},"bbox":[144482.32,172465.042,144570.44,172547.746]},{"type":"Feature","id":"StreetAxes.fid--63af041f_1a02c127ff3_-6bb5","geometry":{"type":"LineString","coordinates":[[144902.754,172269.119],[144915.635,172271.375],[144941.754,172277.967],[144995.796,172291.144],[145007.468,172294.502],[145020.205,172300.06],[145037.46,172308.4],[145051.11,172316.755],[145061.45,172324.24],[145071.542,172332.848],[145174.775,172424.6],[145180.67756076,172429.38071081]]},"geometry_name":"GEOM","properties":{"INSPIRE_ID":"https://databrussels.be/id/streetaxe/73328","TYPE":"S","HIERARCHY":null,"LVL":0,"STARTSN_ID":"https://databrussels.be/id/streetnode/11570","ENDSN_ID":"https://databrussels.be/id/streetnode/8849","STRNAMEFRE":"Avenue René Comhaire","STRNAMEDUT":"René Comhairelaan","SLOPE":3.61,"LENGTH":328.590558208739},"bbox":[144902.754,172269.119,145180.67756076,172429.38071081]},{"type":"Feature","id":"StreetAxes.fid--63af041f_1a02c127ff3_-6b99","geometry":{"type":"LineString","coordinates":[[144805.96657569,172550.7772465],[144804.485,172544.46],[144782.675,172413.52],[144781.296,172405.51]]},"geometry_name":"GEOM","properties":{"INSPIRE_ID":"https://databrussels.be/id/streetaxe/73454","TYPE":"S","HIERARCHY":"DR","LVL":0,"STARTSN_ID":"https://databrussels.be/id/streetnode/11565","ENDSN_ID":"https://databrussels.be/id/streetnode/11568","STRNAMEFRE":"Rue Docteur Charles Leemans","STRNAMEDUT":"Dokter Charles Leemansstraat","SLOPE":2.14,"LENGTH":147.360457381595},"bbox":[144781.296,172405.51,144805.96657569,172550.7772465]},{"type":"Feature","id":"StreetAxes.fid--63af041f_1a02c127ff3_-6b9c","geometry":{"type":"LineString","coordinates":[[144603.27736075,172358.86765831],[144597.15670214,172363.38510297],[144520.56383168,172402.64712365],[144513.176,172405.499]]},"geometry_name":"GEOM","properties":{"INSPIRE_ID":"https://databrussels.be/id/streetaxe/73456","TYPE":"S","HIERARCHY":"DR","LVL":0,"STARTSN_ID":"https://databrussels.be/id/streetnode/11573","ENDSN_ID":"https://databrussels.be/id/streetnode/11571","STRNAMEFRE":"Rue de Grand-Bigard","STRNAMEDUT":"Groot-Bijgaardenstraat","SLOPE":7.16,"LENGTH":101.595976836316},"bbox":[144513.176,172358.86765831,144603.27736075,172405.499]},{"type":"Feature","id":"StreetAxes.fid--63af041f_1a02c127ff3_-6bb1","geometry":{"type":"LineString","coordinates":[[144874.687,172173.666],[144876.905,172164.51],[144877.16116153,172164.15868651],[144880.27,172159.894],[144887.575,172145.827],[144889.194,172138.362],[144887.67,172131.726],[144863.99,172116.685],[144844.189,172106.274],[144835.19929847,172107.09376054]]},"geometry_name":"GEOM","properties":{"INSPIRE_ID":"https://databrussels.be/id/streetaxe/74711","TYPE":"S","HIERARCHY":null,"LVL":0,"STARTSN_ID":"https://databrussels.be/id/streetnode/11579","ENDSN_ID":"https://databrussels.be/id/streetnode/3083","STRNAMEFRE":"Rue Kasterlinden","STRNAMEDUT":"Kasterlindenstraat","SLOPE":2.56,"LENGTH":104.882319066434},"bbox":[144835.19929847,172106.274,144889.194,172173.666]},{"type":"Feature","id":"StreetAxes.fid--63af041f_1a02c127ff3_-6bb3","geometry":{"type":"LineString","coordinates":[[144918.51052442,172549.63413428],[144919.5179612,172541.87692797],[144919.6253013,172463.60166165],[144918.225,172447.678],[144916.735,172420.335],[144913.825,172396.575],[144909.006,172365.923],[144908.047,172358.453]]},"geometry_name":"GEOM","properties":{"INSPIRE_ID":"https://databrussels.be/id/streetaxe/74713","TYPE":"S","HIERARCHY":"DR","LVL":0,"STARTSN_ID":"https://databrussels.be/id/streetnode/8565","ENDSN_ID":"https://databrussels.be/id/streetnode/8566","STRNAMEFRE":"Rue des Soldats","STRNAMEDUT":"Soldatenstraat","SLOPE":1.47,"LENGTH":191.963716515415},"bbox":[144908.047,172358.453,144919.6253013,172549.63413428]},{"type":"Feature","id":"StreetAxes.fid--63af041f_1a02c127ff3_-6b98","geometry":{"type":"LineString","coordinates":[[144719.836,172567.013],[144716.889,172558.064],[144715.9,172554.654],[144691.232,172488.183],[144684.708,172470.142],[144681.696,172462.228],[144677.736,172454.405]]},"geometry_name":"GEOM","properties":{"INSPIRE_ID":"https://databrussels.be/id/streetaxe/76532","TYPE":"S","HIERARCHY":"DR","LVL":0,"STARTSN_ID":"https://databrussels.be/id/streetnode/143","ENDSN_ID":"https://databrussels.be/id/streetnode/11567","STRNAMEFRE":"Rue de l'Eglise","STRNAMEDUT":"Kerkstraat","SLOPE":1.27,"LENGTH":120.293286046405},"bbox":[144677.736,172454.405,144719.836,172567.013]},{"type":"Feature","id":"StreetAxes.fid--63af041f_1a02c127ff3_-6b9b","geometry":{"type":"LineString","coordinates":[[144513.176,172405.499],[144506.202,172409.084],[144462.319,172431.561],[144455.695,172435.019]]},"geometry_name":"GEOM","properties":{"INSPIRE_ID":"https://databrussels.be/id/streetaxe/76666","TYPE":"S","HIERARCHY":"DR","LVL":0,"STARTSN_ID":"https://databrussels.be/id/streetnode/11571","ENDSN_ID":"https://databrussels.be/id/streetnode/2059","STRNAMEFRE":"Rue de Grand-Bigard","STRNAMEDUT":"Groot-Bijgaardenstraat","SLOPE":5.25,"LENGTH":64.6182722815386},"bbox":[144455.695,172405.499,144513.176,172435.019]},{"type":"Feature","id":"StreetAxes.fid--63af041f_1a02c127ff3_-6bb0","geometry":{"type":"LineString","coordinates":[[144874.687,172173.666],[144869.625,172166.84],[144860.52,172151.472],[144837.63371627,172111.53681421],[144835.19929847,172107.09376054]]},"geometry_name":"GEOM","properties":{"INSPIRE_ID":"https://databrussels.be/id/streetaxe/76668","TYPE":"S","HIERARCHY":"DR","LVL":0,"STARTSN_ID":"https://databrussels.be/id/streetnode/11579","ENDSN_ID":"https://databrussels.be/id/streetnode/3083","STRNAMEFRE":"Rue Kasterlinden","STRNAMEDUT":"Kasterlindenstraat","SLOPE":3.47,"LENGTH":77.455371593186},"bbox":[144835.19929847,172107.09376054,144874.687,172173.666]},{"type":"Feature","id":"StreetAxes.fid--63af041f_1a02c127ff3_-6bb4","geometry":{"type":"LineString","coordinates":[[144908.047,172358.453],[144907.088,172350.983],[144900.102,172301.032],[144898.52292444,172280.93421034],[144902.754,172269.119]]},"geometry_name":"GEOM","properties":{"INSPIRE_ID":"https://databrussels.be/id/streetaxe/77892","TYPE":"S","HIERARCHY":"DR","LVL":0,"STARTSN_ID":"https://databrussels.be/id/streetnode/8566","ENDSN_ID":"https://databrussels.be/id/streetnode/11570","STRNAMEFRE":"Rue des Soldats","STRNAMEDUT":"Soldatenstraat","SLOPE":0.17,"LENGTH":90.6781375873636},"bbox":[144898.52292444,172269.119,144908.047,172358.453]},{"type":"Feature","id":"StreetAxes.fid--63af041f_1a02c127ff3_-6b9e","geometry":{"type":"LineString","coordinates":[[144908.047,172358.453],[144900.99,172360.62],[144887.13,172364.56],[144881.7,172367.522],[144789.164,172402.264],[144781.296,172405.51]]},"geometry_name":"GEOM","properties":{"INSPIRE_ID":"https://databrussels.be/id/streetaxe/78166","TYPE":"S","HIERARCHY":"DR","LVL":0,"STARTSN_ID":"https://databrussels.be/id/streetnode/8566","ENDSN_ID":"https://databrussels.be/id/streetnode/11568","STRNAMEFRE":"Rue Prosper Préser","STRNAMEDUT":"Prosper Préserstraat","SLOPE":0.37,"LENGTH":135.33086459101},"bbox":[144781.296,172358.453,144908.047,172405.51]},{"type":"Feature","id":"StreetAxes.fid--63af041f_1a02c127ff3_-6b96","geometry":{"type":"LineString","coordinates":[[144518.025,172547.746],[144516.955,172545.856],[144505.899,172526.923],[144483.506,172486.107],[144482.32,172483.985]]},"geometry_name":"GEOM","properties":{"INSPIRE_ID":"https://databrussels.be/id/streetaxe/78336","TYPE":"S","HIERARCHY":"DR","LVL":0,"STARTSN_ID":"https://databrussels.be/id/streetnode/2755","ENDSN_ID":"https://databrussels.be/id/streetnode/2735","STRNAMEFRE":"Rue des Fleuristes","STRNAMEDUT":"Bloemkwekersstraat","SLOPE":1.81,"LENGTH":73.0827948659096},"bbox":[144482.32,172483.985,144518.025,172547.746]},{"type":"Feature","id":"StreetAxes.fid--63af041f_1a02c127ff3_-6ba3","geometry":{"type":"LineString","coordinates":[[144600.84029205,172304.34588241],[144591.248,172304.596],[144569.538,172304.496],[144552.662,172302.162],[144505.852,172301.215],[144494.682,172302.113],[144488.622,172301.654]]},"geometry_name":"GEOM","properties":{"INSPIRE_ID":"https://databrussels.be/id/streetaxe/78810","TYPE":"S","HIERARCHY":"DR","LVL":0,"STARTSN_ID":"https://databrussels.be/id/streetnode/5693","ENDSN_ID":"https://databrussels.be/id/streetnode/11576","STRNAMEFRE":"Rue du Wilder","STRNAMEDUT":"Wilderstraat","SLOPE":7.84,"LENGTH":112.445392748265},"bbox":[144488.622,172301.215,144600.84029205,172304.596]},{"type":"Feature","id":"StreetAxes.fid--63af041f_1a02c127ff3_-6bac","geometry":{"type":"LineString","coordinates":[[144934.5723717,172180.46076058],[144937.48768164,172184.95965055],[144942.65787279,172192.9382606]]},"geometry_name":"GEOM","properties":{"INSPIRE_ID":"https://databrussels.be/id/streetaxe/78877","TYPE":"S","HIERARCHY":"DR","LVL":0,"STARTSN_ID":"https://databrussels.be/id/streetnode/5700","ENDSN_ID":"https://databrussels.be/id/streetnode/5622","STRNAMEFRE":"Rue de Grand-Bigard","STRNAMEDUT":"Groot-Bijgaardenstraat","SLOPE":2.42,"LENGTH":14.8681987698373},"bbox":[144934.5723717,172180.46076058,144942.65787279,172192.9382606]},{"type":"Feature","id":"StreetAxes.fid--63af041f_1a02c127ff3_-6bad","geometry":{"type":"LineString","coordinates":[[144955.30168105,172177.05034631],[144948.45538391,172177.76815822],[144934.5723717,172180.46076058]]},"geometry_name":"GEOM","properties":{"INSPIRE_ID":"https://databrussels.be/id/streetaxe/79205","TYPE":"S","HIERARCHY":"DR","LVL":0,"STARTSN_ID":"https://databrussels.be/id/streetnode/5692","ENDSN_ID":"https://databrussels.be/id/streetnode/5700","STRNAMEFRE":"Rue de Grand-Bigard","STRNAMEDUT":"Groot-Bijgaardenstraat","SLOPE":4.8,"LENGTH":21.0255405516071},"bbox":[144934.5723717,172177.05034631,144955.30168105,172180.46076058]},{"type":"Feature","id":"StreetAxes.fid--63af041f_1a02c127ff3_-6b93","geometry":{"type":"LineString","coordinates":[[144600.84029205,172304.34588241],[144601.039,172295.915],[144600.07,172292.689],[144595.475,172273.67],[144591.64,172263.165],[144588.31,172252.92],[144588.33,172247.03],[144592.052,172238.584],[144595.803,172230.099],[144603.42,172217.204],[144613.742,172205.081],[144627.42,172188.798],[144630.99,172183.045],[144638.652,172171.7],[144642.24,172169.022],[144647.02,172168.206],[144653.671,172169.817],[144661.921,172169.689],[144664.622,172168.906],[144685.194,172156.062],[144691.366,172148.78],[144699.69689717,172124.16240601],[144709.41,172109.862],[144719.043,172095.552],[144738.71662132,172083.35757544],[144787.48,172037.085],[144792.139,172031.749]]},"geometry_name":"GEOM","properties":{"INSPIRE_ID":"https://databrussels.be/id/streetaxe/79246","TYPE":"S","HIERARCHY":null,"LVL":0,"STARTSN_ID":"https://databrussels.be/id/streetnode/5693","ENDSN_ID":"https://databrussels.be/id/streetnode/3432","STRNAMEFRE":"Rue de l'Allée Verte","STRNAMEDUT":"Groendreefstraat","SLOPE":4.05,"LENGTH":369.356453631493},"bbox":[144588.31,172031.749,144792.139,172304.34588241]},{"type":"Feature","id":"StreetAxes.fid--63af041f_1a02c127ff3_-6ba1","geometry":{"type":"LineString","coordinates":[[144600.84029205,172304.34588241],[144610.66354653,172317.01334231],[144633.20421844,172335.74783294]]},"geometry_name":"GEOM","properties":{"INSPIRE_ID":"https://databrussels.be/id/streetaxe/79247","TYPE":"S","HIERARCHY":"DR","LVL":0,"STARTSN_ID":"https://databrussels.be/id/streetnode/5693","ENDSN_ID":"https://databrussels.be/id/streetnode/11569","STRNAMEFRE":"Place de l'Eglise","STRNAMEDUT":"Kerkplein","SLOPE":0.04,"LENGTH":45.3397760530246},"bbox":[144600.84029205,172304.34588241,144633.20421844,172335.74783294]},{"type":"Feature","id":"StreetAxes.fid--63af041f_1a02c127ff3_-6ba5","geometry":{"type":"LineString","coordinates":[[144757.29989234,172269.88581113],[144744.09331491,172276.04653864],[144678.4448333,172310.19560167],[144650.2873861,172327.39219256],[144633.20421844,172335.74783294]]},"geometry_name":"GEOM","properties":{"INSPIRE_ID":"https://databrussels.be/id/streetaxe/79312","TYPE":"S","HIERARCHY":"DR","LVL":0,"STARTSN_ID":"https://databrussels.be/id/streetnode/5695","ENDSN_ID":"https://databrussels.be/id/streetnode/11569","STRNAMEFRE":"Rue de Grand-Bigard","STRNAMEDUT":"Groot-Bijgaardenstraat","SLOPE":4.35,"LENGTH":140.582595201855},"bbox":[144633.20421844,172269.88581113,144757.29989234,172335.74783294]},{"type":"Feature","id":"StreetAxes.fid--63af041f_1a02c127ff3_-6baf","geometry":{"type":"LineString","coordinates":[[144934.5723717,172180.46076058],[144926.34492457,172181.1196536],[144908.905,172180.148],[144881.64,172177.035],[144874.687,172173.666]]},"geometry_name":"GEOM","properties":{"INSPIRE_ID":"https://databrussels.be/id/streetaxe/79393","TYPE":"S","HIERARCHY":"DR","LVL":0,"STARTSN_ID":"https://databrussels.be/id/streetnode/5700","ENDSN_ID":"https://databrussels.be/id/streetnode/11579","STRNAMEFRE":"Rue de Grand-Bigard","STRNAMEDUT":"Groot-Bijgaardenstraat","SLOPE":6.42,"LENGTH":60.8891119042444},"bbox":[144874.687,172173.666,144934.5723717,172181.1196536]},{"type":"Feature","id":"StreetAxes.fid--63af041f_1a02c127ff3_-6ba7","geometry":{"type":"LineString","coordinates":[[144793.25756352,172253.66346311],[144798.364,172254.4],[144883.778,172266.322],[144902.754,172269.119]]},"geometry_name":"GEOM","properties":{"INSPIRE_ID":"https://databrussels.be/id/streetaxe/80038","TYPE":"S","HIERARCHY":"DR","LVL":0,"STARTSN_ID":"https://databrussels.be/id/streetnode/5620","ENDSN_ID":"https://databrussels.be/id/streetnode/11570","STRNAMEFRE":"Avenue René Comhaire","STRNAMEDUT":"René Comhairelaan","SLOPE":0.86,"LENGTH":110.582324566441},"bbox":[144793.25756352,172253.66346311,144902.754,172269.119]},{"type":"Feature","id":"StreetAxes.fid--63af041f_1a02c127ff3_-6b90","geometry":{"type":"LineString","coordinates":[[144789.57682195,172242.72064122],[144790.06576119,172246.90567842],[144791.12125523,172250.73956395],[144793.25756352,172253.66346311]]},"geometry_name":"GEOM","properties":{"INSPIRE_ID":"https://databrussels.be/id/streetaxe/80039","TYPE":"S","HIERARCHY":"DR","LVL":0,"STARTSN_ID":"https://databrussels.be/id/streetnode/5621","ENDSN_ID":"https://databrussels.be/id/streetnode/5620","STRNAMEFRE":"Rue de Grand-Bigard","STRNAMEDUT":"Groot-Bijgaardenstraat","SLOPE":0.17,"LENGTH":11.8112137920565},"bbox":[144789.57682195,172242.72064122,144793.25756352,172253.66346311]},{"type":"Feature","id":"StreetAxes.fid--63af041f_1a02c127ff3_-6ba9","geometry":{"type":"LineString","coordinates":[[144789.57682195,172242.72064122],[144776.83602208,172253.13657289],[144769.59129032,172261.76325129]]},"geometry_name":"GEOM","properties":{"INSPIRE_ID":"https://databrussels.be/id/streetaxe/80040","TYPE":"S","HIERARCHY":"DR","LVL":0,"STARTSN_ID":"https://databrussels.be/id/streetnode/5621","ENDSN_ID":"https://databrussels.be/id/streetnode/8641","STRNAMEFRE":"Rue de Grand-Bigard","STRNAMEDUT":"Groot-Bijgaardenstraat","SLOPE":3.97,"LENGTH":27.7218417137005},"bbox":[144769.59129032,172242.72064122,144789.57682195,172261.76325129]},{"type":"Feature","id":"StreetAxes.fid--63af041f_1a02c127ff3_-6bab","geometry":{"type":"LineString","coordinates":[[144942.65787279,172192.9382606],[144950.67628424,172182.1501947],[144955.30168105,172177.05034631]]},"geometry_name":"GEOM","properties":{"INSPIRE_ID":"https://databrussels.be/id/streetaxe/80041","TYPE":"S","HIERARCHY":"DR","LVL":0,"STARTSN_ID":"https://databrussels.be/id/streetnode/5622","ENDSN_ID":"https://databrussels.be/id/streetnode/5692","STRNAMEFRE":"Rue des Soldats","STRNAMEDUT":"Soldatenstraat","SLOPE":3.2,"LENGTH":20.3265906512144},"bbox":[144942.65787279,172177.05034631,144955.30168105,172192.9382606]},{"type":"Feature","id":"StreetAxes.fid--63af041f_1a02c127ff3_-6ba8","geometry":{"type":"LineString","coordinates":[[144769.59129032,172261.76325129],[144779.88676953,172257.22029615],[144784.7585019,172254.72892763],[144790.29078365,172253.23554379],[144793.25756352,172253.66346311]]},"geometry_name":"GEOM","properties":{"INSPIRE_ID":"https://databrussels.be/id/streetaxe/80388","TYPE":"S","HIERARCHY":"DR","LVL":0,"STARTSN_ID":"https://databrussels.be/id/streetnode/8641","ENDSN_ID":"https://databrussels.be/id/streetnode/5620","STRNAMEFRE":"Avenue René Comhaire","STRNAMEDUT":"René Comhairelaan","SLOPE":4.4,"LENGTH":25.4528273271389},"bbox":[144769.59129032,172253.23554379,144793.25756352,172261.76325129]},{"type":"Feature","id":"StreetAxes.fid--63af041f_1a02c127ff3_-6bae","geometry":{"type":"LineString","coordinates":[[144902.754,172269.119],[144921.852,172228.845],[144929.92176812,172213.7652912],[144942.65787279,172192.9382606]]},"geometry_name":"GEOM","properties":{"INSPIRE_ID":"https://databrussels.be/id/streetaxe/81106","TYPE":"S","HIERARCHY":"DR","LVL":0,"STARTSN_ID":"https://databrussels.be/id/streetnode/11570","ENDSN_ID":"https://databrussels.be/id/streetnode/5622","STRNAMEFRE":"Rue des Soldats","STRNAMEDUT":"Soldatenstraat","SLOPE":2.79,"LENGTH":86.0884848084083},"bbox":[144902.754,172192.9382606,144942.65787279,172269.119]},{"type":"Feature","id":"StreetAxes.fid--63af041f_1a02c127ff3_-6ba2","geometry":{"type":"LineString","coordinates":[[144513.176,172405.499],[144510.256,172400.02],[144506.105,172386.825],[144488.482,172308.094],[144488.622,172301.654]]},"geometry_name":"GEOM","properties":{"INSPIRE_ID":"https://databrussels.be/id/streetaxe/81166","TYPE":"S","HIERARCHY":"DR","LVL":0,"STARTSN_ID":"https://databrussels.be/id/streetnode/11571","ENDSN_ID":"https://databrussels.be/id/streetnode/11576","STRNAMEFRE":"Rue de la Roseraie","STRNAMEDUT":"Rozengaardstraat","SLOPE":0.84,"LENGTH":107.16182356129},"bbox":[144488.482,172301.654,144513.176,172405.499]},{"type":"Feature","id":"StreetAxes.fid--63af041f_1a02c127ff3_-6b9a","geometry":{"type":"LineString","coordinates":[[144781.296,172405.51],[144771.76,172409.445],[144713.832,172439.139],[144690.634,172451.346],[144684.9,172452.706],[144677.736,172454.405]]},"geometry_name":"GEOM","properties":{"INSPIRE_ID":"https://databrussels.be/id/streetaxe/81169","TYPE":"S","HIERARCHY":"DR","LVL":0,"STARTSN_ID":"https://databrussels.be/id/streetnode/11568","ENDSN_ID":"https://databrussels.be/id/streetnode/11567","STRNAMEFRE":"Rue Prosper Préser","STRNAMEDUT":"Prosper Préserstraat","SLOPE":6.7,"LENGTH":114.880683828525},"bbox":[144677.736,172405.51,144781.296,172454.405]},{"type":"Feature","id":"StreetAxes.fid--63af041f_1a02c127ff3_-6b9f","geometry":{"type":"LineString","coordinates":[[144633.20421844,172335.74783294],[144621.05846737,172344.94622585],[144608.94111387,172354.68743966],[144603.27736075,172358.86765831]]},"geometry_name":"GEOM","properties":{"INSPIRE_ID":"https://databrussels.be/id/streetaxe/81172","TYPE":"S","HIERARCHY":"DR","LVL":0,"STARTSN_ID":"https://databrussels.be/id/streetnode/11569","ENDSN_ID":"https://databrussels.be/id/streetnode/11573","STRNAMEFRE":"Rue de Grand-Bigard","STRNAMEDUT":"Groot-Bijgaardenstraat","SLOPE":6.53,"LENGTH":37.8225400240222},"bbox":[144603.27736075,172335.74783294,144633.20421844,172358.86765831]},{"type":"Feature","id":"StreetAxes.fid--63af041f_1a02c127ff3_-6ba0","geometry":{"type":"LineString","coordinates":[[144677.736,172454.405],[144654.4299458,172366.23014786],[144647.75875213,172353.22605126],[144639.41214338,172340.90749776],[144633.20421844,172335.74783294]]},"geometry_name":"GEOM","properties":{"INSPIRE_ID":"https://databrussels.be/id/streetaxe/81660","TYPE":"S","HIERARCHY":"DR","LVL":0,"STARTSN_ID":"https://databrussels.be/id/streetnode/11567","ENDSN_ID":"https://databrussels.be/id/streetnode/11569","STRNAMEFRE":"Rue Jean-Baptiste Vandendriesch","STRNAMEDUT":"Jean Baptiste Vandendrieschstraat","SLOPE":0.56,"LENGTH":128.770536115068},"bbox":[144633.20421844,172335.74783294,144677.736,172454.405]},{"type":"Feature","id":"StreetAxes.fid--63af041f_1a02c127ff3_-6b94","geometry":{"type":"LineString","coordinates":[[144792.139,172031.749],[144787.955,172025.32],[144780.32,172012.902],[144747.182,171968.832],[144693.474,171895.331],[144673.235,171868.838],[144656.285,171852.425],[144648.13505899,171846.82467472]]},"geometry_name":"GEOM","properties":{"INSPIRE_ID":"https://databrussels.be/id/streetaxe/86035","TYPE":"S","HIERARCHY":"DR","LVL":0,"STARTSN_ID":"https://databrussels.be/id/streetnode/3432","ENDSN_ID":"https://databrussels.be/id/streetnode/10848","STRNAMEFRE":"Rue Kasterlinden","STRNAMEDUT":"Kasterlindenstraat","SLOPE":0.62,"LENGTH":235.241479798056},"bbox":[144648.13505899,171846.82467472,144792.139,172031.749]},{"type":"Feature","id":"StreetAxes.fid--63af041f_1a02c127ff3_-6baa","geometry":{"type":"LineString","coordinates":[[145032.13858683,172140.64291968],[145024.58848845,172143.13261446],[145003.055,172152.235],[144965.254,172172.308],[144955.30168105,172177.05034631]]},"geometry_name":"GEOM","properties":{"INSPIRE_ID":"https://databrussels.be/id/streetaxe/86081","TYPE":"S","HIERARCHY":"DR","LVL":0,"STARTSN_ID":"https://databrussels.be/id/streetnode/11578","ENDSN_ID":"https://databrussels.be/id/streetnode/5692","STRNAMEFRE":"Rue de Grand-Bigard","STRNAMEDUT":"Groot-Bijgaardenstraat","SLOPE":3.68,"LENGTH":85.1527573588626},"bbox":[144955.30168105,172140.64291968,145032.13858683,172177.05034631]},{"type":"Feature","id":"StreetAxes.fid--63af041f_1a02c127ff3_-6b91","geometry":{"type":"LineString","coordinates":[[144874.687,172173.666],[144870.145,172179.61],[144862.612,172184.44],[144794.364,172238.807],[144789.57682195,172242.72064122]]},"geometry_name":"GEOM","properties":{"INSPIRE_ID":"https://databrussels.be/id/streetaxe/87239","TYPE":"S","HIERARCHY":"DR","LVL":0,"STARTSN_ID":"https://databrussels.be/id/streetnode/11579","ENDSN_ID":"https://databrussels.be/id/streetnode/5621","STRNAMEFRE":"Rue de Grand-Bigard","STRNAMEDUT":"Groot-Bijgaardenstraat","SLOPE":2.58,"LENGTH":109.868219421229},"bbox":[144789.57682195,172173.666,144874.687,172242.72064122]},{"type":"Feature","id":"StreetAxes.fid--63af041f_1a02c127ff3_-6b9d","geometry":{"type":"LineString","coordinates":[[144677.736,172454.405],[144657.64295761,172433.60820513],[144644.747,172415.3985],[144623.42242359,172387.50412922],[144607.88,172363.745],[144603.27736075,172358.86765831]]},"geometry_name":"GEOM","properties":{"INSPIRE_ID":"https://databrussels.be/id/streetaxe/87474","TYPE":"S","HIERARCHY":"DR","LVL":0,"STARTSN_ID":"https://databrussels.be/id/streetnode/11567","ENDSN_ID":"https://databrussels.be/id/streetnode/11573","STRNAMEFRE":"Rue de l'Eglise","STRNAMEDUT":"Kerkstraat","SLOPE":2.63,"LENGTH":121.440568013716},"bbox":[144603.27736075,172358.86765831,144677.736,172454.405]},{"type":"Feature","id":"StreetAxes.fid--63af041f_1a02c127ff3_-6ba4","geometry":{"type":"LineString","coordinates":[[144781.296,172405.51],[144779.698,172396.232],[144764.628,172305.412],[144758.60046583,172274.12688603],[144757.29989234,172269.88581113]]},"geometry_name":"GEOM","properties":{"INSPIRE_ID":"https://databrussels.be/id/streetaxe/87828","TYPE":"S","HIERARCHY":"DR","LVL":0,"STARTSN_ID":"https://databrussels.be/id/streetnode/11568","ENDSN_ID":"https://databrussels.be/id/streetnode/5695","STRNAMEFRE":"Rue Docteur Charles Leemans","STRNAMEDUT":"Dokter Charles Leemansstraat","SLOPE":1.67,"LENGTH":137.772904941765},"bbox":[144757.29989234,172269.88581113,144781.296,172405.51]},{"type":"Feature","id":"StreetAxes.fid--63af041f_1a02c127ff3_-6ba6","geometry":{"type":"LineString","coordinates":[[144769.59129032,172261.76325129],[144757.29989234,172269.88581113]]},"geometry_name":"GEOM","properties":{"INSPIRE_ID":"https://databrussels.be/id/streetaxe/90438","TYPE":"I","HIERARCHY":"DR","LVL":0,"STARTSN_ID":"https://databrussels.be/id/streetnode/8641","ENDSN_ID":"https://databrussels.be/id/streetnode/5695","STRNAMEFRE":"Rue de Grand-Bigard","STRNAMEDUT":"Groot-Bijgaardenstraat","SLOPE":3.94,"LENGTH":14.7327676453953},"bbox":[144757.29989234,172261.76325129,144769.59129032,172269.88581113]},{"type":"Feature","id":"StreetAxes.fid--63af041f_1a02c127ff3_-6b95","geometry":{"type":"LineString","coordinates":[[144328.19471067,171944.34528744],[144333.05924215,171946.41122216],[144333.23611466,171946.61660953],[144345.48234281,171951.30569984],[144350.39515116,171953.35044144],[144355.28782067,171955.60997971],[144366.10194111,171960.27193293],[144381.62368964,171968.04758777],[144384.78833663,171972.65993864],[144393.62313615,171988.64180579],[144403.57026685,171998.52081341],[144415.64928935,172008.07849174],[144441.40429261,172014.64340448],[144453.86572022,172010.79879908],[144546.95879191,171967.98968565],[144555.75190002,171954.66358754],[144563.11815357,171944.97765072],[144644.99775926,171851.39026805],[144648.13505899,171846.82467472]]},"geometry_name":"GEOM","properties":{"INSPIRE_ID":"https://databrussels.be/id/streetaxe/94978","TYPE":"S","HIERARCHY":null,"LVL":0,"STARTSN_ID":"https://databrussels.be/id/streetnode/10847","ENDSN_ID":"https://databrussels.be/id/streetnode/10848","STRNAMEFRE":"Promenade verte","STRNAMEDUT":"Groene wandeling","SLOPE":3.14,"LENGTH":411.901508582036},"bbox":[144328.19471067,171846.82467472,144648.13505899,172014.64340448]}],"numberReturned":38,"grand_bruxelles_source":{"authority":"Paradigm / Brussels-Capital Region","service":"https://geoservices-urbis.irisnet.be/geoserver/urbisvector/wfs","layer":"urbisvector:StreetAxes","crs":"EPSG:31370","bbox":[144500.0,172000.0,145000.0,172500.0],"cell_id":"bxl-e144500-n172000-s500","ownership":"bbox_intersection_source_unclipped"}}
