{"type":"FeatureCollection","features":[{"type":"Feature","id":"TramNetwork.fid-280e1c69_19ff56afc87_620a","geometry":{"type":"LineString","coordinates":[[151126.02119907,173156.23935604],[151129.34596638,173151.29418294],[151134.9867032,173142.88593832],[151141.087475,173133.50329302],[151144.16738236,173128.51324777],[151148.13366103,173121.88023897],[151151.84759362,173115.16505144],[151155.29093545,173108.46325491],[151158.40956069,173101.71894618],[151160.88945027,173095.79263504],[151163.24988216,173089.62338236],[151165.20010857,173084.06695591],[151166.33299419,173080.47867357],[151167.91750586,173075.1123942],[151170.71004612,173063.57822727],[151172.13577451,173056.07723405],[151172.95420633,173051.21798284],[151173.76683465,173044.98919055],[151174.33345005,173038.80242178],[151174.78737793,173032.13500814],[151175.03242261,173027.27965613],[151175.15171509,173022.41045853],[151175.20396029,173017.19252286],[151175.21696537,173012.97813729],[151175.11821797,173008.72306797],[151175.05629042,173005.60245091],[151174.836,173000],[151174.56872057,172996.30471107],[151174.03542603,172989.65120603],[151173.5216917,172984.34932282],[151172.85626731,172978.9049241],[151172.19238731,172974.00264317],[151171.20658919,172967.47981341],[151169.85644574,172959.66996451],[151168.6031448,172952.40947963],[151166.87699521,172942.08539058],[151165.16722239,172931.4926335],[151163.9274082,172923.34228566],[151162.6231483,172913.91967298],[151161.54555595,172905.41369929],[151160.50344382,172896.50413391],[151159.56852134,172887.40157882],[151158.96315389,172881.40111552],[151158.48081437,172875.51554597],[151157.45758198,172862.90672671],[151156.70365546,172854.92890735],[151155.73656217,172845.09079723],[151154.69988666,172835.3808262],[151153.57185852,172825.8887423],[151152.49203551,172815.99503396],[151151.6389275,172807.49569305],[151150.66651928,172797.04111547],[151150.18336566,172790.46913439],[151149.75609368,172782.66641564],[151149.30751474,172769.95928622],[151149.24919282,172760.63731985],[151149.43054154,172750.36150231],[151149.84263299,172740.62767927],[151150.12456388,172735.50832014],[151150.78680105,172727.24298468],[151151.54361049,172718.99244867],[151152.35648961,172711.74730668],[151153.14851635,172705.71911387],[151154.12189222,172698.72620818],[151156.07855075,172686.84042806],[151157.5861632,172679.23747684],[151159.0147662,172672.66736685],[151160.63236025,172665.61747932],[151162.56012155,172657.78479845],[151164.03419665,172652.04305304],[151165.8757915,172645.22499402],[151168.41212772,172637.02076324],[151170.35426745,172630.9274065],[151172.97199631,172623.21005886],[151176.60170343,172613.15121908],[151181.82517839,172599.90738194],[151185.17116945,172591.74389429],[151188.3581753,172584.33483851],[151193.82466116,172572.26649251],[151200.36319603,172559.4697535],[151204.1493969,172552.92479289],[151207.88057592,172546.84554439],[151212.78259633,172539.17116871],[151216.93222384,172533.100659],[151221.48014445,172526.80408288],[151226.7445758,172519.70276072],[151234.24198768,172510.45354846],[151238.58415158,172505.13191076],[151245.74983298,172497.02872313],[151251.64805443,172490.65208763],[151257.92760799,172483.95535037],[151264.66849983,172476.99377248],[151272.50712523,172469.2849484],[151279.51953008,172462.50395169],[151287.85276545,172454.97023016],[151293.60674506,172449.86705814],[151300.90247725,172443.81837105],[151306.94162169,172438.96504719],[151314.2897227,172433.26393547],[151317.8049,172430.7739],[151322.3959,172427.4689],[151327.3963,172423.8567],[151330.3519,172421.8187],[151335.6939,172418.3869],[151342.0049,172414.2457],[151349.6073,172409.6731],[151358.1031,172404.6491],[151366.2127,172400.2095],[151371.0903,172397.6011],[151378.2809,172393.9299],[151382.8181,172391.6751],[151390.7635,172387.8777],[151395.2843,172385.7113],[151400.1037,172383.4901],[151403.9041,172381.7885],[151409.9771,172378.9839],[151414.5209,172377.0193],[151421.9923,172373.6885],[151428.2587,172370.9169],[151434.8973,172367.9695],[151442.0363,172364.9437],[151446.6533,172362.8827],[151451.6583,172360.6863],[151458.0465,172357.7701],[151466.4149,172354.1285],[151473.5787,172351.0221],[151478.6403,172348.7857],[151484.8259,172346.0461],[151491.0523,172343.2179],[151498.3937,172340.0477],[151503.4389,172337.8757],[151511.1369,172334.4167],[151517.2337,172331.6847],[151523.3625,172329.0255],[151529.6369,172326.2379],[151536.6635,172323.1147],[151542.6145,172320.5193],[151550.1101,172317.1561],[151556.9909,172314.1695],[151562.8775,172311.5251],[151569.4271,172308.6017],[151576.4051,172305.5025],[151581.7989,172302.9851],[151587.8393,172300.2449],[151594.1307,172297.2715],[151599.7185,172294.6907],[151604.0451,172292.6365],[151609.2043,172290.2069],[151614.1461,172287.7521],[151621.0367,172284.3619],[151626.0351,172281.8427],[151632.7365,172278.4139],[151639.7423,172274.7491],[151645.3907,172271.8235],[151649.5845,172269.5305],[151652.6493,172267.7705],[151660.0793,172263.7673],[151665.5083,172260.5883],[151668.2055,172259.0793],[151671.9207,172256.8893],[151675.5633,172254.7193],[151679.3293,172252.4529],[151684.6137,172249.1723],[151689.6541,172246.0121],[151693.9907,172243.2189],[151698.6393,172240.1777],[151703.0631,172237.3165],[151711.2423,172231.7397],[151714.4851,172229.4763],[151718.2115,172226.8675],[151723.1257,172223.3985],[151726.4295,172220.9793],[151729.9457,172218.3737],[151733.9183,172215.4329],[151737.4885,172212.7955],[151740.8805,172210.2047],[151743.5441,172208.1673],[151747.1869,172205.3095],[151750.8675,172202.4413],[151754.1407,172199.8437],[151758.0675,172196.6385],[151762.3317,172193.1347],[151765.7313,172190.3337],[151769.0443,172187.5479],[151772.4609,172184.6609],[151776.6833,172181.0379],[151779.7469,172178.3845],[151783.0455,172175.4261],[151785.9663,172172.8157],[151789.5629,172169.5657],[151795.1039,172164.5007],[151799.1703,172160.7085],[151801.6265,172158.4197],[151804.9813,172155.2461],[151807.2969,172152.9567],[151809.7269,172150.5609],[151812.2057,172148.1385],[151814.9623,172145.4549],[151818.0301,172142.3829],[151821.1253,172139.2531],[151824.2001,172136.0833],[151826.4985,172133.7783],[151828.9253,172131.1613],[151831.7059,172128.2513],[151834.4543,172125.3025],[151836.7401,172122.8683],[151838.8897,172120.5583],[151840.8859,172118.3189],[151842.8269,172116.1865],[151844.8863,172113.9117],[151846.8821,172111.6901],[151849.0381,172109.2051],[151851.2163,172106.7383],[151853.3585,172104.2711],[151855.5057,172101.7771],[151857.4433,172099.5459],[151859.2953,172097.3273],[151861.5109,172094.7125],[151863.4725,172092.3423],[151865.7021,172089.6739],[151868.0193,172086.8085],[151870.4599,172083.7513],[151872.9685,172080.6363],[151875.4363,172077.5299],[151877.6045,172074.7395],[151879.8043,172071.9223],[151881.7497,172069.3857],[151884.2645,172066.0821],[151886.6703,172062.9165],[151889.0221,172059.7549],[151891.1781,172056.8341],[151894.0229,172052.9137],[151896.2339,172049.8945],[151898.7947,172046.2749],[151900.7789,172043.4601],[151902.9869,172040.2835],[151905.1039,172037.2185],[151906.9385,172034.5367],[151909.0879,172031.3821],[151910.8905,172028.7317],[151913.3737,172025.0277],[151916.6377,172020.2139],[151917.407,172019.0112],[151922.4623,172011.1075],[151928.9183,172001.4881],[151929.7771,172000.1246],[151929.85989894,172000],[151932.57358226,171996.22087911],[151939.15399654,171985.97319524],[151948.05668608,171971.45323762],[151950.7687104,171967.03920163]]},"geometry_name":"GEOM","properties":{"INSPIRE_ID":"https://databrussels.be/id/rail/22862","TYPE":"TW","LVL":0,"SLOPE":null,"LENGTH":1595.11927713738},"bbox":[151126.02119907,171967.03920163,151950.7687104,173156.23935604]},{"type":"Feature","id":"TramNetwork.fid-280e1c69_19ff56afc87_620b","geometry":{"type":"LineString","coordinates":[[151127.51833433,173156.67204235],[151130.57780003,173152.121472],[151136.22489452,173143.70375046],[151142.3410033,173134.29751775],[151145.43556706,173129.28372629],[151149.42004183,173122.62028724],[151153.15706386,173115.86335154],[151156.62484414,173109.11399031],[151159.76785725,173102.31694058],[151162.26713707,173096.34429169],[151164.64314905,173090.13431867],[151166.60802429,173084.53615599],[151167.7521773,173080.91218549],[151169.35103589,173075.4973173],[151172.16091278,173063.891544],[151173.59643435,173056.33902726],[151174.42202629,173051.43726448],[151175.24190502,173045.15289784],[151175.81269946,173038.92049893],[151176.26868877,173032.22280645],[151176.51535961,173027.33523347],[151176.63538649,173022.43605945],[151176.68779072,173017.20224072],[151176.70087185,173012.96321093],[151176.60172976,173008.69113424],[151176.53956525,173005.55857608],[151176.321,173000],[151176.04444911,172996.19220161],[151175.50971248,172989.52070464],[151174.99300642,172984.18815229],[151174.32416962,172978.71583372],[151173.65747157,172973.79274362],[151172.66762816,172967.24314691],[151171.31484497,172959.41802858],[151170.06223901,172952.16156979],[151168.33742025,172941.84544038],[151166.6293812,172931.26342478],[151165.39206936,172923.12952702],[151164.09034051,172913.72519984],[151163.01471128,172905.23472208],[151161.97463356,172896.3425499],[151161.04091249,172887.25169196],[151160.43707382,172881.26638197],[151159.95591731,172875.39524766],[151158.93193952,172862.77724334],[151158.17682864,172854.78689134],[151157.20885662,172844.93984207],[151156.17058649,172835.21493514],[151155.04235304,172825.72112362],[151153.96399497,172815.84083749],[151153.11206695,172807.35325262],[151152.14148541,172796.9183141],[151151.66039582,172790.37440851],[151151.2346654,172782.59984131],[151150.78735137,172769.92854335],[151150.72927452,172760.64574898],[151150.90998904,172750.40586725],[151151.32091075,172740.69967407],[151151.60130994,172735.60812797],[151152.2613924,172727.36968526],[151153.01605376,172719.14256708],[151153.82570126,172711.92622833],[151154.61516597,172705.91753529],[151155.58522405,172698.9484653],[151157.53497674,172687.10463488],[151159.03525545,172679.53866797],[151160.45917414,172672.99010104],[151162.07226434,172665.95984246],[151163.99547052,172658.14566946],[151165.46540738,172652.42004314],[151167.29763741,172645.63665511],[151169.82419396,172637.46405839],[151171.76022293,172631.38987382],[151174.36897705,172623.69898468],[151177.98646269,172613.67401374],[151183.19834837,172600.45956058],[151186.53576597,172592.31699031],[151189.71214985,172584.93262815],[151195.1584363,172572.90887633],[151201.66358367,172560.1774809],[151205.42083926,172553.68255611],[151209.13499606,172547.63104209],[151214.01743988,172539.98731461],[151218.14322117,172533.95168964],[151222.67453964,172527.67809913],[151227.9144455,172520.60986001],[151235.39020559,172511.38735855],[151239.71229527,172506.09032327],[151246.84755403,172498.02153857],[151252.7311104,172491.66075766],[151258.99909705,172484.97635575],[151265.71914672,172478.03630236],[151273.54042402,172470.34453912],[151280.53048606,172463.5851479],[151288.84006304,172456.07281492],[151294.57032667,172450.99067648],[151301.83838895,172444.96492972],[151307.85886158,172440.12661136],[151315.1969583,172434.43326159],[151315.1971,172434.4333],[151318.6643,172431.9771],[151323.2607,172428.6681],[151328.2489,172425.0647],[151331.1713,172423.0497],[151336.4991,172419.6269],[151342.7917,172415.4979],[151350.3647,172410.9429],[151358.8345,172405.9343],[151366.9163,172401.5099],[151371.7753,172398.9117],[151378.9461,172395.2505],[151383.4659,172393.0041],[151391.4017,172389.2113],[151395.9131,172387.0495],[151400.7153,172384.8363],[151404.5163,172383.1345],[151410.5805,172380.3337],[151415.1155,172378.3733],[151422.5925,172375.0397],[151428.8579,172372.2687],[151435.4857,172369.3259],[151442.6263,172366.2995],[151447.2519,172364.2349],[151452.2625,172362.0359],[151458.6485,172359.1207],[151467.0041,172355.4847],[151474.1715,172352.3767],[151479.2385,172350.1379],[151485.4311,172347.3951],[151491.6511,172344.5699],[151498.9791,172341.4055],[151504.0343,172339.2293],[151511.7421,172335.7657],[151517.8303,172333.0377],[151523.9569,172330.3793],[151530.2375,172327.5891],[151537.2593,172324.4679],[151543.2127,172321.8713],[151550.7073,172318.5087],[151557.5881,172315.5221],[151563.4817,172312.8747],[151570.0285,172309.9523],[151577.0179,172306.8481],[151582.4169,172304.3283],[151588.4605,172301.5865],[151594.7567,172298.6111],[151600.3457,172296.0297],[151604.6771,172293.9731],[151609.8483,172291.5379],[151614.8013,172289.0775],[151621.6957,172285.6855],[151626.7045,172283.1611],[151633.4161,172279.7271],[151640.4249,172276.0605],[151646.0855,172273.1289],[151650.3073,172270.8203],[151653.3683,172269.0627],[151660.8037,172265.0565],[151666.2429,172261.8717],[151668.9419,172260.3617],[151672.6745,172258.1613],[151676.3229,172255.9879],[151680.1003,172253.7145],[151685.3965,172250.4269],[151690.4473,172247.2601],[151694.7959,172244.4591],[151699.4457,172241.4171],[151703.8811,172238.5483],[151712.0819,172232.9569],[151715.3323,172230.6883],[151719.0619,172228.0771],[151723.9889,172224.5989],[151727.3065,172222.1697],[151730.8257,172219.5619],[151734.7973,172216.6219],[151738.3767,172213.9777],[151741.7785,172211.3795],[151744.4495,172209.3361],[151748.0975,172206.4743],[151751.7813,172203.6035],[151755.0677,172200.9957],[151759.0043,172197.7823],[151763.2713,172194.2765],[151766.6771,172191.4701],[151769.9973,172188.6785],[151773.4195,172185.7867],[151777.6487,172182.1579],[151780.7245,172179.4937],[151784.0317,172176.5277],[151786.9547,172173.9155],[151790.5573,172170.6601],[151796.1071,172165.5871],[151800.1785,172161.7899],[151802.6385,172159.4975],[151806.0093,172156.3091],[151808.3359,172154.0091],[151810.7627,172151.6161],[151813.2383,172149.1971],[151816.0013,172146.5071],[151819.0789,172143.4251],[151822.1817,172140.2877],[151825.2543,172137.1201],[151827.5643,172134.8033],[151830.0021,172132.1747],[151832.7813,172129.2663],[151835.5341,172126.3127],[151837.8203,172123.8779],[151839.9829,172121.5541],[151841.9845,172119.3085],[151843.9217,172117.1805],[151845.9843,172114.9021],[151847.9905,172112.6689],[151850.1507,172110.1791],[151852.3287,172107.7123],[151854.4771,172105.2381],[151856.6241,172102.7441],[151858.5691,172100.5045],[151860.4269,172098.2791],[151862.6445,172095.6619],[151864.6093,172093.2877],[151866.8445,172090.6129],[151869.1721,172087.7347],[151871.6135,172084.6761],[151874.1231,172081.5599],[151876.5991,172078.4435],[151878.7709,172075.6479],[151880.9737,172072.8273],[151882.9245,172070.2833],[151885.4415,172066.9771],[151887.8521,172063.8051],[151890.2101,172060.6353],[151892.3713,172057.7073],[151895.2177,172053.7847],[151897.4339,172050.7583],[151900.0025,172047.1279],[151901.9901,172044.3079],[151904.2023,172041.1257],[151906.3225,172038.0561],[151908.1595,172035.3705],[151910.3101,172032.2143],[151912.1159,172029.5591],[151914.5997,172025.8543],[151917.8727,172021.0273],[151918.7945,172019.586],[151923.6991,172011.9179],[151930.1581,172002.2943],[151931.4479,172000.2845],[151931.63710973,172000],[151933.86052096,171997.06385576],[151940.45712396,171986.79096117],[151949.36780694,171972.25796656],[151952.00354654,171967.96809002]]},"geometry_name":"GEOM","properties":{"INSPIRE_ID":"https://databrussels.be/id/rail/22861","TYPE":"TW","LVL":0,"SLOPE":null,"LENGTH":1594.56655542085},"bbox":[151127.51833433,171967.96809002,151952.00354654,173156.67204235]},{"type":"Feature","id":"TramNetwork.fid-280e1c69_19ff56afc87_620c","geometry":{"type":"LineString","coordinates":[[151128.81312435,173157.04624896],[151139.41130889,173141.5186613],[151144.52295556,173133.66366795],[151147.5124692,173128.90719539],[151151.30127257,173122.44828232],[151154.63264966,173116.31758973],[151159.50501799,173106.51106891],[151161.42370087,173102.28584732],[151162.45073027,173099.85820424],[151163.35254323,173097.71178531],[151164.30646268,173095.38526073],[151165.48869589,173092.1866204],[151166.99401879,173088.05990542],[151168.5398339,173083.51380244],[151169.88145235,173079.03020463],[151170.79981097,173075.96047977],[151171.77708127,173072.35875843],[151172.86760429,173067.81676163],[151173.81071387,173063.51992582],[151174.84207026,173058.30770239],[151175.70714164,173052.84864367],[151176.66099588,173046.07882592],[151177.13466593,173041.50466173],[151177.51661148,173036.82543731],[151177.77244768,173032.55440709],[151178.05174934,173027.09314513],[151178.24054182,173021.03891439],[151178.29531699,173017.26890802],[151178.20805491,173010.28224308],[151178.07125896,173005.18088502],[151177.83660834,173000],[151177.8367,173000.0001],[151177.6167,172997.2261],[151177.1781,172991.3447],[151176.7493,172986.2401],[151176.5151,172984.2713],[151175.8213,172978.3815],[151174.2481,172967.6379],[151173.1919,172961.3507],[151172.3697,172956.5621],[151171.2439,172949.8981],[151169.9901,172942.2969],[151168.6739,172934.7587],[151167.4301,172926.5101],[151165.4449,172913.0359],[151164.4289,172904.6867],[151163.6441,172897.9629],[151162.9803,172891.5765],[151162.3513,172885.3239],[151161.7165,172878.0791],[151161.2457,172872.8673],[151160.7981,172867.0149],[151160.1357,172859.0601],[151159.7153,172854.5133],[151159.1373,172848.4061],[151158.5853,172843.3133],[151158.0125,172838.2745],[151157.3097,172832.2261],[151156.7791,172827.5727],[151156.3353,172823.6677],[151155.6557,172817.8369],[151155.0481,172811.7427],[151153.9797,172801.7027],[151153.5711,172796.2861],[151153.0317,172789.1613],[151152.7531,172784.5359],[151152.4933,172778.1971],[151152.3317,172772.1761],[151152.2563,172767.3507],[151152.2407,172759.8285],[151152.3093,172755.4887],[151152.3889,172750.5693],[151152.6545,172745.8015],[151152.9059,172739.3747],[151153.1453,172735.8091],[151153.4651,172731.6917],[151153.7683,172727.9579],[151154.3045,172722.3831],[151155.0493,172714.9107],[151156.0145,172707.4027],[151156.9515,172700.8067],[151157.9969,172694.0735],[151159.2709,172687.1285],[151160.6363,172679.8701],[151162.1121,172672.8709],[151163.9833,172664.7683],[151165.5065,172658.6567],[151166.9989,172653.1107],[151169.2063,172645.3389],[151171.7765,172636.5643],[151174.0963,172629.4793],[151175.7571,172624.6587],[151177.0985,172620.9043],[151179.7017,172613.7909],[151181.9485,172608.2781],[151183.4543,172604.4435],[151185.2389,172599.8317],[151186.8643,172595.9921],[151189.4363,172590.0613],[151191.1787,172585.8517],[151193.6315,172579.8943],[151197.0523,172572.2105],[151199.8769,172566.7917],[151204.2681,172558.9547],[151207.2393,172553.9653],[151210.4129,172548.8647],[151213.5597,172543.9211],[151216.5899,172539.2909],[151219.5671,172534.9433],[151222.6385,172530.5903],[151226.3277,172525.5141],[151231.0471,172519.3789],[151234.4147,172514.9913],[151239.3697,172509.1859],[151243.2161,172504.7277],[151247.9333,172499.4231],[151252.2541,172494.6993],[151255.2771,172491.3901],[151258.7759,172487.6833],[151263.4761,172482.7939],[151266.9677,172479.1749],[151271.2151,172474.8595],[151277.6941,172468.4163],[151282.7591,172463.5559],[151287.5477,172459.2069],[151292.1295,172455.1049],[151296.7723,172451.0785],[151300.9049,172447.6473],[151307.7235,172442.1579],[151313.3483,172437.7787],[151316.7229,172435.1963],[151321.5105,172431.6479],[151326.5939,172427.9949],[151332.4539,172424.0055],[151338.4923,172419.9813],[151343.2711,172416.9493],[151348.2707,172413.8641],[151355.7347,172409.4449],[151368.3857,172402.2289],[151377.9299,172397.3707],[151385.1161,172393.8399],[151390.9121,172391.0249],[151397.5147,172388.0243],[151405.2931,172384.4863],[151412.8257,172381.2183],[151418.8871,172378.5269],[151427.5137,172374.7315],[151440.6847,172368.9479],[151448.8133,172365.3267],[151456.1383,172362.1563],[151464.7135,172358.3371],[151472.2955,172354.9929],[151480.1429,172351.5241],[151492.3031,172346.1471],[151502.1985,172341.7269],[151511.0619,172337.8051],[151520.4539,172333.6947],[151532.2057,172328.4545],[151543.0511,172323.6801],[151554.7251,172318.5753],[151561.4309,172315.6061],[151569.0773,172312.1819],[151575.6187,172309.1793],[151583.2767,172305.6087],[151589.8581,172302.7661],[151601.0035,172297.6017],[151612.0191,172292.3105],[151620.4355,172288.1839],[151628.7443,172284.0821],[151635.9385,172280.2757],[151641.6769,172277.3101],[151648.3233,172273.7967],[151654.8091,172270.1853],[151662.9035,172265.7673],[151671.9761,172260.3923],[151678.1657,172256.6485],[151684.9569,172252.5207],[151693.8947,172246.9457],[151702.3591,172241.5037],[151710.4525,172235.9851],[151719.3633,172229.8397],[151727.1691,172224.2173],[151736.0511,172217.6995],[151743.4895,172212.1077],[151751.2345,172206.0781],[151758.1667,172200.5861],[151764.5179,172195.3975],[151770.9669,172189.9983],[151778.8053,172183.2869],[151786.7889,172176.2047],[151794.3635,172169.4153],[151800.0333,172164.1109],[151804.9553,172159.4753],[151810.4875,172154.1683],[151815.3607,172149.4203],[151820.4745,172144.3265],[151824.5083,172140.1931],[151829.2347,172135.3423],[151833.1053,172131.2491],[151836.6431,172127.4991],[151842.2109,172121.4935],[151848.3397,172114.6581],[151852.5285,172109.9123],[151856.3667,172105.5147],[151860.0565,172101.1675],[151863.7719,172096.7915],[151867.1325,172092.7865],[151870.9297,172088.0759],[151873.8835,172084.4321],[151878.0151,172079.2517],[151882.0831,172074.0671],[151888.6315,172065.3907],[151894.3149,172057.7267],[151898.2905,172052.2589],[151901.7831,172047.3171],[151905.7691,172041.7307],[151909.5787,172036.3281],[151912.7455,172031.7311],[151916.0971,172026.8661],[151919.2657,172022.3269],[151920.1205,172021.0627],[151923.4909,172016.0781],[151927.7399,172009.8067],[151931.2825,172004.5627],[151933.8499,172000.4815],[151933.84982228,172000.48147074],[151934.163,172000],[151934.1632,172000.0001],[151938.9343,171992.9491],[151945.4245,171982.6483],[151950.9089,171973.7545],[151953.5515,171969.4271]]},"geometry_name":"GEOM","properties":{"INSPIRE_ID":"https://databrussels.be/id/rail/22860","TYPE":"TW","LVL":0,"SLOPE":null,"LENGTH":1593.80549983416},"bbox":[151128.81312435,171969.4271,151953.5515,173157.04624896]},{"type":"Feature","id":"TramNetwork.fid-280e1c69_19ff56afc87_620d","geometry":{"type":"LineString","coordinates":[[151130.30983789,173157.47881339],[151140.6429513,173142.33958613],[151145.76985108,173134.46115357],[151148.77763582,173129.67561073],[151152.59016776,173123.17624669],[151155.94606317,173117.00043331],[151160.84197651,173107.14652392],[151162.77929551,173102.88026286],[151163.81454478,173100.43319004],[151164.7195423,173098.2791915],[151165.68573728,173095.922728],[151166.87806363,173092.69677974],[151168.39004788,173088.55180323],[151169.9499269,173083.96433955],[151171.29941121,173079.45445456],[151172.22324119,173076.36644101],[151173.21118116,173072.72539673],[151174.31015171,173068.14821624],[151175.25965333,173063.82225808],[151176.29947197,173058.56726847],[151177.17095743,173053.06773355],[151178.13038481,173046.25836136],[151178.60851682,173041.64110872],[151178.99307278,173036.92990401],[151179.25025187,173032.63645519],[151179.53063666,173027.15401444],[151179.72027266,173021.07273334],[151179.77551727,173017.2704171],[151179.68787313,173010.25316215],[151179.55042706,173005.12756022],[151179.31819161,173000],[151179.3183,173000.0001],[151179.0923,172997.1125],[151178.6535,172991.2277],[151178.2219,172986.0907],[151177.9849,172984.0973],[151177.2887,172978.1877],[151175.7101,172967.4081],[151174.6509,172961.1029],[151173.8287,172956.3135],[151172.7037,172949.6545],[151171.4493,172942.0491],[151170.1347,172934.5211],[151168.8941,172926.2919],[151166.9117,172912.8387],[151165.8985,172904.5115],[151165.1153,172897.8007],[151164.4525,172891.4259],[151163.8247,172885.1853],[151163.1907,172877.9479],[151162.7207,172872.7441],[151162.2733,172866.8971],[151161.6101,172858.9305],[151161.1889,172854.3753],[151160.6097,172848.2567],[151160.0563,172843.1501],[151159.4827,172838.1053],[151158.7801,172832.0569],[151158.2497,172827.4053],[151157.8055,172823.4985],[151157.1271,172817.6779],[151156.5203,172811.5911],[151155.4537,172801.5685],[151155.0469,172796.1745],[151154.5083,172789.0609],[151154.2313,172784.4611],[151153.9725,172778.1471],[151153.8113,172772.1447],[151153.7363,172767.3375],[151153.7207,172759.8387],[151153.7891,172755.5123],[151153.8683,172750.6223],[151154.1329,172745.8717],[151154.3839,172739.4531],[151154.6215,172735.9161],[151154.9405,172731.8089],[151155.2425,172728.0887],[151155.7775,172722.5273],[151156.5199,172715.0785],[151157.4813,172707.6011],[151158.4155,172701.0243],[151159.4563,172694.3205],[151160.7261,172687.3989],[151162.0877,172680.1597],[151163.5575,172673.1901],[151165.4225,172665.1139],[151166.9393,172659.0279],[151168.4253,172653.5051],[151170.6283,172645.7491],[151173.1903,172637.0027],[151175.4993,172629.9507],[151177.1537,172625.1487],[151178.4903,172621.4075],[151181.0823,172614.3247],[151183.3227,172608.8279],[151184.8333,172604.9811],[151186.6107,172600.3873],[151188.2247,172596.5751],[151190.7989,172590.6387],[151192.5469,172586.4163],[151194.9921,172580.4771],[151198.3857,172572.8543],[151201.1791,172567.4957],[151205.5497,172559.6951],[151208.5035,172554.7349],[151211.6655,172549.6531],[151214.8031,172544.7239],[151217.8199,172540.1143],[151220.7823,172535.7881],[151223.8417,172531.4521],[151227.5131,172526.4005],[151232.2207,172520.2807],[151235.5653,172515.9229],[151240.4929,172510.1497],[151244.3295,172505.7029],[151249.0323,172500.4143],[151253.3467,172495.6979],[151256.3617,172492.3973],[151259.8475,172488.7043],[151264.5421,172483.8205],[151268.0275,172480.2079],[151272.2643,172475.9033],[151278.7283,172469.4751],[151283.7691,172464.6379],[151288.5389,172460.3059],[151293.1079,172456.2153],[151297.7299,172452.2071],[151301.8417,172448.7931],[151308.6421,172443.3183],[151314.2527,172438.9503],[151317.6133,172436.3785],[151322.3829,172432.8435],[151327.4423,172429.2079],[151333.2807,172425.2331],[151339.2991,172421.2221],[151344.0561,172418.2039],[151349.0365,172415.1307],[151356.4785,172410.7245],[151369.0885,172403.5319],[151378.5919,172398.6945],[151385.7657,172395.1697],[151391.5417,172392.3645],[151398.1273,172389.3715],[151405.8941,172385.8387],[151413.4205,172382.5735],[151419.4853,172379.8807],[151428.1093,172376.0865],[151441.2833,172370.3015],[151449.4085,172366.6819],[151456.7333,172363.5115],[151465.3131,172359.6901],[151472.8933,172356.3469],[151480.7415,172352.8777],[151492.9043,172347.4997],[151502.7997,172343.0793],[151511.6581,172339.1597],[151521.0521,172335.0485],[151532.8053,172329.8077],[151543.6457,172325.0353],[151555.3211,172319.9299],[151562.0331,172316.9581],[151569.6885,172313.5299],[151576.2401,172310.5225],[151583.8831,172306.9589],[151590.4627,172304.1171],[151601.6351,172298.9401],[151612.6653,172293.6419],[151621.0889,172289.5119],[151629.4181,172285.3999],[151636.6243,172281.5873],[151642.3625,172278.6219],[151649.0293,172275.0975],[151655.5237,172271.4813],[151663.6353,172267.0541],[151672.7363,172261.6623],[151678.9331,172257.9141],[151685.7329,172253.7809],[151694.6865,172248.1961],[151703.1763,172242.7379],[151711.2895,172237.2057],[151720.2161,172231.0495],[151728.0395,172225.4143],[151736.9337,172218.8877],[151744.3887,172213.2831],[151752.1485,172207.2421],[151759.0945,172201.7393],[151765.4611,172196.5381],[151771.9233,172191.1279],[151779.7779,172184.4025],[151787.7741,172177.3095],[151795.3631,172170.5069],[151801.0463,172165.1899],[151805.9749,172160.5481],[151811.5163,172155.2325],[151816.3993,172150.4745],[151821.5265,172145.3677],[151825.5679,172141.2263],[151830.3025,172136.3673],[151834.1811,172132.2653],[151837.7241,172128.5101],[151843.3047,172122.4907],[151849.4455,172115.6417],[151853.6409,172110.8887],[151857.4885,172106.4801],[151861.1847,172102.1253],[151864.9029,172097.7463],[151868.2757,172093.7267],[151872.0807,172089.0063],[151875.0369,172085.3595],[151879.1759,172080.1699],[151883.2561,172074.9697],[151889.8167,172066.2773],[151895.5079,172058.6027],[151899.4935,172053.1213],[151902.9897,172048.1741],[151906.9763,172042.5869],[151910.7929,172037.1745],[151917.3133,172027.7095],[151920.4855,172023.1649],[151921.4676,172021.7125],[151924.7167,172016.9077],[151928.9657,172010.6359],[151932.5225,172005.3713],[151935.3041,172000.9961],[151935.304,172000.996],[151935.942,172000],[151940.18090709,171993.74303128],[151946.67875942,171983.43004475],[151952.16851904,171974.52743409],[151954.67659205,171970.42035204]]},"geometry_name":"GEOM","properties":{"INSPIRE_ID":"https://databrussels.be/id/rail/22859","TYPE":"TW","LVL":0,"SLOPE":null,"LENGTH":1593.13212433151},"bbox":[151130.30983789,171970.42035204,151954.67659205,173157.47881339]},{"type":"Feature","id":"TramNetwork.fid-280e1c69_19ff56afc87_620e","geometry":{"type":"LineString","coordinates":[[150826.90330463,172044.23345115],[150833.671,172041.9365],[150848.9338,172036.6849],[150857.6129,172033.617],[150860.2327,172032.78],[150860.2327,172032.7801],[150860.4282,172032.7114],[150877.6486,172026.775],[150903.2485,172018.0553],[150932.7408,172007.9076],[150954.5128,172000.3138],[150971.4618,171994.5271],[150989.2621,171988.3993],[151003.2328,171983.4406],[151021.669,171977.139],[151029.951,171974.241],[151036.323,171972.092],[151041.043,171970.439],[151045.714,171968.098],[151048.086,171966.26],[151051.042,171963.537],[151054.023,171959.557],[151055.816,171956.001],[151057.466,171952.065],[151058.5294557,171948.52111856]]},"geometry_name":"GEOM","properties":{"INSPIRE_ID":"https://databrussels.be/id/rail/22257","TYPE":"TW","LVL":0,"SLOPE":null,"LENGTH":255.668333272679},"bbox":[150826.90330463,171948.52111856,151058.5294557,172044.23345115]},{"type":"Feature","id":"TramNetwork.fid-280e1c69_19ff56afc87_620f","geometry":{"type":"LineString","coordinates":[[150827.43347026,172045.63757084],[150834.156,172043.3559],[150849.4278,172038.1012],[150858.0956,172035.0374],[150860.6037,172034.2188],[150861.1108,172034.0406],[150878.1198,172028.1463],[150903.7181,172019.4271],[150933.2154,172009.2777],[150954.9858,172001.6845],[150971.932,171995.8987],[150989.7388,171989.7687],[151003.8196,171984.8136],[151022.149,171978.539],[151030.439,171975.638],[151030.4391,171975.6381],[151036.8041,171973.4921],[151041.6221,171971.8051],[151046.5061,171969.3561],[151049.0421,171967.3911],[151052.1451,171964.5331],[151055.2861,171960.3401],[151057.1611,171956.6211],[151057.74,171955.2402],[151058.8431,171952.6091],[151059.8149,171949.1663]]},"geometry_name":"GEOM","properties":{"INSPIRE_ID":"https://databrussels.be/id/rail/22256","TYPE":"TW","LVL":0,"SLOPE":null,"LENGTH":256.780754525253},"bbox":[150827.43347026,171949.1663,151059.8149,172045.63757084]},{"type":"Feature","id":"TramNetwork.fid-280e1c69_19ff56afc87_6210","geometry":{"type":"LineString","coordinates":[[150827.96165827,172047.03645292],[150832.399,172045.4858],[150840.9234,172042.5491],[150853.5384,172038.1323],[150861.189,172035.643],[150861.8206,172035.423],[150880.4515,172028.9451],[150896.71,172023.3511],[150925.9005,172013.323],[150947.7001,172005.8047],[150963.061,172000.452],[150964.385,172000],[150985.036,171992.951],[151000,171987.768],[151013.492,171983.094],[151039.73598377,171974.20112906],[151041.308,171973.784],[151043.499,171973.157],[151045.499,171972.584],[151047.472,171972.212],[151049.946,171972.075],[151052.68,171972.161],[151055.33997022,171972.47162323],[151058.181,171973.17],[151060.952,171974.152],[151064.53982666,171975.72362177],[151066.78557715,171977.24460996],[151068.51356221,171978.56453831],[151070.8807,171980.2807]]},"geometry_name":"GEOM","properties":{"INSPIRE_ID":"https://databrussels.be/id/rail/22255","TYPE":"TW","LVL":0,"SLOPE":null,"LENGTH":257.429258543518},"bbox":[150827.96165827,171972.075,151070.8807,172047.03645292]},{"type":"Feature","id":"TramNetwork.fid-280e1c69_19ff56afc87_6211","geometry":{"type":"LineString","coordinates":[[150828.4916889,172048.44021508],[150832.8907,172046.903],[150841.4156,172043.9661],[150854.0203,172039.5528],[150861.8249,172036.9889],[150862.50340867,172036.75252489],[150887.346,172028.098],[150936.151,172011.452],[150963.54,172001.852],[150968.966,172000],[150985.517,171994.351],[151000,171989.334],[151013.972,171984.494],[151040.173,171975.616],[151041.701,171975.211],[151043.906,171974.58],[151045.841,171974.026],[151047.651,171973.684],[151049.964,171973.556],[151052.571,171973.638],[151055.078,171973.931],[151057.756,171974.59],[151060.395,171975.525],[151063.35222456,171977.08916871],[151065.61741923,171978.41921526],[151068.42052595,171980.25719655],[151068.92045363,171980.65982277]]},"geometry_name":"GEOM","properties":{"INSPIRE_ID":"https://databrussels.be/id/rail/22254","TYPE":"TW","LVL":0,"SLOPE":null,"LENGTH":254.561864938865},"bbox":[150828.4916889,171973.556,151068.92045363,172048.44021508]},{"type":"Feature","id":"TramNetwork.fid-280e1c69_19ff56afc87_6212","geometry":{"type":"LineString","coordinates":[[151068.92045363,171980.65982277],[151067.63823005,171979.29025102],[151064.53982666,171975.72362177],[151063.03693092,171973.69975292],[151061.28905398,171970.80065467],[151059.93166215,171967.8924433],[151059.19464311,171965.65338619],[151058.38193401,171962.8229089],[151057.8976985,171959.83338663],[151057.71188777,171955.55754076],[151057.73999642,171955.24019968],[151058.00540718,171952.24376409],[151058.5294557,171948.52111856]]},"geometry_name":"GEOM","properties":{"INSPIRE_ID":"https://databrussels.be/id/rail/22258","TYPE":"TW","LVL":0,"SLOPE":null,"LENGTH":35.4126677212235},"bbox":[151057.71188777,171948.52111856,151068.92045363,171980.65982277]},{"type":"Feature","id":"TramNetwork.fid-280e1c69_19ff56afc87_6213","geometry":{"type":"LineString","coordinates":[[151113.26020074,171926.63545075],[151110.25078512,171924.67382282],[151107.49257011,171923.04518889],[151103.35801916,171921.23329883],[151100.79472237,171920.31617067],[151098.8840306,171919.80421913],[151096.23476581,171919.33840246],[151094.19672506,171919.07453212],[151091.94780573,171918.91751989],[151088.97394677,171918.93856782],[151085.75102363,171919.2690132],[151083.29724361,171919.80156996],[151080.8937555,171920.55770296],[151078.54958386,171921.42684389],[151075.67148404,171922.90536966],[151072.88454845,171924.55270418],[151070.67142933,171926.13681366],[151068.53922117,171927.95835325],[151066.48735085,171930.21245503],[151065.15323239,171931.84823674],[151063.44198354,171934.4500687],[151062.2548646,171936.50311146],[151061.40001869,171938.37856882],[151060.44760585,171941.20137579],[151059.30007433,171945.20446067],[151058.5294557,171948.52111856]]},"geometry_name":"GEOM","properties":{"INSPIRE_ID":"https://databrussels.be/id/rail/21191","TYPE":"TW","LVL":0,"SLOPE":null,"LENGTH":72.0071097970766},"bbox":[151058.5294557,171918.91751989,151113.26020074,171948.52111856]},{"type":"Feature","id":"TramNetwork.fid-280e1c69_19ff56afc87_6214","geometry":{"type":"LineString","coordinates":[[151059.8149,171949.1663],[151059.5019,171951.8405],[151059.1279,171956.0439],[151059.2177,171959.4519],[151059.7405,171962.6141],[151060.3629,171964.8901],[151061.1161,171966.9099],[151062.0603,171969.0899],[151063.7285,171972.0539],[151065.3211,171974.3771],[151067.6305,171977.0727],[151069.7963,171979.2171],[151070.8807,171980.2807]]},"geometry_name":"GEOM","properties":{"INSPIRE_ID":"https://databrussels.be/id/rail/22259","TYPE":"TW","LVL":0,"SLOPE":null,"LENGTH":34.7519059791896},"bbox":[151059.1279,171949.1663,151070.8807,171980.2807]},{"type":"Feature","id":"TramNetwork.fid-280e1c69_19ff56afc87_6215","geometry":{"type":"LineString","coordinates":[[151112.7313,171927.9871],[151112.3435,171927.6817],[151108.7875,171925.4803],[151104.8193,171923.2287],[151101.4825,171921.9141],[151098.6441,171921.0977],[151096.4247,171920.6545],[151094.1001,171920.3383],[151091.5991,171920.2101],[151089.7379,171920.2077],[151086.7849,171920.5689],[151083.4019,171921.2957],[151081.2473,171921.9253],[151079.0007,171922.7129],[151077.4429,171923.4223],[151074.2339,171925.2951],[151072.0135,171927.0001],[151070.2317,171928.4657],[151068.8481,171929.8309],[151067.7553,171931.0059],[151066.3617,171932.7881],[151064.9471,171934.8279],[151063.6293,171937.1603],[151062.8197,171938.9643],[151061.8479,171941.5753],[151061.0985,171943.9609],[151060.3677,171946.7281],[151059.8149,171949.1663]]},"geometry_name":"GEOM","properties":{"INSPIRE_ID":"https://databrussels.be/id/rail/21236","TYPE":"TW","LVL":0,"SLOPE":null,"LENGTH":69.9454021229266},"bbox":[151059.8149,171920.2077,151112.7313,171949.1663]},{"type":"Feature","id":"TramNetwork.fid-280e1c69_19ff56afc87_6216","geometry":{"type":"LineString","coordinates":[[151126.377,171964.404],[151125.39285945,171967.61758953],[151124.22819545,171970.76327436],[151122.54087286,171974.50638846],[151120.84012403,171977.27757368],[151118.94840068,171979.89366031],[151116.87123973,171982.04853607],[151113.98766764,171984.56199767],[151111.79396435,171986.11554409],[151109.09072119,171987.7697756],[151107.11987688,171988.70214166],[151105.01219992,171989.57539553],[151102.59657042,171990.30584189],[151100.10481007,171990.82170403],[151096.03497489,171991.31901875],[151093.84702397,171991.33611926],[151091.82311689,171991.28970198],[151088.56697175,171991.01908678],[151086.85252794,171990.69312853],[151084.99940677,171990.19649845],[151080.77284164,171988.5963567],[151079.36533328,171987.93176552],[151077.89948547,171987.10232445],[151075.19558197,171985.3330403],[151071.46692323,171982.61334573],[151070.05444968,171981.57310797],[151068.92045363,171980.65982277]]},"geometry_name":"GEOM","properties":{"INSPIRE_ID":"https://databrussels.be/id/rail/21190","TYPE":"TW","LVL":0,"SLOPE":null,"LENGTH":73.5668726287618},"bbox":[151068.92045363,171964.404,151126.377,171991.33611926]},{"type":"Feature","id":"TramNetwork.fid-280e1c69_19ff56afc87_6217","geometry":{"type":"LineString","coordinates":[[151124.9782,171963.8841],[151123.8501,171966.9947],[151122.6171,171970.4401],[151121.4429,171973.4295],[151119.7437,171976.2129],[151117.8371,171978.7171],[151115.4105,171981.3337],[151111.9653,171984.2013],[151108.8163,171986.2321],[151106.0637,171987.4897],[151102.9287,171988.7121],[151101.1315,171989.1967],[151098.9137,171989.5655],[151095.9745,171989.9235],[151093.3202,171990.0609],[151089.8119,171989.7501],[151088.0305,171989.4861],[151086.0391,171989.0451],[151082.3505,171987.6907],[151080.5575,171986.9451],[151078.4661,171985.9233],[151075.0657,171983.5881],[151070.8807,171980.2807]]},"geometry_name":"GEOM","properties":{"INSPIRE_ID":"https://databrussels.be/id/rail/21234","TYPE":"TW","LVL":0,"SLOPE":null,"LENGTH":69.5267806819082},"bbox":[151070.8807,171963.8841,151124.9782,171990.0609]},{"type":"Feature","id":"TramNetwork.fid-280e1c69_19ff56afc87_6218","geometry":{"type":"LineString","coordinates":[[151112.7313,171927.9871],[151114.1493,171929.1041],[151115.6309,171930.3477],[151117.3325,171931.7841],[151119.5509,171934.1477],[151121.3777,171936.4139],[151122.5115,171938.1417],[151123.7271,171940.3305],[151124.5841,171942.1051],[151125.1755,171943.7865],[151125.9735,171946.3127],[151126.5415,171948.5733],[151126.7981,171950.4253],[151126.8961,171952.71194242],[151126.9363,171953.47034243],[151126.8261,171955.61184243],[151126.5767,171957.27484242],[151126.2433,171959.29084242],[151124.9782,171963.8841]]},"geometry_name":"GEOM","properties":{"INSPIRE_ID":"https://databrussels.be/id/rail/22260","TYPE":"TW","LVL":0,"SLOPE":null,"LENGTH":40.973649309465},"bbox":[151112.7313,171927.9871,151126.9363,171963.8841]},{"type":"Feature","id":"TramNetwork.fid-280e1c69_19ff56afc87_6219","geometry":{"type":"LineString","coordinates":[[151112.7313,171927.9871],[151116.36951128,171929.91214311],[151118.6572088,171931.27329771],[151121.31202799,171932.52685261],[151123.68104419,171933.4149386],[151126.71680046,171934.37437416],[151129.483,171935.014],[151135.175,171935.412],[151141.686,171934.784],[151148.998,171933.294],[151160.865,171930.002],[151172.99372397,171926.49263812],[151204.8831,171915.7321],[151240.9681,171903.2121],[151274.0751,171891.8471],[151314.6141,171877.7951],[151339.7211,171869.1381],[151369.9691,171858.8281],[151392.7171,171850.9251],[151414.7401,171843.3001],[151433.5691,171836.8381],[151455.4581,171829.3351],[151469.5881,171824.3481],[151469.588,171824.348],[151486.216,171818.708],[151501.517,171813.453],[151508.364,171810.545],[151513.815,171807.397],[151518.457,171803.838],[151522.188,171800.19],[151526.708,171795.032],[151530.634,171789.946],[151535.52,171784.141],[151539.995,171780.006],[151543.999,171777.335],[151547.712,171775.333],[151553.795,171773.002],[151553.7951,171773.0021],[151567.6941,171768.3011],[151586.9061,171761.2041],[151586.906,171761.204],[151593.079,171759.838],[151599.206,171759.079],[151604.34200967,171759.28668456],[151610.121,171760.209],[151615.848,171761.709],[151622.226,171763.152],[151628.569,171764.242],[151634.189,171764.829],[151640.762,171764.41],[151644.596,171763.917],[151648.746,171762.944],[151652.805,171761.612],[151669.488,171756.037],[151726.915,171737.096],[151773.647,171721.371],[151778.84718425,171719.67833258]]},"geometry_name":"GEOM","properties":{"INSPIRE_ID":"https://databrussels.be/id/rail/22263","TYPE":"TW","LVL":0,"SLOPE":null,"LENGTH":712.667158755893},"bbox":[151112.7313,171719.67833258,151778.84718425,171935.412]},{"type":"Feature","id":"TramNetwork.fid-280e1c69_19ff56afc87_621a","geometry":{"type":"LineString","coordinates":[[151113.26020074,171926.63545075],[151115.90161797,171928.04319045],[151119.58002298,171930.1996684],[151122.283,171931.443],[151124.958,171932.522],[151129.692,171933.545],[151135.155,171933.927],[151141.467,171933.318],[151148.652,171931.854],[151160.462,171928.578],[151172.539,171925.084],[151204.404,171914.332],[151240.485,171901.813],[151273.592,171890.448],[151314.13,171876.396],[151339.241,171867.738],[151369.487,171857.429],[151392.232,171849.527],[151414.258,171841.901],[151433.089,171835.438],[151454.972,171827.937],[151469.112,171822.946],[151485.738,171817.307],[151500.987,171812.07],[151507.702,171809.218],[151512.991,171806.164],[151517.486,171802.718],[151521.113,171799.172],[151525.565,171794.091],[151529.482,171789.017],[151534.447,171783.117],[151539.076,171778.84],[151543.235,171776.065],[151547.093,171773.985],[151553.265,171771.62],[151567.2,171766.906],[151586.49,171759.78],[151592.828,171758.378],[151599.144,171757.595],[151604.484,171757.811],[151610.426,171758.759],[151616.199,171760.271],[151622.515,171761.7],[151628.771,171762.775],[151634.219,171763.344],[151640.62,171762.936],[151644.332,171762.459],[151648.346,171761.518],[151652.336,171760.209],[151669.022,171754.632],[151726.447,171735.692],[151773.182,171719.966],[151778.89244987,171718.10729528]]},"geometry_name":"GEOM","properties":{"INSPIRE_ID":"https://databrussels.be/id/rail/22264","TYPE":"TW","LVL":0,"SLOPE":null,"LENGTH":712.214021121121},"bbox":[151113.26020074,171718.10729528,151778.89244987,171933.927]},{"type":"Feature","id":"TramNetwork.fid-280e1c69_19ff56afc87_621b","geometry":{"type":"LineString","coordinates":[[151113.26020074,171926.63545075],[151115.10168527,171927.94471012],[151116.65833584,171929.33948714],[151118.09434546,171930.70387258],[151118.6572088,171931.27329771],[151120.61575861,171933.25468004],[151121.87643299,171934.79172126],[151123.43626364,171937.16642673],[151124.53167863,171938.98600095],[151125.50787484,171940.74649341],[151126.21846765,171942.57942826],[151126.95402383,171944.86337476],[151127.64463899,171947.79050818],[151128.01850566,171950.3835565],[151128.23975958,171953.4357452],[151128.12111871,171955.74112868],[151127.86088368,171957.47646534],[151127.51882939,171959.54498351],[151126.377,171964.404]]},"geometry_name":"GEOM","properties":{"INSPIRE_ID":"https://databrussels.be/id/rail/22261","TYPE":"TW","LVL":0,"SLOPE":null,"LENGTH":43.0871002707579},"bbox":[151113.26020074,171926.63545075,151128.23975958,171964.404]},{"type":"Feature","id":"TramNetwork.fid-280e1c69_19ff56afc87_621c","geometry":{"type":"LineString","coordinates":[[151124.9782,171963.8841],[151125.05100021,171963.74599963],[151127.06199969,171959.42000043],[151127.86088368,171957.47646534],[151129.0490002,171954.58600043],[151130.44800009,171952.52599939],[151133.44999845,171948.62800151],[151136.678,171945.494],[151139.647,171942.927],[151143.713,171940.689],[151148.43669442,171938.45590766],[151161.064,171933.212],[151178.81,171926.349],[151201.702,171918.273],[151261.368,171897.744],[151336.655,171871.658],[151405.48,171847.987],[151457.059,171830.191],[151469.9681,171825.7561],[151483.2714,171821.2468],[151488.5843,171819.2571],[151494.2107,171817.3152],[151502.8968,171814.3533],[151505.3242,171813.5742],[151506.7354,171813.2164],[151508.8104,171812.7293],[151510.7432,171812.343],[151512.891,171812.0061],[151514.9563,171811.7844],[151517.2361,171811.5985],[151519.8363,171811.5531],[151522.3414,171811.664],[151525.5265,171811.9144],[151528.273,171812.3308],[151531.2188,171812.8991],[151533.2601,171813.4553],[151536.4731,171814.1601],[151542.5121,171815.7291],[151548.0361,171816.8421],[151551.9841,171817.1511],[151556.5381,171816.9041],[151562.1991,171816.0351],[151568.5241,171814.0341],[151568.5641,171814.0211],[151584.8381,171808.3561],[151603.81090256,171801.88810822],[151608.434,171799.702],[151611.322,171798.058],[151614.469,171795.345],[151617.212,171793.076],[151619.638,171790.208],[151622.662,171786.746],[151625.364,171783.452],[151628.736,171779.097],[151632.695,171775.113],[151637.236,171771.132],[151641.429,171768.24],[151646.92375443,171765.34524221],[151654.934,171762.385],[151661.543,171760.223],[151673.783,171756.075],[151695.748,171748.886],[151741.67,171733.677],[151774.519,171722.724],[151778.80038007,171721.30276852]]},"geometry_name":"GEOM","properties":{"INSPIRE_ID":"https://databrussels.be/id/rail/22262","TYPE":"TW","LVL":0,"SLOPE":null,"LENGTH":711.931287441085},"bbox":[151124.9782,171721.30276852,151778.80038007,171963.8841]},{"type":"Feature","id":"TramNetwork.fid-280e1c69_19ff56afc87_621d","geometry":{"type":"LineString","coordinates":[[151126.377,171964.404],[151128.418,171960.014],[151130.36,171955.291],[151131.648,171953.394],[151134.56146971,171949.61089631],[151137.678,171946.586],[151140.497,171944.148],[151144.387,171942.008],[151149.042,171939.807],[151161.615,171934.586],[151179.323,171927.737],[151202.189,171919.671],[151261.851,171899.143],[151337.138,171873.057],[151405.962,171849.386],[151457.542,171831.59],[151470.443,171827.158],[151470.4431,171827.1581],[151483.8642,171822.6089],[151489.0858,171820.6497],[151494.6909,171818.7151],[151503.3618,171815.7584],[151505.7326,171814.9975],[151507.0864,171814.6543],[151509.1246,171814.1758],[151511.0031,171813.8003],[151513.0848,171813.4738],[151515.0954,171813.2579],[151517.3092,171813.0775],[151519.8165,171813.0337],[151522.2506,171813.1414],[151525.3573,171813.3856],[151528.0218,171813.7896],[151530.8824,171814.3415],[151532.8451,171814.8796],[151536.1281,171815.6001],[151542.1791,171817.1721],[151547.8311,171818.3111],[151551.9661,171818.6341],[151556.6911,171818.3781],[151562.5371,171817.4811],[151569.0101,171815.4321],[151569.01,171815.432],[151585.32,171809.755],[151604.368,171803.262],[151609.117,171801.016],[151612.179,171799.273],[151615.424,171796.476],[151618.257,171794.132],[151620.76,171791.173],[151623.792,171787.702],[151626.522,171784.374],[151629.85,171780.075],[151633.709,171776.192],[151638.147,171772.302],[151642.197,171769.508],[151647.525,171766.701],[151647.5251,171766.7011],[151655.4211,171763.7831],[151662.0111,171761.6271],[151674.2431,171757.4811],[151674.243,171757.481],[151696.211,171750.292],[151742.137,171735.081],[151774.986,171724.128],[151778.75502367,171722.87695641]]},"geometry_name":"GEOM","properties":{"INSPIRE_ID":"https://databrussels.be/id/rail/22265","TYPE":"TW","LVL":0,"SLOPE":null,"LENGTH":710.067322336772},"bbox":[151126.377,171722.87695641,151778.75502367,171964.404]}],"totalFeatures":20,"numberMatched":20,"numberReturned":20,"timeStamp":"2026-08-12T10:04:31.913Z","crs":{"type":"name","properties":{"name":"urn:ogc:def:crs:EPSG::31370"}},"bbox":[150826.90330463,171718.10729528,151954.67659205,173157.47881339],"grand_bruxelles_source":{"authority":"Paradigm / Brussels-Capital Region","service":"UrbIS WFS","layer":"urbisvector:TramNetwork","crs":"EPSG:31370","bbox":[151000.0,171500.0,151500.0,172000.0],"cell_id":"bxl-e151000-n171500-s500"}}
