{"type":"FeatureCollection","totalFeatures":6,"numberMatched":6,"timeStamp":"2026-08-23T13:19:28.592Z","crs":{"type":"name","properties":{"name":"urn:ogc:def:crs:EPSG::31370"}},"bbox":[149481.149,174653.36,149808.83,174982.53],"features":[{"type":"Feature","id":"Buildings.fid-77ff224d_1a02ebef89f_4561","geometry":{"type":"Polygon","coordinates":[[[149502.377,174677.142],[149506.242,174673.448],[149510.304,174677.697],[149506.44,174681.392],[149502.377,174677.142]]]},"geometry_name":"GEOM","properties":{"INSPIRE_ID":"https://databrussels.be/id/building/1659216","BLOCK_ID":"https://databrussels.be/id/block/27151","AREA":31},"bbox":[149502.377,174673.448,149510.304,174681.392]},{"type":"Feature","id":"Buildings.fid-77ff224d_1a02ebef89f_4563","geometry":{"type":"Polygon","coordinates":[[[149804.17,174845.99],[149802.57,174839.91],[149807.05,174838.45],[149808.64,174844],[149808.83,174844.64],[149804.17,174845.99]]]},"geometry_name":"GEOM","properties":{"INSPIRE_ID":"https://databrussels.be/id/building/1664442","BLOCK_ID":"https://databrussels.be/id/block/27151","AREA":30},"bbox":[149802.57,174838.45,149808.83,174845.99]},{"type":"Feature","id":"Buildings.fid-77ff224d_1a02ebef89f_4564","geometry":{"type":"Polygon","coordinates":[[[149634.74,174982.53],[149633.399,174982.337],[149632.167,174981.774],[149631.143,174980.887],[149630.41,174979.747],[149630.028,174978.447],[149630.028,174977.093],[149630.41,174975.793],[149631.143,174974.653],[149632.167,174973.766],[149633.399,174973.203],[149634.74,174973.01],[149636.081,174973.203],[149637.313,174973.766],[149638.337,174974.653],[149639.07,174975.793],[149639.452,174977.093],[149639.452,174978.447],[149639.07,174979.747],[149638.337,174980.887],[149637.313,174981.774],[149636.081,174982.337],[149634.74,174982.53]]]},"geometry_name":"GEOM","properties":{"INSPIRE_ID":"https://databrussels.be/id/building/1664446","BLOCK_ID":"https://databrussels.be/id/block/27151","AREA":70},"bbox":[149630.028,174973.01,149639.452,174982.53]},{"type":"Feature","id":"Buildings.fid-77ff224d_1a02ebef89f_455f","geometry":{"type":"Polygon","coordinates":[[[149684.35,174653.36],[149696.37,174665.4],[149694.9,174666.86],[149696.29,174668.57],[149693.59,174671.27],[149680.03,174657.67],[149684.35,174653.36]]]},"geometry_name":"GEOM","properties":{"INSPIRE_ID":"https://databrussels.be/id/building/1664449","BLOCK_ID":"https://databrussels.be/id/block/27151","AREA":113},"bbox":[149680.03,174653.36,149696.37,174671.27]}],"numberReturned":4,"grand_bruxelles_source":{"authority":"Paradigm / Brussels-Capital Region","service":"https://geoservices-urbis.irisnet.be/geoserver/urbisvector/wfs","layer":"urbisvector:Buildings","crs":"EPSG:31370","bbox":[149500.0,174500.0,150000.0,175000.0],"cell_id":"bxl-e149500-n174500-s500","ownership":"polygon_or_multipolygon_centroid_global_500m_cell"}}
