{"type":"FeatureCollection","totalFeatures":2,"numberMatched":2,"timeStamp":"2026-08-23T13:19:30.364Z","crs":{"type":"name","properties":{"name":"urn:ogc:def:crs:EPSG::31370"}},"bbox":[149489.96252082,173838.30096045,150539.80802437,175741.445],"features":[{"type":"Feature","id":"StreetAxes.fid--2dded296_1a02ebf978a_43e9","geometry":{"type":"LineString","coordinates":[[150311.94905009,174554.87162122],[150305.10404302,174548.00889679],[150284.6932013,174527.22468999],[150258.40315693,174502.97191746],[150245.07028097,174492.12835142],[150226.80239082,174478.62336544],[150134.21876448,174416.63580052],[150040.36349969,174353.83283465],[149920.20586313,174273.29805213],[149851.98143561,174227.53262278],[149823.09871086,174208.18095592],[149789.445,174185.66961412],[149762.39257091,174166.16255523],[149745.97070884,174153.51332278],[149735.88018738,174145.4700609],[149716.97628013,174129.41598121],[149701.50414724,174115.50869341],[149673.0824081,174088.41939598],[149659.82310886,174074.59171777],[149645.51382005,174059.21578917],[149631.142056,174042.70628548],[149601.56207353,174006.21314139],[149576.49311819,173971.19897861],[149557.22965047,173942.90981967],[149545.4720519,173925.44530405],[149527.40774083,173897.89605856],[149506.47539066,173864.37096479],[149493.50502427,173844.88256896],[149489.96252082,173838.30096045]]},"geometry_name":"GEOM","properties":{"INSPIRE_ID":"https://databrussels.be/id/streetaxe/82612","TYPE":"S","HIERARCHY":null,"LVL":0,"STARTSN_ID":"https://databrussels.be/id/streetnode/11224","ENDSN_ID":"https://databrussels.be/id/streetnode/10964","STRNAMEFRE":"Chaussée de Vilvorde","STRNAMEDUT":"Vilvoordsesteenweg","SLOPE":0.56,"LENGTH":1103.47379754079},"bbox":[149489.96252082,173838.30096045,150311.94905009,174554.87162122]},{"type":"Feature","id":"StreetAxes.fid--2dded296_1a02ebf978a_43e8","geometry":{"type":"LineString","coordinates":[[149755.433,175741.445],[149795.37402797,175719.83237976],[149852.90335036,175688.19588191],[149919.66902623,175648.33057366],[149975.79007211,175612.76985741],[150042.08437956,175569.94488872],[150128.50794713,175512.65371476],[150243.01318618,175434.21790087],[150310.56164825,175386.69538316],[150343.49796743,175362.63467354],[150370.22300535,175341.73837206],[150388.76585311,175326.05642729],[150405.96043627,175310.75837181],[150406.67187646,175310.11197186],[150407.38295042,175309.46681206],[150408.0821137,175308.82968721],[150416.09235953,175301.30611966],[150423.95476013,175293.61932599],[150431.76209503,175285.84896899],[150432.32673448,175285.28832699],[150432.88645523,175284.73059106],[150433.4296394,175284.18353392],[150435.74649875,175281.73335145],[150438.01114149,175279.21278326],[150440.27517235,175276.65800527],[150443.25923223,175273.31330072],[150446.20001516,175269.95993331],[150449.05330582,175266.55698062],[150451.85341568,175263.01697615],[150454.58146874,175259.4043906],[150457.25191571,175255.74407941],[150459.47586289,175252.58744513],[150461.66082426,175249.39066938],[150463.83705606,175246.17476006],[150466.07535729,175242.85875823],[150468.29641658,175239.53614933],[150470.49694643,175236.20143886],[150472.69754767,175232.824723],[150474.87694564,175229.43698545],[150477.02609187,175226.0334233],[150479.2581606,175222.42823372],[150481.45686108,175218.80555603],[150483.60843282,175215.16091486],[150485.70836813,175211.485282],[150487.76633094,175207.78055068],[150489.78890166,175204.05324178],[150491.63204152,175200.58714257],[150493.4453117,175197.10406972],[150495.22794961,175193.60850601],[150496.97666194,175190.08718095],[150498.69950495,175186.54167783],[150500.42554608,175182.99059322],[150508.72383466,175163.33969867],[150517.34350228,175140.32840278],[150524.63776552,175116.69710901],[150530.61323771,175092.45978286],[150534.91977416,175068.77816903],[150538.10195138,175043.90681699],[150539.80802437,175017.64757652],[150539.79566029,174993.04576264],[150538.24166029,174966.93376264],[150534.46266029,174935.44576264],[150527.03366029,174901.15976264],[150516.64866029,174865.97276264],[150499.73429845,174821.04941369]]},"geometry_name":"GEOM","properties":{"INSPIRE_ID":"https://databrussels.be/id/streetaxe/97804","TYPE":"S","HIERARCHY":"H","LVL":0,"STARTSN_ID":"https://databrussels.be/id/streetnode/16445","ENDSN_ID":"https://databrussels.be/id/streetnode/12271","STRNAMEFRE":"Avenue Van Praet","STRNAMEDUT":"Van Praetlaan","SLOPE":1.62,"LENGTH":1314.6471030401},"bbox":[149755.433,174821.04941369,150539.80802437,175741.445]}],"numberReturned":2,"grand_bruxelles_source":{"authority":"Paradigm / Brussels-Capital Region","service":"https://geoservices-urbis.irisnet.be/geoserver/urbisvector/wfs","layer":"urbisvector:StreetAxes","crs":"EPSG:31370","bbox":[149500.0,174500.0,150000.0,175000.0],"cell_id":"bxl-e149500-n174500-s500","ownership":"bbox_intersection_source_unclipped"}}
