{"type":"FeatureCollection","totalFeatures":94,"numberMatched":94,"timeStamp":"2026-08-22T01:50:35.431Z","crs":{"type":"name","properties":{"name":"urn:ogc:def:crs:EPSG::31370"}},"bbox":[146512.73038807,172341.626,147757.646,173046.15671926],"features":[{"type":"Feature","id":"StreetAxes.fid--6f55e203_1a0272217f6_-7fc5","geometry":{"type":"LineString","coordinates":[[147371.139,172801.732],[147364.663,172813.988],[147311.865,172913.143],[147290.57,172949.38],[147246.792,173021.085],[147244.49657618,173024.77708794],[147242.25073836,173032.85944552]]},"geometry_name":"GEOM","properties":{"INSPIRE_ID":"https://databrussels.be/id/streetaxe/73432","TYPE":"S","HIERARCHY":"DR","LVL":0,"STARTSN_ID":"https://databrussels.be/id/streetnode/13061","ENDSN_ID":"https://databrussels.be/id/streetnode/12287","STRNAMEFRE":"Chaussée de Jette","STRNAMEDUT":"Jetse Steenweg","SLOPE":0.52,"LENGTH":264.977175570382},"bbox":[147242.25073836,172801.732,147371.139,173032.85944552]},{"type":"Feature","id":"StreetAxes.fid--6f55e203_1a0272217f6_-7f9d","geometry":{"type":"LineString","coordinates":[[147478.66399217,172599.6900363],[147469.894,172617.555],[147444.276,172663.106],[147444.453,172668.518]]},"geometry_name":"GEOM","properties":{"INSPIRE_ID":"https://databrussels.be/id/streetaxe/73434","TYPE":"S","HIERARCHY":"DC","LVL":0,"STARTSN_ID":"https://databrussels.be/id/streetnode/13065","ENDSN_ID":"https://databrussels.be/id/streetnode/3228","STRNAMEFRE":"Chaussée de Jette","STRNAMEDUT":"Steenweg op Jette","SLOPE":1.69,"LENGTH":77.577043206517},"bbox":[147444.276,172599.6900363,147478.66399217,172668.518]},{"type":"Feature","id":"StreetAxes.fid--6f55e203_1a0272217f6_-7fa4","geometry":{"type":"LineString","coordinates":[[147478.66399217,172599.6900363],[147471.115,172594.495],[147384.056,172537.032],[147370.1693465,172528.08148571],[147366.96823042,172523.01239212]]},"geometry_name":"GEOM","properties":{"INSPIRE_ID":"https://databrussels.be/id/streetaxe/73435","TYPE":"S","HIERARCHY":"DR","LVL":0,"STARTSN_ID":"https://databrussels.be/id/streetnode/13065","ENDSN_ID":"https://databrussels.be/id/streetnode/11619","STRNAMEFRE":"Rue Léon Fourez","STRNAMEDUT":"Léon Fourezstraat","SLOPE":0.87,"LENGTH":135.993591202938},"bbox":[147366.96823042,172523.01239212,147478.66399217,172599.6900363]},{"type":"Feature","id":"StreetAxes.fid--6f55e203_1a0272217f6_-7f8c","geometry":{"type":"LineString","coordinates":[[147204.23859784,172632.21544456],[147206.94852487,172625.75431535]]},"geometry_name":"GEOM","properties":{"INSPIRE_ID":"https://databrussels.be/id/streetaxe/73765","TYPE":"S","HIERARCHY":"IDR","LVL":0,"STARTSN_ID":"https://databrussels.be/id/streetnode/10381","ENDSN_ID":"https://databrussels.be/id/streetnode/10380","STRNAMEFRE":"Avenue de Jette","STRNAMEDUT":"Jetselaan","SLOPE":1.14,"LENGTH":7.00641813998961},"bbox":[147204.23859784,172625.75431535,147206.94852487,172632.21544456]},{"type":"Feature","id":"StreetAxes.fid--6f55e203_1a0272217f6_-7f99","geometry":{"type":"LineString","coordinates":[[147717.796,172346.008],[147703.418,172353.272],[147597.283,172400.12],[147582.195,172406.626],[147487.76,172443.23],[147368.55,172495.408],[147104.6,172614.984],[146905.736,172707.954],[146767.134,172768.612],[146753.043,172775.111]]},"geometry_name":"GEOM","properties":{"INSPIRE_ID":"https://databrussels.be/id/streetaxe/74435","TYPE":"S","HIERARCHY":"MAR","LVL":-1,"STARTSN_ID":"https://databrussels.be/id/streetnode/1713","ENDSN_ID":"https://databrussels.be/id/streetnode/74","STRNAMEFRE":null,"STRNAMEDUT":null,"SLOPE":1.86,"LENGTH":1056.07110653757},"bbox":[146753.043,172346.008,147717.796,172775.111]},{"type":"Feature","id":"StreetAxes.fid--6f55e203_1a0272217f6_-7fb8","geometry":{"type":"LineString","coordinates":[[147204.66708889,172669.94763152],[147211.935,172672.895],[147391.87,172748.525],[147397.681,172751.602]]},"geometry_name":"GEOM","properties":{"INSPIRE_ID":"https://databrussels.be/id/streetaxe/74570","TYPE":"S","HIERARCHY":"DR","LVL":0,"STARTSN_ID":"https://databrussels.be/id/streetnode/9775","ENDSN_ID":"https://databrussels.be/id/streetnode/13060","STRNAMEFRE":"Rue De Neck","STRNAMEDUT":"De Neckstraat","SLOPE":1.16,"LENGTH":209.601432294061},"bbox":[147204.66708889,172669.94763152,147397.681,172751.602]},{"type":"Feature","id":"StreetAxes.fid--6f55e203_1a0272217f6_-7f98","geometry":{"type":"LineString","coordinates":[[147757.646,172341.626],[147745.176,172345.633],[147601.433,172409.61],[147575.562,172419.756],[147524.427,172439.55],[147389.746,172495.724],[147109.232,172622.744],[146911.91,172716.408],[146774.516,172784.686],[146761.09,172791.042]]},"geometry_name":"GEOM","properties":{"INSPIRE_ID":"https://databrussels.be/id/streetaxe/75145","TYPE":"S","HIERARCHY":"MAR","LVL":-1,"STARTSN_ID":"https://databrussels.be/id/streetnode/994","ENDSN_ID":"https://databrussels.be/id/streetnode/2329","STRNAMEFRE":null,"STRNAMEDUT":null,"SLOPE":1.89,"LENGTH":1093.6181786404},"bbox":[146761.09,172341.626,147757.646,172791.042]},{"type":"Feature","id":"StreetAxes.fid--6f55e203_1a0272217f6_-7fc6","geometry":{"type":"LineString","coordinates":[[147371.139,172801.732],[147374.652,172801.593],[147384.44639672,172805.11368403],[147392.93418925,172814.75753819],[147396.8,172824.385],[147398.839,172835.63],[147400.745,172848.188]]},"geometry_name":"GEOM","properties":{"INSPIRE_ID":"https://databrussels.be/id/streetaxe/75188","TYPE":"S","HIERARCHY":"DR","LVL":0,"STARTSN_ID":"https://databrussels.be/id/streetnode/13061","ENDSN_ID":"https://databrussels.be/id/streetnode/376","STRNAMEFRE":"Rue Honoré Longtin","STRNAMEDUT":"Honoré Longtinstraat","SLOPE":3.98,"LENGTH":61.2755367710684},"bbox":[147371.139,172801.593,147400.745,172848.188]},{"type":"Feature","id":"StreetAxes.fid--6f55e203_1a0272217f6_-7fce","geometry":{"type":"LineString","coordinates":[[147371.139,172801.732],[147377.60537249,172789.51928134],[147393.155,172760.15],[147397.681,172751.602]]},"geometry_name":"GEOM","properties":{"INSPIRE_ID":"https://databrussels.be/id/streetaxe/75189","TYPE":"S","HIERARCHY":"DR","LVL":0,"STARTSN_ID":"https://databrussels.be/id/streetnode/13061","ENDSN_ID":"https://databrussels.be/id/streetnode/13060","STRNAMEFRE":"Chaussée de Jette","STRNAMEDUT":"Jetsesteenweg","SLOPE":1.15,"LENGTH":56.7229641710818},"bbox":[147371.139,172751.602,147397.681,172801.732]},{"type":"Feature","id":"StreetAxes.fid--6f55e203_1a0272217f6_-7fc4","geometry":{"type":"LineString","coordinates":[[147371.139,172801.732],[147354.744,172802.382],[147120.108,172911.068],[147113.51891317,172914.12043213],[147102.53691357,172911.92316622]]},"geometry_name":"GEOM","properties":{"INSPIRE_ID":"https://databrussels.be/id/streetaxe/75190","TYPE":"S","HIERARCHY":"DR","LVL":0,"STARTSN_ID":"https://databrussels.be/id/streetnode/13061","ENDSN_ID":"https://databrussels.be/id/streetnode/9855","STRNAMEFRE":"Rue des Archers","STRNAMEDUT":"Boogschuttersstraat","SLOPE":1.38,"LENGTH":293.455273763951},"bbox":[147102.53691357,172801.732,147371.139,172914.12043213]},{"type":"Feature","id":"StreetAxes.fid--6f55e203_1a0272217f6_-7fc0","geometry":{"type":"LineString","coordinates":[[147400.745,172848.188],[147408.135,172847.115],[147429.664,172851.544],[147496.13,172880.36],[147501.364,172882.512]]},"geometry_name":"GEOM","properties":{"INSPIRE_ID":"https://databrussels.be/id/streetaxe/75505","TYPE":"S","HIERARCHY":"DR","LVL":0,"STARTSN_ID":"https://databrussels.be/id/streetnode/376","ENDSN_ID":"https://databrussels.be/id/streetnode/3427","STRNAMEFRE":"Rue Ongena","STRNAMEDUT":"Ongenastraat","SLOPE":0.48,"LENGTH":107.550191983155},"bbox":[147400.745,172847.115,147501.364,172882.512]},{"type":"Feature","id":"StreetAxes.fid--6f55e203_1a0272217f6_-7fba","geometry":{"type":"LineString","coordinates":[[147444.453,172668.518],[147454.575,172677.765],[147458.352,172680.258],[147495.94,172725.225],[147638.396,172910.12],[147661.425,172940.185],[147671.84306234,172948.97661388],[147702.90755506,172958.51846285],[147711.53424321,172961.53545001],[147714.71419301,172962.93286687],[147726.80432234,172978.28523318]]},"geometry_name":"GEOM","properties":{"INSPIRE_ID":"https://databrussels.be/id/streetaxe/75930","TYPE":"S","HIERARCHY":null,"LVL":0,"STARTSN_ID":"https://databrussels.be/id/streetnode/3228","ENDSN_ID":"https://databrussels.be/id/streetnode/13332","STRNAMEFRE":"Rue de la Lys","STRNAMEDUT":"Leiestraat","SLOPE":0.2,"LENGTH":426.406697485202},"bbox":[147444.453,172668.518,147726.80432234,172978.28523318]},{"type":"Feature","id":"StreetAxes.fid--6f55e203_1a0272217f6_-7f8f","geometry":{"type":"LineString","coordinates":[[147204.23859784,172632.21544456],[147202.29403062,172636.77800021],[147202.03490259,172637.37471978],[147193.43010396,172657.78379422],[147190.68087927,172664.27577991]]},"geometry_name":"GEOM","properties":{"INSPIRE_ID":"https://databrussels.be/id/streetaxe/76273","TYPE":"S","HIERARCHY":"IDR","LVL":0,"STARTSN_ID":"https://databrussels.be/id/streetnode/10381","ENDSN_ID":"https://databrussels.be/id/streetnode/9776","STRNAMEFRE":"Avenue de Jette","STRNAMEDUT":"Jetselaan","SLOPE":0.89,"LENGTH":34.8092120604871},"bbox":[147190.68087927,172632.21544456,147204.23859784,172664.27577991]},{"type":"Feature","id":"StreetAxes.fid--6f55e203_1a0272217f6_-7fbe","geometry":{"type":"LineString","coordinates":[[147048.79291848,173019.69495521],[147108.32423464,172880.42915323]]},"geometry_name":"GEOM","properties":{"INSPIRE_ID":"https://databrussels.be/id/streetaxe/76584","TYPE":"S","HIERARCHY":"IDR","LVL":0,"STARTSN_ID":"https://databrussels.be/id/streetnode/11276","ENDSN_ID":"https://databrussels.be/id/streetnode/12106","STRNAMEFRE":"Avenue de Jette","STRNAMEDUT":"Jetselaan","SLOPE":0.95,"LENGTH":151.456070210341},"bbox":[147048.79291848,172880.42915323,147108.32423464,173019.69495521]},{"type":"Feature","id":"StreetAxes.fid--6f55e203_1a0272217f6_-7f92","geometry":{"type":"LineString","coordinates":[[147226.80983106,172569.5251835],[147221.26901407,172568.36074447],[147207.72307687,172563.58428471],[147196.90586243,172552.32525242],[147151.22076736,172536.96282642],[147144.02497987,172534.57543318]]},"geometry_name":"GEOM","properties":{"INSPIRE_ID":"https://databrussels.be/id/streetaxe/76862","TYPE":"S","HIERARCHY":"IDR","LVL":0,"STARTSN_ID":"https://databrussels.be/id/streetnode/11313","ENDSN_ID":"https://databrussels.be/id/streetnode/11314","STRNAMEFRE":"Avenue de la Liberté","STRNAMEDUT":"Vrijheidslaan","SLOPE":0.15,"LENGTH":91.4190032771755},"bbox":[147144.02497987,172534.57543318,147226.80983106,172569.5251835]},{"type":"Feature","id":"StreetAxes.fid--6f55e203_1a0272217f6_-7f78","geometry":{"type":"LineString","coordinates":[[147146.35994266,172527.54541296],[147148.575,172520.95],[147178.24,172451.11],[147180.73,172443.755]]},"geometry_name":"GEOM","properties":{"INSPIRE_ID":"https://databrussels.be/id/streetaxe/76863","TYPE":"S","HIERARCHY":"DR","LVL":0,"STARTSN_ID":"https://databrussels.be/id/streetnode/5619","ENDSN_ID":"https://databrussels.be/id/streetnode/2257","STRNAMEFRE":"Rue du Parc Elisabeth","STRNAMEDUT":"Elisabethparkstraat","SLOPE":2.96,"LENGTH":90.601596548157},"bbox":[147146.35994266,172443.755,147180.73,172527.54541296]},{"type":"Feature","id":"StreetAxes.fid--6f55e203_1a0272217f6_-7f90","geometry":{"type":"LineString","coordinates":[[147231.48564411,172558.27554995],[147228.70789939,172555.49167209],[147202.320336,172546.48698844],[147153.54932054,172529.95222286],[147146.35994266,172527.54541296]]},"geometry_name":"GEOM","properties":{"INSPIRE_ID":"https://databrussels.be/id/streetaxe/76864","TYPE":"S","HIERARCHY":"IDR","LVL":0,"STARTSN_ID":"https://databrussels.be/id/streetnode/5617","ENDSN_ID":"https://databrussels.be/id/streetnode/5619","STRNAMEFRE":"Avenue de la Liberté","STRNAMEDUT":"Vrijheidslaan","SLOPE":0.02,"LENGTH":90.8935620865152},"bbox":[147146.35994266,172527.54541296,147231.48564411,172558.27554995]},{"type":"Feature","id":"StreetAxes.fid--6f55e203_1a0272217f6_-7f97","geometry":{"type":"LineString","coordinates":[[147015.26636516,172506.49772288],[147003.08797815,172514.3376186],[146928.61831389,172566.95396636],[146916.63532267,172574.92433722]]},"geometry_name":"GEOM","properties":{"INSPIRE_ID":"https://databrussels.be/id/streetaxe/76866","TYPE":"S","HIERARCHY":"IDR","LVL":0,"STARTSN_ID":"https://databrussels.be/id/streetnode/9331","ENDSN_ID":"https://databrussels.be/id/streetnode/9329","STRNAMEFRE":"Avenue du Panthéon","STRNAMEDUT":"Pantheonlaan","SLOPE":2.32,"LENGTH":120.057603902612},"bbox":[146916.63532267,172506.49772288,147015.26636516,172574.92433722]},{"type":"Feature","id":"StreetAxes.fid--6f55e203_1a0272217f6_-7f87","geometry":{"type":"LineString","coordinates":[[147239.7431134,172580.85328951],[147239.02692208,172587.05391597],[147220.37832378,172631.56589343]]},"geometry_name":"GEOM","properties":{"INSPIRE_ID":"https://databrussels.be/id/streetaxe/77202","TYPE":"S","HIERARCHY":"IDR","LVL":0,"STARTSN_ID":"https://databrussels.be/id/streetnode/5618","ENDSN_ID":"https://databrussels.be/id/streetnode/10379","STRNAMEFRE":"Avenue de Jette","STRNAMEDUT":"Jetselaan","SLOPE":1.1,"LENGTH":54.5024593007735},"bbox":[147220.37832378,172580.85328951,147239.7431134,172631.56589343]},{"type":"Feature","id":"StreetAxes.fid--6f55e203_1a0272217f6_-7f89","geometry":{"type":"LineString","coordinates":[[147229.95815299,172576.51157914],[147226.14252425,172580.57515893],[147217.05567253,172602.40731565],[147212.7059638,172611.99619074],[147208.59410602,172621.83084717],[147206.94852487,172625.75431535]]},"geometry_name":"GEOM","properties":{"INSPIRE_ID":"https://databrussels.be/id/streetaxe/77271","TYPE":"S","HIERARCHY":"IDR","LVL":0,"STARTSN_ID":"https://databrussels.be/id/streetnode/5616","ENDSN_ID":"https://databrussels.be/id/streetnode/10380","STRNAMEFRE":"Avenue de Jette","STRNAMEDUT":"Jetselaan","SLOPE":0.8,"LENGTH":54.6654469179308},"bbox":[147206.94852487,172576.51157914,147229.95815299,172625.75431535]},{"type":"Feature","id":"StreetAxes.fid--6f55e203_1a0272217f6_-7f8e","geometry":{"type":"LineString","coordinates":[[147204.66708889,172669.94763152],[147190.68087927,172664.27577991]]},"geometry_name":"GEOM","properties":{"INSPIRE_ID":"https://databrussels.be/id/streetaxe/77898","TYPE":"S","HIERARCHY":"IDR","LVL":0,"STARTSN_ID":"https://databrussels.be/id/streetnode/9775","ENDSN_ID":"https://databrussels.be/id/streetnode/9776","STRNAMEFRE":"Avenue de Jette","STRNAMEDUT":"Jetselaan","SLOPE":0.2,"LENGTH":15.0925133855699},"bbox":[147190.68087927,172664.27577991,147204.66708889,172669.94763152]},{"type":"Feature","id":"StreetAxes.fid--6f55e203_1a0272217f6_-7fbc","geometry":{"type":"LineString","coordinates":[[147102.53691357,172911.92316622],[147096.59914327,172925.24426873],[147057.65665546,173018.525673],[147054.87307145,173024.59600456]]},"geometry_name":"GEOM","properties":{"INSPIRE_ID":"https://databrussels.be/id/streetaxe/78100","TYPE":"S","HIERARCHY":"IDR","LVL":0,"STARTSN_ID":"https://databrussels.be/id/streetnode/9855","ENDSN_ID":"https://databrussels.be/id/streetnode/12283","STRNAMEFRE":"Avenue de Jette","STRNAMEDUT":"Jetselaan","SLOPE":0.74,"LENGTH":122.346476584437},"bbox":[147054.87307145,172911.92316622,147102.53691357,173024.59600456]},{"type":"Feature","id":"StreetAxes.fid--6f55e203_1a0272217f6_-7f83","geometry":{"type":"LineString","coordinates":[[147231.48564411,172558.27554995],[147235.77848199,172555.73333956],[147257.34646906,172545.89467361],[147260.25444977,172545.08225329],[147265.11372891,172545.47855841]]},"geometry_name":"GEOM","properties":{"INSPIRE_ID":"https://databrussels.be/id/streetaxe/78266","TYPE":"S","HIERARCHY":"MAR","LVL":0,"STARTSN_ID":"https://databrussels.be/id/streetnode/5617","ENDSN_ID":"https://databrussels.be/id/streetnode/10227","STRNAMEFRE":"Place Eugène Simonis","STRNAMEDUT":"Eugène Simonisplein","SLOPE":1.26,"LENGTH":36.589927128621},"bbox":[147231.48564411,172545.08225329,147265.11372891,172558.27554995]},{"type":"Feature","id":"StreetAxes.fid--6f55e203_1a0272217f6_-7f96","geometry":{"type":"LineString","coordinates":[[147112.94099675,172532.02781629],[147066.14673112,172516.30502397],[147058.25181828,172513.841814],[147047.52206646,172510.99650625],[147041.7103433,172509.688189],[147038.38461503,172508.97365624],[147033.21011069,172509.1104835],[147028.05503056,172510.02920541],[147023.94302849,172511.58446121],[147015.09808343,172516.5927947],[147009.25835546,172520.18964015]]},"geometry_name":"GEOM","properties":{"INSPIRE_ID":"https://databrussels.be/id/streetaxe/78401","TYPE":"A","HIERARCHY":"IDR","LVL":0,"STARTSN_ID":"https://databrussels.be/id/streetnode/11402","ENDSN_ID":"https://databrussels.be/id/streetnode/11401","STRNAMEFRE":null,"STRNAMEDUT":null,"SLOPE":4.41,"LENGTH":109.926634471957},"bbox":[147009.25835546,172508.97365624,147112.94099675,172532.02781629]},{"type":"Feature","id":"StreetAxes.fid--6f55e203_1a0272217f6_-7fb9","geometry":{"type":"LineString","coordinates":[[147488.56219398,172606.50174263],[147495.91158804,172602.94164549],[147502.816,172602.96],[147592.876,172630.73],[147610.429,172636.178]]},"geometry_name":"GEOM","properties":{"INSPIRE_ID":"https://databrussels.be/id/streetaxe/79305","TYPE":"S","HIERARCHY":"DR","LVL":0,"STARTSN_ID":"https://databrussels.be/id/streetnode/11443","ENDSN_ID":"https://databrussels.be/id/streetnode/3573","STRNAMEFRE":"Rue Haeck","STRNAMEDUT":"Haeckstraat","SLOPE":0.2,"LENGTH":127.693963674597},"bbox":[147488.56219398,172602.94164549,147610.429,172636.178]},{"type":"Feature","id":"StreetAxes.fid--6f55e203_1a0272217f6_-7f9a","geometry":{"type":"LineString","coordinates":[[147488.56219398,172606.50174263],[147490.00275161,172617.67153564],[147493.14730546,172623.11063316],[147533.05,172677.132],[147538.261,172683.735]]},"geometry_name":"GEOM","properties":{"INSPIRE_ID":"https://databrussels.be/id/streetaxe/79306","TYPE":"S","HIERARCHY":"DR","LVL":0,"STARTSN_ID":"https://databrussels.be/id/streetnode/11443","ENDSN_ID":"https://databrussels.be/id/streetnode/3008","STRNAMEFRE":"Avenue Jean Dubrucq","STRNAMEDUT":"Jean Dubrucqlaan","SLOPE":0.53,"LENGTH":93.1170282464067},"bbox":[147488.56219398,172606.50174263,147538.261,172683.735]},{"type":"Feature","id":"StreetAxes.fid--6f55e203_1a0272217f6_-7f8a","geometry":{"type":"LineString","coordinates":[[147206.94852487,172625.75431535],[147211.11875435,172626.18277549],[147214.57636714,172627.18473231],[147217.80535202,172628.89751042],[147220.37832378,172631.56589343]]},"geometry_name":"GEOM","properties":{"INSPIRE_ID":"https://databrussels.be/id/streetaxe/79366","TYPE":"S","HIERARCHY":"IDR","LVL":0,"STARTSN_ID":"https://databrussels.be/id/streetnode/10380","ENDSN_ID":"https://databrussels.be/id/streetnode/10379","STRNAMEFRE":"Avenue de Jette","STRNAMEDUT":"Jetselaan","SLOPE":0.33,"LENGTH":15.153982218665},"bbox":[147206.94852487,172625.75431535,147220.37832378,172631.56589343]},{"type":"Feature","id":"StreetAxes.fid--6f55e203_1a0272217f6_-7f8b","geometry":{"type":"LineString","coordinates":[[147204.66708889,172669.94763152],[147207.51129961,172663.18275044],[147216.21538582,172642.39847482],[147217.86296831,172638.11122105]]},"geometry_name":"GEOM","properties":{"INSPIRE_ID":"https://databrussels.be/id/streetaxe/79367","TYPE":"S","HIERARCHY":"IDR","LVL":0,"STARTSN_ID":"https://databrussels.be/id/streetnode/9775","ENDSN_ID":"https://databrussels.be/id/streetnode/10382","STRNAMEFRE":"Avenue de Jette","STRNAMEDUT":"Jetselaan","SLOPE":0.81,"LENGTH":34.4646550922941},"bbox":[147204.66708889,172638.11122105,147217.86296831,172669.94763152]},{"type":"Feature","id":"StreetAxes.fid--6f55e203_1a0272217f6_-7fc1","geometry":{"type":"LineString","coordinates":[[147020.01325669,172806.43686409],[147021.6251621,172812.84222312],[147019.866,172824.463],[146943.295,173006.04],[146940.15252642,173013.48145759]]},"geometry_name":"GEOM","properties":{"INSPIRE_ID":"https://databrussels.be/id/streetaxe/79371","TYPE":"S","HIERARCHY":"DR","LVL":0,"STARTSN_ID":"https://databrussels.be/id/streetnode/9864","ENDSN_ID":"https://databrussels.be/id/streetnode/9852","STRNAMEFRE":"Rue Vanderborght","STRNAMEDUT":"Vanderborghtstraat","SLOPE":0.95,"LENGTH":223.497740521161},"bbox":[146940.15252642,172806.43686409,147021.6251621,173013.48145759]},{"type":"Feature","id":"StreetAxes.fid--6f55e203_1a0272217f6_-7fc2","geometry":{"type":"LineString","coordinates":[[147020.01325669,172806.43686409],[147006.77476858,172809.76832301],[146995.33797046,172813.06864865],[146976.49906791,172818.43215502],[146954.68681433,172824.82942],[146925.02075066,172833.54223313],[146905.63474593,172840.03860911]]},"geometry_name":"GEOM","properties":{"INSPIRE_ID":"https://databrussels.be/id/streetaxe/79372","TYPE":"S","HIERARCHY":"IDR","LVL":0,"STARTSN_ID":"https://databrussels.be/id/streetnode/9864","ENDSN_ID":"https://databrussels.be/id/streetnode/9832","STRNAMEFRE":"Avenue des Gloires Nationales","STRNAMEDUT":"Landsroemlaan","SLOPE":1.61,"LENGTH":119.237857977234},"bbox":[146905.63474593,172806.43686409,147020.01325669,172840.03860911]},{"type":"Feature","id":"StreetAxes.fid--6f55e203_1a0272217f6_-7fc9","geometry":{"type":"LineString","coordinates":[[147042.38919846,173018.62126522],[147042.17002642,173015.75571444],[147055.27655806,172985.76657484],[147137.74316429,172792.27048204],[147141.93308571,172781.33296368]]},"geometry_name":"GEOM","properties":{"INSPIRE_ID":"https://databrussels.be/id/streetaxe/80060","TYPE":"S","HIERARCHY":"IDR","LVL":0,"STARTSN_ID":"https://databrussels.be/id/streetnode/12286","ENDSN_ID":"https://databrussels.be/id/streetnode/9844","STRNAMEFRE":"Avenue de Jette","STRNAMEDUT":"Jetselaan","SLOPE":0.83,"LENGTH":257.651212159985},"bbox":[147042.17002642,172781.33296368,147141.93308571,173018.62126522]},{"type":"Feature","id":"StreetAxes.fid--6f55e203_1a0272217f6_-7f91","geometry":{"type":"LineString","coordinates":[[147190.68087927,172664.27577991],[147187.93172158,172670.76760738],[147186.74900913,172674.36556693],[147172.97020166,172706.42626807],[147157.62373979,172742.39473882],[147153.33862694,172752.9447216],[147147.58058813,172766.26687713],[147145.34213032,172772.43387366]]},"geometry_name":"GEOM","properties":{"INSPIRE_ID":"https://databrussels.be/id/streetaxe/80557","TYPE":"S","HIERARCHY":"IDR","LVL":0,"STARTSN_ID":"https://databrussels.be/id/streetnode/9776","ENDSN_ID":"https://databrussels.be/id/streetnode/9628","STRNAMEFRE":"Avenue de Jette","STRNAMEDUT":"Jetselaan","SLOPE":0.92,"LENGTH":117.30002594503},"bbox":[147145.34213032,172664.27577991,147190.68087927,172772.43387366]},{"type":"Feature","id":"StreetAxes.fid--6f55e203_1a0272217f6_-7f9e","geometry":{"type":"LineString","coordinates":[[147444.453,172668.518],[147442.06718912,172672.18475546]]},"geometry_name":"GEOM","properties":{"INSPIRE_ID":"https://databrussels.be/id/streetaxe/80789","TYPE":"S","HIERARCHY":"DC","LVL":0,"STARTSN_ID":"https://databrussels.be/id/streetnode/3228","ENDSN_ID":"https://databrussels.be/id/streetnode/13059","STRNAMEFRE":"Chaussée de Jette","STRNAMEDUT":"Steenweg op Jette","SLOPE":46.68,"LENGTH":4.37460731338497},"bbox":[147442.06718912,172668.518,147444.453,172672.18475546]},{"type":"Feature","id":"StreetAxes.fid--6f55e203_1a0272217f6_-7faa","geometry":{"type":"LineString","coordinates":[[147346.62403256,172509.94185618],[147348.69424829,172506.71962322],[147351.65887527,172504.29484193],[147355.22768665,172502.90488123],[147359.05107439,172502.68575149],[147362.75532068,172503.65887145],[147366.63736801,172506.53574856]]},"geometry_name":"GEOM","properties":{"INSPIRE_ID":"https://databrussels.be/id/streetaxe/81290","TYPE":"S","HIERARCHY":"MAR","LVL":0,"STARTSN_ID":"https://databrussels.be/id/streetnode/10224","ENDSN_ID":"https://databrussels.be/id/streetnode/10221","STRNAMEFRE":"Boulevard Léopold II","STRNAMEDUT":"Leopold II-laan","SLOPE":2.25,"LENGTH":23.9812922213859},"bbox":[147346.62403256,172502.68575149,147366.63736801,172509.94185618]},{"type":"Feature","id":"StreetAxes.fid--6f55e203_1a0272217f6_-7fc7","geometry":{"type":"LineString","coordinates":[[147154.15662651,172789.43120695],[147151.27220222,172796.30157114],[147108.09609949,172899.40665076],[147102.53691357,172911.92316622]]},"geometry_name":"GEOM","properties":{"INSPIRE_ID":"https://databrussels.be/id/streetaxe/81556","TYPE":"S","HIERARCHY":"IDR","LVL":0,"STARTSN_ID":"https://databrussels.be/id/streetnode/9616","ENDSN_ID":"https://databrussels.be/id/streetnode/9855","STRNAMEFRE":"Avenue de Jette","STRNAMEDUT":"Jetselaan","SLOPE":0.88,"LENGTH":132.927122002097},"bbox":[147102.53691357,172789.43120695,147154.15662651,172911.92316622]},{"type":"Feature","id":"StreetAxes.fid--6f55e203_1a0272217f6_-7fc8","geometry":{"type":"LineString","coordinates":[[147141.93308571,172781.33296368],[147144.59403846,172787.91661239],[147148.59519174,172789.61262363],[147154.15662651,172789.43120695]]},"geometry_name":"GEOM","properties":{"INSPIRE_ID":"https://databrussels.be/id/streetaxe/81630","TYPE":"S","HIERARCHY":"IDR","LVL":0,"STARTSN_ID":"https://databrussels.be/id/streetnode/9844","ENDSN_ID":"https://databrussels.be/id/streetnode/9616","STRNAMEFRE":"Avenue de Jette","STRNAMEDUT":"Jetselaan","SLOPE":0.06,"LENGTH":17.0112221782579},"bbox":[147141.93308571,172781.33296368,147154.15662651,172789.61262363]},{"type":"Feature","id":"StreetAxes.fid--6f55e203_1a0272217f6_-7f7b","geometry":{"type":"LineString","coordinates":[[147300.85725113,172545.35074569],[147279.23584872,172556.93453949],[147274.64989909,172558.16449483]]},"geometry_name":"GEOM","properties":{"INSPIRE_ID":"https://databrussels.be/id/streetaxe/81729","TYPE":"S","HIERARCHY":"MAR","LVL":0,"STARTSN_ID":"https://databrussels.be/id/streetnode/10236","ENDSN_ID":"https://databrussels.be/id/streetnode/10219","STRNAMEFRE":"Place Eugène Simonis","STRNAMEDUT":"Eugène Simonisplein","SLOPE":1.4,"LENGTH":29.2769718189883},"bbox":[147274.64989909,172545.35074569,147300.85725113,172558.16449483]},{"type":"Feature","id":"StreetAxes.fid--6f55e203_1a0272217f6_-7fb2","geometry":{"type":"LineString","coordinates":[[147300.85725113,172545.35074569],[147343.93656346,172525.91785535],[147348.07671863,172522.62380711]]},"geometry_name":"GEOM","properties":{"INSPIRE_ID":"https://databrussels.be/id/streetaxe/81730","TYPE":"S","HIERARCHY":"MAR","LVL":0,"STARTSN_ID":"https://databrussels.be/id/streetnode/10236","ENDSN_ID":"https://databrussels.be/id/streetnode/10240","STRNAMEFRE":"Boulevard Léopold II","STRNAMEDUT":"Leopold II-laan","SLOPE":1.33,"LENGTH":52.550255203686},"bbox":[147300.85725113,172522.62380711,147348.07671863,172545.35074569]},{"type":"Feature","id":"StreetAxes.fid--6f55e203_1a0272217f6_-7fb1","geometry":{"type":"LineString","coordinates":[[147306.43394089,172552.68828883],[147308.69307242,172547.915636],[147350.84282772,172528.9020648],[147352.90690424,172526.07318858]]},"geometry_name":"GEOM","properties":{"INSPIRE_ID":"https://databrussels.be/id/streetaxe/81791","TYPE":"S","HIERARCHY":"MAR","LVL":0,"STARTSN_ID":"https://databrussels.be/id/streetnode/11617","ENDSN_ID":"https://databrussels.be/id/streetnode/10237","STRNAMEFRE":"Boulevard Léopold II","STRNAMEDUT":"Leopold II-laan","SLOPE":1.25,"LENGTH":55.0219658725446},"bbox":[147306.43394089,172526.07318858,147352.90690424,172552.68828883]},{"type":"Feature","id":"StreetAxes.fid--6f55e203_1a0272217f6_-7f7c","geometry":{"type":"LineString","coordinates":[[147306.43394089,172552.68828883],[147300.08962808,172554.3674456],[147278.40928809,172564.74400962],[147273.33676406,172563.40890997]]},"geometry_name":"GEOM","properties":{"INSPIRE_ID":"https://databrussels.be/id/streetaxe/81792","TYPE":"S","HIERARCHY":"MAR","LVL":0,"STARTSN_ID":"https://databrussels.be/id/streetnode/11617","ENDSN_ID":"https://databrussels.be/id/streetnode/11833","STRNAMEFRE":"Place Eugène Simonis","STRNAMEDUT":"Eugène Simonisplein","SLOPE":1.48,"LENGTH":35.8436500650884},"bbox":[147273.33676406,172552.68828883,147306.43394089,172564.74400962]},{"type":"Feature","id":"StreetAxes.fid--6f55e203_1a0272217f6_-7f81","geometry":{"type":"LineString","coordinates":[[147289.62327765,172530.56961771],[147284.10672999,172533.96340754],[147267.01360961,172541.0034532],[147265.11372891,172545.47855841]]},"geometry_name":"GEOM","properties":{"INSPIRE_ID":"https://databrussels.be/id/streetaxe/82156","TYPE":"S","HIERARCHY":"MAR","LVL":0,"STARTSN_ID":"https://databrussels.be/id/streetnode/10232","ENDSN_ID":"https://databrussels.be/id/streetnode/10227","STRNAMEFRE":"Place Eugène Simonis","STRNAMEDUT":"Eugène Simonisplein","SLOPE":1.41,"LENGTH":29.8247190000395},"bbox":[147265.11372891,172530.56961771,147289.62327765,172545.47855841]},{"type":"Feature","id":"StreetAxes.fid--6f55e203_1a0272217f6_-7fd2","geometry":{"type":"LineString","coordinates":[[147159.08829833,172777.68453652],[147161.57939128,172771.75104196],[147180.82081758,172726.30764897],[147192.52574872,172698.12169416],[147201.96353776,172676.37795744],[147204.66708889,172669.94763152]]},"geometry_name":"GEOM","properties":{"INSPIRE_ID":"https://databrussels.be/id/streetaxe/82315","TYPE":"S","HIERARCHY":"IDR","LVL":0,"STARTSN_ID":"https://databrussels.be/id/streetnode/9482","ENDSN_ID":"https://databrussels.be/id/streetnode/9775","STRNAMEFRE":"Avenue de Jette","STRNAMEDUT":"Jetselaan","SLOPE":0.85,"LENGTH":116.983214470252},"bbox":[147159.08829833,172669.94763152,147204.66708889,172777.68453652]},{"type":"Feature","id":"StreetAxes.fid--6f55e203_1a0272217f6_-7faf","geometry":{"type":"LineString","coordinates":[[147306.43394089,172552.68828883],[147308.5583841,172555.48353016],[147312.54743557,172560.73213435],[147356.352,172617.994],[147401.59953279,172672.57084867],[147410.23575069,172682.98771624],[147416.24692656,172686.70841854],[147425.09774579,172699.81967322]]},"geometry_name":"GEOM","properties":{"INSPIRE_ID":"https://databrussels.be/id/streetaxe/82325","TYPE":"S","HIERARCHY":"DC","LVL":0,"STARTSN_ID":"https://databrussels.be/id/streetnode/11617","ENDSN_ID":"https://databrussels.be/id/streetnode/13062","STRNAMEFRE":"Rue Gemba","STRNAMEDUT":"Gembastraat","SLOPE":0.43,"LENGTH":189.512782341055},"bbox":[147306.43394089,172552.68828883,147425.09774579,172699.81967322]},{"type":"Feature","id":"StreetAxes.fid--6f55e203_1a0272217f6_-7fb5","geometry":{"type":"LineString","coordinates":[[147289.62327765,172530.56961771],[147295.92909018,172531.33235076],[147338.46144908,172512.14618874]]},"geometry_name":"GEOM","properties":{"INSPIRE_ID":"https://databrussels.be/id/streetaxe/82467","TYPE":"S","HIERARCHY":"MAR","LVL":0,"STARTSN_ID":"https://databrussels.be/id/streetnode/10232","ENDSN_ID":"https://databrussels.be/id/streetnode/10220","STRNAMEFRE":"Boulevard Léopold II","STRNAMEDUT":"Leopold II-laan","SLOPE":1.21,"LENGTH":53.0112893119248},"bbox":[147289.62327765,172512.14618874,147338.46144908,172531.33235076]},{"type":"Feature","id":"StreetAxes.fid--6f55e203_1a0272217f6_-7f82","geometry":{"type":"LineString","coordinates":[[147273.33676406,172563.40890997],[147270.52174478,172567.14725277],[147266.32115421,172569.59517629],[147243.43441304,172580.12383624],[147239.7431134,172580.85328951]]},"geometry_name":"GEOM","properties":{"INSPIRE_ID":"https://databrussels.be/id/streetaxe/82580","TYPE":"S","HIERARCHY":"MAR","LVL":0,"STARTSN_ID":"https://databrussels.be/id/streetnode/11833","ENDSN_ID":"https://databrussels.be/id/streetnode/5618","STRNAMEFRE":"Place Eugène Simonis","STRNAMEDUT":"Eugène Simonisplein","SLOPE":2,"LENGTH":38.4965706368072},"bbox":[147239.7431134,172563.40890997,147273.33676406,172580.85328951]},{"type":"Feature","id":"StreetAxes.fid--6f55e203_1a0272217f6_-7f9b","geometry":{"type":"LineString","coordinates":[[147557.54301607,172432.37083091],[147561.94823808,172448.66338995],[147559.203,172454.809],[147484.645,172587.505],[147478.66399217,172599.6900363]]},"geometry_name":"GEOM","properties":{"INSPIRE_ID":"https://databrussels.be/id/streetaxe/82663","TYPE":"S","HIERARCHY":"DC","LVL":0,"STARTSN_ID":"https://databrussels.be/id/streetnode/8057","ENDSN_ID":"https://databrussels.be/id/streetnode/13065","STRNAMEFRE":"Chaussée de Jette","STRNAMEDUT":"Steenweg op Jette","SLOPE":1.9,"LENGTH":189.389775102963},"bbox":[147478.66399217,172432.37083091,147561.94823808,172599.6900363]},{"type":"Feature","id":"StreetAxes.fid--6f55e203_1a0272217f6_-7f7a","geometry":{"type":"LineString","coordinates":[[147015.26636516,172506.49772288],[147009.72591547,172499.46119675],[147000.92999459,172495.13004359]]},"geometry_name":"GEOM","properties":{"INSPIRE_ID":"https://databrussels.be/id/streetaxe/82700","TYPE":"S","HIERARCHY":"IDR","LVL":0,"STARTSN_ID":"https://databrussels.be/id/streetnode/9331","ENDSN_ID":"https://databrussels.be/id/streetnode/9541","STRNAMEFRE":"Avenue de la Liberté","STRNAMEDUT":"Vrijheidslaan","SLOPE":1.44,"LENGTH":18.7604069992771},"bbox":[147000.92999459,172495.13004359,147015.26636516,172506.49772288]},{"type":"Feature","id":"StreetAxes.fid--6f55e203_1a0272217f6_-7fd0","geometry":{"type":"LineString","coordinates":[[147397.681,172751.602],[147402.246,172742.981],[147411.388,172725.715],[147416.5521339,172715.96067479]]},"geometry_name":"GEOM","properties":{"INSPIRE_ID":"https://databrussels.be/id/streetaxe/82773","TYPE":"S","HIERARCHY":"DR","LVL":0,"STARTSN_ID":"https://databrussels.be/id/streetnode/13060","ENDSN_ID":"https://databrussels.be/id/streetnode/11448","STRNAMEFRE":"Chaussée de Jette","STRNAMEDUT":"Jetsesteenweg","SLOPE":1.31,"LENGTH":40.3289444238369},"bbox":[147397.681,172715.96067479,147416.5521339,172751.602]},{"type":"Feature","id":"StreetAxes.fid--6f55e203_1a0272217f6_-7f94","geometry":{"type":"LineString","coordinates":[[147036.57637572,172496.2206334],[147046.37116871,172494.0718669],[147146.35994266,172527.54541296]]},"geometry_name":"GEOM","properties":{"INSPIRE_ID":"https://databrussels.be/id/streetaxe/82863","TYPE":"S","HIERARCHY":"IDR","LVL":0,"STARTSN_ID":"https://databrussels.be/id/streetnode/9246","ENDSN_ID":"https://databrussels.be/id/streetnode/5619","STRNAMEFRE":"Avenue de la Liberté","STRNAMEDUT":"Vrijheidslaan","SLOPE":0.08,"LENGTH":115.470752907036},"bbox":[147036.57637572,172494.0718669,147146.35994266,172527.54541296]},{"type":"Feature","id":"StreetAxes.fid--6f55e203_1a0272217f6_-7f95","geometry":{"type":"LineString","coordinates":[[147036.57637572,172496.2206334],[147046.40134103,172502.0631283],[147053.01429147,172503.85080457],[147117.13396768,172525.34624999],[147136.82919238,172532.18803993],[147144.02497987,172534.57543318]]},"geometry_name":"GEOM","properties":{"INSPIRE_ID":"https://databrussels.be/id/streetaxe/82864","TYPE":"S","HIERARCHY":"IDR","LVL":0,"STARTSN_ID":"https://databrussels.be/id/streetnode/9246","ENDSN_ID":"https://databrussels.be/id/streetnode/11314","STRNAMEFRE":"Avenue de la Liberté","STRNAMEDUT":"Vrijheidslaan","SLOPE":0.11,"LENGTH":114.339247072758},"bbox":[147036.57637572,172496.2206334,147144.02497987,172534.57543318]},{"type":"Feature","id":"StreetAxes.fid--6f55e203_1a0272217f6_-7f79","geometry":{"type":"LineString","coordinates":[[147036.57637572,172496.2206334],[147026.27852768,172498.86378884],[147015.26636516,172506.49772288]]},"geometry_name":"GEOM","properties":{"INSPIRE_ID":"https://databrussels.be/id/streetaxe/82865","TYPE":"S","HIERARCHY":"IDR","LVL":0,"STARTSN_ID":"https://databrussels.be/id/streetnode/9246","ENDSN_ID":"https://databrussels.be/id/streetnode/9331","STRNAMEFRE":"Avenue de la Liberté","STRNAMEDUT":"Vrijheidslaan","SLOPE":1.08,"LENGTH":24.0310763261717},"bbox":[147015.26636516,172496.2206334,147036.57637572,172506.49772288]},{"type":"Feature","id":"StreetAxes.fid--6f55e203_1a0272217f6_-7f75","geometry":{"type":"LineString","coordinates":[[147520.10577323,172441.54739332],[147521.13365688,172450.92457663],[147520.54383404,172454.20883651],[147515.95649089,172458.9177572],[147406.07672634,172508.58716408],[147403.94448027,172509.49011988],[147400.590344,172509.1513335],[147395.51626243,172505.00305395],[147392.87204012,172498.96443087]]},"geometry_name":"GEOM","properties":{"INSPIRE_ID":"https://databrussels.be/id/streetaxe/82949","TYPE":"S","HIERARCHY":"MAR","LVL":0,"STARTSN_ID":"https://databrussels.be/id/streetnode/8081","ENDSN_ID":"https://databrussels.be/id/streetnode/10229","STRNAMEFRE":"Boulevard Léopold II","STRNAMEDUT":"Leopold II-laan","SLOPE":2.07,"LENGTH":158.761542708207},"bbox":[147392.87204012,172441.54739332,147521.13365688,172509.49011988]},{"type":"Feature","id":"StreetAxes.fid--6f55e203_1a0272217f6_-7fb4","geometry":{"type":"LineString","coordinates":[[147294.92092139,172537.54000537],[147299.48166266,172535.94792734],[147342.75870147,172516.42584345],[147345.7921781,172516.11117898]]},"geometry_name":"GEOM","properties":{"INSPIRE_ID":"https://databrussels.be/id/streetaxe/83123","TYPE":"S","HIERARCHY":"MAR","LVL":0,"STARTSN_ID":"https://databrussels.be/id/streetnode/10242","ENDSN_ID":"https://databrussels.be/id/streetnode/10228","STRNAMEFRE":"Boulevard Léopold II","STRNAMEDUT":"Leopold II-laan","SLOPE":1.03,"LENGTH":55.356847875699},"bbox":[147294.92092139,172516.11117898,147345.7921781,172537.54000537]},{"type":"Feature","id":"StreetAxes.fid--6f55e203_1a0272217f6_-7fcd","geometry":{"type":"LineString","coordinates":[[147145.34213032,172772.43387366],[147151.39481302,172771.91354586],[147155.28580353,172773.56286124],[147159.08829833,172777.68453652]]},"geometry_name":"GEOM","properties":{"INSPIRE_ID":"https://databrussels.be/id/streetaxe/83370","TYPE":"S","HIERARCHY":"IDR","LVL":0,"STARTSN_ID":"https://databrussels.be/id/streetnode/9628","ENDSN_ID":"https://databrussels.be/id/streetnode/9482","STRNAMEFRE":"Avenue de Jette","STRNAMEDUT":"Jetselaan","SLOPE":0.31,"LENGTH":15.9088999241796},"bbox":[147145.34213032,172771.91354586,147159.08829833,172777.68453652]},{"type":"Feature","id":"StreetAxes.fid--6f55e203_1a0272217f6_-7fd1","geometry":{"type":"LineString","coordinates":[[147425.09774579,172699.81967322],[147428.44728807,172704.86681724],[147432.14681717,172710.44132701],[147438.49255477,172722.87246914],[147443.48635429,172733.50786077],[147447.89997641,172739.31606759],[147519.82810136,172834.6795866],[147525.37998324,172842.07506669]]},"geometry_name":"GEOM","properties":{"INSPIRE_ID":"https://databrussels.be/id/streetaxe/83614","TYPE":"S","HIERARCHY":"DC","LVL":0,"STARTSN_ID":"https://databrussels.be/id/streetnode/13062","ENDSN_ID":"https://databrussels.be/id/streetnode/13064","STRNAMEFRE":"Rue Jean-Baptiste Serkeyn","STRNAMEDUT":"Jean-Baptiste Serkeynstraat","SLOPE":1.09,"LENGTH":174.445015539648},"bbox":[147425.09774579,172699.81967322,147525.37998324,172842.07506669]},{"type":"Feature","id":"StreetAxes.fid--6f55e203_1a0272217f6_-7fcf","geometry":{"type":"LineString","coordinates":[[147371.139,172801.732],[147384.94246257,172796.96785996],[147420.41988479,172731.11832719],[147421.42298489,172727.75685279],[147419.77661338,172721.1921477],[147416.5521339,172715.96067479]]},"geometry_name":"GEOM","properties":{"INSPIRE_ID":"https://databrussels.be/id/streetaxe/83964","TYPE":"S","HIERARCHY":"DR","LVL":0,"STARTSN_ID":"https://databrussels.be/id/streetnode/13061","ENDSN_ID":"https://databrussels.be/id/streetnode/11448","STRNAMEFRE":"Chaussée de Jette","STRNAMEDUT":"Jetse Steenweg","SLOPE":1.12,"LENGTH":105.822264950522},"bbox":[147371.139,172715.96067479,147421.42298489,172801.732]},{"type":"Feature","id":"StreetAxes.fid--6f55e203_1a0272217f6_-7fa2","geometry":{"type":"LineString","coordinates":[[147369.8908806,172513.9816247],[147373.95201069,172512.5232776],[147386.49545259,172505.17857182],[147392.87204012,172498.96443087]]},"geometry_name":"GEOM","properties":{"INSPIRE_ID":"https://databrussels.be/id/streetaxe/84092","TYPE":"S","HIERARCHY":"MAR","LVL":0,"STARTSN_ID":"https://databrussels.be/id/streetnode/11835","ENDSN_ID":"https://databrussels.be/id/streetnode/10229","STRNAMEFRE":"Boulevard Léopold II","STRNAMEDUT":"Leopold II-laan","SLOPE":2.56,"LENGTH":27.7543331594878},"bbox":[147369.8908806,172498.96443087,147392.87204012,172513.9816247]},{"type":"Feature","id":"StreetAxes.fid--6f55e203_1a0272217f6_-7f9f","geometry":{"type":"LineString","coordinates":[[147442.06718912,172672.18475546],[147436.78041571,172682.18731508],[147430.37875421,172694.29976383]]},"geometry_name":"GEOM","properties":{"INSPIRE_ID":"https://databrussels.be/id/streetaxe/84303","TYPE":"S","HIERARCHY":"DC","LVL":1,"STARTSN_ID":"https://databrussels.be/id/streetnode/13059","ENDSN_ID":"https://databrussels.be/id/streetnode/13066","STRNAMEFRE":"Chaussée de Jette","STRNAMEDUT":"Jetsesteenweg","SLOPE":5.16,"LENGTH":25.0138582755801},"bbox":[147430.37875421,172672.18475546,147442.06718912,172694.29976383]},{"type":"Feature","id":"StreetAxes.fid--6f55e203_1a0272217f6_-7fa0","geometry":{"type":"LineString","coordinates":[[147430.37875421,172694.29976383],[147430.15075421,172694.72876383],[147425.09774579,172699.81967322]]},"geometry_name":"GEOM","properties":{"INSPIRE_ID":"https://databrussels.be/id/streetaxe/84586","TYPE":"I","HIERARCHY":"DC","LVL":0,"STARTSN_ID":"https://databrussels.be/id/streetnode/13066","ENDSN_ID":"https://databrussels.be/id/streetnode/13062","STRNAMEFRE":"Chaussée de Jette","STRNAMEDUT":"Jetsesteenweg","SLOPE":46.61,"LENGTH":7.65870718927559},"bbox":[147425.09774579,172694.29976383,147430.37875421,172699.81967322]},{"type":"Feature","id":"StreetAxes.fid--6f55e203_1a0272217f6_-7fa5","geometry":{"type":"LineString","coordinates":[[147392.87204012,172498.96443087],[147383.90935568,172499.60798169],[147370.72426338,172503.88884169],[147366.63736801,172506.53574856]]},"geometry_name":"GEOM","properties":{"INSPIRE_ID":"https://databrussels.be/id/streetaxe/86240","TYPE":"S","HIERARCHY":"MAR","LVL":0,"STARTSN_ID":"https://databrussels.be/id/streetnode/10229","ENDSN_ID":"https://databrussels.be/id/streetnode/10221","STRNAMEFRE":"Boulevard Léopold II","STRNAMEDUT":"Leopold II-laan","SLOPE":2.74,"LENGTH":27.7175574326387},"bbox":[147366.63736801,172498.96443087,147392.87204012,172506.53574856]},{"type":"Feature","id":"StreetAxes.fid--6f55e203_1a0272217f6_-7fbf","geometry":{"type":"LineString","coordinates":[[147400.745,172848.188],[147402.651,172860.747],[147429.97583592,173046.15671926]]},"geometry_name":"GEOM","properties":{"INSPIRE_ID":"https://databrussels.be/id/streetaxe/86536","TYPE":"S","HIERARCHY":"DR","LVL":0,"STARTSN_ID":"https://databrussels.be/id/streetnode/376","ENDSN_ID":"https://databrussels.be/id/streetnode/12288","STRNAMEFRE":"Rue Honoré Longtin","STRNAMEDUT":"Honoré Longtinstraat","SLOPE":1,"LENGTH":200.115215397512},"bbox":[147400.745,172848.188,147429.97583592,173046.15671926]},{"type":"Feature","id":"StreetAxes.fid--6f55e203_1a0272217f6_-7f88","geometry":{"type":"LineString","coordinates":[[147220.37832378,172631.56589343],[147217.86296831,172638.11122105]]},"geometry_name":"GEOM","properties":{"INSPIRE_ID":"https://databrussels.be/id/streetaxe/86606","TYPE":"S","HIERARCHY":"IDR","LVL":0,"STARTSN_ID":"https://databrussels.be/id/streetnode/10379","ENDSN_ID":"https://databrussels.be/id/streetnode/10382","STRNAMEFRE":"Avenue de Jette","STRNAMEDUT":"Jetselaan","SLOPE":1.28,"LENGTH":7.01201303886808},"bbox":[147217.86296831,172631.56589343,147220.37832378,172638.11122105]},{"type":"Feature","id":"StreetAxes.fid--6f55e203_1a0272217f6_-7f8d","geometry":{"type":"LineString","coordinates":[[147204.23859784,172632.21544456],[147207.2474789,172635.3955659],[147210.32915749,172637.73954733],[147213.69633563,172638.33959774],[147217.86296831,172638.11122105]]},"geometry_name":"GEOM","properties":{"INSPIRE_ID":"https://databrussels.be/id/streetaxe/86607","TYPE":"S","HIERARCHY":"IDR","LVL":0,"STARTSN_ID":"https://databrussels.be/id/streetnode/10381","ENDSN_ID":"https://databrussels.be/id/streetnode/10382","STRNAMEFRE":"Avenue de Jette","STRNAMEDUT":"Jetselaan","SLOPE":0.38,"LENGTH":15.8428938181369},"bbox":[147204.23859784,172632.21544456,147217.86296831,172638.33959774]},{"type":"Feature","id":"StreetAxes.fid--6f55e203_1a0272217f6_-7fca","geometry":{"type":"LineString","coordinates":[[147141.93308571,172781.33296368],[147124.84471843,172781.01772644],[147107.43999594,172785.02419966],[147073.73638194,172792.89975685],[147032.73557917,172803.42093256],[147020.01325669,172806.43686409]]},"geometry_name":"GEOM","properties":{"INSPIRE_ID":"https://databrussels.be/id/streetaxe/86762","TYPE":"S","HIERARCHY":"IDR","LVL":0,"STARTSN_ID":"https://databrussels.be/id/streetnode/9844","ENDSN_ID":"https://databrussels.be/id/streetnode/9864","STRNAMEFRE":"Avenue des Gloires Nationales","STRNAMEDUT":"Landsroemlaan","SLOPE":1.67,"LENGTH":124.96681902756},"bbox":[147020.01325669,172781.01772644,147141.93308571,172806.43686409]},{"type":"Feature","id":"StreetAxes.fid--6f55e203_1a0272217f6_-7f76","geometry":{"type":"LineString","coordinates":[[147293.894,172451.827],[147296.54,172458.06],[147330.102,172501.361],[147334.31821197,172506.80066969]]},"geometry_name":"GEOM","properties":{"INSPIRE_ID":"https://databrussels.be/id/streetaxe/86890","TYPE":"S","HIERARCHY":"DR","LVL":0,"STARTSN_ID":"https://databrussels.be/id/streetnode/11312","ENDSN_ID":"https://databrussels.be/id/streetnode/11834","STRNAMEFRE":"Rue Renée Douffet","STRNAMEDUT":"Renée Douffetstraat","SLOPE":1.46,"LENGTH":68.4386026111094},"bbox":[147293.894,172451.827,147334.31821197,172506.80066969]},{"type":"Feature","id":"StreetAxes.fid--6f55e203_1a0272217f6_-7f7e","geometry":{"type":"LineString","coordinates":[[147269.19428166,172547.65959838],[147273.39056604,172545.05589009],[147294.92092139,172537.54000537]]},"geometry_name":"GEOM","properties":{"INSPIRE_ID":"https://databrussels.be/id/streetaxe/87058","TYPE":"S","HIERARCHY":"MAR","LVL":0,"STARTSN_ID":"https://databrussels.be/id/streetnode/10223","ENDSN_ID":"https://databrussels.be/id/streetnode/10242","STRNAMEFRE":"Place Eugène Simonis","STRNAMEDUT":"Eugène Simonisplein","SLOPE":1.41,"LENGTH":27.7429199985398},"bbox":[147269.19428166,172537.54000537,147294.92092139,172547.65959838]},{"type":"Feature","id":"StreetAxes.fid--6f55e203_1a0272217f6_-7fae","geometry":{"type":"LineString","coordinates":[[147334.31821197,172506.80066969],[147338.46144908,172512.14618874]]},"geometry_name":"GEOM","properties":{"INSPIRE_ID":"https://databrussels.be/id/streetaxe/90202","TYPE":"I","HIERARCHY":"MAR","LVL":0,"STARTSN_ID":"https://databrussels.be/id/streetnode/11834","ENDSN_ID":"https://databrussels.be/id/streetnode/10220","STRNAMEFRE":"Boulevard Léopold II","STRNAMEDUT":"Leopold II-laan","SLOPE":3.25,"LENGTH":6.76320838321734},"bbox":[147334.31821197,172506.80066969,147338.46144908,172512.14618874]},{"type":"Feature","id":"StreetAxes.fid--6f55e203_1a0272217f6_-7fac","geometry":{"type":"LineString","coordinates":[[147345.7921781,172516.11117898],[147345.65088073,172513.64611784],[147346.62403256,172509.94185618]]},"geometry_name":"GEOM","properties":{"INSPIRE_ID":"https://databrussels.be/id/streetaxe/90203","TYPE":"I","HIERARCHY":"MAR","LVL":0,"STARTSN_ID":"https://databrussels.be/id/streetnode/10228","ENDSN_ID":"https://databrussels.be/id/streetnode/10224","STRNAMEFRE":"Boulevard Léopold II","STRNAMEDUT":"Leopold II-laan","SLOPE":7.14,"LENGTH":6.29906548678048},"bbox":[147345.65088073,172509.94185618,147346.62403256,172516.11117898]},{"type":"Feature","id":"StreetAxes.fid--6f55e203_1a0272217f6_-7f80","geometry":{"type":"LineString","coordinates":[[147265.11372891,172545.47855841],[147269.19428166,172547.65959838]]},"geometry_name":"GEOM","properties":{"INSPIRE_ID":"https://databrussels.be/id/streetaxe/90204","TYPE":"I","HIERARCHY":"MAR","LVL":0,"STARTSN_ID":"https://databrussels.be/id/streetnode/10227","ENDSN_ID":"https://databrussels.be/id/streetnode/10223","STRNAMEFRE":"Place Eugène Simonis","STRNAMEDUT":"Eugène Simonisplein","SLOPE":2.16,"LENGTH":4.62686136690405},"bbox":[147265.11372891,172545.47855841,147269.19428166,172547.65959838]},{"type":"Feature","id":"StreetAxes.fid--6f55e203_1a0272217f6_-7f85","geometry":{"type":"LineString","coordinates":[[147231.48564411,172558.27554995],[147228.35268052,172561.88190837],[147226.92531618,172565.65066204],[147226.80983106,172569.5251835]]},"geometry_name":"GEOM","properties":{"INSPIRE_ID":"https://databrussels.be/id/streetaxe/90205","TYPE":"I","HIERARCHY":"MAR","LVL":0,"STARTSN_ID":"https://databrussels.be/id/streetnode/5617","ENDSN_ID":"https://databrussels.be/id/streetnode/11313","STRNAMEFRE":"Place Eugène Simonis","STRNAMEDUT":"Eugène Simonisplein","SLOPE":1.26,"LENGTH":12.6834013843504},"bbox":[147226.80983106,172558.27554995,147231.48564411,172569.5251835]},{"type":"Feature","id":"StreetAxes.fid--6f55e203_1a0272217f6_-7fa9","geometry":{"type":"LineString","coordinates":[[147352.90690424,172526.07318858],[147348.07671863,172522.62380711]]},"geometry_name":"GEOM","properties":{"INSPIRE_ID":"https://databrussels.be/id/streetaxe/90206","TYPE":"I","HIERARCHY":"MAR","LVL":0,"STARTSN_ID":"https://databrussels.be/id/streetnode/10237","ENDSN_ID":"https://databrussels.be/id/streetnode/10240","STRNAMEFRE":"Boulevard Léopold II","STRNAMEDUT":"Leopold II-laan","SLOPE":2.86,"LENGTH":5.93539599092829},"bbox":[147348.07671863,172522.62380711,147352.90690424,172526.07318858]},{"type":"Feature","id":"StreetAxes.fid--6f55e203_1a0272217f6_-7fb0","geometry":{"type":"LineString","coordinates":[[147306.43394089,172552.68828883],[147312.98205342,172553.48803218],[147352.13944506,172535.8243032],[147358.08672204,172531.96279244],[147360.43484207,172526.82721963]]},"geometry_name":"GEOM","properties":{"INSPIRE_ID":"https://databrussels.be/id/streetaxe/90207","TYPE":"C","HIERARCHY":"MAR","LVL":0,"STARTSN_ID":"https://databrussels.be/id/streetnode/11617","ENDSN_ID":"https://databrussels.be/id/streetnode/10233","STRNAMEFRE":"Boulevard Léopold II","STRNAMEDUT":"Leopold II-laan","SLOPE":1.48,"LENGTH":62.2916871352495},"bbox":[147306.43394089,172526.82721963,147360.43484207,172553.48803218]},{"type":"Feature","id":"StreetAxes.fid--6f55e203_1a0272217f6_-7f7d","geometry":{"type":"LineString","coordinates":[[147274.64989909,172558.16449483],[147273.33676406,172563.40890997]]},"geometry_name":"GEOM","properties":{"INSPIRE_ID":"https://databrussels.be/id/streetaxe/90208","TYPE":"I","HIERARCHY":"MAR","LVL":0,"STARTSN_ID":"https://databrussels.be/id/streetnode/10219","ENDSN_ID":"https://databrussels.be/id/streetnode/11833","STRNAMEFRE":"Place Eugène Simonis","STRNAMEDUT":"Eugène Simonisplein","SLOPE":1.11,"LENGTH":5.40631239552122},"bbox":[147273.33676406,172558.16449483,147274.64989909,172563.40890997]},{"type":"Feature","id":"StreetAxes.fid--6f55e203_1a0272217f6_-7f93","geometry":{"type":"LineString","coordinates":[[147146.35994266,172527.54541296],[147144.02497987,172534.57543318]]},"geometry_name":"GEOM","properties":{"INSPIRE_ID":"https://databrussels.be/id/streetaxe/90209","TYPE":"I","HIERARCHY":"IDR","LVL":0,"STARTSN_ID":"https://databrussels.be/id/streetnode/5619","ENDSN_ID":"https://databrussels.be/id/streetnode/11314","STRNAMEFRE":"Avenue de la Liberté","STRNAMEDUT":"Vrijheidslaan","SLOPE":0.54,"LENGTH":7.40764709928519},"bbox":[147144.02497987,172527.54541296,147146.35994266,172534.57543318]},{"type":"Feature","id":"StreetAxes.fid--6f55e203_1a0272217f6_-7fa3","geometry":{"type":"LineString","coordinates":[[147366.96823042,172523.01239212],[147369.33686462,172518.46668733],[147369.8908806,172513.9816247]]},"geometry_name":"GEOM","properties":{"INSPIRE_ID":"https://databrussels.be/id/streetaxe/90210","TYPE":"I","HIERARCHY":"MAR","LVL":0,"STARTSN_ID":"https://databrussels.be/id/streetnode/11619","ENDSN_ID":"https://databrussels.be/id/streetnode/11835","STRNAMEFRE":"Boulevard Léopold II","STRNAMEDUT":"Leopold II-laan","SLOPE":0.62,"LENGTH":9.6449537639217},"bbox":[147366.96823042,172513.9816247,147369.8908806,172523.01239212]},{"type":"Feature","id":"StreetAxes.fid--6f55e203_1a0272217f6_-7fb6","geometry":{"type":"LineString","coordinates":[[147289.62327765,172530.56961771],[147291.80723999,172525.97718417],[147334.31821197,172506.80066969]]},"geometry_name":"GEOM","properties":{"INSPIRE_ID":"https://databrussels.be/id/streetaxe/90420","TYPE":"C","HIERARCHY":"MAR","LVL":0,"STARTSN_ID":"https://databrussels.be/id/streetnode/10232","ENDSN_ID":"https://databrussels.be/id/streetnode/11834","STRNAMEFRE":"Boulevard Léopold II","STRNAMEDUT":"Leopold II-laan","SLOPE":1.66,"LENGTH":51.7213394253807},"bbox":[147289.62327765,172506.80066969,147334.31821197,172530.56961771]},{"type":"Feature","id":"StreetAxes.fid--6f55e203_1a0272217f6_-7fa1","geometry":{"type":"LineString","coordinates":[[147416.5521339,172715.96067479],[147422.869,172704.029],[147425.09774579,172699.81967322]]},"geometry_name":"GEOM","properties":{"INSPIRE_ID":"https://databrussels.be/id/streetaxe/90830","TYPE":"I","HIERARCHY":"DC","LVL":0,"STARTSN_ID":"https://databrussels.be/id/streetnode/11448","ENDSN_ID":"https://databrussels.be/id/streetnode/13062","STRNAMEFRE":"Chaussée de Jette","STRNAMEDUT":"Jetsesteenweg","SLOPE":0.6,"LENGTH":18.2636090186744},"bbox":[147416.5521339,172699.81967322,147425.09774579,172715.96067479]},{"type":"Feature","id":"StreetAxes.fid--6f55e203_1a0272217f6_-7f9c","geometry":{"type":"LineString","coordinates":[[147488.56219398,172606.50174263],[147478.66399217,172599.6900363]]},"geometry_name":"GEOM","properties":{"INSPIRE_ID":"https://databrussels.be/id/streetaxe/90994","TYPE":"I","HIERARCHY":"DR","LVL":0,"STARTSN_ID":"https://databrussels.be/id/streetnode/11443","ENDSN_ID":"https://databrussels.be/id/streetnode/13065","STRNAMEFRE":"Rue Haeck","STRNAMEDUT":"Haeckstraat","SLOPE":2.16,"LENGTH":12.0155624971705},"bbox":[147478.66399217,172599.6900363,147488.56219398,172606.50174263]},{"type":"Feature","id":"StreetAxes.fid--6f55e203_1a0272217f6_-7fbb","geometry":{"type":"LineString","coordinates":[[147009.25835546,172520.18964015],[147004.98128825,172523.6531982],[146998.09537519,172528.39623784],[146992.43920933,172532.51143722],[146981.58167049,172540.38642688],[146967.98652208,172550.16760174],[146944.76736453,172566.39894163],[146932.41802112,172574.86713852],[146919.36995938,172583.67687811],[146907.90737307,172591.2568308],[146893.75142741,172600.54530057],[146880.45342924,172609.15532909],[146868.86071877,172616.65573238],[146856.46331918,172624.4650009],[146836.97549698,172636.50225088],[146831.55696838,172639.77882969],[146825.96740798,172643.12153055],[146817.3235966,172648.12899803],[146804.99178996,172655.24157391],[146798.21112056,172659.02438894],[146792.58248854,172662.14951649],[146785.13078347,172666.26368912],[146777.78977787,172670.18687822],[146760.59369879,172679.24191431],[146749.4347581,172684.95615447],[146741.51003393,172688.80322363],[146728.69006238,172695.19314319],[146716.06626451,172701.24500016],[146711.60103784,172703.28726189],[146704.70483819,172706.64483599],[146696.75714294,172710.31902502],[146688.92766176,172713.89582661],[146676.9127115,172719.17812622],[146667.73112685,172723.06853538],[146652.33064486,172729.40480528],[146640.08808664,172734.22887558],[146617.01518398,172742.98346065],[146596.67804844,172750.36847101],[146580.52902075,172755.91008329],[146560.70338175,172762.6099476],[146545.4412105,172767.59826294],[146531.82011874,172771.92714412],[146523.17955561,172774.69332183],[146518.43430842,172776.28581554],[146512.73038807,172778.13920443]]},"geometry_name":"GEOM","properties":{"INSPIRE_ID":"https://databrussels.be/id/streetaxe/91049","TYPE":"C","HIERARCHY":"IDR","LVL":0,"STARTSN_ID":"https://databrussels.be/id/streetnode/11401","ENDSN_ID":"https://databrussels.be/id/streetnode/9538","STRNAMEFRE":"Avenue du Panthéon","STRNAMEDUT":"Pantheonlaan","SLOPE":2.48,"LENGTH":562.753087059208},"bbox":[146512.73038807,172520.18964015,147009.25835546,172778.13920443]},{"type":"Feature","id":"StreetAxes.fid--6f55e203_1a0272217f6_-7fcb","geometry":{"type":"LineString","coordinates":[[147154.15662651,172789.43120695],[147159.08829833,172777.68453652]]},"geometry_name":"GEOM","properties":{"INSPIRE_ID":"https://databrussels.be/id/streetaxe/91388","TYPE":"I","HIERARCHY":"IDR","LVL":0,"STARTSN_ID":"https://databrussels.be/id/streetnode/9616","ENDSN_ID":"https://databrussels.be/id/streetnode/9482","STRNAMEFRE":"Avenue de Jette","STRNAMEDUT":"Jetselaan","SLOPE":0.78,"LENGTH":12.7399235808919},"bbox":[147154.15662651,172777.68453652,147159.08829833,172789.43120695]},{"type":"Feature","id":"StreetAxes.fid--6f55e203_1a0272217f6_-7fc3","geometry":{"type":"LineString","coordinates":[[147108.32423464,172880.42915323],[147140.46569791,172805.23836379]]},"geometry_name":"GEOM","properties":{"INSPIRE_ID":"https://databrussels.be/id/streetaxe/92205","TYPE":"AC","HIERARCHY":"IDR","LVL":0,"STARTSN_ID":"https://databrussels.be/id/streetnode/12106","ENDSN_ID":"https://databrussels.be/id/streetnode/12107","STRNAMEFRE":"Avenue de Jette","STRNAMEDUT":"Jetselaan","SLOPE":4.81,"LENGTH":81.7724188150558},"bbox":[147108.32423464,172805.23836379,147140.46569791,172880.42915323]},{"type":"Feature","id":"StreetAxes.fid--6f55e203_1a0272217f6_-7fcc","geometry":{"type":"LineString","coordinates":[[147145.34213032,172772.43387366],[147141.93308571,172781.33296368]]},"geometry_name":"GEOM","properties":{"INSPIRE_ID":"https://databrussels.be/id/streetaxe/92619","TYPE":"I","HIERARCHY":"IDR","LVL":0,"STARTSN_ID":"https://databrussels.be/id/streetnode/9628","ENDSN_ID":"https://databrussels.be/id/streetnode/9844","STRNAMEFRE":"Avenue de Jette","STRNAMEDUT":"Jetselaan","SLOPE":0.42,"LENGTH":9.52971082596472},"bbox":[147141.93308571,172772.43387366,147145.34213032,172781.33296368]},{"type":"Feature","id":"StreetAxes.fid--6f55e203_1a0272217f6_-7fad","geometry":{"type":"LineString","coordinates":[[147338.46144908,172512.14618874],[147346.62403256,172509.94185618]]},"geometry_name":"GEOM","properties":{"INSPIRE_ID":"https://databrussels.be/id/streetaxe/92768","TYPE":"I","HIERARCHY":"MAR","LVL":0,"STARTSN_ID":"https://databrussels.be/id/streetnode/10220","ENDSN_ID":"https://databrussels.be/id/streetnode/10224","STRNAMEFRE":"Boulevard Léopold II","STRNAMEDUT":"Leopold II-laan","SLOPE":2.96,"LENGTH":8.45498971806429},"bbox":[147338.46144908,172509.94185618,147346.62403256,172512.14618874]},{"type":"Feature","id":"StreetAxes.fid--6f55e203_1a0272217f6_-7f84","geometry":{"type":"LineString","coordinates":[[147239.7431134,172580.85328951],[147235.50792482,172580.05432767],[147232.93749032,172578.99166264],[147229.95815299,172576.51157914]]},"geometry_name":"GEOM","properties":{"INSPIRE_ID":"https://databrussels.be/id/streetaxe/92769","TYPE":"I","HIERARCHY":"MAR","LVL":0,"STARTSN_ID":"https://databrussels.be/id/streetnode/5618","ENDSN_ID":"https://databrussels.be/id/streetnode/5616","STRNAMEFRE":"Place Eugène Simonis","STRNAMEDUT":"Eugène Simonisplein","SLOPE":1,"LENGTH":10.967829640577},"bbox":[147229.95815299,172576.51157914,147239.7431134,172580.85328951]},{"type":"Feature","id":"StreetAxes.fid--6f55e203_1a0272217f6_-7f86","geometry":{"type":"LineString","coordinates":[[147226.80983106,172569.5251835],[147227.85207242,172573.25750624],[147229.95815299,172576.51157914]]},"geometry_name":"GEOM","properties":{"INSPIRE_ID":"https://databrussels.be/id/streetaxe/92770","TYPE":"I","HIERARCHY":"MAR","LVL":0,"STARTSN_ID":"https://databrussels.be/id/streetnode/11313","ENDSN_ID":"https://databrussels.be/id/streetnode/5616","STRNAMEFRE":"Place Eugène Simonis","STRNAMEDUT":"Eugène Simonisplein","SLOPE":0.13,"LENGTH":7.75126639121255},"bbox":[147226.80983106,172569.5251835,147229.95815299,172576.51157914]},{"type":"Feature","id":"StreetAxes.fid--6f55e203_1a0272217f6_-7fa8","geometry":{"type":"LineString","coordinates":[[147360.43484207,172526.82721963],[147356.61115883,172527.0463663],[147352.90690424,172526.07318858]]},"geometry_name":"GEOM","properties":{"INSPIRE_ID":"https://databrussels.be/id/streetaxe/92771","TYPE":"I","HIERARCHY":"MAR","LVL":0,"STARTSN_ID":"https://databrussels.be/id/streetnode/10233","ENDSN_ID":"https://databrussels.be/id/streetnode/10237","STRNAMEFRE":"Boulevard Léopold II","STRNAMEDUT":"Leopold II-laan","SLOPE":3,"LENGTH":7.6599158934018},"bbox":[147352.90690424,172526.07318858,147360.43484207,172527.0463663]},{"type":"Feature","id":"StreetAxes.fid--6f55e203_1a0272217f6_-7fb3","geometry":{"type":"LineString","coordinates":[[147300.85725113,172545.35074569],[147304.30949768,172549.89304749],[147306.43394089,172552.68828883]]},"geometry_name":"GEOM","properties":{"INSPIRE_ID":"https://databrussels.be/id/streetaxe/92772","TYPE":"I","HIERARCHY":"MAR","LVL":0,"STARTSN_ID":"https://databrussels.be/id/streetnode/10236","ENDSN_ID":"https://databrussels.be/id/streetnode/11617","STRNAMEFRE":"Place Eugène Simonis","STRNAMEDUT":"Eugène Simonisplein","SLOPE":1.95,"LENGTH":9.21623610524263},"bbox":[147300.85725113,172545.35074569,147306.43394089,172552.68828883]},{"type":"Feature","id":"StreetAxes.fid--6f55e203_1a0272217f6_-7f7f","geometry":{"type":"LineString","coordinates":[[147269.19428166,172547.65959838],[147272.57609759,172550.88475892],[147274.17667414,172554.01216548],[147274.64989909,172558.16449483]]},"geometry_name":"GEOM","properties":{"INSPIRE_ID":"https://databrussels.be/id/streetaxe/92773","TYPE":"I","HIERARCHY":"MAR","LVL":0,"STARTSN_ID":"https://databrussels.be/id/streetnode/10223","ENDSN_ID":"https://databrussels.be/id/streetnode/10219","STRNAMEFRE":"Place Eugène Simonis","STRNAMEDUT":"Eugène Simonisplein","SLOPE":2.34,"LENGTH":12.3655509444453},"bbox":[147269.19428166,172547.65959838,147274.64989909,172558.16449483]},{"type":"Feature","id":"StreetAxes.fid--6f55e203_1a0272217f6_-7fb7","geometry":{"type":"LineString","coordinates":[[147289.62327765,172530.56961771],[147294.92092139,172537.54000537]]},"geometry_name":"GEOM","properties":{"INSPIRE_ID":"https://databrussels.be/id/streetaxe/92774","TYPE":"I","HIERARCHY":"MAR","LVL":0,"STARTSN_ID":"https://databrussels.be/id/streetnode/10232","ENDSN_ID":"https://databrussels.be/id/streetnode/10242","STRNAMEFRE":"Place Eugène Simonis","STRNAMEDUT":"Eugène Simonisplein","SLOPE":1.48,"LENGTH":8.7550747071303},"bbox":[147289.62327765,172530.56961771,147294.92092139,172537.54000537]},{"type":"Feature","id":"StreetAxes.fid--6f55e203_1a0272217f6_-7fa6","geometry":{"type":"LineString","coordinates":[[147369.8908806,172513.9816247],[147369.14699635,172509.98204506],[147366.63736801,172506.53574856]]},"geometry_name":"GEOM","properties":{"INSPIRE_ID":"https://databrussels.be/id/streetaxe/92775","TYPE":"I","HIERARCHY":"MAR","LVL":0,"STARTSN_ID":"https://databrussels.be/id/streetnode/11835","ENDSN_ID":"https://databrussels.be/id/streetnode/10221","STRNAMEFRE":"Boulevard Léopold II","STRNAMEDUT":"Leopold II-laan","SLOPE":0.6,"LENGTH":8.33140675740454},"bbox":[147366.63736801,172506.53574856,147369.8908806,172513.9816247]},{"type":"Feature","id":"StreetAxes.fid--6f55e203_1a0272217f6_-7fab","geometry":{"type":"LineString","coordinates":[[147348.07671863,172522.62380711],[147345.7921781,172516.11117898]]},"geometry_name":"GEOM","properties":{"INSPIRE_ID":"https://databrussels.be/id/streetaxe/92776","TYPE":"I","HIERARCHY":"MAR","LVL":0,"STARTSN_ID":"https://databrussels.be/id/streetnode/10240","ENDSN_ID":"https://databrussels.be/id/streetnode/10228","STRNAMEFRE":"Boulevard Léopold II","STRNAMEDUT":"Leopold II-laan","SLOPE":6.38,"LENGTH":6.90169911575041},"bbox":[147345.7921781,172516.11117898,147348.07671863,172522.62380711]},{"type":"Feature","id":"StreetAxes.fid--6f55e203_1a0272217f6_-7fa7","geometry":{"type":"LineString","coordinates":[[147360.43484207,172526.82721963],[147364.00365508,172525.4372006],[147366.96823042,172523.01239212]]},"geometry_name":"GEOM","properties":{"INSPIRE_ID":"https://databrussels.be/id/streetaxe/92777","TYPE":"I","HIERARCHY":"MAR","LVL":0,"STARTSN_ID":"https://databrussels.be/id/streetnode/10233","ENDSN_ID":"https://databrussels.be/id/streetnode/11619","STRNAMEFRE":"Boulevard Léopold II","STRNAMEDUT":"Leopold II-laan","SLOPE":3.39,"LENGTH":7.65989324762214},"bbox":[147360.43484207,172523.01239212,147366.96823042,172526.82721963]},{"type":"Feature","id":"StreetAxes.fid--6f55e203_1a0272217f6_-7fbd","geometry":{"type":"LineString","coordinates":[[147550.67287945,172991.92742343],[147544.01592023,172988.93362659],[147525.0661081,172984.19978423],[147509.52304495,172978.02273869],[147491.53555685,172934.56996317],[147511.22677832,172886.66037945]]},"geometry_name":"GEOM","properties":{"INSPIRE_ID":"https://databrussels.be/id/streetaxe/94572","TYPE":"S","HIERARCHY":null,"LVL":0,"STARTSN_ID":"https://databrussels.be/id/streetnode/5332","ENDSN_ID":"https://databrussels.be/id/streetnode/5333","STRNAMEFRE":"Mail du Topweg","STRNAMEDUT":"Malie van de Topweg","SLOPE":0.61,"LENGTH":142.383854473931},"bbox":[147491.53555685,172886.66037945,147550.67287945,172991.92742343]},{"type":"Feature","id":"StreetAxes.fid--6f55e203_1a0272217f6_-7f77","geometry":{"type":"LineString","coordinates":[[147245.87910862,172473.3082285],[147251.39197328,172480.59397497],[147283.89022403,172523.02633844],[147289.62327765,172530.56961771]]},"geometry_name":"GEOM","properties":{"INSPIRE_ID":"https://databrussels.be/id/streetaxe/99905","TYPE":"S","HIERARCHY":"DR","LVL":0,"STARTSN_ID":"https://databrussels.be/id/streetnode/","ENDSN_ID":"https://databrussels.be/id/streetnode/","STRNAMEFRE":"Rue Gisèle Halimi","STRNAMEDUT":"Gisèle Halimistraat","SLOPE":1.02,"LENGTH":72.0586080952935},"bbox":[147245.87910862,172473.3082285,147289.62327765,172530.56961771]}],"numberReturned":94,"grand_bruxelles_source":{"authority":"Paradigm / Brussels-Capital Region","service":"https://geoservices-urbis.irisnet.be/geoserver/urbisvector/wfs","layer":"urbisvector:StreetAxes","crs":"EPSG:31370","bbox":[147000.0,172500.0,147500.0,173000.0],"cell_id":"bxl-e147000-n172500-s500","ownership":"bbox_intersection_source_unclipped"}}
