{"type":"FeatureCollection","totalFeatures":74,"numberMatched":74,"timeStamp":"2026-08-23T02:54:05.691Z","crs":{"type":"name","properties":{"name":"urn:ogc:def:crs:EPSG::31370"}},"bbox":[147889.03599554,165177.362,148759.774,166315.71],"features":[{"type":"Feature","id":"StreetAxes.fid--590544ac_1a02c121f93_5eee","geometry":{"type":"LineString","coordinates":[[148079.907,165506.436],[148090.085,165517.2],[148116.105,165540.55],[148130.375,165555.925],[148141.69,165571.925],[148160.33784602,165606.86981142],[148171.475,165638.27],[148179.99,165671.23],[148181.36,165679.205],[148181.495,165689.36],[148180,165698.155],[148177.51,165705.465],[148163.79,165738.16],[148159.73,165747.405],[148149.465,165763.065],[148110.155,165820.53],[148104.44223513,165830.81085325]]},"geometry_name":"GEOM","properties":{"INSPIRE_ID":"https://databrussels.be/id/streetaxe/73523","TYPE":"S","HIERARCHY":null,"LVL":0,"STARTSN_ID":"https://databrussels.be/id/streetnode/9876","ENDSN_ID":"https://databrussels.be/id/streetnode/5684","STRNAMEFRE":"Rue Rouge","STRNAMEDUT":"Rodestraat","SLOPE":2.65,"LENGTH":377.871826682722},"bbox":[148079.907,165506.436,148181.495,165830.81085325]},{"type":"Feature","id":"StreetAxes.fid--590544ac_1a02c121f93_5ee3","geometry":{"type":"LineString","coordinates":[[148020.815,165453.192],[148037.876,165466.1],[148072.27,165498.36],[148079.907,165506.436]]},"geometry_name":"GEOM","properties":{"INSPIRE_ID":"https://databrussels.be/id/streetaxe/74025","TYPE":"S","HIERARCHY":"DC","LVL":0,"STARTSN_ID":"https://databrussels.be/id/streetnode/1987","ENDSN_ID":"https://databrussels.be/id/streetnode/9876","STRNAMEFRE":"Rue de la Fauvette","STRNAMEDUT":"Grasmusstraat","SLOPE":2.87,"LENGTH":79.6645376253099},"bbox":[148020.815,165453.192,148079.907,165506.436]},{"type":"Feature","id":"StreetAxes.fid--590544ac_1a02c121f93_5ecd","geometry":{"type":"LineString","coordinates":[[148270.612,165875.314],[148273.822,165856.965],[148329.405,165758.68],[148337.082,165749.6],[148348.945,165742.73],[148354.935,165741.3],[148366.765,165741.58],[148464.07,165765.922],[148489.849,165772.829]]},"geometry_name":"GEOM","properties":{"INSPIRE_ID":"https://databrussels.be/id/streetaxe/74103","TYPE":"S","HIERARCHY":null,"LVL":0,"STARTSN_ID":"https://databrussels.be/id/streetnode/9945","ENDSN_ID":"https://databrussels.be/id/streetnode/9943","STRNAMEFRE":"Avenue du Manoir","STRNAMEDUT":"Riddershofstedelaan","SLOPE":4.34,"LENGTH":302.123498642648},"bbox":[148270.612,165741.3,148489.849,165875.314]},{"type":"Feature","id":"StreetAxes.fid--590544ac_1a02c121f93_5f02","geometry":{"type":"LineString","coordinates":[[148270.612,165875.314],[148258.226,165873.09],[148235.233,165868.76],[148214.03570935,165865.21724044],[148199.98044718,165862.93017352]]},"geometry_name":"GEOM","properties":{"INSPIRE_ID":"https://databrussels.be/id/streetaxe/74109","TYPE":"S","HIERARCHY":"MAR","LVL":0,"STARTSN_ID":"https://databrussels.be/id/streetnode/9945","ENDSN_ID":"https://databrussels.be/id/streetnode/5896","STRNAMEFRE":"Avenue De Fré","STRNAMEDUT":"De Frélaan","SLOPE":1.23,"LENGTH":71.7126697587458},"bbox":[148199.98044718,165862.93017352,148270.612,165875.314]},{"type":"Feature","id":"StreetAxes.fid--590544ac_1a02c121f93_5ecf","geometry":{"type":"LineString","coordinates":[[148385.68248407,165897.89422609],[148395.57612169,165885.54537507],[148399.09,165880.094],[148473.457,165792.202],[148489.849,165772.829]]},"geometry_name":"GEOM","properties":{"INSPIRE_ID":"https://databrussels.be/id/streetaxe/74113","TYPE":"S","HIERARCHY":"DR","LVL":0,"STARTSN_ID":"https://databrussels.be/id/streetnode/9946","ENDSN_ID":"https://databrussels.be/id/streetnode/9943","STRNAMEFRE":"Avenue Kamerdelle","STRNAMEDUT":"Kamerdellelaan","SLOPE":6.85,"LENGTH":162.818785509893},"bbox":[148385.68248407,165772.829,148489.849,165897.89422609]},{"type":"Feature","id":"StreetAxes.fid--590544ac_1a02c121f93_5f04","geometry":{"type":"LineString","coordinates":[[148270.612,165875.314],[148282.998,165877.537],[148363.32937205,165893.79316974],[148385.68248407,165897.89422609]]},"geometry_name":"GEOM","properties":{"INSPIRE_ID":"https://databrussels.be/id/streetaxe/74871","TYPE":"S","HIERARCHY":"MAR","LVL":0,"STARTSN_ID":"https://databrussels.be/id/streetnode/9945","ENDSN_ID":"https://databrussels.be/id/streetnode/9946","STRNAMEFRE":"Avenue De Fré","STRNAMEDUT":"De Frélaan","SLOPE":1.67,"LENGTH":117.2698096739},"bbox":[148270.612,165875.314,148385.68248407,165897.89422609]},{"type":"Feature","id":"StreetAxes.fid--590544ac_1a02c121f93_5ed0","geometry":{"type":"LineString","coordinates":[[148385.68248407,165897.89422609],[148406.13423659,165901.64644589],[148460.135,165910.501],[148472.147,165912.578]]},"geometry_name":"GEOM","properties":{"INSPIRE_ID":"https://databrussels.be/id/streetaxe/74872","TYPE":"S","HIERARCHY":"MAR","LVL":0,"STARTSN_ID":"https://databrussels.be/id/streetnode/9946","ENDSN_ID":"https://databrussels.be/id/streetnode/9947","STRNAMEFRE":"Avenue De Fré","STRNAMEDUT":"De Frélaan","SLOPE":1.57,"LENGTH":87.7052458934149},"bbox":[148385.68248407,165897.89422609,148472.147,165912.578]},{"type":"Feature","id":"StreetAxes.fid--590544ac_1a02c121f93_5efa","geometry":{"type":"LineString","coordinates":[[148179.02962382,166155.39760637],[148123.73634552,166017.54904854],[148121.75735902,166012.59858195],[148116.29400388,165999.22207187]]},"geometry_name":"GEOM","properties":{"INSPIRE_ID":"https://databrussels.be/id/streetaxe/75379","TYPE":"S","HIERARCHY":"MAR","LVL":0,"STARTSN_ID":"https://databrussels.be/id/streetnode/7488","ENDSN_ID":"https://databrussels.be/id/streetnode/6775","STRNAMEFRE":"Avenue Brugmann","STRNAMEDUT":"Brugmannlaan","SLOPE":4.94,"LENGTH":168.305215846893},"bbox":[148116.29400388,165999.22207187,148179.02962382,166155.39760637]},{"type":"Feature","id":"StreetAxes.fid--590544ac_1a02c121f93_5eff","geometry":{"type":"LineString","coordinates":[[148188.26335727,166151.62521552],[148133.14159544,166014.01307449],[148128.04143979,166001.38786535],[148124.04652668,165991.0148684]]},"geometry_name":"GEOM","properties":{"INSPIRE_ID":"https://databrussels.be/id/streetaxe/75386","TYPE":"S","HIERARCHY":"MAR","LVL":0,"STARTSN_ID":"https://databrussels.be/id/streetnode/7099","ENDSN_ID":"https://databrussels.be/id/streetnode/7494","STRNAMEFRE":"Avenue Brugmann","STRNAMEDUT":"Brugmannlaan","SLOPE":5,"LENGTH":172.973515420569},"bbox":[148124.04652668,165991.0148684,148188.26335727,166151.62521552]},{"type":"Feature","id":"StreetAxes.fid--590544ac_1a02c121f93_5ed3","geometry":{"type":"LineString","coordinates":[[148472.147,165912.578],[148486.984,165915.142],[148528.108,165922.962],[148546.17644642,165926.8848459]]},"geometry_name":"GEOM","properties":{"INSPIRE_ID":"https://databrussels.be/id/streetaxe/75827","TYPE":"S","HIERARCHY":"MAR","LVL":0,"STARTSN_ID":"https://databrussels.be/id/streetnode/9947","ENDSN_ID":"https://databrussels.be/id/streetnode/9948","STRNAMEFRE":"Avenue De Fré","STRNAMEDUT":"De Frélaan","SLOPE":1.95,"LENGTH":75.4072122675601},"bbox":[148472.147,165912.578,148546.17644642,165926.8848459]},{"type":"Feature","id":"StreetAxes.fid--590544ac_1a02c121f93_5f06","geometry":{"type":"LineString","coordinates":[[148412.785,165596.435],[148424.735,165576.235],[148447.865,165541.655],[148459.477,165521.666],[148468.95,165505.301],[148513.446,165425.228],[148519.58,165411.945],[148525.255,165397.18],[148541.205,165365.015],[148553.185,165351.335],[148598.295,165270.045],[148631.222,165252.444],[148666.152,165230.325],[148706.55,165216.52],[148747.538,165193.153],[148756.293,165188.162],[148759.774,165177.362]]},"geometry_name":"GEOM","properties":{"INSPIRE_ID":"https://databrussels.be/id/streetaxe/75829","TYPE":"S","HIERARCHY":null,"LVL":0,"STARTSN_ID":"https://databrussels.be/id/streetnode/3131","ENDSN_ID":"https://databrussels.be/id/streetnode/9885","STRNAMEFRE":"Avenue Paul Stroobant","STRNAMEDUT":"Paul Stroobantlaan","SLOPE":3.15,"LENGTH":566.18522566019},"bbox":[148412.785,165177.362,148759.774,165596.435]},{"type":"Feature","id":"StreetAxes.fid--590544ac_1a02c121f93_5ecc","geometry":{"type":"LineString","coordinates":[[148489.849,165772.829],[148495.43,165758.265],[148502.067,165742.651],[148523.63,165683.134],[148530.108,165666.656]]},"geometry_name":"GEOM","properties":{"INSPIRE_ID":"https://databrussels.be/id/streetaxe/77257","TYPE":"S","HIERARCHY":"DR","LVL":0,"STARTSN_ID":"https://databrussels.be/id/streetnode/9943","ENDSN_ID":"https://databrussels.be/id/streetnode/3450","STRNAMEFRE":"Avenue Kamerdelle","STRNAMEDUT":"Kamerdellelaan","SLOPE":4.13,"LENGTH":113.571121518086},"bbox":[148489.849,165666.656,148530.108,165772.829]},{"type":"Feature","id":"StreetAxes.fid--590544ac_1a02c121f93_5ef0","geometry":{"type":"LineString","coordinates":[[148081.24168556,165847.30249735],[148087.64714809,165839.17411502],[148089.08583693,165834.22444497],[148088.63660978,165829.58679228],[148086.12572945,165822.245195]]},"geometry_name":"GEOM","properties":{"INSPIRE_ID":"https://databrussels.be/id/streetaxe/77520","TYPE":"S","HIERARCHY":"MAR","LVL":0,"STARTSN_ID":"https://databrussels.be/id/streetnode/5673","ENDSN_ID":"https://databrussels.be/id/streetnode/6149","STRNAMEFRE":"Avenue De Fré","STRNAMEDUT":"De Frélaan","SLOPE":5.34,"LENGTH":27.9219129848985},"bbox":[148081.24168556,165822.245195,148089.08583693,165847.30249735]},{"type":"Feature","id":"StreetAxes.fid--590544ac_1a02c121f93_5edd","geometry":{"type":"LineString","coordinates":[[148014.52720323,165718.94282223],[148016.19063999,165717.20865624],[148018.04857874,165714.31262231],[148018.99734656,165710.6898619],[148019.2043842,165706.86701589],[148018.61720648,165703.30533125],[148017.89142915,165700.41927607],[148016.54911411,165697.67563942],[148015.36889022,165696.08758584]]},"geometry_name":"GEOM","properties":{"INSPIRE_ID":"https://databrussels.be/id/streetaxe/77521","TYPE":"S","HIERARCHY":"MAR","LVL":0,"STARTSN_ID":"https://databrussels.be/id/streetnode/5674","ENDSN_ID":"https://databrussels.be/id/streetnode/5672","STRNAMEFRE":"Square Georges Marlow","STRNAMEDUT":"Georges Marlowsquare","SLOPE":1.48,"LENGTH":25.0358216261621},"bbox":[148014.52720323,165696.08758584,148019.2043842,165718.94282223]},{"type":"Feature","id":"StreetAxes.fid--590544ac_1a02c121f93_5ef2","geometry":{"type":"LineString","coordinates":[[148086.12572945,165822.245195],[148097.69449443,165827.54746764],[148104.44223513,165830.81085325]]},"geometry_name":"GEOM","properties":{"INSPIRE_ID":"https://databrussels.be/id/streetaxe/77548","TYPE":"S","HIERARCHY":"MAR","LVL":0,"STARTSN_ID":"https://databrussels.be/id/streetnode/6149","ENDSN_ID":"https://databrussels.be/id/streetnode/5684","STRNAMEFRE":"Avenue De Fré","STRNAMEDUT":"De Frélaan","SLOPE":0.15,"LENGTH":20.221418791417},"bbox":[148086.12572945,165822.245195,148104.44223513,165830.81085325]},{"type":"Feature","id":"StreetAxes.fid--590544ac_1a02c121f93_5ec3","geometry":{"type":"LineString","coordinates":[[148086.12572945,165822.245195],[148057.7233413,165809.2276252],[148052.29410798,165811.53240539]]},"geometry_name":"GEOM","properties":{"INSPIRE_ID":"https://databrussels.be/id/streetaxe/77549","TYPE":"S","HIERARCHY":"MAR","LVL":0,"STARTSN_ID":"https://databrussels.be/id/streetnode/6149","ENDSN_ID":"https://databrussels.be/id/streetnode/5671","STRNAMEFRE":"Avenue De Fré","STRNAMEDUT":"De Frélaan","SLOPE":1.32,"LENGTH":37.1416287194343},"bbox":[148052.29410798,165809.2276252,148086.12572945,165822.245195]},{"type":"Feature","id":"StreetAxes.fid--590544ac_1a02c121f93_5ed7","geometry":{"type":"LineString","coordinates":[[147945.25129266,165671.15488879],[147946.69894046,165668.8987143],[148025.16022892,165638.7484351]]},"geometry_name":"GEOM","properties":{"INSPIRE_ID":"https://databrussels.be/id/streetaxe/77550","TYPE":"S","HIERARCHY":"DR","LVL":0,"STARTSN_ID":"https://databrussels.be/id/streetnode/5894","ENDSN_ID":"https://databrussels.be/id/streetnode/5685","STRNAMEFRE":"Square Georges Marlow","STRNAMEDUT":"Georges Marlowsquare","SLOPE":4.14,"LENGTH":86.7354950818694},"bbox":[147945.25129266,165638.7484351,148025.16022892,165671.15488879]},{"type":"Feature","id":"StreetAxes.fid--590544ac_1a02c121f93_5edf","geometry":{"type":"LineString","coordinates":[[147988.33560604,165717.65745629],[147990.7171943,165719.98173365],[147992.90557754,165721.303362],[147996.2844246,165722.63018377],[147998.80703997,165723.35397094],[148002.44283197,165723.81328315]]},"geometry_name":"GEOM","properties":{"INSPIRE_ID":"https://databrussels.be/id/streetaxe/77552","TYPE":"S","HIERARCHY":"MAR","LVL":0,"STARTSN_ID":"https://databrussels.be/id/streetnode/5895","ENDSN_ID":"https://databrussels.be/id/streetnode/5677","STRNAMEFRE":"Square Georges Marlow","STRNAMEDUT":"Georges Marlowsquare","SLOPE":1.2,"LENGTH":15.803410849013},"bbox":[147988.33560604,165717.65745629,148002.44283197,165723.81328315]},{"type":"Feature","id":"StreetAxes.fid--590544ac_1a02c121f93_5eea","geometry":{"type":"LineString","coordinates":[[148057.60695216,165856.82426987],[148079.66424505,165913.21761838],[148084.72637865,165922.17909646],[148086.6532251,165925.4617124],[148091.19108708,165937.2711599]]},"geometry_name":"GEOM","properties":{"INSPIRE_ID":"https://databrussels.be/id/streetaxe/78234","TYPE":"S","HIERARCHY":"MAR","LVL":0,"STARTSN_ID":"https://databrussels.be/id/streetnode/5676","ENDSN_ID":"https://databrussels.be/id/streetnode/6924","STRNAMEFRE":"Avenue Brugmann","STRNAMEDUT":"Brugmannlaan","SLOPE":4.77,"LENGTH":87.3035967911147},"bbox":[148057.60695216,165856.82426987,148091.19108708,165937.2711599]},{"type":"Feature","id":"StreetAxes.fid--590544ac_1a02c121f93_5ec8","geometry":{"type":"LineString","coordinates":[[148057.60695216,165856.82426987],[148054.63154984,165848.47760804],[148046.98617414,165829.22474084],[148042.99950602,165817.67963365]]},"geometry_name":"GEOM","properties":{"INSPIRE_ID":"https://databrussels.be/id/streetaxe/78449","TYPE":"S","HIERARCHY":"MAR","LVL":0,"STARTSN_ID":"https://databrussels.be/id/streetnode/5676","ENDSN_ID":"https://databrussels.be/id/streetnode/5668","STRNAMEFRE":"Avenue Brugmann","STRNAMEDUT":"Brugmannlaan","SLOPE":4.09,"LENGTH":41.7905135255033},"bbox":[148042.99950602,165817.67963365,148057.60695216,165856.82426987]},{"type":"Feature","id":"StreetAxes.fid--590544ac_1a02c121f93_5ed9","geometry":{"type":"LineString","coordinates":[[148008.17580514,165691.23000939],[148004.86457281,165690.48130476],[148000.85471379,165690.33339613],[147997.00648165,165690.88074375],[147993.58208948,165692.31938548],[147990.31377589,165694.40381996],[147989.76600488,165695.06899458]]},"geometry_name":"GEOM","properties":{"INSPIRE_ID":"https://databrussels.be/id/streetaxe/78964","TYPE":"S","HIERARCHY":"MAR","LVL":0,"STARTSN_ID":"https://databrussels.be/id/streetnode/5687","ENDSN_ID":"https://databrussels.be/id/streetnode/5683","STRNAMEFRE":"Square Georges Marlow","STRNAMEDUT":"Georges Marlowsquare","SLOPE":2.38,"LENGTH":19.7468126408051},"bbox":[147989.76600488,165690.33339613,148008.17580514,165695.06899458]},{"type":"Feature","id":"StreetAxes.fid--590544ac_1a02c121f93_5ef4","geometry":{"type":"LineString","coordinates":[[148116.29400388,165999.22207187],[148110.76706401,165985.68988059],[148091.19108708,165937.2711599]]},"geometry_name":"GEOM","properties":{"INSPIRE_ID":"https://databrussels.be/id/streetaxe/79127","TYPE":"S","HIERARCHY":"MAR","LVL":0,"STARTSN_ID":"https://databrussels.be/id/streetnode/6775","ENDSN_ID":"https://databrussels.be/id/streetnode/6924","STRNAMEFRE":"Avenue Brugmann","STRNAMEDUT":"Brugmannlaan","SLOPE":5.12,"LENGTH":66.8437093958389},"bbox":[148091.19108708,165937.2711599,148116.29400388,165999.22207187]},{"type":"Feature","id":"StreetAxes.fid--590544ac_1a02c121f93_5ed1","geometry":{"type":"LineString","coordinates":[[148367.7354943,165919.72648809],[148372.96575131,165914.65284948],[148385.68248407,165897.89422609]]},"geometry_name":"GEOM","properties":{"INSPIRE_ID":"https://databrussels.be/id/streetaxe/79259","TYPE":"S","HIERARCHY":"DC","LVL":0,"STARTSN_ID":"https://databrussels.be/id/streetnode/10354","ENDSN_ID":"https://databrussels.be/id/streetnode/9946","STRNAMEFRE":"Avenue de Boetendael","STRNAMEDUT":"Boetendaellaan","SLOPE":2.86,"LENGTH":28.3240665760232},"bbox":[148367.7354943,165897.89422609,148385.68248407,165919.72648809]},{"type":"Feature","id":"StreetAxes.fid--590544ac_1a02c121f93_5f05","geometry":{"type":"LineString","coordinates":[[148367.7354943,165919.72648809],[148372.69665559,165929.89645926],[148371.57,165939.6],[148349.018,166036.326],[148350.105,166040.87],[148331.569,166120.263],[148328.729,166132.144]]},"geometry_name":"GEOM","properties":{"INSPIRE_ID":"https://databrussels.be/id/streetaxe/79260","TYPE":"S","HIERARCHY":"DC","LVL":0,"STARTSN_ID":"https://databrussels.be/id/streetnode/10354","ENDSN_ID":"https://databrussels.be/id/streetnode/2982","STRNAMEFRE":"Avenue de Boetendael","STRNAMEDUT":"Boetendaellaan","SLOPE":7,"LENGTH":218.820543972777},"bbox":[148328.729,165919.72648809,148372.69665559,166132.144]},{"type":"Feature","id":"StreetAxes.fid--590544ac_1a02c121f93_5ec9","geometry":{"type":"LineString","coordinates":[[147999.419,165879.611],[148010.654,165861.884],[148037.933,165821.0305],[148042.99950602,165817.67963365]]},"geometry_name":"GEOM","properties":{"INSPIRE_ID":"https://databrussels.be/id/streetaxe/79441","TYPE":"S","HIERARCHY":"DC","LVL":0,"STARTSN_ID":"https://databrussels.be/id/streetnode/1012","ENDSN_ID":"https://databrussels.be/id/streetnode/5668","STRNAMEFRE":"Rue du Doyenné","STRNAMEDUT":"Dekenijstraat","SLOPE":1.44,"LENGTH":76.1856205193866},"bbox":[147999.419,165817.67963365,148042.99950602,165879.611]},{"type":"Feature","id":"StreetAxes.fid--590544ac_1a02c121f93_5ef9","geometry":{"type":"LineString","coordinates":[[148104.44223513,165830.81085325],[148115.63013799,165836.22161852],[148128.32317963,165845.3930727]]},"geometry_name":"GEOM","properties":{"INSPIRE_ID":"https://databrussels.be/id/streetaxe/79537","TYPE":"S","HIERARCHY":"MAR","LVL":0,"STARTSN_ID":"https://databrussels.be/id/streetnode/5684","ENDSN_ID":"https://databrussels.be/id/streetnode/5669","STRNAMEFRE":"Avenue De Fré","STRNAMEDUT":"De Frélaan","SLOPE":0.07,"LENGTH":28.0873978192307},"bbox":[148104.44223513,165830.81085325,148128.32317963,165845.3930727]},{"type":"Feature","id":"StreetAxes.fid--590544ac_1a02c121f93_5ee7","geometry":{"type":"LineString","coordinates":[[148049.8606187,165589.8355772],[148061.00736791,165560.52091355],[148064.24212467,165552.64703753],[148065.90259943,165536.9173418]]},"geometry_name":"GEOM","properties":{"INSPIRE_ID":"https://databrussels.be/id/streetaxe/80118","TYPE":"S","HIERARCHY":"IDR","LVL":0,"STARTSN_ID":"https://databrussels.be/id/streetnode/5670","ENDSN_ID":"https://databrussels.be/id/streetnode/9889","STRNAMEFRE":"Avenue Wolvendael","STRNAMEDUT":"Wolvendaellaan","SLOPE":6.41,"LENGTH":55.691922051961},"bbox":[148049.8606187,165536.9173418,148065.90259943,165589.8355772]},{"type":"Feature","id":"StreetAxes.fid--590544ac_1a02c121f93_5ed2","geometry":{"type":"LineString","coordinates":[[148472.147,165912.578],[148470.118,165923.999],[148456.15,166002.64],[148448.26,166049.555],[148436.659,166115.744],[148432.465,166135.01],[148430.051,166146.101],[148423.69626041,166154.73612209]]},"geometry_name":"GEOM","properties":{"INSPIRE_ID":"https://databrussels.be/id/streetaxe/80287","TYPE":"S","HIERARCHY":"DC","LVL":0,"STARTSN_ID":"https://databrussels.be/id/streetnode/9947","ENDSN_ID":"https://databrussels.be/id/streetnode/9940","STRNAMEFRE":"Avenue Henri Elleboudt","STRNAMEDUT":"Henri Elleboudtlaan","SLOPE":4.91,"LENGTH":248.032738178942},"bbox":[148423.69626041,165912.578,148472.147,166154.73612209]},{"type":"Feature","id":"StreetAxes.fid--590544ac_1a02c121f93_5ebf","geometry":{"type":"LineString","coordinates":[[148116.29400388,165999.22207187],[148105.195,166014.924],[148085.804,166054.173],[148066.085,166099.525],[148060.405,166113.735],[148050.34,166140.7],[148036.57,166182.245],[148024.485,166221.695],[147997.386,166310.58],[147995.773,166315.71]]},"geometry_name":"GEOM","properties":{"INSPIRE_ID":"https://databrussels.be/id/streetaxe/83000","TYPE":"S","HIERARCHY":"IDR","LVL":0,"STARTSN_ID":"https://databrussels.be/id/streetnode/6775","ENDSN_ID":"https://databrussels.be/id/streetnode/510","STRNAMEFRE":"Avenue Coghen","STRNAMEDUT":"Coghenlaan","SLOPE":3.27,"LENGTH":339.874048999259},"bbox":[147995.773,165999.22207187,148116.29400388,166315.71]},{"type":"Feature","id":"StreetAxes.fid--590544ac_1a02c121f93_5eec","geometry":{"type":"LineString","coordinates":[[148069.45719289,165852.05013958],[148073.22669215,165859.47436441],[148095.386688,165914.52058639],[148100.17885102,165929.17692548]]},"geometry_name":"GEOM","properties":{"INSPIRE_ID":"https://databrussels.be/id/streetaxe/83754","TYPE":"S","HIERARCHY":"MAR","LVL":0,"STARTSN_ID":"https://databrussels.be/id/streetnode/5678","ENDSN_ID":"https://databrussels.be/id/streetnode/6923","STRNAMEFRE":"Avenue Brugmann","STRNAMEDUT":"Brugmannlaan","SLOPE":4.79,"LENGTH":83.0855464695455},"bbox":[148069.45719289,165852.05013958,148100.17885102,165929.17692548]},{"type":"Feature","id":"StreetAxes.fid--590544ac_1a02c121f93_5ec4","geometry":{"type":"LineString","coordinates":[[148069.45719289,165852.05013958],[148065.32157247,165843.90482008],[148057.88263001,165825.5748058],[148052.29410798,165811.53240539]]},"geometry_name":"GEOM","properties":{"INSPIRE_ID":"https://databrussels.be/id/streetaxe/83814","TYPE":"S","HIERARCHY":"MAR","LVL":0,"STARTSN_ID":"https://databrussels.be/id/streetnode/5678","ENDSN_ID":"https://databrussels.be/id/streetnode/5671","STRNAMEFRE":"Avenue Brugmann","STRNAMEDUT":"Brugmannlaan","SLOPE":3.91,"LENGTH":44.0306580445803},"bbox":[148052.29410798,165811.53240539,148069.45719289,165852.05013958]},{"type":"Feature","id":"StreetAxes.fid--590544ac_1a02c121f93_5ef8","geometry":{"type":"LineString","coordinates":[[148177.75447975,165859.31357256],[148100.17885102,165929.17692548]]},"geometry_name":"GEOM","properties":{"INSPIRE_ID":"https://databrussels.be/id/streetaxe/83815","TYPE":"S","HIERARCHY":"DR","LVL":0,"STARTSN_ID":"https://databrussels.be/id/streetnode/5680","ENDSN_ID":"https://databrussels.be/id/streetnode/6923","STRNAMEFRE":"Square des Héros","STRNAMEDUT":"Heldensquare","SLOPE":6.22,"LENGTH":104.39763528939},"bbox":[148100.17885102,165859.31357256,148177.75447975,165929.17692548]},{"type":"Feature","id":"StreetAxes.fid--590544ac_1a02c121f93_5efe","geometry":{"type":"LineString","coordinates":[[148124.04652668,165991.0148684],[148130.72,165983.95],[148175.61,165966.065],[148196.565,165959.205],[148213.475,165955.06],[148226.68,165952.535],[148249.25,165950.07],[148266.516,165949.556],[148280.38,165950.25],[148297.12,165950.23],[148313.02,165948.16],[148329.306,165943.193],[148342.386,165936.938],[148354.444,165929.172],[148367.7354943,165919.72648809]]},"geometry_name":"GEOM","properties":{"INSPIRE_ID":"https://databrussels.be/id/streetaxe/84247","TYPE":"S","HIERARCHY":"DR","LVL":0,"STARTSN_ID":"https://databrussels.be/id/streetnode/7494","ENDSN_ID":"https://databrussels.be/id/streetnode/10354","STRNAMEFRE":"Avenue de l'Echevinage","STRNAMEDUT":"Schepenijlaan","SLOPE":2.37,"LENGTH":259.751252158292},"bbox":[148124.04652668,165919.72648809,148367.7354943,165991.0148684]},{"type":"Feature","id":"StreetAxes.fid--590544ac_1a02c121f93_5ece","geometry":{"type":"LineString","coordinates":[[148489.849,165772.829],[148506.828,165777.377],[148572.044,165793.656],[148583.71204691,165798.49721561],[148589.44486972,165803.71340981]]},"geometry_name":"GEOM","properties":{"INSPIRE_ID":"https://databrussels.be/id/streetaxe/84911","TYPE":"S","HIERARCHY":"DR","LVL":0,"STARTSN_ID":"https://databrussels.be/id/streetnode/9943","ENDSN_ID":"https://databrussels.be/id/streetnode/10361","STRNAMEFRE":"Avenue du Manoir","STRNAMEDUT":"Riddershofstedelaan","SLOPE":3.86,"LENGTH":105.177881744335},"bbox":[148489.849,165772.829,148589.44486972,165803.71340981]},{"type":"Feature","id":"StreetAxes.fid--590544ac_1a02c121f93_5ee2","geometry":{"type":"LineString","coordinates":[[147889.03599554,165417.97370439],[147890.09811732,165425.6057704],[147895.632,165433.305],[147995.57104335,165547.6470537],[148022.6361684,165578.09871312],[148026.32619095,165581.55253126],[148028.97467488,165583.01147167],[148034.74777467,165584.97657509],[148044.04393694,165587.96542828]]},"geometry_name":"GEOM","properties":{"INSPIRE_ID":"https://databrussels.be/id/streetaxe/85846","TYPE":"S","HIERARCHY":"DR","LVL":0,"STARTSN_ID":"https://databrussels.be/id/streetnode/14347","ENDSN_ID":"https://databrussels.be/id/streetnode/5690","STRNAMEFRE":"Avenue Arnold Delvaux","STRNAMEDUT":"Arnold Delvauxlaan","SLOPE":0.18,"LENGTH":233.730904185038},"bbox":[147889.03599554,165417.97370439,148044.04393694,165587.96542828]},{"type":"Feature","id":"StreetAxes.fid--590544ac_1a02c121f93_5ef7","geometry":{"type":"LineString","coordinates":[[148124.04652668,165991.0148684],[148119.2482521,165978.55590214],[148103.36696068,165938.92743193],[148100.17885102,165929.17692548]]},"geometry_name":"GEOM","properties":{"INSPIRE_ID":"https://databrussels.be/id/streetaxe/86060","TYPE":"S","HIERARCHY":"MAR","LVL":0,"STARTSN_ID":"https://databrussels.be/id/streetnode/7494","ENDSN_ID":"https://databrussels.be/id/streetnode/6923","STRNAMEFRE":"Avenue Brugmann","STRNAMEDUT":"Brugmannlaan","SLOPE":5.08,"LENGTH":66.3017667642545},"bbox":[148100.17885102,165929.17692548,148124.04652668,165991.0148684]},{"type":"Feature","id":"StreetAxes.fid--590544ac_1a02c121f93_5ec0","geometry":{"type":"LineString","coordinates":[[148052.29410798,165811.53240539],[148047.7520763,165800.11954394],[148024.58899364,165741.91716416],[148020.19987882,165729.39823385],[148017.28228363,165721.62947876],[148014.52720323,165718.94282223]]},"geometry_name":"GEOM","properties":{"INSPIRE_ID":"https://databrussels.be/id/streetaxe/86442","TYPE":"S","HIERARCHY":"MAR","LVL":0,"STARTSN_ID":"https://databrussels.be/id/streetnode/5671","ENDSN_ID":"https://databrussels.be/id/streetnode/5674","STRNAMEFRE":"Avenue Brugmann","STRNAMEDUT":"Brugmannlaan","SLOPE":1.8,"LENGTH":100.338451490098},"bbox":[148014.52720323,165718.94282223,148052.29410798,165811.53240539]},{"type":"Feature","id":"StreetAxes.fid--590544ac_1a02c121f93_5f03","geometry":{"type":"LineString","coordinates":[[148199.98044718,165862.93017352],[148205.01942324,165852.8333547],[148233.35,165813.785],[148238.105,165805.865],[148249.4131743,165788.12541967],[148260.49407853,165767.34750103],[148267.36347039,165752.78173185],[148278.95830378,165734.3667504],[148285.08387614,165724.61249657],[148290.42187491,165713.67723443],[148295.45359506,165698.71779582],[148299.391463,165686.60152536],[148303.15431459,165677.28468201],[148308.31729701,165669.89244481],[148314.57413163,165664.51229583],[148318.94954046,165662.45646655],[148323.14993293,165661.49416348],[148328.49998661,165661.47992006],[148338.18048774,165662.60443432],[148340.07088474,165662.52185204]]},"geometry_name":"GEOM","properties":{"INSPIRE_ID":"https://databrussels.be/id/streetaxe/86737","TYPE":"S","HIERARCHY":"DR","LVL":0,"STARTSN_ID":"https://databrussels.be/id/streetnode/5896","ENDSN_ID":"https://databrussels.be/id/streetnode/3246","STRNAMEFRE":"Chemin du Crabbegat","STRNAMEDUT":"Crabbegatweg","SLOPE":3.85,"LENGTH":256.874040155163},"bbox":[148199.98044718,165661.47992006,148340.07088474,165862.93017352]},{"type":"Feature","id":"StreetAxes.fid--590544ac_1a02c121f93_5ec2","geometry":{"type":"LineString","coordinates":[[148042.99950602,165817.67963365],[148039.30250821,165806.97339108],[148018.09998297,165754.33151509],[148013.22157005,165746.74920381],[148008.69087705,165737.89135128],[148007.07649218,165734.24400024],[148002.83488823,165728.10283982],[148002.44283197,165723.81328315]]},"geometry_name":"GEOM","properties":{"INSPIRE_ID":"https://databrussels.be/id/streetaxe/86738","TYPE":"S","HIERARCHY":"MAR","LVL":0,"STARTSN_ID":"https://databrussels.be/id/streetnode/5668","ENDSN_ID":"https://databrussels.be/id/streetnode/5677","STRNAMEFRE":"Avenue Brugmann","STRNAMEDUT":"Brugmannlaan","SLOPE":1.96,"LENGTH":102.803019172226},"bbox":[148002.44283197,165723.81328315,148042.99950602,165817.67963365]},{"type":"Feature","id":"StreetAxes.fid--590544ac_1a02c121f93_5f00","geometry":{"type":"LineString","coordinates":[[148128.32317963,165845.3930727],[148145.83556737,165850.35584321],[148177.75447975,165859.31357256]]},"geometry_name":"GEOM","properties":{"INSPIRE_ID":"https://databrussels.be/id/streetaxe/86739","TYPE":"S","HIERARCHY":"MAR","LVL":0,"STARTSN_ID":"https://databrussels.be/id/streetnode/5669","ENDSN_ID":"https://databrussels.be/id/streetnode/5680","STRNAMEFRE":"Avenue De Fré","STRNAMEDUT":"De Frélaan","SLOPE":0.56,"LENGTH":51.3540422232932},"bbox":[148128.32317963,165845.3930727,148177.75447975,165859.31357256]},{"type":"Feature","id":"StreetAxes.fid--590544ac_1a02c121f93_5ef1","geometry":{"type":"LineString","coordinates":[[148081.24168556,165847.30249735],[148091.65707178,165843.6551463],[148097.75165607,165843.15811958],[148107.94571533,165844.2783774],[148114.6985705,165845.52157282],[148128.32317963,165845.3930727]]},"geometry_name":"GEOM","properties":{"INSPIRE_ID":"https://databrussels.be/id/streetaxe/86747","TYPE":"S","HIERARCHY":"MAR","LVL":0,"STARTSN_ID":"https://databrussels.be/id/streetnode/5673","ENDSN_ID":"https://databrussels.be/id/streetnode/5669","STRNAMEFRE":"Avenue De Fré","STRNAMEDUT":"De Frélaan","SLOPE":3.13,"LENGTH":47.8973522280028},"bbox":[148081.24168556,165843.15811958,148128.32317963,165847.30249735]},{"type":"Feature","id":"StreetAxes.fid--590544ac_1a02c121f93_5efc","geometry":{"type":"LineString","coordinates":[[148119.8330249,165995.47548946],[148124.04652668,165991.0148684]]},"geometry_name":"GEOM","properties":{"INSPIRE_ID":"https://databrussels.be/id/streetaxe/86923","TYPE":"IC","HIERARCHY":"MAR","LVL":0,"STARTSN_ID":"https://databrussels.be/id/streetnode/7505","ENDSN_ID":"https://databrussels.be/id/streetnode/7494","STRNAMEFRE":"Avenue Brugmann","STRNAMEDUT":"Brugmannlaan","SLOPE":78.19,"LENGTH":6.13601968010869},"bbox":[148119.8330249,165991.0148684,148124.04652668,165995.47548946]},{"type":"Feature","id":"StreetAxes.fid--590544ac_1a02c121f93_5ec6","geometry":{"type":"LineString","coordinates":[[148042.99950602,165817.67963365],[148047.28344711,165814.84633709]]},"geometry_name":"GEOM","properties":{"INSPIRE_ID":"https://databrussels.be/id/streetaxe/89897","TYPE":"IC","HIERARCHY":"MAR","LVL":0,"STARTSN_ID":"https://databrussels.be/id/streetnode/5668","ENDSN_ID":"https://databrussels.be/id/streetnode/5682","STRNAMEFRE":"Avenue Brugmann","STRNAMEDUT":"Brugmannlaan","SLOPE":0.19,"LENGTH":5.13611922339381},"bbox":[148042.99950602,165814.84633709,148047.28344711,165817.67963365]},{"type":"Feature","id":"StreetAxes.fid--590544ac_1a02c121f93_5edc","geometry":{"type":"LineString","coordinates":[[147986.05133276,165701.16316932],[147992.56426144,165701.10300516],[147995.6888773,165700.53729357],[147998.5754272,165699.46541898],[148001.37270236,165697.91715568],[148004.08070277,165695.95205226],[148008.17580514,165691.23000939]]},"geometry_name":"GEOM","properties":{"INSPIRE_ID":"https://databrussels.be/id/streetaxe/89898","TYPE":"C","HIERARCHY":"MAR","LVL":0,"STARTSN_ID":"https://databrussels.be/id/streetnode/5691","ENDSN_ID":"https://databrussels.be/id/streetnode/5687","STRNAMEFRE":"Square Georges Marlow","STRNAMEDUT":"Georges Marlowsquare","SLOPE":2.15,"LENGTH":25.561205096117},"bbox":[147986.05133276,165691.23000939,148008.17580514,165701.16316932]},{"type":"Feature","id":"StreetAxes.fid--590544ac_1a02c121f93_5ee4","geometry":{"type":"LineString","coordinates":[[148065.90259943,165536.9173418],[148073.97784396,165519.31250687],[148079.907,165506.436]]},"geometry_name":"GEOM","properties":{"INSPIRE_ID":"https://databrussels.be/id/streetaxe/89900","TYPE":"SC","HIERARCHY":"IDR","LVL":0,"STARTSN_ID":"https://databrussels.be/id/streetnode/9889","ENDSN_ID":"https://databrussels.be/id/streetnode/9876","STRNAMEFRE":"Avenue Wolvendael","STRNAMEDUT":"Wolvendaellaan","SLOPE":6.17,"LENGTH":33.544537836806},"bbox":[148065.90259943,165506.436,148079.907,165536.9173418]},{"type":"Feature","id":"StreetAxes.fid--590544ac_1a02c121f93_5ee0","geometry":{"type":"LineString","coordinates":[[148009.12166109,165722.88704326],[148011.81339399,165721.334452],[148013.55750547,165719.95375149],[148014.52720323,165718.94282223]]},"geometry_name":"GEOM","properties":{"INSPIRE_ID":"https://databrussels.be/id/streetaxe/89901","TYPE":"IC","HIERARCHY":"MAR","LVL":0,"STARTSN_ID":"https://databrussels.be/id/streetnode/5688","ENDSN_ID":"https://databrussels.be/id/streetnode/5674","STRNAMEFRE":"Square Georges Marlow","STRNAMEDUT":"Georges Marlowsquare","SLOPE":0.15,"LENGTH":6.73269139079922},"bbox":[148009.12166109,165718.94282223,148014.52720323,165722.88704326]},{"type":"Feature","id":"StreetAxes.fid--590544ac_1a02c121f93_5ee6","geometry":{"type":"LineString","coordinates":[[148046.89761291,165588.88292716],[148056.03030121,165564.09701896],[148059.46525307,165555.60709164],[148061.19826484,165551.40911629],[148065.90259943,165536.9173418]]},"geometry_name":"GEOM","properties":{"INSPIRE_ID":"https://databrussels.be/id/streetaxe/89902","TYPE":"C","HIERARCHY":"IDR","LVL":0,"STARTSN_ID":"https://databrussels.be/id/streetnode/5681","ENDSN_ID":"https://databrussels.be/id/streetnode/9889","STRNAMEFRE":"Avenue Wolvendael","STRNAMEDUT":"Wolvendaellaan","SLOPE":6.38,"LENGTH":55.3512239525014},"bbox":[148046.89761291,165536.9173418,148065.90259943,165588.88292716]},{"type":"Feature","id":"StreetAxes.fid--590544ac_1a02c121f93_5ee9","geometry":{"type":"LineString","coordinates":[[148046.89761291,165588.88292716],[148049.8606187,165589.8355772]]},"geometry_name":"GEOM","properties":{"INSPIRE_ID":"https://databrussels.be/id/streetaxe/89903","TYPE":"I","HIERARCHY":"IDR","LVL":0,"STARTSN_ID":"https://databrussels.be/id/streetnode/5681","ENDSN_ID":"https://databrussels.be/id/streetnode/5670","STRNAMEFRE":"Avenue Wolvendael","STRNAMEDUT":"Wolvendaellaan","SLOPE":1.29,"LENGTH":3.11238581099399},"bbox":[148046.89761291,165588.88292716,148049.8606187,165589.8355772]},{"type":"Feature","id":"StreetAxes.fid--590544ac_1a02c121f93_5eda","geometry":{"type":"LineString","coordinates":[[148008.17580514,165691.23000939],[148007.58086409,165698.02063454],[148007.23348211,165702.81829605],[148007.2164774,165707.97350242],[148007.76062819,165712.49919514],[148008.45782139,165716.05509657],[148008.96718378,165717.90080922],[148009.12166109,165722.88704326]]},"geometry_name":"GEOM","properties":{"INSPIRE_ID":"https://databrussels.be/id/streetaxe/89904","TYPE":"C","HIERARCHY":"MAR","LVL":0,"STARTSN_ID":"https://databrussels.be/id/streetnode/5687","ENDSN_ID":"https://databrussels.be/id/streetnode/5688","STRNAMEFRE":"Square Georges Marlow","STRNAMEDUT":"Georges Marlowsquare","SLOPE":0.82,"LENGTH":31.8673207705642},"bbox":[148007.2164774,165691.23000939,148009.12166109,165722.88704326]},{"type":"Feature","id":"StreetAxes.fid--590544ac_1a02c121f93_5ecb","geometry":{"type":"LineString","coordinates":[[148057.60695216,165856.82426987],[148063.22480034,165854.56099609]]},"geometry_name":"GEOM","properties":{"INSPIRE_ID":"https://databrussels.be/id/streetaxe/89905","TYPE":"IC","HIERARCHY":"MAR","LVL":0,"STARTSN_ID":"https://databrussels.be/id/streetnode/5676","ENDSN_ID":"https://databrussels.be/id/streetnode/5689","STRNAMEFRE":"Avenue Brugmann","STRNAMEDUT":"Brugmannlaan","SLOPE":0.5,"LENGTH":6.05661839785247},"bbox":[148057.60695216,165854.56099609,148063.22480034,165856.82426987]},{"type":"Feature","id":"StreetAxes.fid--590544ac_1a02c121f93_5ed5","geometry":{"type":"LineString","coordinates":[[148008.17580514,165691.23000939],[148011.89368135,165688.08646844],[148026.61436484,165645.44187725],[148046.89761291,165588.88292716]]},"geometry_name":"GEOM","properties":{"INSPIRE_ID":"https://databrussels.be/id/streetaxe/90101","TYPE":"C","HIERARCHY":"IDR","LVL":0,"STARTSN_ID":"https://databrussels.be/id/streetnode/5687","ENDSN_ID":"https://databrussels.be/id/streetnode/5681","STRNAMEFRE":"Avenue Wolvendael","STRNAMEDUT":"Wolvendaellaan","SLOPE":4.95,"LENGTH":110.06855430144},"bbox":[148008.17580514,165588.88292716,148046.89761291,165691.23000939]},{"type":"Feature","id":"StreetAxes.fid--590544ac_1a02c121f93_5ec5","geometry":{"type":"LineString","coordinates":[[148047.28344711,165814.84633709],[148052.29410798,165811.53240539]]},"geometry_name":"GEOM","properties":{"INSPIRE_ID":"https://databrussels.be/id/streetaxe/90103","TYPE":"IC","HIERARCHY":"MAR","LVL":0,"STARTSN_ID":"https://databrussels.be/id/streetnode/5682","ENDSN_ID":"https://databrussels.be/id/streetnode/5671","STRNAMEFRE":"Avenue Brugmann","STRNAMEDUT":"Brugmannlaan","SLOPE":1.66,"LENGTH":6.00740090635478},"bbox":[148047.28344711,165811.53240539,148052.29410798,165814.84633709]},{"type":"Feature","id":"StreetAxes.fid--590544ac_1a02c121f93_5eed","geometry":{"type":"LineString","coordinates":[[148069.45719289,165852.05013958],[148081.24168556,165847.30249735]]},"geometry_name":"GEOM","properties":{"INSPIRE_ID":"https://databrussels.be/id/streetaxe/90104","TYPE":"I","HIERARCHY":"MAR","LVL":0,"STARTSN_ID":"https://databrussels.be/id/streetnode/5678","ENDSN_ID":"https://databrussels.be/id/streetnode/5673","STRNAMEFRE":"Avenue Brugmann","STRNAMEDUT":"Brugmannlaan","SLOPE":5.67,"LENGTH":12.7048956810446},"bbox":[148069.45719289,165847.30249735,148081.24168556,165852.05013958]},{"type":"Feature","id":"StreetAxes.fid--590544ac_1a02c121f93_5ed4","geometry":{"type":"LineString","coordinates":[[148025.16022892,165638.7484351],[148028.34251435,165631.28501955],[148037.60107902,165605.860447],[148044.04393694,165587.96542828]]},"geometry_name":"GEOM","properties":{"INSPIRE_ID":"https://databrussels.be/id/streetaxe/90105","TYPE":"SC","HIERARCHY":"IDR","LVL":0,"STARTSN_ID":"https://databrussels.be/id/streetnode/5685","ENDSN_ID":"https://databrussels.be/id/streetnode/5690","STRNAMEFRE":"Avenue Wolvendael","STRNAMEDUT":"Wolvendaellaan","SLOPE":6.22,"LENGTH":54.1909572919536},"bbox":[148025.16022892,165587.96542828,148044.04393694,165638.7484351]},{"type":"Feature","id":"StreetAxes.fid--590544ac_1a02c121f93_5ef6","geometry":{"type":"LineString","coordinates":[[148095.11238589,165933.73970178],[148100.17885102,165929.17692548]]},"geometry_name":"GEOM","properties":{"INSPIRE_ID":"https://databrussels.be/id/streetaxe/90540","TYPE":"IC","HIERARCHY":"MAR","LVL":0,"STARTSN_ID":"https://databrussels.be/id/streetnode/6922","ENDSN_ID":"https://databrussels.be/id/streetnode/6923","STRNAMEFRE":"Avenue Brugmann","STRNAMEDUT":"Brugmannlaan","SLOPE":2.79,"LENGTH":6.81821064869096},"bbox":[148095.11238589,165929.17692548,148100.17885102,165933.73970178]},{"type":"Feature","id":"StreetAxes.fid--590544ac_1a02c121f93_5edb","geometry":{"type":"LineString","coordinates":[[148015.36889022,165696.08758584],[148014.31632735,165694.6713069],[148011.29019734,165692.50303868],[148008.17580514,165691.23000939]]},"geometry_name":"GEOM","properties":{"INSPIRE_ID":"https://databrussels.be/id/streetaxe/90792","TYPE":"IC","HIERARCHY":"MAR","LVL":0,"STARTSN_ID":"https://databrussels.be/id/streetnode/5672","ENDSN_ID":"https://databrussels.be/id/streetnode/5687","STRNAMEFRE":"Square Georges Marlow","STRNAMEDUT":"Georges Marlowsquare","SLOPE":1.36,"LENGTH":8.85185243543967},"bbox":[148008.17580514,165691.23000939,148015.36889022,165696.08758584]},{"type":"Feature","id":"StreetAxes.fid--590544ac_1a02c121f93_5f01","geometry":{"type":"LineString","coordinates":[[148177.75447975,165859.31357256],[148199.98044718,165862.93017352]]},"geometry_name":"GEOM","properties":{"INSPIRE_ID":"https://databrussels.be/id/streetaxe/90793","TYPE":"I","HIERARCHY":"MAR","LVL":0,"STARTSN_ID":"https://databrussels.be/id/streetnode/5680","ENDSN_ID":"https://databrussels.be/id/streetnode/5896","STRNAMEFRE":"Avenue De Fré","STRNAMEDUT":"De Frélaan","SLOPE":0.27,"LENGTH":22.5182910206032},"bbox":[148177.75447975,165859.31357256,148199.98044718,165862.93017352]},{"type":"Feature","id":"StreetAxes.fid--590544ac_1a02c121f93_5ee5","geometry":{"type":"LineString","coordinates":[[148044.04393694,165587.96542828],[148058.44865334,165550.29086425],[148065.90259943,165536.9173418]]},"geometry_name":"GEOM","properties":{"INSPIRE_ID":"https://databrussels.be/id/streetaxe/90794","TYPE":"SC","HIERARCHY":"IDR","LVL":0,"STARTSN_ID":"https://databrussels.be/id/streetnode/5690","ENDSN_ID":"https://databrussels.be/id/streetnode/9889","STRNAMEFRE":"Avenue Wolvendael","STRNAMEDUT":"Wolvendaellaan","SLOPE":6.49,"LENGTH":55.6449923869304},"bbox":[148044.04393694,165536.9173418,148065.90259943,165587.96542828]},{"type":"Feature","id":"StreetAxes.fid--590544ac_1a02c121f93_5ee8","geometry":{"type":"LineString","coordinates":[[148044.04393694,165587.96542828],[148046.89761291,165588.88292716]]},"geometry_name":"GEOM","properties":{"INSPIRE_ID":"https://databrussels.be/id/streetaxe/90795","TYPE":"IC","HIERARCHY":"IDR","LVL":0,"STARTSN_ID":"https://databrussels.be/id/streetnode/5690","ENDSN_ID":"https://databrussels.be/id/streetnode/5681","STRNAMEFRE":"Avenue Wolvendael","STRNAMEDUT":"Wolvendaellaan","SLOPE":2.67,"LENGTH":2.99754411179636},"bbox":[148044.04393694,165587.96542828,148046.89761291,165588.88292716]},{"type":"Feature","id":"StreetAxes.fid--590544ac_1a02c121f93_5ee1","geometry":{"type":"LineString","coordinates":[[148002.44283197,165723.81328315],[148005.71937527,165723.71907883],[148009.12166109,165722.88704326]]},"geometry_name":"GEOM","properties":{"INSPIRE_ID":"https://databrussels.be/id/streetaxe/90796","TYPE":"IC","HIERARCHY":"MAR","LVL":0,"STARTSN_ID":"https://databrussels.be/id/streetnode/5677","ENDSN_ID":"https://databrussels.be/id/streetnode/5688","STRNAMEFRE":"Square Georges Marlow","STRNAMEDUT":"Georges Marlowsquare","SLOPE":1.33,"LENGTH":6.7804437550577},"bbox":[148002.44283197,165722.88704326,148009.12166109,165723.81328315]},{"type":"Feature","id":"StreetAxes.fid--590544ac_1a02c121f93_5efb","geometry":{"type":"LineString","coordinates":[[148116.29400388,165999.22207187],[148119.8330249,165995.47548946]]},"geometry_name":"GEOM","properties":{"INSPIRE_ID":"https://databrussels.be/id/streetaxe/91535","TYPE":"IC","HIERARCHY":"MAR","LVL":0,"STARTSN_ID":"https://databrussels.be/id/streetnode/6775","ENDSN_ID":"https://databrussels.be/id/streetnode/7505","STRNAMEFRE":"Avenue Brugmann","STRNAMEDUT":"Brugmannlaan","SLOPE":99.63,"LENGTH":5.15378982258469},"bbox":[148116.29400388,165995.47548946,148119.8330249,165999.22207187]},{"type":"Feature","id":"StreetAxes.fid--590544ac_1a02c121f93_5efd","geometry":{"type":"LineString","coordinates":[[148183.27493007,166153.66241465],[148128.04312061,166015.93971479],[148119.8330249,165995.47548946]]},"geometry_name":"GEOM","properties":{"INSPIRE_ID":"https://databrussels.be/id/streetaxe/91546","TYPE":"C","HIERARCHY":"MAR","LVL":0,"STARTSN_ID":"https://databrussels.be/id/streetnode/7497","ENDSN_ID":"https://databrussels.be/id/streetnode/7505","STRNAMEFRE":"Avenue Brugmann","STRNAMEDUT":"Brugmannlaan","SLOPE":7.92,"LENGTH":170.434675735496},"bbox":[148119.8330249,165995.47548946,148183.27493007,166153.66241465]},{"type":"Feature","id":"StreetAxes.fid--590544ac_1a02c121f93_5ef5","geometry":{"type":"LineString","coordinates":[[148119.8330249,165995.47548946],[148113.2959503,165979.18138372],[148095.11238589,165933.73970178]]},"geometry_name":"GEOM","properties":{"INSPIRE_ID":"https://databrussels.be/id/streetaxe/91549","TYPE":"C","HIERARCHY":"MAR","LVL":0,"STARTSN_ID":"https://databrussels.be/id/streetnode/7505","ENDSN_ID":"https://databrussels.be/id/streetnode/6922","STRNAMEFRE":"Avenue Brugmann","STRNAMEDUT":"Brugmannlaan","SLOPE":2.44,"LENGTH":66.5012643736256},"bbox":[148095.11238589,165933.73970178,148119.8330249,165995.47548946]},{"type":"Feature","id":"StreetAxes.fid--590544ac_1a02c121f93_5ef3","geometry":{"type":"LineString","coordinates":[[148091.19108708,165937.2711599],[148095.11238589,165933.73970178]]},"geometry_name":"GEOM","properties":{"INSPIRE_ID":"https://databrussels.be/id/streetaxe/91717","TYPE":"IC","HIERARCHY":"MAR","LVL":0,"STARTSN_ID":"https://databrussels.be/id/streetnode/6924","ENDSN_ID":"https://databrussels.be/id/streetnode/6922","STRNAMEFRE":"Avenue Brugmann","STRNAMEDUT":"Brugmannlaan","SLOPE":1.7,"LENGTH":5.27709965962625},"bbox":[148091.19108708,165933.73970178,148095.11238589,165937.2711599]},{"type":"Feature","id":"StreetAxes.fid--590544ac_1a02c121f93_5ec1","geometry":{"type":"LineString","coordinates":[[148009.12166109,165722.88704326],[148018.93763786,165744.00798997],[148047.28344711,165814.84633709]]},"geometry_name":"GEOM","properties":{"INSPIRE_ID":"https://databrussels.be/id/streetaxe/92505","TYPE":"C","HIERARCHY":"MAR","LVL":0,"STARTSN_ID":"https://databrussels.be/id/streetnode/5688","ENDSN_ID":"https://databrussels.be/id/streetnode/5682","STRNAMEFRE":"Avenue Brugmann","STRNAMEDUT":"Brugmannlaan","SLOPE":1.93,"LENGTH":99.589632598373},"bbox":[148009.12166109,165722.88704326,148047.28344711,165814.84633709]},{"type":"Feature","id":"StreetAxes.fid--590544ac_1a02c121f93_5ede","geometry":{"type":"LineString","coordinates":[[147986.05133276,165701.16316932],[147989.14978336,165705.78351957],[147990.92869593,165707.00568506],[147994.62691726,165709.58982125],[147998.75906233,165713.23079209],[148001.90493408,165716.27627704],[148004.54486828,165719.25548298],[148009.12166109,165722.88704326]]},"geometry_name":"GEOM","properties":{"INSPIRE_ID":"https://databrussels.be/id/streetaxe/92506","TYPE":"C","HIERARCHY":"MAR","LVL":0,"STARTSN_ID":"https://databrussels.be/id/streetnode/5691","ENDSN_ID":"https://databrussels.be/id/streetnode/5688","STRNAMEFRE":"Square Georges Marlow","STRNAMEDUT":"Georges Marlowsquare","SLOPE":0.91,"LENGTH":31.9420113935014},"bbox":[147986.05133276,165701.16316932,148009.12166109,165722.88704326]},{"type":"Feature","id":"StreetAxes.fid--590544ac_1a02c121f93_5eeb","geometry":{"type":"LineString","coordinates":[[148063.22480034,165854.56099609],[148065.74335376,165860.86777902],[148067.6391871,165865.48183728],[148086.16638207,165911.35672091],[148095.11238589,165933.73970178]]},"geometry_name":"GEOM","properties":{"INSPIRE_ID":"https://databrussels.be/id/streetaxe/92507","TYPE":"C","HIERARCHY":"MAR","LVL":0,"STARTSN_ID":"https://databrussels.be/id/streetnode/5689","ENDSN_ID":"https://databrussels.be/id/streetnode/6922","STRNAMEFRE":"Avenue Brugmann","STRNAMEDUT":"Brugmannlaan","SLOPE":4.73,"LENGTH":85.3588281739629},"bbox":[148063.22480034,165854.56099609,148095.11238589,165933.73970178]},{"type":"Feature","id":"StreetAxes.fid--590544ac_1a02c121f93_5ed8","geometry":{"type":"LineString","coordinates":[[148025.16022892,165638.7484351],[148020.22139195,165650.99624297],[148008.15165159,165685.57190418],[148008.17580514,165691.23000939]]},"geometry_name":"GEOM","properties":{"INSPIRE_ID":"https://databrussels.be/id/streetaxe/92508","TYPE":"SC","HIERARCHY":"IDR","LVL":0,"STARTSN_ID":"https://databrussels.be/id/streetnode/5685","ENDSN_ID":"https://databrussels.be/id/streetnode/5687","STRNAMEFRE":"Square Georges Marlow","STRNAMEDUT":"Georges Marlowsquare","SLOPE":3.6,"LENGTH":55.4860332328389},"bbox":[148008.15165159,165638.7484351,148025.16022892,165691.23000939]},{"type":"Feature","id":"StreetAxes.fid--590544ac_1a02c121f93_5eca","geometry":{"type":"LineString","coordinates":[[148063.22480034,165854.56099609],[148069.45719289,165852.05013958]]},"geometry_name":"GEOM","properties":{"INSPIRE_ID":"https://databrussels.be/id/streetaxe/92680","TYPE":"IC","HIERARCHY":"MAR","LVL":0,"STARTSN_ID":"https://databrussels.be/id/streetnode/5689","ENDSN_ID":"https://databrussels.be/id/streetnode/5678","STRNAMEFRE":"Avenue Brugmann","STRNAMEDUT":"Brugmannlaan","SLOPE":1.93,"LENGTH":6.71916046066341},"bbox":[148063.22480034,165852.05013958,148069.45719289,165854.56099609]},{"type":"Feature","id":"StreetAxes.fid--590544ac_1a02c121f93_5ed6","geometry":{"type":"LineString","coordinates":[[148049.8606187,165589.8355772],[148043.60945495,165607.37474899],[148038.81837729,165621.54731305],[148026.91759309,165661.73989697],[148020.67906772,165681.32630627],[148018.87955561,165687.76538825],[148018.39993772,165692.45853408],[148015.36889022,165696.08758584]]},"geometry_name":"GEOM","properties":{"INSPIRE_ID":"https://databrussels.be/id/streetaxe/92681","TYPE":"I","HIERARCHY":"IDR","LVL":0,"STARTSN_ID":"https://databrussels.be/id/streetnode/5670","ENDSN_ID":"https://databrussels.be/id/streetnode/5672","STRNAMEFRE":"Avenue Wolvendael","STRNAMEDUT":"Wolvendaellaan","SLOPE":4.72,"LENGTH":112.18548336953},"bbox":[148015.36889022,165589.8355772,148049.8606187,165696.08758584]},{"type":"Feature","id":"StreetAxes.fid--590544ac_1a02c121f93_5ec7","geometry":{"type":"LineString","coordinates":[[148047.28344711,165814.84633709],[148059.8961449,165846.22561309],[148063.22480034,165854.56099609]]},"geometry_name":"GEOM","properties":{"INSPIRE_ID":"https://databrussels.be/id/streetaxe/92683","TYPE":"C","HIERARCHY":"MAR","LVL":0,"STARTSN_ID":"https://databrussels.be/id/streetnode/5682","ENDSN_ID":"https://databrussels.be/id/streetnode/5689","STRNAMEFRE":"Avenue Brugmann","STRNAMEDUT":"Brugmannlaan","SLOPE":4.09,"LENGTH":42.7946539792092},"bbox":[148047.28344711,165814.84633709,148063.22480034,165854.56099609]},{"type":"Feature","id":"StreetAxes.fid--590544ac_1a02c121f93_5eef","geometry":{"type":"LineString","coordinates":[[148079.907,165506.436],[148085.598,165494.1],[148098.23,165467.375],[148127.894,165410.936],[148151.199,165370.614],[148179.613,165325.454],[148195.258,165302.785],[148218.139,165273.77],[148227.26802795,165264.84922297]]},"geometry_name":"GEOM","properties":{"INSPIRE_ID":"https://databrussels.be/id/streetaxe/92699","TYPE":"SC","HIERARCHY":"IDR","LVL":0,"STARTSN_ID":"https://databrussels.be/id/streetnode/9876","ENDSN_ID":"https://databrussels.be/id/streetnode/11273","STRNAMEFRE":"Avenue Wolvendael","STRNAMEDUT":"Wolvendaellaan","SLOPE":6.52,"LENGTH":284.091908364235},"bbox":[148079.907,165264.84922297,148227.26802795,165506.436]},{"type":"Feature","id":"StreetAxes.fid--590544ac_1a02c121f93_5f07","geometry":{"type":"LineString","coordinates":[[148340.07088474,165662.52185204],[148348.36331898,165667.62721063],[148354.92643222,165670.2954146],[148364.6835939,165673.61973429],[148374.7470342,165677.33772342],[148383.7166223,165681.44938198],[148395.66148839,165687.66061088],[148406.60001046,165692.25342098],[148409.88156708,165693.43442929],[148412.90059917,165694.22176817],[148415.74461491,165694.7029197],[148419.41995832,165694.87788389],[148425.76430112,165694.35299131],[148432.32741436,165693.171983],[148439.15305213,165691.07241267],[148444.97234587,165688.31672661],[148449.91655784,165685.73600474],[148458.2817926,165680.62650351],[148469.65785554,165670.52232129],[148490.87858835,165652.06359879],[148497.0479148,165643.70905851],[148502.12338904,165631.02415442],[148511.74928846,165604.12340955],[148515.03084508,165597.56225227],[148521.59395832,165587.63303424],[148534.98270933,165573.6358987],[148545.96498548,165565.23761737],[148554.01573772,165560.07617364],[148565.56681703,165552.72767748],[148575.32397871,165545.07299398],[148582.605,165537.365]]},"geometry_name":"GEOM","properties":{"INSPIRE_ID":"https://databrussels.be/id/streetaxe/94479","TYPE":"S","HIERARCHY":null,"LVL":0,"STARTSN_ID":"https://databrussels.be/id/streetnode/3246","ENDSN_ID":"https://databrussels.be/id/streetnode/12019","STRNAMEFRE":"Chemin du Crabbegat","STRNAMEDUT":"Crabbegatweg","SLOPE":6.46,"LENGTH":322.87018072335},"bbox":[148340.07088474,165537.365,148582.605,165694.87788389]},{"type":"Feature","id":"StreetAxes.fid--590544ac_1a02c121f93_5f08","geometry":{"type":"LineString","coordinates":[[148340.07088474,165662.52185204],[148347.725,165658.58],[148357.67552112,165653.69263964],[148367.25766645,165648.57493696],[148375.61469731,165642.88860065],[148380.60266337,165638.55823684],[148386.59697346,165631.38470487],[148392.0662345,165623.0301646],[148396.44164332,165616.86267675],[148402.04216662,165610.30151946],[148406.37382136,165604.04654951],[148409.78664025,165599.06006998],[148412.785,165596.435]]},"geometry_name":"GEOM","properties":{"INSPIRE_ID":"https://databrussels.be/id/streetaxe/95031","TYPE":"S","HIERARCHY":null,"LVL":0,"STARTSN_ID":"https://databrussels.be/id/streetnode/3246","ENDSN_ID":"https://databrussels.be/id/streetnode/3131","STRNAMEFRE":"Avenue Paul Stroobant","STRNAMEDUT":"Paul Stroobantlaan","SLOPE":14.66,"LENGTH":100.430467294511},"bbox":[148340.07088474,165596.435,148412.785,165662.52185204]}],"numberReturned":74,"grand_bruxelles_source":{"authority":"Paradigm / Brussels-Capital Region","service":"https://geoservices-urbis.irisnet.be/geoserver/urbisvector/wfs","layer":"urbisvector:StreetAxes","crs":"EPSG:31370","bbox":[148000.0,165500.0,148500.0,166000.0],"cell_id":"bxl-e148000-n165500-s500","ownership":"bbox_intersection_source_unclipped"}}
