{"type":"FeatureCollection","totalFeatures":63,"numberMatched":63,"timeStamp":"2026-08-22T13:05:26.782Z","crs":{"type":"name","properties":{"name":"urn:ogc:def:crs:EPSG::31370"}},"bbox":[147370.5,168904.2369941,148108.94423775,169642.48029224],"features":[{"type":"Feature","id":"StreetAxes.fid--578fcb21_1a029903b37_46ea","geometry":{"type":"LineString","coordinates":[[147826.84,169293.649],[147834.305,169287.565],[147935.565,169205.365],[147941.55316719,169200.50397548]]},"geometry_name":"GEOM","properties":{"INSPIRE_ID":"https://databrussels.be/id/streetaxe/100252","TYPE":"S","HIERARCHY":"DR","LVL":0,"STARTSN_ID":"https://databrussels.be/id/streetnode/1367","ENDSN_ID":"https://databrussels.be/id/streetnode/3204","STRNAMEFRE":"Rue de Suède","STRNAMEDUT":"Zwedenstraat","SLOPE":1.19,"LENGTH":147.76708480254},"bbox":[147826.84,169200.50397548,147941.55316719,169293.649]},{"type":"Feature","id":"StreetAxes.fid--578fcb21_1a029903b37_4705","geometry":{"type":"LineString","coordinates":[[147804.394,169077.344],[147809.49,169072.74],[147904.26,168959.115],[147908.10114356,168954.50964032]]},"geometry_name":"GEOM","properties":{"INSPIRE_ID":"https://databrussels.be/id/streetaxe/100255","TYPE":"S","HIERARCHY":"DR","LVL":0,"STARTSN_ID":"https://databrussels.be/id/streetnode/4064","ENDSN_ID":"https://databrussels.be/id/streetnode/10143","STRNAMEFRE":"Rue Coenraets","STRNAMEDUT":"Coenraetsstraat","SLOPE":1.7,"LENGTH":160.824161112593},"bbox":[147804.394,168954.50964032,147908.10114356,169077.344]},{"type":"Feature","id":"StreetAxes.fid--578fcb21_1a029903b37_46f1","geometry":{"type":"LineString","coordinates":[[148037.05887528,169045.35112185],[148032.21899483,169042.01420734],[147980.512,169004.523],[147975.48690898,169000.92982075]]},"geometry_name":"GEOM","properties":{"INSPIRE_ID":"https://databrussels.be/id/streetaxe/100258","TYPE":"S","HIERARCHY":"DR","LVL":0,"STARTSN_ID":"https://databrussels.be/id/streetnode/10141","ENDSN_ID":"https://databrussels.be/id/streetnode/3962","STRNAMEFRE":"Chaussée de Forest","STRNAMEDUT":"Vorstse Steenweg","SLOPE":1.12,"LENGTH":75.9249524233093},"bbox":[147975.48690898,169000.92982075,148037.05887528,169045.35112185]},{"type":"Feature","id":"StreetAxes.fid--578fcb21_1a029903b37_46ec","geometry":{"type":"LineString","coordinates":[[147863.67,169130.704],[147868.425,169126.915],[147970.88601255,169006.34392897],[147975.48690898,169000.92982075]]},"geometry_name":"GEOM","properties":{"INSPIRE_ID":"https://databrussels.be/id/streetaxe/100260","TYPE":"S","HIERARCHY":"DR","LVL":0,"STARTSN_ID":"https://databrussels.be/id/streetnode/173","ENDSN_ID":"https://databrussels.be/id/streetnode/3962","STRNAMEFRE":"Rue Joseph Claes","STRNAMEDUT":"Joseph Claesstraat","SLOPE":2.45,"LENGTH":171.411550873766},"bbox":[147863.67,169000.92982075,147975.48690898,169130.704]},{"type":"Feature","id":"StreetAxes.fid--578fcb21_1a029903b37_46ed","geometry":{"type":"LineString","coordinates":[[147975.48690898,169000.92982075],[147969.13589156,168996.38854103],[147960.03916424,168991.07806126],[147913.27771483,168958.2357869],[147908.10114356,168954.50964032]]},"geometry_name":"GEOM","properties":{"INSPIRE_ID":"https://databrussels.be/id/streetaxe/100261","TYPE":"S","HIERARCHY":"DR","LVL":0,"STARTSN_ID":"https://databrussels.be/id/streetnode/3962","ENDSN_ID":"https://databrussels.be/id/streetnode/10143","STRNAMEFRE":"Chaussée de Forest","STRNAMEDUT":"Vorstse Steenweg","SLOPE":2.51,"LENGTH":81.8614804834486},"bbox":[147908.10114356,168954.50964032,147975.48690898,169000.92982075]},{"type":"Feature","id":"StreetAxes.fid--578fcb21_1a029903b37_4704","geometry":{"type":"LineString","coordinates":[[147763.618,169211.85],[147770.985,169205.855],[147857.47,169135.645],[147863.67,169130.704]]},"geometry_name":"GEOM","properties":{"INSPIRE_ID":"https://databrussels.be/id/streetaxe/70136","TYPE":"S","HIERARCHY":"DR","LVL":0,"STARTSN_ID":"https://databrussels.be/id/streetnode/3679","ENDSN_ID":"https://databrussels.be/id/streetnode/173","STRNAMEFRE":"Rue Joseph Claes","STRNAMEDUT":"Joseph Claesstraat","SLOPE":1.26,"LENGTH":128.822193046602},"bbox":[147763.618,169130.704,147863.67,169211.85]},{"type":"Feature","id":"StreetAxes.fid--578fcb21_1a029903b37_4706","geometry":{"type":"LineString","coordinates":[[147863.67,169130.704],[147858.85,169126.45],[147808.57,169081.87],[147804.394,169077.344]]},"geometry_name":"GEOM","properties":{"INSPIRE_ID":"https://databrussels.be/id/streetaxe/70676","TYPE":"S","HIERARCHY":"DR","LVL":0,"STARTSN_ID":"https://databrussels.be/id/streetnode/173","ENDSN_ID":"https://databrussels.be/id/streetnode/4064","STRNAMEFRE":"Rue Emile Feron","STRNAMEDUT":"Emile Feronstraat","SLOPE":0.76,"LENGTH":79.7841090723135},"bbox":[147804.394,169077.344,147863.67,169130.704]},{"type":"Feature","id":"StreetAxes.fid--578fcb21_1a029903b37_46ce","geometry":{"type":"LineString","coordinates":[[147886.213,169370.236],[147893.78,169364.05],[148009.45,169270.92],[148014.804,169265.062]]},"geometry_name":"GEOM","properties":{"INSPIRE_ID":"https://databrussels.be/id/streetaxe/70742","TYPE":"S","HIERARCHY":"DR","LVL":0,"STARTSN_ID":"https://databrussels.be/id/streetnode/35","ENDSN_ID":"https://databrussels.be/id/streetnode/2750","STRNAMEFRE":"Rue de Hollande","STRNAMEDUT":"Hollandstraat","SLOPE":1.87,"LENGTH":166.211501224428},"bbox":[147886.213,169265.062,148014.804,169370.236]},{"type":"Feature","id":"StreetAxes.fid--578fcb21_1a029903b37_46d2","geometry":{"type":"LineString","coordinates":[[147945.64,169447.213],[147952.316,169441.858],[148081.486,169337.426],[148087.666,169332.673]]},"geometry_name":"GEOM","properties":{"INSPIRE_ID":"https://databrussels.be/id/streetaxe/70743","TYPE":"S","HIERARCHY":"DC","LVL":0,"STARTSN_ID":"https://databrussels.be/id/streetnode/2888","ENDSN_ID":"https://databrussels.be/id/streetnode/938","STRNAMEFRE":"Rue d'Angleterre","STRNAMEDUT":"Engelandstraat","SLOPE":2.23,"LENGTH":182.459882973051},"bbox":[147945.64,169332.673,148087.666,169447.213]},{"type":"Feature","id":"StreetAxes.fid--578fcb21_1a029903b37_46ff","geometry":{"type":"LineString","coordinates":[[147763.618,169211.85],[147758.78,169205.62],[147720.495,169155.825],[147715.542,169149.484]]},"geometry_name":"GEOM","properties":{"INSPIRE_ID":"https://databrussels.be/id/streetaxe/71479","TYPE":"S","HIERARCHY":"DC","LVL":0,"STARTSN_ID":"https://databrussels.be/id/streetnode/3679","ENDSN_ID":"https://databrussels.be/id/streetnode/1767","STRNAMEFRE":"Rue de Mérode","STRNAMEDUT":"de Mérodestraat","SLOPE":0.58,"LENGTH":78.7455485753554},"bbox":[147715.542,169149.484,147763.618,169211.85]},{"type":"Feature","id":"StreetAxes.fid--578fcb21_1a029903b37_4700","geometry":{"type":"LineString","coordinates":[[147715.542,169149.484],[147722.995,169143.415],[147798.607,169082.572],[147804.394,169077.344]]},"geometry_name":"GEOM","properties":{"INSPIRE_ID":"https://databrussels.be/id/streetaxe/72039","TYPE":"S","HIERARCHY":"DR","LVL":0,"STARTSN_ID":"https://databrussels.be/id/streetnode/1767","ENDSN_ID":"https://databrussels.be/id/streetnode/4064","STRNAMEFRE":"Rue Coenraets","STRNAMEDUT":"Coenraetsstraat","SLOPE":1.28,"LENGTH":114.462020063158},"bbox":[147715.542,169077.344,147804.394,169149.484]},{"type":"Feature","id":"StreetAxes.fid--578fcb21_1a029903b37_4703","geometry":{"type":"LineString","coordinates":[[147826.84,169293.649],[147821.815,169287.18],[147768.495,169218.13],[147763.618,169211.85]]},"geometry_name":"GEOM","properties":{"INSPIRE_ID":"https://databrussels.be/id/streetaxe/72040","TYPE":"S","HIERARCHY":"DC","LVL":0,"STARTSN_ID":"https://databrussels.be/id/streetnode/1367","ENDSN_ID":"https://databrussels.be/id/streetnode/3679","STRNAMEFRE":"Rue de Mérode","STRNAMEDUT":"de Mérodestraat","SLOPE":0.53,"LENGTH":103.383310093299},"bbox":[147763.618,169211.85,147826.84,169293.649]},{"type":"Feature","id":"StreetAxes.fid--578fcb21_1a029903b37_46f0","geometry":{"type":"LineString","coordinates":[[148014.804,169265.062],[148008.778,169259.762],[147962.92763095,169218.63036028],[147957.07431462,169213.66651813]]},"geometry_name":"GEOM","properties":{"INSPIRE_ID":"https://databrussels.be/id/streetaxe/72436","TYPE":"S","HIERARCHY":"DR","LVL":0,"STARTSN_ID":"https://databrussels.be/id/streetnode/2750","ENDSN_ID":"https://databrussels.be/id/streetnode/906","STRNAMEFRE":"Rue Emile Feron","STRNAMEDUT":"Emile Feronstraat","SLOPE":1.33,"LENGTH":77.2958365533781},"bbox":[147957.07431462,169213.66651813,148014.804,169265.062]},{"type":"Feature","id":"StreetAxes.fid--578fcb21_1a029903b37_46d0","geometry":{"type":"LineString","coordinates":[[147886.213,169370.236],[147881.385,169363.96],[147831.755,169299.975],[147826.84,169293.649]]},"geometry_name":"GEOM","properties":{"INSPIRE_ID":"https://databrussels.be/id/streetaxe/72561","TYPE":"S","HIERARCHY":"DC","LVL":0,"STARTSN_ID":"https://databrussels.be/id/streetnode/35","ENDSN_ID":"https://databrussels.be/id/streetnode/1367","STRNAMEFRE":"Rue de Mérode","STRNAMEDUT":"de Mérodestraat","SLOPE":0.03,"LENGTH":96.9057985687683},"bbox":[147826.84,169293.649,147886.213,169370.236]},{"type":"Feature","id":"StreetAxes.fid--578fcb21_1a029903b37_46de","geometry":{"type":"LineString","coordinates":[[147998.057,169515.18],[147992.29,169507.485],[147949.918,169452.737],[147945.64,169447.213]]},"geometry_name":"GEOM","properties":{"INSPIRE_ID":"https://databrussels.be/id/streetaxe/72562","TYPE":"S","HIERARCHY":"DC","LVL":0,"STARTSN_ID":"https://databrussels.be/id/streetnode/1768","ENDSN_ID":"https://databrussels.be/id/streetnode/2888","STRNAMEFRE":"Rue de Mérode","STRNAMEDUT":"de Mérodestraat","SLOPE":0.33,"LENGTH":85.8325802704542},"bbox":[147945.64,169447.213,147998.057,169515.18]},{"type":"Feature","id":"StreetAxes.fid--578fcb21_1a029903b37_46d9","geometry":{"type":"LineString","coordinates":[[147945.64,169447.213],[147939.986,169439.912],[147891.09,169376.575],[147886.213,169370.236]]},"geometry_name":"GEOM","properties":{"INSPIRE_ID":"https://databrussels.be/id/streetaxe/73164","TYPE":"S","HIERARCHY":"DC","LVL":0,"STARTSN_ID":"https://databrussels.be/id/streetnode/2888","ENDSN_ID":"https://databrussels.be/id/streetnode/35","STRNAMEFRE":"Rue de Mérode","STRNAMEDUT":"de Mérodestraat","SLOPE":0.13,"LENGTH":97.2472674930891},"bbox":[147886.213,169370.236,147945.64,169447.213]},{"type":"Feature","id":"StreetAxes.fid--578fcb21_1a029903b37_46eb","geometry":{"type":"LineString","coordinates":[[147941.55316719,169200.50397548],[147934.62043001,169194.62474206],[147868.48,169134.95],[147863.67,169130.704]]},"geometry_name":"GEOM","properties":{"INSPIRE_ID":"https://databrussels.be/id/streetaxe/74440","TYPE":"S","HIERARCHY":"DR","LVL":0,"STARTSN_ID":"https://databrussels.be/id/streetnode/3204","ENDSN_ID":"https://databrussels.be/id/streetnode/173","STRNAMEFRE":"Rue Emile Feron","STRNAMEDUT":"Emile Feronstraat","SLOPE":0.67,"LENGTH":104.588133397082},"bbox":[147863.67,169130.704,147941.55316719,169200.50397548]},{"type":"Feature","id":"StreetAxes.fid--578fcb21_1a029903b37_46f5","geometry":{"type":"LineString","coordinates":[[147608.83265438,169212.10160571],[147648.54266519,169261.04483501],[147660.14195752,169275.40007886],[147675.76351028,169298.25713744],[147703.52333603,169332.5330861],[147714.13331447,169342.50037789],[147727.8868153,169359.3888731]]},"geometry_name":"GEOM","properties":{"INSPIRE_ID":"https://databrussels.be/id/streetaxe/75069","TYPE":"S","HIERARCHY":"MAR","LVL":0,"STARTSN_ID":"https://databrussels.be/id/streetnode/7980","ENDSN_ID":"https://databrussels.be/id/streetnode/7604","STRNAMEFRE":"Avenue Fonsny","STRNAMEDUT":"Fonsnylaan","SLOPE":0.27,"LENGTH":189.612451437418},"bbox":[147608.83265438,169212.10160571,147727.8868153,169359.3888731]},{"type":"Feature","id":"StreetAxes.fid--578fcb21_1a029903b37_46e0","geometry":{"type":"LineString","coordinates":[[147437.16619567,169528.27879501],[147470.39887331,169502.39891728],[147489.65948847,169486.72785186],[147508.59153365,169471.54462555]]},"geometry_name":"GEOM","properties":{"INSPIRE_ID":"https://databrussels.be/id/streetaxe/75349","TYPE":"S","HIERARCHY":"MER","LVL":0,"STARTSN_ID":"https://databrussels.be/id/streetnode/7649","ENDSN_ID":"https://databrussels.be/id/streetnode/7967","STRNAMEFRE":"Rue de l'Instruction","STRNAMEDUT":"Onderwijsstraat","SLOPE":0.72,"LENGTH":91.2198482301681},"bbox":[147437.16619567,169471.54462555,147508.59153365,169528.27879501]},{"type":"Feature","id":"StreetAxes.fid--578fcb21_1a029903b37_46fc","geometry":{"type":"LineString","coordinates":[[147662.466,169080.784],[147670.064,169074.701],[147743.67,169015.07],[147749.746,169010.242]]},"geometry_name":"GEOM","properties":{"INSPIRE_ID":"https://databrussels.be/id/streetaxe/76417","TYPE":"S","HIERARCHY":"DR","LVL":0,"STARTSN_ID":"https://databrussels.be/id/streetnode/10147","ENDSN_ID":"https://databrussels.be/id/streetnode/10150","STRNAMEFRE":"Rue de Danemark","STRNAMEDUT":"Denemarkenstraat","SLOPE":1.79,"LENGTH":112.223302730432},"bbox":[147662.466,169010.242,147749.746,169080.784]},{"type":"Feature","id":"StreetAxes.fid--578fcb21_1a029903b37_4709","geometry":{"type":"LineString","coordinates":[[147502.89843506,168954.89499941],[147501.43109361,168965.42033376],[147493.06517622,169026.02285958],[147483.93861824,169038.0690159]]},"geometry_name":"GEOM","properties":{"INSPIRE_ID":"https://databrussels.be/id/streetaxe/76469","TYPE":"S","HIERARCHY":"IDR","LVL":0,"STARTSN_ID":"https://databrussels.be/id/streetnode/6750","ENDSN_ID":"https://databrussels.be/id/streetnode/7060","STRNAMEFRE":"Avenue du Roi","STRNAMEDUT":"Koningslaan","SLOPE":1.24,"LENGTH":86.917402470407},"bbox":[147483.93861824,168954.89499941,147502.89843506,169038.0690159]},{"type":"Feature","id":"StreetAxes.fid--578fcb21_1a029903b37_46f3","geometry":{"type":"LineString","coordinates":[[147574.12186616,169152.22501477],[147655.055,169086.71],[147662.466,169080.784]]},"geometry_name":"GEOM","properties":{"INSPIRE_ID":"https://databrussels.be/id/streetaxe/76507","TYPE":"S","HIERARCHY":"DR","LVL":0,"STARTSN_ID":"https://databrussels.be/id/streetnode/7265","ENDSN_ID":"https://databrussels.be/id/streetnode/10147","STRNAMEFRE":"Rue de Danemark","STRNAMEDUT":"Denemarkenstraat","SLOPE":1.28,"LENGTH":113.615756252487},"bbox":[147574.12186616,169080.784,147662.466,169152.22501477]},{"type":"Feature","id":"StreetAxes.fid--578fcb21_1a029903b37_46dd","geometry":{"type":"LineString","coordinates":[[147864.88903713,169512.04163448],[147938.975,169452.56],[147945.64,169447.213]]},"geometry_name":"GEOM","properties":{"INSPIRE_ID":"https://databrussels.be/id/streetaxe/76582","TYPE":"S","HIERARCHY":"DR","LVL":0,"STARTSN_ID":"https://databrussels.be/id/streetnode/7969","ENDSN_ID":"https://databrussels.be/id/streetnode/2888","STRNAMEFRE":"Rue d'Angleterre","STRNAMEDUT":"Engelandstraat","SLOPE":1.4,"LENGTH":103.554188560893},"bbox":[147864.88903713,169447.213,147945.64,169512.04163448]},{"type":"Feature","id":"StreetAxes.fid--578fcb21_1a029903b37_46f9","geometry":{"type":"LineString","coordinates":[[147628.92820652,169219.90195438],[147667.39163288,169267.0310041],[147679.73617963,169280.01993532]]},"geometry_name":"GEOM","properties":{"INSPIRE_ID":"https://databrussels.be/id/streetaxe/76628","TYPE":"S","HIERARCHY":"MAR","LVL":0,"STARTSN_ID":"https://databrussels.be/id/streetnode/7665","ENDSN_ID":"https://databrussels.be/id/streetnode/7962","STRNAMEFRE":"Avenue Fonsny","STRNAMEDUT":"Fonsnylaan","SLOPE":0.44,"LENGTH":78.7516812788929},"bbox":[147628.92820652,169219.90195438,147679.73617963,169280.01993532]},{"type":"Feature","id":"StreetAxes.fid--578fcb21_1a029903b37_46fa","geometry":{"type":"LineString","coordinates":[[147628.92820652,169219.90195438],[147633.98,169215.82],[147708.075,169155.565],[147715.542,169149.484]]},"geometry_name":"GEOM","properties":{"INSPIRE_ID":"https://databrussels.be/id/streetaxe/76629","TYPE":"S","HIERARCHY":"DR","LVL":0,"STARTSN_ID":"https://databrussels.be/id/streetnode/7665","ENDSN_ID":"https://databrussels.be/id/streetnode/1767","STRNAMEFRE":"Rue Coenraets","STRNAMEDUT":"Coenraetsstraat","SLOPE":1.6,"LENGTH":111.627259156842},"bbox":[147628.92820652,169149.484,147715.542,169219.90195438]},{"type":"Feature","id":"StreetAxes.fid--578fcb21_1a029903b37_46d3","geometry":{"type":"LineString","coordinates":[[147727.8868153,169359.3888731],[147783.83488369,169428.08983128],[147831.15316138,169486.4087346],[147842.6827316,169501.73929338],[147849.77156509,169512.36734073],[147854.32996362,169522.80025683]]},"geometry_name":"GEOM","properties":{"INSPIRE_ID":"https://databrussels.be/id/streetaxe/76632","TYPE":"S","HIERARCHY":"MAR","LVL":0,"STARTSN_ID":"https://databrussels.be/id/streetnode/7604","ENDSN_ID":"https://databrussels.be/id/streetnode/7651","STRNAMEFRE":"Avenue Fonsny","STRNAMEDUT":"Fonsnylaan","SLOPE":0.47,"LENGTH":207.043701969793},"bbox":[147727.8868153,169359.3888731,147854.32996362,169522.80025683]},{"type":"Feature","id":"StreetAxes.fid--578fcb21_1a029903b37_46e1","geometry":{"type":"LineString","coordinates":[[147482.20155402,169058.28482994],[147488.73047277,169065.81656503],[147527.42639172,169113.75917],[147544.41802917,169132.53937797],[147570.83456013,169165.2683412],[147608.83265438,169212.10160571]]},"geometry_name":"GEOM","properties":{"INSPIRE_ID":"https://databrussels.be/id/streetaxe/77696","TYPE":"S","HIERARCHY":"MAR","LVL":0,"STARTSN_ID":"https://databrussels.be/id/streetnode/7662","ENDSN_ID":"https://databrussels.be/id/streetnode/7980","STRNAMEFRE":"Avenue Fonsny","STRNAMEDUT":"Fonsnylaan","SLOPE":0.03,"LENGTH":199.27334460138},"bbox":[147482.20155402,169058.28482994,147608.83265438,169212.10160571]},{"type":"Feature","id":"StreetAxes.fid--578fcb21_1a029903b37_46fe","geometry":{"type":"LineString","coordinates":[[147749.746,169010.242],[147744.865,169004.255],[147693.87,168941.09],[147688.6373945,168934.69041668]]},"geometry_name":"GEOM","properties":{"INSPIRE_ID":"https://databrussels.be/id/streetaxe/77810","TYPE":"S","HIERARCHY":"DR","LVL":0,"STARTSN_ID":"https://databrussels.be/id/streetnode/10150","ENDSN_ID":"https://databrussels.be/id/streetnode/10149","STRNAMEFRE":"Rue Emile Feron","STRNAMEDUT":"Emile Feronstraat","SLOPE":0.08,"LENGTH":97.1717233813708},"bbox":[147688.6373945,168934.69041668,147749.746,169010.242]},{"type":"Feature","id":"StreetAxes.fid--578fcb21_1a029903b37_46f4","geometry":{"type":"LineString","coordinates":[[147662.466,169080.784],[147657.534,169074.376],[147603.935,169004.83],[147599.12507457,168998.55420856]]},"geometry_name":"GEOM","properties":{"INSPIRE_ID":"https://databrussels.be/id/streetaxe/77812","TYPE":"S","HIERARCHY":"DC","LVL":0,"STARTSN_ID":"https://databrussels.be/id/streetnode/10147","ENDSN_ID":"https://databrussels.be/id/streetnode/10148","STRNAMEFRE":"Rue de Mérode","STRNAMEDUT":"de Mérodestraat","SLOPE":0.21,"LENGTH":103.796999043698},"bbox":[147599.12507457,168998.55420856,147662.466,169080.784]},{"type":"Feature","id":"StreetAxes.fid--578fcb21_1a029903b37_46ef","geometry":{"type":"LineString","coordinates":[[147957.07431462,169213.66651813],[147961.42755422,169209.72120459],[147967.65434963,169204.07789927],[147992.70845957,169170.78518495],[147995.03067172,169169.02853873],[147997.48102035,169168.14352888],[148000.05950547,169168.13015541]]},"geometry_name":"GEOM","properties":{"INSPIRE_ID":"https://databrussels.be/id/streetaxe/77994","TYPE":"S","HIERARCHY":"DR","LVL":0,"STARTSN_ID":"https://databrussels.be/id/streetnode/906","ENDSN_ID":"https://databrussels.be/id/streetnode/10139","STRNAMEFRE":"Place des Héros","STRNAMEDUT":"Heldenplein","SLOPE":1.13,"LENGTH":64.0408796628829},"bbox":[147957.07431462,169168.13015541,148000.05950547,169213.66651813]},{"type":"Feature","id":"StreetAxes.fid--578fcb21_1a029903b37_46fb","geometry":{"type":"LineString","coordinates":[[147715.542,169149.484],[147710.6,169143.07],[147667.35,169087.14],[147662.466,169080.784]]},"geometry_name":"GEOM","properties":{"INSPIRE_ID":"https://databrussels.be/id/streetaxe/77995","TYPE":"S","HIERARCHY":"DC","LVL":0,"STARTSN_ID":"https://databrussels.be/id/streetnode/1767","ENDSN_ID":"https://databrussels.be/id/streetnode/10147","STRNAMEFRE":"Rue de Mérode","STRNAMEDUT":"de Mérodestraat","SLOPE":0.6,"LENGTH":86.8145088335782},"bbox":[147662.466,169080.784,147715.542,169149.484]},{"type":"Feature","id":"StreetAxes.fid--578fcb21_1a029903b37_46d7","geometry":{"type":"LineString","coordinates":[[147804.41467451,169436.19063838],[147800.68519816,169431.63130766],[147747.41557423,169365.90359103],[147743.68390926,169361.31795197]]},"geometry_name":"GEOM","properties":{"INSPIRE_ID":"https://databrussels.be/id/streetaxe/78115","TYPE":"S","HIERARCHY":"MAR","LVL":0,"STARTSN_ID":"https://databrussels.be/id/streetnode/7272","ENDSN_ID":"https://databrussels.be/id/streetnode/7644","STRNAMEFRE":"Avenue Fonsny","STRNAMEDUT":"Fonsnylaan","SLOPE":0.17,"LENGTH":96.4062106310966},"bbox":[147743.68390926,169361.31795197,147804.41467451,169436.19063838]},{"type":"Feature","id":"StreetAxes.fid--578fcb21_1a029903b37_46dc","geometry":{"type":"LineString","coordinates":[[147804.41467451,169436.19063838],[147847.55571993,169489.38195725],[147860.33276886,169505.74790809],[147864.88903713,169512.04163448]]},"geometry_name":"GEOM","properties":{"INSPIRE_ID":"https://databrussels.be/id/streetaxe/78116","TYPE":"S","HIERARCHY":"MAR","LVL":0,"STARTSN_ID":"https://databrussels.be/id/streetnode/7272","ENDSN_ID":"https://databrussels.be/id/streetnode/7969","STRNAMEFRE":"Avenue Fonsny","STRNAMEDUT":"Fonsnylaan","SLOPE":0.48,"LENGTH":97.0197119510153},"bbox":[147804.41467451,169436.19063838,147864.88903713,169512.04163448]},{"type":"Feature","id":"StreetAxes.fid--578fcb21_1a029903b37_46f2","geometry":{"type":"LineString","coordinates":[[147574.12186616,169152.22501477],[147624.73546233,169214.72002747],[147628.92820652,169219.90195438]]},"geometry_name":"GEOM","properties":{"INSPIRE_ID":"https://databrussels.be/id/streetaxe/78392","TYPE":"S","HIERARCHY":"MAR","LVL":0,"STARTSN_ID":"https://databrussels.be/id/streetnode/7265","ENDSN_ID":"https://databrussels.be/id/streetnode/7665","STRNAMEFRE":"Avenue Fonsny","STRNAMEDUT":"Fonsnylaan","SLOPE":0.22,"LENGTH":87.0856085425291},"bbox":[147574.12186616,169152.22501477,147628.92820652,169219.90195438]},{"type":"Feature","id":"StreetAxes.fid--578fcb21_1a029903b37_46e9","geometry":{"type":"LineString","coordinates":[[147574.12186616,169152.22501477],[147570.36957415,169147.5470888],[147507.04826619,169069.21931922]]},"geometry_name":"GEOM","properties":{"INSPIRE_ID":"https://databrussels.be/id/streetaxe/78393","TYPE":"S","HIERARCHY":"MAR","LVL":0,"STARTSN_ID":"https://databrussels.be/id/streetnode/7265","ENDSN_ID":"https://databrussels.be/id/streetnode/7261","STRNAMEFRE":"Avenue Fonsny","STRNAMEDUT":"Fonsnylaan","SLOPE":0.17,"LENGTH":106.718424339753},"bbox":[147507.04826619,169069.21931922,147574.12186616,169152.22501477]},{"type":"Feature","id":"StreetAxes.fid--578fcb21_1a029903b37_46cf","geometry":{"type":"LineString","coordinates":[[147679.73617963,169280.01993532],[147683.78128227,169284.55975808],[147687.96973522,169289.34526838],[147710.08701722,169316.51555439],[147719.53174704,169330.13726461],[147727.52369482,169340.97071824],[147743.68390926,169361.31795197]]},"geometry_name":"GEOM","properties":{"INSPIRE_ID":"https://databrussels.be/id/streetaxe/78404","TYPE":"S","HIERARCHY":"MAR","LVL":0,"STARTSN_ID":"https://databrussels.be/id/streetnode/7962","ENDSN_ID":"https://databrussels.be/id/streetnode/7644","STRNAMEFRE":"Avenue Fonsny","STRNAMEDUT":"Fonsnylaan","SLOPE":0.2,"LENGTH":103.496301921253},"bbox":[147679.73617963,169280.01993532,147743.68390926,169361.31795197]},{"type":"Feature","id":"StreetAxes.fid--578fcb21_1a029903b37_4702","geometry":{"type":"LineString","coordinates":[[147804.394,169077.344],[147799.607,169072.157],[147754.71,169016.33],[147749.746,169010.242]]},"geometry_name":"GEOM","properties":{"INSPIRE_ID":"https://databrussels.be/id/streetaxe/80363","TYPE":"S","HIERARCHY":"DR","LVL":0,"STARTSN_ID":"https://databrussels.be/id/streetnode/4064","ENDSN_ID":"https://databrussels.be/id/streetnode/10150","STRNAMEFRE":"Rue Emile Feron","STRNAMEDUT":"Emile Feronstraat","SLOPE":0.02,"LENGTH":86.5543403172175},"bbox":[147749.746,169010.242,147804.394,169077.344]},{"type":"Feature","id":"StreetAxes.fid--578fcb21_1a029903b37_4707","geometry":{"type":"LineString","coordinates":[[147504.34888331,169044.21097045],[147508.16256933,169034.65812891],[147524.42286162,168918.69602907],[147526.44432061,168904.2369941]]},"geometry_name":"GEOM","properties":{"INSPIRE_ID":"https://databrussels.be/id/streetaxe/83652","TYPE":"S","HIERARCHY":"IDR","LVL":0,"STARTSN_ID":"https://databrussels.be/id/streetnode/6755","ENDSN_ID":"https://databrussels.be/id/streetnode/7071","STRNAMEFRE":"Avenue du Roi","STRNAMEDUT":"Koningslaan","SLOPE":1.17,"LENGTH":141.982183322592},"bbox":[147504.34888331,168904.2369941,147526.44432061,169044.21097045]},{"type":"Feature","id":"StreetAxes.fid--578fcb21_1a029903b37_46fd","geometry":{"type":"LineString","coordinates":[[147679.73617803,169280.02077195],[147683.32500248,169277.1208474],[147724.35399883,169243.88084575],[147728.27400154,169240.60384737],[147732.1950052,169237.32683652],[147756.22500256,169217.86584257],[147763.61800095,169211.8508486]]},"geometry_name":"GEOM","properties":{"INSPIRE_ID":"https://databrussels.be/id/streetaxe/83691","TYPE":"S","HIERARCHY":"DR","LVL":0,"STARTSN_ID":"https://databrussels.be/id/streetnode/7962","ENDSN_ID":"https://databrussels.be/id/streetnode/3679","STRNAMEFRE":"Rue Joseph Claes","STRNAMEDUT":"Joseph Claesstraat","SLOPE":0,"LENGTH":108.09040770034},"bbox":[147679.73617803,169211.8508486,147763.61800095,169280.02077195]},{"type":"Feature","id":"StreetAxes.fid--578fcb21_1a029903b37_46db","geometry":{"type":"LineString","coordinates":[[147998.057,169515.18],[148005.624,169509.214],[148083.02816665,169447.79247598],[148108.94423775,169427.12154004]]},"geometry_name":"GEOM","properties":{"INSPIRE_ID":"https://databrussels.be/id/streetaxe/84974","TYPE":"S","HIERARCHY":"DC","LVL":0,"STARTSN_ID":"https://databrussels.be/id/streetnode/1768","ENDSN_ID":"https://databrussels.be/id/streetnode/4213","STRNAMEFRE":"Rue de Russie","STRNAMEDUT":"Ruslandstraat","SLOPE":2.23,"LENGTH":141.599124165897},"bbox":[147998.057,169427.12154004,148108.94423775,169515.18]},{"type":"Feature","id":"StreetAxes.fid--578fcb21_1a029903b37_46d8","geometry":{"type":"LineString","coordinates":[[147831.0870512,169414.70464559],[147832.2967082,169413.73020368],[147878.745,169376.34],[147886.213,169370.236]]},"geometry_name":"GEOM","properties":{"INSPIRE_ID":"https://databrussels.be/id/streetaxe/85299","TYPE":"S","HIERARCHY":"DR","LVL":0,"STARTSN_ID":"https://databrussels.be/id/streetnode/11106","ENDSN_ID":"https://databrussels.be/id/streetnode/35","STRNAMEFRE":"Rue de Hollande","STRNAMEDUT":"Hollandstraat","SLOPE":1.43,"LENGTH":70.8262906435507},"bbox":[147831.0870512,169370.236,147886.213,169414.70464559]},{"type":"Feature","id":"StreetAxes.fid--578fcb21_1a029903b37_46da","geometry":{"type":"LineString","coordinates":[[147831.0870512,169414.70464559],[147804.41467451,169436.19063838]]},"geometry_name":"GEOM","properties":{"INSPIRE_ID":"https://databrussels.be/id/streetaxe/85300","TYPE":"S","HIERARCHY":"DR","LVL":0,"STARTSN_ID":"https://databrussels.be/id/streetnode/11106","ENDSN_ID":"https://databrussels.be/id/streetnode/7272","STRNAMEFRE":"Place Marcel Broodthaers","STRNAMEDUT":"Marcel Broodthaersplein","SLOPE":3.04,"LENGTH":34.2500155463506},"bbox":[147804.41467451,169414.70464559,147831.0870512,169436.19063838]},{"type":"Feature","id":"StreetAxes.fid--578fcb21_1a029903b37_46df","geometry":{"type":"LineString","coordinates":[[147370.5,169254.66],[147378.89,169265.162],[147434.49266576,169333.83894186],[147511.87786527,169429.57168926],[147518.08510789,169438.44848114],[147519.58720522,169443.16334895],[147519.85776887,169451.2305284],[147518.55906334,169457.07787995],[147516.3404414,169462.16724148],[147513.3101285,169466.82346585],[147508.59153365,169471.54462555]]},"geometry_name":"GEOM","properties":{"INSPIRE_ID":"https://databrussels.be/id/streetaxe/86665","TYPE":"S","HIERARCHY":"MER","LVL":0,"STARTSN_ID":"https://databrussels.be/id/streetnode/1469","ENDSN_ID":"https://databrussels.be/id/streetnode/7967","STRNAMEFRE":"Rue de France","STRNAMEDUT":"Frankrijkstraat","SLOPE":0.23,"LENGTH":272.528222029152},"bbox":[147370.5,169254.66,147519.85776887,169471.54462555]},{"type":"Feature","id":"StreetAxes.fid--578fcb21_1a029903b37_470b","geometry":{"type":"LineString","coordinates":[[147498.80003195,169025.10340151],[147498.6707382,169031.26885575],[147499.16298453,169035.67973378],[147500.2074826,169038.57339231],[147501.17315062,169040.34803808],[147502.45413882,169042.26071186],[147504.34888331,169044.21097045]]},"geometry_name":"GEOM","properties":{"INSPIRE_ID":"https://databrussels.be/id/streetaxe/87258","TYPE":"C","HIERARCHY":"IDR","LVL":0,"STARTSN_ID":"https://databrussels.be/id/streetnode/7075","ENDSN_ID":"https://databrussels.be/id/streetnode/6755","STRNAMEFRE":"Avenue du Roi","STRNAMEDUT":"Koningslaan","SLOPE":0.87,"LENGTH":20.7229579397727},"bbox":[147498.6707382,169025.10340151,147504.34888331,169044.21097045]},{"type":"Feature","id":"StreetAxes.fid--578fcb21_1a029903b37_46e8","geometry":{"type":"LineString","coordinates":[[147507.04826619,169069.21931922],[147508.21635898,169064.1550089],[147510.22289182,169059.95154717],[147512.97491068,169056.57926506],[147519.35126165,169051.93624194],[147528.03958603,169046.6252098],[147531.3716648,169044.6365315]]},"geometry_name":"GEOM","properties":{"INSPIRE_ID":"https://databrussels.be/id/streetaxe/87261","TYPE":"SC","HIERARCHY":"DR","LVL":0,"STARTSN_ID":"https://databrussels.be/id/streetnode/7261","ENDSN_ID":"https://databrussels.be/id/streetnode/6766","STRNAMEFRE":"Rue Théodore Verhaegen","STRNAMEDUT":"Théodore Verhaegenstraat","SLOPE":0.69,"LENGTH":36.1589014926231},"bbox":[147507.04826619,169044.6365315,147531.3716648,169069.21931922]},{"type":"Feature","id":"StreetAxes.fid--578fcb21_1a029903b37_4708","geometry":{"type":"LineString","coordinates":[[147512.65847604,168916.18163959],[147513.16397694,168921.55087888],[147512.93290791,168924.83480049],[147512.20839277,168930.99417444],[147510.30260449,168942.80566453],[147505.81086237,168974.68693192],[147503.91047727,168987.79548614],[147502.56068165,168999.91365123],[147499.33515542,169021.32486827],[147498.80003195,169025.10340151]]},"geometry_name":"GEOM","properties":{"INSPIRE_ID":"https://databrussels.be/id/streetaxe/87264","TYPE":"C","HIERARCHY":"IDR","LVL":0,"STARTSN_ID":"https://databrussels.be/id/streetnode/7081","ENDSN_ID":"https://databrussels.be/id/streetnode/7075","STRNAMEFRE":"Avenue du Roi","STRNAMEDUT":"Koningslaan","SLOPE":1.16,"LENGTH":109.954994276186},"bbox":[147498.80003195,168916.18163959,147513.16397694,169025.10340151]},{"type":"Feature","id":"StreetAxes.fid--578fcb21_1a029903b37_46d5","geometry":{"type":"LineString","coordinates":[[147736.20652922,169359.89349525],[147737.87421884,169361.9449365],[147805.16831358,169445.23009832],[147838.2042142,169485.9542204],[147843.34495324,169492.30867802],[147847.49072274,169498.54831483],[147849.29827864,169501.86331889],[147851.78044022,169507.87508038],[147852.51943034,169510.64506462],[147854.32996362,169522.80025683]]},"geometry_name":"GEOM","properties":{"INSPIRE_ID":"https://databrussels.be/id/streetaxe/87505","TYPE":"C","HIERARCHY":"MAR","LVL":0,"STARTSN_ID":"https://databrussels.be/id/streetnode/7659","ENDSN_ID":"https://databrussels.be/id/streetnode/7651","STRNAMEFRE":"Avenue Fonsny","STRNAMEDUT":"Fonsnylaan","SLOPE":0.44,"LENGTH":203.257735060717},"bbox":[147736.20652922,169359.89349525,147854.32996362,169522.80025683]},{"type":"Feature","id":"StreetAxes.fid--578fcb21_1a029903b37_46f8","geometry":{"type":"LineString","coordinates":[[147619.56622281,169216.04059671],[147624.15948254,169217.72622519],[147628.92820652,169219.90195438]]},"geometry_name":"GEOM","properties":{"INSPIRE_ID":"https://databrussels.be/id/streetaxe/87510","TYPE":"SC","HIERARCHY":"MAR","LVL":0,"STARTSN_ID":"https://databrussels.be/id/streetnode/7653","ENDSN_ID":"https://databrussels.be/id/streetnode/7665","STRNAMEFRE":"Avenue Fonsny","STRNAMEDUT":"Fonsnylaan","SLOPE":0,"LENGTH":10.1344032115779},"bbox":[147619.56622281,169216.04059671,147628.92820652,169219.90195438]},{"type":"Feature","id":"StreetAxes.fid--578fcb21_1a029903b37_4701","geometry":{"type":"LineString","coordinates":[[147749.746,169010.242],[147755.82,169005.415],[147856.59888696,168924.17162291],[147865.11148814,168921.98813727]]},"geometry_name":"GEOM","properties":{"INSPIRE_ID":"https://databrussels.be/id/streetaxe/87724","TYPE":"S","HIERARCHY":"DR","LVL":0,"STARTSN_ID":"https://databrussels.be/id/streetnode/10150","ENDSN_ID":"https://databrussels.be/id/streetnode/9436","STRNAMEFRE":"Rue de Danemark","STRNAMEDUT":"Denemarkenstraat","SLOPE":2.58,"LENGTH":145.994945022773},"bbox":[147749.746,168921.98813727,147865.11148814,169010.242]},{"type":"Feature","id":"StreetAxes.fid--578fcb21_1a029903b37_46f6","geometry":{"type":"LineString","coordinates":[[147608.83265438,169212.10160571],[147619.56622281,169216.04059671]]},"geometry_name":"GEOM","properties":{"INSPIRE_ID":"https://databrussels.be/id/streetaxe/88195","TYPE":"SC","HIERARCHY":"MAR","LVL":0,"STARTSN_ID":"https://databrussels.be/id/streetnode/7980","ENDSN_ID":"https://databrussels.be/id/streetnode/7653","STRNAMEFRE":"Avenue Fonsny","STRNAMEDUT":"Fonsnylaan","SLOPE":1.66,"LENGTH":11.4335095806978},"bbox":[147608.83265438,169212.10160571,147619.56622281,169216.04059671]},{"type":"Feature","id":"StreetAxes.fid--578fcb21_1a029903b37_46ee","geometry":{"type":"LineString","coordinates":[[147957.07431462,169213.66651813],[147951.81978718,169209.21047248],[147947.00954033,169205.13119422],[147941.55316719,169200.50397548]]},"geometry_name":"GEOM","properties":{"INSPIRE_ID":"https://databrussels.be/id/streetaxe/88784","TYPE":"S","HIERARCHY":"DR","LVL":0,"STARTSN_ID":"https://databrussels.be/id/streetnode/906","ENDSN_ID":"https://databrussels.be/id/streetnode/3204","STRNAMEFRE":"Rue Emile Feron","STRNAMEDUT":"Emile Feronstraat","SLOPE":1.33,"LENGTH":20.3508856428079},"bbox":[147941.55316719,169200.50397548,147957.07431462,169213.66651813]},{"type":"Feature","id":"StreetAxes.fid--578fcb21_1a029903b37_46e3","geometry":{"type":"LineString","coordinates":[[147498.5645516,169058.4846142],[147504.34888331,169044.21097045]]},"geometry_name":"GEOM","properties":{"INSPIRE_ID":"https://databrussels.be/id/streetaxe/88829","TYPE":"IC","HIERARCHY":"MAR","LVL":0,"STARTSN_ID":"https://databrussels.be/id/streetnode/7965","ENDSN_ID":"https://databrussels.be/id/streetnode/6755","STRNAMEFRE":"Avenue Fonsny","STRNAMEDUT":"Fonsnylaan","SLOPE":1.36,"LENGTH":15.4011492834451},"bbox":[147498.5645516,169044.21097045,147504.34888331,169058.4846142]},{"type":"Feature","id":"StreetAxes.fid--578fcb21_1a029903b37_470a","geometry":{"type":"LineString","coordinates":[[147531.3716648,169044.6365315],[147539.69706441,169039.66769892],[147551.45207964,169032.09186759],[147576.7089917,169014.47039428],[147591.55445801,169003.81624025],[147599.12507457,168998.55420856]]},"geometry_name":"GEOM","properties":{"INSPIRE_ID":"https://databrussels.be/id/streetaxe/89242","TYPE":"SC","HIERARCHY":"DR","LVL":0,"STARTSN_ID":"https://databrussels.be/id/streetnode/6766","ENDSN_ID":"https://databrussels.be/id/streetnode/10148","STRNAMEFRE":"Rue Théodore Verhaegen","STRNAMEDUT":"Théodore Verhaegenstraat","SLOPE":1.52,"LENGTH":81.9693798330356},"bbox":[147531.3716648,168998.55420856,147599.12507457,169044.6365315]},{"type":"Feature","id":"StreetAxes.fid--578fcb21_1a029903b37_46e7","geometry":{"type":"LineString","coordinates":[[147504.34888331,169044.21097045],[147506.76793743,169045.9731432],[147509.98524465,169047.67847071],[147513.35191948,169048.64065162],[147515.52195613,169048.77359975],[147518.70780857,169048.60136817],[147522.43252809,169047.71404529],[147531.3716648,169044.6365315]]},"geometry_name":"GEOM","properties":{"INSPIRE_ID":"https://databrussels.be/id/streetaxe/89318","TYPE":"SC","HIERARCHY":"DR","LVL":0,"STARTSN_ID":"https://databrussels.be/id/streetnode/6755","ENDSN_ID":"https://databrussels.be/id/streetnode/6766","STRNAMEFRE":"Rue Théodore Verhaegen","STRNAMEDUT":"Théodore Verhaegenstraat","SLOPE":0.21,"LENGTH":28.7832495931988},"bbox":[147504.34888331,169044.21097045,147531.3716648,169048.77359975]},{"type":"Feature","id":"StreetAxes.fid--578fcb21_1a029903b37_46cd","geometry":{"type":"LineString","coordinates":[[147641.69263025,169642.48029224],[147639.47938025,169636.69237979],[147575.24313333,169557.15455481],[147540.09195856,169513.95872171],[147535.28640889,169505.42966691],[147508.59153365,169471.54462555]]},"geometry_name":"GEOM","properties":{"INSPIRE_ID":"https://databrussels.be/id/streetaxe/89674","TYPE":"P","HIERARCHY":"DR","LVL":0,"STARTSN_ID":"https://databrussels.be/id/streetnode/7267","ENDSN_ID":"https://databrussels.be/id/streetnode/7967","STRNAMEFRE":"Place Victor Horta","STRNAMEDUT":"Victor Hortaplein","SLOPE":0.1,"LENGTH":217.052217762396},"bbox":[147508.59153365,169471.54462555,147641.69263025,169642.48029224]},{"type":"Feature","id":"StreetAxes.fid--578fcb21_1a029903b37_46d1","geometry":{"type":"LineString","coordinates":[[147743.68390394,169361.31879594],[147785.60699981,169327.40584795],[147789.42600481,169324.19484278],[147793.24599855,169320.98284037],[147819.60199496,169299.54884363],[147826.84000569,169293.64984265]]},"geometry_name":"GEOM","properties":{"INSPIRE_ID":"https://databrussels.be/id/streetaxe/90240","TYPE":"S","HIERARCHY":"DR","LVL":0,"STARTSN_ID":"https://databrussels.be/id/streetnode/7644","ENDSN_ID":"https://databrussels.be/id/streetnode/1367","STRNAMEFRE":"Rue de Suède","STRNAMEDUT":"Zwedenstraat","SLOPE":0,"LENGTH":107.211708856662},"bbox":[147743.68390394,169293.64984265,147826.84000569,169361.31879594]},{"type":"Feature","id":"StreetAxes.fid--578fcb21_1a029903b37_46f7","geometry":{"type":"LineString","coordinates":[[147619.56622281,169216.04059671],[147623.92248236,169221.41079545],[147664.09105408,169270.9351892],[147682.25112189,169293.45305292],[147706.67947003,169323.70701598],[147719.21192156,169339.05225651],[147734.5388396,169357.842054],[147736.20652922,169359.89349525]]},"geometry_name":"GEOM","properties":{"INSPIRE_ID":"https://databrussels.be/id/streetaxe/90555","TYPE":"C","HIERARCHY":"MAR","LVL":0,"STARTSN_ID":"https://databrussels.be/id/streetnode/7653","ENDSN_ID":"https://databrussels.be/id/streetnode/7659","STRNAMEFRE":"Avenue Fonsny","STRNAMEDUT":"Fonsnylaan","SLOPE":0.22,"LENGTH":185.199272070902},"bbox":[147619.56622281,169216.04059671,147736.20652922,169359.89349525]},{"type":"Feature","id":"StreetAxes.fid--578fcb21_1a029903b37_46e4","geometry":{"type":"LineString","coordinates":[[147507.04826619,169069.21931922],[147499.80968548,169060.22263341],[147498.5645516,169058.4846142]]},"geometry_name":"GEOM","properties":{"INSPIRE_ID":"https://databrussels.be/id/streetaxe/92033","TYPE":"IC","HIERARCHY":"MAR","LVL":0,"STARTSN_ID":"https://databrussels.be/id/streetnode/7261","ENDSN_ID":"https://databrussels.be/id/streetnode/7965","STRNAMEFRE":"Avenue Fonsny","STRNAMEDUT":"Fonsnylaan","SLOPE":0.15,"LENGTH":13.6851876268608},"bbox":[147498.5645516,169058.4846142,147507.04826619,169069.21931922]},{"type":"Feature","id":"StreetAxes.fid--578fcb21_1a029903b37_46d6","geometry":{"type":"LineString","coordinates":[[147736.20652922,169359.89349525],[147739.64477216,169359.92787891],[147743.68390926,169361.31795197]]},"geometry_name":"GEOM","properties":{"INSPIRE_ID":"https://databrussels.be/id/streetaxe/92240","TYPE":"SC","HIERARCHY":"MAR","LVL":0,"STARTSN_ID":"https://databrussels.be/id/streetnode/7659","ENDSN_ID":"https://databrussels.be/id/streetnode/7644","STRNAMEFRE":"Avenue Fonsny","STRNAMEDUT":"Fonsnylaan","SLOPE":1.95,"LENGTH":7.710057584738},"bbox":[147736.20652922,169359.89349525,147743.68390926,169361.31795197]},{"type":"Feature","id":"StreetAxes.fid--578fcb21_1a029903b37_46e2","geometry":{"type":"LineString","coordinates":[[147504.20442005,169073.22531728],[147495.58658894,169062.38897052],[147490.92902439,169056.9986614]]},"geometry_name":"GEOM","properties":{"INSPIRE_ID":"https://databrussels.be/id/streetaxe/92473","TYPE":"C","HIERARCHY":"MAR","LVL":0,"STARTSN_ID":"https://databrussels.be/id/streetnode/7275","ENDSN_ID":"https://databrussels.be/id/streetnode/7647","STRNAMEFRE":"Avenue Fonsny","STRNAMEDUT":"Fonsnylaan","SLOPE":0.33,"LENGTH":20.9691263519688},"bbox":[147490.92902439,169056.9986614,147504.20442005,169073.22531728]},{"type":"Feature","id":"StreetAxes.fid--578fcb21_1a029903b37_46d4","geometry":{"type":"LineString","coordinates":[[147727.8868153,169359.3888731],[147736.20652922,169359.89349525]]},"geometry_name":"GEOM","properties":{"INSPIRE_ID":"https://databrussels.be/id/streetaxe/92478","TYPE":"SC","HIERARCHY":"MAR","LVL":0,"STARTSN_ID":"https://databrussels.be/id/streetnode/7604","ENDSN_ID":"https://databrussels.be/id/streetnode/7659","STRNAMEFRE":"Avenue Fonsny","STRNAMEDUT":"Fonsnylaan","SLOPE":1.08,"LENGTH":8.33500349629693},"bbox":[147727.8868153,169359.3888731,147736.20652922,169359.89349525]},{"type":"Feature","id":"StreetAxes.fid--578fcb21_1a029903b37_46e5","geometry":{"type":"LineString","coordinates":[[147504.20442005,169073.22531728],[147517.96337779,169090.52628724],[147566.57041983,169150.58342613],[147619.56622281,169216.04059671]]},"geometry_name":"GEOM","properties":{"INSPIRE_ID":"https://databrussels.be/id/streetaxe/92480","TYPE":"C","HIERARCHY":"MAR","LVL":0,"STARTSN_ID":"https://databrussels.be/id/streetnode/7275","ENDSN_ID":"https://databrussels.be/id/streetnode/7653","STRNAMEFRE":"Avenue Fonsny","STRNAMEDUT":"Fonsnylaan","SLOPE":0.08,"LENGTH":183.588716853634},"bbox":[147504.20442005,169073.22531728,147619.56622281,169216.04059671]},{"type":"Feature","id":"StreetAxes.fid--578fcb21_1a029903b37_46e6","geometry":{"type":"LineString","coordinates":[[147504.20442005,169073.22531728],[147507.04826619,169069.21931922]]},"geometry_name":"GEOM","properties":{"INSPIRE_ID":"https://databrussels.be/id/streetaxe/92483","TYPE":"IC","HIERARCHY":"MAR","LVL":0,"STARTSN_ID":"https://databrussels.be/id/streetnode/7275","ENDSN_ID":"https://databrussels.be/id/streetnode/7261","STRNAMEFRE":"Avenue Fonsny","STRNAMEDUT":"Fonsnylaan","SLOPE":2.65,"LENGTH":4.91278753449414},"bbox":[147504.20442005,169069.21931922,147507.04826619,169073.22531728]}],"numberReturned":63,"grand_bruxelles_source":{"authority":"Paradigm / Brussels-Capital Region","service":"https://geoservices-urbis.irisnet.be/geoserver/urbisvector/wfs","layer":"urbisvector:StreetAxes","crs":"EPSG:31370","bbox":[147500.0,169000.0,148000.0,169500.0],"cell_id":"bxl-e147500-n169000-s500","ownership":"bbox_intersection_source_unclipped"}}
