{"type":"FeatureCollection","totalFeatures":25,"numberMatched":25,"timeStamp":"2026-08-23T02:50:21.348Z","crs":{"type":"name","properties":{"name":"urn:ogc:def:crs:EPSG::31370"}},"bbox":[146432.6543131,165451.86311935,147063.82720278,166184.254],"features":[{"type":"Feature","id":"StreetAxes.fid--6f55e203_1a02c11fc5a_1178","geometry":{"type":"LineString","coordinates":[[146814.307,165847.164],[146817.014,165852.736],[146821.726,165859.92],[146833.565,165877.972],[146838.762,165883.782],[146867.28,165923.26],[146877.508,165941.789],[146883.532,165955.645],[146897.915,166007.8],[146904.392,166044.939],[146906.89,166059.26],[146912.677,166062.104]]},"geometry_name":"GEOM","properties":{"INSPIRE_ID":"https://databrussels.be/id/streetaxe/70149","TYPE":"S","HIERARCHY":null,"LVL":0,"STARTSN_ID":"https://databrussels.be/id/streetnode/1832","ENDSN_ID":"https://databrussels.be/id/streetnode/4008","STRNAMEFRE":"Rue du Bambou","STRNAMEDUT":"Bamboestraat","SLOPE":5.23,"LENGTH":241.930379765566},"bbox":[146814.307,165847.164,146912.677,166062.104]},{"type":"Feature","id":"StreetAxes.fid--6f55e203_1a02c11fc5a_1176","geometry":{"type":"LineString","coordinates":[[146768.352,166184.254],[146768.458,166179.983],[146775.94,166167.75],[146789.105,166146.226],[146796.101,166126.754],[146798.672,166110.782],[146798.738,166101.5],[146797.436,166088.894],[146774.45,165944.195],[146775.818,165924.057],[146782.37,165904.435],[146789.63,165889.44],[146805.466,165861.934],[146814.307,165847.164]]},"geometry_name":"GEOM","properties":{"INSPIRE_ID":"https://databrussels.be/id/streetaxe/70417","TYPE":"S","HIERARCHY":"DR","LVL":0,"STARTSN_ID":"https://databrussels.be/id/streetnode/3891","ENDSN_ID":"https://databrussels.be/id/streetnode/1832","STRNAMEFRE":"Avenue de Haveskercke","STRNAMEDUT":"de Haveskerckelaan","SLOPE":1.26,"LENGTH":355.664024742885},"bbox":[146768.352,165847.164,146814.307,166184.254]},{"type":"Feature","id":"StreetAxes.fid--6f55e203_1a02c11fc5a_117d","geometry":{"type":"LineString","coordinates":[[147010.903,165993.732],[147005.41,165995.19],[146971.6,166004.52],[146959.79,166009.818],[146950.71,166014.46],[146942.032,166021.432],[146934.115,166029.6],[146921.949,166048.046],[146912.677,166062.104]]},"geometry_name":"GEOM","properties":{"INSPIRE_ID":"https://databrussels.be/id/streetaxe/71587","TYPE":"S","HIERARCHY":null,"LVL":0,"STARTSN_ID":"https://databrussels.be/id/streetnode/36","ENDSN_ID":"https://databrussels.be/id/streetnode/4008","STRNAMEFRE":"Avenue du Jonc","STRNAMEDUT":"Biezenlaan","SLOPE":9.06,"LENGTH":125.342674851074},"bbox":[146912.677,165993.732,147010.903,166062.104]},{"type":"Feature","id":"StreetAxes.fid--6f55e203_1a02c11fc5a_1171","geometry":{"type":"LineString","coordinates":[[146628.17487081,165995.33296632],[146626.154,165989.632],[146540.485,165808.59],[146536.742,165799.376]]},"geometry_name":"GEOM","properties":{"INSPIRE_ID":"https://databrussels.be/id/streetaxe/75315","TYPE":"S","HIERARCHY":"DR","LVL":0,"STARTSN_ID":"https://databrussels.be/id/streetnode/8278","ENDSN_ID":"https://databrussels.be/id/streetnode/14273","STRNAMEFRE":"Avenue Stuart Merrill","STRNAMEDUT":"Stuart Merrilllaan","SLOPE":6.32,"LENGTH":216.282041158243},"bbox":[146536.742,165799.376,146628.17487081,165995.33296632]},{"type":"Feature","id":"StreetAxes.fid--6f55e203_1a02c11fc5a_117b","geometry":{"type":"LineString","coordinates":[[146909.43416837,165451.86311935],[146908.341585,165471.7645155],[146903.405,165491.055],[146899.235,165505.535],[146890.61,165518.85],[146886.67,165522.82],[146876.14,165531.46],[146868.468,165540.015],[146856.782,165558.69],[146851.56,165577.005],[146844.82,165601.38]]},"geometry_name":"GEOM","properties":{"INSPIRE_ID":"https://databrussels.be/id/streetaxe/76302","TYPE":"S","HIERARCHY":"DR","LVL":0,"STARTSN_ID":"https://databrussels.be/id/streetnode/9166","ENDSN_ID":"https://databrussels.be/id/streetnode/1206","STRNAMEFRE":"Rue du Roetaert","STRNAMEDUT":"Roetaertstraat","SLOPE":4.51,"LENGTH":167.84633934349},"bbox":[146844.82,165451.86311935,146909.43416837,165601.38]},{"type":"Feature","id":"StreetAxes.fid--6f55e203_1a02c11fc5a_116e","geometry":{"type":"LineString","coordinates":[[146432.6543131,165847.49283663],[146450.50991398,165841.63551727],[146461.5,165837.139],[146530.304,165802.556],[146536.742,165799.376]]},"geometry_name":"GEOM","properties":{"INSPIRE_ID":"https://databrussels.be/id/streetaxe/76303","TYPE":"S","HIERARCHY":"DR","LVL":0,"STARTSN_ID":"https://databrussels.be/id/streetnode/9167","ENDSN_ID":"https://databrussels.be/id/streetnode/14273","STRNAMEFRE":"Avenue Kersbeek","STRNAMEDUT":"Kersbeeklaan","SLOPE":0.38,"LENGTH":114.853013836159},"bbox":[146432.6543131,165799.376,146536.742,165847.49283663]},{"type":"Feature","id":"StreetAxes.fid--6f55e203_1a02c11fc5a_1173","geometry":{"type":"LineString","coordinates":[[146628.17487081,165995.33296632],[146627.79307386,165999.32086265],[146610.79209616,166039.43116804]]},"geometry_name":"GEOM","properties":{"INSPIRE_ID":"https://databrussels.be/id/streetaxe/77633","TYPE":"S","HIERARCHY":"DR","LVL":0,"STARTSN_ID":"https://databrussels.be/id/streetnode/8278","ENDSN_ID":"https://databrussels.be/id/streetnode/8273","STRNAMEFRE":"Avenue Stuart Merrill","STRNAMEDUT":"Stuart Merrilllaan","SLOPE":13.81,"LENGTH":47.5706790439045},"bbox":[146610.79209616,165995.33296632,146628.17487081,166039.43116804]},{"type":"Feature","id":"StreetAxes.fid--6f55e203_1a02c11fc5a_1174","geometry":{"type":"LineString","coordinates":[[146639.88575806,165996.39052999],[146642.44453185,166006.6650548],[146642.80430206,166013.96518179],[146640.08032766,166023.27027323],[146634.99214906,166032.42113664],[146628.72186836,166039.77267298],[146623.27391956,166042.29173088],[146610.79209616,166039.43116804]]},"geometry_name":"GEOM","properties":{"INSPIRE_ID":"https://databrussels.be/id/streetaxe/77864","TYPE":"S","HIERARCHY":"DR","LVL":0,"STARTSN_ID":"https://databrussels.be/id/streetnode/7810","ENDSN_ID":"https://databrussels.be/id/streetnode/8273","STRNAMEFRE":"Avenue Stuart Merrill","STRNAMEDUT":"Stuart Merrilllaan","SLOPE":6.96,"LENGTH":66.533219543397},"bbox":[146610.79209616,165996.39052999,146642.80430206,166042.29173088]},{"type":"Feature","id":"StreetAxes.fid--6f55e203_1a02c11fc5a_1170","geometry":{"type":"LineString","coordinates":[[146536.742,165799.376],[146543.18,165796.197],[146588.54,165773.352],[146594.516,165770.067]]},"geometry_name":"GEOM","properties":{"INSPIRE_ID":"https://databrussels.be/id/streetaxe/78421","TYPE":"S","HIERARCHY":"DR","LVL":0,"STARTSN_ID":"https://databrussels.be/id/streetnode/14273","ENDSN_ID":"https://databrussels.be/id/streetnode/2368","STRNAMEFRE":"Avenue Kersbeek","STRNAMEDUT":"Kersbeeklaan","SLOPE":5.16,"LENGTH":64.78749935117},"bbox":[146536.742,165770.067,146594.516,165799.376]},{"type":"Feature","id":"StreetAxes.fid--6f55e203_1a02c11fc5a_117e","geometry":{"type":"LineString","coordinates":[[146914.02277102,165688.0731588],[146945.55849306,165631.55626352],[146950.3721628,165625.38054306],[147033.15329615,165560.55007507]]},"geometry_name":"GEOM","properties":{"INSPIRE_ID":"https://databrussels.be/id/streetaxe/78424","TYPE":"S","HIERARCHY":null,"LVL":0,"STARTSN_ID":"https://databrussels.be/id/streetnode/3142","ENDSN_ID":"https://databrussels.be/id/streetnode/14283","STRNAMEFRE":"Rue Victor Allard","STRNAMEDUT":"Victor Allardstraat","SLOPE":3.9,"LENGTH":177.696113051724},"bbox":[146914.02277102,165560.55007507,147033.15329615,165688.0731588]},{"type":"Feature","id":"StreetAxes.fid--6f55e203_1a02c11fc5a_1177","geometry":{"type":"LineString","coordinates":[[146841.6143488,165800.74581763],[146838.589,165806.56],[146818.84,165839.592],[146814.307,165847.164]]},"geometry_name":"GEOM","properties":{"INSPIRE_ID":"https://databrussels.be/id/streetaxe/79485","TYPE":"S","HIERARCHY":"DR","LVL":0,"STARTSN_ID":"https://databrussels.be/id/streetnode/9155","ENDSN_ID":"https://databrussels.be/id/streetnode/1832","STRNAMEFRE":"Rue Victor Allard","STRNAMEDUT":"Victor Allardstraat","SLOPE":0.39,"LENGTH":53.8648735681751},"bbox":[146814.307,165800.74581763,146841.6143488,165847.164]},{"type":"Feature","id":"StreetAxes.fid--6f55e203_1a02c11fc5a_1183","geometry":{"type":"LineString","coordinates":[[146527.94847949,165571.47141072],[146517.81650975,165571.9933688],[146493.92878497,165565.33425144],[146459.75915774,165543.90988972]]},"geometry_name":"GEOM","properties":{"INSPIRE_ID":"https://databrussels.be/id/streetaxe/79772","TYPE":"S","HIERARCHY":null,"LVL":0,"STARTSN_ID":"https://databrussels.be/id/streetnode/5483","ENDSN_ID":"https://databrussels.be/id/streetnode/4779","STRNAMEFRE":"Rue Jean d'Osta","STRNAMEDUT":"Jean d'Ostastraat","SLOPE":6.51,"LENGTH":75.2746550019137},"bbox":[146459.75915774,165543.90988972,146527.94847949,165571.9933688]},{"type":"Feature","id":"StreetAxes.fid--6f55e203_1a02c11fc5a_1182","geometry":{"type":"LineString","coordinates":[[146527.94847949,165571.47141072],[146529.5396054,165558.64601464],[146533.67727219,165543.83091954],[146527.4014643,165534.54189406],[146523.5025,165516.42],[146510.513,165507.6015],[146507.5805,165491.7115],[146498.47,165484.96],[146491.49290303,165480.72907577]]},"geometry_name":"GEOM","properties":{"INSPIRE_ID":"https://databrussels.be/id/streetaxe/79773","TYPE":"S","HIERARCHY":null,"LVL":0,"STARTSN_ID":"https://databrussels.be/id/streetnode/5483","ENDSN_ID":"https://databrussels.be/id/streetnode/5779","STRNAMEFRE":"Rue Jean d'Osta","STRNAMEDUT":"Jean d'Ostastraat","SLOPE":5.03,"LENGTH":109.410297732266},"bbox":[146491.49290303,165480.72907577,146533.67727219,165571.47141072]},{"type":"Feature","id":"StreetAxes.fid--6f55e203_1a02c11fc5a_1186","geometry":{"type":"LineString","coordinates":[[146720.45947502,165647.94880009],[146715.03202548,165657.60106131],[146699.9379369,165678.96843572],[146679.21957199,165704.10461758],[146653.20819415,165729.40278257],[146628.10418996,165749.15752495],[146608.84770482,165761.65542319],[146594.516,165770.067]]},"geometry_name":"GEOM","properties":{"INSPIRE_ID":"https://databrussels.be/id/streetaxe/79787","TYPE":"S","HIERARCHY":"DR","LVL":0,"STARTSN_ID":"https://databrussels.be/id/streetnode/3673","ENDSN_ID":"https://databrussels.be/id/streetnode/2368","STRNAMEFRE":"Avenue Kersbeek","STRNAMEDUT":"Kersbeeklaan","SLOPE":6.14,"LENGTH":177.61271536714},"bbox":[146594.516,165647.94880009,146720.45947502,165770.067]},{"type":"Feature","id":"StreetAxes.fid--6f55e203_1a02c11fc5a_1184","geometry":{"type":"LineString","coordinates":[[146618.88574525,165604.65730631],[146590.543,165588.978],[146579.00814127,165588.25094291],[146564.53033432,165582.9023854],[146556.03944551,165576.30791198],[146546.58479418,165573.51344261],[146539.61761789,165572.75003008],[146527.94847949,165571.47141072]]},"geometry_name":"GEOM","properties":{"INSPIRE_ID":"https://databrussels.be/id/streetaxe/82372","TYPE":"S","HIERARCHY":"DR","LVL":0,"STARTSN_ID":"https://databrussels.be/id/streetnode/4780","ENDSN_ID":"https://databrussels.be/id/streetnode/5483","STRNAMEFRE":"Rue Jean d'Osta","STRNAMEDUT":"Jean d'Ostastraat","SLOPE":8.36,"LENGTH":98.7403011892666},"bbox":[146527.94847949,165571.47141072,146618.88574525,165604.65730631]},{"type":"Feature","id":"StreetAxes.fid--6f55e203_1a02c11fc5a_1179","geometry":{"type":"LineString","coordinates":[[146872.24317895,165764.08790583],[146869.3291006,165773.3787736],[146855.28790608,165802.16334006],[146841.6143488,165800.74581763]]},"geometry_name":"GEOM","properties":{"INSPIRE_ID":"https://databrussels.be/id/streetaxe/83758","TYPE":"S","HIERARCHY":"DR","LVL":0,"STARTSN_ID":"https://databrussels.be/id/streetnode/9151","ENDSN_ID":"https://databrussels.be/id/streetnode/9155","STRNAMEFRE":"Rue Victor Allard","STRNAMEDUT":"Victor Allardstraat","SLOPE":0.86,"LENGTH":55.5106382621647},"bbox":[146841.6143488,165764.08790583,146872.24317895,165802.16334006]},{"type":"Feature","id":"StreetAxes.fid--6f55e203_1a02c11fc5a_117a","geometry":{"type":"LineString","coordinates":[[146872.24317895,165764.08790583],[146861.32806569,165762.85955969],[146841.6143488,165800.74581763]]},"geometry_name":"GEOM","properties":{"INSPIRE_ID":"https://databrussels.be/id/streetaxe/83759","TYPE":"S","HIERARCHY":"DR","LVL":0,"STARTSN_ID":"https://databrussels.be/id/streetnode/9151","ENDSN_ID":"https://databrussels.be/id/streetnode/9155","STRNAMEFRE":"Rue Victor Allard","STRNAMEDUT":"Victor Allardstraat","SLOPE":0.89,"LENGTH":53.6923158978125},"bbox":[146841.6143488,165762.85955969,146872.24317895,165800.74581763]},{"type":"Feature","id":"StreetAxes.fid--6f55e203_1a02c11fc5a_1181","geometry":{"type":"LineString","coordinates":[[146720.45947502,165647.94880009],[146727.04,165637.628],[146740.62,165613.39],[146743.5,165608.17],[146803.215,165500.01],[146812.035,165488],[146824.75,165476.605],[146842.22,165465.19],[146854.645,165459.565],[146868.67,165455.71],[146893.71400832,165452.55211186],[146909.43416837,165451.86311935]]},"geometry_name":"GEOM","properties":{"INSPIRE_ID":"https://databrussels.be/id/streetaxe/84213","TYPE":"S","HIERARCHY":null,"LVL":0,"STARTSN_ID":"https://databrussels.be/id/streetnode/3673","ENDSN_ID":"https://databrussels.be/id/streetnode/9166","STRNAMEFRE":"Avenue Kersbeek","STRNAMEDUT":"Kersbeeklaan","SLOPE":3.43,"LENGTH":291.539485285001},"bbox":[146720.45947502,165451.86311935,146909.43416837,165647.94880009]},{"type":"Feature","id":"StreetAxes.fid--6f55e203_1a02c11fc5a_1172","geometry":{"type":"LineString","coordinates":[[146594.516,165770.067],[146598.582,165782.516],[146702.63,165948.905],[146708.834,165959.726],[146701.572,165965.038],[146643.864,165992.21],[146639.88575806,165996.39052999]]},"geometry_name":"GEOM","properties":{"INSPIRE_ID":"https://databrussels.be/id/streetaxe/84215","TYPE":"S","HIERARCHY":null,"LVL":0,"STARTSN_ID":"https://databrussels.be/id/streetnode/2368","ENDSN_ID":"https://databrussels.be/id/streetnode/7810","STRNAMEFRE":"Rue Jean-Baptiste Baeck","STRNAMEDUT":"Jean-Baptiste Baeckstraat","SLOPE":2.79,"LENGTH":300.365799435486},"bbox":[146594.516,165770.067,146708.834,165996.39052999]},{"type":"Feature","id":"StreetAxes.fid--6f55e203_1a02c11fc5a_1180","geometry":{"type":"LineString","coordinates":[[146996.225,165492.995],[147056.725,165524.2],[147061.66317249,165527.74219856],[147063.82720278,165531.58295069]]},"geometry_name":"GEOM","properties":{"INSPIRE_ID":"https://databrussels.be/id/streetaxe/84712","TYPE":"S","HIERARCHY":"IDR","LVL":0,"STARTSN_ID":"https://databrussels.be/id/streetnode/2895","ENDSN_ID":"https://databrussels.be/id/streetnode/9162","STRNAMEFRE":"Rue du Merlo","STRNAMEDUT":"Merlostraat","SLOPE":4.82,"LENGTH":78.5591809565005},"bbox":[146996.225,165492.995,147063.82720278,165531.58295069]},{"type":"Feature","id":"StreetAxes.fid--6f55e203_1a02c11fc5a_116f","geometry":{"type":"LineString","coordinates":[[146503.199,166071.676],[146499.298,166059.415],[146443.349,165881.5],[146438.68761353,165866.67786803]]},"geometry_name":"GEOM","properties":{"INSPIRE_ID":"https://databrussels.be/id/streetaxe/84716","TYPE":"S","HIERARCHY":"DC","LVL":0,"STARTSN_ID":"https://databrussels.be/id/streetnode/14285","ENDSN_ID":"https://databrussels.be/id/streetnode/9159","STRNAMEFRE":"Avenue Kersbeek","STRNAMEDUT":"Kersbeeklaan","SLOPE":3.51,"LENGTH":214.909242173463},"bbox":[146438.68761353,165866.67786803,146503.199,166071.676]},{"type":"Feature","id":"StreetAxes.fid--6f55e203_1a02c11fc5a_117c","geometry":{"type":"LineString","coordinates":[[146914.02277102,165688.0731588],[146874.0373605,165758.36757114],[146872.24317895,165764.08790583]]},"geometry_name":"GEOM","properties":{"INSPIRE_ID":"https://databrussels.be/id/streetaxe/86296","TYPE":"S","HIERARCHY":"DR","LVL":0,"STARTSN_ID":"https://databrussels.be/id/streetnode/3142","ENDSN_ID":"https://databrussels.be/id/streetnode/9151","STRNAMEFRE":"Rue Victor Allard","STRNAMEDUT":"Victor Allardstraat","SLOPE":3.58,"LENGTH":86.8662240602679},"bbox":[146872.24317895,165688.0731588,146914.02277102,165764.08790583]},{"type":"Feature","id":"StreetAxes.fid--6f55e203_1a02c11fc5a_1175","geometry":{"type":"LineString","coordinates":[[146639.88575806,165996.39052999],[146628.17487081,165995.33296632]]},"geometry_name":"GEOM","properties":{"INSPIRE_ID":"https://databrussels.be/id/streetaxe/87112","TYPE":"I","HIERARCHY":"DR","LVL":0,"STARTSN_ID":"https://databrussels.be/id/streetnode/7810","ENDSN_ID":"https://databrussels.be/id/streetnode/8278","STRNAMEFRE":"Avenue Stuart Merrill","STRNAMEDUT":"Stuart Merrilllaan","SLOPE":16.5,"LENGTH":11.7585424722745},"bbox":[146628.17487081,165995.33296632,146639.88575806,165996.39052999]},{"type":"Feature","id":"StreetAxes.fid--6f55e203_1a02c11fc5a_1185","geometry":{"type":"LineString","coordinates":[[146720.45947502,165647.94880009],[146708.23032383,165639.97369734],[146693.13623525,165630.29790516],[146691.11984937,165627.2454231],[146690.71657219,165624.02015903],[146690.69921173,165623.10199753],[146681.54728888,165617.11222141],[146666.61163062,165608.04322316],[146666.30917274,165599.375326],[146655.889,165590.8325]]},"geometry_name":"GEOM","properties":{"INSPIRE_ID":"https://databrussels.be/id/streetaxe/94478","TYPE":"S","HIERARCHY":"DR","LVL":0,"STARTSN_ID":"https://databrussels.be/id/streetnode/3673","ENDSN_ID":"https://databrussels.be/id/streetnode/3674","STRNAMEFRE":"Clos de la Vigne Kersbeek","STRNAMEDUT":"Kersbeek-Wijngaarderf","SLOPE":2,"LENGTH":90.9147466984609},"bbox":[146655.889,165590.8325,146720.45947502,165647.94880009]},{"type":"Feature","id":"StreetAxes.fid--6f55e203_1a02c11fc5a_117f","geometry":{"type":"LineString","coordinates":[[146914.02277102,165688.0731588],[146924.64451024,165694.73392063],[146945.9048849,165703.3959701],[146969.97323358,165712.61944871],[147015.54264041,165726.97599367],[147019.07266488,165726.97599367],[147023.08405632,165722.48456061],[147029.90342178,165706.68434073],[147033.03230711,165698.26290375],[147037.48577027,165685.52681022],[147038.76941553,165666.27781139],[147037.14480199,165628.74727643],[147033.7293887,165602.82128114],[147033.15329615,165560.55007507]]},"geometry_name":"GEOM","properties":{"INSPIRE_ID":"https://databrussels.be/id/streetaxe/94823","TYPE":"S","HIERARCHY":null,"LVL":0,"STARTSN_ID":"https://databrussels.be/id/streetnode/3142","ENDSN_ID":"https://databrussels.be/id/streetnode/14283","STRNAMEFRE":"Avenue du Val Fleuri","STRNAMEDUT":"Val Fleurilaan","SLOPE":2.44,"LENGTH":283.566988048474},"bbox":[146914.02277102,165560.55007507,147038.76941553,165726.97599367]}],"numberReturned":25,"grand_bruxelles_source":{"authority":"Paradigm / Brussels-Capital Region","service":"https://geoservices-urbis.irisnet.be/geoserver/urbisvector/wfs","layer":"urbisvector:StreetAxes","crs":"EPSG:31370","bbox":[146500.0,165500.0,147000.0,166000.0],"cell_id":"bxl-e146500-n165500-s500","ownership":"bbox_intersection_source_unclipped"}}
