{"type":"FeatureCollection","totalFeatures":60,"numberMatched":60,"timeStamp":"2026-08-24T01:24:08.252Z","crs":{"type":"name","properties":{"name":"urn:ogc:def:crs:EPSG::31370"}},"bbox":[150253.60737627,166856.64354555,151108.203,167631.775],"features":[{"type":"Feature","id":"StreetAxes.fid-6d0a8ac7_1a031465927_-1985","geometry":{"type":"LineString","coordinates":[[150950.927,167335.748],[150931.209,167304.946],[150820.721,167194.878],[150812.944,167187.096]]},"geometry_name":"GEOM","properties":{"INSPIRE_ID":"https://databrussels.be/id/streetaxe/70688","TYPE":"S","HIERARCHY":"DR","LVL":0,"STARTSN_ID":"https://databrussels.be/id/streetnode/1198","ENDSN_ID":"https://databrussels.be/id/streetnode/22","STRNAMEFRE":"Avenue Jeanne","STRNAMEDUT":"Johannalaan","SLOPE":1.86,"LENGTH":203.53150566392},"bbox":[150812.944,167187.096,150950.927,167335.748]},{"type":"Feature","id":"StreetAxes.fid-6d0a8ac7_1a031465927_-1995","geometry":{"type":"LineString","coordinates":[[151108.203,167546.105],[151100.872,167540.237],[150900.9,167399.802],[150893.936,167392.01]]},"geometry_name":"GEOM","properties":{"INSPIRE_ID":"https://databrussels.be/id/streetaxe/71277","TYPE":"S","HIERARCHY":"DR","LVL":0,"STARTSN_ID":"https://databrussels.be/id/streetnode/3958","ENDSN_ID":"https://databrussels.be/id/streetnode/991","STRNAMEFRE":"Rue Elise","STRNAMEDUT":"Elizastraat","SLOPE":0.47,"LENGTH":264.198655185532},"bbox":[150893.936,167392.01,151108.203,167546.105]},{"type":"Feature","id":"StreetAxes.fid-6d0a8ac7_1a031465927_-1989","geometry":{"type":"LineString","coordinates":[[150812.944,167187.096],[150805.166,167179.314],[150711.946,167085.786],[150710.426,167084.27],[150700.647,167074.518]]},"geometry_name":"GEOM","properties":{"INSPIRE_ID":"https://databrussels.be/id/streetaxe/72036","TYPE":"S","HIERARCHY":"DR","LVL":0,"STARTSN_ID":"https://databrussels.be/id/streetnode/22","ENDSN_ID":"https://databrussels.be/id/streetnode/3625","STRNAMEFRE":"Avenue Jeanne","STRNAMEDUT":"Johannalaan","SLOPE":1.11,"LENGTH":159.010832440043},"bbox":[150700.647,167074.518,150812.944,167187.096]},{"type":"Feature","id":"StreetAxes.fid-6d0a8ac7_1a031465927_-198b","geometry":{"type":"LineString","coordinates":[[150887.389,166939.052],[150895.478,166938.568],[150926.36,166956.555],[151056.181,167019.088],[151060.75,167021.94],[151076.01,167031.465],[151092.04,167038.251]]},"geometry_name":"GEOM","properties":{"INSPIRE_ID":"https://databrussels.be/id/streetaxe/73236","TYPE":"S","HIERARCHY":"DR","LVL":0,"STARTSN_ID":"https://databrussels.be/id/streetnode/1028","ENDSN_ID":"https://databrussels.be/id/streetnode/2167","STRNAMEFRE":"Avenue Paul Héger","STRNAMEDUT":"Paul Hégerlaan","SLOPE":3.07,"LENGTH":228.720516540613},"bbox":[150887.389,166938.568,151092.04,167038.251]},{"type":"Feature","id":"StreetAxes.fid-6d0a8ac7_1a031465927_-1966","geometry":{"type":"LineString","coordinates":[[150535.82260474,167448.22860146],[150541.3550042,167459.43927574],[150547.90270835,167476.66189829],[150556.8409804,167516.06696781],[150557.46784254,167525.31765243]]},"geometry_name":"GEOM","properties":{"INSPIRE_ID":"https://databrussels.be/id/streetaxe/73717","TYPE":"S","HIERARCHY":"IDR","LVL":0,"STARTSN_ID":"https://databrussels.be/id/streetnode/7217","ENDSN_ID":"https://databrussels.be/id/streetnode/7177","STRNAMEFRE":"Avenue Emile Duray","STRNAMEDUT":"Emile Duraylaan","SLOPE":2.78,"LENGTH":80.6047430444191},"bbox":[150535.82260474,167448.22860146,150557.46784254,167525.31765243]},{"type":"Feature","id":"StreetAxes.fid-6d0a8ac7_1a031465927_-196a","geometry":{"type":"LineString","coordinates":[[150502.86583662,167314.3524875],[150502.85449433,167297.23134708],[150507.67282571,167288.82815651],[150511.60445652,167281.107541],[150526.35873094,167249.99688206]]},"geometry_name":"GEOM","properties":{"INSPIRE_ID":"https://databrussels.be/id/streetaxe/74121","TYPE":"S","HIERARCHY":"MER","LVL":0,"STARTSN_ID":"https://databrussels.be/id/streetnode/7225","ENDSN_ID":"https://databrussels.be/id/streetnode/7212","STRNAMEFRE":"Avenue Franklin Roosevelt","STRNAMEDUT":"Franklin Rooseveltlaan","SLOPE":1.42,"LENGTH":69.9037580130224},"bbox":[150502.85449433,167249.99688206,150526.35873094,167314.3524875]},{"type":"Feature","id":"StreetAxes.fid-6d0a8ac7_1a031465927_-1978","geometry":{"type":"LineString","coordinates":[[150334.81563043,167163.78748456],[150508.47011738,167207.40551543]]},"geometry_name":"GEOM","properties":{"INSPIRE_ID":"https://databrussels.be/id/streetaxe/74257","TYPE":"S","HIERARCHY":"MAR","LVL":0,"STARTSN_ID":"https://databrussels.be/id/streetnode/7227","ENDSN_ID":"https://databrussels.be/id/streetnode/7226","STRNAMEFRE":"Avenue Lloyd George","STRNAMEDUT":"Lloyd Georgelaan","SLOPE":2.94,"LENGTH":179.048634325457},"bbox":[150334.81563043,167163.78748456,150508.47011738,167207.40551543]},{"type":"Feature","id":"StreetAxes.fid-6d0a8ac7_1a031465927_-1993","geometry":{"type":"LineString","coordinates":[[151029.265,167631.775],[151021.628,167626.636],[150818.392,167482.709],[150811.24,167474.95]]},"geometry_name":"GEOM","properties":{"INSPIRE_ID":"https://databrussels.be/id/streetaxe/74500","TYPE":"S","HIERARCHY":"DR","LVL":0,"STARTSN_ID":"https://databrussels.be/id/streetnode/2688","ENDSN_ID":"https://databrussels.be/id/streetnode/2860","STRNAMEFRE":"Rue Emile Banning","STRNAMEDUT":"Emile Banningstraat","SLOPE":0.66,"LENGTH":268.795314310581},"bbox":[150811.24,167474.95,151029.265,167631.775]},{"type":"Feature","id":"StreetAxes.fid-6d0a8ac7_1a031465927_-1968","geometry":{"type":"LineString","coordinates":[[150535.82260474,167448.22860146],[150530.18994091,167436.81475475],[150522.04847163,167413.79854027],[150516.8272715,167394.81450626],[150514.27861562,167382.78078287],[150510.43612113,167339.45376434],[150502.86583662,167314.3524875]]},"geometry_name":"GEOM","properties":{"INSPIRE_ID":"https://databrussels.be/id/streetaxe/74741","TYPE":"S","HIERARCHY":"IDR","LVL":0,"STARTSN_ID":"https://databrussels.be/id/streetnode/7217","ENDSN_ID":"https://databrussels.be/id/streetnode/7225","STRNAMEFRE":"Avenue Emile Duray","STRNAMEDUT":"Emile Duraylaan","SLOPE":3.18,"LENGTH":138.846417990522},"bbox":[150502.86583662,167314.3524875,150535.82260474,167448.22860146]},{"type":"Feature","id":"StreetAxes.fid-6d0a8ac7_1a031465927_-1983","geometry":{"type":"LineString","coordinates":[[150578.4616893,167208.9164625],[150583.39088925,167216.09713218],[150589.06389193,167226.52383568],[150593.42182457,167244.08321387]]},"geometry_name":"GEOM","properties":{"INSPIRE_ID":"https://databrussels.be/id/streetaxe/74742","TYPE":"S","HIERARCHY":"MER","LVL":0,"STARTSN_ID":"https://databrussels.be/id/streetnode/7218","ENDSN_ID":"https://databrussels.be/id/streetnode/7223","STRNAMEFRE":"Avenue du Congo","STRNAMEDUT":"Kongolaan","SLOPE":2.07,"LENGTH":38.6718812555981},"bbox":[150578.4616893,167208.9164625,150593.42182457,167244.08321387]},{"type":"Feature","id":"StreetAxes.fid-6d0a8ac7_1a031465927_-1998","geometry":{"type":"LineString","coordinates":[[150642.60428177,167351.51986058],[150619.6295,167378.5285],[150558.63906044,167439.35898856],[150535.82260474,167448.22860146]]},"geometry_name":"GEOM","properties":{"INSPIRE_ID":"https://databrussels.be/id/streetaxe/74809","TYPE":"S","HIERARCHY":"DR","LVL":0,"STARTSN_ID":"https://databrussels.be/id/streetnode/7219","ENDSN_ID":"https://databrussels.be/id/streetnode/7217","STRNAMEFRE":"Avenue de la Folle Chanson","STRNAMEDUT":"Lied Van Sotternieënlaan","SLOPE":2.21,"LENGTH":146.078808061168},"bbox":[150535.82260474,167351.51986058,150642.60428177,167448.22860146]},{"type":"Feature","id":"StreetAxes.fid-6d0a8ac7_1a031465927_-197e","geometry":{"type":"LineString","coordinates":[[150502.86583662,167314.3524875],[150524.58603584,167312.81431812],[150631.97176816,167340.16251607],[150639.56191267,167330.33833678]]},"geometry_name":"GEOM","properties":{"INSPIRE_ID":"https://databrussels.be/id/streetaxe/74857","TYPE":"S","HIERARCHY":"DR","LVL":0,"STARTSN_ID":"https://databrussels.be/id/streetnode/7225","ENDSN_ID":"https://databrussels.be/id/streetnode/7220","STRNAMEFRE":"Boulevard de la Cambre","STRNAMEDUT":"Terkamerenlaan","SLOPE":0.83,"LENGTH":145.00274068033},"bbox":[150502.86583662,167312.81431812,150639.56191267,167340.16251607]},{"type":"Feature","id":"StreetAxes.fid-6d0a8ac7_1a031465927_-196b","geometry":{"type":"LineString","coordinates":[[150502.86583662,167314.3524875],[150517.0497818,167300.59032856],[150527.01165201,167276.61777114],[150547.18566019,167234.0518788]]},"geometry_name":"GEOM","properties":{"INSPIRE_ID":"https://databrussels.be/id/streetaxe/74858","TYPE":"S","HIERARCHY":"MER","LVL":0,"STARTSN_ID":"https://databrussels.be/id/streetnode/7225","ENDSN_ID":"https://databrussels.be/id/streetnode/7214","STRNAMEFRE":"Avenue Franklin Roosevelt","STRNAMEDUT":"Franklin Rooseveltlaan","SLOPE":1.11,"LENGTH":92.827771149514},"bbox":[150502.86583662,167234.0518788,150547.18566019,167314.3524875]},{"type":"Feature","id":"StreetAxes.fid-6d0a8ac7_1a031465927_-1979","geometry":{"type":"LineString","coordinates":[[150505.14038574,167110.28961082],[150510.041,167114.814],[150547.17788737,167162.29504598],[150562.84787943,167174.4471404]]},"geometry_name":"GEOM","properties":{"INSPIRE_ID":"https://databrussels.be/id/streetaxe/75813","TYPE":"S","HIERARCHY":"DR","LVL":0,"STARTSN_ID":"https://databrussels.be/id/streetnode/6289","ENDSN_ID":"https://databrussels.be/id/streetnode/7224","STRNAMEFRE":"Avenue de Cérès","STRNAMEDUT":"Cereslaan","SLOPE":2.47,"LENGTH":86.7789528923019},"bbox":[150505.14038574,167110.28961082,150562.84787943,167174.4471404]},{"type":"Feature","id":"StreetAxes.fid-6d0a8ac7_1a031465927_-198f","geometry":{"type":"LineString","coordinates":[[150637.52734588,167011.20185573],[150642.877,167000],[150657.9308281,166971.77645489],[150672.15747489,166946.15796756],[150693.27253852,166913.02643325],[150719.05136197,166877.34752688],[150734.76692498,166857.05575935]]},"geometry_name":"GEOM","properties":{"INSPIRE_ID":"https://databrussels.be/id/streetaxe/75975","TYPE":"S","HIERARCHY":"MER","LVL":0,"STARTSN_ID":"https://databrussels.be/id/streetnode/7062","ENDSN_ID":"https://databrussels.be/id/streetnode/7747","STRNAMEFRE":"Avenue Franklin Roosevelt","STRNAMEDUT":"Franklin Rooseveltlaan","SLOPE":2.39,"LENGTH":182.675861330029},"bbox":[150637.52734588,166857.05575935,150734.76692498,167011.20185573]},{"type":"Feature","id":"StreetAxes.fid-6d0a8ac7_1a031465927_-196c","geometry":{"type":"LineString","coordinates":[[150547.18566019,167234.0518788],[150552.46313642,167220.60876266],[150555.46279924,167214.55144943]]},"geometry_name":"GEOM","properties":{"INSPIRE_ID":"https://databrussels.be/id/streetaxe/76979","TYPE":"S","HIERARCHY":"MER","LVL":0,"STARTSN_ID":"https://databrussels.be/id/streetnode/7214","ENDSN_ID":"https://databrussels.be/id/streetnode/7210","STRNAMEFRE":"Avenue Franklin Roosevelt","STRNAMEDUT":"Franklin Rooseveltlaan","SLOPE":2.03,"LENGTH":21.2012879458203},"bbox":[150547.18566019,167214.55144943,150555.46279924,167234.0518788]},{"type":"Feature","id":"StreetAxes.fid-6d0a8ac7_1a031465927_-1984","geometry":{"type":"LineString","coordinates":[[150563.08156044,167199.16664591],[150578.4616893,167208.9164625]]},"geometry_name":"GEOM","properties":{"INSPIRE_ID":"https://databrussels.be/id/streetaxe/76980","TYPE":"S","HIERARCHY":"MER","LVL":0,"STARTSN_ID":"https://databrussels.be/id/streetnode/7215","ENDSN_ID":"https://databrussels.be/id/streetnode/7218","STRNAMEFRE":"Avenue Franklin Roosevelt","STRNAMEDUT":"Franklin Rooseveltlaan","SLOPE":3.13,"LENGTH":18.2100875158512},"bbox":[150563.08156044,167199.16664591,150578.4616893,167208.9164625]},{"type":"Feature","id":"StreetAxes.fid-6d0a8ac7_1a031465927_-196d","geometry":{"type":"LineString","coordinates":[[150543.82982888,167212.85088654],[150540.41559346,167219.74535923],[150526.35873094,167249.99688206]]},"geometry_name":"GEOM","properties":{"INSPIRE_ID":"https://databrussels.be/id/streetaxe/77010","TYPE":"S","HIERARCHY":"MER","LVL":0,"STARTSN_ID":"https://databrussels.be/id/streetnode/7221","ENDSN_ID":"https://databrussels.be/id/streetnode/7212","STRNAMEFRE":"Avenue Franklin Roosevelt","STRNAMEDUT":"Franklin Rooseveltlaan","SLOPE":1.78,"LENGTH":41.0514608316235},"bbox":[150526.35873094,167212.85088654,150543.82982888,167249.99688206]},{"type":"Feature","id":"StreetAxes.fid-6d0a8ac7_1a031465927_-1987","geometry":{"type":"LineString","coordinates":[[150579.52364786,167171.84645444],[150577.89701077,167185.77938232],[150577.59916268,167190.29504603],[150578.4616893,167208.9164625]]},"geometry_name":"GEOM","properties":{"INSPIRE_ID":"https://databrussels.be/id/streetaxe/77011","TYPE":"S","HIERARCHY":"MER","LVL":0,"STARTSN_ID":"https://databrussels.be/id/streetnode/7222","ENDSN_ID":"https://databrussels.be/id/streetnode/7218","STRNAMEFRE":"Avenue Franklin Roosevelt","STRNAMEDUT":"Franklin Rooseveltlaan","SLOPE":2.18,"LENGTH":37.194416965187},"bbox":[150577.59916268,167171.84645444,150579.52364786,167208.9164625]},{"type":"Feature","id":"StreetAxes.fid-6d0a8ac7_1a031465927_-1991","geometry":{"type":"LineString","coordinates":[[150579.52364786,167171.84645444],[150626.89739369,167068.01852161],[150648.55524318,167022.42371382]]},"geometry_name":"GEOM","properties":{"INSPIRE_ID":"https://databrussels.be/id/streetaxe/77012","TYPE":"S","HIERARCHY":"MER","LVL":0,"STARTSN_ID":"https://databrussels.be/id/streetnode/7222","ENDSN_ID":"https://databrussels.be/id/streetnode/7061","STRNAMEFRE":"Avenue Franklin Roosevelt","STRNAMEDUT":"Franklin Rooseveltlaan","SLOPE":2.37,"LENGTH":164.602193727175},"bbox":[150579.52364786,167022.42371382,150648.55524318,167171.84645444]},{"type":"Feature","id":"StreetAxes.fid-6d0a8ac7_1a031465927_-1982","geometry":{"type":"LineString","coordinates":[[150593.42182457,167244.08321387],[150585.40117562,167229.92225912],[150582.96706251,167226.74356842],[150579.37878161,167223.03887979],[150575.84845764,167220.97997641],[150571.16511257,167218.89895109],[150561.28889781,167215.40313621],[150555.46279924,167214.55144943]]},"geometry_name":"GEOM","properties":{"INSPIRE_ID":"https://databrussels.be/id/streetaxe/77013","TYPE":"S","HIERARCHY":"MER","LVL":0,"STARTSN_ID":"https://databrussels.be/id/streetnode/7223","ENDSN_ID":"https://databrussels.be/id/streetnode/7210","STRNAMEFRE":"Avenue du Congo","STRNAMEDUT":"Kongolaan","SLOPE":2.2,"LENGTH":51.0122106251542},"bbox":[150555.46279924,167214.55144943,150593.42182457,167244.08321387]},{"type":"Feature","id":"StreetAxes.fid-6d0a8ac7_1a031465927_-1992","geometry":{"type":"LineString","coordinates":[[150562.84787943,167174.4471404],[150564.56191471,167163.73412152],[150604.73,167079.962],[150626.913,167033.063],[150637.52734588,167011.20185573]]},"geometry_name":"GEOM","properties":{"INSPIRE_ID":"https://databrussels.be/id/streetaxe/77014","TYPE":"S","HIERARCHY":"MER","LVL":0,"STARTSN_ID":"https://databrussels.be/id/streetnode/7224","ENDSN_ID":"https://databrussels.be/id/streetnode/7062","STRNAMEFRE":"Avenue Franklin Roosevelt","STRNAMEDUT":"Franklin Rooseveltlaan","SLOPE":2.1,"LENGTH":179.93613307121},"bbox":[150562.84787943,167011.20185573,150637.52734588,167174.4471404]},{"type":"Feature","id":"StreetAxes.fid-6d0a8ac7_1a031465927_-197c","geometry":{"type":"LineString","coordinates":[[150656.37360971,167340.12943912],[150678.17519865,167345.59063637],[150923.986,167326.88],[150950.927,167335.748]]},"geometry_name":"GEOM","properties":{"INSPIRE_ID":"https://databrussels.be/id/streetaxe/77341","TYPE":"S","HIERARCHY":"IDR","LVL":0,"STARTSN_ID":"https://databrussels.be/id/streetnode/7211","ENDSN_ID":"https://databrussels.be/id/streetnode/1198","STRNAMEFRE":"Avenue Maurice","STRNAMEDUT":"Mauricelaan","SLOPE":5.14,"LENGTH":297.360051427252},"bbox":[150656.37360971,167326.88,150950.927,167345.59063637]},{"type":"Feature","id":"StreetAxes.fid-6d0a8ac7_1a031465927_-1986","geometry":{"type":"LineString","coordinates":[[150656.37360971,167340.12943912],[150669.78592161,167329.24986343],[150805.04,167194.92],[150812.944,167187.096]]},"geometry_name":"GEOM","properties":{"INSPIRE_ID":"https://databrussels.be/id/streetaxe/77342","TYPE":"S","HIERARCHY":"DR","LVL":0,"STARTSN_ID":"https://databrussels.be/id/streetnode/7211","ENDSN_ID":"https://databrussels.be/id/streetnode/22","STRNAMEFRE":"Avenue Ernestine","STRNAMEDUT":"Ernestinelaan","SLOPE":5.25,"LENGTH":219.017341744232},"bbox":[150656.37360971,167187.096,150812.944,167340.12943912]},{"type":"Feature","id":"StreetAxes.fid-6d0a8ac7_1a031465927_-198a","geometry":{"type":"LineString","coordinates":[[150656.37360971,167340.12943912],[150656.78104322,167322.25931829],[150684.512,167131.411],[150690.36,167090.833],[150691.435,167083.756],[150700.647,167074.518]]},"geometry_name":"GEOM","properties":{"INSPIRE_ID":"https://databrussels.be/id/streetaxe/77343","TYPE":"S","HIERARCHY":"DR","LVL":0,"STARTSN_ID":"https://databrussels.be/id/streetnode/7211","ENDSN_ID":"https://databrussels.be/id/streetnode/3625","STRNAMEFRE":"Avenue des Courses","STRNAMEDUT":"Wedrennenlaan","SLOPE":3.58,"LENGTH":271.928812284894},"bbox":[150656.37360971,167074.518,150700.647,167340.12943912]},{"type":"Feature","id":"StreetAxes.fid-6d0a8ac7_1a031465927_-199a","geometry":{"type":"LineString","coordinates":[[150656.37360971,167340.12943912],[150674.93225384,167378.95213541],[150709.03700067,167442.15745045],[150751.67211526,167519.60739602],[150757.56088406,167531.01018292]]},"geometry_name":"GEOM","properties":{"INSPIRE_ID":"https://databrussels.be/id/streetaxe/77344","TYPE":"S","HIERARCHY":"MER","LVL":0,"STARTSN_ID":"https://databrussels.be/id/streetnode/7211","ENDSN_ID":"https://databrussels.be/id/streetnode/7513","STRNAMEFRE":"Boulevard Général Jacques","STRNAMEDUT":"Generaal Jacqueslaan","SLOPE":0.83,"LENGTH":216.093183811802},"bbox":[150656.37360971,167340.12943912,150757.56088406,167531.01018292]},{"type":"Feature","id":"StreetAxes.fid-6d0a8ac7_1a031465927_-1981","geometry":{"type":"LineString","coordinates":[[150547.18566019,167234.0518788],[150561.90738971,167228.24833262],[150565.86691564,167227.54240697],[150571.84567532,167227.87183054],[150578.00532697,167230.20395689],[150583.4635601,167234.72822003],[150593.42182457,167244.08321387]]},"geometry_name":"GEOM","properties":{"INSPIRE_ID":"https://databrussels.be/id/streetaxe/77383","TYPE":"S","HIERARCHY":"MER","LVL":0,"STARTSN_ID":"https://databrussels.be/id/streetnode/7214","ENDSN_ID":"https://databrussels.be/id/streetnode/7223","STRNAMEFRE":"Avenue du Congo","STRNAMEDUT":"Kongolaan","SLOPE":1.3,"LENGTH":53.1732265480903},"bbox":[150547.18566019,167227.54240697,150593.42182457,167244.08321387]},{"type":"Feature","id":"StreetAxes.fid-6d0a8ac7_1a031465927_-196e","geometry":{"type":"LineString","coordinates":[[150526.35873094,167249.99688206],[150525.63111508,167234.62646403],[150524.36026802,167228.08816797],[150521.21948802,167221.41485008],[150517.82187876,167217.80900113],[150508.47011738,167207.40551543]]},"geometry_name":"GEOM","properties":{"INSPIRE_ID":"https://databrussels.be/id/streetaxe/77610","TYPE":"S","HIERARCHY":"MAR","LVL":0,"STARTSN_ID":"https://databrussels.be/id/streetnode/7212","ENDSN_ID":"https://databrussels.be/id/streetnode/7226","STRNAMEFRE":"Avenue Franklin Roosevelt","STRNAMEDUT":"Franklin Rooseveltlaan","SLOPE":3.47,"LENGTH":48.366998998178},"bbox":[150508.47011738,167207.40551543,150526.35873094,167249.99688206]},{"type":"Feature","id":"StreetAxes.fid-6d0a8ac7_1a031465927_-1970","geometry":{"type":"LineString","coordinates":[[150508.47011738,167207.40551543],[150521.29439938,167212.54310379],[150535.90155698,167215.45507251],[150543.82982888,167212.85088654]]},"geometry_name":"GEOM","properties":{"INSPIRE_ID":"https://databrussels.be/id/streetaxe/78104","TYPE":"S","HIERARCHY":"MAR","LVL":0,"STARTSN_ID":"https://databrussels.be/id/streetnode/7226","ENDSN_ID":"https://databrussels.be/id/streetnode/7221","STRNAMEFRE":"Avenue Franklin Roosevelt","STRNAMEDUT":"Franklin Rooseveltlaan","SLOPE":2.56,"LENGTH":37.0546999451152},"bbox":[150508.47011738,167207.40551543,150543.82982888,167215.45507251]},{"type":"Feature","id":"StreetAxes.fid-6d0a8ac7_1a031465927_-1997","geometry":{"type":"LineString","coordinates":[[150746.29420697,167547.23109903],[150741.00457621,167536.6891659],[150676.75231695,167415.91103068],[150666.94290598,167400.09945474],[150649.82431772,167374.67173124],[150642.60428177,167351.51986058]]},"geometry_name":"GEOM","properties":{"INSPIRE_ID":"https://databrussels.be/id/streetaxe/78467","TYPE":"S","HIERARCHY":"MER","LVL":0,"STARTSN_ID":"https://databrussels.be/id/streetnode/7509","ENDSN_ID":"https://databrussels.be/id/streetnode/7219","STRNAMEFRE":"Boulevard Général Jacques","STRNAMEDUT":"Generaal Jacqueslaan","SLOPE":0.63,"LENGTH":222.111943751168},"bbox":[150642.60428177,167351.51986058,150746.29420697,167547.23109903]},{"type":"Feature","id":"StreetAxes.fid-6d0a8ac7_1a031465927_-1965","geometry":{"type":"LineString","coordinates":[[150484.56425931,167023.44170628],[150500.364,167000.916],[150508.948,166977.94],[150510.91,166960.892],[150509.226,166941.538],[150503.775,166923.628],[150485.914,166890.622],[150470.694,166862.142],[150468.89366759,166856.64354555]]},"geometry_name":"GEOM","properties":{"INSPIRE_ID":"https://databrussels.be/id/streetaxe/78766","TYPE":"S","HIERARCHY":null,"LVL":0,"STARTSN_ID":"https://databrussels.be/id/streetnode/4793","ENDSN_ID":"https://databrussels.be/id/streetnode/4802","STRNAMEFRE":"Avenue de Flore","STRNAMEDUT":"Floralaan","SLOPE":2.36,"LENGTH":182.956584093412},"bbox":[150468.89366759,166856.64354555,150510.91,167023.44170628]},{"type":"Feature","id":"StreetAxes.fid-6d0a8ac7_1a031465927_-198c","geometry":{"type":"LineString","coordinates":[[150742.80428822,166876.24493592],[150730.24892655,166888.28140872],[150718.5189168,166903.85343043],[150708.14183326,166917.97429599],[150693.03648182,166940.26489158],[150676.37770608,166968.27595516],[150664.74025991,166989.65434562],[150648.55524318,167022.42371382]]},"geometry_name":"GEOM","properties":{"INSPIRE_ID":"https://databrussels.be/id/streetaxe/79884","TYPE":"S","HIERARCHY":"MER","LVL":0,"STARTSN_ID":"https://databrussels.be/id/streetnode/7744","ENDSN_ID":"https://databrussels.be/id/streetnode/7061","STRNAMEFRE":"Avenue Franklin Roosevelt","STRNAMEDUT":"Franklin Rooseveltlaan","SLOPE":2.39,"LENGTH":174.818407848183},"bbox":[150648.55524318,166876.24493592,150742.80428822,167022.42371382]},{"type":"Feature","id":"StreetAxes.fid-6d0a8ac7_1a031465927_-1980","geometry":{"type":"LineString","coordinates":[[150639.56191267,167330.33833678],[150631.1505,167314.792],[150593.42182457,167244.08321387]]},"geometry_name":"GEOM","properties":{"INSPIRE_ID":"https://databrussels.be/id/streetaxe/80217","TYPE":"S","HIERARCHY":"MER","LVL":0,"STARTSN_ID":"https://databrussels.be/id/streetnode/7220","ENDSN_ID":"https://databrussels.be/id/streetnode/7223","STRNAMEFRE":"Avenue du Congo","STRNAMEDUT":"Kongolaan","SLOPE":1.57,"LENGTH":97.8207627909067},"bbox":[150593.42182457,167244.08321387,150639.56191267,167330.33833678]},{"type":"Feature","id":"StreetAxes.fid-6d0a8ac7_1a031465927_-1990","geometry":{"type":"LineString","coordinates":[[150617.522,166988.556],[150621.238,166994.652],[150637.52734588,167011.20185573]]},"geometry_name":"GEOM","properties":{"INSPIRE_ID":"https://databrussels.be/id/streetaxe/81253","TYPE":"S","HIERARCHY":"MER","LVL":0,"STARTSN_ID":"https://databrussels.be/id/streetnode/4615","ENDSN_ID":"https://databrussels.be/id/streetnode/7062","STRNAMEFRE":"Avenue Franklin Roosevelt","STRNAMEDUT":"Franklin Rooseveltlaan","SLOPE":1.94,"LENGTH":30.3608715186609},"bbox":[150617.522,166988.556,150637.52734588,167011.20185573]},{"type":"Feature","id":"StreetAxes.fid-6d0a8ac7_1a031465927_-198d","geometry":{"type":"LineString","coordinates":[[150700.647,167074.518],[150689.348,167063.25],[150662.096,167036.261],[150648.55524318,167022.42371382]]},"geometry_name":"GEOM","properties":{"INSPIRE_ID":"https://databrussels.be/id/streetaxe/81254","TYPE":"S","HIERARCHY":"DR","LVL":0,"STARTSN_ID":"https://databrussels.be/id/streetnode/3625","ENDSN_ID":"https://databrussels.be/id/streetnode/7061","STRNAMEFRE":"Avenue Jeanne","STRNAMEDUT":"Johannalaan","SLOPE":3.65,"LENGTH":73.6722588936789},"bbox":[150648.55524318,167022.42371382,150700.647,167074.518]},{"type":"Feature","id":"StreetAxes.fid-6d0a8ac7_1a031465927_-1971","geometry":{"type":"LineString","coordinates":[[150508.47011738,167207.40551543],[150527.04448545,167205.42859436],[150535.07574478,167206.94941234],[150543.82982888,167212.85088654]]},"geometry_name":"GEOM","properties":{"INSPIRE_ID":"https://databrussels.be/id/streetaxe/82810","TYPE":"S","HIERARCHY":"MAR","LVL":0,"STARTSN_ID":"https://databrussels.be/id/streetnode/7226","ENDSN_ID":"https://databrussels.be/id/streetnode/7221","STRNAMEFRE":"Avenue Franklin Roosevelt","STRNAMEDUT":"Franklin Rooseveltlaan","SLOPE":2.54,"LENGTH":37.4107878050659},"bbox":[150508.47011738,167205.42859436,150543.82982888,167212.85088654]},{"type":"Feature","id":"StreetAxes.fid-6d0a8ac7_1a031465927_-1962","geometry":{"type":"LineString","coordinates":[[150505.14038574,167110.28961082],[150494.866,167100.804],[150484.71281565,167093.43911731],[150472.094,167087.464],[150458.019,167084.242],[150430.766,167077.138]]},"geometry_name":"GEOM","properties":{"INSPIRE_ID":"https://databrussels.be/id/streetaxe/82980","TYPE":"S","HIERARCHY":"DR","LVL":0,"STARTSN_ID":"https://databrussels.be/id/streetnode/6289","ENDSN_ID":"https://databrussels.be/id/streetnode/706","STRNAMEFRE":"Avenue de Cérès","STRNAMEDUT":"Cereslaan","SLOPE":4.06,"LENGTH":83.0913493364642},"bbox":[150430.766,167077.138,150505.14038574,167110.28961082]},{"type":"Feature","id":"StreetAxes.fid-6d0a8ac7_1a031465927_-1967","geometry":{"type":"LineString","coordinates":[[150253.60737627,167459.89640455],[150432.25734347,167353.73349794],[150470.35340726,167330.86389761],[150502.86583662,167314.3524875]]},"geometry_name":"GEOM","properties":{"INSPIRE_ID":"https://databrussels.be/id/streetaxe/86173","TYPE":"S","HIERARCHY":"MER","LVL":0,"STARTSN_ID":"https://databrussels.be/id/streetnode/5019","ENDSN_ID":"https://databrussels.be/id/streetnode/7225","STRNAMEFRE":"Avenue Emile De Mot","STRNAMEDUT":"Emile De Motlaan","SLOPE":1.43,"LENGTH":288.711575121571},"bbox":[150253.60737627,167314.3524875,150502.86583662,167459.89640455]},{"type":"Feature","id":"StreetAxes.fid-6d0a8ac7_1a031465927_-1999","geometry":{"type":"LineString","coordinates":[[150642.60428177,167351.51986058],[150648.02667705,167355.12084738],[150651.21694018,167357.9546377],[150654.0834905,167361.02474455],[150656.6512798,167364.34876696],[150658.73114876,167367.63427587],[150701.28812205,167446.57011558],[150746.60567804,167529.79573421],[150751.62552837,167539.55546259]]},"geometry_name":"GEOM","properties":{"INSPIRE_ID":"https://databrussels.be/id/streetaxe/90147","TYPE":"C","HIERARCHY":"MER","LVL":0,"STARTSN_ID":"https://databrussels.be/id/streetnode/7219","ENDSN_ID":"https://databrussels.be/id/streetnode/7524","STRNAMEFRE":"Boulevard Général Jacques","STRNAMEDUT":"Generaal Jacqueslaan","SLOPE":0.71,"LENGTH":218.481270875086},"bbox":[150642.60428177,167351.51986058,150751.62552837,167539.55546259]},{"type":"Feature","id":"StreetAxes.fid-6d0a8ac7_1a031465927_-197b","geometry":{"type":"LineString","coordinates":[[150656.37360971,167340.12943912],[150639.56191267,167330.33833678]]},"geometry_name":"GEOM","properties":{"INSPIRE_ID":"https://databrussels.be/id/streetaxe/90323","TYPE":"I","HIERARCHY":"MER","LVL":0,"STARTSN_ID":"https://databrussels.be/id/streetnode/7211","ENDSN_ID":"https://databrussels.be/id/streetnode/7220","STRNAMEFRE":"Rond-Point de l'Etoile","STRNAMEDUT":"Sterreplein","SLOPE":0.05,"LENGTH":19.4550467112351},"bbox":[150639.56191267,167330.33833678,150656.37360971,167340.12943912]},{"type":"Feature","id":"StreetAxes.fid-6d0a8ac7_1a031465927_-1972","geometry":{"type":"LineString","coordinates":[[150555.46279924,167214.55144943],[150563.08156044,167199.16664591]]},"geometry_name":"GEOM","properties":{"INSPIRE_ID":"https://databrussels.be/id/streetaxe/90324","TYPE":"I","HIERARCHY":"MER","LVL":0,"STARTSN_ID":"https://databrussels.be/id/streetnode/7210","ENDSN_ID":"https://databrussels.be/id/streetnode/7215","STRNAMEFRE":"Avenue Franklin Roosevelt","STRNAMEDUT":"Franklin Rooseveltlaan","SLOPE":1.46,"LENGTH":17.1679265421447},"bbox":[150555.46279924,167199.16664591,150563.08156044,167214.55144943]},{"type":"Feature","id":"StreetAxes.fid-6d0a8ac7_1a031465927_-1969","geometry":{"type":"LineString","coordinates":[[150502.86583662,167314.3524875],[150467.21434474,167304.86548264],[150269.842,167252.588],[150259.2357868,167250.25197209]]},"geometry_name":"GEOM","properties":{"INSPIRE_ID":"https://databrussels.be/id/streetaxe/90325","TYPE":"SC","HIERARCHY":"DR","LVL":0,"STARTSN_ID":"https://databrussels.be/id/streetnode/7225","ENDSN_ID":"https://databrussels.be/id/streetnode/5352","STRNAMEFRE":"Boulevard de la Cambre","STRNAMEDUT":"Terkamerenlaan","SLOPE":2.87,"LENGTH":251.930890575766},"bbox":[150259.2357868,167250.25197209,150502.86583662,167314.3524875]},{"type":"Feature","id":"StreetAxes.fid-6d0a8ac7_1a031465927_-1977","geometry":{"type":"LineString","coordinates":[[150553.95131702,167192.41224799],[150562.84787943,167174.4471404]]},"geometry_name":"GEOM","properties":{"INSPIRE_ID":"https://databrussels.be/id/streetaxe/90326","TYPE":"I","HIERARCHY":"MER","LVL":0,"STARTSN_ID":"https://databrussels.be/id/streetnode/7216","ENDSN_ID":"https://databrussels.be/id/streetnode/7224","STRNAMEFRE":"Avenue Franklin Roosevelt","STRNAMEDUT":"Franklin Rooseveltlaan","SLOPE":1.05,"LENGTH":20.0472919196093},"bbox":[150553.95131702,167174.4471404,150562.84787943,167192.41224799]},{"type":"Feature","id":"StreetAxes.fid-6d0a8ac7_1a031465927_-1975","geometry":{"type":"LineString","coordinates":[[150563.08156044,167199.16664591],[150571.97812285,167181.20153832]]},"geometry_name":"GEOM","properties":{"INSPIRE_ID":"https://databrussels.be/id/streetaxe/90327","TYPE":"I","HIERARCHY":"MER","LVL":0,"STARTSN_ID":"https://databrussels.be/id/streetnode/7215","ENDSN_ID":"https://databrussels.be/id/streetnode/7213","STRNAMEFRE":"Avenue Franklin Roosevelt","STRNAMEDUT":"Franklin Rooseveltlaan","SLOPE":0.85,"LENGTH":20.047291920496},"bbox":[150563.08156044,167181.20153832,150571.97812285,167199.16664591]},{"type":"Feature","id":"StreetAxes.fid-6d0a8ac7_1a031465927_-197d","geometry":{"type":"LineString","coordinates":[[150502.86583662,167314.3524875],[150535.32132986,167322.98902432],[150611.01507944,167342.13725711],[150629.76615302,167347.02857977],[150638.41277735,167349.94775759],[150642.60428177,167351.51986058]]},"geometry_name":"GEOM","properties":{"INSPIRE_ID":"https://databrussels.be/id/streetaxe/90328","TYPE":"C","HIERARCHY":"DR","LVL":0,"STARTSN_ID":"https://databrussels.be/id/streetnode/7225","ENDSN_ID":"https://databrussels.be/id/streetnode/7219","STRNAMEFRE":"Boulevard de la Cambre","STRNAMEDUT":"Ter Kamerenlaan","SLOPE":0.82,"LENGTH":144.64437607756},"bbox":[150502.86583662,167314.3524875,150642.60428177,167351.51986058]},{"type":"Feature","id":"StreetAxes.fid-6d0a8ac7_1a031465927_-1976","geometry":{"type":"LineString","coordinates":[[150562.84787943,167174.4471404],[150571.97812285,167181.20153832]]},"geometry_name":"GEOM","properties":{"INSPIRE_ID":"https://databrussels.be/id/streetaxe/90329","TYPE":"I","HIERARCHY":"MER","LVL":0,"STARTSN_ID":"https://databrussels.be/id/streetnode/7224","ENDSN_ID":"https://databrussels.be/id/streetnode/7213","STRNAMEFRE":"Avenue Franklin Roosevelt","STRNAMEDUT":"Franklin Rooseveltlaan","SLOPE":1.94,"LENGTH":11.3570786812081},"bbox":[150562.84787943,167174.4471404,150571.97812285,167181.20153832]},{"type":"Feature","id":"StreetAxes.fid-6d0a8ac7_1a031465927_-199b","geometry":{"type":"LineString","coordinates":[[150642.60428177,167351.51986058],[150656.37360971,167340.12943912]]},"geometry_name":"GEOM","properties":{"INSPIRE_ID":"https://databrussels.be/id/streetaxe/90330","TYPE":"I","HIERARCHY":"MER","LVL":0,"STARTSN_ID":"https://databrussels.be/id/streetnode/7219","ENDSN_ID":"https://databrussels.be/id/streetnode/7211","STRNAMEFRE":"Rond-Point de l'Etoile","STRNAMEDUT":"Sterreplein","SLOPE":0.06,"LENGTH":17.8699774243935},"bbox":[150642.60428177,167340.12943912,150656.37360971,167351.51986058]},{"type":"Feature","id":"StreetAxes.fid-6d0a8ac7_1a031465927_-196f","geometry":{"type":"LineString","coordinates":[[150543.82982888,167212.85088654],[150555.46279924,167214.55144943]]},"geometry_name":"GEOM","properties":{"INSPIRE_ID":"https://databrussels.be/id/streetaxe/91102","TYPE":"I","HIERARCHY":"MER","LVL":0,"STARTSN_ID":"https://databrussels.be/id/streetnode/7221","ENDSN_ID":"https://databrussels.be/id/streetnode/7210","STRNAMEFRE":"Avenue Franklin Roosevelt","STRNAMEDUT":"Franklin Rooseveltlaan","SLOPE":2.21,"LENGTH":11.7566114814518},"bbox":[150543.82982888,167212.85088654,150555.46279924,167214.55144943]},{"type":"Feature","id":"StreetAxes.fid-6d0a8ac7_1a031465927_-199d","geometry":{"type":"LineString","coordinates":[[150642.60428177,167351.51986058],[150639.56191267,167330.33833678]]},"geometry_name":"GEOM","properties":{"INSPIRE_ID":"https://databrussels.be/id/streetaxe/91103","TYPE":"I","HIERARCHY":"MER","LVL":0,"STARTSN_ID":"https://databrussels.be/id/streetnode/7219","ENDSN_ID":"https://databrussels.be/id/streetnode/7220","STRNAMEFRE":"Rond-Point de l'Etoile","STRNAMEDUT":"Sterreplein","SLOPE":0.09,"LENGTH":21.398900913177},"bbox":[150639.56191267,167330.33833678,150642.60428177,167351.51986058]},{"type":"Feature","id":"StreetAxes.fid-6d0a8ac7_1a031465927_-1974","geometry":{"type":"LineString","coordinates":[[150543.82982888,167212.85088654],[150553.95131702,167192.41224799]]},"geometry_name":"GEOM","properties":{"INSPIRE_ID":"https://databrussels.be/id/streetaxe/91104","TYPE":"I","HIERARCHY":"MER","LVL":0,"STARTSN_ID":"https://databrussels.be/id/streetnode/7221","ENDSN_ID":"https://databrussels.be/id/streetnode/7216","STRNAMEFRE":"Avenue Franklin Roosevelt","STRNAMEDUT":"Franklin Rooseveltlaan","SLOPE":0.75,"LENGTH":22.8075090236385},"bbox":[150543.82982888,167192.41224799,150553.95131702,167212.85088654]},{"type":"Feature","id":"StreetAxes.fid-6d0a8ac7_1a031465927_-1988","geometry":{"type":"LineString","coordinates":[[150571.97812285,167181.20153832],[150579.52364786,167171.84645444]]},"geometry_name":"GEOM","properties":{"INSPIRE_ID":"https://databrussels.be/id/streetaxe/91477","TYPE":"I","HIERARCHY":"MER","LVL":0,"STARTSN_ID":"https://databrussels.be/id/streetnode/7213","ENDSN_ID":"https://databrussels.be/id/streetnode/7222","STRNAMEFRE":"Avenue Franklin Roosevelt","STRNAMEDUT":"Franklin Rooseveltlaan","SLOPE":0.58,"LENGTH":12.0188411317461},"bbox":[150571.97812285,167171.84645444,150579.52364786,167181.20153832]},{"type":"Feature","id":"StreetAxes.fid-6d0a8ac7_1a031465927_-1973","geometry":{"type":"LineString","coordinates":[[150553.95131702,167192.41224799],[150563.08156044,167199.16664591]]},"geometry_name":"GEOM","properties":{"INSPIRE_ID":"https://databrussels.be/id/streetaxe/91478","TYPE":"I","HIERARCHY":"MER","LVL":0,"STARTSN_ID":"https://databrussels.be/id/streetnode/7216","ENDSN_ID":"https://databrussels.be/id/streetnode/7215","STRNAMEFRE":"Avenue Franklin Roosevelt","STRNAMEDUT":"Franklin Rooseveltlaan","SLOPE":1.58,"LENGTH":11.3570786817966},"bbox":[150553.95131702,167192.41224799,150563.08156044,167199.16664591]},{"type":"Feature","id":"StreetAxes.fid-6d0a8ac7_1a031465927_-198e","geometry":{"type":"LineString","coordinates":[[150637.52734588,167011.20185573],[150648.55524318,167022.42371382]]},"geometry_name":"GEOM","properties":{"INSPIRE_ID":"https://databrussels.be/id/streetaxe/92519","TYPE":"I","HIERARCHY":"MER","LVL":0,"STARTSN_ID":"https://databrussels.be/id/streetnode/7062","ENDSN_ID":"https://databrussels.be/id/streetnode/7061","STRNAMEFRE":"Avenue Franklin Roosevelt","STRNAMEDUT":"Franklin Rooseveltlaan","SLOPE":0.19,"LENGTH":15.7335507070664},"bbox":[150637.52734588,167011.20185573,150648.55524318,167022.42371382]},{"type":"Feature","id":"StreetAxes.fid-6d0a8ac7_1a031465927_-1994","geometry":{"type":"LineString","coordinates":[[150757.56088406,167531.01018292],[150764.338,167521.253],[150805.962,167480.346],[150811.24,167474.95]]},"geometry_name":"GEOM","properties":{"INSPIRE_ID":"https://databrussels.be/id/streetaxe/92529","TYPE":"SC","HIERARCHY":"DC","LVL":0,"STARTSN_ID":"https://databrussels.be/id/streetnode/7513","ENDSN_ID":"https://databrussels.be/id/streetnode/2860","STRNAMEFRE":"Avenue Adolphe Buyl","STRNAMEDUT":"Adolphe Buyllaan","SLOPE":4.83,"LENGTH":77.7884465651163},"bbox":[150757.56088406,167474.95,150811.24,167531.01018292]},{"type":"Feature","id":"StreetAxes.fid-6d0a8ac7_1a031465927_-1996","geometry":{"type":"LineString","coordinates":[[150811.24,167474.95],[150816.518,167469.554],[150888.45,167397.475],[150893.936,167392.01]]},"geometry_name":"GEOM","properties":{"INSPIRE_ID":"https://databrussels.be/id/streetaxe/92530","TYPE":"SC","HIERARCHY":"DC","LVL":0,"STARTSN_ID":"https://databrussels.be/id/streetnode/2860","ENDSN_ID":"https://databrussels.be/id/streetnode/991","STRNAMEFRE":"Avenue Adolphe Buyl","STRNAMEDUT":"Adolphe Buyllaan","SLOPE":4.99,"LENGTH":117.12286728593},"bbox":[150811.24,167392.01,150893.936,167474.95]},{"type":"Feature","id":"StreetAxes.fid-6d0a8ac7_1a031465927_-199c","geometry":{"type":"LineString","coordinates":[[150893.936,167392.01],[150899.422,167386.546],[150937.623,167348.634],[150950.927,167335.748]]},"geometry_name":"GEOM","properties":{"INSPIRE_ID":"https://databrussels.be/id/streetaxe/92531","TYPE":"SC","HIERARCHY":"DC","LVL":0,"STARTSN_ID":"https://databrussels.be/id/streetnode/991","ENDSN_ID":"https://databrussels.be/id/streetnode/1198","STRNAMEFRE":"Avenue Adolphe Buyl","STRNAMEDUT":"Adolphe Buyllaan","SLOPE":4.83,"LENGTH":80.0847264264455},"bbox":[150893.936,167335.748,150950.927,167392.01]},{"type":"Feature","id":"StreetAxes.fid-6d0a8ac7_1a031465927_-197f","geometry":{"type":"LineString","coordinates":[[150950.927,167335.748],[150964.231,167322.863],[151006.15,167280],[151025.666,167257.223]]},"geometry_name":"GEOM","properties":{"INSPIRE_ID":"https://databrussels.be/id/streetaxe/92532","TYPE":"SC","HIERARCHY":"IDR","LVL":0,"STARTSN_ID":"https://databrussels.be/id/streetnode/1198","ENDSN_ID":"https://databrussels.be/id/streetnode/506","STRNAMEFRE":"Avenue Adolphe Buyl","STRNAMEDUT":"Adolphe Buyllaan","SLOPE":4.03,"LENGTH":108.468865169118},"bbox":[150950.927,167257.223,151025.666,167335.748]},{"type":"Feature","id":"StreetAxes.fid-6d0a8ac7_1a031465927_-1963","geometry":{"type":"LineString","coordinates":[[150514.27974959,167104.62691825],[150512.9855,167102.4395],[150512.95543877,167099.88811676],[150511.08096404,167096.13658255],[150507.71062182,167090.41216509],[150503.18008334,167079.08889598],[150499.52890006,167065.87491201],[150497.53141292,167054.79030077],[150495.80325949,167037.23136212],[150495.34471823,167032.57234409],[150493.78813814,167029.76725005],[150484.56425931,167023.44170628]]},"geometry_name":"GEOM","properties":{"INSPIRE_ID":"https://databrussels.be/id/streetaxe/94650","TYPE":"S","HIERARCHY":null,"LVL":0,"STARTSN_ID":"https://databrussels.be/id/streetnode/6288","ENDSN_ID":"https://databrussels.be/id/streetnode/4793","STRNAMEFRE":"Allée du Minotaure","STRNAMEDUT":"Minotaurusweg","SLOPE":3.86,"LENGTH":89.8159534685178},"bbox":[150484.56425931,167023.44170628,150514.27974959,167104.62691825]},{"type":"Feature","id":"StreetAxes.fid-6d0a8ac7_1a031465927_-1964","geometry":{"type":"LineString","coordinates":[[150514.27974959,167104.62691825],[150516.035,167103.49],[150524.17,167097.215],[150530.175,167091.385],[150539.7605,167079.9875],[150543.8805,167070.131],[150547.558,167059.58],[150553.254,167041.0985],[150560.40425,167013.26],[150574.942,166952.263],[150576.81664695,166946.47950202]]},"geometry_name":"GEOM","properties":{"INSPIRE_ID":"https://databrussels.be/id/streetaxe/94725","TYPE":"S","HIERARCHY":null,"LVL":0,"STARTSN_ID":"https://databrussels.be/id/streetnode/6288","ENDSN_ID":"https://databrussels.be/id/streetnode/4619","STRNAMEFRE":"Chemin de l'Aube","STRNAMEDUT":"Morgenstondweg","SLOPE":0.79,"LENGTH":174.350324917048},"bbox":[150514.27974959,166946.47950202,150576.81664695,167104.62691825]},{"type":"Feature","id":"StreetAxes.fid-6d0a8ac7_1a031465927_-197a","geometry":{"type":"LineString","coordinates":[[150505.14038574,167110.28961082],[150511.512,167105.988],[150514.27974959,167104.62691825]]},"geometry_name":"GEOM","properties":{"INSPIRE_ID":"https://databrussels.be/id/streetaxe/94928","TYPE":"S","HIERARCHY":"DR","LVL":0,"STARTSN_ID":"https://databrussels.be/id/streetnode/6289","ENDSN_ID":"https://databrussels.be/id/streetnode/6288","STRNAMEFRE":"Avenue de Cérès","STRNAMEDUT":"Cereslaan","SLOPE":1.3,"LENGTH":10.7720506735803},"bbox":[150505.14038574,167104.62691825,150514.27974959,167110.28961082]}],"numberReturned":60,"grand_bruxelles_source":{"authority":"Paradigm / Brussels-Capital Region","service":"https://geoservices-urbis.irisnet.be/geoserver/urbisvector/wfs","layer":"urbisvector:StreetAxes","crs":"EPSG:31370","bbox":[150500.0,167000.0,151000.0,167500.0],"cell_id":"bxl-e150500-n167000-s500","ownership":"bbox_intersection_source_unclipped"}}
