{"type":"FeatureCollection","totalFeatures":50,"numberMatched":50,"timeStamp":"2026-08-24T02:11:13.405Z","crs":{"type":"name","properties":{"name":"urn:ogc:def:crs:EPSG::31370"}},"bbox":[153797.809101,165641.92258615,154551.232,166709.8942524],"features":[{"type":"Feature","id":"StreetAxes.fid--291372a6_1a0314667fc_89f","geometry":{"type":"LineString","coordinates":[[154371.622,166432.938],[154372.458,166410.294],[154373.106,166397.026],[154374.912,166381.264],[154378.312,166364.338],[154383.49,166346.863],[154390.266,166330.278],[154398.25,166314.544],[154400.934,166310.315]]},"geometry_name":"GEOM","properties":{"INSPIRE_ID":"https://databrussels.be/id/streetaxe/70202","TYPE":"S","HIERARCHY":"DR","LVL":0,"STARTSN_ID":"https://databrussels.be/id/streetnode/60","ENDSN_ID":"https://databrussels.be/id/streetnode/406","STRNAMEFRE":"Avenue Guillaume Van Nerom","STRNAMEDUT":"Guillaume Van Neromlaan","SLOPE":4.58,"LENGTH":127.866902480219},"bbox":[154371.622,166310.315,154400.934,166432.938]},{"type":"Feature","id":"StreetAxes.fid--291372a6_1a0314667fc_871","geometry":{"type":"LineString","coordinates":[[154400.934,166310.315],[154405.462,166313.62],[154445.415,166343.505],[154449.809,166346.755]]},"geometry_name":"GEOM","properties":{"INSPIRE_ID":"https://databrussels.be/id/streetaxe/70503","TYPE":"S","HIERARCHY":"DR","LVL":0,"STARTSN_ID":"https://databrussels.be/id/streetnode/406","ENDSN_ID":"https://databrussels.be/id/streetnode/1180","STRNAMEFRE":"Avenue Victor Moreau","STRNAMEDUT":"Victor Moreaulaan","SLOPE":5.56,"LENGTH":60.9646347321017},"bbox":[154400.934,166310.315,154449.809,166346.755]},{"type":"Feature","id":"StreetAxes.fid--291372a6_1a0314667fc_872","geometry":{"type":"LineString","coordinates":[[154400.934,166310.315],[154404.079,166305.361],[154416.061,166288.66],[154428.266,166274.834],[154440.802,166262.442],[154456.292,166249.938],[154471.232,166240.747],[154484.382,166233.478],[154495.446,166228.684],[154499.366,166227.156]]},"geometry_name":"GEOM","properties":{"INSPIRE_ID":"https://databrussels.be/id/streetaxe/71540","TYPE":"S","HIERARCHY":null,"LVL":0,"STARTSN_ID":"https://databrussels.be/id/streetnode/406","ENDSN_ID":"https://databrussels.be/id/streetnode/450","STRNAMEFRE":"Avenue Guillaume Van Nerom","STRNAMEDUT":"Guillaume Van Neromlaan","SLOPE":4.47,"LENGTH":131.230357404943},"bbox":[154400.934,166227.156,154499.366,166310.315]},{"type":"Feature","id":"StreetAxes.fid--291372a6_1a0314667fc_873","geometry":{"type":"LineString","coordinates":[[154430.258,166511.919],[154430.704,166504.852],[154433.846,166455.06],[154441.415,166447.525],[154444.205,166403.91],[154438.045,166396.195],[154440.502,166359.09],[154446.641,166350.824],[154449.809,166346.755]]},"geometry_name":"GEOM","properties":{"INSPIRE_ID":"https://databrussels.be/id/streetaxe/71663","TYPE":"S","HIERARCHY":"DR","LVL":0,"STARTSN_ID":"https://databrussels.be/id/streetnode/4092","ENDSN_ID":"https://databrussels.be/id/streetnode/1180","STRNAMEFRE":"Rue Franciscus Vandevelde","STRNAMEDUT":"Franciscus Vandeveldestraat","SLOPE":6.59,"LENGTH":173.868348859726},"bbox":[154430.258,166346.755,154449.809,166511.919]},{"type":"Feature","id":"StreetAxes.fid--291372a6_1a0314667fc_877","geometry":{"type":"LineString","coordinates":[[154499.366,166227.156],[154503.286,166225.629],[154542.2,166211.594],[154551.232,166209.2]]},"geometry_name":"GEOM","properties":{"INSPIRE_ID":"https://databrussels.be/id/streetaxe/71714","TYPE":"S","HIERARCHY":"DR","LVL":0,"STARTSN_ID":"https://databrussels.be/id/streetnode/450","ENDSN_ID":"https://databrussels.be/id/streetnode/2429","STRNAMEFRE":"Avenue Guillaume Van Nerom","STRNAMEDUT":"Guillaume Van Neromlaan","SLOPE":4.39,"LENGTH":54.9184310330918},"bbox":[154499.366,166209.2,154551.232,166227.156]},{"type":"Feature","id":"StreetAxes.fid--291372a6_1a0314667fc_8a0","geometry":{"type":"LineString","coordinates":[[154400.934,166310.315],[154396.59,166307.145],[154385.42851895,166298.75873624]]},"geometry_name":"GEOM","properties":{"INSPIRE_ID":"https://databrussels.be/id/streetaxe/71878","TYPE":"S","HIERARCHY":"DR","LVL":0,"STARTSN_ID":"https://databrussels.be/id/streetnode/406","ENDSN_ID":"https://databrussels.be/id/streetnode/16966","STRNAMEFRE":"Avenue Guillaume Van Nerom","STRNAMEDUT":"Guillaume Van Neromlaan","SLOPE":2.73,"LENGTH":19.3386091903301},"bbox":[154385.42851895,166298.75873624,154400.934,166310.315]},{"type":"Feature","id":"StreetAxes.fid--291372a6_1a0314667fc_876","geometry":{"type":"LineString","coordinates":[[154499.366,166227.156],[154501.162,166231.772],[154528.968,166310.14],[154531.227,166316.305]]},"geometry_name":"GEOM","properties":{"INSPIRE_ID":"https://databrussels.be/id/streetaxe/72097","TYPE":"S","HIERARCHY":"DR","LVL":0,"STARTSN_ID":"https://databrussels.be/id/streetnode/450","ENDSN_ID":"https://databrussels.be/id/streetnode/1715","STRNAMEFRE":"Rue Jean Ekelmans","STRNAMEDUT":"Jean Ekelmansstraat","SLOPE":3.76,"LENGTH":94.6737087431377},"bbox":[154499.366,166227.156,154531.227,166316.305]},{"type":"Feature","id":"StreetAxes.fid--291372a6_1a0314667fc_87a","geometry":{"type":"LineString","coordinates":[[154394.284,166522.59],[154392.548,166515.551],[154378.574,166459.014],[154374.22,166442.682],[154371.622,166432.938]]},"geometry_name":"GEOM","properties":{"INSPIRE_ID":"https://databrussels.be/id/streetaxe/72259","TYPE":"S","HIERARCHY":"DR","LVL":0,"STARTSN_ID":"https://databrussels.be/id/streetnode/3670","ENDSN_ID":"https://databrussels.be/id/streetnode/60","STRNAMEFRE":"Avenue Daniel Boon","STRNAMEDUT":"Daniel Boonlaan","SLOPE":4.62,"LENGTH":92.4750714557421},"bbox":[154371.622,166432.938,154394.284,166522.59]},{"type":"Feature","id":"StreetAxes.fid--291372a6_1a0314667fc_898","geometry":{"type":"LineString","coordinates":[[154284.216,166333.059],[154282.893,166345.867],[154279.705,166361.01],[154273.6,166379.599],[154268.451,166390.639],[154262.358,166400.202]]},"geometry_name":"GEOM","properties":{"INSPIRE_ID":"https://databrussels.be/id/streetaxe/73405","TYPE":"S","HIERARCHY":"DR","LVL":0,"STARTSN_ID":"https://databrussels.be/id/streetnode/3408","ENDSN_ID":"https://databrussels.be/id/streetnode/712","STRNAMEFRE":"Avenue du Grand Forestier","STRNAMEDUT":"Woudmeesterlaan","SLOPE":3.72,"LENGTH":71.4377435781088},"bbox":[154262.358,166333.059,154284.216,166400.202]},{"type":"Feature","id":"StreetAxes.fid--291372a6_1a0314667fc_874","geometry":{"type":"LineString","coordinates":[[154449.809,166346.755],[154452.977,166342.686],[154460.185,166333.16],[154493.025,166322.75],[154501.665,166326.7],[154524.185,166318.79],[154531.227,166316.305]]},"geometry_name":"GEOM","properties":{"INSPIRE_ID":"https://databrussels.be/id/streetaxe/73406","TYPE":"S","HIERARCHY":null,"LVL":0,"STARTSN_ID":"https://databrussels.be/id/streetnode/1180","ENDSN_ID":"https://databrussels.be/id/streetnode/1715","STRNAMEFRE":"Rue Franciscus Vandevelde","STRNAMEDUT":"Franciscus Vandeveldestraat","SLOPE":6.54,"LENGTH":92.3894826396999},"bbox":[154449.809,166316.305,154531.227,166346.755]},{"type":"Feature","id":"StreetAxes.fid--291372a6_1a0314667fc_89d","geometry":{"type":"LineString","coordinates":[[154371.622,166432.938],[154360.462,166412.959],[154352.993,166399.588],[154344.112,166385.523],[154328.184,166366.438],[154312.326,166350.098],[154300.861,166339.312],[154294.68,166333.497],[154284.216,166333.059]]},"geometry_name":"GEOM","properties":{"INSPIRE_ID":"https://databrussels.be/id/streetaxe/73407","TYPE":"S","HIERARCHY":"DR","LVL":0,"STARTSN_ID":"https://databrussels.be/id/streetnode/60","ENDSN_ID":"https://databrussels.be/id/streetnode/3408","STRNAMEFRE":"Avenue Daniel Boon","STRNAMEDUT":"Daniel Boonlaan","SLOPE":4.98,"LENGTH":137.163544938825},"bbox":[154284.216,166333.059,154371.622,166432.938]},{"type":"Feature","id":"StreetAxes.fid--291372a6_1a0314667fc_89c","geometry":{"type":"LineString","coordinates":[[154279.5814168,166272.28381771],[154280.09265435,166274.82918723],[154283.658,166307.135],[154284.692,166321.686],[154284.216,166333.059]]},"geometry_name":"GEOM","properties":{"INSPIRE_ID":"https://databrussels.be/id/streetaxe/73723","TYPE":"S","HIERARCHY":"DR","LVL":0,"STARTSN_ID":"https://databrussels.be/id/streetnode/5025","ENDSN_ID":"https://databrussels.be/id/streetnode/3408","STRNAMEFRE":"Avenue du Grand Forestier","STRNAMEDUT":"Woudmeesterlaan","SLOPE":1.98,"LENGTH":61.06880900544},"bbox":[154279.5814168,166272.28381771,154284.692,166333.059]},{"type":"Feature","id":"StreetAxes.fid--291372a6_1a0314667fc_89a","geometry":{"type":"LineString","coordinates":[[154279.5814168,166272.28381771],[154279.35369184,166269.75032091],[154275.48,166237.22],[154274.799,166229.96]]},"geometry_name":"GEOM","properties":{"INSPIRE_ID":"https://databrussels.be/id/streetaxe/73724","TYPE":"S","HIERARCHY":"DR","LVL":0,"STARTSN_ID":"https://databrussels.be/id/streetnode/5025","ENDSN_ID":"https://databrussels.be/id/streetnode/3852","STRNAMEFRE":"Avenue du Grand Forestier","STRNAMEDUT":"Woudmeesterlaan","SLOPE":1.27,"LENGTH":42.5957278713682},"bbox":[154274.799,166229.96,154279.5814168,166272.28381771]},{"type":"Feature","id":"StreetAxes.fid--291372a6_1a0314667fc_887","geometry":{"type":"LineString","coordinates":[[154052.22541622,166027.9020856],[154040.089486,166033.540352],[154025.618,166039.285],[154012.516,166043.688],[153995.663,166047.469],[153977.246,166049.156],[153956.804,166048.074],[153936.084,166044.28],[153918.063,166038.826],[153900.757,166031.865],[153881.0995986,166023.42326984]]},"geometry_name":"GEOM","properties":{"INSPIRE_ID":"https://databrussels.be/id/streetaxe/73768","TYPE":"S","HIERARCHY":null,"LVL":0,"STARTSN_ID":"https://databrussels.be/id/streetnode/6643","ENDSN_ID":"https://databrussels.be/id/streetnode/12915","STRNAMEFRE":"Avenue du Houx","STRNAMEDUT":"Hulstlaan","SLOPE":5.64,"LENGTH":178.950026969966},"bbox":[153881.0995986,166023.42326984,154052.22541622,166049.156]},{"type":"Feature","id":"StreetAxes.fid--291372a6_1a0314667fc_883","geometry":{"type":"LineString","coordinates":[[154149.86813598,166709.8942524],[154149.59394979,166702.63301887],[154120.62908319,166475.15184381]]},"geometry_name":"GEOM","properties":{"INSPIRE_ID":"https://databrussels.be/id/streetaxe/78831","TYPE":"S","HIERARCHY":"MER","LVL":0,"STARTSN_ID":"https://databrussels.be/id/streetnode/6638","ENDSN_ID":"https://databrussels.be/id/streetnode/6642","STRNAMEFRE":"Boulevard du Souverain","STRNAMEDUT":"Vorstlaan","SLOPE":0.36,"LENGTH":236.58419768636},"bbox":[154120.62908319,166475.15184381,154149.86813598,166709.8942524]},{"type":"Feature","id":"StreetAxes.fid--291372a6_1a0314667fc_87e","geometry":{"type":"LineString","coordinates":[[154173.19805111,166708.2163905],[154172.30716434,166694.20649126],[154169.6105635,166670.6318435],[154145.670567,166483.6899365],[154144.16509708,166472.14400141]]},"geometry_name":"GEOM","properties":{"INSPIRE_ID":"https://databrussels.be/id/streetaxe/78833","TYPE":"S","HIERARCHY":"MER","LVL":0,"STARTSN_ID":"https://databrussels.be/id/streetnode/6639","ENDSN_ID":"https://databrussels.be/id/streetnode/6646","STRNAMEFRE":"Boulevard du Souverain","STRNAMEDUT":"Vorstlaan","SLOPE":0.45,"LENGTH":237.878804398673},"bbox":[154144.16509708,166472.14400141,154173.19805111,166708.2163905]},{"type":"Feature","id":"StreetAxes.fid--291372a6_1a0314667fc_88a","geometry":{"type":"LineString","coordinates":[[154120.62908319,166475.15184381],[154119.0947885,166465.2451595],[154080.908324,166169.3053935],[154078.0486385,166147.711352],[154073.947089,166117.17224],[154070.9988955,166099.744487],[154066.4580605,166077.474742],[154061.122713,166056.431302],[154058.249574,166046.261104],[154052.22541622,166027.9020856]]},"geometry_name":"GEOM","properties":{"INSPIRE_ID":"https://databrussels.be/id/streetaxe/79299","TYPE":"S","HIERARCHY":"MER","LVL":0,"STARTSN_ID":"https://databrussels.be/id/streetnode/6642","ENDSN_ID":"https://databrussels.be/id/streetnode/6643","STRNAMEFRE":"Boulevard du Souverain","STRNAMEDUT":"Vorstlaan","SLOPE":0.34,"LENGTH":453.016918231086},"bbox":[154052.22541622,166027.9020856,154120.62908319,166475.15184381]},{"type":"Feature","id":"StreetAxes.fid--291372a6_1a0314667fc_888","geometry":{"type":"LineString","coordinates":[[154120.62908319,166475.15184381],[154110.682795,166475.9821375],[154080.252,166479.36],[154061.163,166478.446],[154041.91,166475.142],[154030.93798665,166472.0556155],[154017.1733985,166466.96642141],[154002.43631228,166459.02257433],[153987.7740336,166449.44291486],[153975.71131708,166439.88196566],[153961.192,166425.574],[153951.026,166411.102],[153939.724,166392.796],[153928.155,166374.057]]},"geometry_name":"GEOM","properties":{"INSPIRE_ID":"https://databrussels.be/id/streetaxe/79300","TYPE":"S","HIERARCHY":null,"LVL":0,"STARTSN_ID":"https://databrussels.be/id/streetnode/6642","ENDSN_ID":"https://databrussels.be/id/streetnode/1304","STRNAMEFRE":"Avenue des Archiducs","STRNAMEDUT":"Aartshertogenlaan","SLOPE":5.69,"LENGTH":236.571989616783},"bbox":[153928.155,166374.057,154120.62908319,166479.36]},{"type":"Feature","id":"StreetAxes.fid--291372a6_1a0314667fc_87f","geometry":{"type":"LineString","coordinates":[[154125.6698438,166474.50764749],[154139.0335916,166472.79979469]]},"geometry_name":"GEOM","properties":{"INSPIRE_ID":"https://databrussels.be/id/streetaxe/79595","TYPE":"S","HIERARCHY":"MER","LVL":0,"STARTSN_ID":"https://databrussels.be/id/streetnode/6640","ENDSN_ID":"https://databrussels.be/id/streetnode/6649","STRNAMEFRE":"Boulevard du Souverain","STRNAMEDUT":"Vorstlaan","SLOPE":1.48,"LENGTH":13.4724354379317},"bbox":[154125.6698438,166472.79979469,154139.0335916,166474.50764749]},{"type":"Feature","id":"StreetAxes.fid--291372a6_1a0314667fc_88f","geometry":{"type":"LineString","coordinates":[[154144.16509708,166472.14400141],[154142.105662,166456.1947625],[154098.43352527,166122.72154421],[154094.4865615,166097.549465],[154090.895548,166079.377279],[154086.633315,166061.0190735],[154082.847796,166046.639434],[154074.4165895,166017.9253819]]},"geometry_name":"GEOM","properties":{"INSPIRE_ID":"https://databrussels.be/id/streetaxe/80082","TYPE":"S","HIERARCHY":"MER","LVL":0,"STARTSN_ID":"https://databrussels.be/id/streetnode/6646","ENDSN_ID":"https://databrussels.be/id/streetnode/6645","STRNAMEFRE":"Boulevard du Souverain","STRNAMEDUT":"Vorstlaan","SLOPE":0.32,"LENGTH":460.04797789572},"bbox":[154074.4165895,166017.9253819,154144.16509708,166472.14400141]},{"type":"Feature","id":"StreetAxes.fid--291372a6_1a0314667fc_88b","geometry":{"type":"LineString","coordinates":[[154057.01674559,166025.7480006],[154069.68639439,166020.05198216]]},"geometry_name":"GEOM","properties":{"INSPIRE_ID":"https://databrussels.be/id/streetaxe/80083","TYPE":"S","HIERARCHY":"MER","LVL":0,"STARTSN_ID":"https://databrussels.be/id/streetnode/6647","ENDSN_ID":"https://databrussels.be/id/streetnode/6648","STRNAMEFRE":"Boulevard du Souverain","STRNAMEDUT":"Vorstlaan","SLOPE":3.6,"LENGTH":13.8911708240075},"bbox":[154057.01674559,166020.05198216,154069.68639439,166025.7480006]},{"type":"Feature","id":"StreetAxes.fid--291372a6_1a0314667fc_896","geometry":{"type":"LineString","coordinates":[[154260.45635368,166109.32236488],[154266.115,166108.7195],[154326.4769411,166102.20288673],[154331.3155,166103.4975]]},"geometry_name":"GEOM","properties":{"INSPIRE_ID":"https://databrussels.be/id/streetaxe/80268","TYPE":"S","HIERARCHY":"DR","LVL":0,"STARTSN_ID":"https://databrussels.be/id/streetnode/4602","ENDSN_ID":"https://databrussels.be/id/streetnode/6290","STRNAMEFRE":"Avenue Jean Accent","STRNAMEDUT":"Jean Accentlaan","SLOPE":14.9,"LENGTH":71.4121153403231},"bbox":[154260.45635368,166102.20288673,154331.3155,166109.32236488]},{"type":"Feature","id":"StreetAxes.fid--291372a6_1a0314667fc_886","geometry":{"type":"LineString","coordinates":[[154074.4165895,166017.9253819],[154059.986,165980.84],[154055.6835,165970.5275],[154046.341,165949.9675],[154037.9165,165933.104],[154016.83876969,165896.54807248],[154002.26141555,165874.33972358],[153985.403,165850.912],[153974.17979331,165836.72343491],[153962.51473168,165823.03441366],[153950.03923465,165809.2183241],[153939.61879472,165797.97576855],[153917.7575,165775.258],[153892.7745,165749.14],[153875.5870491,165729.02102786],[153864.41256431,165714.70197711],[153851.57097394,165696.80082003],[153839.057,165677.61],[153826.74354955,165656.83601617],[153818.92666555,165641.92258615]]},"geometry_name":"GEOM","properties":{"INSPIRE_ID":"https://databrussels.be/id/streetaxe/82175","TYPE":"S","HIERARCHY":"MER","LVL":0,"STARTSN_ID":"https://databrussels.be/id/streetnode/6645","ENDSN_ID":"https://databrussels.be/id/streetnode/6839","STRNAMEFRE":"Boulevard du Souverain","STRNAMEDUT":"Vorstlaan","SLOPE":0.38,"LENGTH":458.270439247757},"bbox":[153818.92666555,165641.92258615,154074.4165895,166017.9253819]},{"type":"Feature","id":"StreetAxes.fid--291372a6_1a0314667fc_897","geometry":{"type":"LineString","coordinates":[[154274.799,166229.96],[154274.118,166222.7],[154260.94043607,166113.33975157],[154260.45635368,166109.32236488]]},"geometry_name":"GEOM","properties":{"INSPIRE_ID":"https://databrussels.be/id/streetaxe/83947","TYPE":"S","HIERARCHY":"DR","LVL":0,"STARTSN_ID":"https://databrussels.be/id/streetnode/3852","ENDSN_ID":"https://databrussels.be/id/streetnode/4602","STRNAMEFRE":"Avenue du Grand Forestier","STRNAMEDUT":"Woudmeesterlaan","SLOPE":0.22,"LENGTH":121.489630985953},"bbox":[154260.45635368,166109.32236488,154274.799,166229.96]},{"type":"Feature","id":"StreetAxes.fid--291372a6_1a0314667fc_8a1","geometry":{"type":"LineString","coordinates":[[154052.22541622,166027.9020856],[154046.7870995,166011.3284565],[154037.2765,165986.9095],[154030.6405,165971.7465],[154022.14,165953.998],[154010.549,165932.0435],[154001.298,165916.003],[153988.02602144,165895.03560752],[153970.01820278,165869.39503719],[153950.0315,165844.1205],[153932.90640612,165824.73093013],[153914.103,165805.2185],[153899.9015,165790.738],[153881.328,165771.3575],[153869.97552237,165758.58932942],[153851.59,165736.344],[153840.8295,165722.081],[153829.322,165705.699],[153818.9235,165689.697],[153808.9067165,165673.494907],[153797.809101,165653.19778187]]},"geometry_name":"GEOM","properties":{"INSPIRE_ID":"https://databrussels.be/id/streetaxe/83949","TYPE":"S","HIERARCHY":"MER","LVL":0,"STARTSN_ID":"https://databrussels.be/id/streetnode/6643","ENDSN_ID":"https://databrussels.be/id/streetnode/6836","STRNAMEFRE":"Boulevard du Souverain","STRNAMEDUT":"Vorstlaan","SLOPE":0.32,"LENGTH":456.782124323053},"bbox":[153797.809101,165653.19778187,154052.22541622,166027.9020856]},{"type":"Feature","id":"StreetAxes.fid--291372a6_1a0314667fc_892","geometry":{"type":"LineString","coordinates":[[154207.425,165948.55],[154227.022,165955.084],[154237.3,165961.06],[154241.76,165967.97],[154244.7,165978.563],[154253.571,166052.181],[154260.45635368,166109.32236488]]},"geometry_name":"GEOM","properties":{"INSPIRE_ID":"https://databrussels.be/id/streetaxe/83989","TYPE":"S","HIERARCHY":null,"LVL":0,"STARTSN_ID":"https://databrussels.be/id/streetnode/502","ENDSN_ID":"https://databrussels.be/id/streetnode/4602","STRNAMEFRE":"Avenue du Grand Forestier","STRNAMEDUT":"Woudmeesterlaan","SLOPE":1.89,"LENGTH":183.469652843785},"bbox":[154207.425,165948.55,154260.45635368,166109.32236488]},{"type":"Feature","id":"StreetAxes.fid--291372a6_1a0314667fc_899","geometry":{"type":"LineString","coordinates":[[154274.799,166229.96],[154285.914,166229.302],[154459.77744844,166167.89071593]]},"geometry_name":"GEOM","properties":{"INSPIRE_ID":"https://databrussels.be/id/streetaxe/83990","TYPE":"S","HIERARCHY":"DR","LVL":0,"STARTSN_ID":"https://databrussels.be/id/streetnode/3852","ENDSN_ID":"https://databrussels.be/id/streetnode/5023","STRNAMEFRE":"Avenue René Stevens","STRNAMEDUT":"René Stevenslaan","SLOPE":8.65,"LENGTH":195.524927051465},"bbox":[154274.799,166167.89071593,154459.77744844,166229.96]},{"type":"Feature","id":"StreetAxes.fid--291372a6_1a0314667fc_87c","geometry":{"type":"LineString","coordinates":[[154144.16509708,166472.14400141],[154157.400102,166470.960377],[154171.6,166467.94],[154191.437,166461.272],[154208.183,166452.896],[154221.261,166444.388],[154232.99729052,166435.29702611]]},"geometry_name":"GEOM","properties":{"INSPIRE_ID":"https://databrussels.be/id/streetaxe/85780","TYPE":"S","HIERARCHY":"DR","LVL":0,"STARTSN_ID":"https://databrussels.be/id/streetnode/6646","ENDSN_ID":"https://databrussels.be/id/streetnode/13764","STRNAMEFRE":"Avenue du Grand Forestier","STRNAMEDUT":"Woudmeesterlaan","SLOPE":0.85,"LENGTH":97.9043789066672},"bbox":[154144.16509708,166435.29702611,154232.99729052,166472.14400141]},{"type":"Feature","id":"StreetAxes.fid--291372a6_1a0314667fc_895","geometry":{"type":"LineString","coordinates":[[154262.358,166400.202],[154255.909,166410.204],[154246.509,166421.784],[154236.81004954,166431.60171929]]},"geometry_name":"GEOM","properties":{"INSPIRE_ID":"https://databrussels.be/id/streetaxe/85804","TYPE":"S","HIERARCHY":"DR","LVL":0,"STARTSN_ID":"https://databrussels.be/id/streetnode/712","ENDSN_ID":"https://databrussels.be/id/streetnode/13769","STRNAMEFRE":"Avenue du Grand Forestier","STRNAMEDUT":"Woudmeesterlaan","SLOPE":2.31,"LENGTH":40.616421117001},"bbox":[154236.81004954,166400.202,154262.358,166431.60171929]},{"type":"Feature","id":"StreetAxes.fid--291372a6_1a0314667fc_890","geometry":{"type":"LineString","coordinates":[[154074.4165895,166017.9253819],[154088.329867,166011.335394],[154194.53388199,165961.5629363]]},"geometry_name":"GEOM","properties":{"INSPIRE_ID":"https://databrussels.be/id/streetaxe/86455","TYPE":"S","HIERARCHY":"DR","LVL":0,"STARTSN_ID":"https://databrussels.be/id/streetnode/6645","ENDSN_ID":"https://databrussels.be/id/streetnode/12347","STRNAMEFRE":"Tenreuken","STRNAMEDUT":"Tenreuken","SLOPE":0.66,"LENGTH":132.68353113882},"bbox":[154074.4165895,165961.5629363,154194.53388199,166017.9253819]},{"type":"Feature","id":"StreetAxes.fid--291372a6_1a0314667fc_878","geometry":{"type":"LineString","coordinates":[[154331.02,166540.806],[154327.822,166529.956],[154309.994,166470.327],[154304.354,166454.716],[154297.32,166439.526],[154287.329,166423.985],[154274.766,166408.6],[154262.358,166400.202]]},"geometry_name":"GEOM","properties":{"INSPIRE_ID":"https://databrussels.be/id/streetaxe/87729","TYPE":"S","HIERARCHY":null,"LVL":0,"STARTSN_ID":"https://databrussels.be/id/streetnode/3596","ENDSN_ID":"https://databrussels.be/id/streetnode/712","STRNAMEFRE":"Rue du Moulin à Papier","STRNAMEDUT":"Papiermolenstraat","SLOPE":0.66,"LENGTH":160.207719272954},"bbox":[154262.358,166400.202,154331.02,166540.806]},{"type":"Feature","id":"StreetAxes.fid--291372a6_1a0314667fc_894","geometry":{"type":"LineString","coordinates":[[154236.81004954,166431.60171929],[154233.688,166434.762],[154232.99729052,166435.29702611]]},"geometry_name":"GEOM","properties":{"INSPIRE_ID":"https://databrussels.be/id/streetaxe/87943","TYPE":"S","HIERARCHY":"DR","LVL":0,"STARTSN_ID":"https://databrussels.be/id/streetnode/13769","ENDSN_ID":"https://databrussels.be/id/streetnode/13764","STRNAMEFRE":"Avenue du Grand Forestier","STRNAMEDUT":"Woudmeesterlaan","SLOPE":2.07,"LENGTH":5.31604960247952},"bbox":[154232.99729052,166431.60171929,154236.81004954,166435.29702611]},{"type":"Feature","id":"StreetAxes.fid--291372a6_1a0314667fc_88d","geometry":{"type":"LineString","coordinates":[[154139.0335916,166472.79979469],[154138.45505212,166469.35686908],[154094.52891351,166130.54160977],[154091.89868515,166112.42256889],[154089.48564552,166097.94323613],[154086.10757912,166080.84061099],[154077.5548877,166045.75216153],[154072.38973774,166028.23393348],[154069.68639439,166020.05198216]]},"geometry_name":"GEOM","properties":{"INSPIRE_ID":"https://databrussels.be/id/streetaxe/89869","TYPE":"C","HIERARCHY":"MER","LVL":0,"STARTSN_ID":"https://databrussels.be/id/streetnode/6649","ENDSN_ID":"https://databrussels.be/id/streetnode/6648","STRNAMEFRE":"Boulevard du Souverain","STRNAMEDUT":"Vorstlaan","SLOPE":0.28,"LENGTH":458.559603518591},"bbox":[154069.68639439,166020.05198216,154139.0335916,166472.79979469]},{"type":"Feature","id":"StreetAxes.fid--291372a6_1a0314667fc_88e","geometry":{"type":"LineString","coordinates":[[154069.68639439,166020.05198216],[154074.4165895,166017.9253819]]},"geometry_name":"GEOM","properties":{"INSPIRE_ID":"https://databrussels.be/id/streetaxe/89870","TYPE":"I","HIERARCHY":"MER","LVL":0,"STARTSN_ID":"https://databrussels.be/id/streetnode/6648","ENDSN_ID":"https://databrussels.be/id/streetnode/6645","STRNAMEFRE":"Boulevard du Souverain","STRNAMEDUT":"Vorstlaan","SLOPE":2.31,"LENGTH":5.1862485867918},"bbox":[154069.68639439,166017.9253819,154074.4165895,166020.05198216]},{"type":"Feature","id":"StreetAxes.fid--291372a6_1a0314667fc_88c","geometry":{"type":"LineString","coordinates":[[154125.6698438,166474.50764749],[154125.21357825,166471.0459988],[154085.95363445,166168.26669014],[154081.40696741,166133.1237048],[154078.64500556,166114.02592849],[154075.45051934,166095.72489994],[154072.26975656,166080.38343784],[154066.7098764,166058.5500385],[154059.48369789,166033.15239263],[154057.01674559,166025.7480006]]},"geometry_name":"GEOM","properties":{"INSPIRE_ID":"https://databrussels.be/id/streetaxe/89871","TYPE":"C","HIERARCHY":"MER","LVL":0,"STARTSN_ID":"https://databrussels.be/id/streetnode/6640","ENDSN_ID":"https://databrussels.be/id/streetnode/6647","STRNAMEFRE":"Boulevard du Souverain","STRNAMEDUT":"Vorstlaan","SLOPE":0.35,"LENGTH":454.523802264743},"bbox":[154057.01674559,166025.7480006,154125.6698438,166474.50764749]},{"type":"Feature","id":"StreetAxes.fid--291372a6_1a0314667fc_881","geometry":{"type":"LineString","coordinates":[[154154.80263064,166709.53936896],[154154.50422268,166704.33457415],[154153.45655044,166692.03419912],[154126.12610931,166477.96929595],[154125.6698438,166474.50764749]]},"geometry_name":"GEOM","properties":{"INSPIRE_ID":"https://databrussels.be/id/streetaxe/89872","TYPE":"C","HIERARCHY":"MER","LVL":0,"STARTSN_ID":"https://databrussels.be/id/streetnode/6644","ENDSN_ID":"https://databrussels.be/id/streetnode/6640","STRNAMEFRE":"Boulevard du Souverain","STRNAMEDUT":"Vorstlaan","SLOPE":0.31,"LENGTH":236.852380846058},"bbox":[154125.6698438,166474.50764749,154154.80263064,166709.53936896]},{"type":"Feature","id":"StreetAxes.fid--291372a6_1a0314667fc_880","geometry":{"type":"LineString","coordinates":[[154168.2003513,166708.57581959],[154167.91488989,166704.05840521],[154167.3617357,166697.55614296],[154165.05788393,166675.24779942],[154139.61212118,166476.24266139],[154139.0335916,166472.79979469]]},"geometry_name":"GEOM","properties":{"INSPIRE_ID":"https://databrussels.be/id/streetaxe/89873","TYPE":"C","HIERARCHY":"MER","LVL":0,"STARTSN_ID":"https://databrussels.be/id/streetnode/6641","ENDSN_ID":"https://databrussels.be/id/streetnode/6649","STRNAMEFRE":"Boulevard du Souverain","STRNAMEDUT":"Vorstlaan","SLOPE":0.49,"LENGTH":237.595651670621},"bbox":[154139.0335916,166472.79979469,154168.2003513,166708.57581959]},{"type":"Feature","id":"StreetAxes.fid--291372a6_1a0314667fc_875","geometry":{"type":"LineString","coordinates":[[154459.77744844,166167.89071593],[154461.44219903,166167.30270003],[154520.193,166146.551],[154526.817,166144.076]]},"geometry_name":"GEOM","properties":{"INSPIRE_ID":"https://databrussels.be/id/streetaxe/91901","TYPE":"I","HIERARCHY":"DR","LVL":0,"STARTSN_ID":"https://databrussels.be/id/streetnode/5023","ENDSN_ID":"https://databrussels.be/id/streetnode/3954","STRNAMEFRE":"Avenue René Stevens","STRNAMEDUT":"René Stevenslaan","SLOPE":5.72,"LENGTH":71.1448498101371},"bbox":[154459.77744844,166144.076,154526.817,166167.89071593]},{"type":"Feature","id":"StreetAxes.fid--291372a6_1a0314667fc_882","geometry":{"type":"LineString","coordinates":[[154120.62908319,166475.15184381],[154125.6698438,166474.50764749]]},"geometry_name":"GEOM","properties":{"INSPIRE_ID":"https://databrussels.be/id/streetaxe/92273","TYPE":"I","HIERARCHY":"MER","LVL":0,"STARTSN_ID":"https://databrussels.be/id/streetnode/6642","ENDSN_ID":"https://databrussels.be/id/streetnode/6640","STRNAMEFRE":"Boulevard du Souverain","STRNAMEDUT":"Vorstlaan","SLOPE":1.18,"LENGTH":5.08175721113629},"bbox":[154120.62908319,166474.50764749,154125.6698438,166475.15184381]},{"type":"Feature","id":"StreetAxes.fid--291372a6_1a0314667fc_889","geometry":{"type":"LineString","coordinates":[[154052.22541622,166027.9020856],[154057.01674559,166025.7480006]]},"geometry_name":"GEOM","properties":{"INSPIRE_ID":"https://databrussels.be/id/streetaxe/92274","TYPE":"I","HIERARCHY":"MER","LVL":0,"STARTSN_ID":"https://databrussels.be/id/streetnode/6643","ENDSN_ID":"https://databrussels.be/id/streetnode/6647","STRNAMEFRE":"Boulevard du Souverain","STRNAMEDUT":"Vorstlaan","SLOPE":1.9,"LENGTH":5.25327700685164},"bbox":[154052.22541622,166025.7480006,154057.01674559,166027.9020856]},{"type":"Feature","id":"StreetAxes.fid--291372a6_1a0314667fc_87d","geometry":{"type":"LineString","coordinates":[[154139.0335916,166472.79979469],[154144.16509708,166472.14400141]]},"geometry_name":"GEOM","properties":{"INSPIRE_ID":"https://databrussels.be/id/streetaxe/92276","TYPE":"I","HIERARCHY":"MER","LVL":0,"STARTSN_ID":"https://databrussels.be/id/streetnode/6649","ENDSN_ID":"https://databrussels.be/id/streetnode/6646","STRNAMEFRE":"Boulevard du Souverain","STRNAMEDUT":"Vorstlaan","SLOPE":1.35,"LENGTH":5.17324011305747},"bbox":[154139.0335916,166472.14400141,154144.16509708,166472.79979469]},{"type":"Feature","id":"StreetAxes.fid--291372a6_1a0314667fc_885","geometry":{"type":"LineString","coordinates":[[154069.68639439,166020.05198216],[154067.24508681,166012.66310948],[154062.60598409,166000.08439711],[154058.27181677,165988.9164302],[154052.64815593,165975.35976245],[154047.1623289,165962.99464784],[154040.84463593,165949.63241994],[154028.24246329,165925.40680229],[154022.29573215,165914.81716888],[154017.69131755,165906.98605934],[154008.19106056,165891.71698395],[153999.78918033,165879.01380025],[153987.67656606,165861.87841966],[153981.76716148,165854.00700857],[153970.75131298,165840.00556857],[153955.96690777,165822.65155724],[153943.38962186,165808.83777448],[153928.14790054,165792.88739027],[153914.36759749,165778.69293084],[153904.93457319,165768.93923703],[153889.38731467,165752.31099727],[153877.83028496,165739.02647144],[153866.30445904,165724.82142309],[153855.28209833,165710.27545337],[153845.37863163,165696.2298762],[153834.88807678,165680.23385755],[153826.41281175,165666.43347791],[153816.99960633,165649.78929529],[153814.20926397,165644.4413248]]},"geometry_name":"GEOM","properties":{"INSPIRE_ID":"https://databrussels.be/id/streetaxe/92277","TYPE":"C","HIERARCHY":"MER","LVL":0,"STARTSN_ID":"https://databrussels.be/id/streetnode/6648","ENDSN_ID":"https://databrussels.be/id/streetnode/6837","STRNAMEFRE":"Boulevard du Souverain","STRNAMEDUT":"Vorstlaan","SLOPE":0.42,"LENGTH":458.019151507206},"bbox":[153814.20926397,165644.4413248,154069.68639439,166020.05198216]},{"type":"Feature","id":"StreetAxes.fid--291372a6_1a0314667fc_884","geometry":{"type":"LineString","coordinates":[[154057.01674559,166025.7480006],[154054.5226553,166018.26215573],[154047.66287602,165999.90789933],[154043.57885593,165989.6845155],[154036.57707415,165973.32535269],[154028.73492724,165956.52830568],[154020.81844319,165940.90594421],[154011.98028234,165924.77608022],[154003.53797365,165910.48772362],[153999.91997365,165904.62281256],[153989.22959055,165888.2142541],[153979.07859085,165873.72881421],[153965.38802199,165855.70300789],[153959.58855034,165848.37328827],[153950.92269684,165838.03756459],[153936.16416822,165821.38842123],[153917.71593652,165802.09640984],[153902.74641676,165786.65486754],[153886.46841854,165769.6633238],[153876.39448711,165758.56975472],[153864.06580558,165744.16567924],[153852.42042632,165729.57048972],[153844.00635539,165718.36658134],[153833.38691119,165703.30656923],[153828.02176956,165695.21038431],[153819.74851519,165682.2190828],[153812.65255491,165670.31052959],[153804.88405494,165656.44590413],[153801.99036837,165650.96529867]]},"geometry_name":"GEOM","properties":{"INSPIRE_ID":"https://databrussels.be/id/streetaxe/92469","TYPE":"C","HIERARCHY":"MER","LVL":0,"STARTSN_ID":"https://databrussels.be/id/streetnode/6647","ENDSN_ID":"https://databrussels.be/id/streetnode/6838","STRNAMEFRE":"Boulevard du Souverain","STRNAMEDUT":"Vorstlaan","SLOPE":0.29,"LENGTH":457.062736053541},"bbox":[153801.99036837,165650.96529867,154057.01674559,166025.7480006]},{"type":"Feature","id":"StreetAxes.fid--291372a6_1a0314667fc_89b","geometry":{"type":"LineString","coordinates":[[154279.5814168,166272.28381771],[154371.80486581,166240.06545542],[154374.62546103,166239.07388942],[154394.74948122,166232.3750736],[154397.07354723,166230.73949734],[154399.16437044,166228.8321189],[154402.19684521,166226.18209161],[154404.51366179,166224.64121026],[154406.63304807,166223.84833813],[154411.61021266,166222.57296084],[154424.80011693,166219.41089093],[154430.79121006,166218.03981158],[154439.85000002,166213.157513],[154454.3577169,166210.13819677],[154461.10462179,166207.45669987],[154472.07510566,166200.63056268],[154479.78376315,166198.34341916],[154489.31489628,166196.35504482],[154505.186,166198.846]]},"geometry_name":"GEOM","properties":{"INSPIRE_ID":"https://databrussels.be/id/streetaxe/94308","TYPE":"S","HIERARCHY":"DR","LVL":0,"STARTSN_ID":"https://databrussels.be/id/streetnode/5025","ENDSN_ID":"https://databrussels.be/id/streetnode/5024","STRNAMEFRE":"Square Louis Van Simaey","STRNAMEDUT":"Louis Van Simaeysquare","SLOPE":9.28,"LENGTH":240.61370394779},"bbox":[154279.5814168,166196.35504482,154505.186,166272.28381771]},{"type":"Feature","id":"StreetAxes.fid--291372a6_1a0314667fc_870","geometry":{"type":"LineString","coordinates":[[154459.77744844,166167.89071593],[154449.44601424,166138.46509987],[154438.96500363,166138.0285373],[154422.11178559,166137.03334927],[154413.5829184,166136.39472484],[154405.5090935,166135.29198573],[154397.44147962,166133.67716],[154383.81098016,166130.58766869],[154374.2779352,166128.12744571],[154366.2186791,166125.4548494],[154358.4022666,166122.5888229],[154349.27679523,166117.8635096],[154338.86846266,166111.95325957],[154332.2675875,166106.37189151],[154331.3155,166103.4975]]},"geometry_name":"GEOM","properties":{"INSPIRE_ID":"https://databrussels.be/id/streetaxe/94497","TYPE":"S","HIERARCHY":null,"LVL":0,"STARTSN_ID":"https://databrussels.be/id/streetnode/5023","ENDSN_ID":"https://databrussels.be/id/streetnode/6290","STRNAMEFRE":"Avenue Jean Accent","STRNAMEDUT":"Jean Accentlaan","SLOPE":4.14,"LENGTH":158.04408984271},"bbox":[154331.3155,166103.4975,154459.77744844,166167.89071593]},{"type":"Feature","id":"StreetAxes.fid--291372a6_1a0314667fc_893","geometry":{"type":"LineString","coordinates":[[154210.58012634,166435.1228465],[154219.43735481,166431.72791339],[154224.31365237,166429.87170959],[154226.20468354,166429.19906092],[154226.85689386,166429.34084577],[154227.46664276,166429.49328299],[154228.34273892,166429.92390653],[154229.6933824,166431.0317377],[154232.99729052,166435.29702611]]},"geometry_name":"GEOM","properties":{"INSPIRE_ID":"https://databrussels.be/id/streetaxe/94676","TYPE":"S","HIERARCHY":null,"LVL":0,"STARTSN_ID":"https://databrussels.be/id/streetnode/11627","ENDSN_ID":"https://databrussels.be/id/streetnode/13764","STRNAMEFRE":"Promenade verte","STRNAMEDUT":"Groene wandeling","SLOPE":3.75,"LENGTH":26.124570192142},"bbox":[154210.58012634,166429.19906092,154232.99729052,166435.29702611]},{"type":"Feature","id":"StreetAxes.fid--291372a6_1a0314667fc_879","geometry":{"type":"LineString","coordinates":[[154243.67376974,166685.95988777],[154241.71925413,166679.77281947],[154241.5285764,166679.29960164],[154241.6190895,166678.85789774],[154241.91255696,166678.29097195],[154242.28762618,166677.68371702],[154243.00750609,166676.5662915],[154243.62129359,166675.30035479],[154244.22722325,166672.75545021],[154240.65096675,166660.38628956],[154240.34221073,166657.65430999],[154240.2663597,166654.93315429],[154240.28578819,166652.82516316],[154240.38377631,166650.42445414],[154240.52198553,166648.2624672],[154240.69847464,166645.81122956],[154241.00229204,166643.24777025],[154241.88468678,166639.37503774],[154242.60254623,166635.93324586],[154244.24144009,166630.4375539],[154245.83833458,166625.71544869],[154247.30573906,166622.28502631],[154248.67649929,166619.41801373],[154250.36822507,166616.53439023],[154253.75782778,166611.52974152],[154254.97512988,166609.54904658],[154257.72370448,166604.70872587],[154260.17179629,166600.08567647],[154262.04206859,166596.21370732],[154264.32230745,166591.31169602],[154265.88585319,166587.83940613],[154267.39612824,166583.96742581],[154269.84214039,166577.49505621],[154271.77826268,166571.68668933],[154272.25194507,166570.18143196],[154272.42412175,166569.46044212],[154273.18984299,166566.42177022],[154273.86566926,166562.3741957],[154274.10521094,166555.63788446],[154274.13645223,166554.54443901],[154274.1147231,166552.81697288],[154273.9068958,166551.14341624],[154273.39276129,166548.19501219],[154272.81958012,166546.19428546],[154272.33737853,166544.85727198],[154271.98788951,166544.06768567],[154271.83221286,166543.82119764],[154270.93647848,166540.22806321],[154270.53763843,166536.50148142],[154270.97765215,166535.51499906],[154271.79686143,166533.40395975],[154272.62540693,166530.7215437],[154273.58834659,166527.1463741],[154274.11939882,166524.55238823],[154274.80602695,166521.20123304],[154275.12963919,166518.27828376],[154275.35707017,166514.79445454],[154275.29549825,166510.94620934],[154275.13370067,166507.23497734],[154274.96952808,166504.57743358],[154274.61086707,166501.56468103],[154274.16521847,166498.46539758],[154273.66610529,166495.41978864],[154272.78239011,166491.17389269],[154271.35813435,166485.27627027],[154271.01944428,166483.79834996],[154270.12105934,166480.67442051],[154269.0933006,166477.33924262],[154268.38928743,166475.13537531],[154267.59398689,166472.95604526],[154266.87838928,166471.2196687],[154265.90055043,166469.2125258],[154265.04088983,166467.48297054],[154263.95692227,166465.50933151],[154263.25749221,166464.27749945],[154261.01540352,166460.76591762],[154258.09867821,166456.71095805],[154252.4265263,166449.35441039],[154251.62697781,166448.53382116],[154246.94017608,166443.1843364],[154246.58976075,166442.4578656],[154242.86262379,166436.63153656],[154241.81248104,166435.8843196],[154240.85778985,166435.60049249],[154236.81004954,166431.60171929]]},"geometry_name":"GEOM","properties":{"INSPIRE_ID":"https://databrussels.be/id/streetaxe/94769","TYPE":"S","HIERARCHY":null,"LVL":0,"STARTSN_ID":"https://databrussels.be/id/streetnode/13766","ENDSN_ID":"https://databrussels.be/id/streetnode/13769","STRNAMEFRE":"Promenade verte","STRNAMEDUT":"Groene wandeling","SLOPE":0.32,"LENGTH":275.70633551575},"bbox":[154236.81004954,166431.60171929,154275.35707017,166685.95988777]},{"type":"Feature","id":"StreetAxes.fid--291372a6_1a0314667fc_87b","geometry":{"type":"LineString","coordinates":[[154202.315,166439.125],[154210.58012634,166435.1228465]]},"geometry_name":"GEOM","properties":{"INSPIRE_ID":"https://databrussels.be/id/streetaxe/94770","TYPE":"S","HIERARCHY":"DR","LVL":1,"STARTSN_ID":"https://databrussels.be/id/streetnode/11626","ENDSN_ID":"https://databrussels.be/id/streetnode/11627","STRNAMEFRE":"Promenade verte","STRNAMEDUT":"Groene wandeling","SLOPE":0.65,"LENGTH":9.18311199776346},"bbox":[154202.315,166435.1228465,154210.58012634,166439.125]},{"type":"Feature","id":"StreetAxes.fid--291372a6_1a0314667fc_891","geometry":{"type":"LineString","coordinates":[[154194.53388199,165961.5629363],[154197.5039949,165967.90053606],[154197.73927853,165968.34169286],[154197.85903386,165969.1001433],[154197.99312745,165969.93822824],[154198.03298615,165970.93469581],[154197.84002839,165972.10530625],[154197.52058244,165973.12068801],[154197.19429062,165974.05746131],[154196.42603695,165976.04038631],[154195.51921864,165977.97910132],[154194.53964716,165979.84544277],[154193.37588858,165981.87429624],[154192.10748627,165983.84392909],[154190.76227016,165985.75393058],[154189.03929168,165988.01021193],[154187.1897022,165990.17834182],[154185.2566046,165992.24440381],[154183.75438261,165993.7363366],[154182.17992318,165995.17613832],[154180.51507457,165996.5373353],[154179.50573757,165997.24918349],[154178.5236337,165997.90729433],[154177.5513542,165998.56560858],[154176.16910104,165999.45347922],[154174.79034088,166000.34917013],[154173.37339723,166001.23219298],[154173.20452075,166001.32869383],[154170.76879949,166002.70320873],[154168.16552237,166004.06012924],[154165.60341824,166005.44048767],[154164.90468794,166005.82867117],[154163.56030531,166006.6104755],[154160.71437252,166008.57851038],[154158.01928449,166010.81630911],[154155.38931731,166013.1813169],[154148.18378458,166020.33706842],[154147.14517689,166021.35712955],[154141.2516671,166029.44427598],[154140.71455973,166030.1732074],[154139.44230683,166032.11050159],[154138.2686171,166034.15467788],[154137.09301492,166036.24685125],[154135.29067288,166039.47314307],[154133.55112032,166042.72362129],[154131.83856854,166046.0093311],[154130.62381935,166048.39900164],[154129.41666649,166050.80333089],[154128.22384992,166053.19890416],[154126.49153776,166056.83870611],[154124.50342579,166062.90066548],[154121.80219669,166077.33949443],[154121.30682224,166080.00460899],[154118.67563289,166097.29670569],[154117.21106434,166110.91619688],[154115.54559331,166130.65248773],[154115.26987404,166138.06736662],[154116.55164761,166157.09507976],[154117.99371413,166168.86234251],[154118.57954276,166172.6533488],[154119.02332039,166175.44421702],[154124.53732243,166201.7219033],[154126.68668712,166210.59456076],[154129.78310185,166219.3611617],[154133.98524035,166229.05993633],[154145.98103837,166257.55745995],[154151.34790148,166272.01984947],[154152.44230279,166275.58943878],[154153.29346286,166278.97356921],[154154.69579826,166286.50986086],[154155.59355841,166292.13851439],[154156.35862884,166298.51074575],[154156.72554063,166302.07794374],[154156.86866856,166306.67848425],[154156.74674192,166310.86463234],[154156.46445235,166315.94584443],[154155.75005026,166324.51866957],[154154.5516176,166334.06584742],[154153.22697033,166341.70263959],[154152.10161259,166348.65574278],[154147.0515411,166371.79968443],[154146.56534989,166376.61297746],[154146.45718445,166379.77927463],[154146.31972629,166384.30557546],[154146.90019774,166391.99370804],[154147.34708763,166393.86694908],[154148.99801181,166399.48206844],[154150.83689222,166404.98881634],[154152.77489202,166409.92727267],[154154.31220963,166413.20995133],[154155.59504182,166415.58954604],[154158.10704771,166419.46099041],[154160.90083728,166423.66098138],[154166.54202004,166429.37038921],[154167.63905716,166430.24076577],[154171.42288688,166432.84522],[154177.05003258,166436.4170607],[154177.85435038,166436.94738013],[154183.11150497,166439.17253319],[154186.21350388,166439.89413444],[154190.28772307,166440.65258097],[154193.32875935,166440.88137367],[154195.83203862,166440.85303466],[154197.62698103,166440.64240366],[154199.04521058,166440.3123754],[154202.315,166439.125]]},"geometry_name":"GEOM","properties":{"INSPIRE_ID":"https://databrussels.be/id/streetaxe/95128","TYPE":"S","HIERARCHY":null,"LVL":0,"STARTSN_ID":"https://databrussels.be/id/streetnode/12347","ENDSN_ID":"https://databrussels.be/id/streetnode/11626","STRNAMEFRE":"Promenade verte","STRNAMEDUT":"Groene wandeling","SLOPE":0.45,"LENGTH":549.928892769754},"bbox":[154115.26987404,165961.5629363,154202.315,166440.88137367]},{"type":"Feature","id":"StreetAxes.fid--291372a6_1a0314667fc_89e","geometry":{"type":"LineString","coordinates":[[154385.42851895,166298.75873624],[154379.71781218,166306.22938279],[154368.58206079,166298.01216112],[154379.22946119,166283.18131522],[154390.3879382,166291.540575],[154385.42851895,166298.63173624]]},"geometry_name":"GEOM","properties":{"INSPIRE_ID":"https://databrussels.be/id/streetaxe/98454","TYPE":"S","HIERARCHY":"DR","LVL":0,"STARTSN_ID":"https://databrussels.be/id/streetnode/16966","ENDSN_ID":"https://databrussels.be/id/streetnode/16966","STRNAMEFRE":"Square Georges Golinvaux","STRNAMEDUT":"Georges Golinvauxsquare","SLOPE":null,"LENGTH":64.0954596109618},"bbox":[154368.58206079,166283.18131522,154390.3879382,166306.22938279]}],"numberReturned":50,"grand_bruxelles_source":{"authority":"Paradigm / Brussels-Capital Region","service":"https://geoservices-urbis.irisnet.be/geoserver/urbisvector/wfs","layer":"urbisvector:StreetAxes","crs":"EPSG:31370","bbox":[154000.0,166000.0,154500.0,166500.0],"cell_id":"bxl-e154000-n166000-s500","ownership":"bbox_intersection_source_unclipped"}}
