{"type":"FeatureCollection","totalFeatures":77,"numberMatched":77,"timeStamp":"2026-08-23T02:51:29.943Z","crs":{"type":"name","properties":{"name":"urn:ogc:def:crs:EPSG::31370"}},"bbox":[147429.97583592,172904.51430524,148042.68270293,173678.223],"features":[{"type":"Feature","id":"StreetAxes.fid--578fcb21_1a02c23451d_-475a","geometry":{"type":"LineString","coordinates":[[147894.697,173016.228],[147886.292,173016.308],[147820.144,173016.817],[147813.87,173016.865],[147800.892,173027.312]]},"geometry_name":"GEOM","properties":{"INSPIRE_ID":"https://databrussels.be/id/streetaxe/70739","TYPE":"S","HIERARCHY":"DR","LVL":0,"STARTSN_ID":"https://databrussels.be/id/streetnode/2857","ENDSN_ID":"https://databrussels.be/id/streetnode/1590","STRNAMEFRE":"Rue de Rotterdam","STRNAMEDUT":"Rotterdamstraat","SLOPE":1.82,"LENGTH":97.489903581844},"bbox":[147800.892,173016.228,147894.697,173027.312]},{"type":"Feature","id":"StreetAxes.fid--578fcb21_1a02c23451d_-476a","geometry":{"type":"LineString","coordinates":[[147744.417,173481.131],[147741.987,173458.812],[147735.037,173398.698],[147739.527,173383.492]]},"geometry_name":"GEOM","properties":{"INSPIRE_ID":"https://databrussels.be/id/streetaxe/71190","TYPE":"S","HIERARCHY":"DR","LVL":0,"STARTSN_ID":"https://databrussels.be/id/streetnode/1080","ENDSN_ID":"https://databrussels.be/id/streetnode/3628","STRNAMEFRE":"Rue Spruyt","STRNAMEDUT":"Spruytstraat","SLOPE":1.46,"LENGTH":98.8203659543994},"bbox":[147735.037,173383.492,147744.417,173481.131]},{"type":"Feature","id":"StreetAxes.fid--578fcb21_1a02c23451d_-4768","geometry":{"type":"LineString","coordinates":[[147833.81,173526.631],[147831.506,173502.812],[147822.933,173440.246],[147827.601,173424.384]]},"geometry_name":"GEOM","properties":{"INSPIRE_ID":"https://databrussels.be/id/streetaxe/71353","TYPE":"S","HIERARCHY":"DR","LVL":0,"STARTSN_ID":"https://databrussels.be/id/streetnode/317","ENDSN_ID":"https://databrussels.be/id/streetnode/676","STRNAMEFRE":"Rue Bulins","STRNAMEDUT":"Bulinsstraat","SLOPE":2.33,"LENGTH":103.615400170319},"bbox":[147822.933,173424.384,147833.81,173526.631]},{"type":"Feature","id":"StreetAxes.fid--578fcb21_1a02c23451d_-4757","geometry":{"type":"LineString","coordinates":[[147800.892,173027.312],[147810.518,173039.27],[147907.542,173158.676],[147913.177,173165.537]]},"geometry_name":"GEOM","properties":{"INSPIRE_ID":"https://databrussels.be/id/streetaxe/71713","TYPE":"S","HIERARCHY":"DR","LVL":0,"STARTSN_ID":"https://databrussels.be/id/streetnode/1590","ENDSN_ID":"https://databrussels.be/id/streetnode/333","STRNAMEFRE":"Avenue Jean Dubrucq","STRNAMEDUT":"Jean Dubrucqlaan","SLOPE":1.42,"LENGTH":178.084733045329},"bbox":[147800.892,173027.312,147913.177,173165.537]},{"type":"Feature","id":"StreetAxes.fid--578fcb21_1a02c23451d_-476b","geometry":{"type":"LineString","coordinates":[[147739.527,173383.492],[147749.641,173388.12],[147816.412,173419.266],[147827.601,173424.384]]},"geometry_name":"GEOM","properties":{"INSPIRE_ID":"https://databrussels.be/id/streetaxe/71884","TYPE":"S","HIERARCHY":"DR","LVL":0,"STARTSN_ID":"https://databrussels.be/id/streetnode/3628","ENDSN_ID":"https://databrussels.be/id/streetnode/676","STRNAMEFRE":"Rue Rosalie Uyttenhove","STRNAMEDUT":"Rosalie Uyttenhovestraat","SLOPE":1.67,"LENGTH":97.1044766290448},"bbox":[147739.527,173383.492,147827.601,173424.384]},{"type":"Feature","id":"StreetAxes.fid--578fcb21_1a02c23451d_-4765","geometry":{"type":"LineString","coordinates":[[147744.417,173481.131],[147761.335,173489.683],[147816.789,173518.016],[147833.81,173526.631]]},"geometry_name":"GEOM","properties":{"INSPIRE_ID":"https://databrussels.be/id/streetaxe/72069","TYPE":"S","HIERARCHY":"DC","LVL":0,"STARTSN_ID":"https://databrussels.be/id/streetnode/1080","ENDSN_ID":"https://databrussels.be/id/streetnode/317","STRNAMEFRE":"Avenue Odon Warland","STRNAMEDUT":"Odon Warlandlaan","SLOPE":0.65,"LENGTH":100.306518883849},"bbox":[147744.417,173481.131,147833.81,173526.631]},{"type":"Feature","id":"StreetAxes.fid--578fcb21_1a02c23451d_-4766","geometry":{"type":"LineString","coordinates":[[147969.667,173595.177],[147971.835,173582.445],[147989.695,173477.13],[147992.792,173472.183],[148002.506,173456.665]]},"geometry_name":"GEOM","properties":{"INSPIRE_ID":"https://databrussels.be/id/streetaxe/73429","TYPE":"S","HIERARCHY":"DR","LVL":0,"STARTSN_ID":"https://databrussels.be/id/streetnode/2147","ENDSN_ID":"https://databrussels.be/id/streetnode/10623","STRNAMEFRE":"Rue du Pannenhuys","STRNAMEDUT":"Pannenhuisstraat","SLOPE":2.99,"LENGTH":143.878044686801},"bbox":[147969.667,173456.665,148002.506,173595.177]},{"type":"Feature","id":"StreetAxes.fid--578fcb21_1a02c23451d_-475f","geometry":{"type":"LineString","coordinates":[[147637.44811058,173106.96470113],[147635.23604595,173123.16856864],[147620.84095751,173212.57486087],[147605.05,173307.62],[147603.38153832,173318.25034617]]},"geometry_name":"GEOM","properties":{"INSPIRE_ID":"https://databrussels.be/id/streetaxe/73801","TYPE":"S","HIERARCHY":"IDR","LVL":0,"STARTSN_ID":"https://databrussels.be/id/streetnode/12887","ENDSN_ID":"https://databrussels.be/id/streetnode/7815","STRNAMEFRE":"Avenue Charles Woeste","STRNAMEDUT":"Charles Woestelaan","SLOPE":1.06,"LENGTH":214.02035881562},"bbox":[147603.38153832,173106.96470113,147637.44811058,173318.25034617]},{"type":"Feature","id":"StreetAxes.fid--578fcb21_1a02c23451d_-4774","geometry":{"type":"LineString","coordinates":[[147589.72120422,173402.83156952],[147573.96221191,173502.26908821],[147559.81203142,173588.80777197],[147556.94979999,173606.52113535]]},"geometry_name":"GEOM","properties":{"INSPIRE_ID":"https://databrussels.be/id/streetaxe/73802","TYPE":"S","HIERARCHY":"IDR","LVL":0,"STARTSN_ID":"https://databrussels.be/id/streetnode/7822","ENDSN_ID":"https://databrussels.be/id/streetnode/7825","STRNAMEFRE":"Avenue Charles Woeste","STRNAMEDUT":"Charles Woestelaan","SLOPE":1.92,"LENGTH":206.309569821559},"bbox":[147556.94979999,173402.83156952,147589.72120422,173606.52113535]},{"type":"Feature","id":"StreetAxes.fid--578fcb21_1a02c23451d_-4732","geometry":{"type":"LineString","coordinates":[[147683.85508403,173016.04988481],[147704.890621,172997.31407928]]},"geometry_name":"GEOM","properties":{"INSPIRE_ID":"https://databrussels.be/id/streetaxe/74050","TYPE":"S","HIERARCHY":"IDR","LVL":1,"STARTSN_ID":"https://databrussels.be/id/streetnode/12880","ENDSN_ID":"https://databrussels.be/id/streetnode/11697","STRNAMEFRE":"Boulevard Belgica","STRNAMEDUT":"Belgicalaan","SLOPE":25.13,"LENGTH":28.1695620150311},"bbox":[147683.85508403,172997.31407928,147704.890621,173016.04988481]},{"type":"Feature","id":"StreetAxes.fid--578fcb21_1a02c23451d_-477a","geometry":{"type":"LineString","coordinates":[[147603.38153832,173318.25034617],[147601.71307665,173328.88069235],[147589.72120422,173402.83156952]]},"geometry_name":"GEOM","properties":{"INSPIRE_ID":"https://databrussels.be/id/streetaxe/74272","TYPE":"S","HIERARCHY":"IDR","LVL":0,"STARTSN_ID":"https://databrussels.be/id/streetnode/7815","ENDSN_ID":"https://databrussels.be/id/streetnode/7822","STRNAMEFRE":"Avenue Charles Woeste","STRNAMEDUT":"Charles Woestelaan","SLOPE":0.01,"LENGTH":85.677353234263},"bbox":[147589.72120422,173318.25034617,147603.38153832,173402.83156952]},{"type":"Feature","id":"StreetAxes.fid--578fcb21_1a02c23451d_-4779","geometry":{"type":"LineString","coordinates":[[147615.79733339,173326.19126903],[147611.26357487,173357.02099281],[147611.41784855,173361.47024096],[147603.52653709,173409.56039197]]},"geometry_name":"GEOM","properties":{"INSPIRE_ID":"https://databrussels.be/id/streetaxe/74273","TYPE":"S","HIERARCHY":"IDR","LVL":0,"STARTSN_ID":"https://databrussels.be/id/streetnode/7820","ENDSN_ID":"https://databrussels.be/id/streetnode/7832","STRNAMEFRE":"Avenue Charles Woeste","STRNAMEDUT":"Charles Woestelaan","SLOPE":0.08,"LENGTH":84.3465346261453},"bbox":[147603.52653709,173326.19126903,147615.79733339,173409.56039197]},{"type":"Feature","id":"StreetAxes.fid--578fcb21_1a02c23451d_-4770","geometry":{"type":"LineString","coordinates":[[147649.92219401,173112.38494175],[147648.94944581,173118.93653576],[147644.34656416,173148.72391027],[147641.69087147,173165.38532945],[147636.11493076,173201.02570762],[147628.42735762,173247.70065309],[147624.24067908,173272.61562732],[147615.79733339,173326.19126903]]},"geometry_name":"GEOM","properties":{"INSPIRE_ID":"https://databrussels.be/id/streetaxe/74274","TYPE":"S","HIERARCHY":"IDR","LVL":0,"STARTSN_ID":"https://databrussels.be/id/streetnode/11694","ENDSN_ID":"https://databrussels.be/id/streetnode/7820","STRNAMEFRE":"Avenue Charles Woeste","STRNAMEDUT":"Charles Woestelaan","SLOPE":1.04,"LENGTH":216.514947983786},"bbox":[147615.79733339,173112.38494175,147649.92219401,173326.19126903]},{"type":"Feature","id":"StreetAxes.fid--578fcb21_1a02c23451d_-474f","geometry":{"type":"LineString","coordinates":[[147661.75072017,173058.20449557],[147666.4257505,173073.52013247],[147666.11557926,173079.6032281],[147666.99280239,173086.02901023],[147668.16043506,173091.32690931],[147669.68595055,173096.17596329],[147672.57370126,173102.41375491],[147676.80939771,173110.77979691]]},"geometry_name":"GEOM","properties":{"INSPIRE_ID":"https://databrussels.be/id/streetaxe/75403","TYPE":"S","HIERARCHY":"DR","LVL":0,"STARTSN_ID":"https://databrussels.be/id/streetnode/12888","ENDSN_ID":"https://databrussels.be/id/streetnode/11475","STRNAMEFRE":"Place Philippe Werrie","STRNAMEDUT":"Philippe Werrieplein","SLOPE":1.14,"LENGTH":55.349043667937},"bbox":[147661.75072017,173058.20449557,147676.80939771,173110.77979691]},{"type":"Feature","id":"StreetAxes.fid--578fcb21_1a02c23451d_-4743","geometry":{"type":"LineString","coordinates":[[147676.80939771,173110.77979691],[147679.38701758,173116.2596822],[147700.056,173139.09],[147710.09813463,173154.62287026]]},"geometry_name":"GEOM","properties":{"INSPIRE_ID":"https://databrussels.be/id/streetaxe/75404","TYPE":"S","HIERARCHY":"DR","LVL":0,"STARTSN_ID":"https://databrussels.be/id/streetnode/11475","ENDSN_ID":"https://databrussels.be/id/streetnode/4500","STRNAMEFRE":"Rue Auguste Hainaut","STRNAMEDUT":"Auguste Hainautstraat","SLOPE":0.31,"LENGTH":55.3487785764702},"bbox":[147676.80939771,173110.77979691,147710.09813463,173154.62287026]},{"type":"Feature","id":"StreetAxes.fid--578fcb21_1a02c23451d_-476e","geometry":{"type":"LineString","coordinates":[[148002.506,173456.665],[147991.714,173437.512],[147938.3,173369.33],[147813.295,173218.934]]},"geometry_name":"GEOM","properties":{"INSPIRE_ID":"https://databrussels.be/id/streetaxe/75874","TYPE":"S","HIERARCHY":"DR","LVL":0,"STARTSN_ID":"https://databrussels.be/id/streetnode/10623","ENDSN_ID":"https://databrussels.be/id/streetnode/1011","STRNAMEFRE":"Rue du Coin de Terre","STRNAMEDUT":"Hoekje Grondstraat","SLOPE":0.36,"LENGTH":304.161175229311},"bbox":[147813.295,173218.934,148002.506,173456.665]},{"type":"Feature","id":"StreetAxes.fid--578fcb21_1a02c23451d_-475b","geometry":{"type":"LineString","coordinates":[[147683.85508403,173016.04988481],[147678.44643545,173020.61042866],[147669.32489979,173028.18398259],[147662.98774559,173033.20916443]]},"geometry_name":"GEOM","properties":{"INSPIRE_ID":"https://databrussels.be/id/streetaxe/75934","TYPE":"S","HIERARCHY":"IDR","LVL":0,"STARTSN_ID":"https://databrussels.be/id/streetnode/12880","ENDSN_ID":"https://databrussels.be/id/streetnode/11696","STRNAMEFRE":"Place Philippe Werrie","STRNAMEDUT":"Philippe Werrieplein","SLOPE":25.39,"LENGTH":27.0183616779053},"bbox":[147662.98774559,173016.04988481,147683.85508403,173033.20916443]},{"type":"Feature","id":"StreetAxes.fid--578fcb21_1a02c23451d_-476f","geometry":{"type":"LineString","coordinates":[[147913.177,173165.537],[147918.812,173172.398],[147964.576,173227.212],[147970.758,173234.612]]},"geometry_name":"GEOM","properties":{"INSPIRE_ID":"https://databrussels.be/id/streetaxe/75957","TYPE":"S","HIERARCHY":"DR","LVL":0,"STARTSN_ID":"https://databrussels.be/id/streetnode/333","ENDSN_ID":"https://databrussels.be/id/streetnode/4145","STRNAMEFRE":"Avenue Jean Dubrucq","STRNAMEDUT":"Jean Dubrucqlaan","SLOPE":1.77,"LENGTH":89.9276065412674},"bbox":[147913.177,173165.537,147970.758,173234.612]},{"type":"Feature","id":"StreetAxes.fid--578fcb21_1a02c23451d_-4776","geometry":{"type":"LineString","coordinates":[[147524.51740985,173369.30126796],[147589.72120422,173402.83156952]]},"geometry_name":"GEOM","properties":{"INSPIRE_ID":"https://databrussels.be/id/streetaxe/77879","TYPE":"S","HIERARCHY":"DR","LVL":0,"STARTSN_ID":"https://databrussels.be/id/streetnode/11597","ENDSN_ID":"https://databrussels.be/id/streetnode/7822","STRNAMEFRE":"Avenue Odon Warland","STRNAMEDUT":"Odon Warlandlaan","SLOPE":0.15,"LENGTH":73.3199558315464},"bbox":[147524.51740985,173369.30126796,147589.72120422,173402.83156952]},{"type":"Feature","id":"StreetAxes.fid--578fcb21_1a02c23451d_-4769","geometry":{"type":"LineString","coordinates":[[147603.52653709,173409.56039197],[147611,173413.255],[147727.52,173472.59],[147744.417,173481.131]]},"geometry_name":"GEOM","properties":{"INSPIRE_ID":"https://databrussels.be/id/streetaxe/77946","TYPE":"S","HIERARCHY":"DC","LVL":0,"STARTSN_ID":"https://databrussels.be/id/streetnode/7832","ENDSN_ID":"https://databrussels.be/id/streetnode/1080","STRNAMEFRE":"Avenue Odon Warland","STRNAMEDUT":"Odon Warlandlaan","SLOPE":0.4,"LENGTH":158.027411052189},"bbox":[147603.52653709,173409.56039197,147744.417,173481.131]},{"type":"Feature","id":"StreetAxes.fid--578fcb21_1a02c23451d_-474b","geometry":{"type":"LineString","coordinates":[[147654.3709519,173082.66502068],[147653.22356234,173093.38650106],[147649.92219401,173112.38494175]]},"geometry_name":"GEOM","properties":{"INSPIRE_ID":"https://databrussels.be/id/streetaxe/77983","TYPE":"S","HIERARCHY":"IDR","LVL":0,"STARTSN_ID":"https://databrussels.be/id/streetnode/11695","ENDSN_ID":"https://databrussels.be/id/streetnode/11694","STRNAMEFRE":"Place Philippe Werrie","STRNAMEDUT":"Philippe Werrieplein","SLOPE":0.63,"LENGTH":30.0658487670573},"bbox":[147649.92219401,173082.66502068,147654.3709519,173112.38494175]},{"type":"Feature","id":"StreetAxes.fid--578fcb21_1a02c23451d_-4730","geometry":{"type":"LineString","coordinates":[[147714.82536644,173010.15509219],[147693.7245019,173028.91339573]]},"geometry_name":"GEOM","properties":{"INSPIRE_ID":"https://databrussels.be/id/streetaxe/77984","TYPE":"S","HIERARCHY":"IDR","LVL":1,"STARTSN_ID":"https://databrussels.be/id/streetnode/12883","ENDSN_ID":"https://databrussels.be/id/streetnode/13333","STRNAMEFRE":"Boulevard Belgica","STRNAMEDUT":"Belgicalaan","SLOPE":26.85,"LENGTH":28.2333213816934},"bbox":[147693.7245019,173010.15509219,147714.82536644,173028.91339573]},{"type":"Feature","id":"StreetAxes.fid--578fcb21_1a02c23451d_-4755","geometry":{"type":"LineString","coordinates":[[147651.84607648,173045.53680012],[147655.14365618,173039.86302245],[147662.98774559,173033.20916443]]},"geometry_name":"GEOM","properties":{"INSPIRE_ID":"https://databrussels.be/id/streetaxe/78055","TYPE":"S","HIERARCHY":"IDR","LVL":0,"STARTSN_ID":"https://databrussels.be/id/streetnode/12876","ENDSN_ID":"https://databrussels.be/id/streetnode/11696","STRNAMEFRE":"Place Philippe Werrie","STRNAMEDUT":"Philippe Werrieplein","SLOPE":0.53,"LENGTH":16.8485386664021},"bbox":[147651.84607648,173033.20916443,147662.98774559,173045.53680012]},{"type":"Feature","id":"StreetAxes.fid--578fcb21_1a02c23451d_-4747","geometry":{"type":"LineString","coordinates":[[147632.25824912,173085.45333525],[147636.15727723,173097.39681526],[147637.44811058,173106.96470113]]},"geometry_name":"GEOM","properties":{"INSPIRE_ID":"https://databrussels.be/id/streetaxe/78056","TYPE":"S","HIERARCHY":"IDR","LVL":0,"STARTSN_ID":"https://databrussels.be/id/streetnode/12884","ENDSN_ID":"https://databrussels.be/id/streetnode/12887","STRNAMEFRE":"Place Philippe Werrie","STRNAMEDUT":"Philippe Werrieplein","SLOPE":1.89,"LENGTH":22.2183709494373},"bbox":[147632.25824912,173085.45333525,147637.44811058,173106.96470113]},{"type":"Feature","id":"StreetAxes.fid--578fcb21_1a02c23451d_-4756","geometry":{"type":"LineString","coordinates":[[147693.7245019,173028.91339573],[147679.81491053,173041.40464275],[147667.68799209,173053.59995987],[147661.75072017,173058.20449557]]},"geometry_name":"GEOM","properties":{"INSPIRE_ID":"https://databrussels.be/id/streetaxe/78057","TYPE":"S","HIERARCHY":"IDR","LVL":0,"STARTSN_ID":"https://databrussels.be/id/streetnode/13333","ENDSN_ID":"https://databrussels.be/id/streetnode/12888","STRNAMEFRE":"Place Philippe Werrie","STRNAMEDUT":"Philippe Werrieplein","SLOPE":17.12,"LENGTH":43.4071359510795},"bbox":[147661.75072017,173028.91339573,147693.7245019,173058.20449557]},{"type":"Feature","id":"StreetAxes.fid--578fcb21_1a02c23451d_-472e","geometry":{"type":"LineString","coordinates":[[147714.82536644,173010.15509219],[147726.31297838,173000.18095702],[147746.53167072,172982.3937121],[147753.2946828,172976.67296334],[147758.39827892,172972.20078667]]},"geometry_name":"GEOM","properties":{"INSPIRE_ID":"https://databrussels.be/id/streetaxe/78058","TYPE":"S","HIERARCHY":"IDR","LVL":0,"STARTSN_ID":"https://databrussels.be/id/streetnode/12883","ENDSN_ID":"https://databrussels.be/id/streetnode/12885","STRNAMEFRE":"Boulevard Belgica","STRNAMEDUT":"Belgicalaan","SLOPE":0.48,"LENGTH":57.786493227342},"bbox":[147714.82536644,172972.20078667,147758.39827892,173010.15509219]},{"type":"Feature","id":"StreetAxes.fid--578fcb21_1a02c23451d_-4742","geometry":{"type":"LineString","coordinates":[[147710.09813463,173154.62287026],[147716.092,173163.894]]},"geometry_name":"GEOM","properties":{"INSPIRE_ID":"https://databrussels.be/id/streetaxe/78084","TYPE":"S","HIERARCHY":"DR","LVL":0,"STARTSN_ID":"https://databrussels.be/id/streetnode/4500","ENDSN_ID":"https://databrussels.be/id/streetnode/223","STRNAMEFRE":"Rue Auguste Hainaut","STRNAMEDUT":"Auguste Hainautstraat","SLOPE":4.17,"LENGTH":11.0399397085292},"bbox":[147710.09813463,173154.62287026,147716.092,173163.894]},{"type":"Feature","id":"StreetAxes.fid--578fcb21_1a02c23451d_-4733","geometry":{"type":"LineString","coordinates":[[147589.81260958,172930.29551273],[147594.44755204,172933.92765989],[147632.595,172984.945],[147662.98774559,173033.20916443]]},"geometry_name":"GEOM","properties":{"INSPIRE_ID":"https://databrussels.be/id/streetaxe/79304","TYPE":"S","HIERARCHY":"DC","LVL":0,"STARTSN_ID":"https://databrussels.be/id/streetnode/11194","ENDSN_ID":"https://databrussels.be/id/streetnode/11696","STRNAMEFRE":"Rue Jean-Baptiste Serkeyn","STRNAMEDUT":"Jean-Baptiste Serkeynstraat","SLOPE":1.77,"LENGTH":126.627351023268},"bbox":[147589.81260958,172930.29551273,147662.98774559,173033.20916443]},{"type":"Feature","id":"StreetAxes.fid--578fcb21_1a02c23451d_-473b","geometry":{"type":"LineString","coordinates":[[147981.66012854,172932.63610558],[147989.4084961,172946.0135084],[148007.00965933,172975.18272097],[148030.57377951,173015.59494178]]},"geometry_name":"GEOM","properties":{"INSPIRE_ID":"https://databrussels.be/id/streetaxe/79470","TYPE":"S","HIERARCHY":"IDR","LVL":0,"STARTSN_ID":"https://databrussels.be/id/streetnode/9010","ENDSN_ID":"https://databrussels.be/id/streetnode/8671","STRNAMEFRE":"Boulevard du Jubilé","STRNAMEDUT":"Jubelfeestlaan","SLOPE":0.8,"LENGTH":96.3080956665217},"bbox":[147981.66012854,172932.63610558,148030.57377951,173015.59494178]},{"type":"Feature","id":"StreetAxes.fid--578fcb21_1a02c23451d_-4740","geometry":{"type":"LineString","coordinates":[[147532.65613024,173051.59567961],[147532.86509103,173046.61126361],[147550.67287945,172991.92742343]]},"geometry_name":"GEOM","properties":{"INSPIRE_ID":"https://databrussels.be/id/streetaxe/80059","TYPE":"S","HIERARCHY":"DR","LVL":0,"STARTSN_ID":"https://databrussels.be/id/streetnode/12285","ENDSN_ID":"https://databrussels.be/id/streetnode/5332","STRNAMEFRE":"Rue Vanderperren","STRNAMEDUT":"Vanderperrenstraat","SLOPE":1.95,"LENGTH":62.4991385229329},"bbox":[147532.65613024,172991.92742343,147550.67287945,173051.59567961]},{"type":"Feature","id":"StreetAxes.fid--578fcb21_1a02c23451d_-4761","geometry":{"type":"LineString","coordinates":[[147622.13028918,173073.72751504],[147609.4853849,173069.21541886],[147599.55028633,173067.04019497],[147580.39743976,173066.05255608],[147532.16449489,173063.32283249]]},"geometry_name":"GEOM","properties":{"INSPIRE_ID":"https://databrussels.be/id/streetaxe/80914","TYPE":"S","HIERARCHY":"DC","LVL":0,"STARTSN_ID":"https://databrussels.be/id/streetnode/12872","ENDSN_ID":"https://databrussels.be/id/streetnode/11275","STRNAMEFRE":"Avenue Carton de Wiart","STRNAMEDUT":"Carton de Wiartlaan","SLOPE":0.08,"LENGTH":91.084676652702},"bbox":[147532.16449489,173063.32283249,147622.13028918,173073.72751504]},{"type":"Feature","id":"StreetAxes.fid--578fcb21_1a02c23451d_-4764","geometry":{"type":"LineString","coordinates":[[147582.24948856,173610.27675896],[147730.4,173492.43],[147744.417,173481.131]]},"geometry_name":"GEOM","properties":{"INSPIRE_ID":"https://databrussels.be/id/streetaxe/81609","TYPE":"S","HIERARCHY":"DR","LVL":0,"STARTSN_ID":"https://databrussels.be/id/streetnode/7818","ENDSN_ID":"https://databrussels.be/id/streetnode/1080","STRNAMEFRE":"Rue Jacques Vandervleet","STRNAMEDUT":"Jacques Vandervleetstraat","SLOPE":2.37,"LENGTH":207.309121980675},"bbox":[147582.24948856,173481.131,147744.417,173610.27675896]},{"type":"Feature","id":"StreetAxes.fid--578fcb21_1a02c23451d_-476c","geometry":{"type":"LineString","coordinates":[[147615.79733339,173326.19126903],[147729.413,173378.863],[147739.527,173383.492]]},"geometry_name":"GEOM","properties":{"INSPIRE_ID":"https://databrussels.be/id/streetaxe/81611","TYPE":"S","HIERARCHY":"DR","LVL":0,"STARTSN_ID":"https://databrussels.be/id/streetnode/7820","ENDSN_ID":"https://databrussels.be/id/streetnode/3628","STRNAMEFRE":"Rue Rosalie Uyttenhove","STRNAMEDUT":"Rosalie Uyttenhovestraat","SLOPE":1.47,"LENGTH":136.354088004771},"bbox":[147615.79733339,173326.19126903,147739.527,173383.492]},{"type":"Feature","id":"StreetAxes.fid--578fcb21_1a02c23451d_-475d","geometry":{"type":"LineString","coordinates":[[147474.30685623,173228.06149445],[147483.536,173234.18],[147597.965,173315.115],[147603.38153832,173318.25034617]]},"geometry_name":"GEOM","properties":{"INSPIRE_ID":"https://databrussels.be/id/streetaxe/81744","TYPE":"S","HIERARCHY":"DR","LVL":0,"STARTSN_ID":"https://databrussels.be/id/streetnode/11588","ENDSN_ID":"https://databrussels.be/id/streetnode/7815","STRNAMEFRE":"Rue Léopold Procureur","STRNAMEDUT":"Léopold Procureurstraat","SLOPE":0.34,"LENGTH":157.490353904969},"bbox":[147474.30685623,173228.06149445,147603.38153832,173318.25034617]},{"type":"Feature","id":"StreetAxes.fid--578fcb21_1a02c23451d_-474e","geometry":{"type":"LineString","coordinates":[[148042.68270293,173063.17407301],[148035.74974414,173068.63078441],[148032.886,173076.644],[147979.788,173225.227],[147970.758,173234.612]]},"geometry_name":"GEOM","properties":{"INSPIRE_ID":"https://databrussels.be/id/streetaxe/81774","TYPE":"S","HIERARCHY":"DR","LVL":0,"STARTSN_ID":"https://databrussels.be/id/streetnode/9005","ENDSN_ID":"https://databrussels.be/id/streetnode/4145","STRNAMEFRE":"Rue Gabrielle Petit","STRNAMEDUT":"Gabrielle Petitstraat","SLOPE":0.3,"LENGTH":188.14177435764},"bbox":[147970.758,173063.17407301,148042.68270293,173234.612]},{"type":"Feature","id":"StreetAxes.fid--578fcb21_1a02c23451d_-4739","geometry":{"type":"LineString","coordinates":[[148015.81797187,173016.74871426],[148007.54746166,173017.39539436],[147987.40280824,173017.48463226],[147981.23353397,173016.82755331]]},"geometry_name":"GEOM","properties":{"INSPIRE_ID":"https://databrussels.be/id/streetaxe/81854","TYPE":"S","HIERARCHY":"DR","LVL":0,"STARTSN_ID":"https://databrussels.be/id/streetnode/8818","ENDSN_ID":"https://databrussels.be/id/streetnode/8891","STRNAMEFRE":"Rue de Rotterdam","STRNAMEDUT":"Rotterdamstraat","SLOPE":1.73,"LENGTH":34.6447728301521},"bbox":[147981.23353397,173016.74871426,148015.81797187,173017.48463226]},{"type":"Feature","id":"StreetAxes.fid--578fcb21_1a02c23451d_-473f","geometry":{"type":"LineString","coordinates":[[147532.65613024,173051.59567961],[147512.84883113,173050.29152256],[147483.06235752,173048.64031341],[147429.97583592,173046.15671926]]},"geometry_name":"GEOM","properties":{"INSPIRE_ID":"https://databrussels.be/id/streetaxe/82454","TYPE":"S","HIERARCHY":"DC","LVL":0,"STARTSN_ID":"https://databrussels.be/id/streetnode/12285","ENDSN_ID":"https://databrussels.be/id/streetnode/12288","STRNAMEFRE":"Avenue Carton de Wiart","STRNAMEDUT":"Carton de Wiartlaan","SLOPE":0.64,"LENGTH":102.826978725938},"bbox":[147429.97583592,173046.15671926,147532.65613024,173051.59567961]},{"type":"Feature","id":"StreetAxes.fid--578fcb21_1a02c23451d_-4744","geometry":{"type":"LineString","coordinates":[[147676.80939771,173110.77979691],[147672.2072816,173111.65661852],[147649.92219401,173112.38494175]]},"geometry_name":"GEOM","properties":{"INSPIRE_ID":"https://databrussels.be/id/streetaxe/83017","TYPE":"S","HIERARCHY":"DR","LVL":0,"STARTSN_ID":"https://databrussels.be/id/streetnode/11475","ENDSN_ID":"https://databrussels.be/id/streetnode/11694","STRNAMEFRE":"Place Philippe Werrie","STRNAMEDUT":"Philippe Werrieplein","SLOPE":0.78,"LENGTH":26.9818860600493},"bbox":[147649.92219401,173110.77979691,147676.80939771,173112.38494175]},{"type":"Feature","id":"StreetAxes.fid--578fcb21_1a02c23451d_-4738","geometry":{"type":"LineString","coordinates":[[147835.33760661,172904.51430524],[147895.365,173007.32],[147894.697,173016.228]]},"geometry_name":"GEOM","properties":{"INSPIRE_ID":"https://databrussels.be/id/streetaxe/83018","TYPE":"S","HIERARCHY":"DR","LVL":0,"STARTSN_ID":"https://databrussels.be/id/streetnode/11477","ENDSN_ID":"https://databrussels.be/id/streetnode/2857","STRNAMEFRE":"Rue Edmond Van Cauwenbergh","STRNAMEDUT":"Edmond Van Cauwenberghstraat","SLOPE":0.2,"LENGTH":127.980475754655},"bbox":[147835.33760661,172904.51430524,147895.365,173016.228]},{"type":"Feature","id":"StreetAxes.fid--578fcb21_1a02c23451d_-4737","geometry":{"type":"LineString","coordinates":[[147758.39827892,172972.20078667],[147764.277,172980.562],[147791.267,173015.354],[147800.892,173027.312]]},"geometry_name":"GEOM","properties":{"INSPIRE_ID":"https://databrussels.be/id/streetaxe/83019","TYPE":"S","HIERARCHY":"DR","LVL":0,"STARTSN_ID":"https://databrussels.be/id/streetnode/12885","ENDSN_ID":"https://databrussels.be/id/streetnode/1590","STRNAMEFRE":"Avenue Jean Dubrucq","STRNAMEDUT":"Jean Dubrucqlaan","SLOPE":0.47,"LENGTH":69.6048418832178},"bbox":[147758.39827892,172972.20078667,147800.892,173027.312]},{"type":"Feature","id":"StreetAxes.fid--578fcb21_1a02c23451d_-475c","geometry":{"type":"LineString","coordinates":[[147459.71863757,173242.15712534],[147467.344,173250.296],[147494.96,173334.598],[147500.69776973,173351.8420111],[147498.72151298,173356.30344422]]},"geometry_name":"GEOM","properties":{"INSPIRE_ID":"https://databrussels.be/id/streetaxe/83756","TYPE":"S","HIERARCHY":"DR","LVL":0,"STARTSN_ID":"https://databrussels.be/id/streetnode/11603","ENDSN_ID":"https://databrussels.be/id/streetnode/11600","STRNAMEFRE":"Rue Honoré Longtin","STRNAMEDUT":"Honoré Longtinstraat","SLOPE":0.3,"LENGTH":122.91604513013},"bbox":[147459.71863757,173242.15712534,147500.69776973,173356.30344422]},{"type":"Feature","id":"StreetAxes.fid--578fcb21_1a02c23451d_-476d","geometry":{"type":"LineString","coordinates":[[147970.758,173234.612],[147976.94,173242.013],[148026.591,173301.078],[148032.11169493,173308.27539496]]},"geometry_name":"GEOM","properties":{"INSPIRE_ID":"https://databrussels.be/id/streetaxe/84228","TYPE":"S","HIERARCHY":"DR","LVL":0,"STARTSN_ID":"https://databrussels.be/id/streetnode/4145","ENDSN_ID":"https://databrussels.be/id/streetnode/2654","STRNAMEFRE":"Avenue Jean Dubrucq","STRNAMEDUT":"Jean Dubrucqlaan","SLOPE":1.59,"LENGTH":95.875588851952},"bbox":[147970.758,173234.612,148032.11169493,173308.27539496]},{"type":"Feature","id":"StreetAxes.fid--578fcb21_1a02c23451d_-4760","geometry":{"type":"LineString","coordinates":[[147474.30685623,173228.06149445],[147481.87814439,173220.74585945],[147606.284,173099.646],[147625.15395531,173081.21112563]]},"geometry_name":"GEOM","properties":{"INSPIRE_ID":"https://databrussels.be/id/streetaxe/84560","TYPE":"S","HIERARCHY":"DR","LVL":0,"STARTSN_ID":"https://databrussels.be/id/streetnode/11588","ENDSN_ID":"https://databrussels.be/id/streetnode/12878","STRNAMEFRE":"Avenue Firmin Lecharlier","STRNAMEDUT":"Firmin Lecharlierlaan","SLOPE":1.08,"LENGTH":210.522983410073},"bbox":[147474.30685623,173081.21112563,147625.15395531,173228.06149445]},{"type":"Feature","id":"StreetAxes.fid--578fcb21_1a02c23451d_-473e","geometry":{"type":"LineString","coordinates":[[147532.65613024,173051.59567961],[147577.87899019,173053.73994103],[147597.18722528,173054.87233268],[147608.41121144,173055.11735602],[147625.14498877,173055.02447993]]},"geometry_name":"GEOM","properties":{"INSPIRE_ID":"https://databrussels.be/id/streetaxe/85113","TYPE":"S","HIERARCHY":"DC","LVL":0,"STARTSN_ID":"https://databrussels.be/id/streetnode/12285","ENDSN_ID":"https://databrussels.be/id/streetnode/11476","STRNAMEFRE":"Avenue Carton de Wiart","STRNAMEDUT":"Carton de Wiartlaan","SLOPE":0.35,"LENGTH":92.575775233672},"bbox":[147532.65613024,173051.59567961,147625.14498877,173055.11735602]},{"type":"Feature","id":"StreetAxes.fid--578fcb21_1a02c23451d_-4736","geometry":{"type":"LineString","coordinates":[[147996.78962511,172984.55718733],[147989.91282649,172995.00021766],[147984.2000163,173008.28977937],[147981.23353397,173016.82755331]]},"geometry_name":"GEOM","properties":{"INSPIRE_ID":"https://databrussels.be/id/streetaxe/85240","TYPE":"S","HIERARCHY":"DR","LVL":0,"STARTSN_ID":"https://databrussels.be/id/streetnode/8666","ENDSN_ID":"https://databrussels.be/id/streetnode/8891","STRNAMEFRE":"Rue François Mus","STRNAMEDUT":"François Musstraat","SLOPE":3.39,"LENGTH":36.0077698312674},"bbox":[147981.23353397,172984.55718733,147996.78962511,173016.82755331]},{"type":"Feature","id":"StreetAxes.fid--578fcb21_1a02c23451d_-473a","geometry":{"type":"LineString","coordinates":[[147996.78962511,172984.55718733],[148006.36487124,173000.7103173],[148015.81797187,173016.74871426]]},"geometry_name":"GEOM","properties":{"INSPIRE_ID":"https://databrussels.be/id/streetaxe/85241","TYPE":"S","HIERARCHY":"IDR","LVL":0,"STARTSN_ID":"https://databrussels.be/id/streetnode/8666","ENDSN_ID":"https://databrussels.be/id/streetnode/8818","STRNAMEFRE":"Boulevard du Jubilé","STRNAMEDUT":"Jubelfeestlaan","SLOPE":1.66,"LENGTH":37.3948468880245},"bbox":[147996.78962511,172984.55718733,148015.81797187,173016.74871426]},{"type":"Feature","id":"StreetAxes.fid--578fcb21_1a02c23451d_-4735","geometry":{"type":"LineString","coordinates":[[147981.23353397,173016.82755331],[147969.802,173015.61],[147903.102,173016.148],[147894.697,173016.228]]},"geometry_name":"GEOM","properties":{"INSPIRE_ID":"https://databrussels.be/id/streetaxe/85270","TYPE":"S","HIERARCHY":"DR","LVL":0,"STARTSN_ID":"https://databrussels.be/id/streetnode/8891","ENDSN_ID":"https://databrussels.be/id/streetnode/2857","STRNAMEFRE":"Rue de Rotterdam","STRNAMEDUT":"Rotterdamstraat","SLOPE":1.88,"LENGTH":86.603741320749},"bbox":[147894.697,173015.61,147981.23353397,173016.82755331]},{"type":"Feature","id":"StreetAxes.fid--578fcb21_1a02c23451d_-4759","geometry":{"type":"LineString","coordinates":[[147981.23353397,173016.82755331],[147978.665,173024.22],[147922.085,173157.555],[147913.177,173165.537]]},"geometry_name":"GEOM","properties":{"INSPIRE_ID":"https://databrussels.be/id/streetaxe/85271","TYPE":"S","HIERARCHY":"DR","LVL":0,"STARTSN_ID":"https://databrussels.be/id/streetnode/8891","ENDSN_ID":"https://databrussels.be/id/streetnode/333","STRNAMEFRE":"Rue François Mus","STRNAMEDUT":"François Musstraat","SLOPE":0.53,"LENGTH":164.630011158724},"bbox":[147913.177,173016.82755331,147981.23353397,173165.537]},{"type":"Feature","id":"StreetAxes.fid--578fcb21_1a02c23451d_-4763","geometry":{"type":"LineString","coordinates":[[147772.477,173678.223],[147768.914,173666.488],[147764.46,173647.545],[147760.715,173624.27],[147746.469,173499.98],[147744.417,173481.131]]},"geometry_name":"GEOM","properties":{"INSPIRE_ID":"https://databrussels.be/id/streetaxe/85313","TYPE":"S","HIERARCHY":"DR","LVL":0,"STARTSN_ID":"https://databrussels.be/id/streetnode/3208","ENDSN_ID":"https://databrussels.be/id/streetnode/1080","STRNAMEFRE":"Rue Berré","STRNAMEDUT":"Berréstraat","SLOPE":2.91,"LENGTH":199.362060728622},"bbox":[147744.417,173481.131,147772.477,173678.223]},{"type":"Feature","id":"StreetAxes.fid--578fcb21_1a02c23451d_-473c","geometry":{"type":"LineString","coordinates":[[147532.16449489,173063.32283249],[147519.7906804,173062.67687059],[147482.42191925,173061.0910569],[147431.88640251,173058.58826614]]},"geometry_name":"GEOM","properties":{"INSPIRE_ID":"https://databrussels.be/id/streetaxe/85655","TYPE":"S","HIERARCHY":"DC","LVL":0,"STARTSN_ID":"https://databrussels.be/id/streetnode/11275","ENDSN_ID":"https://databrussels.be/id/streetnode/11536","STRNAMEFRE":"Avenue Carton de Wiart","STRNAMEDUT":"Carton de Wiartlaan","SLOPE":0.69,"LENGTH":100.390513029052},"bbox":[147431.88640251,173058.58826614,147532.16449489,173063.32283249]},{"type":"Feature","id":"StreetAxes.fid--578fcb21_1a02c23451d_-473d","geometry":{"type":"LineString","coordinates":[[147532.16449489,173063.32283249],[147532.65613024,173051.59567961]]},"geometry_name":"GEOM","properties":{"INSPIRE_ID":"https://databrussels.be/id/streetaxe/85656","TYPE":"S","HIERARCHY":"DC","LVL":0,"STARTSN_ID":"https://databrussels.be/id/streetnode/11275","ENDSN_ID":"https://databrussels.be/id/streetnode/12285","STRNAMEFRE":"Avenue Carton de Wiart","STRNAMEDUT":"Carton de Wiartlaan","SLOPE":0.77,"LENGTH":11.7374537317144},"bbox":[147532.16449489,173051.59567961,147532.65613024,173063.32283249]},{"type":"Feature","id":"StreetAxes.fid--578fcb21_1a02c23451d_-4777","geometry":{"type":"LineString","coordinates":[[147453.093,173578.852],[147463.01,173570.649],[147524.455,173439.79],[147525.835,173432.35],[147525.6,173425.665],[147515.91802795,173397.37516492],[147515.31479586,173393.19928025],[147515.70960381,173388.76606484],[147517.37657074,173383.6744511],[147524.51740985,173369.30126796]]},"geometry_name":"GEOM","properties":{"INSPIRE_ID":"https://databrussels.be/id/streetaxe/88928","TYPE":"S","HIERARCHY":null,"LVL":0,"STARTSN_ID":"https://databrussels.be/id/streetnode/3178","ENDSN_ID":"https://databrussels.be/id/streetnode/11597","STRNAMEFRE":"Rue Corneille De Clercq","STRNAMEDUT":"Corneille De Clercqstraat","SLOPE":1.84,"LENGTH":231.670415783778},"bbox":[147453.093,173369.30126796,147525.835,173578.852]},{"type":"Feature","id":"StreetAxes.fid--578fcb21_1a02c23451d_-4767","geometry":{"type":"LineString","coordinates":[[147827.601,173424.384],[147838.79,173429.502],[147908.885,173462.405],[147918.885,173465.72],[147938.485,173468.275],[147953.265,173467.38],[147975.755,173460.825],[148002.506,173456.665]]},"geometry_name":"GEOM","properties":{"INSPIRE_ID":"https://databrussels.be/id/streetaxe/89553","TYPE":"S","HIERARCHY":"DR","LVL":0,"STARTSN_ID":"https://databrussels.be/id/streetnode/676","ENDSN_ID":"https://databrussels.be/id/streetnode/10623","STRNAMEFRE":"Rue Rosalie Uyttenhove","STRNAMEDUT":"Rosalie Uyttenhovestraat","SLOPE":1.38,"LENGTH":185.34364264271},"bbox":[147827.601,173424.384,148002.506,173468.275]},{"type":"Feature","id":"StreetAxes.fid--578fcb21_1a02c23451d_-4771","geometry":{"type":"LineString","coordinates":[[147603.52653709,173409.56039197],[147571.51305347,173608.83703894]]},"geometry_name":"GEOM","properties":{"INSPIRE_ID":"https://databrussels.be/id/streetaxe/89564","TYPE":"S","HIERARCHY":"IDR","LVL":0,"STARTSN_ID":"https://databrussels.be/id/streetnode/7832","ENDSN_ID":"https://databrussels.be/id/streetnode/7814","STRNAMEFRE":"Avenue Charles Woeste","STRNAMEDUT":"Charles Woestelaan","SLOPE":2.02,"LENGTH":201.831724861835},"bbox":[147571.51305347,173409.56039197,147603.52653709,173608.83703894]},{"type":"Feature","id":"StreetAxes.fid--578fcb21_1a02c23451d_-4753","geometry":{"type":"LineString","coordinates":[[147656.93007452,173049.95125987],[147651.84607648,173045.53680012]]},"geometry_name":"GEOM","properties":{"INSPIRE_ID":"https://databrussels.be/id/streetaxe/90267","TYPE":"IC","HIERARCHY":"IDR","LVL":0,"STARTSN_ID":"https://databrussels.be/id/streetnode/12882","ENDSN_ID":"https://databrussels.be/id/streetnode/12876","STRNAMEFRE":"Place Philippe Werrie","STRNAMEDUT":"Philippe Werrieplein","SLOPE":2.23,"LENGTH":6.73308925707999},"bbox":[147651.84607648,173045.53680012,147656.93007452,173049.95125987]},{"type":"Feature","id":"StreetAxes.fid--578fcb21_1a02c23451d_-4758","geometry":{"type":"LineString","coordinates":[[147688.53144132,173022.14491228],[147677.28810575,173032.01786566],[147656.93007452,173049.95125987]]},"geometry_name":"GEOM","properties":{"INSPIRE_ID":"https://databrussels.be/id/streetaxe/90268","TYPE":"C","HIERARCHY":"IDR","LVL":0,"STARTSN_ID":"https://databrussels.be/id/streetnode/12886","ENDSN_ID":"https://databrussels.be/id/streetnode/12882","STRNAMEFRE":"Place Philippe Werrie","STRNAMEDUT":"Philippe Werrieplein","SLOPE":18.27,"LENGTH":42.0932340156452},"bbox":[147656.93007452,173022.14491228,147688.53144132,173049.95125987]},{"type":"Feature","id":"StreetAxes.fid--578fcb21_1a02c23451d_-474a","geometry":{"type":"LineString","coordinates":[[147644.97511113,173085.1059967],[147647.81170578,173084.60924741],[147654.3709519,173082.66502068]]},"geometry_name":"GEOM","properties":{"INSPIRE_ID":"https://databrussels.be/id/streetaxe/90269","TYPE":"IC","HIERARCHY":"IDR","LVL":0,"STARTSN_ID":"https://databrussels.be/id/streetnode/13331","ENDSN_ID":"https://databrussels.be/id/streetnode/11695","STRNAMEFRE":"Place Philippe Werrie","STRNAMEDUT":"Philippe Werrieplein","SLOPE":2.47,"LENGTH":9.7210869502546},"bbox":[147644.97511113,173082.66502068,147654.3709519,173085.1059967]},{"type":"Feature","id":"StreetAxes.fid--578fcb21_1a02c23451d_-472f","geometry":{"type":"LineString","coordinates":[[147753.60618865,172965.3850714],[147743.92142338,172973.80280136],[147717.50865301,172996.8121759],[147709.74882639,173003.59348306]]},"geometry_name":"GEOM","properties":{"INSPIRE_ID":"https://databrussels.be/id/streetaxe/90271","TYPE":"C","HIERARCHY":"IDR","LVL":0,"STARTSN_ID":"https://databrussels.be/id/streetnode/12879","ENDSN_ID":"https://databrussels.be/id/streetnode/12877","STRNAMEFRE":"Boulevard Belgica","STRNAMEDUT":"Belgicalaan","SLOPE":0.74,"LENGTH":58.1665999511682},"bbox":[147709.74882639,172965.3850714,147753.60618865,173003.59348306]},{"type":"Feature","id":"StreetAxes.fid--578fcb21_1a02c23451d_-474c","geometry":{"type":"LineString","coordinates":[[147625.15395531,173081.21112563],[147627.30844051,173083.12455568],[147632.25824912,173085.45333525]]},"geometry_name":"GEOM","properties":{"INSPIRE_ID":"https://databrussels.be/id/streetaxe/90272","TYPE":"I","HIERARCHY":"IDR","LVL":0,"STARTSN_ID":"https://databrussels.be/id/streetnode/12878","ENDSN_ID":"https://databrussels.be/id/streetnode/12884","STRNAMEFRE":"Place Philippe Werrie","STRNAMEDUT":"Philippe Werrieplein","SLOPE":1.32,"LENGTH":8.35176318043997},"bbox":[147625.15395531,173081.21112563,147632.25824912,173085.45333525]},{"type":"Feature","id":"StreetAxes.fid--578fcb21_1a02c23451d_-4731","geometry":{"type":"LineString","coordinates":[[147688.53144132,173022.14491228],[147709.74882639,173003.59348306]]},"geometry_name":"GEOM","properties":{"INSPIRE_ID":"https://databrussels.be/id/streetaxe/90273","TYPE":"C","HIERARCHY":"IDR","LVL":1,"STARTSN_ID":"https://databrussels.be/id/streetnode/12886","ENDSN_ID":"https://databrussels.be/id/streetnode/12877","STRNAMEFRE":"Boulevard Belgica","STRNAMEDUT":"Belgicalaan","SLOPE":27.36,"LENGTH":28.1839130570598},"bbox":[147688.53144132,173003.59348306,147709.74882639,173022.14491228]},{"type":"Feature","id":"StreetAxes.fid--578fcb21_1a02c23451d_-474d","geometry":{"type":"LineString","coordinates":[[147622.13028918,173073.72751504],[147622.70263903,173077.54124506],[147625.15395531,173081.21112563]]},"geometry_name":"GEOM","properties":{"INSPIRE_ID":"https://databrussels.be/id/streetaxe/90275","TYPE":"I","HIERARCHY":"IDR","LVL":0,"STARTSN_ID":"https://databrussels.be/id/streetnode/12872","ENDSN_ID":"https://databrussels.be/id/streetnode/12878","STRNAMEFRE":"Place Philippe Werrie","STRNAMEDUT":"Philippe Werrieplein","SLOPE":2.3,"LENGTH":8.26971148568001},"bbox":[147622.13028918,173073.72751504,147625.15395531,173081.21112563]},{"type":"Feature","id":"StreetAxes.fid--578fcb21_1a02c23451d_-4748","geometry":{"type":"LineString","coordinates":[[147644.97511113,173085.1059967],[147644.96937354,173089.77336005],[147645.02176942,173097.45334242],[147644.78917055,173104.95185322],[147644.68104603,173110.10755733]]},"geometry_name":"GEOM","properties":{"INSPIRE_ID":"https://databrussels.be/id/streetaxe/90277","TYPE":"C","HIERARCHY":"IDR","LVL":0,"STARTSN_ID":"https://databrussels.be/id/streetnode/13331","ENDSN_ID":"https://databrussels.be/id/streetnode/12881","STRNAMEFRE":"Place Philippe Werrie","STRNAMEDUT":"Philippe Werrieplein","SLOPE":1.08,"LENGTH":25.0064832135628},"bbox":[147644.68104603,173085.1059967,147645.02176942,173110.10755733]},{"type":"Feature","id":"StreetAxes.fid--578fcb21_1a02c23451d_-4762","geometry":{"type":"LineString","coordinates":[[147622.13028918,173073.72751504],[147621.23964666,173069.09542202],[147621.7549287,173064.25952131],[147623.06312372,173059.82071735],[147625.14498877,173055.02447993]]},"geometry_name":"GEOM","properties":{"INSPIRE_ID":"https://databrussels.be/id/streetaxe/90278","TYPE":"I","HIERARCHY":"IDR","LVL":0,"STARTSN_ID":"https://databrussels.be/id/streetnode/12872","ENDSN_ID":"https://databrussels.be/id/streetnode/11476","STRNAMEFRE":"Place Philippe Werrie","STRNAMEDUT":"Philippe Werrieplein","SLOPE":0.82,"LENGTH":19.4363618198481},"bbox":[147621.23964666,173055.02447993,147625.14498877,173073.72751504]},{"type":"Feature","id":"StreetAxes.fid--578fcb21_1a02c23451d_-4750","geometry":{"type":"LineString","coordinates":[[147654.3709519,173082.66502068],[147657.24240431,173074.68268137],[147661.75072017,173058.20449557]]},"geometry_name":"GEOM","properties":{"INSPIRE_ID":"https://databrussels.be/id/streetaxe/90279","TYPE":"I","HIERARCHY":"IDR","LVL":0,"STARTSN_ID":"https://databrussels.be/id/streetnode/11695","ENDSN_ID":"https://databrussels.be/id/streetnode/12888","STRNAMEFRE":"Place Philippe Werrie","STRNAMEDUT":"Philippe Werrieplein","SLOPE":0.9,"LENGTH":25.566879064467},"bbox":[147654.3709519,173058.20449557,147661.75072017,173082.66502068]},{"type":"Feature","id":"StreetAxes.fid--578fcb21_1a02c23451d_-4752","geometry":{"type":"LineString","coordinates":[[147656.93007452,173049.95125987],[147661.75072017,173058.20449557]]},"geometry_name":"GEOM","properties":{"INSPIRE_ID":"https://databrussels.be/id/streetaxe/90280","TYPE":"IC","HIERARCHY":"IDR","LVL":0,"STARTSN_ID":"https://databrussels.be/id/streetnode/12882","ENDSN_ID":"https://databrussels.be/id/streetnode/12888","STRNAMEFRE":"Place Philippe Werrie","STRNAMEDUT":"Philippe Werrieplein","SLOPE":2.93,"LENGTH":9.55795606031369},"bbox":[147656.93007452,173049.95125987,147661.75072017,173058.20449557]},{"type":"Feature","id":"StreetAxes.fid--578fcb21_1a02c23451d_-4751","geometry":{"type":"LineString","coordinates":[[147656.93007452,173049.95125987],[147653.14474173,173054.69277425],[147650.80767173,173058.76743752],[147648.01751451,173064.74121993],[147646.08604015,173071.04491676],[147645.12802997,173076.88329418],[147644.9808099,173080.47020804],[147644.97511113,173085.1059967]]},"geometry_name":"GEOM","properties":{"INSPIRE_ID":"https://databrussels.be/id/streetaxe/90281","TYPE":"C","HIERARCHY":"IDR","LVL":0,"STARTSN_ID":"https://databrussels.be/id/streetnode/12882","ENDSN_ID":"https://databrussels.be/id/streetnode/13331","STRNAMEFRE":"Place Philippe Werrie","STRNAMEDUT":"Philippe Werrieplein","SLOPE":0.71,"LENGTH":38.0929020632385},"bbox":[147644.97511113,173049.95125987,147656.93007452,173085.1059967]},{"type":"Feature","id":"StreetAxes.fid--578fcb21_1a02c23451d_-4778","geometry":{"type":"LineString","coordinates":[[147498.72151298,173356.30344422],[147524.51740985,173369.30126796]]},"geometry_name":"GEOM","properties":{"INSPIRE_ID":"https://databrussels.be/id/streetaxe/90424","TYPE":"I","HIERARCHY":"DR","LVL":0,"STARTSN_ID":"https://databrussels.be/id/streetnode/11600","ENDSN_ID":"https://databrussels.be/id/streetnode/11597","STRNAMEFRE":"Avenue Odon Warland","STRNAMEDUT":"Odon Warlandlaan","SLOPE":0.17,"LENGTH":28.8854931982152},"bbox":[147498.72151298,173356.30344422,147524.51740985,173369.30126796]},{"type":"Feature","id":"StreetAxes.fid--578fcb21_1a02c23451d_-4772","geometry":{"type":"LineString","coordinates":[[147563.8283129,173607.61514713],[147595.18987208,173416.0633454],[147596.62457127,173406.2275807]]},"geometry_name":"GEOM","properties":{"INSPIRE_ID":"https://databrussels.be/id/streetaxe/90917","TYPE":"C","HIERARCHY":"IDR","LVL":0,"STARTSN_ID":"https://databrussels.be/id/streetnode/7830","ENDSN_ID":"https://databrussels.be/id/streetnode/7827","STRNAMEFRE":"Avenue Charles Woeste","STRNAMEDUT":"Charles Woestelaan","SLOPE":2,"LENGTH":204.041988975749},"bbox":[147563.8283129,173406.2275807,147596.62457127,173607.61514713]},{"type":"Feature","id":"StreetAxes.fid--578fcb21_1a02c23451d_-475e","geometry":{"type":"LineString","coordinates":[[147644.68104603,173110.10755733],[147644.63805664,173112.1574215],[147643.65327013,173118.15070094],[147627.80641087,173215.35214253],[147611.88632859,173312.43968222],[147610.00074091,173323.84697018],[147608.11515322,173335.25425815],[147603.3225461,173365.66826699],[147596.62457127,173406.2275807]]},"geometry_name":"GEOM","properties":{"INSPIRE_ID":"https://databrussels.be/id/streetaxe/91067","TYPE":"C","HIERARCHY":"IDR","LVL":0,"STARTSN_ID":"https://databrussels.be/id/streetnode/12881","ENDSN_ID":"https://databrussels.be/id/streetnode/7827","STRNAMEFRE":"Avenue Charles Woeste","STRNAMEDUT":"Charles Woestelaan","SLOPE":0.76,"LENGTH":300.014944551983},"bbox":[147596.62457127,173110.10755733,147644.68104603,173406.2275807]},{"type":"Feature","id":"StreetAxes.fid--578fcb21_1a02c23451d_-4773","geometry":{"type":"LineString","coordinates":[[147596.62457127,173406.2275807],[147603.52653709,173409.56039197]]},"geometry_name":"GEOM","properties":{"INSPIRE_ID":"https://databrussels.be/id/streetaxe/91617","TYPE":"IC","HIERARCHY":"IDR","LVL":0,"STARTSN_ID":"https://databrussels.be/id/streetnode/7827","ENDSN_ID":"https://databrussels.be/id/streetnode/7832","STRNAMEFRE":"Avenue Charles Woeste","STRNAMEDUT":"Charles Woestelaan","SLOPE":1.04,"LENGTH":7.66451322867244},"bbox":[147596.62457127,173406.2275807,147603.52653709,173409.56039197]},{"type":"Feature","id":"StreetAxes.fid--578fcb21_1a02c23451d_-4775","geometry":{"type":"LineString","coordinates":[[147589.72120422,173402.83156952],[147596.62457127,173406.2275807]]},"geometry_name":"GEOM","properties":{"INSPIRE_ID":"https://databrussels.be/id/streetaxe/91618","TYPE":"IC","HIERARCHY":"IDR","LVL":0,"STARTSN_ID":"https://databrussels.be/id/streetnode/7822","ENDSN_ID":"https://databrussels.be/id/streetnode/7827","STRNAMEFRE":"Avenue Charles Woeste","STRNAMEDUT":"Charles Woestelaan","SLOPE":0.78,"LENGTH":7.69346271677954},"bbox":[147589.72120422,173402.83156952,147596.62457127,173406.2275807]},{"type":"Feature","id":"StreetAxes.fid--578fcb21_1a02c23451d_-4754","geometry":{"type":"LineString","coordinates":[[147625.14498877,173055.02447993],[147630.68124541,173052.1322325],[147636.48019697,173049.79669919],[147651.84607648,173045.53680012]]},"geometry_name":"GEOM","properties":{"INSPIRE_ID":"https://databrussels.be/id/streetaxe/92989","TYPE":"I","HIERARCHY":"IDR","LVL":0,"STARTSN_ID":"https://databrussels.be/id/streetnode/11476","ENDSN_ID":"https://databrussels.be/id/streetnode/12876","STRNAMEFRE":"Place Philippe Werrie","STRNAMEDUT":"Philippe Werrieplein","SLOPE":0.35,"LENGTH":28.443259675218},"bbox":[147625.14498877,173045.53680012,147651.84607648,173055.02447993]},{"type":"Feature","id":"StreetAxes.fid--578fcb21_1a02c23451d_-4749","geometry":{"type":"LineString","coordinates":[[147644.97511113,173085.1059967],[147637.55310768,173086.39890612],[147632.25824912,173085.45333525]]},"geometry_name":"GEOM","properties":{"INSPIRE_ID":"https://databrussels.be/id/streetaxe/92990","TYPE":"IC","HIERARCHY":"IDR","LVL":0,"STARTSN_ID":"https://databrussels.be/id/streetnode/13331","ENDSN_ID":"https://databrussels.be/id/streetnode/12884","STRNAMEFRE":"Place Philippe Werrie","STRNAMEDUT":"Philippe Werrieplein","SLOPE":0.62,"LENGTH":12.9124012316458},"bbox":[147632.25824912,173085.1059967,147644.97511113,173086.39890612]},{"type":"Feature","id":"StreetAxes.fid--578fcb21_1a02c23451d_-4746","geometry":{"type":"LineString","coordinates":[[147637.44811058,173106.96470113],[147644.68104603,173110.10755733]]},"geometry_name":"GEOM","properties":{"INSPIRE_ID":"https://databrussels.be/id/streetaxe/93004","TYPE":"IC","HIERARCHY":"IDR","LVL":0,"STARTSN_ID":"https://databrussels.be/id/streetnode/12887","ENDSN_ID":"https://databrussels.be/id/streetnode/12881","STRNAMEFRE":"Place Philippe Werrie","STRNAMEDUT":"Philippe Werrieplein","SLOPE":0.89,"LENGTH":7.88624754040688},"bbox":[147637.44811058,173106.96470113,147644.68104603,173110.10755733]},{"type":"Feature","id":"StreetAxes.fid--578fcb21_1a02c23451d_-4745","geometry":{"type":"LineString","coordinates":[[147644.68104603,173110.10755733],[147649.92219401,173112.38494175]]},"geometry_name":"GEOM","properties":{"INSPIRE_ID":"https://databrussels.be/id/streetaxe/93028","TYPE":"IC","HIERARCHY":"IDR","LVL":0,"STARTSN_ID":"https://databrussels.be/id/streetnode/12881","ENDSN_ID":"https://databrussels.be/id/streetnode/11694","STRNAMEFRE":"Place Philippe Werrie","STRNAMEDUT":"Philippe Werrieplein","SLOPE":2.8,"LENGTH":5.71455264500988},"bbox":[147644.68104603,173110.10755733,147649.92219401,173112.38494175]},{"type":"Feature","id":"StreetAxes.fid--578fcb21_1a02c23451d_-4741","geometry":{"type":"LineString","coordinates":[[147731.5745,173219.6755],[147690.37388807,173172.71447989],[147710.09813463,173154.62287026]]},"geometry_name":"GEOM","properties":{"INSPIRE_ID":"https://databrussels.be/id/streetaxe/94733","TYPE":"S","HIERARCHY":null,"LVL":0,"STARTSN_ID":"https://databrussels.be/id/streetnode/4501","ENDSN_ID":"https://databrussels.be/id/streetnode/4500","STRNAMEFRE":"Rue Auguste Hainaut","STRNAMEDUT":"Auguste Hainautstraat","SLOPE":4.05,"LENGTH":89.2373741205553},"bbox":[147690.37388807,173154.62287026,147731.5745,173219.6755]},{"type":"Feature","id":"StreetAxes.fid--578fcb21_1a02c23451d_-4734","geometry":{"type":"LineString","coordinates":[[147567.35,173010.62],[147580.3391532,172972.21649001],[147560.07147195,172964.99621984]]},"geometry_name":"GEOM","properties":{"INSPIRE_ID":"https://databrussels.be/id/streetaxe/95116","TYPE":"S","HIERARCHY":null,"LVL":0,"STARTSN_ID":"https://databrussels.be/id/streetnode/5864","ENDSN_ID":"https://databrussels.be/id/streetnode/5870","STRNAMEFRE":"Rue Vanderperren","STRNAMEDUT":"Vanderperrenstraat","SLOPE":0.55,"LENGTH":62.0560630177633},"bbox":[147560.07147195,172964.99621984,147580.3391532,173010.62]}],"numberReturned":77,"grand_bruxelles_source":{"authority":"Paradigm / Brussels-Capital Region","service":"https://geoservices-urbis.irisnet.be/geoserver/urbisvector/wfs","layer":"urbisvector:StreetAxes","crs":"EPSG:31370","bbox":[147500.0,173000.0,148000.0,173500.0],"cell_id":"bxl-e147500-n173000-s500","ownership":"bbox_intersection_source_unclipped"}}
