{"type":"FeatureCollection","totalFeatures":79,"numberMatched":79,"timeStamp":"2026-08-24T01:21:21.429Z","crs":{"type":"name","properties":{"name":"urn:ogc:def:crs:EPSG::31370"}},"bbox":[150413.47362634,173340.1389589,151074.10509963,174105.29821721],"features":[{"type":"Feature","id":"StreetAxes.fid-1007f30f_1a03149ce47_-4847","geometry":{"type":"LineString","coordinates":[[150609.192,173925.19],[150603.794,173922.548],[150541.445,173892.355],[150533.137,173888.524]]},"geometry_name":"GEOM","properties":{"INSPIRE_ID":"https://databrussels.be/id/streetaxe/73027","TYPE":"S","HIERARCHY":"DR","LVL":0,"STARTSN_ID":"https://databrussels.be/id/streetnode/2527","ENDSN_ID":"https://databrussels.be/id/streetnode/4296","STRNAMEFRE":"Rue Max Roos","STRNAMEDUT":"Max Roosstraat","SLOPE":2.31,"LENGTH":84.4335352022905},"bbox":[150533.137,173888.524,150609.192,173925.19]},{"type":"Feature","id":"StreetAxes.fid-1007f30f_1a03149ce47_-4852","geometry":{"type":"LineString","coordinates":[[150595.737,173829.128],[150589.7,173834.535],[150538.975,173880.896],[150533.137,173888.524]]},"geometry_name":"GEOM","properties":{"INSPIRE_ID":"https://databrussels.be/id/streetaxe/73131","TYPE":"S","HIERARCHY":"DR","LVL":0,"STARTSN_ID":"https://databrussels.be/id/streetnode/218","ENDSN_ID":"https://databrussels.be/id/streetnode/4296","STRNAMEFRE":"Rue Joseph Van Camp","STRNAMEDUT":"Joseph Van Campstraat","SLOPE":0.32,"LENGTH":86.429526065335},"bbox":[150533.137,173829.128,150595.737,173888.524]},{"type":"Feature","id":"StreetAxes.fid-1007f30f_1a03149ce47_-485f","geometry":{"type":"LineString","coordinates":[[150648.41800477,173858.77997423],[150599.70218801,173726.34776699],[150598.02407363,173710.62592385]]},"geometry_name":"GEOM","properties":{"INSPIRE_ID":"https://databrussels.be/id/streetaxe/73518","TYPE":"S","HIERARCHY":"DR","LVL":0,"STARTSN_ID":"https://databrussels.be/id/streetnode/10685","ENDSN_ID":"https://databrussels.be/id/streetnode/9379","STRNAMEFRE":"Avenue Princesse Elisabeth","STRNAMEDUT":"Prinses Elisabethlaan","SLOPE":1.21,"LENGTH":156.919335160996},"bbox":[150598.02407363,173710.62592385,150648.41800477,173858.77997423]},{"type":"Feature","id":"StreetAxes.fid-1007f30f_1a03149ce47_-485c","geometry":{"type":"LineString","coordinates":[[150518.92700153,173744.75516203],[150542.75347441,173771.46330942],[150555.23133981,173784.87354633],[150595.737,173829.128]]},"geometry_name":"GEOM","properties":{"INSPIRE_ID":"https://databrussels.be/id/streetaxe/74155","TYPE":"S","HIERARCHY":"DR","LVL":0,"STARTSN_ID":"https://databrussels.be/id/streetnode/9928","ENDSN_ID":"https://databrussels.be/id/streetnode/218","STRNAMEFRE":"Rue Nicolas Defrêcheux","STRNAMEDUT":"Nicolas Defrêcheuxstraat","SLOPE":1.85,"LENGTH":114.101986641675},"bbox":[150518.92700153,173744.75516203,150595.737,173829.128]},{"type":"Feature","id":"StreetAxes.fid-1007f30f_1a03149ce47_-482b","geometry":{"type":"LineString","coordinates":[[150977.798,173650.748],[150775.05346375,173567.99043198]]},"geometry_name":"GEOM","properties":{"INSPIRE_ID":"https://databrussels.be/id/streetaxe/74470","TYPE":"S","HIERARCHY":"DC","LVL":0,"STARTSN_ID":"https://databrussels.be/id/streetnode/13869","ENDSN_ID":"https://databrussels.be/id/streetnode/9169","STRNAMEFRE":"Avenue Eugène Demolder","STRNAMEDUT":"Eugène Demolderlaan","SLOPE":2.98,"LENGTH":218.984387669323},"bbox":[150775.05346375,173567.99043198,150977.798,173650.748]},{"type":"Feature","id":"StreetAxes.fid-1007f30f_1a03149ce47_-4845","geometry":{"type":"LineString","coordinates":[[150689.90972993,173950.06540454],[150697.8085,173947.242],[150786.228,173914.908],[150796.28298558,173916.37652823]]},"geometry_name":"GEOM","properties":{"INSPIRE_ID":"https://databrussels.be/id/streetaxe/74833","TYPE":"S","HIERARCHY":"DR","LVL":0,"STARTSN_ID":"https://databrussels.be/id/streetnode/10384","ENDSN_ID":"https://databrussels.be/id/streetnode/13866","STRNAMEFRE":"Rue Iwan Gilkin","STRNAMEDUT":"Iwan Gilkinstraat","SLOPE":3.79,"LENGTH":112.696014929109},"bbox":[150689.90972993,173914.908,150796.28298558,173950.06540454]},{"type":"Feature","id":"StreetAxes.fid-1007f30f_1a03149ce47_-4835","geometry":{"type":"LineString","coordinates":[[150775.05346375,173567.99043198],[150796.56640959,173551.01515856],[150806.63322825,173542.64522399],[150844.27567091,173510.27946971],[150859.19942712,173496.80897755],[150888.35478779,173469.93411027],[150906.52671028,173452.98761591]]},"geometry_name":"GEOM","properties":{"INSPIRE_ID":"https://databrussels.be/id/streetaxe/74852","TYPE":"S","HIERARCHY":"MER","LVL":0,"STARTSN_ID":"https://databrussels.be/id/streetnode/9169","ENDSN_ID":"https://databrussels.be/id/streetnode/9083","STRNAMEFRE":"Boulevard Lambermont","STRNAMEDUT":"Lambermontlaan","SLOPE":3.6,"LENGTH":174.743099213968},"bbox":[150775.05346375,173452.98761591,150906.52671028,173567.99043198]},{"type":"Feature","id":"StreetAxes.fid-1007f30f_1a03149ce47_-4832","geometry":{"type":"LineString","coordinates":[[150744.57183574,173557.38322876],[150731.91614808,173567.23866122],[150718.73710269,173577.8138553],[150705.10114419,173589.41610332],[150694.28943626,173597.44568235],[150679.18846188,173608.32223452],[150664.42830998,173618.14432421],[150657.56826001,173621.47239289],[150640.98502163,173632.72433263],[150633.97945381,173637.5585589],[150625.67778855,173643.99554459],[150613.83815627,173652.2318356],[150597.06338437,173662.24508087],[150583.76949712,173670.53983728]]},"geometry_name":"GEOM","properties":{"INSPIRE_ID":"https://databrussels.be/id/streetaxe/74925","TYPE":"S","HIERARCHY":"DR","LVL":0,"STARTSN_ID":"https://databrussels.be/id/streetnode/9378","ENDSN_ID":"https://databrussels.be/id/streetnode/9137","STRNAMEFRE":"Boulevard Lambermont","STRNAMEDUT":"Lambermontlaan","SLOPE":3.05,"LENGTH":196.958325301228},"bbox":[150583.76949712,173557.38322876,150744.57183574,173670.53983728]},{"type":"Feature","id":"StreetAxes.fid-1007f30f_1a03149ce47_-4867","geometry":{"type":"LineString","coordinates":[[150937.9185,174002.7695],[150936.30372153,173994.67770507],[150936.57220659,173987.59616599],[150937.35334771,173980.39027704],[150939.22351885,173974.09059845],[150941.025427,173969.58131502],[150943.82113535,173962.42094401],[150947.87054288,173953.4801747],[150953.00245869,173945.14250187]]},"geometry_name":"GEOM","properties":{"INSPIRE_ID":"https://databrussels.be/id/streetaxe/74960","TYPE":"S","HIERARCHY":"DR","LVL":0,"STARTSN_ID":"https://databrussels.be/id/streetnode/12722","ENDSN_ID":"https://databrussels.be/id/streetnode/13865","STRNAMEFRE":"Avenue Huart Hamoir","STRNAMEDUT":"Huart Hamoirlaan","SLOPE":3.88,"LENGTH":61.3057801570628},"bbox":[150936.30372153,173945.14250187,150953.00245869,174002.7695]},{"type":"Feature","id":"StreetAxes.fid-1007f30f_1a03149ce47_-482d","geometry":{"type":"LineString","coordinates":[[150589.1136525,173684.80906223],[150604.21851766,173675.77377402],[150607.7804721,173673.53785903],[150635.25881207,173655.97069657],[150646.24680275,173648.70336807],[150652.04510543,173644.88765302],[150658.40400391,173640.62839662],[150668.19052027,173633.74611485],[150681.61992566,173623.63870848],[150695.10556492,173614.18605059],[150702.62677393,173608.86960842],[150715.41498837,173598.88175319],[150723.69224308,173592.49397478],[150730.31111111,173587.42760391],[150733.59463389,173584.83897884],[150734.85111774,173583.90473192],[150747.32946941,173574.023664],[150761.68552229,173563.23107367]]},"geometry_name":"GEOM","properties":{"INSPIRE_ID":"https://databrussels.be/id/streetaxe/75097","TYPE":"S","HIERARCHY":"MER","LVL":0,"STARTSN_ID":"https://databrussels.be/id/streetnode/9935","ENDSN_ID":"https://databrussels.be/id/streetnode/14660","STRNAMEFRE":"Boulevard Lambermont","STRNAMEDUT":"Lambermontlaan","SLOPE":3.18,"LENGTH":211.281578347249},"bbox":[150589.1136525,173563.23107367,150761.68552229,173684.80906223]},{"type":"Feature","id":"StreetAxes.fid-1007f30f_1a03149ce47_-484d","geometry":{"type":"LineString","coordinates":[[150689.90972993,173950.06540454],[150657.1395276,173859.79184723]]},"geometry_name":"GEOM","properties":{"INSPIRE_ID":"https://databrussels.be/id/streetaxe/75174","TYPE":"S","HIERARCHY":"DR","LVL":0,"STARTSN_ID":"https://databrussels.be/id/streetnode/10384","ENDSN_ID":"https://databrussels.be/id/streetnode/10691","STRNAMEFRE":"Avenue Princesse Elisabeth","STRNAMEDUT":"Prinses Elisabethlaan","SLOPE":1.32,"LENGTH":96.0374995057365},"bbox":[150657.1395276,173859.79184723,150689.90972993,173950.06540454]},{"type":"Feature","id":"StreetAxes.fid-1007f30f_1a03149ce47_-4849","geometry":{"type":"LineString","coordinates":[[150682.60199659,173952.67754381],[150651.28841673,173866.57057503]]},"geometry_name":"GEOM","properties":{"INSPIRE_ID":"https://databrussels.be/id/streetaxe/75176","TYPE":"S","HIERARCHY":"DR","LVL":0,"STARTSN_ID":"https://databrussels.be/id/streetnode/10694","ENDSN_ID":"https://databrussels.be/id/streetnode/10688","STRNAMEFRE":"Avenue Princesse Elisabeth","STRNAMEDUT":"Prinses Elisabethlaan","SLOPE":1.31,"LENGTH":91.6239616990319},"bbox":[150651.28841673,173866.57057503,150682.60199659,173952.67754381]},{"type":"Feature","id":"StreetAxes.fid-1007f30f_1a03149ce47_-4866","geometry":{"type":"LineString","coordinates":[[150764.0148623,174095.27712104],[150762.04035955,174092.97939933],[150748.18543445,174089.40036046],[150745.30804887,174087.89490932],[150742.8715634,174085.32380176],[150739.70815807,174081.21067998],[150736.06475633,174073.29169453],[150689.90972993,173950.06540454]]},"geometry_name":"GEOM","properties":{"INSPIRE_ID":"https://databrussels.be/id/streetaxe/75801","TYPE":"S","HIERARCHY":null,"LVL":0,"STARTSN_ID":"https://databrussels.be/id/streetnode/10689","ENDSN_ID":"https://databrussels.be/id/streetnode/10384","STRNAMEFRE":"Avenue Princesse Elisabeth","STRNAMEDUT":"Prinses Elisabethlaan","SLOPE":0.98,"LENGTH":169.621221415861},"bbox":[150689.90972993,173950.06540454,150764.0148623,174095.27712104]},{"type":"Feature","id":"StreetAxes.fid-1007f30f_1a03149ce47_-4863","geometry":{"type":"LineString","coordinates":[[150735.06718738,174105.29821721],[150735.38485884,174099.5984988],[150734.4400687,174095.86226487],[150731.95393973,174087.66844718],[150682.60199659,173952.67754381]]},"geometry_name":"GEOM","properties":{"INSPIRE_ID":"https://databrussels.be/id/streetaxe/75802","TYPE":"S","HIERARCHY":"DR","LVL":0,"STARTSN_ID":"https://databrussels.be/id/streetnode/10683","ENDSN_ID":"https://databrussels.be/id/streetnode/10694","STRNAMEFRE":"Avenue Princesse Elisabeth","STRNAMEDUT":"Prinses Elisabethlaan","SLOPE":1.17,"LENGTH":161.854544786672},"bbox":[150682.60199659,173952.67754381,150735.38485884,174105.29821721]},{"type":"Feature","id":"StreetAxes.fid-1007f30f_1a03149ce47_-4837","geometry":{"type":"LineString","coordinates":[[150711.278,173377.912],[150714.814,173386.958],[150730.915,173415.14],[150743.63,173441.035],[150752.835,173462.875],[150759.56015449,173480.41668188],[150765.255,173498.25],[150773.44,173527.73],[150776.84936862,173531.33634214]]},"geometry_name":"GEOM","properties":{"INSPIRE_ID":"https://databrussels.be/id/streetaxe/76194","TYPE":"S","HIERARCHY":"DR","LVL":0,"STARTSN_ID":"https://databrussels.be/id/streetnode/12674","ENDSN_ID":"https://databrussels.be/id/streetnode/9490","STRNAMEFRE":"Rue Léopold Courouble","STRNAMEDUT":"Léopold Couroublestraat","SLOPE":1.92,"LENGTH":167.783719540859},"bbox":[150711.278,173377.912,150776.84936862,173531.33634214]},{"type":"Feature","id":"StreetAxes.fid-1007f30f_1a03149ce47_-483b","geometry":{"type":"LineString","coordinates":[[150518.92700153,173744.75516203],[150523.57175312,173740.8948399],[150529.85608732,173735.95881245],[150534.1237785,173732.6620501],[150542.96439196,173726.52704274],[150551.90336173,173720.80250078],[150573.60718581,173707.72944805],[150583.46633505,173701.51150211]]},"geometry_name":"GEOM","properties":{"INSPIRE_ID":"https://databrussels.be/id/streetaxe/76216","TYPE":"S","HIERARCHY":"MER","LVL":0,"STARTSN_ID":"https://databrussels.be/id/streetnode/9928","ENDSN_ID":"https://databrussels.be/id/streetnode/9488","STRNAMEFRE":"Boulevard Lambermont","STRNAMEDUT":"Lambermontlaan","SLOPE":0.15,"LENGTH":77.7921072108064},"bbox":[150518.92700153,173701.51150211,150583.46633505,173744.75516203]},{"type":"Feature","id":"StreetAxes.fid-1007f30f_1a03149ce47_-483e","geometry":{"type":"LineString","coordinates":[[150441.5931062,173847.6012784],[150453.683,173850.888],[150533.137,173888.524]]},"geometry_name":"GEOM","properties":{"INSPIRE_ID":"https://databrussels.be/id/streetaxe/76292","TYPE":"S","HIERARCHY":"DR","LVL":0,"STARTSN_ID":"https://databrussels.be/id/streetnode/14500","ENDSN_ID":"https://databrussels.be/id/streetnode/4296","STRNAMEFRE":"Rue Max Roos","STRNAMEDUT":"Max Roosstraat","SLOPE":2.11,"LENGTH":100.445733835519},"bbox":[150441.5931062,173847.6012784,150533.137,173888.524]},{"type":"Feature","id":"StreetAxes.fid-1007f30f_1a03149ce47_-4828","geometry":{"type":"LineString","coordinates":[[150593.12417657,173695.35571139],[150608.82111391,173685.71934944],[150623.7587523,173676.0949187],[150631.74444406,173670.91355455],[150638.19750196,173666.82006605],[150645.58162194,173661.67348516],[150657.7407237,173653.83475065],[150667.90861695,173646.8227218],[150679.8062844,173638.66985182],[150691.17795332,173630.85497881],[150702.11263636,173622.92236348],[150712.7879129,173614.95908831],[150723.23053576,173607.4350778],[150734.18560224,173599.56727976],[150751.510638,173586.39367238]]},"geometry_name":"GEOM","properties":{"INSPIRE_ID":"https://databrussels.be/id/streetaxe/76368","TYPE":"S","HIERARCHY":"MER","LVL":0,"STARTSN_ID":"https://databrussels.be/id/streetnode/9380","ENDSN_ID":"https://databrussels.be/id/streetnode/9491","STRNAMEFRE":"Boulevard Lambermont","STRNAMEDUT":"Lambermontlaan","SLOPE":3.17,"LENGTH":192.340128160654},"bbox":[150593.12417657,173586.39367238,150751.510638,173695.35571139]},{"type":"Feature","id":"StreetAxes.fid-1007f30f_1a03149ce47_-4834","geometry":{"type":"LineString","coordinates":[[150537.72578194,173466.44585297],[150544.72,173472.625],[150721.69492657,173548.05468764],[150744.57183574,173557.38322876]]},"geometry_name":"GEOM","properties":{"INSPIRE_ID":"https://databrussels.be/id/streetaxe/76935","TYPE":"S","HIERARCHY":"DR","LVL":0,"STARTSN_ID":"https://databrussels.be/id/streetnode/14064","ENDSN_ID":"https://databrussels.be/id/streetnode/9378","STRNAMEFRE":"Avenue Eugène Demolder","STRNAMEDUT":"Eugène Demolderlaan","SLOPE":1.52,"LENGTH":226.417765314152},"bbox":[150537.72578194,173466.44585297,150744.57183574,173557.38322876]},{"type":"Feature","id":"StreetAxes.fid-1007f30f_1a03149ce47_-4857","geometry":{"type":"LineString","coordinates":[[150790.69635669,173809.39939834],[150879.77860565,173777.24139009],[150886.62309036,173774.98450492]]},"geometry_name":"GEOM","properties":{"INSPIRE_ID":"https://databrussels.be/id/streetaxe/78902","TYPE":"S","HIERARCHY":"DR","LVL":0,"STARTSN_ID":"https://databrussels.be/id/streetnode/13868","ENDSN_ID":"https://databrussels.be/id/streetnode/11360","STRNAMEFRE":"Avenue Emile Verhaeren","STRNAMEDUT":"Emile Verhaerenlaan","SLOPE":4.48,"LENGTH":101.91592253886},"bbox":[150790.69635669,173774.98450492,150886.62309036,173809.39939834]},{"type":"Feature","id":"StreetAxes.fid-1007f30f_1a03149ce47_-4838","geometry":{"type":"LineString","coordinates":[[150989.63107787,173349.77927305],[150974.48429637,173366.6553752],[150955.9907696,173386.52917916],[150934.82765223,173408.69727947],[150923.67830328,173419.89167668],[150913.16515837,173430.2848434],[150894.63825833,173448.56433157],[150884.711162,173457.98857998],[150875.47127591,173466.64862692],[150859.36002685,173481.42497547],[150842.59320223,173496.73643423],[150827.85354941,173509.9491468],[150820.91259406,173515.94497615],[150814.56541145,173521.59525623],[150804.29060316,173530.35687048],[150798.87258355,173534.80844721],[150793.34651452,173539.31411057],[150787.72257607,173543.70715111],[150776.14836755,173553.05791628],[150761.68552229,173563.23107367]]},"geometry_name":"GEOM","properties":{"INSPIRE_ID":"https://databrussels.be/id/streetaxe/79008","TYPE":"S","HIERARCHY":"MER","LVL":0,"STARTSN_ID":"https://databrussels.be/id/streetnode/9493","ENDSN_ID":"https://databrussels.be/id/streetnode/14660","STRNAMEFRE":"Boulevard Lambermont","STRNAMEDUT":"Lambermontlaan","SLOPE":1.94,"LENGTH":312.808958099436},"bbox":[150761.68552229,173349.77927305,150989.63107787,173563.23107367]},{"type":"Feature","id":"StreetAxes.fid-1007f30f_1a03149ce47_-4848","geometry":{"type":"LineString","coordinates":[[150651.28841673,173866.57057503],[150633.88788952,173872.97601806],[150631.26810967,173874.57850042],[150629.04,173878.33970807],[150612.394,173917.742],[150609.192,173925.19]]},"geometry_name":"GEOM","properties":{"INSPIRE_ID":"https://databrussels.be/id/streetaxe/79575","TYPE":"S","HIERARCHY":"DR","LVL":0,"STARTSN_ID":"https://databrussels.be/id/streetnode/10688","ENDSN_ID":"https://databrussels.be/id/streetnode/2527","STRNAMEFRE":"Rue Georges Garnir","STRNAMEDUT":"Georges Garnirstraat","SLOPE":1.94,"LENGTH":76.8660181962968},"bbox":[150609.192,173866.57057503,150651.28841673,173925.19]},{"type":"Feature","id":"StreetAxes.fid-1007f30f_1a03149ce47_-4851","geometry":{"type":"LineString","coordinates":[[150813.52090919,173831.18384858],[150824.37145605,173838.88389418],[150861.08347162,173867.42374983],[150890.62111239,173891.70045745],[150918.39210933,173915.76861843],[150943.1465187,173939.2330065],[150953.00245869,173945.14250187]]},"geometry_name":"GEOM","properties":{"INSPIRE_ID":"https://databrussels.be/id/streetaxe/79582","TYPE":"S","HIERARCHY":"DR","LVL":0,"STARTSN_ID":"https://databrussels.be/id/streetnode/13020","ENDSN_ID":"https://databrussels.be/id/streetnode/13865","STRNAMEFRE":"Avenue Albert Giraud","STRNAMEDUT":"Albert Giraudlaan","SLOPE":1.16,"LENGTH":180.388521855912},"bbox":[150813.52090919,173831.18384858,150953.00245869,173945.14250187]},{"type":"Feature","id":"StreetAxes.fid-1007f30f_1a03149ce47_-483f","geometry":{"type":"LineString","coordinates":[[150518.92700153,173744.75516203],[150511.15526672,173751.36686239],[150505.26955788,173756.92746891],[150499.9474333,173761.89318423],[150494.90114174,173766.92296879],[150487.09294038,173775.33797458],[150482.61602978,173780.77688354],[150478.48796313,173785.54926822],[150471.15876198,173794.62062413],[150466.89933785,173800.55304372],[150462.62769481,173806.5379994],[150456.6608951,173816.12826977],[150451.91286375,173824.66745717],[150447.48128446,173834.34610262],[150441.5931062,173847.6012784]]},"geometry_name":"GEOM","properties":{"INSPIRE_ID":"https://databrussels.be/id/streetaxe/80526","TYPE":"S","HIERARCHY":"MER","LVL":0,"STARTSN_ID":"https://databrussels.be/id/streetnode/9928","ENDSN_ID":"https://databrussels.be/id/streetnode/14500","STRNAMEFRE":"Boulevard Lambermont","STRNAMEDUT":"Lambermontlaan","SLOPE":0.22,"LENGTH":130.071441067741},"bbox":[150441.5931062,173744.75516203,150518.92700153,173847.6012784]},{"type":"Feature","id":"StreetAxes.fid-1007f30f_1a03149ce47_-485e","geometry":{"type":"LineString","coordinates":[[150657.1395276,173859.79184723],[150607.25492691,173723.61489118],[150598.02407363,173710.62592385]]},"geometry_name":"GEOM","properties":{"INSPIRE_ID":"https://databrussels.be/id/streetaxe/80787","TYPE":"S","HIERARCHY":"DR","LVL":0,"STARTSN_ID":"https://databrussels.be/id/streetnode/10691","ENDSN_ID":"https://databrussels.be/id/streetnode/9379","STRNAMEFRE":"Avenue Princesse Elisabeth","STRNAMEDUT":"Prinses Elisabethlaan","SLOPE":1.2,"LENGTH":160.961259027162},"bbox":[150598.02407363,173710.62592385,150657.1395276,173859.79184723]},{"type":"Feature","id":"StreetAxes.fid-1007f30f_1a03149ce47_-483a","geometry":{"type":"LineString","coordinates":[[150978.77173252,173340.1389589],[150948.53877358,173373.36168258],[150921.87647176,173401.39684568],[150898.45705036,173424.83739387],[150880.18982479,173442.42895511],[150851.31773888,173470.06055552],[150843.51192874,173476.61588523],[150830.83893013,173485.64138298],[150818.25142223,173496.54385816],[150813.1039614,173500.88651669],[150801.88631647,173510.49948029],[150783.78757512,173525.14687672],[150776.84936862,173531.33634214]]},"geometry_name":"GEOM","properties":{"INSPIRE_ID":"https://databrussels.be/id/streetaxe/82473","TYPE":"S","HIERARCHY":"DR","LVL":0,"STARTSN_ID":"https://databrussels.be/id/streetnode/10417","ENDSN_ID":"https://databrussels.be/id/streetnode/9490","STRNAMEFRE":"Boulevard Lambermont","STRNAMEDUT":"Lambermontlaan","SLOPE":1.43,"LENGTH":278.561167028071},"bbox":[150776.84936862,173340.1389589,150978.77173252,173531.33634214]},{"type":"Feature","id":"StreetAxes.fid-1007f30f_1a03149ce47_-4829","geometry":{"type":"LineString","coordinates":[[150751.510638,173586.39367238],[150783.37275962,173635.63824847],[150806.22170399,173667.33480591],[150828.6926799,173697.4030318],[150851.58228056,173726.66256131],[150888.33579232,173769.06961682]]},"geometry_name":"GEOM","properties":{"INSPIRE_ID":"https://databrussels.be/id/streetaxe/82683","TYPE":"S","HIERARCHY":"DR","LVL":0,"STARTSN_ID":"https://databrussels.be/id/streetnode/9491","ENDSN_ID":"https://databrussels.be/id/streetnode/11127","STRNAMEFRE":"Avenue Sleeckx","STRNAMEDUT":"Sleeckxlaan","SLOPE":1.02,"LENGTH":228.530855904531},"bbox":[150751.510638,173586.39367238,150888.33579232,173769.06961682]},{"type":"Feature","id":"StreetAxes.fid-1007f30f_1a03149ce47_-4836","geometry":{"type":"LineString","coordinates":[[150906.52671028,173452.98761591],[150917.653,173461.787],[151060.285,173558.85],[151065.90669539,173562.67563954]]},"geometry_name":"GEOM","properties":{"INSPIRE_ID":"https://databrussels.be/id/streetaxe/82684","TYPE":"S","HIERARCHY":"DR","LVL":0,"STARTSN_ID":"https://databrussels.be/id/streetnode/9083","ENDSN_ID":"https://databrussels.be/id/streetnode/13834","STRNAMEFRE":"Rue Jan Blockx","STRNAMEDUT":"Jan Blockxstraat","SLOPE":2.85,"LENGTH":193.510940187609},"bbox":[150906.52671028,173452.98761591,151065.90669539,173562.67563954]},{"type":"Feature","id":"StreetAxes.fid-1007f30f_1a03149ce47_-4827","geometry":{"type":"LineString","coordinates":[[150977.798,173650.748],[150988.49761162,173655.14042343],[151070.99163583,173689.00601574],[151074.10509963,173692.66618562]]},"geometry_name":"GEOM","properties":{"INSPIRE_ID":"https://databrussels.be/id/streetaxe/82936","TYPE":"S","HIERARCHY":"DC","LVL":0,"STARTSN_ID":"https://databrussels.be/id/streetnode/13869","ENDSN_ID":"https://databrussels.be/id/streetnode/13246","STRNAMEFRE":"Avenue Eugène Demolder","STRNAMEDUT":"Eugène Demolderlaan","SLOPE":2.88,"LENGTH":105.546160533909},"bbox":[150977.798,173650.748,151074.10509963,173692.66618562]},{"type":"Feature","id":"StreetAxes.fid-1007f30f_1a03149ce47_-4850","geometry":{"type":"LineString","coordinates":[[150796.28298558,173916.37652823],[150805.89086502,173843.47987742],[150813.52090919,173831.18384858]]},"geometry_name":"GEOM","properties":{"INSPIRE_ID":"https://databrussels.be/id/streetaxe/82937","TYPE":"S","HIERARCHY":"DR","LVL":0,"STARTSN_ID":"https://databrussels.be/id/streetnode/13866","ENDSN_ID":"https://databrussels.be/id/streetnode/13020","STRNAMEFRE":"Avenue Emile Zola","STRNAMEDUT":"Emile Zolalaan","SLOPE":3.35,"LENGTH":87.998092576764},"bbox":[150796.28298558,173831.18384858,150813.52090919,173916.37652823]},{"type":"Feature","id":"StreetAxes.fid-1007f30f_1a03149ce47_-4846","geometry":{"type":"LineString","coordinates":[[150953.00245869,173945.14250187],[150955.52561541,173940.89650288],[150961.74064281,173931.84207449],[150967.77955266,173924.50121135],[150976.4206347,173915.20904229],[150985.92164631,173906.98977083],[150991.84365044,173902.25932617],[150999.24774476,173897.13803445],[151005.4788654,173893.31468776]]},"geometry_name":"GEOM","properties":{"INSPIRE_ID":"https://databrussels.be/id/streetaxe/84406","TYPE":"S","HIERARCHY":"DR","LVL":0,"STARTSN_ID":"https://databrussels.be/id/streetnode/13865","ENDSN_ID":"https://databrussels.be/id/streetnode/13867","STRNAMEFRE":"Avenue Huart Hamoir","STRNAMEDUT":"Huart Hamoirlaan","SLOPE":4.6,"LENGTH":74.571569466946},"bbox":[150953.00245869,173893.31468776,151005.4788654,173945.14250187]},{"type":"Feature","id":"StreetAxes.fid-1007f30f_1a03149ce47_-482a","geometry":{"type":"LineString","coordinates":[[150977.798,173650.748],[150985.244,173637.643],[151061.815,173574.76],[151067.63961829,173569.62218755]]},"geometry_name":"GEOM","properties":{"INSPIRE_ID":"https://databrussels.be/id/streetaxe/85002","TYPE":"S","HIERARCHY":"DR","LVL":0,"STARTSN_ID":"https://databrussels.be/id/streetnode/13869","ENDSN_ID":"https://databrussels.be/id/streetnode/11377","STRNAMEFRE":"Rue du Dahlia","STRNAMEDUT":"Dahliastraat","SLOPE":4.5,"LENGTH":121.922171332069},"bbox":[150977.798,173569.62218755,151067.63961829,173650.748]},{"type":"Feature","id":"StreetAxes.fid-1007f30f_1a03149ce47_-4856","geometry":{"type":"LineString","coordinates":[[150895.43210669,173778.51320391],[150936.37331205,173823.42657036],[150952.02184509,173839.50509525],[151005.4788654,173893.31468776]]},"geometry_name":"GEOM","properties":{"INSPIRE_ID":"https://databrussels.be/id/streetaxe/85519","TYPE":"S","HIERARCHY":"DR","LVL":0,"STARTSN_ID":"https://databrussels.be/id/streetnode/13839","ENDSN_ID":"https://databrussels.be/id/streetnode/13867","STRNAMEFRE":"Avenue Sleeckx","STRNAMEDUT":"Sleeckxlaan","SLOPE":0.53,"LENGTH":159.05912716507},"bbox":[150895.43210669,173778.51320391,151005.4788654,173893.31468776]},{"type":"Feature","id":"StreetAxes.fid-1007f30f_1a03149ce47_-481c","geometry":{"type":"LineString","coordinates":[[150897.32810722,173770.13960199],[151072.81348433,173705.85338762]]},"geometry_name":"GEOM","properties":{"INSPIRE_ID":"https://databrussels.be/id/streetaxe/85643","TYPE":"S","HIERARCHY":"DR","LVL":0,"STARTSN_ID":"https://databrussels.be/id/streetnode/13240","ENDSN_ID":"https://databrussels.be/id/streetnode/13842","STRNAMEFRE":"Avenue Emile Verhaeren","STRNAMEDUT":"Emile Verhaerenlaan","SLOPE":4.11,"LENGTH":186.889900579673},"bbox":[150897.32810722,173705.85338762,151072.81348433,173770.13960199]},{"type":"Feature","id":"StreetAxes.fid-1007f30f_1a03149ce47_-4844","geometry":{"type":"LineString","coordinates":[[150671.06009271,173956.80318155],[150666.228,173952.548],[150609.192,173925.19]]},"geometry_name":"GEOM","properties":{"INSPIRE_ID":"https://databrussels.be/id/streetaxe/86151","TYPE":"S","HIERARCHY":"DR","LVL":0,"STARTSN_ID":"https://databrussels.be/id/streetnode/10387","ENDSN_ID":"https://databrussels.be/id/streetnode/2527","STRNAMEFRE":"Rue Max Roos","STRNAMEDUT":"Max Roosstraat","SLOPE":0.04,"LENGTH":69.6965373547484},"bbox":[150609.192,173925.19,150671.06009271,173956.80318155]},{"type":"Feature","id":"StreetAxes.fid-1007f30f_1a03149ce47_-4853","geometry":{"type":"LineString","coordinates":[[150595.737,173829.128],[150601.466,173835.441],[150624.012,173859.937],[150627.62642938,173862.92953119],[150632.23473131,173864.66190852],[150648.41800477,173858.77997423]]},"geometry_name":"GEOM","properties":{"INSPIRE_ID":"https://databrussels.be/id/streetaxe/86374","TYPE":"S","HIERARCHY":"DR","LVL":0,"STARTSN_ID":"https://databrussels.be/id/streetnode/218","ENDSN_ID":"https://databrussels.be/id/streetnode/10685","STRNAMEFRE":"Rue Nicolas Defrêcheux","STRNAMEDUT":"Nicolas Defrêcheuxstraat","SLOPE":0.07,"LENGTH":68.6519598898988},"bbox":[150595.737,173829.128,150648.41800477,173864.66190852]},{"type":"Feature","id":"StreetAxes.fid-1007f30f_1a03149ce47_-483c","geometry":{"type":"LineString","coordinates":[[150514.92225248,173482.7794076],[150516.732,173488.949],[150581.015,173664.43],[150583.76949712,173670.53983728]]},"geometry_name":"GEOM","properties":{"INSPIRE_ID":"https://databrussels.be/id/streetaxe/86625","TYPE":"SC","HIERARCHY":"DC","LVL":0,"STARTSN_ID":"https://databrussels.be/id/streetnode/14062","ENDSN_ID":"https://databrussels.be/id/streetnode/9137","STRNAMEFRE":"Avenue Princesse Elisabeth","STRNAMEDUT":"Prinses Elisabethlaan","SLOPE":1.01,"LENGTH":200.0162724215},"bbox":[150514.92225248,173482.7794076,150583.76949712,173670.53983728]},{"type":"Feature","id":"StreetAxes.fid-1007f30f_1a03149ce47_-4841","geometry":{"type":"LineString","coordinates":[[150424.74368155,173847.29687132],[150430.85050119,173832.90891797],[150432.32482497,173829.66953664],[150436.78279659,173822.00430019],[150442.09336586,173813.74477347],[150447.54166491,173806.34683833],[150453.4658347,173798.32389023],[150460.20601362,173789.69978429],[150467.13426782,173780.67339776],[150474.51323501,173771.8007254],[150480.84390483,173764.63667903],[150486.71050744,173758.38435406],[150493.18323802,173751.94644065],[150499.42737603,173746.14284698],[150505.83789964,173740.52863166],[150513.14189236,173734.37935706],[150521.31450991,173728.02581406],[150529.28967415,173722.14925459],[150536.53263142,173717.28321836],[150544.16194301,173712.34875897],[150560.49435967,173701.48789908],[150569.31356302,173696.35912889]]},"geometry_name":"GEOM","properties":{"INSPIRE_ID":"https://databrussels.be/id/streetaxe/86818","TYPE":"SC","HIERARCHY":"MER","LVL":0,"STARTSN_ID":"https://databrussels.be/id/streetnode/14481","ENDSN_ID":"https://databrussels.be/id/streetnode/9168","STRNAMEFRE":"Boulevard Lambermont","STRNAMEDUT":"Lambermontlaan","SLOPE":0.2,"LENGTH":212.644706766635},"bbox":[150424.74368155,173696.35912889,150569.31356302,173847.29687132]},{"type":"Feature","id":"StreetAxes.fid-1007f30f_1a03149ce47_-4826","geometry":{"type":"LineString","coordinates":[[150585.96892547,173676.92481289],[150583.76949712,173670.53983728]]},"geometry_name":"GEOM","properties":{"INSPIRE_ID":"https://databrussels.be/id/streetaxe/86819","TYPE":"IC","HIERARCHY":"MER","LVL":0,"STARTSN_ID":"https://databrussels.be/id/streetnode/9489","ENDSN_ID":"https://databrussels.be/id/streetnode/9137","STRNAMEFRE":"Boulevard Lambermont","STRNAMEDUT":"Lambermontlaan","SLOPE":0.59,"LENGTH":6.75317692383004},"bbox":[150583.76949712,173670.53983728,150585.96892547,173676.92481289]},{"type":"Feature","id":"StreetAxes.fid-1007f30f_1a03149ce47_-4842","geometry":{"type":"LineString","coordinates":[[150555.24779036,173696.08354478],[150551.34352432,173698.00480064],[150543.22417374,173703.0398522],[150540.92787724,173704.51292799],[150532.5001977,173709.78963908],[150524.67115512,173714.85254843],[150521.05795257,173717.47899279],[150517.54909228,173720.02542504],[150513.23946912,173723.318599],[150506.57717892,173728.73608912],[150500.46318365,173734.00298003],[150494.42219155,173739.5020278],[150485.07770947,173748.50779327],[150476.99627279,173756.80819382],[150470.42608462,173763.81865097],[150464.57778604,173770.43708848],[150461.8185651,173773.58871659],[150454.37545263,173782.48751603],[150447.8231153,173790.99305228],[150444.22478429,173795.52273975],[150440.89374551,173799.93151183],[150437.89385548,173804.11947694],[150432.34452959,173811.80581485],[150422.32180101,173826.02001119],[150413.47362634,173839.47162104]]},"geometry_name":"GEOM","properties":{"INSPIRE_ID":"https://databrussels.be/id/streetaxe/86820","TYPE":"C","HIERARCHY":"MER","LVL":0,"STARTSN_ID":"https://databrussels.be/id/streetnode/9377","ENDSN_ID":"https://databrussels.be/id/streetnode/12216","STRNAMEFRE":"Boulevard Lambermont","STRNAMEDUT":"Lambermontlaan","SLOPE":0.29,"LENGTH":203.917264602642},"bbox":[150413.47362634,173696.08354478,150555.24779036,173839.47162104]},{"type":"Feature","id":"StreetAxes.fid-1007f30f_1a03149ce47_-484a","geometry":{"type":"LineString","coordinates":[[150651.28841673,173866.57057503],[150653.63150105,173861.10487181]]},"geometry_name":"GEOM","properties":{"INSPIRE_ID":"https://databrussels.be/id/streetaxe/86904","TYPE":"IC","HIERARCHY":"DR","LVL":0,"STARTSN_ID":"https://databrussels.be/id/streetnode/10688","ENDSN_ID":"https://databrussels.be/id/streetnode/12819","STRNAMEFRE":"Avenue Princesse Elisabeth","STRNAMEDUT":"Prinses Elisabethlaan","SLOPE":1.34,"LENGTH":5.94676010264181},"bbox":[150651.28841673,173861.10487181,150653.63150105,173866.57057503]},{"type":"Feature","id":"StreetAxes.fid-1007f30f_1a03149ce47_-4843","geometry":{"type":"LineString","coordinates":[[150689.90972993,173950.06540454],[150686.40065806,173951.31971747]]},"geometry_name":"GEOM","properties":{"INSPIRE_ID":"https://databrussels.be/id/streetaxe/86907","TYPE":"IC","HIERARCHY":"DR","LVL":0,"STARTSN_ID":"https://databrussels.be/id/streetnode/10384","ENDSN_ID":"https://databrussels.be/id/streetnode/10690","STRNAMEFRE":"Avenue Princesse Elisabeth","STRNAMEDUT":"Prinses Elisabethlaan","SLOPE":0,"LENGTH":3.72651127592404},"bbox":[150686.40065806,173950.06540454,150689.90972993,173951.31971747]},{"type":"Feature","id":"StreetAxes.fid-1007f30f_1a03149ce47_-4859","geometry":{"type":"LineString","coordinates":[[150897.32810722,173770.13960199],[150897.7843725,173770.85147637],[150898.23179183,173772.16698303],[150898.36467919,173773.42011812],[150898.23179183,173774.6732532],[150897.7843725,173775.98875987],[150896.97660332,173777.24905778],[150895.82412388,173778.30941908],[150895.43210669,173778.51320391]]},"geometry_name":"GEOM","properties":{"INSPIRE_ID":"https://databrussels.be/id/streetaxe/87096","TYPE":"I","HIERARCHY":"DR","LVL":0,"STARTSN_ID":"https://databrussels.be/id/streetnode/13240","ENDSN_ID":"https://databrussels.be/id/streetnode/13839","STRNAMEFRE":"Avenue Emile Verhaeren","STRNAMEDUT":"Emile Verhaerenlaan","SLOPE":1.55,"LENGTH":9.64972351999991},"bbox":[150895.43210669,173770.13960199,150898.36467919,173778.51320391]},{"type":"Feature","id":"StreetAxes.fid-1007f30f_1a03149ce47_-4855","geometry":{"type":"LineString","coordinates":[[150790.69635669,173809.39939834],[150792.7975656,173815.22004536],[150813.52090919,173831.18384858]]},"geometry_name":"GEOM","properties":{"INSPIRE_ID":"https://databrussels.be/id/streetaxe/87100","TYPE":"I","HIERARCHY":"DR","LVL":0,"STARTSN_ID":"https://databrussels.be/id/streetnode/13868","ENDSN_ID":"https://databrussels.be/id/streetnode/13020","STRNAMEFRE":"Avenue Albert Giraud","STRNAMEDUT":"Albert Giraudlaan","SLOPE":0.43,"LENGTH":32.3474243519424},"bbox":[150790.69635669,173809.39939834,150813.52090919,173831.18384858]},{"type":"Feature","id":"StreetAxes.fid-1007f30f_1a03149ce47_-485a","geometry":{"type":"LineString","coordinates":[[150886.62309036,173774.98450492],[150886.41465979,173773.42011812],[150886.62309036,173771.85573131],[150887.20692627,173770.44691889],[150888.06083593,173769.30163041],[150888.33579232,173769.06961682]]},"geometry_name":"GEOM","properties":{"INSPIRE_ID":"https://databrussels.be/id/streetaxe/87101","TYPE":"I","HIERARCHY":"DR","LVL":0,"STARTSN_ID":"https://databrussels.be/id/streetnode/11360","ENDSN_ID":"https://databrussels.be/id/streetnode/11127","STRNAMEFRE":"Avenue Sleeckx","STRNAMEDUT":"Sleeckxlaan","SLOPE":3.09,"LENGTH":6.46976690025032},"bbox":[150886.41465979,173769.06961682,150888.33579232,173774.98450492]},{"type":"Feature","id":"StreetAxes.fid-1007f30f_1a03149ce47_-481d","geometry":{"type":"LineString","coordinates":[[150583.46633505,173701.51150211],[150590.64845855,173705.76950942],[150598.02407363,173710.62592385]]},"geometry_name":"GEOM","properties":{"INSPIRE_ID":"https://databrussels.be/id/streetaxe/87254","TYPE":"IC","HIERARCHY":"MER","LVL":0,"STARTSN_ID":"https://databrussels.be/id/streetnode/9488","ENDSN_ID":"https://databrussels.be/id/streetnode/9379","STRNAMEFRE":"Boulevard Lambermont","STRNAMEDUT":"Lambermontlaan","SLOPE":0.81,"LENGTH":17.1803434932209},"bbox":[150583.46633505,173701.51150211,150598.02407363,173710.62592385]},{"type":"Feature","id":"StreetAxes.fid-1007f30f_1a03149ce47_-4840","geometry":{"type":"LineString","coordinates":[[150438.69069287,173779.45627126],[150441.76541329,173781.54629297],[150443.85102211,173781.78461371],[150444.94340696,173781.65228635],[150448.03233186,173780.4947826],[150450.52611003,173778.77523526],[150452.84749973,173776.74752949],[150467.90133052,173758.6761326],[150474.2568084,173751.36835927],[150481.85611973,173743.61082496],[150486.8108125,173738.91251525],[150494.44157367,173731.68141849],[150500.00566219,173726.82502037],[150507.09881624,173720.87945127],[150515.32384894,173714.22101713],[150520.76219894,173710.24163745],[150529.07804491,173704.2852369],[150537.741532,173698.59826797],[150545.03717554,173694.07117498],[150552.22049986,173689.60969348],[150557.54971771,173686.37996886],[150564.66197758,173681.96403259],[150583.76949712,173670.53983728]]},"geometry_name":"GEOM","properties":{"INSPIRE_ID":"https://databrussels.be/id/streetaxe/88398","TYPE":"SC","HIERARCHY":"MER","LVL":0,"STARTSN_ID":"https://databrussels.be/id/streetnode/10943","ENDSN_ID":"https://databrussels.be/id/streetnode/9137","STRNAMEFRE":"Boulevard Lambermont","STRNAMEDUT":"Lambermontlaan","SLOPE":0.02,"LENGTH":186.19445115677},"bbox":[150438.69069287,173670.53983728,150583.76949712,173781.78461371]},{"type":"Feature","id":"StreetAxes.fid-1007f30f_1a03149ce47_-4839","geometry":{"type":"LineString","coordinates":[[150983.47423722,173344.30167398],[150964.18686092,173365.96827652],[150948.30631342,173382.75752685],[150937.35004159,173394.27841456],[150917.62691503,173414.22128153],[150915.66069619,173416.17730326],[150906.64958475,173425.20183059],[150895.30577255,173436.32644378],[150884.12915317,173447.01615232],[150872.73189244,173457.81903028],[150866.9067986,173463.26642816],[150858.14051739,173471.35880907],[150853.59753757,173475.48198087],[150845.47257492,173482.93918841],[150835.01176983,173492.15239651],[150824.78936163,173501.03442845],[150805.74948611,173517.33389463],[150782.10618221,173536.39383755],[150766.77871862,173548.77738894],[150764.19748351,173550.91518299],[150752.12474304,173560.08559169]]},"geometry_name":"GEOM","properties":{"INSPIRE_ID":"https://databrussels.be/id/streetaxe/88399","TYPE":"C","HIERARCHY":"MER","LVL":0,"STARTSN_ID":"https://databrussels.be/id/streetnode/10414","ENDSN_ID":"https://databrussels.be/id/streetnode/9487","STRNAMEFRE":"Boulevard Lambermont","STRNAMEDUT":"Lambermontlaan","SLOPE":1.84,"LENGTH":316.849899992431},"bbox":[150752.12474304,173344.30167398,150983.47423722,173560.08559169]},{"type":"Feature","id":"StreetAxes.fid-1007f30f_1a03149ce47_-4830","geometry":{"type":"LineString","coordinates":[[150752.12474304,173560.08559169],[150716.46340745,173587.12123765],[150702.17285338,173597.97174605],[150686.41160262,173609.6132053],[150671.01803017,173620.68225398],[150659.02864525,173628.92340111],[150642.0077615,173640.33741253],[150625.71967479,173651.07180437],[150614.42648886,173658.3919237],[150585.96892547,173676.92481289]]},"geometry_name":"GEOM","properties":{"INSPIRE_ID":"https://databrussels.be/id/streetaxe/88400","TYPE":"C","HIERARCHY":"MER","LVL":0,"STARTSN_ID":"https://databrussels.be/id/streetnode/9487","ENDSN_ID":"https://databrussels.be/id/streetnode/9489","STRNAMEFRE":"Boulevard Lambermont","STRNAMEDUT":"Lambermontlaan","SLOPE":3.11,"LENGTH":203.21642331041},"bbox":[150585.96892547,173560.08559169,150752.12474304,173676.92481289]},{"type":"Feature","id":"StreetAxes.fid-1007f30f_1a03149ce47_-4820","geometry":{"type":"LineString","coordinates":[[150583.46633505,173701.51150211],[150593.12417657,173695.35571139]]},"geometry_name":"GEOM","properties":{"INSPIRE_ID":"https://databrussels.be/id/streetaxe/88401","TYPE":"IC","HIERARCHY":"MER","LVL":0,"STARTSN_ID":"https://databrussels.be/id/streetnode/9488","ENDSN_ID":"https://databrussels.be/id/streetnode/9380","STRNAMEFRE":"Boulevard Lambermont","STRNAMEDUT":"Lambermontlaan","SLOPE":0.61,"LENGTH":11.4528451640271},"bbox":[150583.46633505,173695.35571139,150593.12417657,173701.51150211]},{"type":"Feature","id":"StreetAxes.fid-1007f30f_1a03149ce47_-482e","geometry":{"type":"LineString","coordinates":[[150761.68552229,173563.23107367],[150775.05346375,173567.99043198]]},"geometry_name":"GEOM","properties":{"INSPIRE_ID":"https://databrussels.be/id/streetaxe/88402","TYPE":"I","HIERARCHY":"MER","LVL":0,"STARTSN_ID":"https://databrussels.be/id/streetnode/14660","ENDSN_ID":"https://databrussels.be/id/streetnode/9169","STRNAMEFRE":"Boulevard Lambermont","STRNAMEDUT":"Lambermontlaan","SLOPE":2.04,"LENGTH":14.1899031178639},"bbox":[150761.68552229,173563.23107367,150775.05346375,173567.99043198]},{"type":"Feature","id":"StreetAxes.fid-1007f30f_1a03149ce47_-4833","geometry":{"type":"LineString","coordinates":[[150744.57183574,173557.38322876],[150776.84936862,173531.33634214]]},"geometry_name":"GEOM","properties":{"INSPIRE_ID":"https://databrussels.be/id/streetaxe/88403","TYPE":"I","HIERARCHY":"DR","LVL":0,"STARTSN_ID":"https://databrussels.be/id/streetnode/9378","ENDSN_ID":"https://databrussels.be/id/streetnode/9490","STRNAMEFRE":"Boulevard Lambermont","STRNAMEDUT":"Lambermontlaan","SLOPE":3.33,"LENGTH":41.4762514115367},"bbox":[150744.57183574,173531.33634214,150776.84936862,173557.38322876]},{"type":"Feature","id":"StreetAxes.fid-1007f30f_1a03149ce47_-481f","geometry":{"type":"LineString","coordinates":[[150555.24779036,173696.08354478],[150566.19383783,173696.15719881],[150569.31356302,173696.35912889]]},"geometry_name":"GEOM","properties":{"INSPIRE_ID":"https://databrussels.be/id/streetaxe/88404","TYPE":"C","HIERARCHY":"MER","LVL":0,"STARTSN_ID":"https://databrussels.be/id/streetnode/9377","ENDSN_ID":"https://databrussels.be/id/streetnode/9168","STRNAMEFRE":"Boulevard Lambermont","STRNAMEDUT":"Lambermontlaan","SLOPE":1.28,"LENGTH":14.0725487773279},"bbox":[150555.24779036,173696.08354478,150569.31356302,173696.35912889]},{"type":"Feature","id":"StreetAxes.fid-1007f30f_1a03149ce47_-4831","geometry":{"type":"LineString","coordinates":[[150744.57183574,173557.38322876],[150752.12474304,173560.08559169]]},"geometry_name":"GEOM","properties":{"INSPIRE_ID":"https://databrussels.be/id/streetaxe/88405","TYPE":"I","HIERARCHY":"DR","LVL":0,"STARTSN_ID":"https://databrussels.be/id/streetnode/9378","ENDSN_ID":"https://databrussels.be/id/streetnode/9487","STRNAMEFRE":"Boulevard Lambermont","STRNAMEDUT":"Lambermontlaan","SLOPE":3.24,"LENGTH":8.02179369776317},"bbox":[150744.57183574,173557.38322876,150752.12474304,173560.08559169]},{"type":"Feature","id":"StreetAxes.fid-1007f30f_1a03149ce47_-4860","geometry":{"type":"LineString","coordinates":[[150593.12417657,173695.35571139],[150617.30535788,173708.00428462],[150652.96616903,173726.13342533],[150700.2275437,173752.7672966],[150730.56248833,173770.71418208],[150771.57155577,173797.09606447],[150790.69635669,173809.39939834]]},"geometry_name":"GEOM","properties":{"INSPIRE_ID":"https://databrussels.be/id/streetaxe/88635","TYPE":"S","HIERARCHY":"DR","LVL":0,"STARTSN_ID":"https://databrussels.be/id/streetnode/9380","ENDSN_ID":"https://databrussels.be/id/streetnode/13868","STRNAMEFRE":"Avenue Albert Giraud","STRNAMEDUT":"Albert Giraudlaan","SLOPE":1.61,"LENGTH":228.292317538312},"bbox":[150593.12417657,173695.35571139,150790.69635669,173809.39939834]},{"type":"Feature","id":"StreetAxes.fid-1007f30f_1a03149ce47_-4854","geometry":{"type":"LineString","coordinates":[[150657.1395276,173859.79184723],[150664.32109571,173855.4751728],[150775.06491915,173815.00854384],[150790.69635669,173809.39939834]]},"geometry_name":"GEOM","properties":{"INSPIRE_ID":"https://databrussels.be/id/streetaxe/88639","TYPE":"S","HIERARCHY":"DR","LVL":0,"STARTSN_ID":"https://databrussels.be/id/streetnode/10691","ENDSN_ID":"https://databrussels.be/id/streetnode/13868","STRNAMEFRE":"Avenue Emile Verhaeren","STRNAMEDUT":"Emile Verhaerenlaan","SLOPE":4.07,"LENGTH":142.892066335953},"bbox":[150657.1395276,173809.39939834,150790.69635669,173859.79184723]},{"type":"Feature","id":"StreetAxes.fid-1007f30f_1a03149ce47_-486a","geometry":{"type":"LineString","coordinates":[[150771.15217229,174098.39649896],[150772.55922255,174095.17708978],[150773.45157946,174088.3534381],[150794.52223637,173929.73563848],[150796.28298558,173916.37652823]]},"geometry_name":"GEOM","properties":{"INSPIRE_ID":"https://databrussels.be/id/streetaxe/88640","TYPE":"S","HIERARCHY":"DR","LVL":0,"STARTSN_ID":"https://databrussels.be/id/streetnode/10686","ENDSN_ID":"https://databrussels.be/id/streetnode/13866","STRNAMEFRE":"Avenue Emile Zola","STRNAMEDUT":"Emile Zolalaan","SLOPE":3.19,"LENGTH":183.881039770775},"bbox":[150771.15217229,173916.37652823,150796.28298558,174098.39649896]},{"type":"Feature","id":"StreetAxes.fid-1007f30f_1a03149ce47_-482c","geometry":{"type":"LineString","coordinates":[[150751.510638,173586.39367238],[150775.05346375,173567.99043198]]},"geometry_name":"GEOM","properties":{"INSPIRE_ID":"https://databrussels.be/id/streetaxe/88892","TYPE":"I","HIERARCHY":"MER","LVL":0,"STARTSN_ID":"https://databrussels.be/id/streetnode/9491","ENDSN_ID":"https://databrussels.be/id/streetnode/9169","STRNAMEFRE":"Boulevard Lambermont","STRNAMEDUT":"Lambermontlaan","SLOPE":3.51,"LENGTH":29.8821669448816},"bbox":[150751.510638,173567.99043198,150775.05346375,173586.39367238]},{"type":"Feature","id":"StreetAxes.fid-1007f30f_1a03149ce47_-4822","geometry":{"type":"LineString","coordinates":[[150569.31356302,173696.35912889],[150589.1136525,173684.80906223]]},"geometry_name":"GEOM","properties":{"INSPIRE_ID":"https://databrussels.be/id/streetaxe/88893","TYPE":"SC","HIERARCHY":"MER","LVL":0,"STARTSN_ID":"https://databrussels.be/id/streetnode/9168","ENDSN_ID":"https://databrussels.be/id/streetnode/9935","STRNAMEFRE":"Boulevard Lambermont","STRNAMEDUT":"Lambermontlaan","SLOPE":0.09,"LENGTH":22.922643467787},"bbox":[150569.31356302,173684.80906223,150589.1136525,173696.35912889]},{"type":"Feature","id":"StreetAxes.fid-1007f30f_1a03149ce47_-4823","geometry":{"type":"LineString","coordinates":[[150593.12417657,173695.35571139],[150589.1136525,173684.80906223]]},"geometry_name":"GEOM","properties":{"INSPIRE_ID":"https://databrussels.be/id/streetaxe/88894","TYPE":"IC","HIERARCHY":"MER","LVL":0,"STARTSN_ID":"https://databrussels.be/id/streetnode/9380","ENDSN_ID":"https://databrussels.be/id/streetnode/9935","STRNAMEFRE":"Boulevard Lambermont","STRNAMEDUT":"Lambermontlaan","SLOPE":1.33,"LENGTH":11.2834441450587},"bbox":[150589.1136525,173684.80906223,150593.12417657,173695.35571139]},{"type":"Feature","id":"StreetAxes.fid-1007f30f_1a03149ce47_-484f","geometry":{"type":"LineString","coordinates":[[150648.41800477,173858.77997423],[150653.63150105,173861.10487181]]},"geometry_name":"GEOM","properties":{"INSPIRE_ID":"https://databrussels.be/id/streetaxe/88971","TYPE":"IC","HIERARCHY":"DR","LVL":0,"STARTSN_ID":"https://databrussels.be/id/streetnode/10685","ENDSN_ID":"https://databrussels.be/id/streetnode/12819","STRNAMEFRE":"Avenue Princesse Elisabeth","STRNAMEDUT":"Prinses Elisabethlaan","SLOPE":0.88,"LENGTH":5.70838788369102},"bbox":[150648.41800477,173858.77997423,150653.63150105,173861.10487181]},{"type":"Feature","id":"StreetAxes.fid-1007f30f_1a03149ce47_-4864","geometry":{"type":"LineString","coordinates":[[150735.97207039,174085.18718998],[150732.4886655,174076.32968013],[150690.28051301,173961.91468519],[150686.40065806,173951.31971747]]},"geometry_name":"GEOM","properties":{"INSPIRE_ID":"https://databrussels.be/id/streetaxe/88973","TYPE":"C","HIERARCHY":"DR","LVL":0,"STARTSN_ID":"https://databrussels.be/id/streetnode/10385","ENDSN_ID":"https://databrussels.be/id/streetnode/10690","STRNAMEFRE":"Avenue Princesse Elisabeth","STRNAMEDUT":"Prinses Elisabethlaan","SLOPE":1.21,"LENGTH":142.752998203014},"bbox":[150686.40065806,173951.31971747,150735.97207039,174085.18718998]},{"type":"Feature","id":"StreetAxes.fid-1007f30f_1a03149ce47_-4865","geometry":{"type":"LineString","coordinates":[[150682.60199659,173952.67754381],[150686.40065806,173951.31971747]]},"geometry_name":"GEOM","properties":{"INSPIRE_ID":"https://databrussels.be/id/streetaxe/88974","TYPE":"IC","HIERARCHY":"DR","LVL":0,"STARTSN_ID":"https://databrussels.be/id/streetnode/10694","ENDSN_ID":"https://databrussels.be/id/streetnode/10690","STRNAMEFRE":"Avenue Princesse Elisabeth","STRNAMEDUT":"Prinses Elisabethlaan","SLOPE":0.74,"LENGTH":4.03404528780226},"bbox":[150682.60199659,173951.31971747,150686.40065806,173952.67754381]},{"type":"Feature","id":"StreetAxes.fid-1007f30f_1a03149ce47_-4862","geometry":{"type":"LineString","coordinates":[[150671.06009271,173956.80318155],[150682.60199659,173952.67754381]]},"geometry_name":"GEOM","properties":{"INSPIRE_ID":"https://databrussels.be/id/streetaxe/88977","TYPE":"I","HIERARCHY":"DR","LVL":0,"STARTSN_ID":"https://databrussels.be/id/streetnode/10387","ENDSN_ID":"https://databrussels.be/id/streetnode/10694","STRNAMEFRE":"Avenue Princesse Elisabeth","STRNAMEDUT":"Prinses Elisabethlaan","SLOPE":2.12,"LENGTH":12.2570972078784},"bbox":[150671.06009271,173952.67754381,150682.60199659,173956.80318155]},{"type":"Feature","id":"StreetAxes.fid-1007f30f_1a03149ce47_-485d","geometry":{"type":"LineString","coordinates":[[150653.63150105,173861.10487181],[150626.79476156,173787.85621177],[150603.34126281,173725.03113437],[150598.02407363,173710.62592385]]},"geometry_name":"GEOM","properties":{"INSPIRE_ID":"https://databrussels.be/id/streetaxe/88978","TYPE":"C","HIERARCHY":"DR","LVL":0,"STARTSN_ID":"https://databrussels.be/id/streetnode/12819","ENDSN_ID":"https://databrussels.be/id/streetnode/9379","STRNAMEFRE":"Avenue Princesse Elisabeth","STRNAMEDUT":"Prinses Elisabethlaan","SLOPE":1.22,"LENGTH":160.425420308596},"bbox":[150598.02407363,173710.62592385,150653.63150105,173861.10487181]},{"type":"Feature","id":"StreetAxes.fid-1007f30f_1a03149ce47_-484c","geometry":{"type":"LineString","coordinates":[[150653.63150105,173861.10487181],[150657.1395276,173859.79184723]]},"geometry_name":"GEOM","properties":{"INSPIRE_ID":"https://databrussels.be/id/streetaxe/88979","TYPE":"IC","HIERARCHY":"DR","LVL":0,"STARTSN_ID":"https://databrussels.be/id/streetnode/12819","ENDSN_ID":"https://databrussels.be/id/streetnode/10691","STRNAMEFRE":"Avenue Princesse Elisabeth","STRNAMEDUT":"Prinses Elisabethlaan","SLOPE":0.53,"LENGTH":3.74570204641726},"bbox":[150653.63150105,173859.79184723,150657.1395276,173861.10487181]},{"type":"Feature","id":"StreetAxes.fid-1007f30f_1a03149ce47_-484e","geometry":{"type":"LineString","coordinates":[[150651.28841673,173866.57057503],[150648.41800477,173858.77997423]]},"geometry_name":"GEOM","properties":{"INSPIRE_ID":"https://databrussels.be/id/streetaxe/88981","TYPE":"I","HIERARCHY":"DR","LVL":0,"STARTSN_ID":"https://databrussels.be/id/streetnode/10688","ENDSN_ID":"https://databrussels.be/id/streetnode/10685","STRNAMEFRE":"Avenue Princesse Elisabeth","STRNAMEDUT":"Prinses Elisabethlaan","SLOPE":1.57,"LENGTH":8.3025734274672},"bbox":[150648.41800477,173858.77997423,150651.28841673,173866.57057503]},{"type":"Feature","id":"StreetAxes.fid-1007f30f_1a03149ce47_-484b","geometry":{"type":"LineString","coordinates":[[150686.40065806,173951.31971747],[150682.95615736,173941.91359938],[150657.38479854,173871.46750371],[150653.63150105,173861.10487181]]},"geometry_name":"GEOM","properties":{"INSPIRE_ID":"https://databrussels.be/id/streetaxe/88982","TYPE":"C","HIERARCHY":"DR","LVL":0,"STARTSN_ID":"https://databrussels.be/id/streetnode/10690","ENDSN_ID":"https://databrussels.be/id/streetnode/12819","STRNAMEFRE":"Avenue Princesse Elisabeth","STRNAMEDUT":"Prinses Elisabethlaan","SLOPE":1.3,"LENGTH":95.9819974186878},"bbox":[150653.63150105,173861.10487181,150686.40065806,173951.31971747]},{"type":"Feature","id":"StreetAxes.fid-1007f30f_1a03149ce47_-4821","geometry":{"type":"LineString","coordinates":[[150598.02407363,173710.62592385],[150593.12417657,173695.35571139]]},"geometry_name":"GEOM","properties":{"INSPIRE_ID":"https://databrussels.be/id/streetaxe/89074","TYPE":"IC","HIERARCHY":"MER","LVL":0,"STARTSN_ID":"https://databrussels.be/id/streetnode/9379","ENDSN_ID":"https://databrussels.be/id/streetnode/9380","STRNAMEFRE":"Boulevard Lambermont","STRNAMEDUT":"Lambermontlaan","SLOPE":1.31,"LENGTH":16.0370938724299},"bbox":[150593.12417657,173695.35571139,150598.02407363,173710.62592385]},{"type":"Feature","id":"StreetAxes.fid-1007f30f_1a03149ce47_-481e","geometry":{"type":"LineString","coordinates":[[150569.31356302,173696.35912889],[150572.31069558,173696.71178351],[150574.63616252,173697.33004963],[150578.51813445,173698.76471345],[150583.46633505,173701.51150211]]},"geometry_name":"GEOM","properties":{"INSPIRE_ID":"https://databrussels.be/id/streetaxe/89075","TYPE":"IC","HIERARCHY":"MER","LVL":0,"STARTSN_ID":"https://databrussels.be/id/streetnode/9168","ENDSN_ID":"https://databrussels.be/id/streetnode/9488","STRNAMEFRE":"Boulevard Lambermont","STRNAMEDUT":"Lambermontlaan","SLOPE":1.58,"LENGTH":15.2221199039062},"bbox":[150569.31356302,173696.35912889,150583.46633505,173701.51150211]},{"type":"Feature","id":"StreetAxes.fid-1007f30f_1a03149ce47_-482f","geometry":{"type":"LineString","coordinates":[[150752.12474304,173560.08559169],[150761.68552229,173563.23107367]]},"geometry_name":"GEOM","properties":{"INSPIRE_ID":"https://databrussels.be/id/streetaxe/89076","TYPE":"I","HIERARCHY":"MER","LVL":0,"STARTSN_ID":"https://databrussels.be/id/streetnode/9487","ENDSN_ID":"https://databrussels.be/id/streetnode/14660","STRNAMEFRE":"Boulevard Lambermont","STRNAMEDUT":"Lambermontlaan","SLOPE":3.48,"LENGTH":10.0649171190769},"bbox":[150752.12474304,173560.08559169,150761.68552229,173563.23107367]},{"type":"Feature","id":"StreetAxes.fid-1007f30f_1a03149ce47_-485b","geometry":{"type":"LineString","coordinates":[[150888.33579232,173769.06961682],[150889.05798205,173768.46021895],[150890.14428368,173767.88306262],[150891.44266708,173767.52063277],[150892.90630567,173767.46748609],[150894.41836652,173767.80005323],[150895.82412388,173768.53081715],[150896.97660332,173769.59117845],[150897.32810722,173770.13960199]]},"geometry_name":"GEOM","properties":{"INSPIRE_ID":"https://databrussels.be/id/streetaxe/89157","TYPE":"I","HIERARCHY":"DR","LVL":0,"STARTSN_ID":"https://databrussels.be/id/streetnode/11127","ENDSN_ID":"https://databrussels.be/id/streetnode/13240","STRNAMEFRE":"Avenue Sleeckx","STRNAMEDUT":"Sleeckxlaan","SLOPE":2.03,"LENGTH":10.3376987641876},"bbox":[150888.33579232,173767.46748609,150897.32810722,173770.13960199]},{"type":"Feature","id":"StreetAxes.fid-1007f30f_1a03149ce47_-4858","geometry":{"type":"LineString","coordinates":[[150895.43210669,173778.51320391],[150894.41836652,173779.040183],[150892.90630567,173779.37275014],[150891.44266708,173779.31960347],[150890.14428368,173778.95717361],[150889.05798205,173778.38001729],[150888.06083593,173777.53860582],[150887.20692627,173776.39331734],[150886.62309036,173774.98450492]]},"geometry_name":"GEOM","properties":{"INSPIRE_ID":"https://databrussels.be/id/streetaxe/89161","TYPE":"I","HIERARCHY":"DR","LVL":0,"STARTSN_ID":"https://databrussels.be/id/streetnode/13839","ENDSN_ID":"https://databrussels.be/id/streetnode/11360","STRNAMEFRE":"Avenue Emile Verhaeren","STRNAMEDUT":"Emile Verhaerenlaan","SLOPE":2.37,"LENGTH":10.9917521126962},"bbox":[150886.62309036,173774.98450492,150895.43210669,173779.37275014]},{"type":"Feature","id":"StreetAxes.fid-1007f30f_1a03149ce47_-4824","geometry":{"type":"LineString","coordinates":[[150589.1136525,173684.80906223],[150585.96892547,173676.92481289]]},"geometry_name":"GEOM","properties":{"INSPIRE_ID":"https://databrussels.be/id/streetaxe/89406","TYPE":"IC","HIERARCHY":"MER","LVL":0,"STARTSN_ID":"https://databrussels.be/id/streetnode/9935","ENDSN_ID":"https://databrussels.be/id/streetnode/9489","STRNAMEFRE":"Boulevard Lambermont","STRNAMEDUT":"Lambermontlaan","SLOPE":0.59,"LENGTH":8.48826812218969},"bbox":[150585.96892547,173676.92481289,150589.1136525,173684.80906223]},{"type":"Feature","id":"StreetAxes.fid-1007f30f_1a03149ce47_-4825","geometry":{"type":"LineString","coordinates":[[150555.24779036,173696.08354478],[150585.96892547,173676.92481289]]},"geometry_name":"GEOM","properties":{"INSPIRE_ID":"https://databrussels.be/id/streetaxe/90238","TYPE":"C","HIERARCHY":"MER","LVL":0,"STARTSN_ID":"https://databrussels.be/id/streetnode/9377","ENDSN_ID":"https://databrussels.be/id/streetnode/9489","STRNAMEFRE":"Boulevard Lambermont","STRNAMEDUT":"Lambermontlaan","SLOPE":0.58,"LENGTH":36.2055955652488},"bbox":[150555.24779036,173676.92481289,150585.96892547,173696.08354478]},{"type":"Feature","id":"StreetAxes.fid-1007f30f_1a03149ce47_-4869","geometry":{"type":"LineString","coordinates":[[150609.192,173925.19],[150606.041,173932.52],[150576.174,174002.708],[150571.4358082,174010.1352518]]},"geometry_name":"GEOM","properties":{"INSPIRE_ID":"https://databrussels.be/id/streetaxe/96360","TYPE":"S","HIERARCHY":"DR","LVL":0,"STARTSN_ID":"https://databrussels.be/id/streetnode/2527","ENDSN_ID":"https://databrussels.be/id/streetnode/3568","STRNAMEFRE":"Rue Georges Garnir","STRNAMEDUT":"Georges Garnirstraat","SLOPE":1.93,"LENGTH":93.0668802269543},"bbox":[150571.4358082,173925.19,150609.192,174010.1352518]},{"type":"Feature","id":"StreetAxes.fid-1007f30f_1a03149ce47_-483d","geometry":{"type":"LineString","coordinates":[[150533.137,173888.524],[150527.388,173896.036],[150493.966,173936.002],[150488.84266146,173942.1289816]]},"geometry_name":"GEOM","properties":{"INSPIRE_ID":"https://databrussels.be/id/streetaxe/96364","TYPE":"S","HIERARCHY":"DR","LVL":0,"STARTSN_ID":"https://databrussels.be/id/streetnode/4296","ENDSN_ID":"https://databrussels.be/id/streetnode/683","STRNAMEFRE":"Rue Joseph Van Camp","STRNAMEDUT":"Joseph Van Campstraat","SLOPE":1.18,"LENGTH":69.5452699867841},"bbox":[150488.84266146,173888.524,150533.137,173942.1289816]},{"type":"Feature","id":"StreetAxes.fid-1007f30f_1a03149ce47_-4868","geometry":{"type":"LineString","coordinates":[[150488.84266146,173942.1289816],[150496.03307902,173947.95070384],[150564.42527666,174004.417789],[150571.4358082,174010.1352518]]},"geometry_name":"GEOM","properties":{"INSPIRE_ID":"https://databrussels.be/id/streetaxe/96384","TYPE":"S","HIERARCHY":"DR","LVL":0,"STARTSN_ID":"https://databrussels.be/id/streetnode/683","ENDSN_ID":"https://databrussels.be/id/streetnode/3568","STRNAMEFRE":"Avenue Monplaisir","STRNAMEDUT":"Monplaisirlaan","SLOPE":2.78,"LENGTH":106.988719899069},"bbox":[150488.84266146,173942.1289816,150571.4358082,174010.1352518]},{"type":"Feature","id":"StreetAxes.fid-1007f30f_1a03149ce47_-4861","geometry":{"type":"LineString","coordinates":[[150611.75322081,174043.61806358],[150617.37,174036.133],[150669.301,173962.877],[150671.06009271,173956.80318155]]},"geometry_name":"GEOM","properties":{"INSPIRE_ID":"https://databrussels.be/id/streetaxe/96385","TYPE":"S","HIERARCHY":"DR","LVL":0,"STARTSN_ID":"https://databrussels.be/id/streetnode/1320","ENDSN_ID":"https://databrussels.be/id/streetnode/10387","STRNAMEFRE":"Rue Maurice des Ombiaux","STRNAMEDUT":"Maurice des Ombiauxstraat","SLOPE":1.95,"LENGTH":105.4772558695},"bbox":[150611.75322081,173956.80318155,150671.06009271,174043.61806358]}],"numberReturned":79,"grand_bruxelles_source":{"authority":"Paradigm / Brussels-Capital Region","service":"https://geoservices-urbis.irisnet.be/geoserver/urbisvector/wfs","layer":"urbisvector:StreetAxes","crs":"EPSG:31370","bbox":[150500.0,173500.0,151000.0,174000.0],"cell_id":"bxl-e150500-n173500-s500","ownership":"bbox_intersection_source_unclipped"}}
