{"type":"FeatureCollection","totalFeatures":88,"numberMatched":88,"timeStamp":"2026-08-23T02:49:40.300Z","crs":{"type":"name","properties":{"name":"urn:ogc:def:crs:EPSG::31370"}},"bbox":[145982.01902953,173932.18115566,146727.451,174992.2777104],"features":[{"type":"Feature","id":"StreetAxes.fid--2dded296_1a02c23f8dc_-49fd","geometry":{"type":"LineString","coordinates":[[146273.93478663,174400.06651658],[146278.99242937,174353.34265544],[146286.45070344,174316.8678208],[146289.35812141,174304.97674242],[146295.86634751,174281.60206811],[146303.38750459,174258.12717252],[146309.80445476,174241.48618387],[146321.79489849,174213.07126281],[146332.10712529,174191.00207845],[146334.43733894,174185.05792842],[146337.93144667,174175.03704777],[146344.03978992,174161.74836135]]},"geometry_name":"GEOM","properties":{"INSPIRE_ID":"https://databrussels.be/id/streetaxe/100316","TYPE":"S","HIERARCHY":"DR","LVL":0,"STARTSN_ID":"https://databrussels.be/id/streetnode/","ENDSN_ID":"https://databrussels.be/id/streetnode/","STRNAMEFRE":"Avenue de l'Exposition Universelle","STRNAMEDUT":"Wereldtentoonstellingslaan","SLOPE":null,"LENGTH":250.040499407878},"bbox":[146273.93478663,174161.74836135,146344.03978992,174400.06651658]},{"type":"Feature","id":"StreetAxes.fid--2dded296_1a02c23f8dc_-49f8","geometry":{"type":"LineString","coordinates":[[146359.59506648,174168.02571614],[146354.34025197,174178.60946022],[146343.95598693,174195.53965375],[146328.20408849,174230.8296693],[146319.80098222,174252.29179786],[146315.31465298,174265.29145898],[146308.53566069,174288.88406554],[146305.56985744,174301.09523626],[146303.28763406,174313.23931677],[146301.53157119,174325.68932307],[146298.25851306,174355.98426411],[146295.84330366,174373.72164622],[146293.71297594,174386.31809079],[146291.76047307,174401.54532296]]},"geometry_name":"GEOM","properties":{"INSPIRE_ID":"https://databrussels.be/id/streetaxe/100317","TYPE":"S","HIERARCHY":"DR","LVL":0,"STARTSN_ID":"https://databrussels.be/id/streetnode/","ENDSN_ID":"https://databrussels.be/id/streetnode/","STRNAMEFRE":"Avenue de l'Exposition Universelle","STRNAMEDUT":"Wereldtentoonstellingslaan","SLOPE":null,"LENGTH":245.666895949172},"bbox":[146291.76047307,174168.02571614,146359.59506648,174401.54532296]},{"type":"Feature","id":"StreetAxes.fid--2dded296_1a02c23f8dc_-4a17","geometry":{"type":"LineString","coordinates":[[146289.57590412,174351.08517802],[146283.7817317,174363.07575264],[146279.88305753,174388.9216071],[146278.66846929,174400.29734919]]},"geometry_name":"GEOM","properties":{"INSPIRE_ID":"https://databrussels.be/id/streetaxe/100318","TYPE":"S","HIERARCHY":"DR","LVL":0,"STARTSN_ID":"https://databrussels.be/id/streetnode/","ENDSN_ID":"https://databrussels.be/id/streetnode/","STRNAMEFRE":"Avenue de l'Exposition Universelle","STRNAMEDUT":"Wereldtentoonstellingslaan","SLOPE":null,"LENGTH":50.8957877839341},"bbox":[146278.66846929,174351.08517802,146289.57590412,174400.29734919]},{"type":"Feature","id":"StreetAxes.fid--2dded296_1a02c23f8dc_-4a16","geometry":{"type":"LineString","coordinates":[[146289.57590412,174351.08517802],[146291.04945198,174364.02341766],[146286.50324663,174400.93281762]]},"geometry_name":"GEOM","properties":{"INSPIRE_ID":"https://databrussels.be/id/streetaxe/100319","TYPE":"S","HIERARCHY":"DR","LVL":0,"STARTSN_ID":"https://databrussels.be/id/streetnode/","ENDSN_ID":"https://databrussels.be/id/streetnode/","STRNAMEFRE":"Avenue de l'Exposition Universelle","STRNAMEDUT":"Wereldtentoonstellingslaan","SLOPE":null,"LENGTH":50.2102097998226},"bbox":[146286.50324663,174351.08517802,146291.04945198,174400.93281762]},{"type":"Feature","id":"StreetAxes.fid--2dded296_1a02c23f8dc_-49e3","geometry":{"type":"LineString","coordinates":[[146491.38496378,173952.32132232],[146467.3299269,173973.21899117],[146448.30439696,173991.00426728],[146428.23922058,174013.57388667],[146415.57772349,174031.84727228]]},"geometry_name":"GEOM","properties":{"INSPIRE_ID":"https://databrussels.be/id/streetaxe/69542","TYPE":"C","HIERARCHY":"DC","LVL":0,"STARTSN_ID":"https://databrussels.be/id/streetnode/","ENDSN_ID":"https://databrussels.be/id/streetnode/","STRNAMEFRE":"Square du Centenaire","STRNAMEDUT":"Eeuwfeestsquare","SLOPE":null,"LENGTH":110.339221874322},"bbox":[146415.57772349,173952.32132232,146491.38496378,174031.84727228]},{"type":"Feature","id":"StreetAxes.fid--2dded296_1a02c23f8dc_-49d6","geometry":{"type":"LineString","coordinates":[[146415.57772349,174031.84727228],[146413.97950769,174043.9320252]]},"geometry_name":"GEOM","properties":{"INSPIRE_ID":"https://databrussels.be/id/streetaxe/69543","TYPE":"IC","HIERARCHY":"MER","LVL":0,"STARTSN_ID":"https://databrussels.be/id/streetnode/","ENDSN_ID":"https://databrussels.be/id/streetnode/","STRNAMEFRE":"Square du Centenaire","STRNAMEDUT":"Eeuwfeestsquare","SLOPE":null,"LENGTH":12.1899773104373},"bbox":[146413.97950769,174031.84727228,146415.57772349,174043.9320252]},{"type":"Feature","id":"StreetAxes.fid--2dded296_1a02c23f8dc_-4a06","geometry":{"type":"LineString","coordinates":[[146415.57772349,174031.84727228],[146408.06822304,174045.06214598],[146351.60843722,174164.80270013]]},"geometry_name":"GEOM","properties":{"INSPIRE_ID":"https://databrussels.be/id/streetaxe/69544","TYPE":"C","HIERARCHY":"MER","LVL":0,"STARTSN_ID":"https://databrussels.be/id/streetnode/","ENDSN_ID":"https://databrussels.be/id/streetnode/","STRNAMEFRE":"Avenue de l'Exposition Universelle","STRNAMEDUT":"Wereldtentoonstellingslaan","SLOPE":null,"LENGTH":147.583463067237},"bbox":[146351.60843722,174031.84727228,146415.57772349,174164.80270013]},{"type":"Feature","id":"StreetAxes.fid--2dded296_1a02c23f8dc_-49fb","geometry":{"type":"LineString","coordinates":[[146351.60843722,174164.80270013],[146359.59506648,174168.02571614]]},"geometry_name":"GEOM","properties":{"INSPIRE_ID":"https://databrussels.be/id/streetaxe/69545","TYPE":"I","HIERARCHY":"MER","LVL":0,"STARTSN_ID":"https://databrussels.be/id/streetnode/","ENDSN_ID":"https://databrussels.be/id/streetnode/","STRNAMEFRE":"Avenue de l'Exposition Universelle","STRNAMEDUT":"Wereldtentoonstellingslaan","SLOPE":null,"LENGTH":8.61243746597472},"bbox":[146351.60843722,174164.80270013,146359.59506648,174168.02571614]},{"type":"Feature","id":"StreetAxes.fid--2dded296_1a02c23f8dc_-49fa","geometry":{"type":"LineString","coordinates":[[146351.60843722,174164.80270013],[146332.73597541,174205.04303547],[146322.66151828,174227.2562785],[146312.55536244,174252.51421573],[146304.30363697,174277.73949359],[146297.41531894,174303.64904776],[146292.29963924,174330.1183622],[146289.57590412,174351.08517802]]},"geometry_name":"GEOM","properties":{"INSPIRE_ID":"https://databrussels.be/id/streetaxe/69546","TYPE":"C","HIERARCHY":"MER","LVL":0,"STARTSN_ID":"https://databrussels.be/id/streetnode/","ENDSN_ID":"https://databrussels.be/id/streetnode/","STRNAMEFRE":"Avenue de l'Exposition Universelle","STRNAMEDUT":"Wereldtentoonstellingslaan","SLOPE":null,"LENGTH":197.494213528553},"bbox":[146289.57590412,174164.80270013,146351.60843722,174351.08517802]},{"type":"Feature","id":"StreetAxes.fid--2dded296_1a02c23f8dc_-4a13","geometry":{"type":"LineString","coordinates":[[146278.66846929,174400.29734919],[146276.86808284,174417.15963321],[146274.80044555,174436.52496853],[146276.66015355,174458.45059587]]},"geometry_name":"GEOM","properties":{"INSPIRE_ID":"https://databrussels.be/id/streetaxe/69547","TYPE":"C","HIERARCHY":"MER","LVL":0,"STARTSN_ID":"https://databrussels.be/id/streetnode/","ENDSN_ID":"https://databrussels.be/id/streetnode/","STRNAMEFRE":"Avenue de l'Exposition","STRNAMEDUT":"Tentoonstellingslaan","SLOPE":null,"LENGTH":58.4378838640409},"bbox":[146274.80044555,174400.29734919,146278.66846929,174458.45059587]},{"type":"Feature","id":"StreetAxes.fid--2dded296_1a02c23f8dc_-4a12","geometry":{"type":"LineString","coordinates":[[146276.66015355,174458.45059587],[146281.9103681,174438.22114439],[146284.61344886,174416.27556977],[146286.50324663,174400.93281762]]},"geometry_name":"GEOM","properties":{"INSPIRE_ID":"https://databrussels.be/id/streetaxe/69548","TYPE":"C","HIERARCHY":"MER","LVL":0,"STARTSN_ID":"https://databrussels.be/id/streetnode/","ENDSN_ID":"https://databrussels.be/id/streetnode/","STRNAMEFRE":"Avenue de l'Exposition","STRNAMEDUT":"Tentoonstellingslaan","SLOPE":null,"LENGTH":58.4697712105968},"bbox":[146276.66015355,174400.93281762,146286.50324663,174458.45059587]},{"type":"Feature","id":"StreetAxes.fid--2dded296_1a02c23f8dc_-4a18","geometry":{"type":"LineString","coordinates":[[146276.66015355,174458.45059587],[146277.60535234,174485.93166351],[146280.71739606,174512.2724252],[146291.45651949,174564.73918682],[146319.79199051,174695.40041903],[146370.13123477,174931.91044272],[146372.20288511,174946.22424776],[146374.90596587,174973.73422162],[146374.59755763,174978.09828985],[146373.91830175,174981.63878878],[146372.95518904,174985.35516039],[146371.63107957,174988.19125893],[146369.17189554,174992.2777104]]},"geometry_name":"GEOM","properties":{"INSPIRE_ID":"https://databrussels.be/id/streetaxe/69549","TYPE":"C","HIERARCHY":"MER","LVL":0,"STARTSN_ID":"https://databrussels.be/id/streetnode/","ENDSN_ID":"https://databrussels.be/id/streetnode/","STRNAMEFRE":"Avenue de l'Exposition","STRNAMEDUT":"Tentoonstellingslaan","SLOPE":null,"LENGTH":544.905926482027},"bbox":[146276.66015355,174458.45059587,146374.90596587,174992.2777104]},{"type":"Feature","id":"StreetAxes.fid--2dded296_1a02c23f8dc_-49f3","geometry":{"type":"LineString","coordinates":[[146228.48210189,174233.61925628],[146183.79,174273.231],[146157.93,174296.422]]},"geometry_name":"GEOM","properties":{"INSPIRE_ID":"https://databrussels.be/id/streetaxe/70123","TYPE":"S","HIERARCHY":"DR","LVL":0,"STARTSN_ID":"https://databrussels.be/id/streetnode/2519","ENDSN_ID":"https://databrussels.be/id/streetnode/1996","STRNAMEFRE":"Square de la Diligence","STRNAMEDUT":"Postkoetssquare","SLOPE":0.11,"LENGTH":94.455567431369},"bbox":[146157.93,174233.61925628,146228.48210189,174296.422]},{"type":"Feature","id":"StreetAxes.fid--2dded296_1a02c23f8dc_-49f6","geometry":{"type":"LineString","coordinates":[[146421.45,174193.853],[146427.126,174196.055],[146472.414,174213.796],[146477.518,174215.772]]},"geometry_name":"GEOM","properties":{"INSPIRE_ID":"https://databrussels.be/id/streetaxe/73909","TYPE":"S","HIERARCHY":"DR","LVL":0,"STARTSN_ID":"https://databrussels.be/id/streetnode/11465","ENDSN_ID":"https://databrussels.be/id/streetnode/11466","STRNAMEFRE":"Drève de Rivieren","STRNAMEDUT":"de Rivierendreef","SLOPE":1.28,"LENGTH":60.2002544156606},"bbox":[146421.45,174193.853,146477.518,174215.772]},{"type":"Feature","id":"StreetAxes.fid--2dded296_1a02c23f8dc_-49f7","geometry":{"type":"LineString","coordinates":[[146185.58580023,174185.83211452],[146193.068,174194.05],[146219.946,174223.988],[146221.683,174226.222],[146228.48210189,174233.61925628]]},"geometry_name":"GEOM","properties":{"INSPIRE_ID":"https://databrussels.be/id/streetaxe/74184","TYPE":"S","HIERARCHY":"DR","LVL":0,"STARTSN_ID":"https://databrussels.be/id/streetnode/13348","ENDSN_ID":"https://databrussels.be/id/streetnode/2519","STRNAMEFRE":"Avenue Richard Mazza","STRNAMEDUT":"Richard Mazzalaan","SLOPE":1.29,"LENGTH":64.2240979714938},"bbox":[146185.58580023,174185.83211452,146228.48210189,174233.61925628]},{"type":"Feature","id":"StreetAxes.fid--2dded296_1a02c23f8dc_-49cc","geometry":{"type":"LineString","coordinates":[[146137.869,174088.159],[146125.278,174089.575],[146112.172,174091.584],[146094.388,174098.106],[146075.727,174110.306],[146064.57,174114.41]]},"geometry_name":"GEOM","properties":{"INSPIRE_ID":"https://databrussels.be/id/streetaxe/74185","TYPE":"S","HIERARCHY":"DR","LVL":0,"STARTSN_ID":"https://databrussels.be/id/streetnode/13344","ENDSN_ID":"https://databrussels.be/id/streetnode/2779","STRNAMEFRE":"Square des Privilèges","STRNAMEDUT":"Privilegiënsquare","SLOPE":0.07,"LENGTH":79.054664712066},"bbox":[146064.57,174088.159,146137.869,174114.41]},{"type":"Feature","id":"StreetAxes.fid--2dded296_1a02c23f8dc_-49e7","geometry":{"type":"LineString","coordinates":[[146477.518,174215.772],[146474.742,174222.898],[146468.592,174242.466],[146465,174261.848],[146463.031,174281.842],[146462.627,174303.824],[146447.522,174310.153],[146439.773,174328.828],[146434.514,174349.202],[146431.608,174369.463],[146430.78,174375.298]]},"geometry_name":"GEOM","properties":{"INSPIRE_ID":"https://databrussels.be/id/streetaxe/74187","TYPE":"S","HIERARCHY":"DR","LVL":0,"STARTSN_ID":"https://databrussels.be/id/streetnode/11466","ENDSN_ID":"https://databrussels.be/id/streetnode/11467","STRNAMEFRE":"Drève des Lignages","STRNAMEDUT":"Geslachtendreef","SLOPE":0.72,"LENGTH":173.947561940185},"bbox":[146430.78,174215.772,146477.518,174375.298]},{"type":"Feature","id":"StreetAxes.fid--2dded296_1a02c23f8dc_-49e5","geometry":{"type":"LineString","coordinates":[[146493.53567179,173959.85442032],[146493.11729484,173969.7138581],[146497.288,174017.69],[146501.876,174066.934],[146502.788,174076.522]]},"geometry_name":"GEOM","properties":{"INSPIRE_ID":"https://databrussels.be/id/streetaxe/74239","TYPE":"S","HIERARCHY":"DR","LVL":0,"STARTSN_ID":"https://databrussels.be/id/streetnode/13479","ENDSN_ID":"https://databrussels.be/id/streetnode/11473","STRNAMEFRE":"Rue Communale","STRNAMEDUT":"Gemeentestraat","SLOPE":1.56,"LENGTH":117.113940715799},"bbox":[146493.11729484,173959.85442032,146502.788,174076.522]},{"type":"Feature","id":"StreetAxes.fid--2dded296_1a02c23f8dc_-4a02","geometry":{"type":"LineString","coordinates":[[146291.37727892,174112.98575246],[146287.577,174117.652],[146272.418,174133.75],[146189.456,174102.31],[146181.07,174110.202],[146178.488,174113.76]]},"geometry_name":"GEOM","properties":{"INSPIRE_ID":"https://databrussels.be/id/streetaxe/74242","TYPE":"S","HIERARCHY":"DR","LVL":0,"STARTSN_ID":"https://databrussels.be/id/streetnode/13346","ENDSN_ID":"https://databrussels.be/id/streetnode/900","STRNAMEFRE":"Avenue Beethoven","STRNAMEDUT":"Beethovenlaan","SLOPE":0.76,"LENGTH":132.761305515945},"bbox":[146178.488,174102.31,146291.37727892,174133.75]},{"type":"Feature","id":"StreetAxes.fid--2dded296_1a02c23f8dc_-49cb","geometry":{"type":"LineString","coordinates":[[146140.088,174108.702],[146150.796,174108.196],[146162.308,174107.498],[146170.636,174108.054],[146178.488,174113.76]]},"geometry_name":"GEOM","properties":{"INSPIRE_ID":"https://databrussels.be/id/streetaxe/74394","TYPE":"S","HIERARCHY":"DR","LVL":0,"STARTSN_ID":"https://databrussels.be/id/streetnode/13345","ENDSN_ID":"https://databrussels.be/id/streetnode/900","STRNAMEFRE":"Avenue Verdi","STRNAMEDUT":"Verdilaan","SLOPE":3.67,"LENGTH":40.3059335229306},"bbox":[146140.088,174107.498,146178.488,174113.76]},{"type":"Feature","id":"StreetAxes.fid--2dded296_1a02c23f8dc_-49fe","geometry":{"type":"LineString","coordinates":[[146178.488,174113.76],[146185.162,174120.631],[146225.798,174177.224],[146237.625,174191.508],[146260.974,174217.184],[146264.255,174219.553],[146271.031,174226.558],[146269.082,174228.763]]},"geometry_name":"GEOM","properties":{"INSPIRE_ID":"https://databrussels.be/id/streetaxe/75771","TYPE":"S","HIERARCHY":"DR","LVL":0,"STARTSN_ID":"https://databrussels.be/id/streetnode/900","ENDSN_ID":"https://databrussels.be/id/streetnode/1264","STRNAMEFRE":"Avenue Verdi","STRNAMEDUT":"Verdilaan","SLOPE":1.63,"LENGTH":149.235311172517},"bbox":[146178.488,174113.76,146271.031,174228.763]},{"type":"Feature","id":"StreetAxes.fid--2dded296_1a02c23f8dc_-49cd","geometry":{"type":"LineString","coordinates":[[146137.869,174088.159],[146139.32,174097.852],[146139.56,174100.238],[146140.088,174108.702]]},"geometry_name":"GEOM","properties":{"INSPIRE_ID":"https://databrussels.be/id/streetaxe/75836","TYPE":"S","HIERARCHY":"DR","LVL":0,"STARTSN_ID":"https://databrussels.be/id/streetnode/13344","ENDSN_ID":"https://databrussels.be/id/streetnode/13345","STRNAMEFRE":"Avenue Mathieu De Jonge","STRNAMEDUT":"Mathieu De Jongelaan","SLOPE":0.24,"LENGTH":20.6794953508451},"bbox":[146137.869,174088.159,146140.088,174108.702]},{"type":"Feature","id":"StreetAxes.fid--2dded296_1a02c23f8dc_-49c3","geometry":{"type":"LineString","coordinates":[[146185.58580023,174185.83211452],[146140.52,174226.254],[146113.792,174247.046]]},"geometry_name":"GEOM","properties":{"INSPIRE_ID":"https://databrussels.be/id/streetaxe/75840","TYPE":"S","HIERARCHY":"DR","LVL":0,"STARTSN_ID":"https://databrussels.be/id/streetnode/13348","ENDSN_ID":"https://databrussels.be/id/streetnode/2603","STRNAMEFRE":"Square des Oriflammes","STRNAMEDUT":"Oriflammensquare","SLOPE":1.55,"LENGTH":94.4009067610392},"bbox":[146113.792,174185.83211452,146185.58580023,174247.046]},{"type":"Feature","id":"StreetAxes.fid--2dded296_1a02c23f8dc_-49e2","geometry":{"type":"LineString","coordinates":[[146406.63295488,174025.08690397],[146407.35577058,174018.91625556],[146407.85052016,174007.09408119],[146408.11394785,173998.05260113],[146408.58305394,173982.66951405],[146409.01745633,173969.75401592]]},"geometry_name":"GEOM","properties":{"INSPIRE_ID":"https://databrussels.be/id/streetaxe/78590","TYPE":"S","HIERARCHY":"MER","LVL":0,"STARTSN_ID":"https://databrussels.be/id/streetnode/10709","ENDSN_ID":"https://databrussels.be/id/streetnode/12149","STRNAMEFRE":"Square du Centenaire","STRNAMEDUT":"Eeuwfeestsquare","SLOPE":1.52,"LENGTH":55.4037173087365},"bbox":[146406.63295488,173969.75401592,146409.01745633,174025.08690397]},{"type":"Feature","id":"StreetAxes.fid--2dded296_1a02c23f8dc_-49ca","geometry":{"type":"LineString","coordinates":[[146140.088,174108.702],[146140.608,174117.049],[146140.971,174125.676],[146142.24321419,174136.66167687]]},"geometry_name":"GEOM","properties":{"INSPIRE_ID":"https://databrussels.be/id/streetaxe/79442","TYPE":"S","HIERARCHY":"DR","LVL":0,"STARTSN_ID":"https://databrussels.be/id/streetnode/13345","ENDSN_ID":"https://databrussels.be/id/streetnode/8085","STRNAMEFRE":"Avenue Mathieu De Jonge","STRNAMEDUT":"Mathieu De Jongelaan","SLOPE":1.1,"LENGTH":28.0569123341675},"bbox":[146140.088,174108.702,146142.24321419,174136.66167687]},{"type":"Feature","id":"StreetAxes.fid--2dded296_1a02c23f8dc_-49e8","geometry":{"type":"LineString","coordinates":[[146360.45883042,174346.16241255],[146362.4855,174348.6025],[146382.351,174360.436],[146392.862,174365.34],[146406.18,174370.258],[146424.653,174374.571],[146430.78,174375.298]]},"geometry_name":"GEOM","properties":{"INSPIRE_ID":"https://databrussels.be/id/streetaxe/79478","TYPE":"S","HIERARCHY":"DR","LVL":0,"STARTSN_ID":"https://databrussels.be/id/streetnode/8329","ENDSN_ID":"https://databrussels.be/id/streetnode/11467","STRNAMEFRE":"Drève de la Charte","STRNAMEDUT":"Keuredreef","SLOPE":1.09,"LENGTH":77.2304503638665},"bbox":[146360.45883042,174346.16241255,146430.78,174375.298]},{"type":"Feature","id":"StreetAxes.fid--2dded296_1a02c23f8dc_-49dd","geometry":{"type":"LineString","coordinates":[[146413.97950769,174043.9320252],[146423.3161619,174030.17395724],[146431.01352786,174018.58635791],[146442.05006648,174005.76801563]]},"geometry_name":"GEOM","properties":{"INSPIRE_ID":"https://databrussels.be/id/streetaxe/80491","TYPE":"S","HIERARCHY":"DC","LVL":0,"STARTSN_ID":"https://databrussels.be/id/streetnode/8333","ENDSN_ID":"https://databrussels.be/id/streetnode/13479","STRNAMEFRE":"Square du Centenaire","STRNAMEDUT":"Eeuwfeestsquare","SLOPE":0.36,"LENGTH":47.4531641572089},"bbox":[146413.97950769,174005.76801563,146442.05006648,174043.9320252]},{"type":"Feature","id":"StreetAxes.fid--2dded296_1a02c23f8dc_-49e4","geometry":{"type":"LineString","coordinates":[[146415.57772349,174031.84727228],[146416.41053259,174015.17115688],[146417.68862961,173960.29939263],[146418.30503525,173932.18115566]]},"geometry_name":"GEOM","properties":{"INSPIRE_ID":"https://databrussels.be/id/streetaxe/80492","TYPE":"S","HIERARCHY":"MER","LVL":0,"STARTSN_ID":"https://databrussels.be/id/streetnode/8333","ENDSN_ID":"https://databrussels.be/id/streetnode/12085","STRNAMEFRE":"Square du Centenaire","STRNAMEDUT":"Eeuwfeestsquare","SLOPE":1.26,"LENGTH":99.7085375754315},"bbox":[146415.57772349,173932.18115566,146418.30503525,174031.84727228]},{"type":"Feature","id":"StreetAxes.fid--2dded296_1a02c23f8dc_-49d5","geometry":{"type":"LineString","coordinates":[[146413.97950769,174043.9320252],[146410.28668211,174054.79478579],[146405.0162196,174066.31955843]]},"geometry_name":"GEOM","properties":{"INSPIRE_ID":"https://databrussels.be/id/streetaxe/80493","TYPE":"S","HIERARCHY":"MER","LVL":0,"STARTSN_ID":"https://databrussels.be/id/streetnode/8333","ENDSN_ID":"https://databrussels.be/id/streetnode/11474","STRNAMEFRE":"Avenue de l'Exposition Universelle","STRNAMEDUT":"Wereldtentoonstellingslaan","SLOPE":1.86,"LENGTH":24.1460292331905},"bbox":[146405.0162196,174043.9320252,146413.97950769,174066.31955843]},{"type":"Feature","id":"StreetAxes.fid--2dded296_1a02c23f8dc_-49da","geometry":{"type":"LineString","coordinates":[[146354.867,174035.384],[146349.23271455,174030.42894934],[146343.50181599,174024.0201258],[146338.33892627,174020.48009555],[146331.57241028,174018.96226554],[146325.17905111,174022.95936849],[146324.41387103,174027.34113589]]},"geometry_name":"GEOM","properties":{"INSPIRE_ID":"https://databrussels.be/id/streetaxe/80558","TYPE":"S","HIERARCHY":"DR","LVL":0,"STARTSN_ID":"https://databrussels.be/id/streetnode/13343","ENDSN_ID":"https://databrussels.be/id/streetnode/9474","STRNAMEFRE":"Place des Sorbiers","STRNAMEDUT":"Sorbeboomplein","SLOPE":0.46,"LENGTH":41.2833625183199},"bbox":[146324.41387103,174018.96226554,146354.867,174035.384]},{"type":"Feature","id":"StreetAxes.fid--2dded296_1a02c23f8dc_-49f5","geometry":{"type":"LineString","coordinates":[[146421.45,174193.853],[146418.694,174200.92],[146414.45047782,174212.20716153],[146402.69767773,174241.77072094],[146390.60406703,174276.70243158],[146379.098,174304.652],[146364.9195176,174326.58012998],[146360.476,174332.751],[146359.58775717,174335.56298835]]},"geometry_name":"GEOM","properties":{"INSPIRE_ID":"https://databrussels.be/id/streetaxe/80767","TYPE":"S","HIERARCHY":"DR","LVL":0,"STARTSN_ID":"https://databrussels.be/id/streetnode/11465","ENDSN_ID":"https://databrussels.be/id/streetnode/10705","STRNAMEFRE":"Drève de la Charte","STRNAMEDUT":"Keuredreef","SLOPE":0.69,"LENGTH":155.314993676577},"bbox":[146359.58775717,174193.853,146421.45,174335.56298835]},{"type":"Feature","id":"StreetAxes.fid--2dded296_1a02c23f8dc_-49d3","geometry":{"type":"LineString","coordinates":[[146405.0162196,174066.31955843],[146435.61134304,174080.04032549],[146426.04963628,174101.3820395]]},"geometry_name":"GEOM","properties":{"INSPIRE_ID":"https://databrussels.be/id/streetaxe/80768","TYPE":"S","HIERARCHY":"DR","LVL":0,"STARTSN_ID":"https://databrussels.be/id/streetnode/11474","ENDSN_ID":"https://databrussels.be/id/streetnode/9459","STRNAMEFRE":"Place du Home","STRNAMEDUT":"Homeplein","SLOPE":0.21,"LENGTH":56.9166827419988},"bbox":[146405.0162196,174066.31955843,146435.61134304,174101.3820395]},{"type":"Feature","id":"StreetAxes.fid--2dded296_1a02c23f8dc_-49ff","geometry":{"type":"LineString","coordinates":[[146291.37727892,174112.98575246],[146295.58578972,174117.49737207],[146321.62274948,174145.04279298],[146328.65137549,174152.07442182],[146333.97507103,174157.4003918],[146344.03978992,174161.74836135]]},"geometry_name":"GEOM","properties":{"INSPIRE_ID":"https://databrussels.be/id/streetaxe/81484","TYPE":"S","HIERARCHY":"DR","LVL":0,"STARTSN_ID":"https://databrussels.be/id/streetnode/13346","ENDSN_ID":"https://databrussels.be/id/streetnode/8090","STRNAMEFRE":"Drève de Rivieren","STRNAMEDUT":"de Rivierendreef","SLOPE":1.68,"LENGTH":72.5095471833332},"bbox":[146291.37727892,174112.98575246,146344.03978992,174161.74836135]},{"type":"Feature","id":"StreetAxes.fid--2dded296_1a02c23f8dc_-49f4","geometry":{"type":"LineString","coordinates":[[146269.082,174228.763],[146262.268,174243.788],[146260.51493375,174248.91005823]]},"geometry_name":"GEOM","properties":{"INSPIRE_ID":"https://databrussels.be/id/streetaxe/81563","TYPE":"S","HIERARCHY":"DR","LVL":0,"STARTSN_ID":"https://databrussels.be/id/streetnode/1264","ENDSN_ID":"https://databrussels.be/id/streetnode/12267","STRNAMEFRE":"Avenue des Troubadours","STRNAMEDUT":"Troubadourslaan","SLOPE":4.2,"LENGTH":21.9116686749462},"bbox":[146260.51493375,174228.763,146269.082,174248.91005823]},{"type":"Feature","id":"StreetAxes.fid--2dded296_1a02c23f8dc_-49dc","geometry":{"type":"LineString","coordinates":[[146213.05684624,174008.16542947],[146219.908,174017.53],[146243.742,174053.562],[146250.192,174063.3],[146255.888,174072.415],[146273.419,174093.511],[146291.37727892,174112.98575246]]},"geometry_name":"GEOM","properties":{"INSPIRE_ID":"https://databrussels.be/id/streetaxe/81592","TYPE":"S","HIERARCHY":"DR","LVL":0,"STARTSN_ID":"https://databrussels.be/id/streetnode/8328","ENDSN_ID":"https://databrussels.be/id/streetnode/13346","STRNAMEFRE":"Drève de Rivieren","STRNAMEDUT":"de Rivierendreef","SLOPE":1.34,"LENGTH":131.15371848148},"bbox":[146213.05684624,174008.16542947,146291.37727892,174112.98575246]},{"type":"Feature","id":"StreetAxes.fid--2dded296_1a02c23f8dc_-49eb","geometry":{"type":"LineString","coordinates":[[146360.45883042,174346.16241255],[146356.78565258,174348.24959045],[146353.24542101,174348.94308471],[146349.07599589,174348.41232929],[146346.28525961,174345.00441337],[146345.19759001,174341.58638371],[146345.96595853,174336.05108899],[146350.03252171,174332.86642639],[146354.21648339,174332.26330299],[146359.58775717,174335.56298835]]},"geometry_name":"GEOM","properties":{"INSPIRE_ID":"https://databrussels.be/id/streetaxe/81593","TYPE":"S","HIERARCHY":"DR","LVL":0,"STARTSN_ID":"https://databrussels.be/id/streetnode/8329","ENDSN_ID":"https://databrussels.be/id/streetnode/10705","STRNAMEFRE":"Drève de la Charte","STRNAMEDUT":"Keuredreef","SLOPE":0.29,"LENGTH":41.3116369876117},"bbox":[146345.19759001,174332.26330299,146360.45883042,174348.94308471]},{"type":"Feature","id":"StreetAxes.fid--2dded296_1a02c23f8dc_-4a07","geometry":{"type":"LineString","coordinates":[[146309.76799375,174608.47442237],[146303.5978417,174580.02735292],[146290.67752876,174519.55007894],[146288.53014971,174506.25959728],[146286.81774586,174491.08898105]]},"geometry_name":"GEOM","properties":{"INSPIRE_ID":"https://databrussels.be/id/streetaxe/81608","TYPE":"S","HIERARCHY":"MER","LVL":0,"STARTSN_ID":"https://databrussels.be/id/streetnode/10854","ENDSN_ID":"https://databrussels.be/id/streetnode/8721","STRNAMEFRE":"Avenue de l'Exposition","STRNAMEDUT":"Tentoonstellingslaan","SLOPE":1.75,"LENGTH":119.680346224542},"bbox":[146286.81774586,174491.08898105,146309.76799375,174608.47442237]},{"type":"Feature","id":"StreetAxes.fid--2dded296_1a02c23f8dc_-49c8","geometry":{"type":"LineString","coordinates":[[146142.24321419,174136.66167687],[146145.24311041,174139.01067251],[146151.58988524,174146.47558698],[146155.0122447,174151.1118696]]},"geometry_name":"GEOM","properties":{"INSPIRE_ID":"https://databrussels.be/id/streetaxe/81694","TYPE":"S","HIERARCHY":"DR","LVL":0,"STARTSN_ID":"https://databrussels.be/id/streetnode/8085","ENDSN_ID":"https://databrussels.be/id/streetnode/9032","STRNAMEFRE":"Avenue Richard Mazza","STRNAMEDUT":"Richard Mazzalaan","SLOPE":0.93,"LENGTH":19.3710382796067},"bbox":[146142.24321419,174136.66167687,146155.0122447,174151.1118696]},{"type":"Feature","id":"StreetAxes.fid--2dded296_1a02c23f8dc_-49c7","geometry":{"type":"LineString","coordinates":[[146142.24321419,174136.66167687],[146138.48581211,174138.70463338],[146133.55790431,174146.54403441],[146134.48962791,174149.7827661]]},"geometry_name":"GEOM","properties":{"INSPIRE_ID":"https://databrussels.be/id/streetaxe/81695","TYPE":"S","HIERARCHY":"DR","LVL":0,"STARTSN_ID":"https://databrussels.be/id/streetnode/8085","ENDSN_ID":"https://databrussels.be/id/streetnode/8170","STRNAMEFRE":"Avenue Mathieu De Jonge","STRNAMEDUT":"Mathieu De Jongelaan","SLOPE":1.48,"LENGTH":16.9065881274601},"bbox":[146133.55790431,174136.66167687,146142.24321419,174149.7827661]},{"type":"Feature","id":"StreetAxes.fid--2dded296_1a02c23f8dc_-4a10","geometry":{"type":"LineString","coordinates":[[146310.65313042,174427.47971828],[146312.23207578,174415.50648933]]},"geometry_name":"GEOM","properties":{"INSPIRE_ID":"https://databrussels.be/id/streetaxe/81784","TYPE":"S","HIERARCHY":"DR","LVL":0,"STARTSN_ID":"https://databrussels.be/id/streetnode/10849","ENDSN_ID":"https://databrussels.be/id/streetnode/10324","STRNAMEFRE":"Rue Antoine Baeck","STRNAMEDUT":"Antoine Baeckstraat","SLOPE":2.98,"LENGTH":12.0768903214798},"bbox":[146310.65313042,174415.50648933,146312.23207578,174427.47971828]},{"type":"Feature","id":"StreetAxes.fid--2dded296_1a02c23f8dc_-49c6","geometry":{"type":"LineString","coordinates":[[146155.0122447,174151.1118696],[146150.720562,174152.21899252],[146144.71557833,174152.09484002],[146139.60912007,174151.48194981],[146134.48962791,174149.7827661]]},"geometry_name":"GEOM","properties":{"INSPIRE_ID":"https://databrussels.be/id/streetaxe/82353","TYPE":"S","HIERARCHY":"DR","LVL":0,"STARTSN_ID":"https://databrussels.be/id/streetnode/9032","ENDSN_ID":"https://databrussels.be/id/streetnode/8170","STRNAMEFRE":"Avenue Mathieu De Jonge","STRNAMEDUT":"Mathieu De Jongelaan","SLOPE":0.33,"LENGTH":20.9756690036693},"bbox":[146134.48962791,174149.7827661,146155.0122447,174152.21899252]},{"type":"Feature","id":"StreetAxes.fid--2dded296_1a02c23f8dc_-49c4","geometry":{"type":"LineString","coordinates":[[146155.0122447,174151.1118696],[146158.278,174155.536],[146179.086,174178.845],[146185.58580023,174185.83211452]]},"geometry_name":"GEOM","properties":{"INSPIRE_ID":"https://databrussels.be/id/streetaxe/82354","TYPE":"S","HIERARCHY":"DR","LVL":0,"STARTSN_ID":"https://databrussels.be/id/streetnode/9032","ENDSN_ID":"https://databrussels.be/id/streetnode/13348","STRNAMEFRE":"Avenue Richard Mazza","STRNAMEDUT":"Richard Mazzalaan","SLOPE":1.1,"LENGTH":46.2873462876487},"bbox":[146155.0122447,174151.1118696,146185.58580023,174185.83211452]},{"type":"Feature","id":"StreetAxes.fid--2dded296_1a02c23f8dc_-49ea","geometry":{"type":"LineString","coordinates":[[146235.39222127,174335.46339651],[146235.222,174342.742],[146234.85,174348.442],[146217.454,174363.034]]},"geometry_name":"GEOM","properties":{"INSPIRE_ID":"https://databrussels.be/id/streetaxe/82447","TYPE":"S","HIERARCHY":"DR","LVL":0,"STARTSN_ID":"https://databrussels.be/id/streetnode/12262","ENDSN_ID":"https://databrussels.be/id/streetnode/12264","STRNAMEFRE":"Avenue des Troubadours","STRNAMEDUT":"Troubadourslaan","SLOPE":2.49,"LENGTH":35.6983859655163},"bbox":[146217.454,174335.46339651,146235.39222127,174363.034]},{"type":"Feature","id":"StreetAxes.fid--2dded296_1a02c23f8dc_-49ed","geometry":{"type":"LineString","coordinates":[[146237.55781224,174314.51274454],[146232.49044249,174313.2868863],[146219.69105902,174324.50103402],[146229.31367332,174335.32124037],[146235.39222127,174335.46339651]]},"geometry_name":"GEOM","properties":{"INSPIRE_ID":"https://databrussels.be/id/streetaxe/82448","TYPE":"S","HIERARCHY":"DR","LVL":0,"STARTSN_ID":"https://databrussels.be/id/streetnode/12265","ENDSN_ID":"https://databrussels.be/id/streetnode/12262","STRNAMEFRE":"Avenue des Troubadours","STRNAMEDUT":"Troubadourslaan","SLOPE":0.89,"LENGTH":42.7908763526468},"bbox":[146219.69105902,174313.2868863,146237.55781224,174335.46339651]},{"type":"Feature","id":"StreetAxes.fid--2dded296_1a02c23f8dc_-49ec","geometry":{"type":"LineString","coordinates":[[146237.55781224,174314.51274454],[146235.49251412,174323.05013403],[146235.61294663,174326.02525554],[146235.39222127,174335.46339651]]},"geometry_name":"GEOM","properties":{"INSPIRE_ID":"https://databrussels.be/id/streetaxe/82449","TYPE":"S","HIERARCHY":"DR","LVL":0,"STARTSN_ID":"https://databrussels.be/id/streetnode/12265","ENDSN_ID":"https://databrussels.be/id/streetnode/12262","STRNAMEFRE":"Avenue des Troubadours","STRNAMEDUT":"Troubadourslaan","SLOPE":1.79,"LENGTH":21.2019278722944},"bbox":[146235.39222127,174314.51274454,146237.55781224,174335.46339651]},{"type":"Feature","id":"StreetAxes.fid--2dded296_1a02c23f8dc_-49ee","geometry":{"type":"LineString","coordinates":[[146254.89689893,174265.32315239],[146252.638,174271.922],[146239.56446582,174306.21777583],[146237.55781224,174314.51274454]]},"geometry_name":"GEOM","properties":{"INSPIRE_ID":"https://databrussels.be/id/streetaxe/82450","TYPE":"S","HIERARCHY":"DR","LVL":0,"STARTSN_ID":"https://databrussels.be/id/streetnode/12266","ENDSN_ID":"https://databrussels.be/id/streetnode/12265","STRNAMEFRE":"Avenue des Troubadours","STRNAMEDUT":"Troubadourslaan","SLOPE":1.99,"LENGTH":52.2121044886597},"bbox":[146237.55781224,174265.32315239,146254.89689893,174314.51274454]},{"type":"Feature","id":"StreetAxes.fid--2dded296_1a02c23f8dc_-4a08","geometry":{"type":"LineString","coordinates":[[146298.62544488,174488.16455902],[146295.546,174489.905],[146286.81774586,174491.08898105]]},"geometry_name":"GEOM","properties":{"INSPIRE_ID":"https://databrussels.be/id/streetaxe/82528","TYPE":"S","HIERARCHY":"DR","LVL":0,"STARTSN_ID":"https://databrussels.be/id/streetnode/10852","ENDSN_ID":"https://databrussels.be/id/streetnode/8721","STRNAMEFRE":"Rue Antoine Baeck","STRNAMEDUT":"Antoine Baeckstraat","SLOPE":3.61,"LENGTH":12.3454380521341},"bbox":[146286.81774586,174488.16455902,146298.62544488,174491.08898105]},{"type":"Feature","id":"StreetAxes.fid--2dded296_1a02c23f8dc_-4a0a","geometry":{"type":"LineString","coordinates":[[146298.62544488,174488.16455902],[146300.21,174487.269],[146304.2955554,174484.02810558],[146306.98665026,174475.62218345],[146308.86250899,174460.44025823],[146308.57165734,174454.6713432]]},"geometry_name":"GEOM","properties":{"INSPIRE_ID":"https://databrussels.be/id/streetaxe/82529","TYPE":"S","HIERARCHY":"DR","LVL":0,"STARTSN_ID":"https://databrussels.be/id/streetnode/10852","ENDSN_ID":"https://databrussels.be/id/streetnode/10335","STRNAMEFRE":"Rue Antoine Baeck","STRNAMEDUT":"Antoine Baeckstraat","SLOPE":5.77,"LENGTH":36.9348205351415},"bbox":[146298.62544488,174454.6713432,146308.86250899,174488.16455902]},{"type":"Feature","id":"StreetAxes.fid--2dded296_1a02c23f8dc_-49f9","geometry":{"type":"LineString","coordinates":[[146359.59506648,174168.02571614],[146376.44756953,174175.08495601],[146394.921,174183.237],[146415.774,174191.652],[146421.45,174193.853]]},"geometry_name":"GEOM","properties":{"INSPIRE_ID":"https://databrussels.be/id/streetaxe/82596","TYPE":"S","HIERARCHY":"DR","LVL":0,"STARTSN_ID":"https://databrussels.be/id/streetnode/12146","ENDSN_ID":"https://databrussels.be/id/streetnode/11465","STRNAMEFRE":"Drève de Rivieren","STRNAMEDUT":"de Rivierendreef","SLOPE":0.71,"LENGTH":67.0381316430662},"bbox":[146359.59506648,174168.02571614,146421.45,174193.853]},{"type":"Feature","id":"StreetAxes.fid--2dded296_1a02c23f8dc_-49ce","geometry":{"type":"LineString","coordinates":[[146109.28877093,174013.9814081],[146096.45,174016.6]]},"geometry_name":"GEOM","properties":{"INSPIRE_ID":"https://databrussels.be/id/streetaxe/82742","TYPE":"S","HIERARCHY":"DR","LVL":0,"STARTSN_ID":"https://databrussels.be/id/streetnode/7759","ENDSN_ID":"https://databrussels.be/id/streetnode/3604","STRNAMEFRE":"Drève du Château","STRNAMEDUT":"Kasteeldreef","SLOPE":0.31,"LENGTH":13.103093623293},"bbox":[146096.45,174013.9814081,146109.28877093,174016.6]},{"type":"Feature","id":"StreetAxes.fid--2dded296_1a02c23f8dc_-49d2","geometry":{"type":"LineString","coordinates":[[146109.28877093,174013.9814081],[146108.507353,174009.99902154],[146108.2256862,173998.91490365],[146113.15432942,173994.81987091],[146120.58407761,173994.72641137],[146127.40636212,173996.08157478],[146152.45450958,174003.47307081],[146154.38889768,174006.88156039]]},"geometry_name":"GEOM","properties":{"INSPIRE_ID":"https://databrussels.be/id/streetaxe/82743","TYPE":"S","HIERARCHY":"DR","LVL":0,"STARTSN_ID":"https://databrussels.be/id/streetnode/7759","ENDSN_ID":"https://databrussels.be/id/streetnode/8175","STRNAMEFRE":"Drève du Château","STRNAMEDUT":"Kasteeldreef","SLOPE":0.77,"LENGTH":65.9749164983826},"bbox":[146108.2256862,173994.72641137,146154.38889768,174013.9814081]},{"type":"Feature","id":"StreetAxes.fid--2dded296_1a02c23f8dc_-49d8","geometry":{"type":"LineString","coordinates":[[146344.03978992,174161.74836135],[146350.23798921,174148.82248366],[146358.86227561,174134.23520392],[146371.80322092,174107.6610106],[146383.1249801,174083.54876334],[146393.44371198,174061.55766714],[146400.02436285,174047.14223819],[146403.70415136,174037.86345323],[146405.62514831,174030.52409422],[146406.63295488,174025.08690397]]},"geometry_name":"GEOM","properties":{"INSPIRE_ID":"https://databrussels.be/id/streetaxe/82788","TYPE":"S","HIERARCHY":"MER","LVL":0,"STARTSN_ID":"https://databrussels.be/id/streetnode/8090","ENDSN_ID":"https://databrussels.be/id/streetnode/10709","STRNAMEFRE":"Avenue de l'Exposition Universelle","STRNAMEDUT":"Wereldtentoonstellingslaan","SLOPE":1.07,"LENGTH":150.713105545976},"bbox":[146344.03978992,174025.08690397,146406.63295488,174161.74836135]},{"type":"Feature","id":"StreetAxes.fid--2dded296_1a02c23f8dc_-4a04","geometry":{"type":"LineString","coordinates":[[146395.09232475,174087.51521],[146369.0552759,174142.27416294],[146365.07826671,174155.88667532],[146359.59506648,174168.02571614]]},"geometry_name":"GEOM","properties":{"INSPIRE_ID":"https://databrussels.be/id/streetaxe/82868","TYPE":"S","HIERARCHY":"MER","LVL":0,"STARTSN_ID":"https://databrussels.be/id/streetnode/9033","ENDSN_ID":"https://databrussels.be/id/streetnode/12146","STRNAMEFRE":"Avenue de l'Exposition Universelle","STRNAMEDUT":"Wereldtentoonstellingslaan","SLOPE":0.84,"LENGTH":88.1354616019199},"bbox":[146359.59506648,174087.51521,146395.09232475,174168.02571614]},{"type":"Feature","id":"StreetAxes.fid--2dded296_1a02c23f8dc_-49e6","geometry":{"type":"LineString","coordinates":[[146477.518,174215.772],[146501.78902546,174224.53747224]]},"geometry_name":"GEOM","properties":{"INSPIRE_ID":"https://databrussels.be/id/streetaxe/83791","TYPE":"S","HIERARCHY":"DR","LVL":0,"STARTSN_ID":"https://databrussels.be/id/streetnode/11466","ENDSN_ID":"https://databrussels.be/id/streetnode/8176","STRNAMEFRE":"Drève de Rivieren","STRNAMEDUT":"de Rivierendreef","SLOPE":1.98,"LENGTH":25.8053517770692},"bbox":[146477.518,174215.772,146501.78902546,174224.53747224]},{"type":"Feature","id":"StreetAxes.fid--2dded296_1a02c23f8dc_-4a0b","geometry":{"type":"LineString","coordinates":[[146693.35573782,174498.51220118],[146680.801,174497.24],[146551.574,174482.541],[146314.138,174455.273],[146308.57165734,174454.6713432]]},"geometry_name":"GEOM","properties":{"INSPIRE_ID":"https://databrussels.be/id/streetaxe/84122","TYPE":"S","HIERARCHY":"DR","LVL":0,"STARTSN_ID":"https://databrussels.be/id/streetnode/424","ENDSN_ID":"https://databrussels.be/id/streetnode/10335","STRNAMEFRE":"Rue Antoine Baeck","STRNAMEDUT":"Antoine Baeckstraat","SLOPE":0.67,"LENGTH":387.274729926814},"bbox":[146308.57165734,174454.6713432,146693.35573782,174498.51220118]},{"type":"Feature","id":"StreetAxes.fid--2dded296_1a02c23f8dc_-4a14","geometry":{"type":"LineString","coordinates":[[146292.2524546,174612.03735695],[146291.16572009,174603.50220619],[146289.93129157,174590.42758224],[146286.15774228,174570.75020343],[146279.16958586,174539.69367227],[146272.93507444,174506.99039475],[146270.22448887,174482.57309211],[146269.59888036,174470.55022828],[146269.33311717,174458.22742889],[146269.58636603,174446.00816831],[146270.49143612,174431.87711285],[146273.93478663,174400.06651658]]},"geometry_name":"GEOM","properties":{"INSPIRE_ID":"https://databrussels.be/id/streetaxe/84201","TYPE":"S","HIERARCHY":"MER","LVL":0,"STARTSN_ID":"https://databrussels.be/id/streetnode/11755","ENDSN_ID":"https://databrussels.be/id/streetnode/8090","STRNAMEFRE":"Avenue de l'Exposition","STRNAMEDUT":"Tentoonstellingslaan","SLOPE":0.9,"LENGTH":214.208449675609},"bbox":[146269.33311717,174400.06651658,146292.2524546,174612.03735695]},{"type":"Feature","id":"StreetAxes.fid--2dded296_1a02c23f8dc_-49d0","geometry":{"type":"LineString","coordinates":[[146154.38889768,174006.88156039],[146109.28877093,174013.9814081]]},"geometry_name":"GEOM","properties":{"INSPIRE_ID":"https://databrussels.be/id/streetaxe/84579","TYPE":"S","HIERARCHY":"DR","LVL":0,"STARTSN_ID":"https://databrussels.be/id/streetnode/8175","ENDSN_ID":"https://databrussels.be/id/streetnode/7759","STRNAMEFRE":"Drève du Château","STRNAMEDUT":"Kasteeldreef","SLOPE":1.12,"LENGTH":45.6555502702404},"bbox":[146109.28877093,174006.88156039,146154.38889768,174013.9814081]},{"type":"Feature","id":"StreetAxes.fid--2dded296_1a02c23f8dc_-49c9","geometry":{"type":"LineString","coordinates":[[146152.08299499,174129.82311177],[146163.47569144,174137.87975514],[146159.67469144,174145.47175514],[146157.65817587,174147.83078917],[146155.0122447,174151.1118696]]},"geometry_name":"GEOM","properties":{"INSPIRE_ID":"https://databrussels.be/id/streetaxe/84645","TYPE":"S","HIERARCHY":"DR","LVL":0,"STARTSN_ID":"https://databrussels.be/id/streetnode/8179","ENDSN_ID":"https://databrussels.be/id/streetnode/9032","STRNAMEFRE":"Avenue Richard Mazza","STRNAMEDUT":"Richard Mazzalaan","SLOPE":1.24,"LENGTH":29.7624257148545},"bbox":[146152.08299499,174129.82311177,146163.47569144,174151.1118696]},{"type":"Feature","id":"StreetAxes.fid--2dded296_1a02c23f8dc_-49c1","geometry":{"type":"LineString","coordinates":[[145992.06066988,174293.98562099],[146002.36202646,174288.05826985]]},"geometry_name":"GEOM","properties":{"INSPIRE_ID":"https://databrussels.be/id/streetaxe/85015","TYPE":"S","HIERARCHY":"DR","LVL":0,"STARTSN_ID":"https://databrussels.be/id/streetnode/10708","ENDSN_ID":"https://databrussels.be/id/streetnode/9470","STRNAMEFRE":"Avenue des Quatre-vingts Hêtres","STRNAMEDUT":"Tachtigbeukenlaan","SLOPE":1.01,"LENGTH":11.884924858153},"bbox":[145992.06066988,174288.05826985,146002.36202646,174293.98562099]},{"type":"Feature","id":"StreetAxes.fid--2dded296_1a02c23f8dc_-49d9","geometry":{"type":"LineString","coordinates":[[146406.63295488,174025.08690397],[146391.528,174024.054],[146374.013,174023.732],[146365.868,174025.607],[146359.56,174028.392],[146356.431,174030.65],[146354.867,174035.384]]},"geometry_name":"GEOM","properties":{"INSPIRE_ID":"https://databrussels.be/id/streetaxe/85017","TYPE":"S","HIERARCHY":null,"LVL":0,"STARTSN_ID":"https://databrussels.be/id/streetnode/10709","ENDSN_ID":"https://databrussels.be/id/streetnode/13343","STRNAMEFRE":"Place des Sorbiers","STRNAMEDUT":"Sorbeboomplein","SLOPE":0.59,"LENGTH":56.755975934418},"bbox":[146354.867,174023.732,146406.63295488,174035.384]},{"type":"Feature","id":"StreetAxes.fid--2dded296_1a02c23f8dc_-49d1","geometry":{"type":"LineString","coordinates":[[146196.59056594,174002.84710046],[146191.70654752,174001.70690146],[146174.38276852,174003.86771846],[146154.38889768,174006.88156039]]},"geometry_name":"GEOM","properties":{"INSPIRE_ID":"https://databrussels.be/id/streetaxe/85022","TYPE":"S","HIERARCHY":"DR","LVL":0,"STARTSN_ID":"https://databrussels.be/id/streetnode/10713","ENDSN_ID":"https://databrussels.be/id/streetnode/8175","STRNAMEFRE":"Drève du Château","STRNAMEDUT":"Kasteeldreef","SLOPE":0.82,"LENGTH":42.6931106942549},"bbox":[146154.38889768,174001.70690146,146196.59056594,174006.88156039]},{"type":"Feature","id":"StreetAxes.fid--2dded296_1a02c23f8dc_-49e0","geometry":{"type":"LineString","coordinates":[[146196.59056594,174002.84710046],[146197.33403588,173998.74864717],[146199.66326789,173995.53981147],[146202.67568686,173993.75744849],[146205.46032913,173993.32512823]]},"geometry_name":"GEOM","properties":{"INSPIRE_ID":"https://databrussels.be/id/streetaxe/85023","TYPE":"S","HIERARCHY":"DR","LVL":0,"STARTSN_ID":"https://databrussels.be/id/streetnode/10713","ENDSN_ID":"https://databrussels.be/id/streetnode/9028","STRNAMEFRE":"Drève du Château","STRNAMEDUT":"Kasteeldreef","SLOPE":1.87,"LENGTH":14.4486462814071},"bbox":[146196.59056594,173993.32512823,146205.46032913,174002.84710046]},{"type":"Feature","id":"StreetAxes.fid--2dded296_1a02c23f8dc_-49c5","geometry":{"type":"LineString","coordinates":[[146134.48962791,174149.7827661],[146129.6,174152.789],[146112.54880266,174164.24247253],[146087.04558862,174183.27707193],[146063.78971663,174203.42767924],[146046.21891445,174225.89932386],[146039.92723505,174235.78553844],[146033.09041445,174249.53232386],[146026.87358932,174261.26032306],[146020.19113611,174270.03693941],[146009.21055381,174282.18875363],[146002.36202646,174288.05826985]]},"geometry_name":"GEOM","properties":{"INSPIRE_ID":"https://databrussels.be/id/streetaxe/85024","TYPE":"S","HIERARCHY":null,"LVL":0,"STARTSN_ID":"https://databrussels.be/id/streetnode/8170","ENDSN_ID":"https://databrussels.be/id/streetnode/9470","STRNAMEFRE":"Avenue Mathieu De Jonge","STRNAMEDUT":"Mathieu De Jongelaan","SLOPE":1.65,"LENGTH":194.175178189075},"bbox":[146002.36202646,174149.7827661,146134.48962791,174288.05826985]},{"type":"Feature","id":"StreetAxes.fid--2dded296_1a02c23f8dc_-4a00","geometry":{"type":"LineString","coordinates":[[146430.78922066,174109.17243885],[146426.33781606,174118.31406229],[146442.49548129,174126.18184483]]},"geometry_name":"GEOM","properties":{"INSPIRE_ID":"https://databrussels.be/id/streetaxe/85025","TYPE":"S","HIERARCHY":"DR","LVL":0,"STARTSN_ID":"https://databrussels.be/id/streetnode/8171","ENDSN_ID":"https://databrussels.be/id/streetnode/8180","STRNAMEFRE":"Place du Home","STRNAMEDUT":"Homeplein","SLOPE":1.07,"LENGTH":28.1392320249626},"bbox":[146426.33781606,174109.17243885,146442.49548129,174126.18184483]},{"type":"Feature","id":"StreetAxes.fid--2dded296_1a02c23f8dc_-4a03","geometry":{"type":"LineString","coordinates":[[146426.04963628,174101.3820395],[146427.9855,174105.097],[146430.78922066,174109.17243885]]},"geometry_name":"GEOM","properties":{"INSPIRE_ID":"https://databrussels.be/id/streetaxe/85222","TYPE":"S","HIERARCHY":"DR","LVL":0,"STARTSN_ID":"https://databrussels.be/id/streetnode/9459","ENDSN_ID":"https://databrussels.be/id/streetnode/8171","STRNAMEFRE":"Place du Home","STRNAMEDUT":"Homeplein","SLOPE":0.55,"LENGTH":9.135814234257},"bbox":[146426.04963628,174101.3820395,146430.78922066,174109.17243885]},{"type":"Feature","id":"StreetAxes.fid--2dded296_1a02c23f8dc_-4a05","geometry":{"type":"LineString","coordinates":[[146426.04963628,174101.3820395],[146395.09232475,174087.51521]]},"geometry_name":"GEOM","properties":{"INSPIRE_ID":"https://databrussels.be/id/streetaxe/85223","TYPE":"S","HIERARCHY":"DR","LVL":0,"STARTSN_ID":"https://databrussels.be/id/streetnode/9459","ENDSN_ID":"https://databrussels.be/id/streetnode/9033","STRNAMEFRE":"Place du Home","STRNAMEDUT":"Homeplein","SLOPE":0.3,"LENGTH":33.9211452877272},"bbox":[146395.09232475,174087.51521,146426.04963628,174101.3820395]},{"type":"Feature","id":"StreetAxes.fid--2dded296_1a02c23f8dc_-49c2","geometry":{"type":"LineString","coordinates":[[146002.36202646,174288.05826985],[146006.00654886,174295.90033755],[146007.39728204,174302.95573901],[146006.1820541,174308.72416803],[145995.67810463,174314.04467598],[145992.8471251,174312.48896697],[145986.60199903,174306.70267286],[145982.01902953,174299.98584551]]},"geometry_name":"GEOM","properties":{"INSPIRE_ID":"https://databrussels.be/id/streetaxe/85227","TYPE":"S","HIERARCHY":"DR","LVL":0,"STARTSN_ID":"https://databrussels.be/id/streetnode/9470","ENDSN_ID":"https://databrussels.be/id/streetnode/8332","STRNAMEFRE":"Avenue des Quatre-vingts Hêtres","STRNAMEDUT":"Tachtigbeukenlaan","SLOPE":0.39,"LENGTH":53.3837051995489},"bbox":[145982.01902953,174288.05826985,146007.39728204,174314.04467598]},{"type":"Feature","id":"StreetAxes.fid--2dded296_1a02c23f8dc_-4a0d","geometry":{"type":"LineString","coordinates":[[146304.5085629,174426.66941586],[146310.65313042,174427.47971828]]},"geometry_name":"GEOM","properties":{"INSPIRE_ID":"https://databrussels.be/id/streetaxe/85277","TYPE":"S","HIERARCHY":"DR","LVL":0,"STARTSN_ID":"https://databrussels.be/id/streetnode/12330","ENDSN_ID":"https://databrussels.be/id/streetnode/10849","STRNAMEFRE":"Avenue de l'Exposition","STRNAMEDUT":"Tentoonstellingslaan","SLOPE":0.32,"LENGTH":6.19776572681036},"bbox":[146304.5085629,174426.66941586,146310.65313042,174427.47971828]},{"type":"Feature","id":"StreetAxes.fid--2dded296_1a02c23f8dc_-4a0c","geometry":{"type":"LineString","coordinates":[[146308.57165734,174454.6713432],[146308.1555854,174446.4187387],[146310.65313042,174427.47971828]]},"geometry_name":"GEOM","properties":{"INSPIRE_ID":"https://databrussels.be/id/streetaxe/85280","TYPE":"S","HIERARCHY":"DR","LVL":0,"STARTSN_ID":"https://databrussels.be/id/streetnode/10335","ENDSN_ID":"https://databrussels.be/id/streetnode/10849","STRNAMEFRE":"Rue Antoine Baeck","STRNAMEDUT":"Antoine Baeckstraat","SLOPE":6.32,"LENGTH":27.366076372835},"bbox":[146308.1555854,174427.47971828,146310.65313042,174454.6713432]},{"type":"Feature","id":"StreetAxes.fid--2dded296_1a02c23f8dc_-49d4","geometry":{"type":"LineString","coordinates":[[146405.0162196,174066.31955843],[146395.09232475,174087.51521]]},"geometry_name":"GEOM","properties":{"INSPIRE_ID":"https://databrussels.be/id/streetaxe/85695","TYPE":"S","HIERARCHY":"MER","LVL":0,"STARTSN_ID":"https://databrussels.be/id/streetnode/11474","ENDSN_ID":"https://databrussels.be/id/streetnode/9033","STRNAMEFRE":"Avenue de l'Exposition Universelle","STRNAMEDUT":"Wereldtentoonstellingslaan","SLOPE":0.94,"LENGTH":23.4038316230616},"bbox":[146395.09232475,174066.31955843,146405.0162196,174087.51521]},{"type":"Feature","id":"StreetAxes.fid--2dded296_1a02c23f8dc_-4a11","geometry":{"type":"LineString","coordinates":[[146286.81774586,174491.08898105],[146286.23058588,174482.42493162],[146285.80048016,174469.8590558],[146286.55708958,174445.11934902],[146287.89499172,174431.69154366],[146291.76047307,174401.54532296]]},"geometry_name":"GEOM","properties":{"INSPIRE_ID":"https://databrussels.be/id/streetaxe/86299","TYPE":"S","HIERARCHY":null,"LVL":0,"STARTSN_ID":"https://databrussels.be/id/streetnode/8721","ENDSN_ID":"https://databrussels.be/id/streetnode/12146","STRNAMEFRE":"Avenue de l'Exposition","STRNAMEDUT":"Tentoonstellingslaan","SLOPE":1.92,"LENGTH":89.8957583599962},"bbox":[146285.80048016,174401.54532296,146291.76047307,174491.08898105]},{"type":"Feature","id":"StreetAxes.fid--2dded296_1a02c23f8dc_-49df","geometry":{"type":"LineString","coordinates":[[146214.29292038,173998.60588627],[146214.80102997,174004.033865],[146213.05684624,174008.16542947]]},"geometry_name":"GEOM","properties":{"INSPIRE_ID":"https://databrussels.be/id/streetaxe/86700","TYPE":"S","HIERARCHY":"DR","LVL":0,"STARTSN_ID":"https://databrussels.be/id/streetnode/8094","ENDSN_ID":"https://databrussels.be/id/streetnode/8328","STRNAMEFRE":"Drève de Rivieren","STRNAMEDUT":"de Rivierendreef","SLOPE":1.81,"LENGTH":9.93634942341957},"bbox":[146213.05684624,173998.60588627,146214.80102997,174008.16542947]},{"type":"Feature","id":"StreetAxes.fid--2dded296_1a02c23f8dc_-4a15","geometry":{"type":"LineString","coordinates":[[146430.78,174375.298],[146436.908,174376.025],[146531.881,174386.29],[146539.43176178,174387.01917266]]},"geometry_name":"GEOM","properties":{"INSPIRE_ID":"https://databrussels.be/id/streetaxe/86889","TYPE":"S","HIERARCHY":"DR","LVL":0,"STARTSN_ID":"https://databrussels.be/id/streetnode/11467","ENDSN_ID":"https://databrussels.be/id/streetnode/12170","STRNAMEFRE":"Drève de la Charte","STRNAMEDUT":"Keuredreef","SLOPE":0.9,"LENGTH":109.282988460274},"bbox":[146430.78,174375.298,146539.43176178,174387.01917266]},{"type":"Feature","id":"StreetAxes.fid--2dded296_1a02c23f8dc_-49db","geometry":{"type":"LineString","coordinates":[[146213.05684624,174008.16542947],[146210.75315063,174010.12155523],[146206.832051,174011.52691802],[146202.88850176,174011.11416178]]},"geometry_name":"GEOM","properties":{"INSPIRE_ID":"https://databrussels.be/id/streetaxe/87367","TYPE":"S","HIERARCHY":"DR","LVL":0,"STARTSN_ID":"https://databrussels.be/id/streetnode/8328","ENDSN_ID":"https://databrussels.be/id/streetnode/9472","STRNAMEFRE":"Drève de Rivieren","STRNAMEDUT":"de Rivierendreef","SLOPE":0.9,"LENGTH":11.1525907777821},"bbox":[146202.88850176,174008.16542947,146213.05684624,174011.52691802]},{"type":"Feature","id":"StreetAxes.fid--2dded296_1a02c23f8dc_-49cf","geometry":{"type":"LineString","coordinates":[[146202.88850176,174011.11416178],[146200.295,174017.871],[146195.37,174029.486],[146187.681,174041.82],[146180.446,174050.156],[146146.494,174080.978],[146137.869,174088.159]]},"geometry_name":"GEOM","properties":{"INSPIRE_ID":"https://databrussels.be/id/streetaxe/87927","TYPE":"S","HIERARCHY":"DR","LVL":0,"STARTSN_ID":"https://databrussels.be/id/streetnode/9472","ENDSN_ID":"https://databrussels.be/id/streetnode/13344","STRNAMEFRE":"Avenue Mathieu De Jonge","STRNAMEDUT":"Mathieu De Jongelaan","SLOPE":2.03,"LENGTH":102.504378813112},"bbox":[146137.869,174011.11416178,146202.88850176,174088.159]},{"type":"Feature","id":"StreetAxes.fid--2dded296_1a02c23f8dc_-49de","geometry":{"type":"LineString","coordinates":[[146202.88850176,174011.11416178],[146199.83872066,174009.39651191],[146197.64429324,174006.66961365],[146196.59056594,174002.84710046]]},"geometry_name":"GEOM","properties":{"INSPIRE_ID":"https://databrussels.be/id/streetaxe/87928","TYPE":"S","HIERARCHY":"DR","LVL":0,"STARTSN_ID":"https://databrussels.be/id/streetnode/9472","ENDSN_ID":"https://databrussels.be/id/streetnode/10713","STRNAMEFRE":"Avenue Mathieu De Jonge","STRNAMEDUT":"Mathieu De Jongelaan","SLOPE":1.28,"LENGTH":10.965515720861},"bbox":[146196.59056594,174002.84710046,146202.88850176,174011.11416178]},{"type":"Feature","id":"StreetAxes.fid--2dded296_1a02c23f8dc_-49d7","geometry":{"type":"LineString","coordinates":[[146324.41387103,174027.34113589],[146344.56533336,174050.33716973],[146350.8262532,174048.13350222],[146354.867,174035.384]]},"geometry_name":"GEOM","properties":{"INSPIRE_ID":"https://databrussels.be/id/streetaxe/87930","TYPE":"S","HIERARCHY":"DR","LVL":0,"STARTSN_ID":"https://databrussels.be/id/streetnode/9474","ENDSN_ID":"https://databrussels.be/id/streetnode/13343","STRNAMEFRE":"Place des Sorbiers","STRNAMEDUT":"Sorbeboomplein","SLOPE":0.38,"LENGTH":50.5880396297702},"bbox":[146324.41387103,174027.34113589,146354.867,174050.33716973]},{"type":"Feature","id":"StreetAxes.fid--2dded296_1a02c23f8dc_-4a01","geometry":{"type":"LineString","coordinates":[[146442.49548129,174126.18184483],[146446.94688589,174117.04022139],[146430.78922066,174109.17243885]]},"geometry_name":"GEOM","properties":{"INSPIRE_ID":"https://databrussels.be/id/streetaxe/89380","TYPE":"S","HIERARCHY":"DR","LVL":0,"STARTSN_ID":"https://databrussels.be/id/streetnode/8180","ENDSN_ID":"https://databrussels.be/id/streetnode/8171","STRNAMEFRE":"Place du Home","STRNAMEDUT":"Homeplein","SLOPE":1.07,"LENGTH":28.1392320244672},"bbox":[146430.78922066,174109.17243885,146446.94688589,174126.18184483]},{"type":"Feature","id":"StreetAxes.fid--2dded296_1a02c23f8dc_-49e1","geometry":{"type":"LineString","coordinates":[[146269.1012481,173988.49349631],[146269.83521933,173993.74793024],[146270.19845855,173995.36876473],[146270.76173908,173997.73365122],[146271.27265667,174000.01345138],[146271.76866957,174002.88886458],[146275.17650969,174003.45820927],[146280.45194903,174002.75364686],[146286.31363959,174001.93822408],[146291.75026159,174001.21213488],[146296.90863744,174000.49455058],[146300.18336657,174000.05719344],[146300.12526573,173996.97665619],[146299.64626573,173992.83665619],[146299.26668617,173989.9197816],[146298.48925691,173984.35423555]]},"geometry_name":"GEOM","properties":{"INSPIRE_ID":"https://databrussels.be/id/streetaxe/89385","TYPE":"S","HIERARCHY":"DR","LVL":0,"STARTSN_ID":"https://databrussels.be/id/streetnode/8184","ENDSN_ID":"https://databrussels.be/id/streetnode/8087","STRNAMEFRE":"Drève du Château","STRNAMEDUT":"Kasteeldreef","SLOPE":0.12,"LENGTH":59.1537513668427},"bbox":[146269.1012481,173984.35423555,146300.18336657,174003.45820927]},{"type":"Feature","id":"StreetAxes.fid--2dded296_1a02c23f8dc_-49fc","geometry":{"type":"LineString","coordinates":[[146351.60843722,174164.80270013],[146344.03978992,174161.74836135]]},"geometry_name":"GEOM","properties":{"INSPIRE_ID":"https://databrussels.be/id/streetaxe/91229","TYPE":"I","HIERARCHY":"MER","LVL":0,"STARTSN_ID":"https://databrussels.be/id/streetnode/12146","ENDSN_ID":"https://databrussels.be/id/streetnode/8090","STRNAMEFRE":"Avenue de l'Exposition Universelle","STRNAMEDUT":"Wereldtentoonstellingslaan","SLOPE":0.24,"LENGTH":8.16170370778141},"bbox":[146344.03978992,174161.74836135,146351.60843722,174164.80270013]},{"type":"Feature","id":"StreetAxes.fid--2dded296_1a02c23f8dc_-49f2","geometry":{"type":"LineString","coordinates":[[146228.48210189,174233.61925628],[146234.87548256,174240.71946024],[146241.552,174247.684]]},"geometry_name":"GEOM","properties":{"INSPIRE_ID":"https://databrussels.be/id/streetaxe/91723","TYPE":"I","HIERARCHY":"DR","LVL":0,"STARTSN_ID":"https://databrussels.be/id/streetnode/2519","ENDSN_ID":"https://databrussels.be/id/streetnode/12263","STRNAMEFRE":"Avenue Richard Mazza","STRNAMEDUT":"Richard Mazzalaan","SLOPE":1.16,"LENGTH":19.2023204313662},"bbox":[146228.48210189,174233.61925628,146241.552,174247.684]},{"type":"Feature","id":"StreetAxes.fid--2dded296_1a02c23f8dc_-49e9","geometry":{"type":"LineString","coordinates":[[146359.58775717,174335.56298835],[146359.16848043,174340.73324249],[146359.74933245,174344.34881299],[146360.45883042,174346.16241255]]},"geometry_name":"GEOM","properties":{"INSPIRE_ID":"https://databrussels.be/id/streetaxe/91781","TYPE":"I","HIERARCHY":"DR","LVL":0,"STARTSN_ID":"https://databrussels.be/id/streetnode/10705","ENDSN_ID":"https://databrussels.be/id/streetnode/8329","STRNAMEFRE":"Drève de la Charte","STRNAMEDUT":"Keuredreef","SLOPE":1.11,"LENGTH":10.7965998678067},"bbox":[146359.16848043,174335.56298835,146360.45883042,174346.16241255]},{"type":"Feature","id":"StreetAxes.fid--2dded296_1a02c23f8dc_-49f0","geometry":{"type":"LineString","coordinates":[[146254.89689893,174265.32315239],[146249.62218794,174259.05771513],[146245.25289147,174253.9768676],[146241.55175549,174247.68374494]]},"geometry_name":"GEOM","properties":{"INSPIRE_ID":"https://databrussels.be/id/streetaxe/91787","TYPE":"I","HIERARCHY":"DR","LVL":0,"STARTSN_ID":"https://databrussels.be/id/streetnode/12266","ENDSN_ID":"https://databrussels.be/id/streetnode/12263","STRNAMEFRE":"Avenue des Troubadours","STRNAMEDUT":"Troubadourslaan","SLOPE":1.04,"LENGTH":22.1921175476662},"bbox":[146241.55175549,174247.68374494,146254.89689893,174265.32315239]},{"type":"Feature","id":"StreetAxes.fid--2dded296_1a02c23f8dc_-49ef","geometry":{"type":"LineString","coordinates":[[146260.51493375,174248.91005823],[146259.83083422,174253.79262468],[146258.04668187,174258.02122126],[146254.89689893,174265.32315239]]},"geometry_name":"GEOM","properties":{"INSPIRE_ID":"https://databrussels.be/id/streetaxe/91788","TYPE":"I","HIERARCHY":"DR","LVL":0,"STARTSN_ID":"https://databrussels.be/id/streetnode/12267","ENDSN_ID":"https://databrussels.be/id/streetnode/12266","STRNAMEFRE":"Avenue des Troubadours","STRNAMEDUT":"Troubadourslaan","SLOPE":2.35,"LENGTH":17.4721526709527},"bbox":[146254.89689893,174248.91005823,146260.51493375,174265.32315239]},{"type":"Feature","id":"StreetAxes.fid--2dded296_1a02c23f8dc_-49f1","geometry":{"type":"LineString","coordinates":[[146241.55175549,174247.68374494],[146251.64027528,174247.10535533],[146260.51493375,174248.91005823]]},"geometry_name":"GEOM","properties":{"INSPIRE_ID":"https://databrussels.be/id/streetaxe/91934","TYPE":"I","HIERARCHY":"DR","LVL":0,"STARTSN_ID":"https://databrussels.be/id/streetnode/12263","ENDSN_ID":"https://databrussels.be/id/streetnode/12267","STRNAMEFRE":"Avenue des Troubadours","STRNAMEDUT":"Troubadourslaan","SLOPE":0.94,"LENGTH":19.1613831531159},"bbox":[146241.55175549,174247.10535533,146260.51493375,174248.91005823]},{"type":"Feature","id":"StreetAxes.fid--2dded296_1a02c23f8dc_-4a0e","geometry":{"type":"LineString","coordinates":[[146253.60271243,174420.47103374],[146304.5085629,174426.66941586]]},"geometry_name":"GEOM","properties":{"INSPIRE_ID":"https://databrussels.be/id/streetaxe/94691","TYPE":"S","HIERARCHY":"DR","LVL":1,"STARTSN_ID":"https://databrussels.be/id/streetnode/11754","ENDSN_ID":"https://databrussels.be/id/streetnode/12330","STRNAMEFRE":"Avenue de l'Exposition","STRNAMEDUT":"Tentoonstellingslaan","SLOPE":0.55,"LENGTH":51.2818247824317},"bbox":[146253.60271243,174420.47103374,146304.5085629,174426.66941586]},{"type":"Feature","id":"StreetAxes.fid--2dded296_1a02c23f8dc_-4a09","geometry":{"type":"LineString","coordinates":[[146298.62544488,174488.16455902],[146302.18297095,174494.45905887],[146315.43298747,174501.05281238],[146320.81175516,174502.1607103],[146325.97701657,174502.43323838],[146329.97386052,174502.32347974],[146333.45902316,174501.12319355],[146336.02919232,174499.01826361],[146339.27068145,174497.8954822],[146343.18286628,174497.99156042],[146350.30085652,174498.13061884],[146357.39994459,174498.27830861],[146364.47694253,174498.54912226],[146371.31942684,174498.95829745],[146378.1567195,174499.48309401],[146384.97981354,174500.13912246],[146388.55708511,174500.55436809],[146392.1477275,174501.00856389],[146395.75340941,174501.45651826],[146400.94879917,174502.06249682],[146406.14154544,174502.65180849],[146411.33129129,174503.23889286],[146417.26816288,174503.90699094],[146423.20396223,174504.57185646],[146429.13426653,174505.24832082],[146434.67961891,174505.90277232],[146440.22803979,174506.56870281],[146445.78012832,174507.22806961],[146452.40030931,174507.99643881],[146459.01950376,174508.7555758],[146465.63746632,174509.51357151],[146470.78859704,174510.10458651],[146475.93874875,174510.69360386],[146503.00446341,174513.7408447],[146505.35881327,174514.08306941],[146505.78306686,174514.28876811],[146506.03166738,174514.4445368],[146506.18088053,174514.54052742],[146506.44127428,174514.69993196],[146506.75186384,174514.89823145],[146507.09826368,174515.14388552],[146507.44405845,174515.43500918],[146507.71984731,174515.69363276],[146508.01067177,174515.9664309],[146521.46910943,174529.65554436],[146521.85083134,174530.03046499],[146522.14429898,174530.29234121],[146522.40668802,174530.50741419],[146522.59476434,174530.63007266],[146523.20566484,174531.00179091],[146523.49880883,174531.11845026],[146523.83196032,174531.25148345],[146524.27208127,174531.39917504],[146525.06897131,174531.55196718],[146525.79952687,174531.60725882],[146526.46091522,174531.64022191],[146527.49858939,174531.66655882],[146528.51350232,174531.64907805],[146529.46662411,174531.63942129],[146532.12764684,174531.70828325],[146534.81510769,174531.83152479],[146537.51912047,174531.95852539],[146541.51042296,174532.14149342],[146545.50555385,174532.33269111],[146549.5141379,174532.49532337],[146553.8893234,174532.61777638],[146558.25869756,174532.70496343],[146562.62631388,174532.77508571],[146566.33620174,174532.81315639],[146570.03538123,174532.84012854],[146573.7179668,174532.89581981],[146577.69403971,174533.02812346],[146581.6916286,174533.19514807],[146585.71084857,174533.32587076],[146589.88856913,174533.38217698],[146594.05351538,174533.39720565],[146598.20836253,174533.41120177],[146602.34521031,174533.43219592],[146606.48031066,174533.45218674],[146610.61411118,174533.48315528],[146615.12956603,174533.52910902],[146619.64208993,174533.58900978],[146624.14785452,174533.67772948],[146627.98838679,174533.79830665],[146631.84504003,174533.94040441],[146635.71585304,174534.04884742],[146636.56368252,174534.06301164],[146638.2416275,174534.08902628],[146638.86767637,174534.16437291],[146639.51964841,174534.20771476],[146640.09512699,174534.28510387],[146640.45414499,174534.36599848],[146640.86321625,174534.47933424],[146641.28417085,174534.60497864],[146641.98618626,174534.83742789],[146642.6898333,174535.09880957],[146643.39299912,174535.37321574],[146644.68358499,174535.92231894],[146645.98919225,174536.52460211],[146647.35688698,174537.1341855],[146649.07128232,174537.8096778],[146650.739696,174538.43731914],[146652.36220644,174539.10569949],[146653.73066925,174539.69664881],[146655.01382929,174540.29279904],[146656.14224846,174540.97859798],[146656.58201854,174541.32721571],[146657.07103354,174541.75717984],[146657.56953259,174542.21079487],[146658.47571755,174543.07350615],[146659.36144391,174543.97285906],[146660.2524272,174544.89750173],[146661.26664156,174545.96123827],[146662.26800353,174547.03787572],[146663.26337584,174548.11941459],[146664.61945593,174549.63024851],[146665.97931511,174551.16961713],[146667.38586878,174552.71396814],[146669.40170672,174554.76640224],[146671.43028988,174556.74792547],[146673.39623616,174558.73162741],[146675.31472655,174560.79412788],[146677.21210296,174562.90408991],[146679.09999898,174565.03195585],[146681.6403907,174567.94493834],[146686.67833863,174573.83603074],[146689.26534105,174577.40174088],[146691.11689595,174581.56356482],[146693.4436599,174585.9129868],[146695.3511743,174589.51906878],[146698.22825946,174594.91537755],[146700.14694842,174597.72855536],[146702.51652289,174600.80315265],[146704.54007087,174603.05325562],[146707.0746797,174605.64248964],[146709.90058094,174609.00492651],[146718.25366326,174611.29705962],[146719.03908038,174611.51279651],[146727.451,174613.781]]},"geometry_name":"GEOM","properties":{"INSPIRE_ID":"https://databrussels.be/id/streetaxe/94698","TYPE":"S","HIERARCHY":"DR","LVL":0,"STARTSN_ID":"https://databrussels.be/id/streetnode/10852","ENDSN_ID":"https://databrussels.be/id/streetnode/10332","STRNAMEFRE":"Promenade verte","STRNAMEDUT":"Groene wandeling","SLOPE":0.07,"LENGTH":478.716329817414},"bbox":[146298.62544488,174488.16455902,146727.451,174613.781]},{"type":"Feature","id":"StreetAxes.fid--2dded296_1a02c23f8dc_-4a0f","geometry":{"type":"LineString","coordinates":[[146251.77427736,174606.0236011],[146252.03505002,174605.06917783],[146255.38951074,174603.2687159],[146259.66616515,174601.21164544],[146264.95396653,174598.34170037],[146268.48950804,174595.183837],[146270.4123449,174592.62908821],[146271.93735345,174589.17851841],[146272.99906263,174586.17095863],[146273.46319566,174582.50737279],[146273.24770533,174578.87432094],[146268.19106396,174551.3407206],[146265.62538212,174536.72506458],[146264.55813049,174530.86166208],[146263.24817339,174526.3908517],[146259.41907584,174520.00397972],[146256.72770479,174515.15219105],[146255.56012012,174511.70004667],[146255.10323916,174506.71861692],[146255.54041972,174498.65756637],[146255.07941784,174492.7235082],[146254.30507344,174486.30108777],[146253.94324651,174482.41967813],[146253.93799763,174476.43126702],[146253.92873901,174465.86817037],[146253.91335787,174464.32698011],[146252.95807898,174435.18194674],[146252.7353436,174427.17046458],[146252.63395654,174426.04723266],[146252.54117966,174425.0204324],[146252.40051157,174423.92746363],[146251.99444467,174421.86149032],[146251.54188863,174420.22010437],[146253.60271243,174420.47103374]]},"geometry_name":"GEOM","properties":{"INSPIRE_ID":"https://databrussels.be/id/streetaxe/94781","TYPE":"S","HIERARCHY":null,"LVL":0,"STARTSN_ID":"https://databrussels.be/id/streetnode/12112","ENDSN_ID":"https://databrussels.be/id/streetnode/11754","STRNAMEFRE":"Promenade verte","STRNAMEDUT":"Groene wandeling","SLOPE":1.6,"LENGTH":201.689242254599},"bbox":[146251.54188863,174420.22010437,146273.46319566,174606.0236011]}],"numberReturned":88,"grand_bruxelles_source":{"authority":"Paradigm / Brussels-Capital Region","service":"https://geoservices-urbis.irisnet.be/geoserver/urbisvector/wfs","layer":"urbisvector:StreetAxes","crs":"EPSG:31370","bbox":[146000.0,174000.0,146500.0,174500.0],"cell_id":"bxl-e146000-n174000-s500","ownership":"bbox_intersection_source_unclipped"}}
