{"type":"FeatureCollection","features":[{"type":"Feature","id":"StreetAxes.fid-5b06f2a0_19ff5230227_4cfb","geometry":{"type":"LineString","coordinates":[[151473.37532722,170970.90637292],[151477.1656637,170979.79303323],[151523.40455509,171028.90820063],[151529.67574058,171035.63254028]]},"geometry_name":"GEOM","properties":{"INSPIRE_ID":"https://databrussels.be/id/streetaxe/93238","TYPE":"S","HIERARCHY":"DC","LVL":0,"STARTSN_ID":"https://databrussels.be/id/streetnode/11962","ENDSN_ID":"https://databrussels.be/id/streetnode/11961","STRNAMEFRE":"Place des Chasseurs Ardennais","STRNAMEDUT":"Ardense Jagersplein","SLOPE":4.07,"LENGTH":86.31220887859},"bbox":[151473.37532722,170970.90637292,151529.67574058,171035.63254028]},{"type":"Feature","id":"StreetAxes.fid-5b06f2a0_19ff5230227_4cfc","geometry":{"type":"LineString","coordinates":[[151473.37532722,170970.90637292],[151460.806,170983.22],[151348.245,171090.113],[151342.474,171095.594]]},"geometry_name":"GEOM","properties":{"INSPIRE_ID":"https://databrussels.be/id/streetaxe/81428","TYPE":"S","HIERARCHY":"IDR","LVL":0,"STARTSN_ID":"https://databrussels.be/id/streetnode/11962","ENDSN_ID":"https://databrussels.be/id/streetnode/2260","STRNAMEFRE":"Rue du Noyer","STRNAMEDUT":"Notelaarstraat","SLOPE":1.13,"LENGTH":180.784002477676},"bbox":[151342.474,170970.90637292,151473.37532722,171095.594]},{"type":"Feature","id":"StreetAxes.fid-5b06f2a0_19ff5230227_4cfd","geometry":{"type":"LineString","coordinates":[[150933.40950473,170963.54157401],[150944.86990657,170965.02221901],[151023.108,170986.049],[151035.573,170985.319]]},"geometry_name":"GEOM","properties":{"INSPIRE_ID":"https://databrussels.be/id/streetaxe/80200","TYPE":"S","HIERARCHY":"DC","LVL":0,"STARTSN_ID":"https://databrussels.be/id/streetnode/6941","ENDSN_ID":"https://databrussels.be/id/streetnode/3754","STRNAMEFRE":"Rue de Gravelines","STRNAMEDUT":"Grevelingenstraat","SLOPE":5.36,"LENGTH":105.056359953159},"bbox":[150933.40950473,170963.54157401,151035.573,170986.049]},{"type":"Feature","id":"StreetAxes.fid-5b06f2a0_19ff5230227_4cfe","geometry":{"type":"LineString","coordinates":[[150970.50967121,170804.66335265],[150978.64300631,170805.20226185],[151032.22946632,170807.67874751],[151044.11215127,170808.21324676]]},"geometry_name":"GEOM","properties":{"INSPIRE_ID":"https://databrussels.be/id/streetaxe/93255","TYPE":"S","HIERARCHY":"DC","LVL":0,"STARTSN_ID":"https://databrussels.be/id/streetnode/6942","ENDSN_ID":"https://databrussels.be/id/streetnode/3098","STRNAMEFRE":"Square Ambiorix","STRNAMEDUT":"Ambiorixsquare","SLOPE":3.08,"LENGTH":73.6895241374038},"bbox":[150970.50967121,170804.66335265,151044.11215127,170808.21324676]},{"type":"Feature","id":"StreetAxes.fid-5b06f2a0_19ff5230227_4cff","geometry":{"type":"LineString","coordinates":[[151035.573,170985.319],[151034.895,170996.605],[151032.269,171055.652],[151031.714,171067.32]]},"geometry_name":"GEOM","properties":{"INSPIRE_ID":"https://databrussels.be/id/streetaxe/71892","TYPE":"S","HIERARCHY":"DR","LVL":0,"STARTSN_ID":"https://databrussels.be/id/streetnode/3754","ENDSN_ID":"https://databrussels.be/id/streetnode/1917","STRNAMEFRE":"Rue de Pavie","STRNAMEDUT":"Paviastraat","SLOPE":0.04,"LENGTH":82.092903261271},"bbox":[151031.714,170985.319,151035.573,171067.32]},{"type":"Feature","id":"StreetAxes.fid-5b06f2a0_19ff5230227_4d00","geometry":{"type":"LineString","coordinates":[[151044.11215127,170808.21324676],[151043.84,170814.667],[151036.151,170975.689],[151035.573,170985.319]]},"geometry_name":"GEOM","properties":{"INSPIRE_ID":"https://databrussels.be/id/streetaxe/93254","TYPE":"S","HIERARCHY":"DR","LVL":0,"STARTSN_ID":"https://databrussels.be/id/streetnode/3098","ENDSN_ID":"https://databrussels.be/id/streetnode/3754","STRNAMEFRE":"Rue de Pavie","STRNAMEDUT":"Paviastraat","SLOPE":0.69,"LENGTH":177.312294445301},"bbox":[151035.573,170808.21324676,151044.11215127,170985.319]},{"type":"Feature","id":"StreetAxes.fid-5b06f2a0_19ff5230227_4d01","geometry":{"type":"LineString","coordinates":[[151044.11215127,170808.21324676],[151070.80522961,170809.41645591],[151091.513,170807.869],[151099.562,170802.89]]},"geometry_name":"GEOM","properties":{"INSPIRE_ID":"https://databrussels.be/id/streetaxe/93250","TYPE":"S","HIERARCHY":"DC","LVL":0,"STARTSN_ID":"https://databrussels.be/id/streetnode/3098","ENDSN_ID":"https://databrussels.be/id/streetnode/3369","STRNAMEFRE":"Square Ambiorix","STRNAMEDUT":"Ambiorixsquare","SLOPE":3.57,"LENGTH":56.9501958960293},"bbox":[151044.11215127,170802.89,151099.562,170809.41645591]},{"type":"Feature","id":"StreetAxes.fid-5b06f2a0_19ff5230227_4d02","geometry":{"type":"LineString","coordinates":[[151035.573,170985.319],[151046.556,170984.676],[151150.346,170941.332],[151160.34,170937.118]]},"geometry_name":"GEOM","properties":{"INSPIRE_ID":"https://databrussels.be/id/streetaxe/70937","TYPE":"S","HIERARCHY":"DC","LVL":0,"STARTSN_ID":"https://databrussels.be/id/streetnode/3754","ENDSN_ID":"https://databrussels.be/id/streetnode/1978","STRNAMEFRE":"Rue des Confédérés","STRNAMEDUT":"Eedgenotenstraat","SLOPE":3.08,"LENGTH":134.32486324989},"bbox":[151035.573,170937.118,151160.34,170985.319]},{"type":"Feature","id":"StreetAxes.fid-5b06f2a0_19ff5230227_4d03","geometry":{"type":"LineString","coordinates":[[151099.562,170802.89],[151107.611,170797.91],[151120.042,170777.902],[151127.73328956,170762.23406104],[151129.14398889,170756.80188721]]},"geometry_name":"GEOM","properties":{"INSPIRE_ID":"https://databrussels.be/id/streetaxe/93253","TYPE":"S","HIERARCHY":"DC","LVL":0,"STARTSN_ID":"https://databrussels.be/id/streetnode/3369","ENDSN_ID":"https://databrussels.be/id/streetnode/1095","STRNAMEFRE":"Square Ambiorix","STRNAMEDUT":"Ambiorixsquare","SLOPE":2.29,"LENGTH":56.086587373311},"bbox":[151099.562,170756.80188721,151129.14398889,170802.89]},{"type":"Feature","id":"StreetAxes.fid-5b06f2a0_19ff5230227_4d04","geometry":{"type":"LineString","coordinates":[[151099.562,170802.89],[151104.209,170811.348],[151156.932,170929.48],[151160.34,170937.118]]},"geometry_name":"GEOM","properties":{"INSPIRE_ID":"https://databrussels.be/id/streetaxe/70477","TYPE":"S","HIERARCHY":"DC","LVL":0,"STARTSN_ID":"https://databrussels.be/id/streetnode/3369","ENDSN_ID":"https://databrussels.be/id/streetnode/1978","STRNAMEFRE":"Avenue de la Brabançonne","STRNAMEDUT":"Brabançonnelaan","SLOPE":0.6,"LENGTH":147.377713178974},"bbox":[151099.562,170802.89,151160.34,170937.118]},{"type":"Feature","id":"StreetAxes.fid-5b06f2a0_19ff5230227_4d05","geometry":{"type":"LineString","coordinates":[[151129.14398889,170756.80188721],[151149.531,170757.018],[151180.156,170758.367],[151188.365,170758.698]]},"geometry_name":"GEOM","properties":{"INSPIRE_ID":"https://databrussels.be/id/streetaxe/93249","TYPE":"S","HIERARCHY":"DR","LVL":0,"STARTSN_ID":"https://databrussels.be/id/streetnode/1095","ENDSN_ID":"https://databrussels.be/id/streetnode/1692","STRNAMEFRE":"Square Marguerite","STRNAMEDUT":"Margaretasquare","SLOPE":2.72,"LENGTH":59.258523687944},"bbox":[151129.14398889,170756.80188721,151188.365,170758.698]},{"type":"Feature","id":"StreetAxes.fid-5b06f2a0_19ff5230227_4d06","geometry":{"type":"LineString","coordinates":[[151160.34,170937.118],[151170.44,170932.86],[151243.422,170902.264],[151248.949,170899.962]]},"geometry_name":"GEOM","properties":{"INSPIRE_ID":"https://databrussels.be/id/streetaxe/70936","TYPE":"S","HIERARCHY":"DR","LVL":0,"STARTSN_ID":"https://databrussels.be/id/streetnode/1978","ENDSN_ID":"https://databrussels.be/id/streetnode/47","STRNAMEFRE":"Rue des Confédérés","STRNAMEDUT":"Eedgenotenstraat","SLOPE":3.05,"LENGTH":96.0839761722669},"bbox":[151160.34,170899.962,151248.949,170937.118]},{"type":"Feature","id":"StreetAxes.fid-5b06f2a0_19ff5230227_4d07","geometry":{"type":"LineString","coordinates":[[151160.34,170937.118],[151163.824,170944.928],[151189.706,171002.708],[151192.126,171008.084]]},"geometry_name":"GEOM","properties":{"INSPIRE_ID":"https://databrussels.be/id/streetaxe/72834","TYPE":"S","HIERARCHY":"DC","LVL":0,"STARTSN_ID":"https://databrussels.be/id/streetnode/1978","ENDSN_ID":"https://databrussels.be/id/streetnode/1901","STRNAMEFRE":"Avenue de la Brabançonne","STRNAMEDUT":"Brabançonnelaan","SLOPE":2.17,"LENGTH":77.7594114470303},"bbox":[151160.34,170937.118,151192.126,171008.084]},{"type":"Feature","id":"StreetAxes.fid-5b06f2a0_19ff5230227_4d08","geometry":{"type":"LineString","coordinates":[[151188.365,170758.698],[151187.175,170767.105],[151245.806,170893.162],[151248.949,170899.962]]},"geometry_name":"GEOM","properties":{"INSPIRE_ID":"https://databrussels.be/id/streetaxe/73069","TYPE":"S","HIERARCHY":"DR","LVL":0,"STARTSN_ID":"https://databrussels.be/id/streetnode/1692","ENDSN_ID":"https://databrussels.be/id/streetnode/47","STRNAMEFRE":"Rue Van Campenhout","STRNAMEDUT":"Van Campenhoutstraat","SLOPE":0.61,"LENGTH":155.007067377689},"bbox":[151187.175,170758.698,151248.949,170899.962]},{"type":"Feature","id":"StreetAxes.fid-5b06f2a0_19ff5230227_4d09","geometry":{"type":"LineString","coordinates":[[151188.365,170758.698],[151196.574,170759.028],[151269.814,170761.902],[151283.096,170762.423]]},"geometry_name":"GEOM","properties":{"INSPIRE_ID":"https://databrussels.be/id/streetaxe/71647","TYPE":"S","HIERARCHY":"DR","LVL":0,"STARTSN_ID":"https://databrussels.be/id/streetnode/1692","ENDSN_ID":"https://databrussels.be/id/streetnode/2875","STRNAMEFRE":"Square Marguerite","STRNAMEDUT":"Margaretasquare","SLOPE":3.6,"LENGTH":94.8042121502001},"bbox":[151188.365,170758.698,151283.096,170762.423]},{"type":"Feature","id":"StreetAxes.fid-5b06f2a0_19ff5230227_4d0a","geometry":{"type":"LineString","coordinates":[[151192.126,171008.084],[151202.021,171004.402],[151276.92,170976.377],[151283.605,170975.146]]},"geometry_name":"GEOM","properties":{"INSPIRE_ID":"https://databrussels.be/id/streetaxe/72620","TYPE":"S","HIERARCHY":"DR","LVL":0,"STARTSN_ID":"https://databrussels.be/id/streetnode/1901","ENDSN_ID":"https://databrussels.be/id/streetnode/2137","STRNAMEFRE":"Rue Charles Quint","STRNAMEDUT":"Keizer Karelstraat","SLOPE":3.33,"LENGTH":97.3256179524744},"bbox":[151192.126,170975.146,151283.605,171008.084]},{"type":"Feature","id":"StreetAxes.fid-5b06f2a0_19ff5230227_4d0b","geometry":{"type":"LineString","coordinates":[[151248.949,170899.962],[151254.476,170897.66],[151317.566,170871.348],[151323.001,170869.01]]},"geometry_name":"GEOM","properties":{"INSPIRE_ID":"https://databrussels.be/id/streetaxe/73124","TYPE":"S","HIERARCHY":"DR","LVL":0,"STARTSN_ID":"https://databrussels.be/id/streetnode/47","ENDSN_ID":"https://databrussels.be/id/streetnode/2511","STRNAMEFRE":"Rue des Confédérés","STRNAMEDUT":"Eedgenotenstraat","SLOPE":2.82,"LENGTH":80.2606996269117},"bbox":[151248.949,170869.01,151323.001,170899.962]},{"type":"Feature","id":"StreetAxes.fid-5b06f2a0_19ff5230227_4d0c","geometry":{"type":"LineString","coordinates":[[151248.949,170899.962],[151252.092,170906.761],[151280.632,170968.692],[151283.605,170975.146]]},"geometry_name":"GEOM","properties":{"INSPIRE_ID":"https://databrussels.be/id/streetaxe/72644","TYPE":"S","HIERARCHY":"DR","LVL":0,"STARTSN_ID":"https://databrussels.be/id/streetnode/47","ENDSN_ID":"https://databrussels.be/id/streetnode/2137","STRNAMEFRE":"Rue Van Campenhout","STRNAMEDUT":"Van Campenhoutstraat","SLOPE":2.42,"LENGTH":82.7869133272981},"bbox":[151248.949,170899.962,151283.605,170975.146]},{"type":"Feature","id":"StreetAxes.fid-5b06f2a0_19ff5230227_4d0d","geometry":{"type":"LineString","coordinates":[[151283.096,170762.423],[151277.421,170771.151],[151280.322,170777.38],[151296.016,170811.08],[151297.72,170814.754]]},"geometry_name":"GEOM","properties":{"INSPIRE_ID":"https://databrussels.be/id/streetaxe/70476","TYPE":"S","HIERARCHY":"DR","LVL":0,"STARTSN_ID":"https://databrussels.be/id/streetnode/2875","ENDSN_ID":"https://databrussels.be/id/streetnode/18","STRNAMEFRE":"Rue Jenneval","STRNAMEDUT":"Jennevalstraat","SLOPE":0.22,"LENGTH":58.5072254866893},"bbox":[151277.421,170762.423,151297.72,170814.754]},{"type":"Feature","id":"StreetAxes.fid-5b06f2a0_19ff5230227_4d0e","geometry":{"type":"LineString","coordinates":[[151283.096,170762.423],[151288.142,170754.842],[151293.026,170747.504],[151293.379,170740.076]]},"geometry_name":"GEOM","properties":{"INSPIRE_ID":"https://databrussels.be/id/streetaxe/70334","TYPE":"S","HIERARCHY":"DR","LVL":0,"STARTSN_ID":"https://databrussels.be/id/streetnode/2875","ENDSN_ID":"https://databrussels.be/id/streetnode/4636","STRNAMEFRE":"Square Marguerite","STRNAMEDUT":"Margaretasquare","SLOPE":1.18,"LENGTH":25.3579192946917},"bbox":[151283.096,170740.076,151293.379,170762.423]},{"type":"Feature","id":"StreetAxes.fid-5b06f2a0_19ff5230227_4d0f","geometry":{"type":"LineString","coordinates":[[151283.605,170975.146],[151287.74,170984.122],[151311.103,171034.432],[151313.63,171040.007]]},"geometry_name":"GEOM","properties":{"INSPIRE_ID":"https://databrussels.be/id/streetaxe/72835","TYPE":"S","HIERARCHY":"DR","LVL":0,"STARTSN_ID":"https://databrussels.be/id/streetnode/2137","ENDSN_ID":"https://databrussels.be/id/streetnode/974","STRNAMEFRE":"Rue Van Campenhout","STRNAMEDUT":"Van Campenhoutstraat","SLOPE":2.95,"LENGTH":71.4736728627065},"bbox":[151283.605,170975.146,151313.63,171040.007]},{"type":"Feature","id":"StreetAxes.fid-5b06f2a0_19ff5230227_4d10","geometry":{"type":"LineString","coordinates":[[151283.605,170975.146],[151294.165,170973.384],[151358.597,170969.647],[151366.084,170969.22]]},"geometry_name":"GEOM","properties":{"INSPIRE_ID":"https://databrussels.be/id/streetaxe/73156","TYPE":"S","HIERARCHY":"DR","LVL":0,"STARTSN_ID":"https://databrussels.be/id/streetnode/2137","ENDSN_ID":"https://databrussels.be/id/streetnode/2921","STRNAMEFRE":"Rue Charles Quint","STRNAMEDUT":"Keizer Karelstraat","SLOPE":3.14,"LENGTH":82.7454379114691},"bbox":[151283.605,170969.22,151366.084,170975.146]},{"type":"Feature","id":"StreetAxes.fid-5b06f2a0_19ff5230227_4d11","geometry":{"type":"LineString","coordinates":[[151297.72,170814.754],[151303.1,170812.248],[151373.529,170782.858],[151379.841,170780.736]]},"geometry_name":"GEOM","properties":{"INSPIRE_ID":"https://databrussels.be/id/streetaxe/71569","TYPE":"S","HIERARCHY":"DR","LVL":0,"STARTSN_ID":"https://databrussels.be/id/streetnode/18","ENDSN_ID":"https://databrussels.be/id/streetnode/2745","STRNAMEFRE":"Rue du Tocsin","STRNAMEDUT":"Stormklokstraat","SLOPE":2.43,"LENGTH":88.9094058329412},"bbox":[151297.72,170780.736,151379.841,170814.754]},{"type":"Feature","id":"StreetAxes.fid-5b06f2a0_19ff5230227_4d12","geometry":{"type":"LineString","coordinates":[[151297.72,170814.754],[151299.425,170818.428],[151319.832,170862.24],[151323.001,170869.01]]},"geometry_name":"GEOM","properties":{"INSPIRE_ID":"https://databrussels.be/id/streetaxe/71223","TYPE":"S","HIERARCHY":"DR","LVL":0,"STARTSN_ID":"https://databrussels.be/id/streetnode/18","ENDSN_ID":"https://databrussels.be/id/streetnode/2511","STRNAMEFRE":"Rue Jenneval","STRNAMEDUT":"Jennevalstraat","SLOPE":0.13,"LENGTH":59.8568668957459},"bbox":[151297.72,170814.754,151323.001,170869.01]},{"type":"Feature","id":"StreetAxes.fid-5b06f2a0_19ff5230227_4d13","geometry":{"type":"LineString","coordinates":[[151323.001,170869.01],[151326.17,170875.78],[151349.101,170925.183],[151351.638,170930.539]]},"geometry_name":"GEOM","properties":{"INSPIRE_ID":"https://databrussels.be/id/streetaxe/71995","TYPE":"S","HIERARCHY":"DR","LVL":0,"STARTSN_ID":"https://databrussels.be/id/streetnode/2511","ENDSN_ID":"https://databrussels.be/id/streetnode/1389","STRNAMEFRE":"Rue Jenneval","STRNAMEDUT":"Jennevalstraat","SLOPE":2.14,"LENGTH":67.8669316356512},"bbox":[151323.001,170869.01,151351.638,170930.539]},{"type":"Feature","id":"StreetAxes.fid-5b06f2a0_19ff5230227_4d14","geometry":{"type":"LineString","coordinates":[[151323.001,170869.01],[151328.436,170866.672],[151398.73,170837.349],[151404.907,170834.759]]},"geometry_name":"GEOM","properties":{"INSPIRE_ID":"https://databrussels.be/id/streetaxe/73122","TYPE":"S","HIERARCHY":"DR","LVL":0,"STARTSN_ID":"https://databrussels.be/id/streetnode/2511","ENDSN_ID":"https://databrussels.be/id/streetnode/4044","STRNAMEFRE":"Rue des Confédérés","STRNAMEDUT":"Eedgenotenstraat","SLOPE":3.29,"LENGTH":88.7794113327735},"bbox":[151323.001,170834.759,151404.907,170869.01]},{"type":"Feature","id":"StreetAxes.fid-5b06f2a0_19ff5230227_4d15","geometry":{"type":"LineString","coordinates":[[151351.638,170930.539],[151354.176,170935.895],[151366.334,170962.224],[151366.084,170969.22]]},"geometry_name":"GEOM","properties":{"INSPIRE_ID":"https://databrussels.be/id/streetaxe/72397","TYPE":"S","HIERARCHY":"DR","LVL":0,"STARTSN_ID":"https://databrussels.be/id/streetnode/1389","ENDSN_ID":"https://databrussels.be/id/streetnode/2921","STRNAMEFRE":"Rue Jenneval","STRNAMEDUT":"Jennevalstraat","SLOPE":2.12,"LENGTH":41.9279409773594},"bbox":[151351.638,170930.539,151366.334,170969.22]},{"type":"Feature","id":"StreetAxes.fid-5b06f2a0_19ff5230227_4d16","geometry":{"type":"LineString","coordinates":[[151367.229,170743.081],[151366.547,170752.192],[151377.898,170776.436],[151379.841,170780.736]]},"geometry_name":"GEOM","properties":{"INSPIRE_ID":"https://databrussels.be/id/streetaxe/70479","TYPE":"S","HIERARCHY":"DR","LVL":0,"STARTSN_ID":"https://databrussels.be/id/streetnode/777","ENDSN_ID":"https://databrussels.be/id/streetnode/2745","STRNAMEFRE":"Rue Bordiau","STRNAMEDUT":"Bordiaustraat","SLOPE":0.74,"LENGTH":40.6247945444324},"bbox":[151366.547,170743.081,151379.841,170780.736]},{"type":"Feature","id":"StreetAxes.fid-5b06f2a0_19ff5230227_4d17","geometry":{"type":"LineString","coordinates":[[151351.638,170930.539],[151357.041,170928.032],[151427.736,170898.532],[151433.232,170896.253]]},"geometry_name":"GEOM","properties":{"INSPIRE_ID":"https://databrussels.be/id/streetaxe/73183","TYPE":"S","HIERARCHY":"DR","LVL":0,"STARTSN_ID":"https://databrussels.be/id/streetnode/1389","ENDSN_ID":"https://databrussels.be/id/streetnode/2187","STRNAMEFRE":"Rue du Beffroi","STRNAMEDUT":"Belfortstraat","SLOPE":2.98,"LENGTH":88.5091611242123},"bbox":[151351.638,170896.253,151433.232,170930.539]},{"type":"Feature","id":"StreetAxes.fid-5b06f2a0_19ff5230227_4d18","geometry":{"type":"LineString","coordinates":[[151353.968,170599.472],[151360.284,170603.324],[151422.732,170642.104],[151427.744,170645.352]]},"geometry_name":"GEOM","properties":{"INSPIRE_ID":"https://databrussels.be/id/streetaxe/72317","TYPE":"S","HIERARCHY":"DC","LVL":0,"STARTSN_ID":"https://databrussels.be/id/streetnode/1994","ENDSN_ID":"https://databrussels.be/id/streetnode/1005","STRNAMEFRE":"Rue Franklin","STRNAMEDUT":"Franklinstraat","SLOPE":2.33,"LENGTH":86.8798263778673},"bbox":[151353.968,170599.472,151427.744,170645.352]},{"type":"Feature","id":"StreetAxes.fid-5b06f2a0_19ff5230227_4d19","geometry":{"type":"LineString","coordinates":[[151366.084,170969.22],[151373.572,170968.794],[151453.908,170964.146],[151460.098,170963.855],[151464.56813373,170963.64485316]]},"geometry_name":"GEOM","properties":{"INSPIRE_ID":"https://databrussels.be/id/streetaxe/82521","TYPE":"S","HIERARCHY":"DR","LVL":0,"STARTSN_ID":"https://databrussels.be/id/streetnode/2921","ENDSN_ID":"https://databrussels.be/id/streetnode/14330","STRNAMEFRE":"Rue Charles Quint","STRNAMEDUT":"Keizer Karelstraat","SLOPE":3.45,"LENGTH":98.6423623438134},"bbox":[151366.084,170963.64485316,151464.56813373,170969.22]},{"type":"Feature","id":"StreetAxes.fid-5b06f2a0_19ff5230227_4d1a","geometry":{"type":"LineString","coordinates":[[151367.229,170743.081],[151367.87,170734.52],[151388.172,170704.46],[151390.338,170701.13]]},"geometry_name":"GEOM","properties":{"INSPIRE_ID":"https://databrussels.be/id/streetaxe/70219","TYPE":"S","HIERARCHY":"DR","LVL":0,"STARTSN_ID":"https://databrussels.be/id/streetnode/777","ENDSN_ID":"https://databrussels.be/id/streetnode/627","STRNAMEFRE":"Rue Le Titien","STRNAMEDUT":"Titiaanstraat","SLOPE":1.23,"LENGTH":48.831036221758},"bbox":[151367.229,170701.13,151390.338,170743.081]},{"type":"Feature","id":"StreetAxes.fid-5b06f2a0_19ff5230227_4d1b","geometry":{"type":"LineString","coordinates":[[151367.229,170743.081],[151375.804,170743.293],[151540.769,170750.373],[151545.95778272,170752.89456262],[151551.89853898,170761.83278623],[151554.96494072,170772.13435623]]},"geometry_name":"GEOM","properties":{"INSPIRE_ID":"https://databrussels.be/id/streetaxe/84851","TYPE":"S","HIERARCHY":"DR","LVL":0,"STARTSN_ID":"https://databrussels.be/id/streetnode/777","ENDSN_ID":"https://databrussels.be/id/streetnode/13518","STRNAMEFRE":"Rue des Patriotes","STRNAMEDUT":"Patriottenstraat","SLOPE":2.44,"LENGTH":200.94417803658},"bbox":[151367.229,170743.081,151554.96494072,170772.13435623]},{"type":"Feature","id":"StreetAxes.fid-5b06f2a0_19ff5230227_4d1c","geometry":{"type":"LineString","coordinates":[[151379.841,170780.736],[151381.784,170785.037],[151401.16,170826.691],[151404.907,170834.759]]},"geometry_name":"GEOM","properties":{"INSPIRE_ID":"https://databrussels.be/id/streetaxe/70478","TYPE":"S","HIERARCHY":"DR","LVL":0,"STARTSN_ID":"https://databrussels.be/id/streetnode/2745","ENDSN_ID":"https://databrussels.be/id/streetnode/4044","STRNAMEFRE":"Rue Bordiau","STRNAMEDUT":"Bordiaustraat","SLOPE":1.14,"LENGTH":59.5551866999024},"bbox":[151379.841,170780.736,151404.907,170834.759]},{"type":"Feature","id":"StreetAxes.fid-5b06f2a0_19ff5230227_4d1d","geometry":{"type":"LineString","coordinates":[[151390.338,170701.13],[151392.504,170697.8],[151423.627,170651.496],[151427.744,170645.352]]},"geometry_name":"GEOM","properties":{"INSPIRE_ID":"https://databrussels.be/id/streetaxe/75041","TYPE":"S","HIERARCHY":"DR","LVL":0,"STARTSN_ID":"https://databrussels.be/id/streetnode/627","ENDSN_ID":"https://databrussels.be/id/streetnode/1005","STRNAMEFRE":"Rue Le Titien","STRNAMEDUT":"Titiaanstraat","SLOPE":1.61,"LENGTH":67.1598908368591},"bbox":[151390.338,170645.352,151427.744,170701.13]},{"type":"Feature","id":"StreetAxes.fid-5b06f2a0_19ff5230227_4d1e","geometry":{"type":"LineString","coordinates":[[151392.801,170540.72],[151396.064,170535.761],[151429.292,170484.998],[151434.767,170476.634]]},"geometry_name":"GEOM","properties":{"INSPIRE_ID":"https://databrussels.be/id/streetaxe/87832","TYPE":"S","HIERARCHY":"DR","LVL":0,"STARTSN_ID":"https://databrussels.be/id/streetnode/1682","ENDSN_ID":"https://databrussels.be/id/streetnode/2148","STRNAMEFRE":"Rue Véronèse","STRNAMEDUT":"Veronesestraat","SLOPE":2.99,"LENGTH":76.6039356124541},"bbox":[151392.801,170476.634,151434.767,170540.72]},{"type":"Feature","id":"StreetAxes.fid-5b06f2a0_19ff5230227_4d1f","geometry":{"type":"LineString","coordinates":[[151392.801,170540.72],[151397.906,170544.074],[151459.478,170587.244],[151464.315,170590.719]]},"geometry_name":"GEOM","properties":{"INSPIRE_ID":"https://databrussels.be/id/streetaxe/70220","TYPE":"S","HIERARCHY":"DR","LVL":0,"STARTSN_ID":"https://databrussels.be/id/streetnode/1682","ENDSN_ID":"https://databrussels.be/id/streetnode/3908","STRNAMEFRE":"Rue Le Tintoret","STRNAMEDUT":"Tintorettostraat","SLOPE":2.37,"LENGTH":87.2622117273753},"bbox":[151392.801,170540.72,151464.315,170590.719]},{"type":"Feature","id":"StreetAxes.fid-5b06f2a0_19ff5230227_4d20","geometry":{"type":"LineString","coordinates":[[151404.907,170834.759],[151408.062,170841.553],[151430.607,170890.898],[151433.232,170896.253]]},"geometry_name":"GEOM","properties":{"INSPIRE_ID":"https://databrussels.be/id/streetaxe/72208","TYPE":"S","HIERARCHY":"DR","LVL":0,"STARTSN_ID":"https://databrussels.be/id/streetnode/4044","ENDSN_ID":"https://databrussels.be/id/streetnode/2187","STRNAMEFRE":"Rue Bordiau","STRNAMEDUT":"Bordiaustraat","SLOPE":1.73,"LENGTH":67.7059263116687},"bbox":[151404.907,170834.759,151433.232,170896.253]},{"type":"Feature","id":"StreetAxes.fid-5b06f2a0_19ff5230227_4d21","geometry":{"type":"LineString","coordinates":[[151404.907,170834.759],[151411.018,170832.198],[151503.208,170793.672],[151510.274,170790.771]]},"geometry_name":"GEOM","properties":{"INSPIRE_ID":"https://databrussels.be/id/streetaxe/71646","TYPE":"S","HIERARCHY":"DR","LVL":0,"STARTSN_ID":"https://databrussels.be/id/streetnode/4044","ENDSN_ID":"https://databrussels.be/id/streetnode/254","STRNAMEFRE":"Rue des Confédérés","STRNAMEDUT":"Eedgenotenstraat","SLOPE":2.48,"LENGTH":114.180480541655},"bbox":[151404.907,170790.771,151510.274,170834.759]},{"type":"Feature","id":"StreetAxes.fid-5b06f2a0_19ff5230227_4d22","geometry":{"type":"LineString","coordinates":[[151427.744,170645.352],[151432.454,170638.324],[151461.023,170595.696],[151464.315,170590.719]]},"geometry_name":"GEOM","properties":{"INSPIRE_ID":"https://databrussels.be/id/streetaxe/72316","TYPE":"S","HIERARCHY":"DR","LVL":0,"STARTSN_ID":"https://databrussels.be/id/streetnode/1005","ENDSN_ID":"https://databrussels.be/id/streetnode/3908","STRNAMEFRE":"Rue Le Titien","STRNAMEDUT":"Titiaanstraat","SLOPE":3.92,"LENGTH":65.7435611655792},"bbox":[151427.744,170590.719,151464.315,170645.352]},{"type":"Feature","id":"StreetAxes.fid-5b06f2a0_19ff5230227_4d23","geometry":{"type":"LineString","coordinates":[[151427.744,170645.352],[151433.622,170649.16],[151495.464,170687.67],[151500.891,170690.894]]},"geometry_name":"GEOM","properties":{"INSPIRE_ID":"https://databrussels.be/id/streetaxe/72975","TYPE":"S","HIERARCHY":"DC","LVL":0,"STARTSN_ID":"https://databrussels.be/id/streetnode/1005","ENDSN_ID":"https://databrussels.be/id/streetnode/4693","STRNAMEFRE":"Rue Franklin","STRNAMEDUT":"Franklinstraat","SLOPE":2.33,"LENGTH":86.1683728851215},"bbox":[151427.744,170645.352,151500.891,170690.894]},{"type":"Feature","id":"StreetAxes.fid-5b06f2a0_19ff5230227_4d24","geometry":{"type":"LineString","coordinates":[[151433.232,170896.253],[151438.728,170893.974],[151533.037,170854.78],[151538.436,170852.271]]},"geometry_name":"GEOM","properties":{"INSPIRE_ID":"https://databrussels.be/id/streetaxe/73123","TYPE":"S","HIERARCHY":"DR","LVL":0,"STARTSN_ID":"https://databrussels.be/id/streetnode/2187","ENDSN_ID":"https://databrussels.be/id/streetnode/1580","STRNAMEFRE":"Rue du Beffroi","STRNAMEDUT":"Belfortstraat","SLOPE":2.55,"LENGTH":114.032407780883},"bbox":[151433.232,170852.271,151538.436,170896.253]},{"type":"Feature","id":"StreetAxes.fid-5b06f2a0_19ff5230227_4d25","geometry":{"type":"LineString","coordinates":[[151433.232,170896.253],[151435.858,170901.608],[151460.062,170953.908],[151464.56813373,170963.64485316]]},"geometry_name":"GEOM","properties":{"INSPIRE_ID":"https://databrussels.be/id/streetaxe/81462","TYPE":"S","HIERARCHY":"DR","LVL":0,"STARTSN_ID":"https://databrussels.be/id/streetnode/2187","ENDSN_ID":"https://databrussels.be/id/streetnode/14330","STRNAMEFRE":"Rue Bordiau","STRNAMEDUT":"Bordiaustraat","SLOPE":2.22,"LENGTH":74.3224141614759},"bbox":[151433.232,170896.253,151464.56813373,170963.64485316]},{"type":"Feature","id":"StreetAxes.fid-5b06f2a0_19ff5230227_4d26","geometry":{"type":"LineString","coordinates":[[151434.767,170476.634],[151444.104,170483.108],[151501.928,170524.026],[151506.836,170527.444]]},"geometry_name":"GEOM","properties":{"INSPIRE_ID":"https://databrussels.be/id/streetaxe/72314","TYPE":"S","HIERARCHY":"MER","LVL":0,"STARTSN_ID":"https://databrussels.be/id/streetnode/2148","ENDSN_ID":"https://databrussels.be/id/streetnode/299","STRNAMEFRE":"Avenue de Cortenbergh","STRNAMEDUT":"Kortenberglaan","SLOPE":2.05,"LENGTH":88.1798996826229},"bbox":[151434.767,170476.634,151506.836,170527.444]},{"type":"Feature","id":"StreetAxes.fid-5b06f2a0_19ff5230227_4d27","geometry":{"type":"LineString","coordinates":[[151464.315,170590.719],[151469.152,170594.194],[151533.568,170639.8],[151538.217,170643.544]]},"geometry_name":"GEOM","properties":{"INSPIRE_ID":"https://databrussels.be/id/streetaxe/70221","TYPE":"S","HIERARCHY":"DR","LVL":0,"STARTSN_ID":"https://databrussels.be/id/streetnode/3908","ENDSN_ID":"https://databrussels.be/id/streetnode/626","STRNAMEFRE":"Rue Le Tintoret","STRNAMEDUT":"Tintorettostraat","SLOPE":1.35,"LENGTH":90.8510963859077},"bbox":[151464.315,170590.719,151538.217,170643.544]},{"type":"Feature","id":"StreetAxes.fid-5b06f2a0_19ff5230227_4d28","geometry":{"type":"LineString","coordinates":[[151464.315,170590.719],[151467.608,170585.742],[151501.112,170535.62],[151506.836,170527.444]]},"geometry_name":"GEOM","properties":{"INSPIRE_ID":"https://databrussels.be/id/streetaxe/72617","TYPE":"S","HIERARCHY":"DR","LVL":0,"STARTSN_ID":"https://databrussels.be/id/streetnode/3908","ENDSN_ID":"https://databrussels.be/id/streetnode/299","STRNAMEFRE":"Rue Le Titien","STRNAMEDUT":"Titiaanstraat","SLOPE":2.66,"LENGTH":76.2370630240851},"bbox":[151464.315,170527.444,151506.836,170590.719]},{"type":"Feature","id":"StreetAxes.fid-5b06f2a0_19ff5230227_4d29","geometry":{"type":"LineString","coordinates":[[151464.56813373,170963.64485316],[151470.49748432,170964.83122748],[151473.37532722,170970.90637292]]},"geometry_name":"GEOM","properties":{"INSPIRE_ID":"https://databrussels.be/id/streetaxe/87636","TYPE":"I","HIERARCHY":"IDR","LVL":0,"STARTSN_ID":"https://databrussels.be/id/streetnode/14330","ENDSN_ID":"https://databrussels.be/id/streetnode/11962","STRNAMEFRE":"Rue du Noyer","STRNAMEDUT":"Notelaarsstraat","SLOPE":3.68,"LENGTH":12.769177829112},"bbox":[151464.56813373,170963.64485316,151473.37532722,170970.90637292]},{"type":"Feature","id":"StreetAxes.fid-5b06f2a0_19ff5230227_4d2a","geometry":{"type":"LineString","coordinates":[[151504.86548622,170941.23579039],[151498.56484564,170947.51970654],[151482.265,170962.197],[151473.37532722,170970.90637292]]},"geometry_name":"GEOM","properties":{"INSPIRE_ID":"https://databrussels.be/id/streetaxe/93233","TYPE":"S","HIERARCHY":"IDR","LVL":0,"STARTSN_ID":"https://databrussels.be/id/streetnode/4712","ENDSN_ID":"https://databrussels.be/id/streetnode/11962","STRNAMEFRE":"Rue du Noyer","STRNAMEDUT":"Notelaarstraat","SLOPE":1.3,"LENGTH":43.2778630880099},"bbox":[151473.37532722,170941.23579039,151504.86548622,170970.90637292]},{"type":"Feature","id":"StreetAxes.fid-5b06f2a0_19ff5230227_4d2b","geometry":{"type":"LineString","coordinates":[[151287.108,170372.143],[151295.092,170377.788],[151642.688,170622.753],[151678.196,170643.926],[151743.564,170689.739],[151752.638,170697.325],[151768.072,170710.049],[151784.524,170722.005],[151823.791,170747.156],[151842.327,170754.798],[151865.091,170761.027],[151899.954,170773.614],[152105.026,170847.197],[152206.982,170884.452],[152337.138,170931.308],[152349.688,170936.664],[152361.918,170944.558],[152400.854,170973.576]]},"geometry_name":"GEOM","properties":{"INSPIRE_ID":"https://databrussels.be/id/streetaxe/93535","TYPE":"S","HIERARCHY":"MER","LVL":-1,"STARTSN_ID":"https://databrussels.be/id/streetnode/1021","ENDSN_ID":"https://databrussels.be/id/streetnode/6197","STRNAMEFRE":null,"STRNAMEDUT":null,"SLOPE":0.65,"LENGTH":1277.21752836163},"bbox":[151287.108,170372.143,152400.854,170973.576]},{"type":"Feature","id":"StreetAxes.fid-5b06f2a0_19ff5230227_4d2c","geometry":{"type":"LineString","coordinates":[[151051.958,170652.304],[151042.896,170651.804],[150985.899,170649.27],[150981.82681226,170649.81532329]]},"geometry_name":"GEOM","properties":{"INSPIRE_ID":"https://databrussels.be/id/streetaxe/86867","TYPE":"S","HIERARCHY":"DC","LVL":0,"STARTSN_ID":"https://databrussels.be/id/streetnode/2863","ENDSN_ID":"https://databrussels.be/id/streetnode/5981","STRNAMEFRE":"Square Ambiorix","STRNAMEDUT":"Ambiorixsquare","SLOPE":3.8,"LENGTH":70.2376231986804},"bbox":[150981.82681226,170649.27,151051.958,170652.304]},{"type":"Feature","id":"StreetAxes.fid-5b06f2a0_19ff5230227_4d2d","geometry":{"type":"LineString","coordinates":[[151106.393,170661.218],[151098.64,170655.263],[151061.02,170652.805],[151051.958,170652.304]]},"geometry_name":"GEOM","properties":{"INSPIRE_ID":"https://databrussels.be/id/streetaxe/70935","TYPE":"S","HIERARCHY":"DC","LVL":0,"STARTSN_ID":"https://databrussels.be/id/streetnode/1916","ENDSN_ID":"https://databrussels.be/id/streetnode/2863","STRNAMEFRE":"Square Ambiorix","STRNAMEDUT":"Ambiorixsquare","SLOPE":3.5,"LENGTH":56.5520967876724},"bbox":[151051.958,170652.304,151106.393,170661.218]},{"type":"Feature","id":"StreetAxes.fid-5b06f2a0_19ff5230227_4d2e","geometry":{"type":"LineString","coordinates":[[151063.187,170414.632],[151062.75,170431.63],[151052.258,170644.716],[151051.958,170652.304]]},"geometry_name":"GEOM","properties":{"INSPIRE_ID":"https://databrussels.be/id/streetaxe/71718","TYPE":"S","HIERARCHY":"DC","LVL":0,"STARTSN_ID":"https://databrussels.be/id/streetnode/3992","ENDSN_ID":"https://databrussels.be/id/streetnode/2863","STRNAMEFRE":"Rue Archimède","STRNAMEDUT":"Archimedesstraat","SLOPE":0.87,"LENGTH":237.941692508479},"bbox":[151051.958,170414.632,151063.187,170652.304]},{"type":"Feature","id":"StreetAxes.fid-5b06f2a0_19ff5230227_4d2f","geometry":{"type":"LineString","coordinates":[[151063.187,170414.632],[151076.71,170426.418],[151196.592,170501.151],[151205.428,170506.697]]},"geometry_name":"GEOM","properties":{"INSPIRE_ID":"https://databrussels.be/id/streetaxe/72641","TYPE":"S","HIERARCHY":"DC","LVL":0,"STARTSN_ID":"https://databrussels.be/id/streetnode/3992","ENDSN_ID":"https://databrussels.be/id/streetnode/1915","STRNAMEFRE":"Rue Franklin","STRNAMEDUT":"Franklinstraat","SLOPE":2.46,"LENGTH":169.638808952783},"bbox":[151063.187,170414.632,151205.428,170506.697]},{"type":"Feature","id":"StreetAxes.fid-5b06f2a0_19ff5230227_4d30","geometry":{"type":"LineString","coordinates":[[151131.16634044,170710.87337984],[151130.556,170704.637],[151123.274,170686.248],[151114.146,170667.172],[151106.393,170661.218]]},"geometry_name":"GEOM","properties":{"INSPIRE_ID":"https://databrussels.be/id/streetaxe/93251","TYPE":"S","HIERARCHY":"DC","LVL":0,"STARTSN_ID":"https://databrussels.be/id/streetnode/2666","ENDSN_ID":"https://databrussels.be/id/streetnode/1916","STRNAMEFRE":"Square Ambiorix","STRNAMEDUT":"Ambiorixsquare","SLOPE":2.21,"LENGTH":56.9673912036503},"bbox":[151106.393,170661.218,151131.16634044,170710.87337984]},{"type":"Feature","id":"StreetAxes.fid-5b06f2a0_19ff5230227_4d31","geometry":{"type":"LineString","coordinates":[[151106.393,170661.218],[151111.982,170652.7],[151201.444,170512.957],[151205.428,170506.697]]},"geometry_name":"GEOM","properties":{"INSPIRE_ID":"https://databrussels.be/id/streetaxe/70139","TYPE":"S","HIERARCHY":"DR","LVL":0,"STARTSN_ID":"https://databrussels.be/id/streetnode/1916","ENDSN_ID":"https://databrussels.be/id/streetnode/1915","STRNAMEFRE":"Avenue Michel-Ange","STRNAMEDUT":"Michel Angelolaan","SLOPE":2.33,"LENGTH":183.534485497626},"bbox":[151106.393,170506.697,151205.428,170661.218]},{"type":"Feature","id":"StreetAxes.fid-5b06f2a0_19ff5230227_4d32","geometry":{"type":"LineString","coordinates":[[151129.14398889,170756.80188721],[151129.66102846,170752.81476661],[151131.30787561,170744.03991369],[151132.38477214,170734.06420222],[151132.48275392,170725.81395676],[151131.58335137,170715.13434363],[151131.16634044,170710.87337984]]},"geometry_name":"GEOM","properties":{"INSPIRE_ID":"https://databrussels.be/id/streetaxe/93258","TYPE":"S","HIERARCHY":"DC","LVL":0,"STARTSN_ID":"https://databrussels.be/id/streetnode/1095","ENDSN_ID":"https://databrussels.be/id/streetnode/2666","STRNAMEFRE":"Square Ambiorix","STRNAMEDUT":"Ambiorixsquare","SLOPE":0.24,"LENGTH":46.2317956608884},"bbox":[151129.14398889,170710.87337984,151132.48275392,170756.80188721]},{"type":"Feature","id":"StreetAxes.fid-5b06f2a0_19ff5230227_4d33","geometry":{"type":"LineString","coordinates":[[151193.166,170713.17],[151184.73,170712.798],[151150.93,170711.524],[151131.16634044,170710.87337984]]},"geometry_name":"GEOM","properties":{"INSPIRE_ID":"https://databrussels.be/id/streetaxe/93248","TYPE":"S","HIERARCHY":"DR","LVL":0,"STARTSN_ID":"https://databrussels.be/id/streetnode/2077","ENDSN_ID":"https://databrussels.be/id/streetnode/2666","STRNAMEFRE":"Square Marguerite","STRNAMEDUT":"Margaretasquare","SLOPE":2.93,"LENGTH":62.0425653602671},"bbox":[151131.16634044,170710.87337984,151193.166,170713.17]},{"type":"Feature","id":"StreetAxes.fid-5b06f2a0_19ff5230227_4d34","geometry":{"type":"LineString","coordinates":[[151193.166,170713.17],[151192.49,170704.93],[151284.099,170566.696],[151289.23,170559.066]]},"geometry_name":"GEOM","properties":{"INSPIRE_ID":"https://databrussels.be/id/streetaxe/72315","TYPE":"S","HIERARCHY":"DR","LVL":0,"STARTSN_ID":"https://databrussels.be/id/streetnode/2077","ENDSN_ID":"https://databrussels.be/id/streetnode/225","STRNAMEFRE":"Rue Le Corrège","STRNAMEDUT":"Correggiostraat","SLOPE":1.88,"LENGTH":183.29626229111},"bbox":[151192.49,170559.066,151289.23,170713.17]},{"type":"Feature","id":"StreetAxes.fid-5b06f2a0_19ff5230227_4d35","geometry":{"type":"LineString","coordinates":[[151286.087,170717.208],[151275.446,170716.746],[151201.603,170713.542],[151193.166,170713.17]]},"geometry_name":"GEOM","properties":{"INSPIRE_ID":"https://databrussels.be/id/streetaxe/73032","TYPE":"S","HIERARCHY":"DR","LVL":0,"STARTSN_ID":"https://databrussels.be/id/streetnode/4132","ENDSN_ID":"https://databrussels.be/id/streetnode/2077","STRNAMEFRE":"Square Marguerite","STRNAMEDUT":"Margaretasquare","SLOPE":3.42,"LENGTH":93.0086986949917},"bbox":[151193.166,170713.17,151286.087,170717.208]},{"type":"Feature","id":"StreetAxes.fid-5b06f2a0_19ff5230227_4d36","geometry":{"type":"LineString","coordinates":[[151205.428,170506.697],[151213.84,170511.979],[151282.903,170555.191],[151289.23,170559.066]]},"geometry_name":"GEOM","properties":{"INSPIRE_ID":"https://databrussels.be/id/streetaxe/72904","TYPE":"S","HIERARCHY":"DC","LVL":0,"STARTSN_ID":"https://databrussels.be/id/streetnode/1915","ENDSN_ID":"https://databrussels.be/id/streetnode/225","STRNAMEFRE":"Rue Franklin","STRNAMEDUT":"Franklinstraat","SLOPE":2.23,"LENGTH":98.8198054307786},"bbox":[151205.428,170506.697,151289.23,170559.066]},{"type":"Feature","id":"StreetAxes.fid-5b06f2a0_19ff5230227_4d37","geometry":{"type":"LineString","coordinates":[[151205.428,170506.697],[151209.682,170500.016],[151284.671,170383.046],[151290.13919079,170374.51655866]]},"geometry_name":"GEOM","properties":{"INSPIRE_ID":"https://databrussels.be/id/streetaxe/74039","TYPE":"S","HIERARCHY":"DR","LVL":0,"STARTSN_ID":"https://databrussels.be/id/streetnode/1915","ENDSN_ID":"https://databrussels.be/id/streetnode/8826","STRNAMEFRE":"Avenue Michel-Ange","STRNAMEDUT":"Michel Angelolaan","SLOPE":2.87,"LENGTH":156.995752368737},"bbox":[151205.428,170374.51655866,151290.13919079,170506.697]},{"type":"Feature","id":"StreetAxes.fid-5b06f2a0_19ff5230227_4d38","geometry":{"type":"LineString","coordinates":[[151286.087,170717.208],[151282.085,170709.124],[151287.943,170700.228],[151314.558,170659.814],[151316.988,170655.998]]},"geometry_name":"GEOM","properties":{"INSPIRE_ID":"https://databrussels.be/id/streetaxe/75023","TYPE":"S","HIERARCHY":"DR","LVL":0,"STARTSN_ID":"https://databrussels.be/id/streetnode/4132","ENDSN_ID":"https://databrussels.be/id/streetnode/2548","STRNAMEFRE":"Rue Véronèse","STRNAMEDUT":"Veronesestraat","SLOPE":1.41,"LENGTH":72.5865081837668},"bbox":[151282.085,170655.998,151316.988,170717.208]},{"type":"Feature","id":"StreetAxes.fid-5b06f2a0_19ff5230227_4d39","geometry":{"type":"LineString","coordinates":[[151293.379,170740.076],[151293.732,170732.648],[151289.162,170723.418],[151286.087,170717.208]]},"geometry_name":"GEOM","properties":{"INSPIRE_ID":"https://databrussels.be/id/streetaxe/72553","TYPE":"S","HIERARCHY":"DR","LVL":0,"STARTSN_ID":"https://databrussels.be/id/streetnode/4636","ENDSN_ID":"https://databrussels.be/id/streetnode/4132","STRNAMEFRE":"Square Marguerite","STRNAMEDUT":"Margaretasquare","SLOPE":1.74,"LENGTH":24.6654174222544},"bbox":[151286.087,170717.208,151293.732,170740.076]},{"type":"Feature","id":"StreetAxes.fid-5b06f2a0_19ff5230227_4d3a","geometry":{"type":"LineString","coordinates":[[151289.23,170559.066],[151294.182,170551.701],[151363.962,170446.371],[151373.104,170433.148]]},"geometry_name":"GEOM","properties":{"INSPIRE_ID":"https://databrussels.be/id/streetaxe/75018","TYPE":"S","HIERARCHY":"DR","LVL":0,"STARTSN_ID":"https://databrussels.be/id/streetnode/225","ENDSN_ID":"https://databrussels.be/id/streetnode/59","STRNAMEFRE":"Rue Le Corrège","STRNAMEDUT":"Correggiostraat","SLOPE":3.3,"LENGTH":151.297930395186},"bbox":[151289.23,170433.148,151373.104,170559.066]},{"type":"Feature","id":"StreetAxes.fid-5b06f2a0_19ff5230227_4d3b","geometry":{"type":"LineString","coordinates":[[151289.23,170559.066],[151295.763,170563.068],[151347.626,170595.612],[151353.968,170599.472]]},"geometry_name":"GEOM","properties":{"INSPIRE_ID":"https://databrussels.be/id/streetaxe/71739","TYPE":"S","HIERARCHY":"DC","LVL":0,"STARTSN_ID":"https://databrussels.be/id/streetnode/225","ENDSN_ID":"https://databrussels.be/id/streetnode/1994","STRNAMEFRE":"Rue Franklin","STRNAMEDUT":"Franklinstraat","SLOPE":2.42,"LENGTH":76.3137802215615},"bbox":[151289.23,170559.066,151353.968,170599.472]},{"type":"Feature","id":"StreetAxes.fid-5b06f2a0_19ff5230227_4d3c","geometry":{"type":"LineString","coordinates":[[151293.379,170740.076],[151302.724,170740.454],[151358.959,170742.876],[151367.229,170743.081]]},"geometry_name":"GEOM","properties":{"INSPIRE_ID":"https://databrussels.be/id/streetaxe/71634","TYPE":"S","HIERARCHY":"DR","LVL":0,"STARTSN_ID":"https://databrussels.be/id/streetnode/4636","ENDSN_ID":"https://databrussels.be/id/streetnode/777","STRNAMEFRE":"Rue des Patriotes","STRNAMEDUT":"Patriottenstraat","SLOPE":2.75,"LENGTH":73.9123149518152},"bbox":[151293.379,170740.076,151367.229,170743.081]},{"type":"Feature","id":"StreetAxes.fid-5b06f2a0_19ff5230227_4d3d","geometry":{"type":"LineString","coordinates":[[151316.988,170655.998],[151319.419,170652.183],[151349.102,170606.734],[151353.968,170599.472]]},"geometry_name":"GEOM","properties":{"INSPIRE_ID":"https://databrussels.be/id/streetaxe/71789","TYPE":"S","HIERARCHY":"DR","LVL":0,"STARTSN_ID":"https://databrussels.be/id/streetnode/2548","ENDSN_ID":"https://databrussels.be/id/streetnode/1994","STRNAMEFRE":"Rue Véronèse","STRNAMEDUT":"Veronesestraat","SLOPE":1.63,"LENGTH":67.548700360553},"bbox":[151316.988,170599.472,151353.968,170655.998]},{"type":"Feature","id":"StreetAxes.fid-5b06f2a0_19ff5230227_4d3e","geometry":{"type":"LineString","coordinates":[[151316.988,170655.998],[151322.8,170659.069],[151385.392,170697.812],[151390.338,170701.13]]},"geometry_name":"GEOM","properties":{"INSPIRE_ID":"https://databrussels.be/id/streetaxe/72318","TYPE":"S","HIERARCHY":"DR","LVL":0,"STARTSN_ID":"https://databrussels.be/id/streetnode/2548","ENDSN_ID":"https://databrussels.be/id/streetnode/627","STRNAMEFRE":"Rue de l'Etendard","STRNAMEDUT":"Standaardstraat","SLOPE":2.37,"LENGTH":86.141654478812},"bbox":[151316.988,170655.998,151390.338,170701.13]},{"type":"Feature","id":"StreetAxes.fid-5b06f2a0_19ff5230227_4d3f","geometry":{"type":"LineString","coordinates":[[151353.968,170599.472],[151358.716,170592.398],[151389.538,170545.68],[151392.801,170540.72]]},"geometry_name":"GEOM","properties":{"INSPIRE_ID":"https://databrussels.be/id/streetaxe/71928","TYPE":"S","HIERARCHY":"DR","LVL":0,"STARTSN_ID":"https://databrussels.be/id/streetnode/1994","ENDSN_ID":"https://databrussels.be/id/streetnode/1682","STRNAMEFRE":"Rue Véronèse","STRNAMEDUT":"Veronesestraat","SLOPE":3.59,"LENGTH":70.4260909718439},"bbox":[151353.968,170540.72,151392.801,170599.472]}],"totalFeatures":69,"numberMatched":69,"numberReturned":69,"timeStamp":"2026-08-12T08:45:51.617Z","crs":{"type":"name","properties":{"name":"urn:ogc:def:crs:EPSG::31370"}},"bbox":[150933.40950473,170372.143,152400.854,171095.594],"grand_bruxelles_source":{"authority":"Paradigm / Brussels-Capital Region","service":"UrbIS WFS","layer":"urbisvector:StreetAxes","crs":"EPSG:31370","bbox":[151000.0,170500.0,151500.0,171000.0],"cell_id":"bxl-e151000-n170500-s500"}}
