{"type":"FeatureCollection","totalFeatures":4,"numberMatched":4,"timeStamp":"2026-08-24T03:42:19.080Z","crs":{"type":"name","properties":{"name":"urn:ogc:def:crs:EPSG::31370"}},"bbox":[142658.19838095,169493.11407594,143035.47153606,169552.77880505],"features":[{"type":"Feature","id":"StreetSurfaces.fid-77ff224d_1a03149e4eb_1eae","geometry":{"type":"Polygon","coordinates":[[[142972.36600001,169545.90500034],[142981.821,169545.87700035],[142992.48399999,169545.47500035],[143016.07000001,169543.79000036],[143034.846,169542.14600035],[143035.15780571,169545.70474933],[143034.8539175,169545.64208034],[143033.24842999,169545.53760034],[143030.3826925,169545.80336036],[143024.63843751,169546.16256036],[143023.19926751,169546.07680034],[143020.237325,169545.40368034],[143019.430055,169545.47008034],[143000.0000175,169546.85296034],[142990.06694,169547.48192035],[142980.11895249,169547.79408034],[142972.37175377,169547.7878533],[142972.36600001,169545.90500034]]]},"geometry_name":"GEOM","properties":{"INSPIRE_ID":"https://databrussels.be/id/streetsurface/161058","TYPE":"SW","STREET_ID":"https://databrussels.be/id/streetname/3233","STRNAMEFRE":"Avenue d'Itterbeek","STRNAMEDUT":"Itterbeekse Laan","MUNNISCODE":"21001","HIERARCHY":"IDR","LVL":0,"ADMIN":"MUN_RBC","AREA":136},"bbox":[142972.36600001,169542.14600035,143035.15780571,169547.79408034]},{"type":"Feature","id":"StreetSurfaces.fid-77ff224d_1a03149e4eb_1eac","geometry":{"type":"Polygon","coordinates":[[[142972.36600001,169545.90500034],[142972.37175377,169547.7878533],[142970.165995,169547.78608035],[142960.21800749,169547.46096035],[142949.23306501,169547.00800034],[142938.2669375,169546.23696035],[142927.32708001,169545.14800035],[142916.42307751,169543.74208034],[142900.7530225,169541.42800035],[142885.13905749,169538.75904035],[142869.5889925,169535.73696035],[142841.69398,169530.32896034],[142826.077175,169527.17280034],[142811.400055,169524.41456036],[142790.718465,169520.35824036],[142777.77232499,169517.88848034],[142757.97433,169514.03040034],[142746.86726749,169511.84896034],[142732.46048,169509.14480034],[142718.66677749,169506.36848034],[142699.2836,169502.65472034],[142679.9245625,169498.87680034],[142658.5201925,169494.79296035],[142658.19838095,169493.11407594],[142667.271,169494.91400036],[142776.46900001,169515.84300035],[142783.96600001,169517.43600034],[142882.78800001,169536.36700035],[142905.51099999,169540.23500034],[142927.76700001,169543.27100035],[142938.649,169544.35400034],[142949.55899999,169545.12100035],[142971.151,169545.90900034],[142972.36600001,169545.90500034]]]},"geometry_name":"GEOM","properties":{"INSPIRE_ID":"https://databrussels.be/id/streetsurface/163164","TYPE":"SW","STREET_ID":"https://databrussels.be/id/streetname/3233","STRNAMEFRE":"Avenue d'Itterbeek","STRNAMEDUT":"Itterbeekse Laan","MUNNISCODE":"21001","HIERARCHY":"IDR","LVL":0,"ADMIN":"MUN_RBC","AREA":557},"bbox":[142658.19838095,169493.11407594,142972.37175377,169547.7878533]},{"type":"Feature","id":"StreetSurfaces.fid-77ff224d_1a03149e4eb_1ead","geometry":{"type":"Polygon","coordinates":[[[142972.38688667,169552.73991033],[142960.44735057,169552.56125571],[142957.40431201,169552.46160769],[142951.44622164,169552.14529499],[142947.32015665,169551.90677065],[142945.22812088,169551.76301149],[142938.54199925,169551.24378032],[142935.17893469,169550.95516659],[142930.41683753,169550.49971289],[142928.01378422,169550.23498804],[142922.33565235,169549.56163744],[142919.47758367,169549.20396403],[142915.20047557,169548.62545213],[142909.19631469,169547.73913621],[142905.19720409,169547.12059142],[142897.22397766,169545.83949825],[142894.53589716,169545.37380349],[142889.26372969,169544.38240093],[142874.92127025,169541.65402581],[142847.52538223,169536.35812825],[142843.9612675,169535.67553195],[142816.19637621,169530.37967724],[142785.11536164,169524.31519615],[142763.1436517,169520.0876846],[142713.10802901,169510.41335081],[142700.84962695,169508.00673844],[142698.00753412,169507.45206021],[142692.31634891,169506.34670462],[142688.05021057,169505.52218773],[142659.5202894,169500.04041907],[142658.5201925,169494.79296035],[142679.9245625,169498.87680034],[142699.2836,169502.65472034],[142718.66677749,169506.36848034],[142732.46048,169509.14480034],[142746.86726749,169511.84896034],[142757.97433,169514.03040034],[142777.77232499,169517.88848034],[142790.718465,169520.35824036],[142811.400055,169524.41456036],[142826.077175,169527.17280034],[142841.69398,169530.32896034],[142869.5889925,169535.73696035],[142885.13905749,169538.75904035],[142900.7530225,169541.42800035],[142916.42307751,169543.74208034],[142927.32708001,169545.14800035],[142938.2669375,169546.23696035],[142949.23306501,169547.00800034],[142960.21800749,169547.46096035],[142970.165995,169547.78608035],[142972.37175377,169547.7878533],[142972.38688667,169552.73991033]]]},"geometry_name":"GEOM","properties":{"INSPIRE_ID":"https://databrussels.be/id/streetsurface/24912","TYPE":"S","STREET_ID":"https://databrussels.be/id/streetname/3233","STRNAMEFRE":"Avenue d'Itterbeek","STRNAMEDUT":"Itterbeekse Laan","MUNNISCODE":"21001","HIERARCHY":"IDR","LVL":0,"ADMIN":"MUN_RBC","AREA":1573},"bbox":[142658.5201925,169494.79296035,142972.38688667,169552.73991033]},{"type":"Feature","id":"StreetSurfaces.fid-77ff224d_1a03149e4eb_1eaf","geometry":{"type":"Polygon","coordinates":[[[142972.38688667,169552.73991033],[142972.37175377,169547.7878533],[142980.11895249,169547.79408034],[142990.06694,169547.48192035],[143000.0000175,169546.85296034],[143019.430055,169545.47008034],[143020.237325,169545.40368034],[143023.19926751,169546.07680034],[143024.63843751,169546.16256036],[143030.3826925,169545.80336036],[143033.24842999,169545.53760034],[143034.8539175,169545.64208034],[143035.15780571,169545.70474933],[143035.47153606,169549.28546526],[143019.37460578,169550.49237982],[143010.17260833,169551.16045875],[143001.65361087,169551.78045761],[142992.31560893,169552.42155193],[142989.60760584,169552.58686897],[142987.60960002,169552.68010246],[142985.39858918,169552.74736029],[142984.23558123,169552.76449563],[142981.57355998,169552.77880505],[142976.28951364,169552.77341875],[142972.38688667,169552.73991033]]]},"geometry_name":"GEOM","properties":{"INSPIRE_ID":"https://databrussels.be/id/streetsurface/24913","TYPE":"I","STREET_ID":"https://databrussels.be/id/streetname/3233","STRNAMEFRE":"Avenue d'Itterbeek","STRNAMEDUT":"Itterbeekse Laan","MUNNISCODE":"21001","HIERARCHY":"IDR","LVL":0,"ADMIN":"MUN_RBC","AREA":302},"bbox":[142972.37175377,169545.40368034,143035.47153606,169552.77880505]}],"numberReturned":4,"grand_bruxelles_source":{"authority":"Paradigm / Brussels-Capital Region","service":"https://geoservices-urbis.irisnet.be/geoserver/urbisvector/wfs","layer":"urbisvector:StreetSurfaces","crs":"EPSG:31370","bbox":[142500.0,169500.0,143000.0,170000.0],"cell_id":"bxl-e142500-n169500-s500","ownership":"bbox_intersection_source_unclipped"}}
