{"type":"FeatureCollection","totalFeatures":55,"numberMatched":55,"timeStamp":"2026-08-23T02:00:37.368Z","crs":{"type":"name","properties":{"name":"urn:ogc:def:crs:EPSG::31370"}},"bbox":[145396.8339,166269.4987,146308.2011,167532.16976264],"features":[{"type":"Feature","id":"Buildings.fid--578fcb21_1a02c23451d_-54b6","geometry":{"type":"Polygon","coordinates":[[[145719.363,167263.63],[145730.811,167262.015],[145732.518,167273.248],[145721.13,167274.979],[145719.363,167263.63]]]},"geometry_name":"GEOM","properties":{"INSPIRE_ID":"https://databrussels.be/id/building/1585983","BLOCK_ID":"https://databrussels.be/id/block/30780","AREA":132},"bbox":[145719.363,167262.015,145732.518,167274.979]},{"type":"Feature","id":"Buildings.fid--578fcb21_1a02c23451d_-54b5","geometry":{"type":"Polygon","coordinates":[[[145730.22,167303.56],[145753.96,167300.03],[145759.85,167339.64],[145736.14,167343.18],[145730.22,167303.56]]]},"geometry_name":"GEOM","properties":{"INSPIRE_ID":"https://databrussels.be/id/building/1585988","BLOCK_ID":"https://databrussels.be/id/block/30409","AREA":961},"bbox":[145730.22,167300.03,145759.85,167343.18]},{"type":"Feature","id":"Buildings.fid--578fcb21_1a02c23451d_-54b8","geometry":{"type":"Polygon","coordinates":[[[145700.64,167126.74],[145750.53,167121.11],[145754.48,167156.68],[145759.26,167156.15],[145763.27,167192.19],[145708.52,167198.23],[145700.64,167126.74]]]},"geometry_name":"GEOM","properties":{"INSPIRE_ID":"https://databrussels.be/id/building/1585994","BLOCK_ID":"https://databrussels.be/id/block/30780","AREA":3791},"bbox":[145700.64,167121.11,145763.27,167198.23]},{"type":"Feature","id":"Buildings.fid--578fcb21_1a02c23451d_-54b9","geometry":{"type":"Polygon","coordinates":[[[145693.49114989,167066.62839395],[145748.74999988,167060.4699998],[145753.86,167059.9],[145760.54,167120],[145750.53,167121.11],[145700.64,167126.74],[145699.07380409,167126.90940486],[145698.14580304,167116.71752243],[145699.81962753,167116.48329788],[145694.8427419,167071.84873016],[145694.15147102,167071.91195808],[145693.49114989,167066.62839395]]]},"geometry_name":"GEOM","properties":{"INSPIRE_ID":"https://databrussels.be/id/building/1656923","BLOCK_ID":"https://databrussels.be/id/block/30780","AREA":3650},"bbox":[145693.49114989,167059.9,145760.54,167126.90940486]},{"type":"Feature","id":"Buildings.fid--578fcb21_1a02c23451d_-549d","geometry":{"type":"Polygon","coordinates":[[[145577.04900289,167023.90591874],[145573.69191027,167035.45445343],[145568.822,167034.115],[145567.53008919,167038.56096527],[145569.30452104,167039.04986651],[145566.53998804,167048.55997211],[145573.41196042,167050.45000709],[145573.66118376,167049.54385673],[145575.67926405,167050.09890005],[145575.92848738,167049.19274969],[145577.94656767,167049.74779301],[145578.19579101,167048.84164264],[145580.21387129,167049.39668596],[145580.46309463,167048.4905356],[145582.48117492,167049.04557892],[145582.73039825,167048.13942856],[145584.74847854,167048.69447187],[145584.99770188,167047.78832151],[145587.01578217,167048.34336483],[145588.08191535,167044.46701448],[145602.46208654,167048.42206917],[145606.83711041,167032.56701387],[145601.44795323,167031.00007972],[145599.0955583,167030.31610487],[145593.5185718,167028.69455807],[145577.04900289,167023.90591874]]]},"geometry_name":"GEOM","properties":{"INSPIRE_ID":"https://databrussels.be/id/building/1656962","BLOCK_ID":"https://databrussels.be/id/block/23620","AREA":691},"bbox":[145566.53998804,167023.90591874,145606.83711041,167050.45000709]},{"type":"Feature","id":"Buildings.fid--578fcb21_1a02c23451d_-54c8","geometry":{"type":"Polygon","coordinates":[[[145786.32581269,167458.59084993],[145790.37008309,167450.69476133],[145808.86536013,167460.05783021],[145809.77660728,167462.7859866],[145807.53840522,167467.24374015],[145804.630216,167468.16030456],[145797.62756132,167464.61842881],[145797.7802202,167464.33038265],[145796.15207329,167463.47006151],[145796.05770965,167463.70424971],[145786.32581269,167458.59084993]]]},"geometry_name":"GEOM","properties":{"INSPIRE_ID":"https://databrussels.be/id/building/1658267","BLOCK_ID":"https://databrussels.be/id/block/30409","AREA":201},"bbox":[145786.32581269,167450.69476133,145809.77660728,167468.16030456]},{"type":"Feature","id":"Buildings.fid--578fcb21_1a02c23451d_-54bd","geometry":{"type":"Polygon","coordinates":[[[145611.353,167434.463],[145620.17,167436.889],[145620.624,167435.314],[145624.048,167436.239],[145626.299,167437.013],[145633.114,167440.587],[145628.515,167457.255],[145606.735,167451.268],[145611.353,167434.463]]]},"geometry_name":"GEOM","properties":{"INSPIRE_ID":"https://databrussels.be/id/building/1663553","BLOCK_ID":"https://databrussels.be/id/block/30411","AREA":409},"bbox":[145606.735,167434.463,145633.114,167457.255]},{"type":"Feature","id":"Buildings.fid--578fcb21_1a02c23451d_-54a9","geometry":{"type":"Polygon","coordinates":[[[145518.348,167324.978],[145519.989,167285.852],[145539.444,167286.753],[145537.95,167325.717],[145518.348,167324.978]]]},"geometry_name":"GEOM","properties":{"INSPIRE_ID":"https://databrussels.be/id/building/1663554","BLOCK_ID":"https://databrussels.be/id/block/30411","AREA":764},"bbox":[145518.348,167285.852,145539.444,167325.717]},{"type":"Feature","id":"Buildings.fid--578fcb21_1a02c23451d_-54bc","geometry":{"type":"Polygon","coordinates":[[[145642.039,167461.402],[145646.772,167443.612],[145681.909,167452.768],[145677.217,167470.756],[145642.039,167461.402]]]},"geometry_name":"GEOM","properties":{"INSPIRE_ID":"https://databrussels.be/id/building/1663560","BLOCK_ID":"https://databrussels.be/id/block/30411","AREA":673},"bbox":[145642.039,167443.612,145681.909,167470.756]},{"type":"Feature","id":"Buildings.fid--578fcb21_1a02c23451d_-54c4","geometry":{"type":"Polygon","coordinates":[[[145682.285,167473.961],[145683.174,167471.085],[145688.935,167472.631],[145688.124,167475.516],[145682.285,167473.961]]]},"geometry_name":"GEOM","properties":{"INSPIRE_ID":"https://databrussels.be/id/building/1663561","BLOCK_ID":"https://databrussels.be/id/block/30411","AREA":18},"bbox":[145682.285,167471.085,145688.935,167475.516]},{"type":"Feature","id":"Buildings.fid--578fcb21_1a02c23451d_-54c3","geometry":{"type":"Polygon","coordinates":[[[145692.865,167476.182],[145693.327,167474.478],[145695.348,167474.968],[145694.868,167476.775],[145692.865,167476.182]]]},"geometry_name":"GEOM","properties":{"INSPIRE_ID":"https://databrussels.be/id/building/1663562","BLOCK_ID":"https://databrussels.be/id/block/30411","AREA":4},"bbox":[145692.865,167474.478,145695.348,167476.775]},{"type":"Feature","id":"Buildings.fid--578fcb21_1a02c23451d_-54c1","geometry":{"type":"Polygon","coordinates":[[[145757.573,167484.841],[145759.951,167490.989],[145751.05,167494.449],[145748.639,167488.25],[145757.573,167484.841]]]},"geometry_name":"GEOM","properties":{"INSPIRE_ID":"https://databrussels.be/id/building/1663563","BLOCK_ID":"https://databrussels.be/id/block/30939","AREA":63},"bbox":[145748.639,167484.841,145759.951,167494.449]},{"type":"Feature","id":"Buildings.fid--578fcb21_1a02c23451d_-54c5","geometry":{"type":"Polygon","coordinates":[[[145786.98707643,167465.99123971],[145795.75042234,167470.53598683],[145793.29443748,167475.04998698],[145784.70548099,167470.56360034],[145786.98707643,167465.99123971]]]},"geometry_name":"GEOM","properties":{"INSPIRE_ID":"https://databrussels.be/id/building/1663737","BLOCK_ID":"https://databrussels.be/id/block/30409","AREA":50},"bbox":[145784.70548099,167465.99123971,145795.75042234,167475.04998698]},{"type":"Feature","id":"Buildings.fid--578fcb21_1a02c23451d_-549f","geometry":{"type":"Polygon","coordinates":[[[145577.04900289,167023.90591874],[145593.51974428,167028.69489897],[145599.0955583,167030.31610487],[145601.44795323,167031.00007972],[145606.83711041,167032.56701387],[145611.91995052,167014.31005425],[145613.19128684,167009.74393133],[145615.52501874,167001.36211564],[145598.25586689,166996.61248928],[145581.03106971,166991.87506202],[145578.60005734,167000.23012215],[145599.74877994,167006.04676741],[145598.81583721,167009.43424708],[145577.68695907,167003.62305974],[145572.20009007,167022.49597292],[145577.04900289,167023.90591874]]]},"geometry_name":"GEOM","properties":{"INSPIRE_ID":"https://databrussels.be/id/building/1666249","BLOCK_ID":"https://databrussels.be/id/block/23620","AREA":1077},"bbox":[145572.20009007,166991.87506202,145615.52501874,167032.56701387]},{"type":"Feature","id":"Buildings.fid--578fcb21_1a02c23451d_-54a6","geometry":{"type":"Polygon","coordinates":[[[145541.357,167351.116],[145541.152,167354.645],[145538.689,167354.502],[145538.894,167350.973],[145541.357,167351.116]]]},"geometry_name":"GEOM","properties":{"INSPIRE_ID":"https://databrussels.be/id/building/1666271","BLOCK_ID":"https://databrussels.be/id/block/30411","AREA":9},"bbox":[145538.689,167350.973,145541.357,167354.645]},{"type":"Feature","id":"Buildings.fid--578fcb21_1a02c23451d_-54cd","geometry":{"type":"Polygon","coordinates":[[[146000,167251.811],[145998.273,167247.554],[145999.282,167247.138],[145991.763,167229.375],[145990.809,167229.777],[145988.276,167223.725],[145989.168,167223.324],[145981.089,167204.134],[145987.652,167201.261],[146000,167230.799],[146005.735,167244.272],[146006.769,167243.806],[146012.112,167256.163],[146003.46,167259.94],[146000,167251.811]]]},"geometry_name":"GEOM","properties":{"INSPIRE_ID":"https://databrussels.be/id/building/1667568","BLOCK_ID":"https://databrussels.be/id/block/30894","AREA":464},"bbox":[145981.089,167201.261,146012.112,167259.94]},{"type":"Feature","id":"Buildings.fid--578fcb21_1a02c23451d_-54a4","geometry":{"type":"Polygon","coordinates":[[[145628.9382363,167365.75058737],[145627.86663348,167359.08338619],[145630.6556335,167358.57744668],[145631.71389016,167365.18918479],[145628.9382363,167365.75058737]]]},"geometry_name":"GEOM","properties":{"INSPIRE_ID":"https://databrussels.be/id/building/1667683","BLOCK_ID":"https://databrussels.be/id/block/30411","AREA":19},"bbox":[145627.86663348,167358.57744668,145631.71389016,167365.75058737]},{"type":"Feature","id":"Buildings.fid--578fcb21_1a02c23451d_-54bf","geometry":{"type":"Polygon","coordinates":[[[145855.83153575,167498.16090218],[145854.40018813,167503.42414468],[145843.54115217,167500.55486275],[145844.89385488,167495.12261416],[145855.83153575,167498.16090218]]]},"geometry_name":"GEOM","properties":{"INSPIRE_ID":"https://databrussels.be/id/building/1668863","BLOCK_ID":"https://databrussels.be/id/block/30939","AREA":62},"bbox":[145843.54115217,167495.12261416,145855.83153575,167503.42414468]},{"type":"Feature","id":"Buildings.fid--578fcb21_1a02c23451d_-54a5","geometry":{"type":"Polygon","coordinates":[[[145559.11330556,167427.08712204],[145560.363,167399.869],[145561.933,167368.321],[145562.575,167356.22],[145592.957,167357.663],[145589.43,167428.481],[145585.47299548,167428.31345114],[145585.38083149,167431.31908117],[145581.4184867,167431.20879476],[145581.50429411,167428.08551557],[145559.11330556,167427.08712204]]]},"geometry_name":"GEOM","properties":{"INSPIRE_ID":"https://databrussels.be/id/building/1670399","BLOCK_ID":"https://databrussels.be/id/block/30411","AREA":2170},"bbox":[145559.11330556,167356.22,145592.957,167431.31908117]},{"type":"Feature","id":"Buildings.fid--578fcb21_1a02c23451d_-54ba","geometry":{"type":"Polygon","coordinates":[[[145689.07056061,167027.0152887],[145744.33999996,167020.8300004],[145748.74999988,167060.4699998],[145693.49114989,167066.62839395],[145692.90862267,167061.96729834],[145693.51804858,167061.83416889],[145691.33717454,167041.53530178],[145690.57636046,167041.58426695],[145689.07056061,167027.0152887]]]},"geometry_name":"GEOM","properties":{"INSPIRE_ID":"https://databrussels.be/id/building/1671577","BLOCK_ID":"https://databrussels.be/id/block/30780","AREA":2206},"bbox":[145689.07056061,167020.8300004,145748.74999988,167066.62839395]},{"type":"Feature","id":"Buildings.fid--578fcb21_1a02c23451d_-54a8","geometry":{"type":"Polygon","coordinates":[[[145579.0983,167288.4777],[145597.608,167289.3428],[145595.7248,167329.2977],[145577.3263,167328.488],[145568.6381,167328.1056],[145562.7182,167327.845],[145564.6191,167287.6873],[145575.8703,167288.1946],[145575.9454,167286.5937],[145579.1737,167286.7738],[145579.0983,167288.4777]]]},"geometry_name":"GEOM","properties":{"INSPIRE_ID":"https://databrussels.be/id/building/1671614","BLOCK_ID":"https://databrussels.be/id/block/30411","AREA":1330},"bbox":[145562.7182,167286.5937,145597.608,167329.2977]},{"type":"Feature","id":"Buildings.fid--578fcb21_1a02c23451d_-54cf","geometry":{"type":"Polygon","coordinates":[[[145926.94195804,167073.32095736],[145918.83266041,167054.10960185],[145924.46997522,167051.58402773],[145932.45717425,167070.99023847],[145926.94195804,167073.32095736]]]},"geometry_name":"GEOM","properties":{"INSPIRE_ID":"https://databrussels.be/id/building/1671709","BLOCK_ID":"https://databrussels.be/id/block/30894","AREA":127},"bbox":[145918.83266041,167051.58402773,145932.45717425,167073.32095736]},{"type":"Feature","id":"Buildings.fid--578fcb21_1a02c23451d_-54c2","geometry":{"type":"Polygon","coordinates":[[[145781.52422015,167481.58917143],[145782.95376753,167501.34415207],[145774.22649613,167501.85779664],[145773.07906359,167481.8736026],[145781.52422015,167481.58917143]]]},"geometry_name":"GEOM","properties":{"INSPIRE_ID":"https://databrussels.be/id/building/1672906","BLOCK_ID":"https://databrussels.be/id/block/30939","AREA":171},"bbox":[145773.07906359,167481.58917143,145782.95376753,167501.85779664]},{"type":"Feature","id":"Buildings.fid--578fcb21_1a02c23451d_-54ce","geometry":{"type":"Polygon","coordinates":[[[145934.9456363,167074.78695735],[145938.7388384,167083.77258321],[145969.86500744,167157.46032211],[145973.07351808,167165.10718653],[145972.37123261,167165.4872149],[145976.72747749,167175.8922376],[145976.87060349,167176.38175297],[145976.83674023,167177.17716732],[145976.47803947,167178.01716904],[145976.06843567,167178.6018461],[145975.42302094,167179.13346654],[145974.6307557,167179.50747269],[145973.93962726,167179.60395816],[145973.17790194,167179.55592719],[145972.57360666,167179.32663084],[145971.97450373,167178.91752405],[145971.53329895,167178.37554482],[145966.94494459,167167.56460577],[145966.20763819,167167.90349215],[145962.99193789,167160.25045936],[145932.06372526,167086.64452531],[145928.2838831,167077.64889359],[145934.9456363,167074.78695735]]]},"geometry_name":"GEOM","properties":{"INSPIRE_ID":"https://databrussels.be/id/building/1672928","BLOCK_ID":"https://databrussels.be/id/block/30894","AREA":796},"bbox":[145928.2838831,167074.78695735,145976.87060349,167179.60395816]},{"type":"Feature","id":"Buildings.fid--578fcb21_1a02c23451d_-54b4","geometry":{"type":"Polygon","coordinates":[[[145736.68,167375.29],[145747.82,167373.87],[145752.13,167407.17],[145740.97,167408.62],[145736.68,167375.29]]]},"geometry_name":"GEOM","properties":{"INSPIRE_ID":"https://databrussels.be/id/building/1739041","BLOCK_ID":"https://databrussels.be/id/block/30409","AREA":378},"bbox":[145736.68,167373.87,145752.13,167408.62]},{"type":"Feature","id":"Buildings.fid--578fcb21_1a02c23451d_-54a7","geometry":{"type":"Polygon","coordinates":[[[145656.114,167346.678],[145665.297,167345.249],[145671.628,167385.125],[145662.486,167386.536],[145664.861,167401.39],[145639.647,167405.421],[145626.164,167321.085],[145642.985,167318.396],[145651.378,167317.054],[145656.114,167346.678]]]},"geometry_name":"GEOM","properties":{"INSPIRE_ID":"https://databrussels.be/id/building/1750758","BLOCK_ID":"https://databrussels.be/id/block/30411","AREA":2555},"bbox":[145626.164,167317.054,145671.628,167405.421]},{"type":"Feature","id":"Buildings.fid--578fcb21_1a02c23451d_-54ab","geometry":{"type":"Polygon","coordinates":[[[145531.6526,167234.9132],[145533.3357,167246.9181],[145530.8632,167247.2647],[145529.1801,167235.2599],[145531.6526,167234.9132]]]},"geometry_name":"GEOM","properties":{"INSPIRE_ID":"https://databrussels.be/id/building/1774418","BLOCK_ID":"https://databrussels.be/id/block/24137","AREA":30},"bbox":[145529.1801,167234.9132,145533.3357,167247.2647]},{"type":"Feature","id":"Buildings.fid--578fcb21_1a02c23451d_-54ae","geometry":{"type":"Polygon","coordinates":[[[145629.93335275,167137.34846483],[145615.94040424,167106.41831479],[145595.36511532,167115.72667437],[145595.72387567,167116.51968174],[145591.61025787,167118.3807022],[145592.12056212,167121.56708978],[145591.73842934,167121.73996848],[145596.8435916,167133.02446899],[145609.5429006,167161.09514563],[145614.29896586,167171.60799872],[145621.07395514,167168.54307755],[145637.24417193,167161.22757556],[145637.54808704,167161.09006982],[145627.33838349,167138.52244139],[145629.93335275,167137.34846483]]]},"geometry_name":"GEOM","properties":{"INSPIRE_ID":"https://databrussels.be/id/building/1777558","BLOCK_ID":"https://databrussels.be/id/block/27752","AREA":1587},"bbox":[145591.61025787,167106.41831479,145637.54808704,167171.60799872]},{"type":"Feature","id":"Buildings.fid--578fcb21_1a02c23451d_-549e","geometry":{"type":"Polygon","coordinates":[[[145623.5156327,167029.07608551],[145627.10006817,167030.0619318],[145630.06018322,167019.2992586],[145626.47574775,167018.31341231],[145611.91995052,167014.31005425],[145606.83711041,167032.56701387],[145602.46208654,167048.42206917],[145611.76145149,167050.9797228],[145619.64226703,167043.15924382],[145623.5156327,167029.07608551]]]},"geometry_name":"GEOM","properties":{"INSPIRE_ID":"https://databrussels.be/id/building/1777559","BLOCK_ID":"https://databrussels.be/id/block/23620","AREA":551},"bbox":[145602.46208654,167014.31005425,145630.06018322,167050.9797228]},{"type":"Feature","id":"Buildings.fid--578fcb21_1a02c23451d_-54ac","geometry":{"type":"Polygon","coordinates":[[[145641.24853379,167184.71164443],[145642.40026321,167184.18187177],[145644.78501881,167183.08493154],[145655.09600738,167205.43202468],[145652.63069024,167206.61741104],[145651.48809604,167207.16721741],[145650.42996255,167207.67591166],[145648.03280727,167208.8297813],[145634.01428035,167215.57340203],[145625.461,167219.688],[145615.01501176,167196.78004242],[145619.41714385,167194.755065],[145619.87608431,167194.54395274],[145623.0375216,167193.08940709],[145623.63616426,167192.81397759],[145632.7211453,167212.73752995],[145644.11579933,167207.25612483],[145635.00707629,167187.58301741],[145637.83011622,167186.28404864],[145640.18211767,167185.20217467],[145641.24853379,167184.71164443]]]},"geometry_name":"GEOM","properties":{"INSPIRE_ID":"https://databrussels.be/id/building/1781502","BLOCK_ID":"https://databrussels.be/id/block/27752","AREA":543},"bbox":[145615.01501176,167183.08493154,145655.09600738,167219.688]},{"type":"Feature","id":"Buildings.fid--578fcb21_1a02c23451d_-54ad","geometry":{"type":"Polygon","coordinates":[[[145646.85992169,167182.1300799],[145639.4214142,167165.96041669],[145637.24417193,167161.22757556],[145621.07395514,167168.54307755],[145614.29896586,167171.60799872],[145605.34307668,167175.6599843],[145607.17794262,167179.69422832],[145612.22749636,167179.41702105],[145611.55713589,167177.95980626],[145616.23171504,167175.80936617],[145616.40503763,167176.18613099],[145624.13139654,167172.75346475],[145626.0824834,167176.99469427],[145613.72774457,167182.67822745],[145619.41714385,167194.755065],[145619.87608431,167194.54395274],[145623.0375216,167193.08940709],[145623.63616426,167192.81397759],[145623.88809655,167192.69806607],[145635.00707629,167187.58301742],[145637.83011622,167186.28404864],[145640.18211767,167185.20217467],[145641.24853379,167184.71164443],[145642.40026321,167184.18187177],[145644.78501881,167183.08493154],[145646.85992169,167182.1300799]]]},"geometry_name":"GEOM","properties":{"INSPIRE_ID":"https://databrussels.be/id/building/1781503","BLOCK_ID":"https://databrussels.be/id/block/27752","AREA":658},"bbox":[145605.34307668,167161.22757556,145646.85992169,167194.755065]},{"type":"Feature","id":"Buildings.fid--578fcb21_1a02c23451d_-54c9","geometry":{"type":"Polygon","coordinates":[[[145916.3459,167291.1655],[145914.0928,167292.1455],[145910.1106,167282.9896],[145912.3637,167282.0096],[145916.3459,167291.1655]]]},"geometry_name":"GEOM","properties":{"INSPIRE_ID":"https://databrussels.be/id/building/1787977","BLOCK_ID":"https://databrussels.be/id/block/30894","AREA":25},"bbox":[145910.1106,167282.0096,145916.3459,167292.1455]},{"type":"Feature","id":"Buildings.fid--578fcb21_1a02c23451d_-54c6","geometry":{"type":"Polygon","coordinates":[[[145763.9017,167465.8596],[145764.9792,167469.1388],[145762.363,167469.9984],[145761.2855,167466.7192],[145763.9017,167465.8596]]]},"geometry_name":"GEOM","properties":{"INSPIRE_ID":"https://databrussels.be/id/building/1797857","BLOCK_ID":"https://databrussels.be/id/block/30939","AREA":10},"bbox":[145761.2855,167465.8596,145764.9792,167469.9984]},{"type":"Feature","id":"Buildings.fid--578fcb21_1a02c23451d_-54a3","geometry":{"type":"Polygon","coordinates":[[[145535.1771,167363.3236],[145533.4332,167398.3472],[145493.6094,167396.3643],[145494.321,167382.0733],[145495.3533,167361.3407],[145535.1771,167363.3236]]]},"geometry_name":"GEOM","properties":{"INSPIRE_ID":"https://databrussels.be/id/building/1803305","BLOCK_ID":"https://databrussels.be/id/block/30411","AREA":1398},"bbox":[145493.6094,167361.3407,145535.1771,167398.3472]},{"type":"Feature","id":"Buildings.fid--578fcb21_1a02c23451d_-54b3","geometry":{"type":"Polygon","coordinates":[[[145755.192,167383.344],[145760.086,167380.654],[145765.038,167389.666],[145760.143,167392.355],[145755.192,167383.344]]]},"geometry_name":"GEOM","properties":{"INSPIRE_ID":"https://databrussels.be/id/building/1805013","BLOCK_ID":"https://databrussels.be/id/block/30409","AREA":57},"bbox":[145755.192,167380.654,145765.038,167392.355]},{"type":"Feature","id":"Buildings.fid--578fcb21_1a02c23451d_-54aa","geometry":{"type":"Polygon","coordinates":[[[145511.003,167243.85],[145514.167,167243.467],[145514.61,167247.13],[145511.447,167247.513],[145511.003,167243.85]]]},"geometry_name":"GEOM","properties":{"INSPIRE_ID":"https://databrussels.be/id/building/1807806","BLOCK_ID":"https://databrussels.be/id/block/24137","AREA":12},"bbox":[145511.003,167243.467,145514.61,167247.513]},{"type":"Feature","id":"Buildings.fid--578fcb21_1a02c23451d_-54a2","geometry":{"type":"Polygon","coordinates":[[[145541.27575211,167363.7407778],[145543.7164067,167363.7899713],[145543.6393913,167367.61096369],[145541.19873671,167367.56177019],[145541.27575211,167363.7407778]]]},"geometry_name":"GEOM","properties":{"INSPIRE_ID":"https://databrussels.be/id/building/1808456","BLOCK_ID":"https://databrussels.be/id/block/30411","AREA":9},"bbox":[145541.19873671,167363.7407778,145543.7164067,167367.61096369]},{"type":"Feature","id":"Buildings.fid--578fcb21_1a02c23451d_-54c7","geometry":{"type":"Polygon","coordinates":[[[145843.221,167455.2824],[145844.0243,167454.4823],[145845.9781,167456.444],[145845.1748,167457.2441],[145843.221,167455.2824]]]},"geometry_name":"GEOM","properties":{"INSPIRE_ID":"https://databrussels.be/id/building/1828038","BLOCK_ID":"https://databrussels.be/id/block/30409","AREA":3},"bbox":[145843.221,167454.4823,145845.9781,167457.2441]},{"type":"Feature","id":"Buildings.fid--578fcb21_1a02c23451d_-54ca","geometry":{"type":"MultiPolygon","coordinates":[[[[145929.0514,167275.98140036],[145928.2061,167266.43360035],[145931.2133,167266.16740035],[145932.0586,167275.71520035],[145929.0514,167275.98140036]]]]},"geometry_name":"GEOM","properties":{"INSPIRE_ID":"https://databrussels.be/id/building/1830206","BLOCK_ID":"https://databrussels.be/id/block/30894","AREA":29},"bbox":[145928.2061,167266.16740035,145932.0586,167275.98140036]},{"type":"Feature","id":"Buildings.fid--578fcb21_1a02c23451d_-54cb","geometry":{"type":"MultiPolygon","coordinates":[[[[145903.2168,167261.65000035],[145899.8034,167253.51580035],[145902.5153,167252.37790035],[145905.9286,167260.51200035],[145903.2168,167261.65000035]]]]},"geometry_name":"GEOM","properties":{"INSPIRE_ID":"https://databrussels.be/id/building/1830207","BLOCK_ID":"https://databrussels.be/id/block/30894","AREA":26},"bbox":[145899.8034,167252.37790035,145905.9286,167261.65000035]},{"type":"Feature","id":"Buildings.fid--578fcb21_1a02c23451d_-54cc","geometry":{"type":"MultiPolygon","coordinates":[[[[145899.2981,167252.22330035],[145895.8741,167243.95020035],[145898.6387,167242.80600036],[145902.0627,167251.07910036],[145899.2981,167252.22330035]]]]},"geometry_name":"GEOM","properties":{"INSPIRE_ID":"https://databrussels.be/id/building/1830208","BLOCK_ID":"https://databrussels.be/id/block/30894","AREA":27},"bbox":[145895.8741,167242.80600036,145902.0627,167252.22330035]},{"type":"Feature","id":"Buildings.fid--578fcb21_1a02c23451d_-54b0","geometry":{"type":"MultiPolygon","coordinates":[[[[145884.0556,167223.12000036],[145881.6269,167217.53070035],[145883.8942,167216.54550035],[145886.3229,167222.13480035],[145884.0556,167223.12000036]]]]},"geometry_name":"GEOM","properties":{"INSPIRE_ID":"https://databrussels.be/id/building/1830209","BLOCK_ID":"https://databrussels.be/id/block/30894","AREA":15},"bbox":[145881.6269,167216.54550035,145886.3229,167223.12000036]},{"type":"Feature","id":"Buildings.fid--578fcb21_1a02c23451d_-54b2","geometry":{"type":"MultiPolygon","coordinates":[[[[145786.5374,167027.77850035],[145787.2181,167018.76470035],[145790.2493,167018.99360036],[145789.5687,167028.00740035],[145786.5374,167027.77850035]]]]},"geometry_name":"GEOM","properties":{"INSPIRE_ID":"https://databrussels.be/id/building/1830210","BLOCK_ID":"https://databrussels.be/id/block/31084","AREA":27},"bbox":[145786.5374,167018.76470035,145790.2493,167028.00740035]},{"type":"Feature","id":"Buildings.fid--578fcb21_1a02c23451d_-54d2","geometry":{"type":"Polygon","coordinates":[[[145902.145,166997.921],[145902.922,167000],[145903.259,167000.842],[145897.717,167002.703],[145896.586,167000.07],[145902.145,166997.921]]]},"geometry_name":"GEOM","properties":{"INSPIRE_ID":"https://databrussels.be/id/building/214371","BLOCK_ID":"https://databrussels.be/id/block/30894","AREA":18},"bbox":[145896.586,166997.921,145903.259,167002.703]},{"type":"Feature","id":"Buildings.fid--578fcb21_1a02c23451d_-54b1","geometry":{"type":"Polygon","coordinates":[[[145877.473,167206.786],[145879.047,167206.133],[145880.505,167209.646],[145878.931,167210.299],[145877.473,167206.786]]]},"geometry_name":"GEOM","properties":{"INSPIRE_ID":"https://databrussels.be/id/building/241590","BLOCK_ID":"https://databrussels.be/id/block/30894","AREA":6},"bbox":[145877.473,167206.133,145880.505,167210.299]},{"type":"Feature","id":"Buildings.fid--578fcb21_1a02c23451d_-54d1","geometry":{"type":"Polygon","coordinates":[[[145916.743,167043.155],[145915.173,167043.809],[145913.722,167040.319],[145915.292,167039.666],[145916.743,167043.155]]]},"geometry_name":"GEOM","properties":{"INSPIRE_ID":"https://databrussels.be/id/building/244152","BLOCK_ID":"https://databrussels.be/id/block/30894","AREA":6},"bbox":[145913.722,167039.666,145916.743,167043.809]},{"type":"Feature","id":"Buildings.fid--578fcb21_1a02c23451d_-54d0","geometry":{"type":"Polygon","coordinates":[[[145920.536,167047.468],[145919.727,167047.771],[145919.125,167046.164],[145919.934,167045.861],[145920.536,167047.468]]]},"geometry_name":"GEOM","properties":{"INSPIRE_ID":"https://databrussels.be/id/building/247297","BLOCK_ID":"https://databrussels.be/id/block/30894","AREA":1},"bbox":[145919.125,167045.861,145920.536,167047.771]},{"type":"Feature","id":"Buildings.fid--578fcb21_1a02c23451d_-54be","geometry":{"type":"Polygon","coordinates":[[[145736.109,167499.51],[145736.69,167496],[145739.13,167496.4],[145738.55,167499.91],[145736.109,167499.51]]]},"geometry_name":"GEOM","properties":{"INSPIRE_ID":"https://databrussels.be/id/building/5438","BLOCK_ID":"https://databrussels.be/id/block/31090","AREA":9},"bbox":[145736.109,167496,145739.13,167499.91]},{"type":"Feature","id":"Buildings.fid--578fcb21_1a02c23451d_-54b7","geometry":{"type":"Polygon","coordinates":[[[145716.00153777,167341.9397612],[145716.3755699,167345.3734804],[145713.79038021,167345.64630736],[145713.35401216,167342.20544486],[145716.00153777,167341.9397612]]]},"geometry_name":"GEOM","properties":{"INSPIRE_ID":"https://databrussels.be/id/building/5715","BLOCK_ID":null,"AREA":9},"bbox":[145713.35401216,167341.9397612,145716.3755699,167345.64630736]}],"numberReturned":49,"grand_bruxelles_source":{"authority":"Paradigm / Brussels-Capital Region","service":"https://geoservices-urbis.irisnet.be/geoserver/urbisvector/wfs","layer":"urbisvector:Buildings","crs":"EPSG:31370","bbox":[145500.0,167000.0,146000.0,167500.0],"cell_id":"bxl-e145500-n167000-s500","ownership":"polygon_or_multipolygon_centroid_global_500m_cell"}}
