{"type":"FeatureCollection","totalFeatures":32,"numberMatched":32,"timeStamp":"2026-08-24T02:11:08.413Z","crs":{"type":"name","properties":{"name":"urn:ogc:def:crs:EPSG::31370"}},"bbox":[153483.456,173004.121,153982.617,173496.00719067],"features":[{"type":"Feature","id":"Buildings.fid--6f55e203_1a031389953_2764","geometry":{"type":"Polygon","coordinates":[[[153597.609,173423.985],[153600.01,173424.297],[153599.707,173427.08],[153597.323,173426.856],[153597.609,173423.985]]]},"geometry_name":"GEOM","properties":{"INSPIRE_ID":"https://databrussels.be/id/building/1615833","BLOCK_ID":"https://databrussels.be/id/block/30882","AREA":7},"bbox":[153597.323,173423.985,153600.01,173427.08]},{"type":"Feature","id":"Buildings.fid--6f55e203_1a031389953_2766","geometry":{"type":"Polygon","coordinates":[[[153629.48549642,173337.23060358],[153633.38124805,173332.19991262],[153641.92604936,173338.8169805],[153638.03029773,173343.84767146],[153629.48549642,173337.23060358]]]},"geometry_name":"GEOM","properties":{"INSPIRE_ID":"https://databrussels.be/id/building/1619417","BLOCK_ID":"https://databrussels.be/id/block/30882","AREA":69},"bbox":[153629.48549642,173332.19991262,153641.92604936,173343.84767146]},{"type":"Feature","id":"Buildings.fid--6f55e203_1a031389953_276b","geometry":{"type":"Polygon","coordinates":[[[153723.51433904,173495.62967344],[153723.71211028,173493.33374252],[153728.09471644,173493.71125974],[153727.8969452,173496.00719067],[153723.51433904,173495.62967344]]]},"geometry_name":"GEOM","properties":{"INSPIRE_ID":"https://databrussels.be/id/building/1621709","BLOCK_ID":"https://databrussels.be/id/block/31080","AREA":10},"bbox":[153723.51433904,173493.33374252,153728.09471644,173496.00719067]},{"type":"Feature","id":"Buildings.fid--6f55e203_1a031389953_2763","geometry":{"type":"Polygon","coordinates":[[[153594.04806158,173339.80135214],[153595.04022456,173338.3443248],[153593.19323319,173337.06528888],[153599.36884686,173328.10156398],[153601.34915093,173329.5087169],[153608.28069117,173319.35165919],[153618.42578849,173326.34120711],[153604.10964779,173346.86154593],[153594.04806158,173339.80135214]]]},"geometry_name":"GEOM","properties":{"INSPIRE_ID":"https://databrussels.be/id/building/1630004","BLOCK_ID":"https://databrussels.be/id/block/30882","AREA":331},"bbox":[153593.19323319,173319.35165919,153618.42578849,173346.86154593]},{"type":"Feature","id":"Buildings.fid--6f55e203_1a031389953_2772","geometry":{"type":"Polygon","coordinates":[[[153982.053,173488.688],[153979.426,173488.546],[153979.988,173482.585],[153982.617,173482.994],[153982.053,173488.688]]]},"geometry_name":"GEOM","properties":{"INSPIRE_ID":"https://databrussels.be/id/building/1652419","BLOCK_ID":"https://databrussels.be/id/block/31080","AREA":15},"bbox":[153979.426,173482.585,153982.617,173488.688]},{"type":"Feature","id":"Buildings.fid--6f55e203_1a031389953_2773","geometry":{"type":"Polygon","coordinates":[[[153571.5,173126.24],[153573.24,173131.9],[153567.71,173133.59],[153565.98,173127.93],[153571.5,173126.24]]]},"geometry_name":"GEOM","properties":{"INSPIRE_ID":"https://databrussels.be/id/building/1655713","BLOCK_ID":"https://databrussels.be/id/block/24659","AREA":34},"bbox":[153565.98,173126.24,153573.24,173133.59]},{"type":"Feature","id":"Buildings.fid--6f55e203_1a031389953_2776","geometry":{"type":"Polygon","coordinates":[[[153495.233,173315.472],[153498.685,173311.982],[153506.462,173318.42],[153503.145,173322.457],[153495.233,173315.472]]]},"geometry_name":"GEOM","properties":{"INSPIRE_ID":"https://databrussels.be/id/building/1657947","BLOCK_ID":"https://databrussels.be/id/block/24679","AREA":52},"bbox":[153495.233,173311.982,153506.462,173322.457]},{"type":"Feature","id":"Buildings.fid--6f55e203_1a031389953_2779","geometry":{"type":"Polygon","coordinates":[[[153594.21,173362.41],[153581.188,173353.188],[153585.086,173347.332],[153598.064,173356.871],[153594.21,173362.41]]]},"geometry_name":"GEOM","properties":{"INSPIRE_ID":"https://databrussels.be/id/building/1661999","BLOCK_ID":"https://databrussels.be/id/block/30882","AREA":110},"bbox":[153581.188,173347.332,153598.064,173362.41]},{"type":"Feature","id":"Buildings.fid--6f55e203_1a031389953_2778","geometry":{"type":"Polygon","coordinates":[[[153582.429,173362.374],[153589.134,173379.322],[153579.877,173383.085],[153573.077,173366.179],[153582.429,173362.374]]]},"geometry_name":"GEOM","properties":{"INSPIRE_ID":"https://databrussels.be/id/building/1662000","BLOCK_ID":"https://databrussels.be/id/block/30882","AREA":183},"bbox":[153573.077,173362.374,153589.134,173383.085]},{"type":"Feature","id":"Buildings.fid--6f55e203_1a031389953_2765","geometry":{"type":"Polygon","coordinates":[[[153606.547,173421.084],[153612.243,173422.4],[153611.725,173425.501],[153605.319,173426.096],[153606.547,173421.084]]]},"geometry_name":"GEOM","properties":{"INSPIRE_ID":"https://databrussels.be/id/building/1662001","BLOCK_ID":"https://databrussels.be/id/block/30882","AREA":25},"bbox":[153605.319,173421.084,153612.243,173426.096]},{"type":"Feature","id":"Buildings.fid--6f55e203_1a031389953_276e","geometry":{"type":"Polygon","coordinates":[[[153889.28,173344.92],[153892.25,173345.66],[153891.8,173347.46],[153888.83,173346.73],[153889.28,173344.92]]]},"geometry_name":"GEOM","properties":{"INSPIRE_ID":"https://databrussels.be/id/building/1662534","BLOCK_ID":"https://databrussels.be/id/block/30882","AREA":6},"bbox":[153888.83,173344.92,153892.25,173347.46]},{"type":"Feature","id":"Buildings.fid--6f55e203_1a031389953_276c","geometry":{"type":"Polygon","coordinates":[[[153765.83,173290.78],[153764.088,173293.02],[153762.48,173291.78],[153763.345,173290.655],[153764.22,173289.53],[153765.83,173290.78]]]},"geometry_name":"GEOM","properties":{"INSPIRE_ID":"https://databrussels.be/id/building/1663850","BLOCK_ID":"https://databrussels.be/id/block/30882","AREA":6},"bbox":[153762.48,173289.53,153765.83,173293.02]},{"type":"Feature","id":"Buildings.fid--6f55e203_1a031389953_2769","geometry":{"type":"Polygon","coordinates":[[[153693.54,173382.45],[153697.84,173376.3],[153700.25,173377.98],[153695.95,173384.13],[153693.54,173382.45]]]},"geometry_name":"GEOM","properties":{"INSPIRE_ID":"https://databrussels.be/id/building/1663854","BLOCK_ID":"https://databrussels.be/id/block/30882","AREA":22},"bbox":[153693.54,173376.3,153700.25,173384.13]},{"type":"Feature","id":"Buildings.fid--6f55e203_1a031389953_2767","geometry":{"type":"Polygon","coordinates":[[[153645.29,173184.52],[153654.11,173190.77],[153649.5,173197.28],[153640.68,173191.03],[153645.29,173184.52]]]},"geometry_name":"GEOM","properties":{"INSPIRE_ID":"https://databrussels.be/id/building/1666549","BLOCK_ID":"https://databrussels.be/id/block/30882","AREA":86},"bbox":[153640.68,173184.52,153654.11,173197.28]},{"type":"Feature","id":"Buildings.fid--6f55e203_1a031389953_2768","geometry":{"type":"Polygon","coordinates":[[[153647.19,173464.5],[153647.54,173458.56],[153652.74,173458.73],[153652.47,173464.76],[153647.19,173464.5]]]},"geometry_name":"GEOM","properties":{"INSPIRE_ID":"https://databrussels.be/id/building/1667901","BLOCK_ID":"https://databrussels.be/id/block/31080","AREA":31},"bbox":[153647.19,173458.56,153652.74,173464.76]},{"type":"Feature","id":"Buildings.fid--6f55e203_1a031389953_2761","geometry":{"type":"Polygon","coordinates":[[[153582.59,173390.69],[153592.24,173386.93],[153599.24,173404.43],[153589.47,173408.23],[153582.59,173390.69]]]},"geometry_name":"GEOM","properties":{"INSPIRE_ID":"https://databrussels.be/id/building/1667906","BLOCK_ID":"https://databrussels.be/id/block/30882","AREA":196},"bbox":[153582.59,173386.93,153599.24,173408.23]},{"type":"Feature","id":"Buildings.fid--6f55e203_1a031389953_276a","geometry":{"type":"Polygon","coordinates":[[[153714.571,173147.9376],[153711.6248,173145.8755],[153707.1308,173152.2962],[153700.4321,173147.6076],[153705.6173,173140.1992],[153696.4984,173133.8167],[153716.6256,173105.0603],[153738.8727,173120.6315],[153737.3872,173122.7539],[153748.2546,173130.3602],[153742.1372,173139.1003],[153745.6482,173141.5577],[153737.0569,173153.8324],[153738.4238,173154.7891],[153736.0886,173158.1256],[153734.7216,173157.1689],[153727.9386,173166.86],[153710.077,173154.3583],[153714.571,173147.9376]]]},"geometry_name":"GEOM","properties":{"INSPIRE_ID":"https://databrussels.be/id/building/1784381","BLOCK_ID":"https://databrussels.be/id/block/30882","AREA":1760},"bbox":[153696.4984,173105.0603,153748.2546,173166.86]},{"type":"Feature","id":"Buildings.fid--6f55e203_1a031389953_2762","geometry":{"type":"Polygon","coordinates":[[[153589.1745,173329.0295],[153589.15,173328.9342],[153589.1332,173328.8372],[153589.1244,173328.7391],[153589.1236,173328.6407],[153589.1308,173328.5426],[153589.1459,173328.4453],[153589.1688,173328.3496],[153589.1995,173328.256],[153589.2376,173328.1653],[153589.283,173328.078],[153589.3353,173327.9946],[153589.3943,173327.9157],[153589.4594,173327.8419],[153589.5303,173327.7737],[153589.6065,173327.7114],[153589.6875,173327.6555],[153589.7728,173327.6063],[153589.8618,173327.5643],[153589.9539,173327.5296],[153590.0485,173327.5025],[153590.145,173327.4832],[153590.2428,173327.4717],[153590.3412,173327.4683],[153590.4395,173327.4728],[153590.5371,173327.4853],[153590.6334,173327.5057],[153590.7277,173327.5338],[153590.8195,173327.5695],[153590.908,173327.6126],[153590.9927,173327.6626],[153591.0731,173327.7194],[153591.1486,173327.7826],[153591.2188,173327.8516],[153591.2831,173327.9261],[153591.3412,173328.0056],[153591.3926,173328.0896],[153591.437,173328.1774],[153591.4741,173328.2685],[153591.5037,173328.3624],[153591.5256,173328.4584],[153591.5397,173328.5558],[153591.5458,173328.654],[153591.5439,173328.7524],[153591.534,173328.8504],[153591.5162,173328.9472],[153591.4906,173329.0422],[153591.4573,173329.1349],[153591.4167,173329.2245],[153591.3689,173329.3106],[153591.3143,173329.3925],[153591.2532,173329.4696],[153591.186,173329.5416],[153591.1133,173329.6079],[153591.0354,173329.668],[153590.9528,173329.7217],[153590.8662,173329.7684],[153590.7761,173329.808],[153590.6831,173329.8401],[153590.5877,173329.8646],[153590.4907,173329.8812],[153590.3927,173329.8899],[153590.2942,173329.8907],[153590.1961,173329.8834],[153590.0988,173329.8682],[153590.0031,173329.8451],[153589.9096,173329.8144],[153589.8189,173329.7762],[153589.7316,173329.7307],[153589.6483,173329.6783],[153589.5695,173329.6193],[153589.4958,173329.5541],[153589.4276,173329.4831],[153589.3654,173329.4068],[153589.3095,173329.3258],[153589.2605,173329.2404],[153589.2185,173329.1514],[153589.1839,173329.0593],[153589.1745,173329.0295]]]},"geometry_name":"GEOM","properties":{"INSPIRE_ID":"https://databrussels.be/id/building/1828439","BLOCK_ID":"https://databrussels.be/id/block/30882","AREA":5},"bbox":[153589.1236,173327.4683,153591.5458,173329.8907]},{"type":"Feature","id":"Buildings.fid--6f55e203_1a031389953_2774","geometry":{"type":"Polygon","coordinates":[[[153666.1457,173081.7176],[153663.8944,173080.1081],[153665.9118,173077.2862],[153667.4132,173075.1861],[153668.3571,173075.8609],[153666.8557,173077.961],[153668.1631,173078.8957],[153666.1457,173081.7176]]]},"geometry_name":"GEOM","properties":{"INSPIRE_ID":"https://databrussels.be/id/building/1828440","BLOCK_ID":"https://databrussels.be/id/block/30882","AREA":13},"bbox":[153663.8944,173075.1861,153668.3571,173081.7176]},{"type":"Feature","id":"Buildings.fid--6f55e203_1a031389953_2777","geometry":{"type":"MultiPolygon","coordinates":[[[[153573.8789,173359.88700034],[153563.3319,173352.48440034],[153575.1887,173335.59120034],[153585.7357,173342.99370034],[153573.8789,173359.88700034]],[[153575.1496,173350.55560034],[153571.7347,173348.15880034],[153570.6217,173349.74460034],[153574.0366,173352.14140034],[153575.1496,173350.55560034]]]]},"geometry_name":"GEOM","properties":{"INSPIRE_ID":"https://databrussels.be/id/building/1830704","BLOCK_ID":"https://databrussels.be/id/block/30882","AREA":258},"bbox":[153563.3319,173335.59120034,153585.7357,173359.88700034]},{"type":"Feature","id":"Buildings.fid--6f55e203_1a031389953_275a","geometry":{"type":"Polygon","coordinates":[[[153721.944,173009.024],[153725.104,173004.121],[153727.677,173005.78],[153724.517,173010.682],[153721.944,173009.024]]]},"geometry_name":"GEOM","properties":{"INSPIRE_ID":"https://databrussels.be/id/building/239506","BLOCK_ID":null,"AREA":18},"bbox":[153721.944,173004.121,153727.677,173010.682]},{"type":"Feature","id":"Buildings.fid--6f55e203_1a031389953_275d","geometry":{"type":"Polygon","coordinates":[[[153709.694,173032.566],[153707.077,173030.81],[153710.172,173026.197],[153712.789,173027.952],[153709.694,173032.566]]]},"geometry_name":"GEOM","properties":{"INSPIRE_ID":"https://databrussels.be/id/building/244097","BLOCK_ID":null,"AREA":18},"bbox":[153707.077,173026.197,153712.789,173032.566]},{"type":"Feature","id":"Buildings.fid--6f55e203_1a031389953_275b","geometry":{"type":"Polygon","coordinates":[[[153710.01,173032.9],[153710.31,173032.47],[153717.21,173022.57],[153719.15,173023.96],[153720.91,173021.41],[153721.03,173021.5],[153722.63,173018.99],[153722.52,173018.93],[153724.54,173016.09],[153729.42,173019.34],[153727.37,173022.19],[153723.9,173027.28],[153723.74,173027.18],[153716.74,173037.46],[153710.01,173032.9]]]},"geometry_name":"GEOM","properties":{"INSPIRE_ID":"https://databrussels.be/id/building/63275","BLOCK_ID":null,"AREA":156},"bbox":[153710.01,173016.09,153729.42,173037.46]},{"type":"Feature","id":"Buildings.fid--6f55e203_1a031389953_276d","geometry":{"type":"Polygon","coordinates":[[[153879.45869965,173262.66633401],[153882.33865764,173261.48831897],[153883.08428946,173263.311206],[153880.20433148,173264.48922103],[153879.45869965,173262.66633401]]]},"geometry_name":"GEOM","properties":{"INSPIRE_ID":"https://databrussels.be/id/building/64040","BLOCK_ID":null,"AREA":6},"bbox":[153879.45869965,173261.48831897,153883.08428946,173264.48922103]},{"type":"Feature","id":"Buildings.fid--6f55e203_1a031389953_276f","geometry":{"type":"Polygon","coordinates":[[[153938.10960567,173231.25025782],[153936.34426,173230.15789993],[153937.98553861,173227.6223725],[153939.70104048,173228.61200208],[153938.10960567,173231.25025782]]]},"geometry_name":"GEOM","properties":{"INSPIRE_ID":"https://databrussels.be/id/building/64041","BLOCK_ID":null,"AREA":6},"bbox":[153936.34426,173227.6223725,153939.70104048,173231.25025782]},{"type":"Feature","id":"Buildings.fid--6f55e203_1a031389953_2760","geometry":{"type":"Polygon","coordinates":[[[153788.96084783,173095.08278469],[153787.11612979,173093.92743711],[153788.90349754,173091.3352088],[153790.63618533,173092.49940227],[153788.96084783,173095.08278469]]]},"geometry_name":"GEOM","properties":{"INSPIRE_ID":"https://databrussels.be/id/building/64692","BLOCK_ID":null,"AREA":7},"bbox":[153787.11612979,173091.3352088,153790.63618533,173095.08278469]},{"type":"Feature","id":"Buildings.fid--6f55e203_1a031389953_275f","geometry":{"type":"Polygon","coordinates":[[[153897.833,173044.55],[153896.645,173043.305],[153898.756,173041.289],[153899.987,173042.594],[153897.833,173044.55]]]},"geometry_name":"GEOM","properties":{"INSPIRE_ID":"https://databrussels.be/id/building/64862","BLOCK_ID":null,"AREA":5},"bbox":[153896.645,173041.289,153899.987,173044.55]},{"type":"Feature","id":"Buildings.fid--6f55e203_1a031389953_2771","geometry":{"type":"Polygon","coordinates":[[[153962.666,173224.847],[153963.483,173223.264],[153966.007,173224.752],[153965.146,173226.361],[153962.666,173224.847]]]},"geometry_name":"GEOM","properties":{"INSPIRE_ID":"https://databrussels.be/id/building/64863","BLOCK_ID":null,"AREA":5},"bbox":[153962.666,173223.264,153966.007,173226.361]},{"type":"Feature","id":"Buildings.fid--6f55e203_1a031389953_2770","geometry":{"type":"Polygon","coordinates":[[[153947.288,173143.876],[153951.736,173142.815],[153954.342,173149.572],[153947.88,173151.03],[153947.288,173143.876]]]},"geometry_name":"GEOM","properties":{"INSPIRE_ID":"https://databrussels.be/id/building/64864","BLOCK_ID":null,"AREA":40},"bbox":[153947.288,173142.815,153954.342,173151.03]},{"type":"Feature","id":"Buildings.fid--6f55e203_1a031389953_275c","geometry":{"type":"Polygon","coordinates":[[[153729.55,173042.89],[153719.45,173035.74],[153730.95,173019.51],[153741.05,173026.66],[153729.55,173042.89]]]},"geometry_name":"GEOM","properties":{"INSPIRE_ID":"https://databrussels.be/id/building/67760","BLOCK_ID":null,"AREA":246},"bbox":[153719.45,173019.51,153741.05,173042.89]},{"type":"Feature","id":"Buildings.fid--6f55e203_1a031389953_275e","geometry":{"type":"Polygon","coordinates":[[[153742.63,173052.09],[153732.48,173044.99],[153743.94,173028.59],[153754.09,173035.69],[153742.63,173052.09]]]},"geometry_name":"GEOM","properties":{"INSPIRE_ID":"https://databrussels.be/id/building/67761","BLOCK_ID":null,"AREA":248},"bbox":[153732.48,173028.59,153754.09,173052.09]}],"numberReturned":31,"grand_bruxelles_source":{"authority":"Paradigm / Brussels-Capital Region","service":"https://geoservices-urbis.irisnet.be/geoserver/urbisvector/wfs","layer":"urbisvector:Buildings","crs":"EPSG:31370","bbox":[153500.0,173000.0,154000.0,173500.0],"cell_id":"bxl-e153500-n173000-s500","ownership":"polygon_or_multipolygon_centroid_global_500m_cell"}}
