{"type":"FeatureCollection","totalFeatures":33,"numberMatched":33,"timeStamp":"2026-08-23T00:56:59.121Z","crs":{"type":"name","properties":{"name":"urn:ogc:def:crs:EPSG::31370"}},"bbox":[144305.31,170446.04512,145076.96080832,171525.795],"features":[{"type":"Feature","id":"StreetAxes.fid--6f55e203_1a02c11fc5a_-4964","geometry":{"type":"LineString","coordinates":[[144877.21138379,170468.42513692],[144882.73891696,170474.27242099],[144891.39059154,170481.13212942],[144906.73831192,170493.17355956],[144927.08536787,170509.08508462],[144943.64994912,170522.04316816],[144961.57634604,170538.16507764],[144976.32471968,170553.17764054],[144993.60184641,170572.73371729],[145006.5172708,170589.41709921],[145018.42109592,170606.51756745],[145022.77725988,170613.32555279],[145026.06059679,170619.06762239]]},"geometry_name":"GEOM","properties":{"INSPIRE_ID":"https://databrussels.be/id/streetaxe/100416","TYPE":"S","HIERARCHY":"MER","LVL":0,"STARTSN_ID":"https://databrussels.be/id/streetnode/","ENDSN_ID":"https://databrussels.be/id/streetnode/","STRNAMEFRE":"Boulevard de la Grande Ceinture","STRNAMEDUT":"Grote-Ringlaan","SLOPE":2.96,"LENGTH":213.336272833957},"bbox":[144877.21138379,170468.42513692,145026.06059679,170619.06762239]},{"type":"Feature","id":"StreetAxes.fid--6f55e203_1a02c11fc5a_-4978","geometry":{"type":"LineString","coordinates":[[145076.96080832,170853.59005288],[145053.699,170850.496],[145010.688,170844.964],[144998.832,170844.106]]},"geometry_name":"GEOM","properties":{"INSPIRE_ID":"https://databrussels.be/id/streetaxe/73808","TYPE":"S","HIERARCHY":"DR","LVL":0,"STARTSN_ID":"https://databrussels.be/id/streetnode/13930","ENDSN_ID":"https://databrussels.be/id/streetnode/2979","STRNAMEFRE":"Rue de l'Aubade","STRNAMEDUT":"Aubadestraat","SLOPE":0.76,"LENGTH":78.7189805157144},"bbox":[144998.832,170844.106,145076.96080832,170853.59005288]},{"type":"Feature","id":"StreetAxes.fid--6f55e203_1a02c11fc5a_-497b","geometry":{"type":"LineString","coordinates":[[144947.04177682,170709.22291147],[144944.774,170726.507],[144938.286,170775.956],[144934.476,170804.713]]},"geometry_name":"GEOM","properties":{"INSPIRE_ID":"https://databrussels.be/id/streetaxe/73876","TYPE":"S","HIERARCHY":"DR","LVL":0,"STARTSN_ID":"https://databrussels.be/id/streetnode/13933","ENDSN_ID":"https://databrussels.be/id/streetnode/1876","STRNAMEFRE":"Rue du Gazouillis","STRNAMEDUT":"Gekweelstraat","SLOPE":0.09,"LENGTH":96.313336885289},"bbox":[144934.476,170709.22291147,144947.04177682,170804.713]},{"type":"Feature","id":"StreetAxes.fid--6f55e203_1a02c11fc5a_-4969","geometry":{"type":"LineString","coordinates":[[144797.38078131,170689.44174311],[144803.411,170673.528],[144830.076,170599.126],[144833.695,170589.469]]},"geometry_name":"GEOM","properties":{"INSPIRE_ID":"https://databrussels.be/id/streetaxe/73877","TYPE":"S","HIERARCHY":"DR","LVL":0,"STARTSN_ID":"https://databrussels.be/id/streetnode/13935","ENDSN_ID":"https://databrussels.be/id/streetnode/13937","STRNAMEFRE":"Avenue de la Poésie","STRNAMEDUT":"Dichtkunstlaan","SLOPE":2.65,"LENGTH":106.366740919024},"bbox":[144797.38078131,170589.469,144833.695,170689.44174311]},{"type":"Feature","id":"StreetAxes.fid--6f55e203_1a02c11fc5a_-4973","geometry":{"type":"LineString","coordinates":[[144797.38078131,170689.44174311],[144791.66,170704.54],[144763.871,170780.013]]},"geometry_name":"GEOM","properties":{"INSPIRE_ID":"https://databrussels.be/id/streetaxe/73878","TYPE":"S","HIERARCHY":"DR","LVL":0,"STARTSN_ID":"https://databrussels.be/id/streetnode/13935","ENDSN_ID":"https://databrussels.be/id/streetnode/17333","STRNAMEFRE":"Rue de la Tarentelle","STRNAMEDUT":"Tarantellastraat","SLOPE":0.16,"LENGTH":96.5721110045813},"bbox":[144763.871,170689.44174311,144797.38078131,170780.013]},{"type":"Feature","id":"StreetAxes.fid--6f55e203_1a02c11fc5a_-4976","geometry":{"type":"LineString","coordinates":[[144625.30236685,170666.64092698],[144623.10892183,170682.66522582],[144610.157,170777.286]]},"geometry_name":"GEOM","properties":{"INSPIRE_ID":"https://databrussels.be/id/streetaxe/73879","TYPE":"S","HIERARCHY":"DR","LVL":0,"STARTSN_ID":"https://databrussels.be/id/streetnode/13936","ENDSN_ID":"https://databrussels.be/id/streetnode/1234","STRNAMEFRE":"Rue de la Cantilène","STRNAMEDUT":"Cantilenestraat","SLOPE":0.7,"LENGTH":111.676829831208},"bbox":[144610.157,170666.64092698,144625.30236685,170777.286]},{"type":"Feature","id":"StreetAxes.fid--6f55e203_1a02c11fc5a_-4966","geometry":{"type":"LineString","coordinates":[[144514.87617487,170650.25878431],[144573.06002371,170659.67716642],[144625.30236685,170666.64092698]]},"geometry_name":"GEOM","properties":{"INSPIRE_ID":"https://databrussels.be/id/streetaxe/73990","TYPE":"S","HIERARCHY":"MER","LVL":0,"STARTSN_ID":"https://databrussels.be/id/streetnode/13922","ENDSN_ID":"https://databrussels.be/id/streetnode/13936","STRNAMEFRE":"Chaussée de Ninove","STRNAMEDUT":"Ninoofsesteenweg","SLOPE":1.32,"LENGTH":111.645634239499},"bbox":[144514.87617487,170650.25878431,144625.30236685,170666.64092698]},{"type":"Feature","id":"StreetAxes.fid--6f55e203_1a02c11fc5a_-4979","geometry":{"type":"LineString","coordinates":[[144998.832,170844.106],[144998.484,170855.529],[144979.86,170998.062],[144978.645,171016.905],[144975.382,171028.806]]},"geometry_name":"GEOM","properties":{"INSPIRE_ID":"https://databrussels.be/id/streetaxe/77403","TYPE":"S","HIERARCHY":"DR","LVL":0,"STARTSN_ID":"https://databrussels.be/id/streetnode/2979","ENDSN_ID":"https://databrussels.be/id/streetnode/9913","STRNAMEFRE":"Rue du Menuet","STRNAMEDUT":"Menuetstraat","SLOPE":0.89,"LENGTH":186.395246352372},"bbox":[144975.382,170844.106,144998.832,171028.806]},{"type":"Feature","id":"StreetAxes.fid--6f55e203_1a02c11fc5a_-4974","geometry":{"type":"LineString","coordinates":[[144745.42823378,170682.65337443],[144751.22273926,170686.92763321],[144788.39079017,170692.54878449],[144797.38078131,170689.44174311]]},"geometry_name":"GEOM","properties":{"INSPIRE_ID":"https://databrussels.be/id/streetaxe/77870","TYPE":"S","HIERARCHY":"MER","LVL":0,"STARTSN_ID":"https://databrussels.be/id/streetnode/8584","ENDSN_ID":"https://databrussels.be/id/streetnode/13935","STRNAMEFRE":"Chaussée de Ninove","STRNAMEDUT":"Ninoofse Steenweg","SLOPE":1.2,"LENGTH":54.3028595110902},"bbox":[144745.42823378,170682.65337443,144797.38078131,170692.54878449]},{"type":"Feature","id":"StreetAxes.fid--6f55e203_1a02c11fc5a_-4965","geometry":{"type":"LineString","coordinates":[[144877.710272,170446.14157473],[144882.62055216,170455.14764315],[144888.48047482,170462.59378494],[144901.69616552,170473.46010715],[144913.15118232,170482.59413424],[144936.00116647,170500.51705169],[144951.34803686,170512.72841001],[144972.56446095,170531.9613676],[144983.9587057,170543.5967304],[145007.04466021,170570.05238047],[145017.18058372,170583.25864007],[145036.44393514,170611.55101163],[145043.40259641,170622.94487382],[145049.09060293,170629.28718506],[145056.71208472,170633.5486707],[145064.53083953,170635.28717977],[145072.58323458,170636.44324395]]},"geometry_name":"GEOM","properties":{"INSPIRE_ID":"https://databrussels.be/id/streetaxe/79213","TYPE":"S","HIERARCHY":"MER","LVL":0,"STARTSN_ID":"https://databrussels.be/id/streetnode/6235","ENDSN_ID":"https://databrussels.be/id/streetnode/8578","STRNAMEFRE":"Boulevard de la Grande Ceinture","STRNAMEDUT":"Grote-Ringlaan","SLOPE":2.72,"LENGTH":277.802046904283},"bbox":[144877.710272,170446.14157473,145072.58323458,170636.44324395]},{"type":"Feature","id":"StreetAxes.fid--6f55e203_1a02c11fc5a_-4977","geometry":{"type":"LineString","coordinates":[[144625.30236685,170666.64092698],[144745.42823378,170682.65337443]]},"geometry_name":"GEOM","properties":{"INSPIRE_ID":"https://databrussels.be/id/streetaxe/81175","TYPE":"S","HIERARCHY":"MER","LVL":0,"STARTSN_ID":"https://databrussels.be/id/streetnode/13936","ENDSN_ID":"https://databrussels.be/id/streetnode/8584","STRNAMEFRE":"Chaussée de Ninove","STRNAMEDUT":"Ninoofse Steenweg","SLOPE":1.18,"LENGTH":121.188375591288},"bbox":[144625.30236685,170666.64092698,144745.42823378,170682.65337443]},{"type":"Feature","id":"StreetAxes.fid--6f55e203_1a02c11fc5a_-497c","geometry":{"type":"LineString","coordinates":[[144947.04177682,170709.22291147],[144933.32176861,170707.40340992],[144797.38078131,170689.44174311]]},"geometry_name":"GEOM","properties":{"INSPIRE_ID":"https://databrussels.be/id/streetaxe/83542","TYPE":"S","HIERARCHY":"MER","LVL":0,"STARTSN_ID":"https://databrussels.be/id/streetnode/13933","ENDSN_ID":"https://databrussels.be/id/streetnode/13935","STRNAMEFRE":"Chaussée de Ninove","STRNAMEDUT":"Ninoofse Steenweg","SLOPE":1.09,"LENGTH":150.962606751778},"bbox":[144797.38078131,170689.44174311,144947.04177682,170709.22291147]},{"type":"Feature","id":"StreetAxes.fid--6f55e203_1a02c11fc5a_-497a","geometry":{"type":"LineString","coordinates":[[145067.36467418,170723.52713545],[145052.49979825,170721.53789548],[145036.998,170719.137],[144958.14961457,170710.69599572],[144947.04177682,170709.22291147]]},"geometry_name":"GEOM","properties":{"INSPIRE_ID":"https://databrussels.be/id/streetaxe/83608","TYPE":"S","HIERARCHY":"MER","LVL":0,"STARTSN_ID":"https://databrussels.be/id/streetnode/13932","ENDSN_ID":"https://databrussels.be/id/streetnode/13933","STRNAMEFRE":"Chaussée de Ninove","STRNAMEDUT":"Ninoofse Steenweg","SLOPE":0.58,"LENGTH":121.188014904177},"bbox":[144947.04177682,170709.22291147,145067.36467418,170723.52713545]},{"type":"Feature","id":"StreetAxes.fid--6f55e203_1a02c11fc5a_-4967","geometry":{"type":"LineString","coordinates":[[144497.202508,170652.33035037],[144505.21208197,170653.38823589],[144514.87617487,170650.25878431]]},"geometry_name":"GEOM","properties":{"INSPIRE_ID":"https://databrussels.be/id/streetaxe/83643","TYPE":"S","HIERARCHY":"MER","LVL":0,"STARTSN_ID":"https://databrussels.be/id/streetnode/8589","ENDSN_ID":"https://databrussels.be/id/streetnode/13922","STRNAMEFRE":"Chaussée de Ninove","STRNAMEDUT":"Ninoofsesteenweg","SLOPE":0.99,"LENGTH":18.2372906801872},"bbox":[144497.202508,170650.25878431,144514.87617487,170653.38823589]},{"type":"Feature","id":"StreetAxes.fid--6f55e203_1a02c11fc5a_-4963","geometry":{"type":"LineString","coordinates":[[145026.06059679,170619.06762239],[145017.34236975,170624.05273727],[144990.618,170620.252],[144934.145,170611.59],[144843.606,170591.658],[144833.695,170589.469]]},"geometry_name":"GEOM","properties":{"INSPIRE_ID":"https://databrussels.be/id/streetaxe/83644","TYPE":"S","HIERARCHY":"DR","LVL":0,"STARTSN_ID":"https://databrussels.be/id/streetnode/8590","ENDSN_ID":"https://databrussels.be/id/streetnode/13937","STRNAMEFRE":"Rue Van Soust","STRNAMEDUT":"Van Souststraat","SLOPE":0.9,"LENGTH":197.026476447712},"bbox":[144833.695,170589.469,145026.06059679,170624.05273727]},{"type":"Feature","id":"StreetAxes.fid--6f55e203_1a02c11fc5a_-4968","geometry":{"type":"LineString","coordinates":[[144499.84840387,170643.6831926],[144514.87617487,170650.25878431]]},"geometry_name":"GEOM","properties":{"INSPIRE_ID":"https://databrussels.be/id/streetaxe/83645","TYPE":"S","HIERARCHY":"MER","LVL":0,"STARTSN_ID":"https://databrussels.be/id/streetnode/8594","ENDSN_ID":"https://databrussels.be/id/streetnode/13922","STRNAMEFRE":"Chaussée de Ninove","STRNAMEDUT":"Ninoofsesteenweg","SLOPE":0.98,"LENGTH":16.4034236578475},"bbox":[144499.84840387,170643.6831926,144514.87617487,170650.25878431]},{"type":"Feature","id":"StreetAxes.fid--6f55e203_1a02c11fc5a_-4975","geometry":{"type":"LineString","coordinates":[[144797.38078131,170689.44174311],[144792.67382117,170685.0868214],[144750.71678845,170679.67867903],[144745.42823378,170682.65337443]]},"geometry_name":"GEOM","properties":{"INSPIRE_ID":"https://databrussels.be/id/streetaxe/84140","TYPE":"S","HIERARCHY":"MER","LVL":0,"STARTSN_ID":"https://databrussels.be/id/streetnode/13935","ENDSN_ID":"https://databrussels.be/id/streetnode/8584","STRNAMEFRE":"Chaussée de Ninove","STRNAMEDUT":"Ninoofse Steenweg","SLOPE":1.19,"LENGTH":54.7844482256814},"bbox":[144745.42823378,170679.67867903,144797.38078131,170689.44174311]},{"type":"Feature","id":"StreetAxes.fid--6f55e203_1a02c11fc5a_-496d","geometry":{"type":"LineString","coordinates":[[144594.901,170532.05],[144592.008,170535.426],[144581.816,170547.319],[144516.41,170621.068],[144511.46723919,170627.54328586],[144507.1433266,170633.54970078],[144499.84840387,170643.6831926]]},"geometry_name":"GEOM","properties":{"INSPIRE_ID":"https://databrussels.be/id/streetaxe/84436","TYPE":"S","HIERARCHY":"DR","LVL":0,"STARTSN_ID":"https://databrussels.be/id/streetnode/13939","ENDSN_ID":"https://databrussels.be/id/streetnode/8594","STRNAMEFRE":"Rue du Potaerdenberg","STRNAMEDUT":"Potaerdenbergstraat","SLOPE":1.23,"LENGTH":146.716034750901},"bbox":[144499.84840387,170532.05,144594.901,170643.6831926]},{"type":"Feature","id":"StreetAxes.fid--6f55e203_1a02c11fc5a_-496c","geometry":{"type":"LineString","coordinates":[[144833.695,170589.469],[144837.468,170579.398],[144853.841,170533.43]]},"geometry_name":"GEOM","properties":{"INSPIRE_ID":"https://databrussels.be/id/streetaxe/89260","TYPE":"S","HIERARCHY":"DR","LVL":0,"STARTSN_ID":"https://databrussels.be/id/streetnode/13937","ENDSN_ID":"https://databrussels.be/id/streetnode/347","STRNAMEFRE":"Avenue de la Poésie","STRNAMEDUT":"Dichtkunstlaan","SLOPE":3.98,"LENGTH":59.5514061560105},"bbox":[144833.695,170533.43,144853.841,170589.469]},{"type":"Feature","id":"StreetAxes.fid--6f55e203_1a02c11fc5a_-496e","geometry":{"type":"LineString","coordinates":[[144594.9010625,170532.04992],[144605.91405,170533.34592],[144629.125015,170536.85504],[144652.4799325,170541.59808],[144653.6031525,170541.93008]]},"geometry_name":"GEOM","properties":{"INSPIRE_ID":"https://databrussels.be/id/streetaxe/91350","TYPE":"S","HIERARCHY":"DR","LVL":0,"STARTSN_ID":"https://databrussels.be/id/streetnode/13939","ENDSN_ID":"https://databrussels.be/id/streetnode/14791","STRNAMEFRE":"Rue Van Soust","STRNAMEDUT":"Van Souststraat","SLOPE":0,"LENGTH":59.5666396993026},"bbox":[144594.9010625,170532.04992,144653.6031525,170541.93008]},{"type":"Feature","id":"StreetAxes.fid--6f55e203_1a02c11fc5a_-496b","geometry":{"type":"LineString","coordinates":[[144653.6031525,170541.93008],[144668.0019525,170546.18704],[144687.119235,170551.69152]]},"geometry_name":"GEOM","properties":{"INSPIRE_ID":"https://databrussels.be/id/streetaxe/91354","TYPE":"S","HIERARCHY":"DR","LVL":0,"STARTSN_ID":"https://databrussels.be/id/streetnode/14791","ENDSN_ID":"https://databrussels.be/id/streetnode/14796","STRNAMEFRE":"Rue Van Soust","STRNAMEDUT":"Van Souststraat","SLOPE":0,"LENGTH":34.9088612618629},"bbox":[144653.6031525,170541.93008,144687.119235,170551.69152]},{"type":"Feature","id":"StreetAxes.fid--6f55e203_1a02c11fc5a_-496a","geometry":{"type":"LineString","coordinates":[[144687.119235,170551.69152],[144769.53,170575.42],[144822.338025,170586.96],[144833.6950075,170589.46896]]},"geometry_name":"GEOM","properties":{"INSPIRE_ID":"https://databrussels.be/id/streetaxe/91357","TYPE":"S","HIERARCHY":"DR","LVL":0,"STARTSN_ID":"https://databrussels.be/id/streetnode/14796","ENDSN_ID":"https://databrussels.be/id/streetnode/13937","STRNAMEFRE":"Rue Van Soust","STRNAMEDUT":"Van Souststraat","SLOPE":0,"LENGTH":151.443860436057},"bbox":[144687.119235,170551.69152,144833.6950075,170589.46896]},{"type":"Feature","id":"StreetAxes.fid--6f55e203_1a02c11fc5a_-4961","geometry":{"type":"LineString","coordinates":[[144662.324615,170446.04512],[144659.604605,170452.08368],[144636.03154,170481.55792],[144594.9010625,170532.04992]]},"geometry_name":"GEOM","properties":{"INSPIRE_ID":"https://databrussels.be/id/streetaxe/92116","TYPE":"S","HIERARCHY":"DR","LVL":0,"STARTSN_ID":"https://databrussels.be/id/streetnode/14800","ENDSN_ID":"https://databrussels.be/id/streetnode/13939","STRNAMEFRE":"Rue du Potaerdenberg","STRNAMEDUT":"Potaardenbergstraat","SLOPE":0,"LENGTH":109.488556744155},"bbox":[144594.9010625,170446.04512,144662.324615,170532.04992]},{"type":"Feature","id":"StreetAxes.fid--6f55e203_1a02c11fc5a_-4971","geometry":{"type":"LineString","coordinates":[[144653.6031525,170541.93008],[144658.3814525,170530.66784],[144660.813735,170526.64864],[144668.0669175,170527.15552],[144677.0640375,170527.89632],[144686.0565425,170529.44032]]},"geometry_name":"GEOM","properties":{"INSPIRE_ID":"https://databrussels.be/id/streetaxe/92344","TYPE":"S","HIERARCHY":"DR","LVL":0,"STARTSN_ID":"https://databrussels.be/id/streetnode/14791","ENDSN_ID":"https://databrussels.be/id/streetnode/14823","STRNAMEFRE":"Rue du Roman","STRNAMEDUT":"Romanstraat","SLOPE":0,"LENGTH":42.3543776889755},"bbox":[144653.6031525,170526.64864,144686.0565425,170541.93008]},{"type":"Feature","id":"StreetAxes.fid--6f55e203_1a02c11fc5a_-496f","geometry":{"type":"LineString","coordinates":[[144686.0565425,170529.44032],[144688.698985,170530.84448],[144692.2079825,170533.73344],[144692.98561,170535.80768],[144687.119235,170551.69152]]},"geometry_name":"GEOM","properties":{"INSPIRE_ID":"https://databrussels.be/id/streetaxe/92555","TYPE":"S","HIERARCHY":"DR","LVL":0,"STARTSN_ID":"https://databrussels.be/id/streetnode/14823","ENDSN_ID":"https://databrussels.be/id/streetnode/14796","STRNAMEFRE":"Rue du Roman","STRNAMEDUT":"Romanstraat","SLOPE":0,"LENGTH":26.685334973205},"bbox":[144686.0565425,170529.44032,144692.98561,170551.69152]},{"type":"Feature","id":"StreetAxes.fid--6f55e203_1a02c11fc5a_-4960","geometry":{"type":"LineString","coordinates":[[144686.0565425,170529.44032],[144687.121365,170526.90624],[144710.133885,170471.81184],[144720.293275,170447.77136]]},"geometry_name":"GEOM","properties":{"INSPIRE_ID":"https://databrussels.be/id/streetaxe/92739","TYPE":"S","HIERARCHY":"DR","LVL":0,"STARTSN_ID":"https://databrussels.be/id/streetnode/14823","ENDSN_ID":"https://databrussels.be/id/streetnode/14815","STRNAMEFRE":"Rue du Roman","STRNAMEDUT":"Romanstraat","SLOPE":0,"LENGTH":88.5550731582214},"bbox":[144686.0565425,170447.77136,144720.293275,170529.44032]},{"type":"Feature","id":"StreetAxes.fid--6f55e203_1a02c11fc5a_-4962","geometry":{"type":"LineString","coordinates":[[144594.901,170532.05],[144576.136,170529.842],[144557.595,170527.566],[144554.65749359,170527.39970106]]},"geometry_name":"GEOM","properties":{"INSPIRE_ID":"https://databrussels.be/id/streetaxe/93688","TYPE":"S","HIERARCHY":"DR","LVL":0,"STARTSN_ID":"https://databrussels.be/id/streetnode/13939","ENDSN_ID":"https://databrussels.be/id/streetnode/612","STRNAMEFRE":"Rue Van Soust","STRNAMEDUT":"Van Souststraat","SLOPE":0.75,"LENGTH":40.5168393278155},"bbox":[144554.65749359,170527.39970106,144594.901,170532.05]},{"type":"Feature","id":"StreetAxes.fid--6f55e203_1a02c11fc5a_-4970","geometry":{"type":"LineString","coordinates":[[144554.65749359,170527.39970106],[144544.432,170531.697],[144530.34,170532.031],[144481.14,170537.07],[144457.732,170540.266],[144366.038,170559.022],[144336.45,170555.202],[144310.535,170553.345],[144305.31,170552.775]]},"geometry_name":"GEOM","properties":{"INSPIRE_ID":"https://databrussels.be/id/streetaxe/93689","TYPE":"S","HIERARCHY":"DR","LVL":0,"STARTSN_ID":"https://databrussels.be/id/streetnode/612","ENDSN_ID":"https://databrussels.be/id/streetnode/3435","STRNAMEFRE":"Rue Van Soust","STRNAMEDUT":"Van Souststraat","SLOPE":1.15,"LENGTH":252.933913659031},"bbox":[144305.31,170527.39970106,144554.65749359,170559.022]},{"type":"Feature","id":"StreetAxes.fid--6f55e203_1a02c11fc5a_-495c","geometry":{"type":"LineString","coordinates":[[144546.24201138,170520.01799888],[144551.03391685,170523.47050363],[144554.65749359,170527.39970106]]},"geometry_name":"GEOM","properties":{"INSPIRE_ID":"https://databrussels.be/id/streetaxe/93690","TYPE":"I","HIERARCHY":"DR","LVL":0,"STARTSN_ID":"https://databrussels.be/id/streetnode/8597","ENDSN_ID":"https://databrussels.be/id/streetnode/612","STRNAMEFRE":"Rue Van Soust","STRNAMEDUT":"Van Souststraat","SLOPE":4.27,"LENGTH":11.2510993752236},"bbox":[144546.24201138,170520.01799888,144554.65749359,170527.39970106]},{"type":"Feature","id":"StreetAxes.fid--6f55e203_1a02c11fc5a_-495e","geometry":{"type":"LineString","coordinates":[[144546.24201138,170520.01799888],[144544.129,170519.092],[144534.965,170515.076],[144473.71,170488.235],[144455.288,170480.163]]},"geometry_name":"GEOM","properties":{"INSPIRE_ID":"https://databrussels.be/id/streetaxe/93691","TYPE":"S","HIERARCHY":"DR","LVL":0,"STARTSN_ID":"https://databrussels.be/id/streetnode/8597","ENDSN_ID":"https://databrussels.be/id/streetnode/","STRNAMEFRE":"Rue de Sévigné","STRNAMEDUT":"de Sévignéstraat","SLOPE":null,"LENGTH":99.3028354321131},"bbox":[144455.288,170480.163,144546.24201138,170520.01799888]},{"type":"Feature","id":"StreetAxes.fid--6f55e203_1a02c11fc5a_-495d","geometry":{"type":"LineString","coordinates":[[144531.282,170455.078],[144545.293,170506.158],[144547.35598635,170513.60815377],[144546.24201138,170520.01799888]]},"geometry_name":"GEOM","properties":{"INSPIRE_ID":"https://databrussels.be/id/streetaxe/93692","TYPE":"S","HIERARCHY":"DR","LVL":0,"STARTSN_ID":"https://databrussels.be/id/streetnode/","ENDSN_ID":"https://databrussels.be/id/streetnode/8597","STRNAMEFRE":"Rue de l'Agronome","STRNAMEDUT":"Agronoomstraat","SLOPE":null,"LENGTH":67.2031596563056},"bbox":[144531.282,170455.078,144547.35598635,170520.01799888]},{"type":"Feature","id":"StreetAxes.fid--6f55e203_1a02c11fc5a_-495f","geometry":{"type":"LineString","coordinates":[[144853.841,170533.43],[144849.41006798,170531.83924794],[144848.97199595,170531.68197539],[144850.09121769,170528.25631274],[144870.76554293,170488.73068901],[144870.78529368,170485.5557556],[144869.66238933,170484.51086677]]},"geometry_name":"GEOM","properties":{"INSPIRE_ID":"https://databrussels.be/id/streetaxe/94600","TYPE":"S","HIERARCHY":"DR","LVL":0,"STARTSN_ID":"https://databrussels.be/id/streetnode/347","ENDSN_ID":"https://databrussels.be/id/streetnode/13088","STRNAMEFRE":"Promenade verte","STRNAMEDUT":"Groene wandeling","SLOPE":5.82,"LENGTH":58.0920702583385},"bbox":[144848.97199595,170484.51086677,144870.78529368,170533.43]},{"type":"Feature","id":"StreetAxes.fid--6f55e203_1a02c11fc5a_-4972","geometry":{"type":"LineString","coordinates":[[144763.871,170780.013],[144758.40676821,170790.41937899],[144754.00678382,170795.54256335],[144748.56025584,170803.06407357],[144738.29737666,170808.24355666],[144733.57131983,170816.20266708],[144729.10193207,170825.88378017],[144725.76169969,170835.23270934],[144723.58982753,170843.91730061],[144709.00398296,170948.93758098],[144706.40246717,170968.41339475],[144705.64381843,170975.31294727],[144704.02737907,170987.79408423],[144702.68232289,171001.2178441],[144701.43340968,171014.04304134],[144696.68540266,171063.944458],[144696.22309529,171070.16177836],[144695.39196249,171075.84389898],[144694.34411831,171079.88649901],[144693.095818,171083.85162631],[144689.24250167,171091.27713195],[144687.12281419,171098.58666231],[144686.33099289,171102.86101423],[144685.94633112,171105.67634359],[144686.07003019,171113.16503836],[144688.67287085,171121.88164344],[144693.4118872,171134.71920413],[144696.11588253,171143.07588187],[144698.08043327,171151.63661747],[144699.65768341,171159.89271194],[144700.72813025,171167.25601899],[144701.18508271,171171.38290442],[144701.76272925,171173.47429857],[144703.34004797,171177.87754269],[144704.88517823,171180.65945878],[144711.20660681,171195.45685631],[144713.89658326,171203.55622856],[144715.59678989,171210.75891667],[144717.31888486,171215.56633584],[144718.75703563,171219.87231787],[144721.97569452,171229.09576015],[144724.83317578,171241.17870712],[144730.78288424,171259.18636525],[144733.19625065,171270.63012835],[144734.79734436,171280.26638094],[144734.96745681,171286.06509362],[144732.98192891,171298.59794902],[144732.54844978,171305.91659041],[144734.07775657,171316.30412808],[144737.11530799,171326.91944294],[144746.8171676,171353.58296798],[144762.28677302,171403.69326899],[144772.26881624,171432.98080216],[144779.00351012,171454.54885155],[144781.39253998,171462.7621558],[144784.29882903,171473.63996549],[144786.74023366,171483.58219165],[144788.98859372,171491.7484425],[144792.83699022,171505.36852564],[144793.24150917,171509.15650185],[144794.689,171511.265],[144799.828,171525.795]]},"geometry_name":"GEOM","properties":{"INSPIRE_ID":"https://databrussels.be/id/streetaxe/99627","TYPE":"S","HIERARCHY":"DR","LVL":0,"STARTSN_ID":"https://databrussels.be/id/streetnode/","ENDSN_ID":"https://databrussels.be/id/streetnode/","STRNAMEFRE":"Promenade verte","STRNAMEDUT":"Groene wandeling","SLOPE":2.89,"LENGTH":781.59284454454},"bbox":[144685.94633112,170780.013,144799.828,171525.795]}],"numberReturned":33,"grand_bruxelles_source":{"authority":"Paradigm / Brussels-Capital Region","service":"https://geoservices-urbis.irisnet.be/geoserver/urbisvector/wfs","layer":"urbisvector:StreetAxes","crs":"EPSG:31370","bbox":[144500.0,170500.0,145000.0,171000.0],"cell_id":"bxl-e144500-n170500-s500","ownership":"bbox_intersection_source_unclipped"}}
