{"type":"FeatureCollection","totalFeatures":34,"numberMatched":34,"timeStamp":"2026-08-22T07:04:19.097Z","crs":{"type":"name","properties":{"name":"urn:ogc:def:crs:EPSG::31370"}},"bbox":[146677.6892,164400.78968154,148020.06024014,167329.03],"features":[{"type":"Feature","id":"TramNetwork.fid--1290087_1a0284638b1_-7a00","geometry":{"type":"LineString","coordinates":[[147839.4007,165605.7472],[147835.4294,165603.0832],[147827.1626,165597.5927],[147817.3505,165590.9736],[147808.4671,165585.0836],[147801.7568,165580.6062],[147787.4203,165571.0409],[147780.7973,165566.6862],[147772.7113,165561.3168],[147765.0991,165556.3045],[147753.9618,165549.02],[147745.6718,165543.6374],[147743.7434,165542.3946]]},"geometry_name":"GEOM","properties":{"INSPIRE_ID":"https://databrussels.be/id/rail/21368","TYPE":"TW","LVL":0,"SLOPE":null,"LENGTH":114.735471887798},"bbox":[147743.7434,165542.3946,147839.4007,165605.7472]},{"type":"Feature","id":"TramNetwork.fid--1290087_1a0284638b1_-7a03","geometry":{"type":"LineString","coordinates":[[147813.2223,165594.197],[147785.552,165575.4345],[147772.8834,165567.2863],[147756.2164,165556.0255],[147746.0745,165549.4658],[147739.3783,165545.2193]]},"geometry_name":"GEOM","properties":{"INSPIRE_ID":"https://databrussels.be/id/rail/21372","TYPE":"TW","LVL":0,"SLOPE":null,"LENGTH":88.6165446956806},"bbox":[147739.3783,165545.2193,147813.2223,165594.197]},{"type":"Feature","id":"TramNetwork.fid--1290087_1a0284638b1_-7a04","geometry":{"type":"LineString","coordinates":[[147743.7434,165542.3946],[147738.2408,165538.4334],[147736.7154,165537.2335],[147734.9223,165535.7074],[147733.9503,165534.7542],[147731.937,165532.3065],[147731.1147,165531.0166],[147730.1395,165529.1284],[147729.2348,165527.1928],[147728.5177,165524.9552],[147728.2258,165523.4886],[147727.7295,165520.2116],[147727.4676,165517.8913],[147727.3434,165516.4364],[147727.1485,165514.7031]]},"geometry_name":"GEOM","properties":{"INSPIRE_ID":"https://databrussels.be/id/rail/21426","TYPE":"TW","LVL":0,"SLOPE":null,"LENGTH":34.0965428351218},"bbox":[147727.1485,165514.7031,147743.7434,165542.3946]},{"type":"Feature","id":"TramNetwork.fid--1290087_1a0284638b1_-7a1a","geometry":{"type":"LineString","coordinates":[[147970.78521964,165696.53163108],[147969.934,165695.983],[147961.926,165690.788],[147950.112,165683.059],[147936.63,165674.212],[147925.144,165666.761],[147893.20852885,165646.04070992],[147887.62,165642.56],[147881.6317,165638.7735],[147873.1488,165633.2799],[147863.603,165627.0559],[147853.6181,165620.6471],[147846.6087,165616.1012],[147842.6159,165613.511],[147835.8508,165609.0814],[147826.7356,165603.1639],[147820.8057,165599.132],[147813.2223,165594.197]]},"geometry_name":"GEOM","properties":{"INSPIRE_ID":"https://databrussels.be/id/rail/21667","TYPE":"TW","LVL":0,"SLOPE":null,"LENGTH":187.882658659091},"bbox":[147813.2223,165594.197,147970.78521964,165696.53163108]},{"type":"Feature","id":"TramNetwork.fid--1290087_1a0284638b1_-7a0a","geometry":{"type":"LineString","coordinates":[[147739.3783,165545.2193],[147727.78363641,165537.8664295],[147726.25456998,165536.89675691],[147724.8581466,165536.01120122],[147723.3478,165535.0534],[147723.31961103,165535.03552681],[147709.4126,165526.2178],[147691.5169,165516.0386],[147681.2144,165510.674],[147666.0865,165503.2321],[147654.4914,165497.926],[147643.8795,165493.1995],[147639.5,165491.32],[147634.65,165489.17],[147630.2,165487.15],[147625.78,165485.07],[147621.43,165482.86],[147618.42,165481.2],[147615.45,165479.48],[147612.53,165477.67],[147609.32,165475.52],[147606.18,165473.27],[147603.1,165470.94],[147599.33,165467.88],[147595.66,165464.71],[147592.01,165461.5],[147588.02,165458],[147584.06,165454.46],[147580.15,165450.87],[147576.95,165447.9],[147573.79,165444.89],[147570.7,165441.82],[147568.15,165439.11],[147565.64,165436.35],[147563.15,165433.57],[147559.64,165429.59],[147556.15,165425.58],[147552.67,165421.57],[147549.18,165417.58],[147545.7,165413.58],[147542.2,165409.6],[147540.3,165407.44],[147538.4,165405.28],[147536.49,165403.13],[147533.98,165400.37],[147531.44,165397.62],[147528.85,165394.92],[147522.91,165389.16],[147516.76,165383.63],[147510.5,165378.2],[147506.64,165374.93],[147502.75,165371.7],[147498.86,165368.46],[147496.19,165366.21],[147493.53,165363.96],[147490.92,165361.65],[147488.3,165359.21],[147485.73,165356.72],[147483.25,165354.15],[147481.16,165351.84],[147479.14,165349.47],[147477.19,165347.05],[147475.24,165344.47],[147473.38,165341.83],[147471.57,165339.14],[147469.68,165336.07],[147467.86,165332.95],[147466.01,165329.85],[147464.25,165327.02],[147462.46,165324.22],[147460.58,165321.48],[147457.66,165317.69],[147454.56,165314.03],[147451.4,165310.42],[147448.02,165306.64],[147444.58,165302.91],[147441.14,165299.19],[147436.1,165293.69],[147431.06,165288.19],[147426.02,165282.69],[147421.19,165277.4],[147416.37,165272.12],[147411.54,165266.83],[147407.54,165262.44],[147403.54,165258.05],[147399.53,165253.67],[147395.18,165248.91],[147390.82,165244.16],[147386.47,165239.41],[147383.42,165236.07],[147380.37,165232.72],[147377.32,165229.37],[147370.66,165222.11],[147366.2,165217.27],[147362.19,165213.15],[147359.21,165210.38],[147356.02,165207.7],[147352.95,165205.48],[147349.7,165203.36],[147345.67,165201.08],[147341.93,165199.3],[147337.59,165197.58],[147332.95,165196.12],[147327.88,165194.84],[147321.33,165193.57],[147312.75,165191.94],[147305.31,165190.42],[147298.4,165188.71],[147291.52,165186.47],[147285.33,165183.97],[147279.32,165181.19],[147266.49,165174.93],[147256.71,165170.22],[147247.83,165165.95],[147239.1,165161.84],[147231.41,165158.14],[147222.23,165153.73],[147210.11,165147.85],[147189.48,165137.76],[147165.88,165126.04],[147157.29,165121.83],[147148.77,165117.66],[147133.65,165110.33],[147123.31,165105.34],[147116.66,165102.27],[147111.44,165100.15],[147107.05,165098.53],[147102.54,165097.18],[147096.94,165095.67],[147090.9,165094.34],[147083.64,165093.2],[147073.78,165092.19],[147048.29,165090.12],[147026.29,165088.38],[147021.2,165087.97],[147016.1,165087.56],[147011,165087.14],[147000.23,165086.28],[147000,165086.26],[147000.0001,165086.2601],[146989.4601,165085.4301],[146978.7001,165084.6001],[146967.1401,165083.6301],[146955.5801,165082.7001],[146944.0101,165082.0801],[146933.8801,165081.8601],[146923.7401,165081.8901],[146921.4184,165081.9681],[146912.5196,165082.4993],[146904.4116,165083.0767],[146897.1651,165083.7149],[146889.0905,165084.6827],[146882.923,165085.6074],[146873.5823,165087.1595],[146864.9039,165088.7901],[146854.2062,165090.8802],[146842.3111,165093.2435],[146829.8421,165095.6702],[146823.8226,165096.7434],[146822.9501,165096.8712],[146819.8896,165097.3193],[146815.1843,165097.8265],[146810.4105,165098.0274],[146804.3992,165097.9188],[146798.0552,165097.3684],[146792.6732,165096.4774],[146784.2436,165094.4767],[146776.3979,165092.2681],[146765.1166,165089.0243],[146756.9396,165086.6608],[146749.3359,165084.495],[146740.8295,165082.018],[146731.6817,165079.4128],[146722.0733,165076.675],[146714.6623,165074.5412],[146704.5372,165071.7684],[146695.1497,165069.2679],[146685.2817,165066.7674],[146678.3674,165065.1544]]},"geometry_name":"GEOM","properties":{"INSPIRE_ID":"https://databrussels.be/id/rail/21668","TYPE":"TW","LVL":0,"SLOPE":null,"LENGTH":1225.99195751268},"bbox":[146678.3674,165065.1544,147739.3783,165545.2193]},{"type":"Feature","id":"TramNetwork.fid--1290087_1a0284638b1_-7a09","geometry":{"type":"LineString","coordinates":[[147740.3333,165544.1308],[147730.76098299,165538.0604151],[147727.7330977,165536.14024998],[147726.20403119,165535.17057647],[147724.80653616,165534.28434038],[147724.0882,165533.8288],[147723.26643848,165533.30775944],[147710.1236,165524.9745],[147692.1743,165514.7648],[147681.8333,165509.3801],[147666.6722,165501.9219],[147655.0546,165496.6055],[147644.4872,165491.8481],[147640.09,165489.97],[147635.26,165487.82],[147630.82,165485.81],[147626.43,165483.74],[147622.12,165481.55],[147619.15,165479.91],[147616.21,165478.21],[147613.33,165476.42],[147610.17,165474.3],[147607.06,165472.07],[147604.02,165469.77],[147600.28,165466.75],[147596.63,165463.59],[147592.99,165460.39],[147589,165456.89],[147585.05,165453.36],[147581.15,165449.78],[147577.97,165446.82],[147574.82,165443.83],[147571.76,165440.78],[147569.23,165438.1],[147566.74,165435.36],[147564.26,165432.59],[147560.75,165428.62],[147557.27,165424.61],[147553.78,165420.6],[147550.3,165416.6],[147546.81,165412.61],[147543.31,165408.62],[147541.41,165406.46],[147539.51,165404.3],[147537.59,165402.14],[147535.07,165399.37],[147532.51,165396.61],[147529.9,165393.88],[147523.92,165388.08],[147517.74,165382.52],[147511.47,165377.07],[147507.59,165373.79],[147503.69,165370.56],[147499.82,165367.32],[147497.15,165365.08],[147494.5,165362.84],[147491.91,165360.55],[147489.32,165358.14],[147486.78,165355.68],[147484.33,165353.14],[147482.28,165350.86],[147480.28,165348.53],[147478.36,165346.14],[147476.44,165343.6],[147474.6,165340.99],[147472.82,165338.34],[147470.95,165335.31],[147469.14,165332.2],[147467.27,165329.07],[147465.5,165326.23],[147463.69,165323.4],[147461.77,165320.6],[147458.81,165316.76],[147455.68,165313.06],[147452.51,165309.44],[147449.12,165305.64],[147445.67,165301.91],[147442.23,165298.19],[147437.19,165292.69],[147432.15,165287.19],[147427.12,165281.69],[147422.29,165276.41],[147417.46,165271.12],[147412.63,165265.83],[147408.63,165261.44],[147404.63,165257.05],[147400.62,165252.67],[147396.27,165247.91],[147391.91,165243.16],[147387.56,165238.41],[147384.51,165235.07],[147381.47,165231.72],[147378.42,165228.38],[147371.75,165221.11],[147367.28,165216.26],[147363.23,165212.09],[147360.19,165209.27],[147356.93,165206.53],[147353.79,165204.26],[147350.47,165202.1],[147346.36,165199.77],[147342.52,165197.94],[147338.09,165196.19],[147333.36,165194.7],[147328.21,165193.39],[147321.61,165192.11],[147313.03,165190.49],[147305.64,165188.97],[147298.8,165187.28],[147292.03,165185.08],[147285.92,165182.61],[147279.96,165179.86],[147267.14,165173.6],[147257.35,165168.89],[147248.47,165164.61],[147239.73,165160.51],[147232.05,165156.81],[147222.88,165152.39],[147210.76,165146.52],[147190.14,165136.43],[147166.53,165124.71],[147157.94,165120.5],[147149.42,165116.33],[147134.29,165108.99],[147123.94,165104],[147117.25,165100.91],[147111.98,165098.77],[147107.52,165097.13],[147102.94,165095.76],[147097.29,165094.23],[147091.18,165092.89],[147083.83,165091.74],[147073.91,165090.71],[147048.41,165088.65],[147026.41,165086.91],[147021.31,165086.49],[147016.22,165086.08],[147011.12,165085.67],[147000.35,165084.81],[147000,165084.78],[147000.0001,165084.7801],[146989.5801,165083.9501],[146978.8101,165083.1201],[146967.2601,165082.1601],[146955.6801,165081.2201],[146944.0701,165080.6001],[146933.8901,165080.3801],[146923.7101,165080.4101],[146921.2366,165080.4928],[146912.4229,165081.0224],[146904.2941,165081.6013],[146897.0121,165082.2426],[146888.8927,165083.2158],[146882.692,165084.1455],[146873.3244,165085.7021],[146864.6254,165087.3365],[146853.9201,165089.4281],[146842.0255,165091.7913],[146829.5708,165094.2152],[146823.5854,165095.2824],[146821.0335,165095.6561],[146819.7031,165095.8509],[146815.0738,165096.3498],[146810.3927,165096.5469],[146804.4766,165096.4399],[146798.2403,165095.8989],[146793.0601,165095.0401],[146792.9653,165095.0256],[146784.6152,165093.0438],[146776.803,165090.8446],[146765.5266,165087.6022],[146757.3478,165085.2382],[146749.7455,165083.0728],[146741.239,165080.5958],[146732.0871,165077.9894],[146722.4808,165075.2523],[146715.0625,165073.1163],[146704.9231,165070.3396],[146700.6541,165069.2025],[146695.522,165067.8355],[146685.6316,165065.3293],[146678.6148,165063.6924]]},"geometry_name":"GEOM","properties":{"INSPIRE_ID":"https://databrussels.be/id/rail/21669","TYPE":"TW","LVL":0,"SLOPE":null,"LENGTH":1226.79533573414},"bbox":[146678.6148,165063.6924,147740.3333,165544.1308]},{"type":"Feature","id":"TramNetwork.fid--1290087_1a0284638b1_-7a0c","geometry":{"type":"LineString","coordinates":[[147742.8897,165543.5695],[147732.9408,165537.158],[147730.59211589,165535.67084077],[147727.66509225,165533.81748372],[147727.36476384,165533.62731929],[147726.13607002,165532.84932477],[147724.73672663,165531.96327695],[147723.19501907,165530.9870858],[147721.5892,165529.9703],[147710.9821,165523.2642],[147702.1121,165518.1075],[147690.9436,165511.9504],[147677.886,165505.2233],[147664.3684,165498.9148],[147662.43,165498.07],[147656.88,165495.71],[147651.33,165493.34],[147646.74,165491.37],[147642.16,165489.4],[147637.59,165487.4],[147633.67,165485.67],[147629.76,165483.93],[147625.9,165482.07],[147622.17,165480.09],[147618.5,165478],[147614.9,165475.8],[147612.27,165474.08],[147609.67,165472.3],[147607.12,165470.46],[147604.07,165468.09],[147601.09,165465.64],[147598.15,165463.14],[147594.34,165459.84],[147590.58,165456.47],[147586.84,165453.08],[147584.44,165450.92],[147582.04,165448.76],[147579.67,165446.57],[147577.33,165444.37],[147575.01,165442.16],[147572.73,165439.9],[147568.6,165435.49],[147564.62,165430.93],[147560.66,165426.36],[147557.53,165422.81],[147554.4,165419.25],[147551.28,165415.7],[147548.73,165412.78],[147546.18,165409.85],[147543.63,165406.94],[147541.19,165404.16],[147538.74,165401.39],[147536.26,165398.65],[147533.97,165396.16],[147531.66,165393.69],[147529.3,165391.27],[147527.03,165389.08],[147524.71,165386.93],[147522.38,165384.81],[147519.79,165382.49],[147517.17,165380.2],[147514.53,165377.93],[147511.33,165375.22],[147508.1,165372.53],[147504.88,165369.83],[147500.87,165366.49],[147496.88,165363.14],[147492.98,165359.69],[147490.27,165357.16],[147487.6,165354.57],[147485.03,165351.9],[147482.94,165349.56],[147480.91,165347.17],[147478.96,165344.72],[147477.14,165342.29],[147475.38,165339.81],[147473.7,165337.28],[147472.48,165335.29],[147471.3,165333.28],[147470.12,165331.26],[147468.58,165328.64],[147467.05,165326.02],[147465.44,165323.45],[147463.48,165320.62],[147461.43,165317.84],[147459.3,165315.14],[147457.3,165312.78],[147455.23,165310.47],[147453.15,165308.18],[147450.92,165305.71],[147448.69,165303.25],[147446.45,165300.79],[147441.93,165295.83],[147437.39,165290.88],[147432.85,165285.92],[147429.24,165281.99],[147425.63,165278.05],[147422.03,165274.11],[147419.94,165271.81],[147417.85,165269.51],[147415.76,165267.2],[147412.34,165263.47],[147408.93,165259.73],[147405.51,165256],[147402.04,165252.21],[147398.57,165248.43],[147395.11,165244.64],[147392.24,165241.51],[147389.38,165238.38],[147386.52,165235.24],[147383.56,165231.99],[147380.6,165228.73],[147377.64,165225.48],[147370.69,165217.9],[147364.94,165211.8],[147361.17,165208.25],[147358.29,165205.83],[147354.1,165202.81],[147349.19,165199.8],[147344.85,165197.51],[147341.55,165196.07],[147337.67,165194.6],[147332.58,165193.05],[147325.97,165191.58],[147317.13,165189.9],[147308.33,165188.17],[147301.94,165186.75],[147296.81,165185.26],[147292.74,165183.85],[147288.8,165182.32],[147284.48,165180.48],[147278.77,165177.79],[147272.58,165174.75],[147264.9,165171.03],[147256.58,165166.98],[147245.63,165161.58],[147235.53,165156.57],[147222.95,165150.33],[147209.99,165144.07],[147198.32,165138.33],[147180.99,165129.98],[147167.48,165123.63],[147158.55,165119.25],[147150.04,165115.08],[147134.23,165107.44],[147122.02,165101.6],[147114.83,165098.41],[147108.41,165096],[147102.68,165094.19],[147096.58,165092.59],[147090.92,165091.43],[147085.17,165090.54],[147077.74,165089.69],[147066.76,165088.75],[147053.06,165087.69],[147041.05,165086.69],[147030.55,165085.85],[147023.94,165085.33],[147017.33,165084.8],[147010.72,165084.28],[147000,165083.41],[147000.0001,165083.4101],[146998.4301,165083.2901],[146986.1401,165082.2901],[146973.8401,165081.3301],[146965.1301,165080.6301],[146956.4101,165079.9501],[146952.399,165079.7158],[146946.3189,165079.2999],[146936.6501,165078.8606],[146926.0681,165078.8902],[146915.9866,165079.1264],[146906.7051,165079.6393],[146898.3446,165080.3078],[146891.8294,165080.9798],[146884.117,165081.9326],[146876.5046,165083.0306],[146865.874,165084.8815],[146857.1617,165086.5441],[146849.5382,165088.027],[146826.9866,165092.4768],[146818.1674,165093.8391],[146818.0523,165093.8569],[146813.4126,165094.3025],[146811.1911,165094.5159],[146806.3649,165094.5574],[146798.9249,165094.0122],[146791.9188,165092.8873],[146785.3114,165091.2858],[146784.5508,165091.0774],[146777.57,165089.1647],[146768.6051,165086.6061],[146758.5671,165083.6923],[146745.4071,165079.8826],[146729.5487,165075.2996],[146723.1827,165073.4559],[146717.2252,165071.7305],[146703.1569,165067.8289],[146689.8922,165064.4172],[146677.6892,165061.4168]]},"geometry_name":"GEOM","properties":{"INSPIRE_ID":"https://databrussels.be/id/rail/21670","TYPE":"TW","LVL":0,"SLOPE":null,"LENGTH":1230.47189222985},"bbox":[146677.6892,165061.4168,147742.8897,165543.5695]},{"type":"Feature","id":"TramNetwork.fid--1290087_1a0284638b1_-7a0b","geometry":{"type":"LineString","coordinates":[[147743.7434,165542.3946],[147733.7214,165535.936],[147732.30953918,165535.04203324],[147728.4375068,165532.5903268],[147727.61389554,165532.06882986],[147726.08487348,165531.10067855],[147725.98656327,165531.03843016],[147724.68295282,165530.21300573],[147723.14115238,165529.23676336],[147722.3645,165528.745],[147711.7342,165522.0242],[147702.8266,165516.8457],[147691.6258,165510.6707],[147678.5249,165503.9213],[147664.99209807,165497.57224844],[147663.01,165496.71],[147657.46,165494.34],[147651.91,165491.98],[147642.75,165488.04],[147638.18,165486.04],[147634.27,165484.32],[147630.38,165482.59],[147626.57,165480.75],[147622.89,165478.79],[147619.26,165476.73],[147615.69,165474.55],[147613.09,165472.85],[147610.52,165471.09],[147608.01,165469.27],[147605,165466.94],[147602.04,165464.5],[147599.11,165462.02],[147595.32,165458.73],[147591.57,165455.37],[147587.83,165451.98],[147585.43,165449.82],[147583.04,165447.66],[147580.67,165445.48],[147578.34,165443.3],[147576.04,165441.1],[147573.79,165438.87],[147569.7,165434.49],[147565.74,165429.95],[147561.77,165425.38],[147558.64,165421.83],[147555.52,165418.28],[147552.4,165414.72],[147547.3,165408.88],[147544.74,165405.96],[147542.3,165403.18],[147539.84,165400.41],[147537.36,165397.66],[147535.06,165395.15],[147532.73,165392.67],[147530.34,165390.22],[147528.05,165388.01],[147525.72,165385.84],[147523.37,165383.71],[147520.77,165381.38],[147518.14,165379.09],[147515.49,165376.81],[147512.28,165374.08],[147509.05,165371.39],[147505.83,165368.7],[147501.82,165365.36],[147497.84,165362.02],[147493.97,165358.59],[147491.29,165356.08],[147488.65,165353.53],[147486.12,165350.89],[147484.06,165348.59],[147482.06,165346.23],[147480.13,165343.81],[147478.33,165341.42],[147476.6,165338.97],[147474.95,165336.48],[147473.75,165334.53],[147472.58,165332.53],[147471.39,165330.52],[147469.86,165327.9],[147468.31,165325.26],[147466.67,165322.64],[147464.69,165319.76],[147462.61,165316.94],[147460.44,165314.2],[147458.41,165311.8],[147456.33,165309.48],[147454.25,165307.18],[147452.02,165304.71],[147449.79,165302.25],[147447.55,165299.8],[147443.02,165294.83],[147438.48,165289.88],[147433.94,165284.92],[147430.33,165280.99],[147426.72,165277.05],[147423.12,165273.11],[147421.03,165270.81],[147418.95,165268.51],[147416.85,165266.21],[147413.44,165262.47],[147410.02,165258.73],[147406.6,165255],[147403.13,165251.22],[147399.66,165247.43],[147396.2,165243.64],[147393.33,165240.51],[147390.47,165237.38],[147387.61,165234.24],[147384.65,165230.99],[147381.7,165227.74],[147378.74,165224.48],[147371.78,165216.9],[147365.99,165210.75],[147362.15,165207.14],[147359.2,165204.66],[147354.92,165201.58],[147349.92,165198.51],[147345.49,165196.18],[147342.11,165194.69],[147338.15,165193.2],[147332.96,165191.62],[147326.27,165190.13],[147317.42,165188.45],[147308.63,165186.72],[147302.3,165185.31],[147297.26,165183.85],[147293.25,165182.46],[147289.36,165180.94],[147285.09,165179.13],[147279.41,165176.46],[147273.23,165173.42],[147265.55,165169.7],[147257.23,165165.65],[147246.29,165160.25],[147236.19,165155.25],[147223.6,165149],[147210.63,165142.74],[147198.97,165137],[147181.63,165128.65],[147168.12,165122.3],[147159.2,165117.92],[147150.68,165113.75],[147134.87,165106.11],[147122.64,165100.26],[147115.39,165097.04],[147108.9,165094.6],[147103.09,165092.77],[147096.92,165091.15],[147091.18,165089.98],[147085.37,165089.07],[147077.89,165088.22],[147066.88,165087.28],[147053.18,165086.22],[147041.17,165085.21],[147030.67,165084.38],[147024.06,165083.85],[147017.45,165083.33],[147010.84,165082.8],[147000,165081.93],[147000.0001,165081.9301],[146998.5501,165081.8101],[146986.2501,165080.8201],[146973.9601,165079.8601],[146965.2401,165079.1601],[146956.5101,165078.4701],[146952.5811,165078.2413],[146946.403,165077.8222],[146936.6816,165077.3805],[146926.0487,165077.4103],[146915.9284,165077.6474],[146906.6053,165078.1625],[146898.2097,165078.8339],[146891.6628,165079.5091],[146883.9206,165080.4657],[146876.2719,165081.5689],[146865.6084,165083.4255],[146856.8817,165085.0909],[146849.2537,165086.5746],[146826.7303,165091.0189],[146817.8684,165092.3878],[146816.14,165092.5538],[146813.3324,165092.8234],[146811.1138,165093.0365],[146806.4127,165093.077],[146799.0966,165092.5408],[146792.2108,165091.4352],[146785.6814,165089.8526],[146777.9686,165087.7394],[146769.0145,165085.1839],[146758.9791,165082.2709],[146745.8183,165078.4609],[146729.96,165073.8779],[146727.3415,165073.1195],[146717.6289,165070.3065],[146703.539,165066.399],[146690.2533,165062.9819],[146680.7956,165060.6565],[146677.9483,165059.9564]]},"geometry_name":"GEOM","properties":{"INSPIRE_ID":"https://databrussels.be/id/rail/21671","TYPE":"TW","LVL":0,"SLOPE":null,"LENGTH":1231.13484904422},"bbox":[146677.9483,165059.9564,147743.7434,165542.3946]},{"type":"Feature","id":"TramNetwork.fid--1290087_1a0284638b1_-79fc","geometry":{"type":"LineString","coordinates":[[147727.1485,165514.7031],[147727.11,165513.91],[147726.9,165508.09],[147726.7,165502.27],[147726.49,165496.45],[147726.27,165490.49],[147726.04,165484.54],[147725.83,165478.58],[147725.63,165471.94],[147725.5607,165469.5174],[147725.6052,165448.2969],[147725.1418,165433.5868],[147723.8529,165407.2502],[147722.7703,165390.6082],[147721.6987,165368.0649],[147720.8373,165349.9412],[147720.2904,165339.7196],[147719.8002,165332.2456],[147719.0245,165324.4772],[147718.7206,165321.6156],[147718.115,165317.5026],[147716.7441,165307.9488],[147716.7519,165307.9331],[147715.8208,165301.5479],[147714.4468,165293.5172],[147714.4621,165293.533],[147713.352,165286.9573],[147712.5149,165281.6909],[147711.3011,165274.5286],[147710.2592,165267.9499],[147710.2745,165267.9639],[147708.7782,165259.0585],[147708.1484,165255.2022],[147708.1535,165255.1901],[147707.2213,165249.7116],[147706.2695,165244.0562],[147702.8695,165228.9344],[147701.3769,165221.3048],[147697.6524,165206.2063],[147695.2317,165196.4974],[147694.0042,165192.1462],[147689.9293,165179.2135],[147689.9148,165179.2077],[147687.4227,165171.2185],[147684.4766,165162.2699],[147684.4643,165162.2596],[147681.0413,165151.5786],[147678.2857,165142.8527],[147673.1905,165126.8394],[147670.4879,165118.2132],[147667.8892,165110.3143],[147666.0105,165104.571],[147663.9769,165099.08],[147660.5639,165090.365],[147660.5786,165090.3613],[147656.5684,165080.4277],[147653.7375,165073.214],[147649.9295,165063.5964],[147647.7474,165057.806],[147644.2294,165049.321],[147641.6358,165042.5428],[147638.6812,165035.2143],[147638.693,165035.2202],[147635.0599,165026.3284],[147631.8905,165018.1973],[147628.0063,165008.3322],[147624.6161,165000],[147622.6862,164995.257],[147618.7087,164985.1804],[147614.1453,164973.5466],[147611.4146,164966.8296],[147608.563,164959.5337],[147608.5792,164959.5404],[147604.5509,164949.5893],[147604.5475,164949.6008],[147599.6522,164937.4401],[147595.878,164927.4765],[147593.302,164920.7309],[147590.7749,164913.8596],[147587.4158,164905.3181],[147583.8905,164896.4775],[147579.9188,164886.6853],[147576.9557,164879.2386],[147573.862,164871.4922],[147570.3962,164862.9528],[147566.1417,164852.3837],[147563.43,164845.6246],[147558.0153,164832.2506],[147553.0505,164820.006],[147550.2577,164813.054],[147550.2703,164813.0625],[147545.6947,164802.1888],[147538.1002,164783.5959],[147532.9036,164770.6601],[147530.6569,164765.1912],[147527.0529,164755.9787],[147519.7633,164737.3894],[147515.4937,164726.4916],[147515.4842,164726.4828],[147511.2814,164715.9786],[147507.3507,164705.9717],[147507.3587,164705.972],[147503.7973,164696.9492],[147503.7972,164696.9374],[147501.6221,164691.4848],[147496.0142,164677.3677],[147492.0882,164667.201],[147486.4759,164652.8705],[147482.6036,164643.3779],[147482.5927,164643.3758],[147479.1886,164634.3726],[147474.5598,164622.6811],[147469.3029,164609.1972],[147464.6779,164597.9063],[147464.6878,164597.922],[147459.9411,164586.0973],[147459.5791,164584.6897],[147459.4906,164584.3457],[147459.4903,164584.3321],[147459.0079,164582.4918],[147458.6112,164580.4896],[147458.2249,164578.1315],[147458.088,164575.786],[147458.1249,164573.2413],[147458.3038,164571.5476],[147458.565,164569.5321],[147459.123,164567.2435],[147459.77,164565.47],[147461.4,164560.87],[147466.69,164546.063],[147470.932,164534.594],[147476.876,164518.482],[147483.584,164500.246],[147488.383,164487.213],[147494.599,164470.317],[147501.157,164452.506],[147507.39,164435.585],[147507.737,164434.653],[147507.89463482,164434.22531062]]},"geometry_name":"GEOM","properties":{"INSPIRE_ID":"https://databrussels.be/id/rail/21679","TYPE":"TW","LVL":0,"SLOPE":null,"LENGTH":1136.20014599741},"bbox":[147458.088,164434.22531062,147727.1485,165514.7031]},{"type":"Feature","id":"TramNetwork.fid--1290087_1a0284638b1_-79fd","geometry":{"type":"LineString","coordinates":[[147725.6393,165514.3443],[147725.63,165513.96],[147725.43,165508.15],[147725.22,165502.33],[147725.01,165496.51],[147724.79,165490.55],[147724.56,165484.59],[147724.35,165478.63],[147724.15,165471.98],[147724.0886,165469.8344],[147724.1552,165448.3182],[147723.6929,165433.6451],[147722.4052,165407.3327],[147721.3225,165390.6897],[147720.2503,165368.1337],[147719.3891,165350.0144],[147718.8429,165339.8058],[147718.3549,165332.3651],[147717.5821,165324.6258],[147717.2818,165321.7978],[147716.6801,165317.7112],[147715.2447,165307.7079],[147715.2517,165307.6938],[147714.3886,165301.7748],[147712.2549,165289.1693],[147711.9211,165287.1918],[147711.084,165281.9259],[147709.8702,165274.7632],[147709.6822,165273.6118],[147707.3214,165259.1387],[147704.9576,165244.9977],[147704.8462,165244.3358],[147701.4504,165229.2327],[147699.9606,165221.6178],[147696.245,165206.5553],[147693.8301,165196.8697],[147692.6146,165192.561],[147688.7528,165180.3046],[147688.7359,165180.2979],[147686.0419,165171.6611],[147683.2286,165163.1161],[147683.2125,165163.1026],[147679.2575,165150.745],[147676.9036,165143.2913],[147670.1529,165121.9941],[147669.1073,165118.6566],[147666.5114,165110.7663],[147664.641,165105.0484],[147662.6218,165099.5962],[147658.6134,165089.3607],[147655.3886,165081.3906],[147652.3885,165073.7457],[147648.5769,165064.119],[147646.3989,165058.3395],[147642.8816,165049.8562],[147640.9638,165044.8076],[147640.6922,165044.0798],[147640.291,165043.085],[147635.9045,165032.2048],[147635.892,165032.1986],[147633.7132,165026.866],[147630.5404,165018.7261],[147626.6632,165008.8787],[147621.3403,164995.7964],[147617.3597,164985.7121],[147612.2448,164972.7271],[147609.6125,164966.2021],[147605.9745,164956.894],[147604.7645,164953.9812],[147598.4989,164938.4581],[147594.5225,164927.9914],[147592.0628,164921.5502],[147592.053,164921.5409],[147589.4195,164914.3751],[147586.0677,164905.852],[147582.5452,164897.0185],[147578.5733,164887.2258],[147575.6088,164879.7755],[147572.5169,164872.0337],[147569.0519,164863.4962],[147564.7963,164852.9244],[147562.0851,164846.1666],[147556.6714,164832.7951],[147551.7059,164820.5487],[147547.0458,164809.1382],[147544.3552,164802.7442],[147536.7563,164784.1403],[147531.5602,164771.2059],[147529.311,164765.7309],[147525.7028,164756.5075],[147518.4133,164737.9185],[147514.2647,164727.3297],[147514.2593,164727.3246],[147509.9335,164716.513],[147505.1951,164704.4398],[147502.3496,164697.2309],[147502.3496,164697.2219],[147500.2749,164692.0211],[147494.6641,164677.8965],[147490.7368,164667.7266],[147485.1295,164653.4087],[147481.5578,164644.6531],[147477.8363,164634.8959],[147473.2102,164623.2113],[147467.9564,164609.7354],[147458.1748,164585.051],[147458.0446,164584.5449],[147458.0444,164584.5347],[147457.5941,164582.8168],[147457.1842,164580.7478],[147456.7818,164578.2914],[147456.6374,164575.8178],[147456.676,164573.1545],[147456.8636,164571.3782],[147457.5948,164567.3106],[147458.2231,164564.8705],[147460.7199,164558.377],[147465.283,164545.566],[147469.522,164534.08],[147475.635,164517.503],[147482.169,164499.764],[147487,164486.643],[147493.207,164469.768],[147499.753,164451.978],[147505.996,164435.061],[147506.338,164434.141]]},"geometry_name":"GEOM","properties":{"INSPIRE_ID":"https://databrussels.be/id/rail/21680","TYPE":"TW","LVL":0,"SLOPE":null,"LENGTH":1135.64092981409},"bbox":[147456.6374,164434.141,147725.6393,165514.3443]},{"type":"Feature","id":"TramNetwork.fid--1290087_1a0284638b1_-79fe","geometry":{"type":"LineString","coordinates":[[147516.79875864,164401.12237537],[147510.9951684,164416.86662622],[147510.838,164417.293],[147504.76,164433.794],[147504.493,164434.523],[147498.277,164451.416],[147491.691,164469.269],[147485.479,164486.107],[147480.67,164499.221],[147473.937,164517.476],[147468.035,164533.49],[147463.798,164545.019],[147463.7981,164545.0191],[147458.4291,164559.4081],[147455.9323,164566.371],[147455.2342,164569.3863],[147454.9389,164571.3441],[147454.7002,164574.8089],[147454.6601,164576.0501],[147454.6901,164577.3001],[147454.7801,164578.5401],[147454.9301,164579.7101],[147455.1401,164580.8701],[147455.4001,164582.0201],[147455.6801,164582.9801],[147456.0601,164584.1301],[147456.3401,164584.9801],[147456.34,164584.98],[147463.34,164602.89],[147475.76,164634.41],[147482.74,164652.04],[147492.49,164676.69],[147506.33,164711.75],[147519.24,164744.48],[147530.74,164773.5],[147546,164811.25],[147557.84,164840.7],[147572.56,164877.17],[147583.54,164904.32],[147594.62,164932.18],[147605.5,164959.44],[147615.58,164984.78],[147621.63,165000],[147625.75,165010.38],[147635.41,165034.67],[147644.68,165057.96],[147649.14,165069.2],[147650.94,165073.71],[147652.75,165078.23],[147654.55,165082.75],[147656.55,165087.75],[147658.54,165092.77],[147660.48,165097.82],[147662.08,165102.23],[147663.63,165106.64],[147665.15,165111.07],[147666.74,165115.87],[147668.28,165120.68],[147669.82,165125.48],[147671.36,165130.26],[147672.89,165135.03],[147674.42,165139.81],[147676.49,165146.26],[147678.56,165152.71],[147680.63,165159.17],[147682.49,165165.02],[147684.35,165170.88],[147686.2,165176.72],[147687.5,165180.74],[147688.8,165184.77],[147690.04,165188.83],[147691.13,165192.74],[147692.16,165196.65],[147693.15,165200.57],[147694.46,165206.17],[147695.68,165211.78],[147696.89,165217.37],[147697.66,165220.85],[147698.43,165224.32],[147699.19,165227.8],[147700.05,165231.71],[147700.9,165235.62],[147701.76,165239.53],[147702.54,165243.04],[147703.33,165246.56],[147704.09,165250.1],[147704.82,165253.75],[147704.9634,165254.4978],[147705.8675,165260.3732],[147706.3065,165264.1429],[147706.8426,165267.5612],[147708.0956,165275.587],[147709.8906,165286.6576],[147711.73,165297.8613],[147713.5529,165308.6677],[147714.7968,165316.1952],[147715.6505,165322.6956],[147716.5346,165329.9315],[147717.0273,165334.3866],[147717.32,165338.86],[147717.57,165343.06],[147717.79,165347.24],[147718.02,165351.42],[147718.34,165356.62],[147718.66,165361.82],[147718.97,165367.03],[147719.23,165371.43],[147719.47,165375.84],[147719.7,165380.24],[147719.91,165384.7],[147720.09,165389.16],[147720.28,165393.61],[147720.49,165398.79],[147720.69,165403.96],[147720.88,165409.14],[147721.05,165414.3],[147721.2,165419.46],[147721.36,165424.62],[147721.57,165430.37],[147721.8,165436.12],[147722.03,165441.87],[147722.24,165447.68],[147722.3358,165450.2092],[147722.46,165453.49],[147722.68,165459.3],[147722.91,165465.4],[147723.15,165471.51],[147723.38,165477.61],[147723.6,165483.67],[147723.82,165489.74],[147723.9947,165503.5755],[147724.0919,165510.2264],[147724.2505,165516.1372]]},"geometry_name":"GEOM","properties":{"INSPIRE_ID":"https://databrussels.be/id/rail/21681","TYPE":"TW","LVL":0,"SLOPE":null,"LENGTH":1172.77863548664},"bbox":[147454.6601,164401.12237537,147724.2505,165516.1372]},{"type":"Feature","id":"TramNetwork.fid--1290087_1a0284638b1_-79ff","geometry":{"type":"LineString","coordinates":[[147515.33205927,164400.78968154],[147509.441,164416.757],[147503.363,164433.275],[147503.106,164433.96],[147496.88,164450.864],[147490.311,164468.682],[147484.072,164485.611],[147479.267,164498.677],[147472.569,164516.87],[147466.657,164532.913],[147462.413,164544.445],[147462.4131,164544.4451],[147457.0389,164558.9004],[147454.5099,164565.9529],[147453.7794,164569.1086],[147453.4666,164571.182],[147453.2201,164574.7201],[147453.1801,164576.0401],[147453.2101,164577.3701],[147453.3101,164578.6901],[147453.4701,164579.9301],[147453.6901,164581.1701],[147453.9701,164582.3901],[147454.2601,164583.4201],[147454.6001,164584.4301],[147454.9301,164585.4401],[147461.9601,164603.4301],[147474.3801,164634.9501],[147481.3601,164652.5901],[147491.1101,164677.2401],[147504.9601,164712.2901],[147517.8701,164745.0301],[147529.3701,164774.0501],[147544.6301,164811.8101],[147556.4701,164841.2501],[147571.1901,164877.7201],[147582.1701,164904.8701],[147593.2401,164932.7301],[147604.1201,164959.9901],[147614.2101,164985.3201],[147620.0401,165000.0001],[147620.04,165000],[147624.37,165010.92],[147634.04,165035.22],[147643.31,165058.51],[147647.77,165069.75],[147649.57,165074.26],[147651.37,165078.78],[147653.17,165083.3],[147655.17,165088.3],[147657.16,165093.31],[147659.09,165098.34],[147660.69,165102.72],[147662.23,165107.13],[147663.75,165111.54],[147665.33,165116.33],[147666.87,165121.13],[147668.41,165125.94],[147669.95,165130.71],[147671.48,165135.49],[147673.01,165140.26],[147675.09,165146.71],[147677.16,165153.16],[147679.22,165159.62],[147681.08,165165.47],[147682.94,165171.32],[147684.79,165177.18],[147686.09,165181.19],[147687.39,165185.21],[147688.62,165189.25],[147689.7,165193.12],[147690.73,165197.02],[147691.71,165200.92],[147693.01,165206.5],[147694.23,165212.09],[147695.45,165217.69],[147696.22,165221.16],[147696.98,165224.64],[147697.75,165228.12],[147698.6,165232.03],[147699.46,165235.94],[147700.32,165239.85],[147701.1,165243.37],[147701.89,165246.88],[147702.64,165250.4],[147703.37,165254.03],[147704.07,165257.67],[147704.73,165261.32],[147705.38,165265.14],[147705.99,165268.96],[147706.59,165272.79],[147707.49,165278.46],[147708.38,165284.14],[147709.28,165289.82],[147710.07,165294.69],[147710.87,165299.57],[147711.67,165304.45],[147712.38,165308.76],[147713.08,165313.07],[147713.73,165317.39],[147714.2,165320.84],[147714.63,165324.29],[147715.01,165327.75],[147715.34,165331.48],[147715.6,165335.22],[147715.84,165338.96],[147716.09,165343.14],[147716.32,165347.32],[147716.55,165351.51],[147716.86,165356.71],[147717.19,165361.91],[147717.5,165367.12],[147717.75,165371.52],[147717.99,165375.92],[147718.22,165380.32],[147718.43,165384.77],[147718.62,165389.22],[147718.8,165393.67],[147719.01,165398.84],[147719.21,165404.02],[147719.4,165409.19],[147719.57,165414.35],[147719.72,165419.51],[147719.88,165424.67],[147720.09,165430.42],[147720.32,165436.18],[147720.55,165441.93],[147720.76,165447.74],[147720.98,165453.54],[147721.2,165459.35],[147721.43,165465.46],[147721.6398,165470.7918],[147722.0984,165492.792],[147722.6005,165507.9759],[147722.8087,165516.4633]]},"geometry_name":"GEOM","properties":{"INSPIRE_ID":"https://databrussels.be/id/rail/21682","TYPE":"TW","LVL":0,"SLOPE":null,"LENGTH":1173.44566476661},"bbox":[147453.1801,164400.78968154,147722.8087,165516.4633]},{"type":"Feature","id":"TramNetwork.fid--1290087_1a0284638b1_-7a08","geometry":{"type":"LineString","coordinates":[[147743.41285642,167312.6467056],[147746.5801,167312.1701],[147752.0001,167311.2401],[147756.243,167309.8186],[147758.39737198,167308.67545695],[147760.43520032,167307.33551194],[147762.3385718,167305.81059424],[147763.3506599,167304.84139308],[147763.63841519,167304.56583133],[147763.89383392,167304.32123591],[147765.32057366,167302.70833721],[147765.69199881,167302.21095136],[147765.91714679,167301.90944939],[147766.60901275,167300.98295227],[147767.40331321,167299.84234595],[147768.16351559,167298.67873591],[147768.88895414,167297.49314117],[147769.6191558,167296.21374817],[147770.30887638,167294.91208522],[147770.9574374,167293.58943276],[147771.32200256,167292.82866816],[147771.68325088,167292.06632297],[147772.04117552,167291.30241166],[147772.66060359,167289.95948135],[147773.26976011,167288.61186075],[147773.86860956,167287.25962842],[147777.7401,167278.1701],[147780.1801,167272.5301],[147782.5801,167266.8701],[147785.0001,167261.2001],[147788.8401,167252.3301],[147792.6901,167243.4801],[147796.5401,167234.6401],[147799.7501,167227.2501],[147802.9501,167219.8501],[147806.1601,167212.4601],[147810.5201,167202.4101],[147814.8901,167192.3501],[147819.2601,167182.3001],[147823.4501,167172.6701],[147827.6401,167163.0401],[147831.8201,167153.4001],[147836.7301,167142.0501],[147841.6401,167130.6801],[147846.5601,167119.3201],[147852.4101,167105.8301],[147858.2801,167092.3501],[147864.1301,167078.8701],[147869.8501,167065.6701],[147875.5601,167052.4601],[147881.2701,167039.2601],[147884.3201,167032.1801],[147887.0201,167025.6601],[147889.1401,167019.1101],[147890.2001,167014.8501],[147890.8401,167010.7001],[147891.1701,167006.5701],[147891.0801,167002.6401],[147890.8601,167000.0001],[147890.3829,166997.3666],[147889.5841,166992.8261],[147887.8101,166985.0837],[147883.3439,166967.727],[147879.8725,166954.1591],[147875.8509,166938.5804],[147872.4642,166926.1344],[147869.2892,166913.773],[147866.8127,166904.2692],[147864.1033,166893.6012],[147860.5473,166879.7793],[147857.3088,166867.0793],[147853.774,166853.4056],[147850.8106,166841.8486],[147848.059,166831.117],[147845.7941,166822.4175],[147843.4235,166812.8502],[147840.6718,166802.7113],[147838.026,166792.1068],[147835.5071,166782.2854],[147832.8613,166772.4006],[147830.2366,166761.9654],[147827.4426,166751.1492],[147825.1778,166742.5132],[147822.1933,166730.9562],[147819.5051,166720.4786],[147816.8381,166710.9325],[147813.9171,166699.8623],[147810.9114,166688.0512],[147806.8262,166672.4091],[147804.2227,166662.249],[147798.3595,166639.6218],[147795.7984,166629.6735],[147791.9884,166615.1108],[147788.5805,166601.6911],[147784.6647,166586.6415],[147781.4262,166574.3225],[147779.9233,166567.7608],[147776.833,166554.3623],[147773.7003,166540.3076],[147770.4407,166526.0624],[147767.5196,166513.1719],[147764.9373,166501.8054],[147762.5666,166491.2009],[147760.9368,166483.2845],[147759.18,166473.823],[147758.1005,166467.0285],[147757.2591,166461.1494],[147756.5447,166455.5138],[147756.0579,166451.3492],[147755.0789,166441.1363],[147754.682,166436.2944],[147753.465,166422.5096],[147752.5918,166411.6617],[147751.216,166395.4956],[147749.9265,166380.7387],[147749.1661,166370.5645],[147748.6592,166358.3266],[147747.9713,166340.9836],[147747.4324,166323.7195],[147745.6592,166278.7316],[147744.0824,166235.6156],[147742.5237,166190.5722],[147741.2961,166146.2515],[147740.1252,166107.0773],[147739.1034,166071.8414],[147737.9409,166031.493],[147737.058,166000.0001],[147736.8269,165991.7547],[147735.5148,165958.5462],[147733.7748,165899.3971],[147733.1735,165870.7083],[147731.9239,165825.4223],[147730.8207,165788.5891],[147730.1109,165763.1631],[147729.0437,165728.9155],[147727.757,165681.9368],[147727.0329,165647.1766],[147726.7141,165628.2956],[147725.6074,165598.0919],[147724.3638,165566.4736],[147724.0855,165556.0055],[147723.627,165545.0237],[147723.31961103,165535.03552681],[147723.26643848,165533.30775944],[147723.19501907,165530.9870858],[147723.14115238,165529.23676336],[147723.0804,165527.2627],[147722.8087,165516.4633]]},"geometry_name":"GEOM","properties":{"INSPIRE_ID":"https://databrussels.be/id/rail/21684","TYPE":"TW","LVL":0,"SLOPE":null,"LENGTH":1854.51431932807},"bbox":[147722.8087,165516.4633,147891.1701,167312.6467056]},{"type":"Feature","id":"TramNetwork.fid--1290087_1a0284638b1_-7a1d","geometry":{"type":"LineString","coordinates":[[147743.61,167314.12],[147747.19896939,167313.48139732],[147751.40750651,167312.75926826],[147752.6189694,167312.55139732],[147756.86187173,167311.12994647],[147759.13633693,167309.92302691],[147761.28776422,167308.50838653],[147763.29723933,167306.89846213],[147764.76049717,167305.49749594],[147764.93531137,167305.33012367],[147765.04170318,167305.20992426],[147766.43839135,167303.63197288],[147767.03950049,167302.82786775],[147767.26022635,167302.53260226],[147767.79622854,167301.81559084],[147768.61154759,167300.64408714],[147769.39198195,167299.44906066],[147770.13685342,167298.23154986],[147770.88856217,167296.91454195],[147771.59865913,167295.57463964],[147772.26644773,167294.21315727],[147772.63280327,167293.44860316],[147772.99583379,167292.68246467],[147773.35553245,167291.91475624],[147773.97959756,167290.56177274],[147774.59331422,167289.20406385],[147775.19664666,167287.8417087],[147779.1001,167278.7701],[147781.5401,167273.1201],[147783.9501,167267.4501],[147786.3601,167261.7801],[147790.1901,167252.9201],[147794.0501,167244.0801],[147797.9001,167235.2301],[147801.1101,167227.8301],[147804.3101,167220.4401],[147807.5201,167213.0501],[147811.8801,167203.0001],[147816.2501,167192.9401],[147820.6201,167182.8901],[147824.8101,167173.2601],[147828.9901,167163.6301],[147833.1801,167153.9901],[147838.0901,167142.6301],[147843.0001,167131.2701],[147847.9101,167119.9101],[147853.7701,167106.4201],[147859.6301,167092.9401],[147865.4901,167079.4501],[147871.2101,167066.2501],[147876.9201,167053.0501],[147882.6301,167039.8401],[147885.6901,167032.7601],[147888.4101,167026.1701],[147890.5701,167019.5201],[147891.6501,167015.1501],[147892.3101,167010.8701],[147892.6501,167006.6101],[147892.5601,167002.5601],[147892.3501,167000.0001],[147891.8596,166997.103],[147891.0548,166992.5285],[147889.2677,166984.7292],[147884.7968,166967.3542],[147881.3253,166953.7857],[147877.3008,166938.196],[147873.9144,166925.7509],[147870.7414,166913.3973],[147868.2654,166903.8954],[147865.5566,166893.2297],[147862.0004,166879.4071],[147858.7617,166866.7062],[147855.2266,166853.0316],[147852.2636,166841.476],[147849.5113,166830.7418],[147847.248,166822.0482],[147844.8754,166812.4733],[147842.1235,166802.3333],[147839.4801,166791.7389],[147836.9581,166781.9052],[147834.3132,166772.0237],[147831.6901,166761.5949],[147828.8942,166750.7714],[147826.6294,166742.1354],[147823.6459,166730.5823],[147820.9541,166720.0904],[147818.2857,166710.5393],[147815.3691,166699.486],[147812.3639,166687.6768],[147808.2784,166672.0334],[147805.6753,166661.8747],[147799.8119,166639.2467],[147797.2503,166629.2966],[147793.4409,166614.7363],[147790.0333,166601.3176],[147786.1159,166586.262],[147782.883,166573.9643],[147781.3852,166567.4248],[147778.2959,166554.0306],[147775.1635,166539.9772],[147771.9032,166525.7294],[147768.9825,166512.84],[147766.4006,166501.4756],[147764.0333,166490.886],[147762.4089,166482.9963],[147760.6583,166473.5683],[147759.5837,166466.8045],[147758.7457,166460.9488],[147758.0337,166455.3324],[147757.5495,166451.1906],[147756.5731,166441.0035],[147756.1766,166436.1672],[147754.9596,166422.3835],[147754.0867,166411.5379],[147752.7104,166395.3667],[147751.4216,166380.6175],[147750.6638,166370.4776],[147750.158,166358.2659],[147749.4704,166340.9304],[147748.7894,166323.666],[147747.0164,166278.68],[147745.4396,166235.5673],[147743.8812,166190.5299],[147742.6536,166146.2125],[147741.4827,166107.0373],[147740.461,166071.8022],[147739.2984,166031.4545],[147738.4166,166000.0001],[147738.1842,165991.7089],[147736.9166,165958.5049],[147735.1768,165899.3617],[147734.5755,165870.6743],[147733.369,165826.8248],[147732.2226,165788.5486],[147731.5128,165763.1217],[147730.4456,165728.8744],[147729.1591,165681.903],[147728.4351,165647.1501],[147728.1162,165628.2581],[147727.0089,165598.0386],[147725.7655,165566.4274],[147725.4875,165555.9682],[147725.0926,165543.8559],[147724.8581466,165536.01120122],[147724.80653616,165534.28434038],[147724.7529,165532.4897],[147724.73672663,165531.96327695],[147724.68295282,165530.21300573],[147724.59996873,165527.51197595],[147724.2505,165516.1372]]},"geometry_name":"GEOM","properties":{"INSPIRE_ID":"https://databrussels.be/id/rail/21685","TYPE":"TW","LVL":0,"SLOPE":null,"LENGTH":1856.93118264626},"bbox":[147724.2505,165516.1372,147892.6501,167314.12]},{"type":"Feature","id":"TramNetwork.fid--1290087_1a0284638b1_-7a1c","geometry":{"type":"LineString","coordinates":[[147778.48,167329.03],[147774.11,167322.55],[147774.01454046,167322.34275881],[147772.18,167318.36],[147771.62588197,167316.47300128],[147771.47019147,167315.94289262],[147771.32618558,167315.40949125],[147771.19393384,167314.87305468],[147771.02491373,167314.09897339],[147770.88036564,167313.31995126],[147770.76043309,167312.53676174],[147770.63191849,167311.41846443],[147770.54977553,167310.29580802],[147770.51414483,167309.17071454],[147770.52728863,167308.16845169],[147770.53132522,167307.86064712],[147770.53756537,167307.75894024],[147770.61155948,167306.5529261],[147770.75466152,167305.25058451],[147770.85387865,167304.58353905],[147770.91397581,167304.17950058],[147770.93275565,167304.05324209],[147771.15127391,167302.8626136],[147771.40996587,167301.68006345],[147771.74458216,167300.3757032],[147772.12807091,167299.08486622],[147772.55988832,167297.80938299],[147772.91676726,167296.85685957],[147773.28216853,167295.9075728],[147773.65606278,167294.96159895],[147774.07192306,167293.93756321],[147774.4977358,167292.91762572],[147774.93346062,167291.90188321],[147776.59377527,167288.06579269],[147777.5,167285.91],[147779.09,167282.21],[147783.42,167272.15],[147787.76,167262.1],[147792.12,167252.05],[147795.72,167243.72],[147799.34,167235.39],[147802.95,167227.06],[147805.84,167220.44],[147808.72,167213.83],[147811.6,167207.22],[147815.13,167199.06],[147818.65,167190.9],[147822.18,167182.74],[147825.54,167175.04],[147828.9,167167.34],[147832.24,167159.64],[147835.32,167152.5],[147838.38,167145.35],[147841.46,167138.21],[147844.35,167131.59],[147847.26,167124.97],[147850.15,167118.34],[147852.97,167111.84],[147855.77,167105.34],[147858.58,167098.84],[147862.97,167088.74],[147867.36,167078.64],[147871.74,167068.55],[147874.98,167061.07],[147878.22,167053.6],[147881.46,167046.13],[147886.99,167033.38],[147889.14,167028.31],[147890.83,167024.24],[147892.37,167019.76],[147893.37,167015.99],[147894.11,167011.95],[147894.58,167007.64],[147894.69,167003.31],[147894.46,167000],[147894.1266,166996.2261],[147893.6821,166993.9401],[147893.3223,166992.0986],[147892.6449,166989.1987],[147890.2743,166979.8219],[147888.1153,166971.3764],[147885.5329,166961.555],[147882.4426,166949.4476],[147880.1566,166940.6423],[147877.9129,166932.7471],[147875.5422,166924.4074],[147872.9599,166915.6232],[147870.3987,166906.5427],[147868.282,166898.6052],[147865.5515,166888.2124],[147863.0962,166878.6238],[147860.3869,166868.1886],[147858.1855,166859.5526],[147856.1112,166851.6998],[147854.4602,166845.1381],[147852.9785,166839.3173],[147850.7137,166830.4696],[147848.8087,166823.2306],[147846.5015,166813.9595],[147843.771,166803.3762],[147841.0193,166792.8352],[147838.4793,166782.9715],[147836.2991,166774.3143],[147833.6745,166764.4083],[147830.8593,166753.2958],[147827.4726,166740.2994],[147825.3348,166731.9174],[147822.4985,166720.7837],[147820.3395,166712.0418],[147817.4819,166700.7176],[147815.1324,166691.5313],[147812.5713,166681.7946],[147810.2218,166672.6083],[147807.4489,166661.9826],[147805.1629,166653.0502],[147802.1784,166641.6837],[147799.5537,166631.5448],[147796.7174,166620.517],[147794.3891,166611.4153],[147791.8279,166601.6998],[147789.3726,166592.0689],[147786.7267,166581.9936],[147784.7159,166574.2677],[147782.7262,166566.6689],[147780.7365,166558.7314],[147778.9585,166551.3018],[147777.1594,166543.4067],[147774.7252,166532.7175],[147772.672,166523.4465],[147770.2378,166512.8208],[147768.3328,166504.3964],[147766.2373,166495.2524],[147764.7557,166488.2251],[147763.3798,166481.6845],[147762.131,166474.5725],[147761.0938,166468.3707],[147760.1413,166461.682],[147759.4005,166456.0728],[147758.702,166450.1673],[147758.1093,166444.1771],[147757.7918,166440.6846],[147756.924,166429.9108],[147756.2043,166421.5288],[147755.3153,166411.0301],[147754.384,166400.7642],[147753.6008,166388.3182],[147752.9658,166378.6873],[147752.4155,166369.3105],[147752.0345,166358.8965],[147751.5688,166347.1913],[147751.1243,166335.5284],[147750.7541,166324.9051],[147749.7835,166300.7526],[147748.7208,166274.8014],[147747.4784,166250.7478],[147746.6183,166228.2794],[147745.757,166204.8471],[147745.1835,166186.2412],[147744.6485,166169.5003],[147744.2078,166155.6461],[147743.7808,166138.1434],[147743.4538,166124.9963],[147743.0287,166111.3573],[147742.6845,166099.2868],[147742.4462,166088.0441],[147741.9707,166073.2045],[147741.3453,166053.5588],[147740.8169,166034.6682],[147740.2409,166013.6358],[147739.8477,165999.9999],[147739.6669,165993.7303],[147739.0965,165971.9463],[147738.7364,165959.8445],[147737.9262,165932.6576],[147737.2316,165906.0602],[147736.735,165877.8397],[147735.944,165850.871],[147735.6207,165839.648],[147735.4097,165834.135],[147734.9206,165824.9267],[147734.3929,165814.4897],[147733.9122,165799.3461],[147732.6758,165762.032],[147731.6973,165728.3658],[147730.886,165700.0423],[147730.2456,165671.9857],[147729.7318,165644.2469],[147729.2612,165621.519],[147729.1595,165611.1167],[147728.6583,165594.0808],[147727.463,165564.174],[147726.46,165543.9826],[147726.31,165538.79],[147726.25456998,165536.89675691],[147726.20403119,165535.17057647],[147726.13607002,165532.84932477],[147726.08907854,165531.24430497],[147726.08487348,165531.10067855],[147725.96552636,165527.02431148],[147725.86,165523.42],[147725.6393,165514.3443]]},"geometry_name":"GEOM","properties":{"INSPIRE_ID":"https://databrussels.be/id/rail/21686","TYPE":"TW","LVL":0,"SLOPE":null,"LENGTH":1859.31912535974},"bbox":[147725.6393,165514.3443,147894.69,167329.03]},{"type":"Feature","id":"TramNetwork.fid--1290087_1a0284638b1_-7a1b","geometry":{"type":"LineString","coordinates":[[147779.67221092,167328.13734505],[147777.26,167324.47],[147775.4,167321.81],[147773.01254793,167316.04914101],[147772.86583534,167315.54960115],[147772.73013358,167315.04695845],[147772.60550815,167314.54145557],[147772.44628666,167313.81226964],[147772.31010973,167313.07843079],[147772.19711244,167312.34066713],[147772.07550472,167311.28223259],[147771.99777543,167310.21967424],[147771.99418482,167310.10627665],[147771.96405761,167309.15481029],[147771.96835493,167308.82744958],[147771.97354681,167308.43194334],[147771.98034731,167307.91389612],[147772.05639484,167306.67520725],[147772.19202363,167305.44161973],[147772.22541891,167305.21702424],[147772.28483025,167304.81746119],[147772.36293915,167304.29215016],[147772.57268511,167303.14912827],[147772.82102089,167302.01386541],[147773.14151049,167300.76441365],[147773.50873977,167299.52789194],[147773.92218966,167298.30604806],[147774.27380839,167297.36769969],[147774.6338049,167296.43253344],[147775.0021504,167295.50062411],[147775.41284712,167294.48930847],[147775.8333762,167293.48204166],[147776.26369773,167292.47891929],[147777.9244828,167288.64174188],[147778.86,167286.49],[147780.45,167282.8],[147784.78,167272.74],[147789.12,167262.69],[147793.47,167252.64],[147797.08,167244.31],[147800.69,167235.97],[147804.31,167227.65],[147807.19,167221.03],[147810.08,167214.42],[147812.96,167207.81],[147816.49,167199.65],[147820.01,167191.49],[147823.54,167183.33],[147826.89,167175.63],[147830.25,167167.93],[147833.6,167160.22],[147836.68,167153.08],[147839.74,167145.94],[147842.82,167138.8],[147845.71,167132.18],[147848.61,167125.56],[147851.51,167118.93],[147854.33,167112.43],[147857.13,167105.93],[147859.94,167099.43],[147864.32,167089.33],[147868.71,167079.23],[147873.1,167069.14],[147876.34,167061.66],[147879.58,167054.19],[147882.82,167046.71],[147888.35,167033.97],[147890.5,167028.88],[147892.21,167024.76],[147893.79,167020.19],[147894.81,167016.31],[147895.58,167012.16],[147896.05,167007.74],[147896.17,167003.27],[147895.95,167000],[147895.6139,166996.0164],[147895.1543,166993.6524],[147894.7892,166991.784],[147894.1025,166988.8443],[147891.728,166979.4523],[147889.5672,166970.9999],[147886.985,166961.1788],[147883.8952,166949.0737],[147881.6041,166940.2488],[147879.3557,166932.337],[147876.9832,166923.9908],[147874.4013,166915.2081],[147871.8453,166906.1459],[147869.7321,166898.2214],[147867.0035,166887.8357],[147864.5487,166878.2493],[147861.8396,166867.8149],[147859.6374,166859.1758],[147857.5637,166851.3252],[147855.9143,166844.7701],[147854.4319,166838.9463],[147852.1656,166830.0927],[147850.2618,166822.8586],[147847.9556,166813.591],[147845.2229,166802.9994],[147842.4713,166792.4587],[147839.9329,166782.6013],[147837.7515,166773.939],[147835.1265,166764.032],[147832.3121,166752.9224],[147828.9251,166739.9249],[147826.7883,166731.5469],[147823.9534,166720.4187],[147821.7948,166711.6785],[147818.9358,166700.3483],[147816.5844,166691.1547],[147814.0232,166681.418],[147811.6741,166672.233],[147808.9012,166661.6072],[147806.6149,166652.6738],[147803.6299,166641.3053],[147801.0062,166631.1701],[147798.1704,166620.1443],[147795.8409,166611.0382],[147793.2799,166601.3233],[147790.8247,166591.6931],[147788.1779,166581.6142],[147786.1672,166573.8888],[147784.1793,166566.2965],[147782.1935,166558.3744],[147780.4192,166550.9606],[147778.6219,166543.0736],[147776.1887,166532.3888],[147774.1354,166523.1168],[147771.7004,166512.4879],[147769.7954,166504.0635],[147767.7024,166494.9301],[147766.2235,166487.9159],[147764.8529,166481.4004],[147763.6094,166474.3191],[147762.5763,166468.1412],[147761.6274,166461.4781],[147760.8889,166455.8865],[147760.1933,166450.0054],[147759.6026,166444.0354],[147759.2864,166440.5565],[147758.4188,166429.7864],[147757.6989,166421.4013],[147756.8096,166410.899],[147755.8797,166400.6493],[147755.0977,166388.2217],[147754.4629,166378.594],[147753.9139,166369.2391],[147753.5334,166358.8392],[147753.0677,166347.1329],[147752.6233,166335.4737],[147752.187,166324.8475],[147751.2164,166300.6944],[147750.1533,166274.7351],[147748.9111,166250.6834],[147748.0514,166228.2257],[147747.1902,166204.7987],[147746.6169,166186.1962],[147746.0819,166169.4546],[147745.6413,166155.6058],[147745.2144,166138.1081],[147744.8873,166124.9561],[147744.4621,166111.3145],[147744.1181,166099.2512],[147743.8797,166088.006],[147743.4041,166073.1587],[147742.7788,166053.5159],[147742.2504,166034.6285],[147741.6744,166013.5955],[147741.2823,165999.9998],[147741.1663,165993.689],[147740.5959,165971.9044],[147740.2357,165959.7999],[147739.4256,165932.6157],[147738.7313,165906.0274],[147738.2346,165877.8045],[147737.4434,165850.8274],[147737.1199,165839.5977],[147736.9082,165834.0665],[147736.4186,165824.849],[147735.8917,165814.428],[147735.4114,165799.2975],[147734.1751,165761.9854],[147733.1967,165728.3225],[147732.3855,165700.0037],[147731.7453,165671.9547],[147731.2315,165644.2175],[147730.761,165621.4961],[147730.6593,165611.0873],[147730.1574,165594.0288],[147728.9615,165564.1068],[147727.9589,165543.9237],[147727.8094,165538.7464],[147727.78363641,165537.8664295],[147727.7330977,165536.14024998],[147727.67500944,165534.15621116],[147727.66509225,165533.81748372],[147727.61389554,165532.06882986],[147727.58231222,165530.99008288],[147727.44690393,165526.36513294],[147727.3595,165523.3798],[147727.1485,165514.7031]]},"geometry_name":"GEOM","properties":{"INSPIRE_ID":"https://databrussels.be/id/rail/21687","TYPE":"TW","LVL":0,"SLOPE":null,"LENGTH":1858.01660895886},"bbox":[147727.1485,165514.7031,147896.17,167328.13734505]},{"type":"Feature","id":"TramNetwork.fid--1290087_1a0284638b1_-7a07","geometry":{"type":"LineString","coordinates":[[147739.3783,165545.2193],[147735.858,165542.5822],[147733.9497,165541.0391],[147731.4816,165538.8487],[147730.76098299,165538.0604151],[147729.7628,165536.9685],[147727.9517,165534.6279],[147727.67500944,165534.15621116],[147727.36476384,165533.62731929],[147726.7754,165532.6226],[147726.08907854,165531.24430497],[147725.98656327,165531.03843016],[147725.5247,165530.1109],[147724.59996873,165527.51197595],[147724.2384,165526.4958],[147723.6039,165523.5774],[147723.3223,165521.3335],[147723.09,165518.8646],[147722.8087,165516.4633]]},"geometry_name":"GEOM","properties":{"INSPIRE_ID":"https://databrussels.be/id/rail/21688","TYPE":"TW","LVL":0,"SLOPE":null,"LENGTH":34.7728875678644},"bbox":[147722.8087,165516.4633,147739.3783,165545.2193]},{"type":"Feature","id":"TramNetwork.fid--1290087_1a0284638b1_-7a06","geometry":{"type":"LineString","coordinates":[[147724.2505,165516.1372],[147724.5321,165518.7123],[147724.7638,165521.1753],[147725.0346,165523.3326],[147725.6356,165526.0971],[147725.96552636,165527.02431148],[147726.8616,165529.5426],[147727.58231222,165530.99008288],[147728.0512,165531.9318],[147728.4375068,165532.5903268],[147729.1554,165533.8141],[147730.59211589,165535.67084077],[147730.8732,165536.0341],[147732.5007,165537.8145],[147734.8873,165539.9325],[147736.7488,165541.4378],[147740.3333,165544.1308]]},"geometry_name":"GEOM","properties":{"INSPIRE_ID":"https://databrussels.be/id/rail/21689","TYPE":"TW","LVL":0,"SLOPE":null,"LENGTH":33.8634362607761},"bbox":[147724.2505,165516.1372,147740.3333,165544.1308]},{"type":"Feature","id":"TramNetwork.fid--1290087_1a0284638b1_-7a05","geometry":{"type":"LineString","coordinates":[[147742.8897,165543.5695],[147737.3684,165539.592],[147735.7969,165538.3559],[147733.9436,165536.7785],[147732.8797,165535.7352],[147732.30953918,165535.04203324],[147730.7614,165533.1599],[147729.8566,165531.7405],[147728.838,165529.7683],[147727.8821,165527.7232],[147727.44690393,165526.36513294],[147727.1117,165525.3191],[147726.7972,165523.7388],[147726.2917,165520.4016],[147726.0245,165518.0343],[147725.9006,165516.5822],[147725.6393,165514.3443]]},"geometry_name":"GEOM","properties":{"INSPIRE_ID":"https://databrussels.be/id/rail/21690","TYPE":"TW","LVL":0,"SLOPE":null,"LENGTH":35.8268810235381},"bbox":[147725.6393,165514.3443,147742.8897,165543.5695]},{"type":"Feature","id":"TramNetwork.fid--1290087_1a0284638b1_-7a18","geometry":{"type":"LineString","coordinates":[[147839.4007,165605.7472],[147835.8142,165603.7784],[147833.1425,165602.3635],[147830.0293,165600.8374],[147828.1975,165600.0208],[147824.6241,165598.2405],[147820.0767,165596.1111],[147817.0004,165594.5606],[147813.9019,165592.8728]]},"geometry_name":"GEOM","properties":{"INSPIRE_ID":"https://databrussels.be/id/rail/21691","TYPE":"TW","LVL":0,"SLOPE":null,"LENGTH":28.5742003621671},"bbox":[147813.9019,165592.8728,147839.4007,165605.7472]},{"type":"Feature","id":"TramNetwork.fid--1290087_1a0284638b1_-7a19","geometry":{"type":"LineString","coordinates":[[147813.2223,165594.197],[147815.8184,165595.4721],[147818.0541,165596.5362],[147821.1047,165598.056],[147824.09869765,165599.5570664],[147826.2148,165600.6105],[147828.8133,165601.8168],[147831.2768,165603.0719],[147834.3286,165604.6224],[147838.7414,165607.0509]]},"geometry_name":"GEOM","properties":{"INSPIRE_ID":"https://databrussels.be/id/rail/21692","TYPE":"TW","LVL":0,"SLOPE":null,"LENGTH":28.5792395535653},"bbox":[147813.2223,165594.197,147838.7414,165607.0509]},{"type":"Feature","id":"TramNetwork.fid--1290087_1a0284638b1_-7a01","geometry":{"type":"LineString","coordinates":[[147742.8897,165543.5695],[147744.8843,165544.8549],[147753.1701,165550.2348],[147764.3035,165557.5168],[147771.9115,165562.5263],[147779.9979,165567.896],[147786.6196,165572.2498],[147800.952,165581.8124],[147807.6641,165586.2909],[147816.5444,165592.1789],[147826.356,165598.7977],[147828.1975,165600.0208],[147838.7414,165607.0509]]},"geometry_name":"GEOM","properties":{"INSPIRE_ID":"https://databrussels.be/id/rail/21693","TYPE":"TW","LVL":0,"SLOPE":null,"LENGTH":114.968645936084},"bbox":[147742.8897,165543.5695,147838.7414,165607.0509]},{"type":"Feature","id":"TramNetwork.fid--1290087_1a0284638b1_-7a02","geometry":{"type":"LineString","coordinates":[[147813.9019,165592.8728],[147786.3142,165574.2238],[147773.6455,165566.0755],[147756.98,165554.8158],[147746.8204,165548.2446],[147740.3333,165544.1308]]},"geometry_name":"GEOM","properties":{"INSPIRE_ID":"https://databrussels.be/id/rail/21694","TYPE":"TW","LVL":0,"SLOPE":null,"LENGTH":88.2562490790587},"bbox":[147740.3333,165544.1308,147813.9019,165592.8728]},{"type":"Feature","id":"TramNetwork.fid--1290087_1a0284638b1_-7a15","geometry":{"type":"LineString","coordinates":[[147839.4007,165605.7472],[147841.6867,165607.2807],[147848.6956,165611.8695],[147860.0061,165619.4578],[147865.13,165622.76],[147890.0927,165638.5899],[147895.71793332,165642.09351841],[147927.451,165663.167],[147938.956,165670.599],[147952.185,165679.02],[147964.47,165686.89],[147972.092,165691.807],[147972.79425644,165692.26159962]]},"geometry_name":"GEOM","properties":{"INSPIRE_ID":"https://databrussels.be/id/rail/21695","TYPE":"TW","LVL":0,"SLOPE":null,"LENGTH":159.000224898829},"bbox":[147839.4007,165605.7472,147972.79425644,165692.26159962]},{"type":"Feature","id":"TramNetwork.fid--1290087_1a0284638b1_-7a16","geometry":{"type":"LineString","coordinates":[[147972.04302852,165693.48178373],[147971.311,165693.008],[147963.694,165688.092],[147951.405,165680.224],[147938.181,165671.807],[147926.69,165664.385],[147894.91091896,165643.3629193],[147889.29747606,165639.86669214],[147864.33,165624],[147859.135,165620.6532],[147847.8933,165613.0773],[147840.8857,165608.4894],[147838.7414,165607.0509]]},"geometry_name":"GEOM","properties":{"INSPIRE_ID":"https://databrussels.be/id/rail/21696","TYPE":"TW","LVL":0,"SLOPE":null,"LENGTH":158.877162571715},"bbox":[147838.7414,165607.0509,147972.04302852,165693.48178373]},{"type":"Feature","id":"TramNetwork.fid--1290087_1a0284638b1_-7a17","geometry":{"type":"LineString","coordinates":[[147813.9019,165592.8728],[147821.6366,165597.883],[147824.0986,165599.557],[147827.5658,165601.9145],[147836.67,165607.8249],[147843.4349,165612.2543],[147847.4249,165614.8427],[147854.4313,165619.3867],[147864.4178,165625.7965],[147873.9661,165632.0221],[147882.4402,165637.51],[147888.4669,165641.3439],[147894.0141,165644.7737],[147925.9051,165665.5461],[147925.905,165665.546],[147937.409,165673.01],[147950.906,165681.867],[147962.707,165689.586],[147970.716,165694.778],[147971.42661751,165695.23693462]]},"geometry_name":"GEOM","properties":{"INSPIRE_ID":"https://databrussels.be/id/rail/21697","TYPE":"TW","LVL":0,"SLOPE":null,"LENGTH":187.867220745096},"bbox":[147813.9019,165592.8728,147971.42661751,165695.23693462]},{"type":"Feature","id":"TramNetwork.fid--1290087_1a0284638b1_-7a14","geometry":{"type":"LineString","coordinates":[[147970.78521964,165696.53163108],[147972.463,165697.613],[147975.708,165699.711],[147978.819,165701.728],[147981.127,165703.225],[147983.69,165704.88],[147985.131,165705.825],[147987.153,165707.169],[147991.199,165710.021],[147995.015,165713.035],[147998.625,165716.292],[148000,165717.71477402],[148002.03573688,165719.82124205],[148005.175,165723.594],[148007.63574608,165726.99714955],[148009.886,165730.543],[148011.699,165733.752],[148013.958,165738.174],[148014.996,165740.405],[148016.41294459,165743.68388004]]},"geometry_name":"GEOM","properties":{"INSPIRE_ID":"https://databrussels.be/id/rail/21791","TYPE":"TW","LVL":0,"SLOPE":null,"LENGTH":67.0950635737502},"bbox":[147970.78521964,165696.53163108,148016.41294459,165743.68388004]},{"type":"Feature","id":"TramNetwork.fid--1290087_1a0284638b1_-7a11","geometry":{"type":"LineString","coordinates":[[147971.42661751,165695.23693462],[147973.243,165696.41],[147976.493,165698.513],[147979.581,165700.512],[147981.915,165702.027],[147983.01109543,165702.73258196],[147984.472,165703.673],[147985.922,165704.631],[147987.956,165705.982],[147992.048,165708.867],[147995.937,165711.941],[147999.631,165715.275],[148000,165715.65687155],[148003.10942589,165718.8747612],[148006.312,165722.722],[148008.81814222,165726.18563348],[148010.40268436,165728.67929394],[148011.111,165729.794],[148012.953,165733.057],[148015.23,165737.52],[148016.313,165739.847],[148017.70574732,165743.06142791]]},"geometry_name":"GEOM","properties":{"INSPIRE_ID":"https://databrussels.be/id/rail/21792","TYPE":"TW","LVL":0,"SLOPE":null,"LENGTH":68.0442886037805},"bbox":[147971.42661751,165695.23693462,148017.70574732,165743.06142791]},{"type":"Feature","id":"TramNetwork.fid--1290087_1a0284638b1_-7a0d","geometry":{"type":"LineString","coordinates":[[147972.79425644,165692.26159962],[147975.007,165693.694],[147977.863,165695.54],[147981.347,165697.797],[147982.753,165698.708],[147984.0345841,165699.54120054],[147984.628,165699.927],[147987.711,165701.941],[147988.41831043,165702.40789289],[147989.791,165703.314],[147990.6899141,165703.92275299],[147991.941,165704.77],[147992.968602,165705.504729],[147993.993,165706.244],[147998.078,165709.471],[148000,165711.24650917],[148001.896,165712.998],[148005.49044464,165716.81791984],[148006.51887843,165718.07608595],[148008.81,165720.879],[148008.99442982,165721.13085577],[148010.298,165722.911],[148012.117,165725.606],[148012.77794233,165726.67082514],[148013.508,165727.847],[148015.635,165731.61],[148017.557,165735.393],[148017.989,165736.299],[148019.024,165738.606],[148020.06024014,165741.02355335]]},"geometry_name":"GEOM","properties":{"INSPIRE_ID":"https://databrussels.be/id/rail/21793","TYPE":"TW","LVL":0,"SLOPE":null,"LENGTH":69.4273653450408},"bbox":[147972.79425644,165692.26159962,148020.06024014,165741.02355335]},{"type":"Feature","id":"TramNetwork.fid--1290087_1a0284638b1_-7a10","geometry":{"type":"LineString","coordinates":[[147972.04302852,165693.48178373],[147974.225,165694.894],[147977.081,165696.741],[147980.564,165698.997],[147981.97,165699.911],[147983.58,165700.939],[147984.90158003,165701.80501291],[147986.919,165703.127],[147987.9446873,165703.80481956],[147988.98,165704.489],[147991.118,165705.944],[147993.134,165707.387],[147997.127,165710.547],[148000,165713.19546306],[148000.876,165714.003],[148004.39505654,165717.73761794],[148007.647,165721.707],[148007.71373046,165721.79819679],[148009.128,165723.731],[148010.9,165726.35],[148011.21517705,165726.86033029],[148012.276,165728.578],[148014.382,165732.307],[148016.227,165735.939],[148016.688,165736.898],[148017.718,165739.176],[148018.82315153,165741.78020747]]},"geometry_name":"GEOM","properties":{"INSPIRE_ID":"https://databrussels.be/id/rail/21794","TYPE":"TW","LVL":0,"SLOPE":null,"LENGTH":68.7570465987356},"bbox":[147972.04302852,165693.48178373,148018.82315153,165741.78020747]},{"type":"Feature","id":"TramNetwork.fid--1290087_1a0284638b1_-7a0e","geometry":{"type":"LineString","coordinates":[[148010.3717744,165679.32296855],[148009.937,165680.516],[148008.852,165683.332],[148008.259,165684.765],[148007.128,165687.287],[148005.977,165689.411],[148004.37,165691.709],[148002.94832684,165693.26728081],[148001.36902498,165694.66556523],[148000,165695.63910765],[147999.65,165695.888],[147997.52406589,165697.04257088],[147995.26,165697.895],[147992.82238482,165698.51530607],[147990.325,165698.815],[147988.01921048,165698.79158823],[147985.735,165698.476],[147982.65,165697.582],[147981.727,165697.211],[147977.988,165695.344],[147975.041,165693.643],[147972.79425644,165692.26159962]]},"geometry_name":"GEOM","properties":{"INSPIRE_ID":"https://databrussels.be/id/rail/21795","TYPE":"TW","LVL":0,"SLOPE":null,"LENGTH":49.0573581655101},"bbox":[147972.79425644,165679.32296855,148010.3717744,165698.815]},{"type":"Feature","id":"TramNetwork.fid--1290087_1a0284638b1_-7a0f","geometry":{"type":"LineString","coordinates":[[148011.72982135,165679.78664548],[148011.29,165680.997],[148010.193,165683.839],[148009.618,165685.239],[148008.423,165687.901],[148007.209,165690.141],[148006.46566742,165691.20834935],[148005.493,165692.605],[148003.96742529,165694.27862604],[148002.27233563,165695.78031621],[148000.427,165697.093],[148000,165697.32608363],[147998.14602881,165698.33809844],[147995.716,165699.259],[147993.10599619,165699.92346844],[147990.432,165700.245],[147987.93439532,165700.22151233],[147985.46,165699.881],[147984.0345841,165699.54120054],[147983.7758176,165699.47951418],[147982.137,165698.921],[147980.946,165698.439],[147977.202,165696.545],[147974.256,165694.843],[147972.04302852,165693.48178373]]},"geometry_name":"GEOM","properties":{"INSPIRE_ID":"https://databrussels.be/id/rail/21796","TYPE":"TW","LVL":0,"SLOPE":null,"LENGTH":51.6329345331944},"bbox":[147972.04302852,165679.78664548,148011.72982135,165700.245]},{"type":"Feature","id":"TramNetwork.fid--1290087_1a0284638b1_-7a13","geometry":{"type":"LineString","coordinates":[[147970.78521964,165696.53163108],[147972.495,165697.571],[147975.815,165699.506],[147979.128,165701.238],[147981.474,165702.254],[147983.01109543,165702.73258196],[147984.42975561,165703.17428855],[147987.468,165703.768],[147987.9446873,165703.80481956],[147989.81575203,165703.9493415],[147990.6899141,165703.92275299],[147992.16940863,165703.87775269],[147994.50179954,165703.55405997],[147996.786,165702.982],[147999.69941719,165701.90194433],[148000,165701.74613364],[148002.458,165700.472],[148004.13355919,165699.37367749],[148004.9703067,165698.70688595],[148005.70036858,165698.12511059],[148006.65493971,165697.20788681],[148007.145,165696.737],[148008.92942869,165694.65733877],[148009.755412,165693.48307637],[148010.506,165692.416],[148011.30085539,165691.02080254],[148011.989,165689.57],[148013.786,165684.815],[148017.978,165672.784]]},"geometry_name":"GEOM","properties":{"INSPIRE_ID":"https://databrussels.be/id/rail/21797","TYPE":"TW","LVL":0,"SLOPE":null,"LENGTH":66.4893850365913},"bbox":[147970.78521964,165672.784,148017.978,165703.9493415]},{"type":"Feature","id":"TramNetwork.fid--1290087_1a0284638b1_-7a12","geometry":{"type":"LineString","coordinates":[[147971.42661751,165695.23693462],[147973.256,165696.37],[147976.616,165698.311],[147979.872,165700.009],[147981.13,165700.57],[147981.968,165700.908],[147984.75426726,165701.77559903],[147984.90158003,165701.80501291],[147987.616,165702.347],[147988.41831043,165702.40789289],[147989.82572182,165702.51471109],[147992.04067405,165702.44411229],[147994.23523025,165702.13602041],[147996.384,165701.594],[147999.1209416,165700.5821332],[148000,165700.12764678],[148001.713,165699.242],[148004.03594683,165697.64483046],[148005.32120116,165696.46789744],[148006.115,165695.741],[148007.16580639,165694.51778738],[148007.80581516,165693.7727721],[148009.298,165691.65],[148010.04355314,165690.33418065],[148010.688,165688.966],[148012.418,165684.371],[148016.617,165672.332]]},"geometry_name":"GEOM","properties":{"INSPIRE_ID":"https://databrussels.be/id/rail/21798","TYPE":"TW","LVL":0,"SLOPE":null,"LENGTH":64.0345978317756},"bbox":[147971.42661751,165672.332,148016.617,165702.51471109]}],"numberReturned":34,"grand_bruxelles_source":{"authority":"Paradigm / Brussels-Capital Region","service":"https://geoservices-urbis.irisnet.be/geoserver/urbisvector/wfs","layer":"urbisvector:TramNetwork","crs":"EPSG:31370","bbox":[147500.0,165500.0,148000.0,166000.0],"cell_id":"bxl-e147500-n165500-s500","ownership":"bbox_intersection_source_unclipped"}}
