{"type":"FeatureCollection","totalFeatures":92,"numberMatched":92,"timeStamp":"2026-08-24T03:41:34.922Z","crs":{"type":"name","properties":{"name":"urn:ogc:def:crs:EPSG::31370"}},"bbox":[154385.26369181,171988.08,155013.373,172436.73988579],"features":[{"type":"Feature","id":"Buildings.fid--1290087_1a0317dc62a_-4fff","geometry":{"type":"Polygon","coordinates":[[[154683.8385,172140.7316],[154685.712,172139.7564],[154686.8206,172141.8862],[154684.947,172142.8614],[154683.8385,172140.7316]]]},"geometry_name":"GEOM","properties":{"INSPIRE_ID":"https://databrussels.be/id/building/1038305","BLOCK_ID":null,"AREA":5},"bbox":[154683.8385,172139.7564,154686.8206,172142.8614]},{"type":"Feature","id":"Buildings.fid--1290087_1a0317dc62a_-5000","geometry":{"type":"Polygon","coordinates":[[[154675.2439,172142.8397],[154673.3498,172139.4145],[154674.694,172138.671],[154678.62,172136.5],[154680.5141,172139.9253],[154675.2439,172142.8397]]]},"geometry_name":"GEOM","properties":{"INSPIRE_ID":"https://databrussels.be/id/building/1039008","BLOCK_ID":null,"AREA":24},"bbox":[154673.3498,172136.5,154680.5141,172142.8397]},{"type":"Feature","id":"Buildings.fid--1290087_1a0317dc62a_-4fe0","geometry":{"type":"Polygon","coordinates":[[[154969.33,172199.69],[154973.858,172197.155],[154970.493,172191.144],[154973.505,172189.588],[154981.513,172205.088],[154978.179,172206.957],[154979.772,172209.69],[154976.03,172211.945],[154974.42294913,172209.06390991],[154974.66,172208.93],[154969.33,172199.69]]]},"geometry_name":"GEOM","properties":{"INSPIRE_ID":"https://databrussels.be/id/building/1580692","BLOCK_ID":"https://databrussels.be/id/block/31098","AREA":123},"bbox":[154969.33,172189.588,154981.513,172211.945]},{"type":"Feature","id":"Buildings.fid--1290087_1a0317dc62a_-4fd7","geometry":{"type":"Polygon","coordinates":[[[154947.526,172062.342],[154952.078,172059.806],[154948.688,172053.726],[154951.397,172052.217],[154959.943,172067.558],[154952.704,172071.628],[154947.526,172062.342]]]},"geometry_name":"GEOM","properties":{"INSPIRE_ID":"https://databrussels.be/id/building/1580696","BLOCK_ID":"https://databrussels.be/id/block/31098","AREA":110},"bbox":[154947.526,172052.217,154959.943,172071.628]},{"type":"Feature","id":"Buildings.fid--1290087_1a0317dc62a_-4fba","geometry":{"type":"Polygon","coordinates":[[[154904.702,172086.263],[154909.429,172083.615],[154906.069,172077.635],[154908.702,172076.157],[154917.323,172091.518],[154909.808,172095.736],[154904.702,172086.263]]]},"geometry_name":"GEOM","properties":{"INSPIRE_ID":"https://databrussels.be/id/building/1580700","BLOCK_ID":"https://databrussels.be/id/block/30631","AREA":112},"bbox":[154904.702,172076.157,154917.323,172095.736]},{"type":"Feature","id":"Buildings.fid--1290087_1a0317dc62a_-4ff1","geometry":{"type":"Polygon","coordinates":[[[154962.707,172130.032],[154967.218,172127.505],[154963.788,172121.366],[154966.613,172119.788],[154975.313,172135.369],[154967.993,172139.448],[154962.707,172130.032]]]},"geometry_name":"GEOM","properties":{"INSPIRE_ID":"https://databrussels.be/id/building/1583819","BLOCK_ID":"https://databrussels.be/id/block/31098","AREA":113},"bbox":[154962.707,172119.788,154975.313,172139.448]},{"type":"Feature","id":"Buildings.fid--1290087_1a0317dc62a_-4fb8","geometry":{"type":"Polygon","coordinates":[[[154889.55,172094.72],[154894.329,172092.045],[154890.988,172086.095],[154893.718,172084.561],[154902.349,172099.921],[154894.94,172104.08],[154889.55,172094.72]]]},"geometry_name":"GEOM","properties":{"INSPIRE_ID":"https://databrussels.be/id/building/1583820","BLOCK_ID":"https://databrussels.be/id/block/30631","AREA":114},"bbox":[154889.55,172084.561,154902.349,172104.08]},{"type":"Feature","id":"Buildings.fid--1290087_1a0317dc62a_-4ffa","geometry":{"type":"Polygon","coordinates":[[[154485.04,172067.98],[154495.52,172073.04],[154498.92,172066],[154526.67,172079.42],[154523.19,172086.62],[154539.02,172094.27],[154522.5,172128.43],[154468.44,172102.32],[154485.04,172067.98]]]},"geometry_name":"GEOM","properties":{"INSPIRE_ID":"https://databrussels.be/id/building/1590703","BLOCK_ID":"https://databrussels.be/id/block/26475","AREA":2527},"bbox":[154468.44,172066,154539.02,172128.43]},{"type":"Feature","id":"Buildings.fid--1290087_1a0317dc62a_-4fdb","geometry":{"type":"Polygon","coordinates":[[[154977.676,172045.322],[154982.198,172042.796],[154978.878,172036.836],[154981.833,172035.181],[154990.373,172050.448],[154982.884,172054.668],[154977.676,172045.322]]]},"geometry_name":"GEOM","properties":{"INSPIRE_ID":"https://databrussels.be/id/building/1593092","BLOCK_ID":"https://databrussels.be/id/block/31098","AREA":115},"bbox":[154977.676,172035.181,154990.373,172054.668]},{"type":"Feature","id":"Buildings.fid--1290087_1a0317dc62a_-500b","geometry":{"type":"Polygon","coordinates":[[[154767.44,172010.23],[154764.81,172005.31],[154768.12,172003.54],[154770.75,172008.46],[154767.44,172010.23]]]},"geometry_name":"GEOM","properties":{"INSPIRE_ID":"https://databrussels.be/id/building/1593919","BLOCK_ID":"https://databrussels.be/id/block/26475","AREA":21},"bbox":[154764.81,172003.54,154770.75,172010.23]},{"type":"Feature","id":"Buildings.fid--1290087_1a0317dc62a_-5009","geometry":{"type":"Polygon","coordinates":[[[154749.2492,172042.752],[154744.4805,172034.1462],[154748.6507,172031.8353],[154749.2108,172032.8462],[154752.39,172031.08],[154756.517,172038.7247],[154753.8987,172040.1756],[154751.5739,172041.4638],[154749.2492,172042.752]]]},"geometry_name":"GEOM","properties":{"INSPIRE_ID":"https://databrussels.be/id/building/1594852","BLOCK_ID":"https://databrussels.be/id/block/26475","AREA":78},"bbox":[154744.4805,172031.08,154756.517,172042.752]},{"type":"Feature","id":"Buildings.fid--1290087_1a0317dc62a_-500c","geometry":{"type":"Polygon","coordinates":[[[154728.82,172001.32],[154730,172003.89],[154727.86,172004.88],[154726.67,172002.31],[154728.82,172001.32]]]},"geometry_name":"GEOM","properties":{"INSPIRE_ID":"https://databrussels.be/id/building/1594932","BLOCK_ID":"https://databrussels.be/id/block/26475","AREA":7},"bbox":[154726.67,172001.32,154730,172004.88]},{"type":"Feature","id":"Buildings.fid--1290087_1a0317dc62a_-4fbd","geometry":{"type":"Polygon","coordinates":[[[154850.652,172025.225],[154866.039,172016.678],[154872.161,172027.699],[154856.65,172036.491],[154850.652,172025.225]]]},"geometry_name":"GEOM","properties":{"INSPIRE_ID":"https://databrussels.be/id/building/1595077","BLOCK_ID":"https://databrussels.be/id/block/31143","AREA":225},"bbox":[154850.652,172016.678,154872.161,172036.491]},{"type":"Feature","id":"Buildings.fid--1290087_1a0317dc62a_-4ff4","geometry":{"type":"Polygon","coordinates":[[[154926.517,172024.301],[154942.19,172015.53],[154942.51,172015.35],[154949.472,172027.619],[154949.216,172027.759],[154949.466,172028.229],[154933.434,172036.979],[154926.517,172024.301]]]},"geometry_name":"GEOM","properties":{"INSPIRE_ID":"https://databrussels.be/id/building/1595089","BLOCK_ID":"https://databrussels.be/id/block/24983","AREA":268},"bbox":[154926.517,172015.35,154949.472,172036.979]},{"type":"Feature","id":"Buildings.fid--1290087_1a0317dc62a_-4fea","geometry":{"type":"Polygon","coordinates":[[[154990.403,172157.633],[154995.479,172154.785],[154993.669,172151.565],[155000,172148.024],[155003.928,172145.821],[155006.772,172150.859],[155001.112,172154.035],[155002.805,172157.058],[155004.469,172156.126],[155006.071,172158.985],[155000.646,172162.021],[155000,172160.864],[154999.156,172159.351],[154993.166,172162.708],[154990.403,172157.633]]]},"geometry_name":"GEOM","properties":{"INSPIRE_ID":"https://databrussels.be/id/building/1615807","BLOCK_ID":"https://databrussels.be/id/block/31098","AREA":141},"bbox":[154990.403,172145.821,155006.772,172162.708]},{"type":"Feature","id":"Buildings.fid--1290087_1a0317dc62a_-4ff5","geometry":{"type":"Polygon","coordinates":[[[154942.19,172015.53],[154942.04,172015.25],[154942.34715465,172015.07827665],[154945.51,172013.31],[154946.09,172012.26],[154947.35,172012.33],[154953.16,172009.08],[154953.81,172007.9],[154954.97,172007.97],[154957.73,172006.42],[154958.08,172006.23],[154964.993,172018.548],[154964.733,172018.69],[154964.983,172019.15],[154949.472,172027.619],[154942.51,172015.35],[154942.19,172015.53]]]},"geometry_name":"GEOM","properties":{"INSPIRE_ID":"https://databrussels.be/id/building/1619078","BLOCK_ID":"https://databrussels.be/id/block/24983","AREA":263},"bbox":[154942.04,172006.23,154964.993,172027.619]},{"type":"Feature","id":"Buildings.fid--1290087_1a0317dc62a_-4fc2","geometry":{"type":"Polygon","coordinates":[[[154900.335,172012.67],[154900.93550154,172012.30992665],[154910.89,172006.341],[154913.495,172005.041],[154916.6,172010.536],[154915.8,172010.987],[154918.606,172016.026],[154919.415,172015.601],[154919.83766965,172016.33595522],[154920.79219278,172016.89961179],[154920.75925766,172017.93845003],[154922.417,172020.821],[154909.165,172028.03],[154900.335,172012.67]]]},"geometry_name":"GEOM","properties":{"INSPIRE_ID":"https://databrussels.be/id/building/1619080","BLOCK_ID":"https://databrussels.be/id/block/24983","AREA":268},"bbox":[154900.335,172005.041,154922.417,172028.03]},{"type":"Feature","id":"Buildings.fid--1290087_1a0317dc62a_-4fd5","geometry":{"type":"Polygon","coordinates":[[[154993.823,172075.284],[154990.989,172070.207],[154995.986,172067.422],[155000,172075.151],[155000.318,172075.741],[155004.996,172073.132],[155007.816,172078.209],[155004.983,172079.783],[155006.427,172082.395],[155006.5,172082.524],[155004.496,172083.633],[155004.306,172083.292],[155001.016,172085.122],[155000,172083.305],[154997.947,172079.603],[154996.684,172080.298],[154993.823,172075.284]]]},"geometry_name":"GEOM","properties":{"INSPIRE_ID":"https://databrussels.be/id/building/1619353","BLOCK_ID":"https://databrussels.be/id/block/31098","AREA":127},"bbox":[154990.989,172067.422,155007.816,172085.122]},{"type":"Feature","id":"Buildings.fid--1290087_1a0317dc62a_-4ff2","geometry":{"type":"Polygon","coordinates":[[[154992.739,172036.761],[154997.218,172034.266],[154993.928,172028.366],[154996.667,172026.838],[155000,172032.815],[155005.207,172042.12],[155000,172045.046],[154999.868,172045.12],[154998.081,172046.129],[154992.739,172036.761]]]},"geometry_name":"GEOM","properties":{"INSPIRE_ID":"https://databrussels.be/id/building/1620560","BLOCK_ID":"https://databrussels.be/id/block/31098","AREA":110},"bbox":[154992.739,172026.838,155005.207,172046.129]},{"type":"Feature","id":"Buildings.fid--1290087_1a0317dc62a_-4fef","geometry":{"type":"Polygon","coordinates":[[[154991.154,172129.693],[154989.527,172130.572],[154988.413,172128.51],[154990.04,172127.631],[154991.154,172129.693]]]},"geometry_name":"GEOM","properties":{"INSPIRE_ID":"https://databrussels.be/id/building/1624927","BLOCK_ID":"https://databrussels.be/id/block/31098","AREA":4},"bbox":[154988.413,172127.631,154991.154,172130.572]},{"type":"Feature","id":"Buildings.fid--1290087_1a0317dc62a_-500a","geometry":{"type":"Polygon","coordinates":[[[154757.19,172022.96],[154762.67,172019.85],[154760.96,172016.84],[154763.97,172015.13],[154764.06,172015.08],[154765.91,172018.35],[154767.48818413,172021.31051263],[154771.95,172029.885],[154768.875,172031.607],[154769.265,172032.397],[154766.352,172034.024],[154766.05255828,172033.5062374],[154761.232,172036.097],[154754.727,172024.448],[154757.19,172022.96]]]},"geometry_name":"GEOM","properties":{"INSPIRE_ID":"https://databrussels.be/id/building/1633283","BLOCK_ID":"https://databrussels.be/id/block/26475","AREA":183},"bbox":[154754.727,172015.08,154771.95,172036.097]},{"type":"Feature","id":"Buildings.fid--1290087_1a0317dc62a_-4ffc","geometry":{"type":"Polygon","coordinates":[[[154529.986,172027.831],[154560.843,172012.912],[154572.111,172036.536],[154557.899,172043.427],[154557.599,172042.873],[154555.456,172043.904],[154555.699,172044.479],[154541.357,172051.403],[154529.986,172027.831]]]},"geometry_name":"GEOM","properties":{"INSPIRE_ID":"https://databrussels.be/id/building/1654970","BLOCK_ID":"https://databrussels.be/id/block/26475","AREA":894},"bbox":[154529.986,172012.912,154572.111,172051.403]},{"type":"Feature","id":"Buildings.fid--1290087_1a0317dc62a_-4fb4","geometry":{"type":"Polygon","coordinates":[[[154915.731,172118.907],[154920.267,172116.419],[154916.827,172110.148],[154921.51771933,172107.56645657],[154921.701,172107.467],[154923.301,172110.377],[154926.171,172115.494],[154927.793,172118.396],[154928.17473227,172118.18651278],[154928.613,172117.946],[154930.282,172120.944],[154929.84502144,172121.18703864],[154924.586,172124.112],[154923.166,172121.572],[154920.46985597,172123.07374138],[154918.692,172124.064],[154915.731,172118.907]]]},"geometry_name":"GEOM","properties":{"INSPIRE_ID":"https://databrussels.be/id/building/1676716","BLOCK_ID":"https://databrussels.be/id/block/30631","AREA":123},"bbox":[154915.731,172107.467,154930.282,172124.112]},{"type":"Feature","id":"Buildings.fid--1290087_1a0317dc62a_-4fd0","geometry":{"type":"Polygon","coordinates":[[[154946.435,172078.879],[154951.285,172076.291],[154955.575,172083.938],[154960.26,172081.326],[154963.135,172086.518],[154960.211,172088.166],[154961.516,172090.48],[154956.71103675,172093.16806569],[154956.275,172093.412],[154953.025,172087.621],[154951.745,172088.341],[154946.435,172078.879]]]},"geometry_name":"GEOM","properties":{"INSPIRE_ID":"https://databrussels.be/id/building/1676717","BLOCK_ID":"https://databrussels.be/id/block/31098","AREA":123},"bbox":[154946.435,172076.291,154963.135,172093.412]},{"type":"Feature","id":"Buildings.fid--1290087_1a0317dc62a_-4fdd","geometry":{"type":"Polygon","coordinates":[[[154944.218,172208.545],[154946.95130381,172207.00956156],[154947.27597497,172207.40001407],[154949.275,172210.979],[154954.01795011,172208.32090596],[154954.18,172208.235],[154959.13,172217.585],[154956.352,172219.156],[154957.842,172221.815],[154953.125,172224.461],[154944.46223638,172208.98142822],[154944.218,172208.545]]]},"geometry_name":"GEOM","properties":{"INSPIRE_ID":"https://databrussels.be/id/building/1676718","BLOCK_ID":"https://databrussels.be/id/block/31098","AREA":124},"bbox":[154944.218,172207.00956156,154959.13,172224.461]},{"type":"Feature","id":"Buildings.fid--1290087_1a0317dc62a_-4fc9","geometry":{"type":"Polygon","coordinates":[[[154966.613,172119.788],[154969.264,172118.308],[154972.634,172124.338],[154977.48923713,172121.62645236],[154977.737,172121.482],[154982.99,172130.83],[154983.094,172131.019],[154982.85194637,172131.15432108],[154975.313,172135.369],[154966.613,172119.788]]]},"geometry_name":"GEOM","properties":{"INSPIRE_ID":"https://databrussels.be/id/building/1676719","BLOCK_ID":"https://databrussels.be/id/block/31098","AREA":118},"bbox":[154966.613,172118.308,154983.094,172135.369]},{"type":"Feature","id":"Buildings.fid--1290087_1a0317dc62a_-4fd4","geometry":{"type":"Polygon","coordinates":[[[154919.765,172077.743],[154924.268,172075.215],[154922.32727909,172071.75684298],[154922.081,172071.318],[154922.27103384,172071.215065],[154925.125,172069.609],[154925.3696996,172070.04516901],[154934.034,172085.489],[154929.245,172088.181],[154927.815,172085.631],[154924.995,172087.217],[154919.765,172077.743]]]},"geometry_name":"GEOM","properties":{"INSPIRE_ID":"https://databrussels.be/id/building/1676720","BLOCK_ID":"https://databrussels.be/id/block/30631","AREA":126},"bbox":[154919.765,172069.609,154934.034,172088.181]},{"type":"Feature","id":"Buildings.fid--1290087_1a0317dc62a_-4fb5","geometry":{"type":"Polygon","coordinates":[[[154879.709,172094.995],[154882.5116766,172093.42442277],[154882.685,172093.328],[154882.92911357,172093.76293628],[154884.925,172097.319],[154889.55,172094.72],[154894.94,172104.08],[154892.021,172105.715],[154893.442,172108.245],[154888.655,172110.932],[154879.95380389,172095.43110995],[154879.709,172094.995]]]},"geometry_name":"GEOM","properties":{"INSPIRE_ID":"https://databrussels.be/id/building/1676721","BLOCK_ID":"https://databrussels.be/id/block/30631","AREA":126},"bbox":[154879.709,172093.328,154894.94,172110.932]},{"type":"Feature","id":"Buildings.fid--1290087_1a0317dc62a_-4ff0","geometry":{"type":"Polygon","coordinates":[[[154951.47101769,172128.40783446],[154960.10104711,172143.86383333],[154967.993,172139.448],[154962.707,172130.032],[154962.47935635,172130.15068601],[154957.604,172132.878],[154954.244,172126.858],[154951.47101769,172128.40783446]]]},"geometry_name":"GEOM","properties":{"INSPIRE_ID":"https://databrussels.be/id/building/1676722","BLOCK_ID":"https://databrussels.be/id/block/31098","AREA":119},"bbox":[154951.47101769,172126.858,154967.993,172143.86383333]},{"type":"Feature","id":"Buildings.fid--1290087_1a0317dc62a_-4fcf","geometry":{"type":"Polygon","coordinates":[[[154930.744,172101.968],[154935.388,172099.376],[154930.768,172091.086],[154935.494,172088.448],[154941.162,172098.624],[154940.192,172099.164],[154943.492,172105.074],[154943.05513244,172105.31723818],[154937.856,172108.212],[154936.366,172105.532],[154935.36977327,172106.08559186],[154933.861,172106.924],[154930.744,172101.968]]]},"geometry_name":"GEOM","properties":{"INSPIRE_ID":"https://databrussels.be/id/building/1676723","BLOCK_ID":"https://databrussels.be/id/block/30631","AREA":129},"bbox":[154930.744,172088.448,154943.492,172108.212]},{"type":"Feature","id":"Buildings.fid--1290087_1a0317dc62a_-4fd6","geometry":{"type":"Polygon","coordinates":[[[154937.583,172063.122],[154937.339,172062.686],[154940.2601277,172061.05422608],[154940.57039728,172061.45977839],[154942.594,172065.088],[154947.13286171,172062.56374534],[154947.526,172062.342],[154952.704,172071.628],[154949.631,172073.356],[154951.08007028,172075.92735506],[154951.285,172076.291],[154946.435,172078.879],[154937.712,172063.353],[154937.583,172063.122]]]},"geometry_name":"GEOM","properties":{"INSPIRE_ID":"https://databrussels.be/id/building/1676724","BLOCK_ID":"https://databrussels.be/id/block/31098","AREA":130},"bbox":[154937.339,172061.05422608,154952.704,172078.879]},{"type":"Feature","id":"Buildings.fid--1290087_1a0317dc62a_-4feb","geometry":{"type":"Polygon","coordinates":[[[154922.39994837,172147.32082876],[154931.30662417,172163.1827977],[154935.9195029,172160.55889511],[154934.469,172158.015],[154937.085,172156.563],[154931.575,172147.437],[154927.474,172149.728],[154925.14998958,172145.75088136],[154922.39994837,172147.32082876]]]},"geometry_name":"GEOM","properties":{"INSPIRE_ID":"https://databrussels.be/id/building/1676725","BLOCK_ID":"https://databrussels.be/id/block/31098","AREA":117},"bbox":[154922.39994837,172145.75088136,154937.085,172163.1827977]},{"type":"Feature","id":"Buildings.fid--1290087_1a0317dc62a_-4fe9","geometry":{"type":"Polygon","coordinates":[[[154978.778,172159.775],[154975.958,172154.745],[154980.662,172152.101],[154985.355,172160.469],[154990.046,172157.832],[154990.403,172157.633],[154993.166,172162.708],[154988.142,172165.525],[154989.13975214,172167.30913833],[154989.612,172168.155],[154984.5209922,172171.01598611],[154984.085,172171.261],[154982.469,172168.366],[154982.90597968,172168.12296347],[154983.368,172167.866],[154981.726,172164.922],[154978.778,172159.775]]]},"geometry_name":"GEOM","properties":{"INSPIRE_ID":"https://databrussels.be/id/building/1676726","BLOCK_ID":"https://databrussels.be/id/block/31098","AREA":135},"bbox":[154975.958,172152.101,154993.166,172171.261]},{"type":"Feature","id":"Buildings.fid--1290087_1a0317dc62a_-4fb2","geometry":{"type":"Polygon","coordinates":[[[154900.408,172135.899],[154900.564,172135.813],[154905.137,172133.298],[154900.547,172124.939],[154905.03184218,172122.47871177],[154905.291,172122.337],[154908.101,172127.457],[154911.083,172132.474],[154912.713,172135.418],[154913.1067568,172135.19956212],[154913.544,172134.957],[154915.182,172137.894],[154914.74510233,172138.13718381],[154914.42419355,172138.31580645],[154913.504,172138.828],[154909.646,172140.982],[154908.136,172138.272],[154903.285,172140.977],[154900.408,172135.899]]]},"geometry_name":"GEOM","properties":{"INSPIRE_ID":"https://databrussels.be/id/building/1676727","BLOCK_ID":"https://databrussels.be/id/block/30631","AREA":135},"bbox":[154900.408,172122.337,154915.182,172140.982]},{"type":"Feature","id":"Buildings.fid--1290087_1a0317dc62a_-4fb3","geometry":{"type":"Polygon","coordinates":[[[154908.101,172127.457],[154912.727,172124.919],[154908.193,172116.657],[154908.136,172116.549],[154912.981,172113.888],[154915.731,172118.907],[154918.692,172124.064],[154920.253,172126.877],[154920.57502243,172126.69904023],[154921.013,172126.457],[154922.712,172129.504],[154922.2749181,172129.7478532],[154917.195,172132.582],[154915.696,172129.902],[154912.73106372,172131.55511427],[154911.083,172132.474],[154908.101,172127.457]]]},"geometry_name":"GEOM","properties":{"INSPIRE_ID":"https://databrussels.be/id/building/1676728","BLOCK_ID":"https://databrussels.be/id/block/30631","AREA":135},"bbox":[154908.101,172113.888,154922.712,172132.582]},{"type":"Feature","id":"Buildings.fid--1290087_1a0317dc62a_-4fbc","geometry":{"type":"Polygon","coordinates":[[[154876.22715142,172050.25055716],[154874.01722786,172051.4903064],[154871.88789102,172051.35902854],[154870.88801415,172053.24577],[154860.26,172059.208],[154866.758,172070.792],[154898.142,172053.186],[154891.674,172041.585],[154889.67567804,172042.70604246],[154887.56116927,172042.60822155],[154886.27352305,172044.6146239],[154876.22715142,172050.25055716]]]},"geometry_name":"GEOM","properties":{"INSPIRE_ID":"https://databrussels.be/id/building/1684759","BLOCK_ID":"https://databrussels.be/id/block/31143","AREA":482},"bbox":[154860.26,172041.585,154898.142,172070.792]},{"type":"Feature","id":"Buildings.fid--1290087_1a0317dc62a_-4fec","geometry":{"type":"Polygon","coordinates":[[[154931.575,172147.437],[154932.22894993,172147.07091039],[154936.998,172144.406],[154933.658,172138.426],[154936.193,172137.012],[154944.784,172152.418],[154937.501,172156.485],[154937.423,172156.352],[154937.085,172156.563],[154931.575,172147.437]]]},"geometry_name":"GEOM","properties":{"INSPIRE_ID":"https://databrussels.be/id/building/1686202","BLOCK_ID":"https://databrussels.be/id/block/31098","AREA":116},"bbox":[154931.575,172137.012,154944.784,172156.563]},{"type":"Feature","id":"Buildings.fid--1290087_1a0317dc62a_-4fde","geometry":{"type":"Polygon","coordinates":[[[154954.18,172208.235],[154958.768,172205.665],[154955.399,172199.655],[154958.112,172198.137],[154967.153,172213.148],[154967.031,172213.22],[154959.377,172217.445],[154959.13,172217.585],[154954.18,172208.235]]]},"geometry_name":"GEOM","properties":{"INSPIRE_ID":"https://databrussels.be/id/building/1686203","BLOCK_ID":"https://databrussels.be/id/block/31098","AREA":116},"bbox":[154954.18,172198.137,154967.153,172217.585]},{"type":"Feature","id":"Buildings.fid--1290087_1a0317dc62a_-4fe1","geometry":{"type":"Polygon","coordinates":[[[154973.505,172189.588],[154975.98,172188.31],[154979.275,172194.198],[154984.08209521,172191.51418006],[154984.42,172191.32],[154989.72,172200.47],[154989.36713782,172200.66625481],[154986.803,172202.109],[154981.513,172205.088],[154973.505,172189.588]]]},"geometry_name":"GEOM","properties":{"INSPIRE_ID":"https://databrussels.be/id/building/1686204","BLOCK_ID":"https://databrussels.be/id/block/31098","AREA":117},"bbox":[154973.505,172188.31,154989.72,172205.088]},{"type":"Feature","id":"Buildings.fid--1290087_1a0317dc62a_-4fd8","geometry":{"type":"Polygon","coordinates":[[[154951.397,172052.217],[154954.124,172050.698],[154957.514,172056.768],[154962.355,172054.063],[154962.601,172053.929],[154967.919,172063.081],[154967.463,172063.339],[154959.943,172067.558],[154951.397,172052.217]]]},"geometry_name":"GEOM","properties":{"INSPIRE_ID":"https://databrussels.be/id/building/1686205","BLOCK_ID":"https://databrussels.be/id/block/31098","AREA":118},"bbox":[154951.397,172050.698,154967.919,172067.558]},{"type":"Feature","id":"Buildings.fid--1290087_1a0317dc62a_-4fbb","geometry":{"type":"Polygon","coordinates":[[[154908.702,172076.157],[154911.585,172074.539],[154914.905,172080.468],[154919.765,172077.743],[154924.995,172087.217],[154917.323,172091.518],[154908.702,172076.157]]]},"geometry_name":"GEOM","properties":{"INSPIRE_ID":"https://databrussels.be/id/building/1686206","BLOCK_ID":"https://databrussels.be/id/block/30631","AREA":118},"bbox":[154908.702,172074.539,154924.995,172091.518]},{"type":"Feature","id":"Buildings.fid--1290087_1a0317dc62a_-4fda","geometry":{"type":"Polygon","coordinates":[[[154966.418,172043.71],[154969.194,172042.158],[154972.554,172048.178],[154977.40512664,172045.47248708],[154977.676,172045.322],[154982.884,172054.668],[154982.325,172054.978],[154975.013,172059.088],[154966.418,172043.71]]]},"geometry_name":"GEOM","properties":{"INSPIRE_ID":"https://databrussels.be/id/building/1686207","BLOCK_ID":"https://databrussels.be/id/block/31098","AREA":119},"bbox":[154966.418,172042.158,154982.884,172059.088]},{"type":"Feature","id":"Buildings.fid--1290087_1a0317dc62a_-4fcb","geometry":{"type":"Polygon","coordinates":[[[154981.687,172111.336],[154984.364,172109.839],[154987.734,172115.889],[154992.554,172113.193],[154992.82,172113.05],[154998.29,172122.53],[154997.56909558,172122.94117182],[154995.004,172124.368],[154990.411,172126.934],[154981.687,172111.336]]]},"geometry_name":"GEOM","properties":{"INSPIRE_ID":"https://databrussels.be/id/building/1686208","BLOCK_ID":"https://databrussels.be/id/block/31098","AREA":119},"bbox":[154981.687,172109.839,154998.29,172126.934]},{"type":"Feature","id":"Buildings.fid--1290087_1a0317dc62a_-4fe3","geometry":{"type":"Polygon","coordinates":[[[154988.196,172181.191],[154990.975,172179.638],[154994.345,172185.659],[154999.25892955,172182.90087012],[154999.499,172182.771],[155000,172183.65],[155004.781,172192.01],[155000,172194.696],[154996.763,172196.518],[154988.196,172181.191]]]},"geometry_name":"GEOM","properties":{"INSPIRE_ID":"https://databrussels.be/id/building/1686209","BLOCK_ID":"https://databrussels.be/id/block/31098","AREA":119},"bbox":[154988.196,172179.638,155004.781,172196.518]},{"type":"Feature","id":"Buildings.fid--1290087_1a0317dc62a_-4fe6","geometry":{"type":"Polygon","coordinates":[[[154945.179,172166.043],[154943.571,172163.207],[154948.267,172160.549],[154951.707,172166.629],[154956.456,172163.939],[154959.324,172168.952],[154954.502,172171.666],[154956.002,172174.336],[154950.89922996,172177.21540708],[154950.464,172177.461],[154948.818,172174.543],[154949.25298762,172174.29697812],[154949.649,172174.073],[154948.071,172171.175],[154945.179,172166.043]]]},"geometry_name":"GEOM","properties":{"INSPIRE_ID":"https://databrussels.be/id/building/1686210","BLOCK_ID":"https://databrussels.be/id/block/31098","AREA":120},"bbox":[154943.571,172160.549,154959.324,172177.461]},{"type":"Feature","id":"Buildings.fid--1290087_1a0317dc62a_-4fce","geometry":{"type":"Polygon","coordinates":[[[154923.301,172110.377],[154927.987,172107.809],[154924.606,172101.637],[154928.97700145,172099.20700262],[154929.153,172099.107],[154930.744,172101.968],[154933.861,172106.924],[154935.524,172109.898],[154935.78720029,172109.75135984],[154936.224,172109.508],[154937.872,172112.474],[154937.43518953,172112.71734019],[154932.275,172115.592],[154930.786,172112.933],[154927.96086258,172114.50075232],[154926.171,172115.494],[154923.301,172110.377]]]},"geometry_name":"GEOM","properties":{"INSPIRE_ID":"https://databrussels.be/id/building/1686211","BLOCK_ID":"https://databrussels.be/id/block/30631","AREA":121},"bbox":[154923.301,172099.107,154937.872,172115.592]},{"type":"Feature","id":"Buildings.fid--1290087_1a0317dc62a_-4fe8","geometry":{"type":"Polygon","coordinates":[[[154965.808,172158.955],[154970.492,172156.33],[154970.587,172156.504],[154973.945,172162.488],[154978.778,172159.775],[154981.726,172164.922],[154977.072,172167.525],[154978.25733694,172169.64481421],[154978.532,172170.135],[154973.35088246,172173.03779098],[154972.915,172173.282],[154971.269,172170.355],[154971.70509201,172170.11116361],[154972.199,172169.835],[154970.558,172166.909],[154967.478,172161.945],[154965.808,172158.955]]]},"geometry_name":"GEOM","properties":{"INSPIRE_ID":"https://databrussels.be/id/building/1686212","BLOCK_ID":"https://databrussels.be/id/block/31098","AREA":121},"bbox":[154965.808,172156.33,154981.726,172173.282]},{"type":"Feature","id":"Buildings.fid--1290087_1a0317dc62a_-4fe7","geometry":{"type":"Polygon","coordinates":[[[154954.699,172160.854],[154959.437,172158.179],[154962.996,172164.468],[154967.478,172161.945],[154970.558,172166.909],[154970.217,172167.122],[154965.842,172169.575],[154967.312,172172.205],[154962.16982048,172175.08768113],[154961.734,172175.332],[154960.068,172172.373],[154960.50290291,172172.12682854],[154960.969,172171.863],[154959.324,172168.952],[154956.456,172163.939],[154956.239,172163.579],[154954.699,172160.854]]]},"geometry_name":"GEOM","properties":{"INSPIRE_ID":"https://databrussels.be/id/building/1686213","BLOCK_ID":"https://databrussels.be/id/block/31098","AREA":121},"bbox":[154954.699,172158.179,154970.558,172175.332]},{"type":"Feature","id":"Buildings.fid--1290087_1a0317dc62a_-4fed","geometry":{"type":"Polygon","coordinates":[[[154936.193,172137.012],[154939.034,172135.428],[154942.354,172141.388],[154947.34776816,172138.59785281],[154947.471,172138.529],[154952.919,172147.871],[154952.39230186,172148.1645399],[154944.784,172152.418],[154936.193,172137.012]]]},"geometry_name":"GEOM","properties":{"INSPIRE_ID":"https://databrussels.be/id/building/1686214","BLOCK_ID":"https://databrussels.be/id/block/31098","AREA":122},"bbox":[154936.193,172135.428,154952.919,172152.418]},{"type":"Feature","id":"Buildings.fid--1290087_1a0317dc62a_-4fdf","geometry":{"type":"Polygon","coordinates":[[[154958.112,172198.137],[154960.825,172196.618],[154964.165,172202.588],[154969.08468037,172199.83241949],[154969.33,172199.69],[154974.66,172208.93],[154974.42294913,172209.06390991],[154974.10834509,172209.24161437],[154967.153,172213.148],[154958.112,172198.137]]]},"geometry_name":"GEOM","properties":{"INSPIRE_ID":"https://databrussels.be/id/building/1687274","BLOCK_ID":"https://databrussels.be/id/block/31098","AREA":113},"bbox":[154958.112,172196.618,154974.66,172213.148]},{"type":"Feature","id":"Buildings.fid--1290087_1a0317dc62a_-4fca","geometry":{"type":"Polygon","coordinates":[[[154977.737,172121.482],[154980.97508954,172119.68076367],[154982.278,172118.956],[154978.898,172112.896],[154981.687,172111.336],[154990.411,172126.934],[154983.094,172131.019],[154982.99,172130.83],[154977.737,172121.482]]]},"geometry_name":"GEOM","properties":{"INSPIRE_ID":"https://databrussels.be/id/building/1687275","BLOCK_ID":"https://databrussels.be/id/block/31098","AREA":114},"bbox":[154977.737,172111.336,154990.411,172131.019]},{"type":"Feature","id":"Buildings.fid--1290087_1a0317dc62a_-4fdc","geometry":{"type":"Polygon","coordinates":[[[154981.833,172035.181],[154984.324,172033.789],[154987.584,172039.638],[154992.43404711,172036.93308914],[154992.739,172036.761],[154998.081,172046.129],[154997.454,172046.478],[154996.603,172046.959],[154990.373,172050.448],[154981.833,172035.181]]]},"geometry_name":"GEOM","properties":{"INSPIRE_ID":"https://databrussels.be/id/building/1687276","BLOCK_ID":"https://databrussels.be/id/block/31098","AREA":114},"bbox":[154981.833,172033.789,154998.081,172050.448]},{"type":"Feature","id":"Buildings.fid--1290087_1a0317dc62a_-4fb9","geometry":{"type":"Polygon","coordinates":[[[154893.718,172084.561],[154896.445,172083.029],[154899.805,172089.019],[154904.702,172086.263],[154909.808,172095.736],[154909.66317177,172095.81725837],[154902.349,172099.921],[154893.718,172084.561]]]},"geometry_name":"GEOM","properties":{"INSPIRE_ID":"https://databrussels.be/id/building/1687277","BLOCK_ID":"https://databrussels.be/id/block/30631","AREA":114},"bbox":[154893.718,172083.029,154909.808,172099.921]},{"type":"Feature","id":"Buildings.fid--1290087_1a0317dc62a_-4fc4","geometry":{"type":"Polygon","coordinates":[[[154807.3,172003.297],[154811.66,172011.15],[154811.54,172011.21],[154806.15,172014.24],[154801.714,172006.507],[154807.3,172003.297]]]},"geometry_name":"GEOM","properties":{"INSPIRE_ID":"https://databrussels.be/id/building/1687313","BLOCK_ID":"https://databrussels.be/id/block/26475","AREA":57},"bbox":[154801.714,172003.297,154811.66,172014.24]},{"type":"Feature","id":"Buildings.fid--1290087_1a0317dc62a_-4fc1","geometry":{"type":"Polygon","coordinates":[[[154799.92999999,172017.72084242],[154794.81999999,172020.59084242],[154792.56599999,172016.71724242],[154792.55699999,172016.70184243],[154790.38649999,172012.97144243],[154790.236,172012.71284243],[154790.22399999,172012.69284243],[154790.17,172012.59984242],[154788.86299999,172010.35384242],[154788.53,172009.78084243],[154788.1594,172009.12104242],[154793.30499999,172006.23104242],[154794.24999999,172007.87084242],[154795.31899999,172009.72584243],[154795.343,172009.76684242],[154795.37889999,172009.82874242],[154795.44499999,172009.94284243],[154795.52669999,172010.08454243],[154797.69099999,172013.83884242],[154799.92999999,172017.72084242]]]},"geometry_name":"GEOM","properties":{"INSPIRE_ID":"https://databrussels.be/id/building/1687316","BLOCK_ID":"https://databrussels.be/id/block/26475","AREA":78},"bbox":[154788.1594,172006.23104242,154799.92999999,172020.59084242]},{"type":"Feature","id":"Buildings.fid--1290087_1a0317dc62a_-4fc5","geometry":{"type":"Polygon","coordinates":[[[154805.48,172000],[154805.08,171999.27],[154808.05,171997.64],[154809.35,172000],[154809.74,172000.71],[154811.02,172000],[154812.32,171999.28],[154812.54,171999.68],[154812.79,171999.543],[154813.05,172000],[154816.51,172006.18],[154817.47,172007.89],[154811.66,172011.15],[154807.3,172003.297],[154807.278,172003.257],[154806.33,172001.55],[154805.84,172000.656],[154805.48,172000]]]},"geometry_name":"GEOM","properties":{"INSPIRE_ID":"https://databrussels.be/id/building/1688413","BLOCK_ID":"https://databrussels.be/id/block/26475","AREA":78},"bbox":[154805.08,171997.64,154817.47,172011.15]},{"type":"Feature","id":"Buildings.fid--1290087_1a0317dc62a_-4fc0","geometry":{"type":"Polygon","coordinates":[[[154783.06999205,172011.83087845],[154789.43997378,172023.61090168],[154794.82,172020.59],[154790.225,172012.693],[154788.52999999,172009.78168485],[154788.15939999,172009.12188485],[154788.12009787,172009.05094498],[154783.06999205,172011.83087845]]]},"geometry_name":"GEOM","properties":{"INSPIRE_ID":"https://databrussels.be/id/building/1688416","BLOCK_ID":"https://databrussels.be/id/block/26475","AREA":80},"bbox":[154783.06999205,172009.05094498,154794.82,172023.61090168]},{"type":"Feature","id":"Buildings.fid--1290087_1a0317dc62a_-4fc3","geometry":{"type":"Polygon","coordinates":[[[154794.25,172007.87],[154794.4,172007.79],[154800.52,172004.42],[154800.66,172004.67],[154801.635,172006.37],[154801.714,172006.507],[154806.15,172014.24],[154806.04,172014.3],[154799.93,172017.72],[154795.343,172009.766],[154795.32,172009.725],[154794.25,172007.87]]]},"geometry_name":"GEOM","properties":{"INSPIRE_ID":"https://databrussels.be/id/building/1688417","BLOCK_ID":"https://databrussels.be/id/block/26475","AREA":81},"bbox":[154794.25,172004.42,154806.15,172017.72]},{"type":"Feature","id":"Buildings.fid--1290087_1a0317dc62a_-4fbf","geometry":{"type":"Polygon","coordinates":[[[154783.06999205,172011.83087845],[154777.67,172014.8],[154784.137,172026.584],[154789.43997378,172023.61090168],[154783.06999205,172011.83087845]]]},"geometry_name":"GEOM","properties":{"INSPIRE_ID":"https://databrussels.be/id/building/1688418","BLOCK_ID":"https://databrussels.be/id/block/26475","AREA":82},"bbox":[154777.67,172011.83087845,154789.43997378,172026.584]},{"type":"Feature","id":"Buildings.fid--1290087_1a0317dc62a_-4fbe","geometry":{"type":"Polygon","coordinates":[[[154765.91,172018.35],[154771.13,172015.4],[154772.74,172018.24],[154773.599,172017.757],[154778.411,172026.275],[154771.95,172029.885],[154767.48818413,172021.31051263],[154765.91,172018.35]]]},"geometry_name":"GEOM","properties":{"INSPIRE_ID":"https://databrussels.be/id/building/1688499","BLOCK_ID":"https://databrussels.be/id/block/26475","AREA":90},"bbox":[154765.91,172015.4,154778.411,172029.885]},{"type":"Feature","id":"Buildings.fid--1290087_1a0317dc62a_-4fee","geometry":{"type":"Polygon","coordinates":[[[154947.471,172138.529],[154952.919,172147.871],[154960.10104711,172143.86383333],[154951.47101769,172128.40783446],[154948.698,172129.956],[154952.058,172135.965],[154947.471,172138.529]]]},"geometry_name":"GEOM","properties":{"INSPIRE_ID":"https://databrussels.be/id/building/1688505","BLOCK_ID":"https://databrussels.be/id/block/31098","AREA":112},"bbox":[154947.471,172128.40783446,154960.10104711,172147.871]},{"type":"Feature","id":"Buildings.fid--1290087_1a0317dc62a_-4fe2","geometry":{"type":"Polygon","coordinates":[[[154984.42,172191.32],[154988.978,172188.776],[154985.558,172182.665],[154988.196,172181.191],[154996.763,172196.518],[154989.72,172200.47],[154984.42,172191.32]]]},"geometry_name":"GEOM","properties":{"INSPIRE_ID":"https://databrussels.be/id/building/1688506","BLOCK_ID":"https://databrussels.be/id/block/31098","AREA":107},"bbox":[154984.42,172181.191,154996.763,172200.47]},{"type":"Feature","id":"Buildings.fid--1290087_1a0317dc62a_-4fd9","geometry":{"type":"Polygon","coordinates":[[[154962.601,172053.929],[154967.128,172051.406],[154963.688,172045.236],[154966.418,172043.71],[154975.013,172059.088],[154967.919,172063.081],[154962.601,172053.929]]]},"geometry_name":"GEOM","properties":{"INSPIRE_ID":"https://databrussels.be/id/building/1688507","BLOCK_ID":"https://databrussels.be/id/block/31098","AREA":109},"bbox":[154962.601,172043.71,154975.013,172063.081]},{"type":"Feature","id":"Buildings.fid--1290087_1a0317dc62a_-4fe5","geometry":{"type":"Polygon","coordinates":[[[154931.30662417,172163.1827977],[154933.06317725,172166.33791435],[154936.95995096,172173.25090684],[154938.06999159,172172.66086703],[154941.32383527,172178.4125266],[154946.7710253,172175.34683895],[154945.30093327,172172.73679264],[154948.071,172171.175],[154945.179,172166.043],[154940.517,172168.689],[154935.9195029,172160.55889511],[154931.30662417,172163.1827977]]]},"geometry_name":"GEOM","properties":{"INSPIRE_ID":"https://databrussels.be/id/building/1688508","BLOCK_ID":"https://databrussels.be/id/block/31098","AREA":127},"bbox":[154931.30662417,172160.55889511,154948.071,172178.4125266]},{"type":"Feature","id":"Buildings.fid--1290087_1a0317dc62a_-4fd2","geometry":{"type":"Polygon","coordinates":[[[154970.005,172076.217],[154974.586,172073.833],[154977.92,172079.811],[154982.815,172077.26],[154985.462,172082.383],[154982.762,172083.883],[154984.061,172086.225],[154979.07298793,172088.99897833],[154978.636,172089.242],[154975.566,172083.733],[154974.364,172084.398],[154971.499,172079.26],[154970.005,172076.217]]]},"geometry_name":"GEOM","properties":{"INSPIRE_ID":"https://databrussels.be/id/building/1688509","BLOCK_ID":"https://databrussels.be/id/block/31098","AREA":112},"bbox":[154970.005,172073.833,154985.462,172089.242]},{"type":"Feature","id":"Buildings.fid--1290087_1a0317dc62a_-4fd3","geometry":{"type":"Polygon","coordinates":[[[154982.815,172077.26],[154982.934,172077.198],[154981.275,172073.999],[154985.758,172071.671],[154985.837,172071.815],[154989.13,172077.72],[154993.823,172075.284],[154996.684,172080.298],[154993.902,172081.843],[154995.237,172084.246],[154990.2742318,172086.99941732],[154989.837,172087.242],[154986.747,172081.672],[154985.462,172082.383],[154982.815,172077.26]]]},"geometry_name":"GEOM","properties":{"INSPIRE_ID":"https://databrussels.be/id/building/1688510","BLOCK_ID":"https://databrussels.be/id/block/31098","AREA":112},"bbox":[154981.275,172071.671,154996.684,172087.242]},{"type":"Feature","id":"Buildings.fid--1290087_1a0317dc62a_-4fd1","geometry":{"type":"Polygon","coordinates":[[[154960.26,172081.326],[154958.625,172078.348],[154958.746,172078.287],[154963.42,172075.851],[154966.784,172081.888],[154971.499,172079.26],[154974.364,172084.398],[154971.512,172085.983],[154972.76,172088.235],[154967.82111623,172091.00720695],[154967.385,172091.252],[154964.345,172085.842],[154963.135,172086.518],[154960.26,172081.326]]]},"geometry_name":"GEOM","properties":{"INSPIRE_ID":"https://databrussels.be/id/building/1688511","BLOCK_ID":"https://databrussels.be/id/block/31098","AREA":113},"bbox":[154958.625,172075.851,154974.364,172091.252]},{"type":"Feature","id":"Buildings.fid--1290087_1a0317dc62a_-4fcc","geometry":{"type":"Polygon","coordinates":[[[154992.82,172113.05],[154997.348,172110.515],[154993.978,172104.476],[154996.782,172102.91],[155000,172108.671],[155005.494,172118.508],[155000,172121.577],[154998.29,172122.53],[154992.82,172113.05]]]},"geometry_name":"GEOM","properties":{"INSPIRE_ID":"https://databrussels.be/id/building/1688512","BLOCK_ID":"https://databrussels.be/id/block/31098","AREA":113},"bbox":[154992.82,172102.91,155005.494,172122.53]},{"type":"Feature","id":"Buildings.fid--1290087_1a0317dc62a_-500d","geometry":{"type":"Polygon","coordinates":[[[154742.05877438,172005.20464608],[154740.50418218,172002.58967423],[154742.75403315,172001.25214519],[154744.30862536,172003.86711703],[154742.05877438,172005.20464608]]]},"geometry_name":"GEOM","properties":{"INSPIRE_ID":"https://databrussels.be/id/building/1774621","BLOCK_ID":"https://databrussels.be/id/block/26475","AREA":8},"bbox":[154740.50418218,172001.25214519,154744.30862536,172005.20464608]},{"type":"Feature","id":"Buildings.fid--1290087_1a0317dc62a_-4fb7","geometry":{"type":"Polygon","coordinates":[[[154919.84893613,172094.13511401],[154918.4046712,172091.53826861],[154920.89597993,172090.15269909],[154922.34024486,172092.74954449],[154919.84893613,172094.13511401]]]},"geometry_name":"GEOM","properties":{"INSPIRE_ID":"https://databrussels.be/id/building/1785027","BLOCK_ID":"https://databrussels.be/id/block/30631","AREA":8},"bbox":[154918.4046712,172090.15269909,154922.34024486,172094.13511401]},{"type":"Feature","id":"Buildings.fid--1290087_1a0317dc62a_-4fb6","geometry":{"type":"Polygon","coordinates":[[[154915.1763,172093.4533],[154917.4112,172092.1538],[154918.118,172093.3693],[154918.8247,172094.5848],[154916.5898,172095.8843],[154915.8831,172094.6688],[154915.1763,172093.4533]]]},"geometry_name":"GEOM","properties":{"INSPIRE_ID":"https://databrussels.be/id/building/1787852","BLOCK_ID":"https://databrussels.be/id/block/30631","AREA":7},"bbox":[154915.1763,172092.1538,154918.8247,172095.8843]},{"type":"Feature","id":"Buildings.fid--1290087_1a0317dc62a_-4ffb","geometry":{"type":"Polygon","coordinates":[[[154648.004,172043.709],[154667.199,172077.977],[154597.682,172116.9],[154596.557,172115.442],[154583.617,172122.599],[154569.094,172096.868],[154573.616,172094.295],[154565.186,172079.6],[154599.775,172062.781],[154613.38,172062.874],[154648.004,172043.709]]]},"geometry_name":"GEOM","properties":{"INSPIRE_ID":"https://databrussels.be/id/building/1809571","BLOCK_ID":"https://databrussels.be/id/block/26475","AREA":4009},"bbox":[154565.186,172043.709,154667.199,172122.599]},{"type":"Feature","id":"Buildings.fid--1290087_1a0317dc62a_-4fc7","geometry":{"type":"Polygon","coordinates":[[[154890.721,172000],[154889.6,171997.824],[154901.626,171991.17],[154904.864,171996.687],[154906.743,172000],[154907.769,172001.707],[154909.305,172002.431],[154909.333,172003.769],[154910.89,172006.341],[154900.93550154,172012.30992665],[154900.335,172012.67],[154898.08838358,172014.01711846],[154890.721,172000]]]},"geometry_name":"GEOM","properties":{"INSPIRE_ID":"https://databrussels.be/id/building/1809834","BLOCK_ID":"https://databrussels.be/id/block/24983","AREA":258},"bbox":[154889.6,171991.17,154910.89,172014.01711846]},{"type":"Feature","id":"Buildings.fid--1290087_1a0317dc62a_-4ff6","geometry":{"type":"Polygon","coordinates":[[[154957.73,172006.42],[154957.57,172006.14],[154958.00909182,172005.89416393],[154967.09,172000.81],[154968.57,172000],[154973.37000037,171997.34999993],[154973.65,171997.19],[154975.22,172000],[154980.522,172009.444],[154980.29,172009.573],[154980.477,172009.974],[154980.524,172010.079],[154964.993,172018.548],[154958.08,172006.23],[154957.73,172006.42]]]},"geometry_name":"GEOM","properties":{"INSPIRE_ID":"https://databrussels.be/id/building/1809866","BLOCK_ID":"https://databrussels.be/id/block/24983","AREA":262},"bbox":[154957.57,171997.19,154980.524,172018.548]},{"type":"Feature","id":"Buildings.fid--1290087_1a0317dc62a_-4ffe","geometry":{"type":"Polygon","coordinates":[[[154755.753,172150.9777],[154758.0439,172149.8635],[154760.0279,172153.9429],[154757.737,172155.0571],[154755.753,172150.9777]]]},"geometry_name":"GEOM","properties":{"INSPIRE_ID":"https://databrussels.be/id/building/223628","BLOCK_ID":null,"AREA":12},"bbox":[154755.753,172149.8635,154760.0279,172155.0571]},{"type":"Feature","id":"Buildings.fid--1290087_1a0317dc62a_-5005","geometry":{"type":"Polygon","coordinates":[[[154725.4048,172119.9166],[154728.1548,172118.3476],[154731.345,172123.9389],[154728.595,172125.508],[154725.4048,172119.9166]]]},"geometry_name":"GEOM","properties":{"INSPIRE_ID":"https://databrussels.be/id/building/226940","BLOCK_ID":null,"AREA":20},"bbox":[154725.4048,172118.3476,154731.345,172125.508]},{"type":"Feature","id":"Buildings.fid--1290087_1a0317dc62a_-5002","geometry":{"type":"Polygon","coordinates":[[[154655.629,172131.708],[154663.057,172127.522],[154667.747,172136.186],[154670.384,172141.055],[154668.73,172141.97],[154665.52,172136.17],[154659.706,172139.286],[154655.629,172131.708]]]},"geometry_name":"GEOM","properties":{"INSPIRE_ID":"https://databrussels.be/id/building/55183","BLOCK_ID":null,"AREA":87},"bbox":[154655.629,172127.522,154670.384,172141.97]},{"type":"Feature","id":"Buildings.fid--1290087_1a0317dc62a_-5004","geometry":{"type":"Polygon","coordinates":[[[154672.115,172133.916],[154667.398,172125.216],[154673.774,172121.787],[154674.74079239,172123.61464014],[154676.52857353,172126.72974842],[154678.83909064,172130.7670953],[154678.19,172131.15],[154678.92,172132.47],[154676.98,172133.54],[154678.62,172136.5],[154674.694,172138.671],[154672.115,172133.916]]]},"geometry_name":"GEOM","properties":{"INSPIRE_ID":"https://databrussels.be/id/building/55190","BLOCK_ID":null,"AREA":101},"bbox":[154667.398,172121.787,154678.92,172138.671]},{"type":"Feature","id":"Buildings.fid--1290087_1a0317dc62a_-5003","geometry":{"type":"Polygon","coordinates":[[[154674.74079239,172123.61464014],[154676.0537914,172122.82404629],[154677.83728295,172125.91612524],[154676.52857353,172126.72974842],[154674.74079239,172123.61464014]]]},"geometry_name":"GEOM","properties":{"INSPIRE_ID":"https://databrussels.be/id/building/56356","BLOCK_ID":null,"AREA":6},"bbox":[154674.74079239,172122.82404629,154677.83728295,172126.72974842]},{"type":"Feature","id":"Buildings.fid--1290087_1a0317dc62a_-5007","geometry":{"type":"Polygon","coordinates":[[[154714.64,172097.54],[154721.69,172093.82],[154726.35653048,172102.42668044],[154729.28002761,172107.81861039],[154722.68,172111.62],[154719.83,172106.51],[154719.68,172106.59],[154714.64,172097.54]]]},"geometry_name":"GEOM","properties":{"INSPIRE_ID":"https://databrussels.be/id/building/57870","BLOCK_ID":null,"AREA":126},"bbox":[154714.64,172093.82,154729.28002761,172111.62]},{"type":"Feature","id":"Buildings.fid--1290087_1a0317dc62a_-5008","geometry":{"type":"Polygon","coordinates":[[[154721.69,172093.82],[154728.74,172090.1],[154733.43,172098.53],[154730.77,172100.01],[154735.33,172108.18],[154730.87,172110.67],[154729.28002761,172107.81861039],[154726.35653048,172102.42668044],[154721.69,172093.82]]]},"geometry_name":"GEOM","properties":{"INSPIRE_ID":"https://databrussels.be/id/building/57871","BLOCK_ID":null,"AREA":126},"bbox":[154721.69,172090.1,154735.33,172110.67]},{"type":"Feature","id":"Buildings.fid--1290087_1a0317dc62a_-5001","geometry":{"type":"Polygon","coordinates":[[[154667.747,172136.186],[154672.115,172133.916],[154674.694,172138.671],[154670.384,172141.055],[154667.747,172136.186]]]},"geometry_name":"GEOM","properties":{"INSPIRE_ID":"https://databrussels.be/id/building/57952","BLOCK_ID":null,"AREA":27},"bbox":[154667.747,172133.916,154674.694,172141.055]},{"type":"Feature","id":"Buildings.fid--1290087_1a0317dc62a_-5006","geometry":{"type":"Polygon","coordinates":[[[154678.442,172119.16],[154691.36,172111.87],[154693.8338066,172110.48686723],[154694.68469052,172110.01112857],[154698.98427903,172117.70117162],[154698.39134407,172118.03268815],[154695.65958851,172119.56004305],[154697.65,172123.12],[154691.11,172126.73],[154690.18,172125.05],[154683.74,172128.4],[154678.442,172119.16]]]},"geometry_name":"GEOM","properties":{"INSPIRE_ID":"https://databrussels.be/id/building/58254","BLOCK_ID":null,"AREA":208},"bbox":[154678.442,172110.01112857,154698.98427903,172128.4]},{"type":"Feature","id":"Buildings.fid--1290087_1a0317dc62a_-4ff9","geometry":{"type":"Polygon","coordinates":[[[154487.44,172257.02],[154496.92,172234.86],[154519,172244.41],[154509.49,172266.46],[154487.44,172257.02]]]},"geometry_name":"GEOM","properties":{"INSPIRE_ID":"https://databrussels.be/id/building/58661","BLOCK_ID":null,"AREA":578},"bbox":[154487.44,172234.86,154519,172266.46]}],"numberReturned":84,"grand_bruxelles_source":{"authority":"Paradigm / Brussels-Capital Region","service":"https://geoservices-urbis.irisnet.be/geoserver/urbisvector/wfs","layer":"urbisvector:Buildings","crs":"EPSG:31370","bbox":[154500.0,172000.0,155000.0,172500.0],"cell_id":"bxl-e154500-n172000-s500","ownership":"polygon_or_multipolygon_centroid_global_500m_cell"}}
