{"type":"FeatureCollection","totalFeatures":13,"numberMatched":13,"timeStamp":"2026-08-24T03:41:37.572Z","crs":{"type":"name","properties":{"name":"urn:ogc:def:crs:EPSG::31370"}},"bbox":[154357.85405662,171806.45166794,155114.97034513,172197.22250693],"features":[{"type":"Feature","id":"StreetAxes.fid--481543fe_1a031752986_-4536","geometry":{"type":"LineString","coordinates":[[154871.53792204,171991.70846538],[154860.65596037,171997.84336005],[154857.54120808,171999.63667954],[154850.13407416,172003.87326394]]},"geometry_name":"GEOM","properties":{"INSPIRE_ID":"https://databrussels.be/id/streetaxe/70413","TYPE":"S","HIERARCHY":"DR","LVL":0,"STARTSN_ID":"https://databrussels.be/id/streetnode/3076","ENDSN_ID":"https://databrussels.be/id/streetnode/607","STRNAMEFRE":"Avenue Hof ten Berg","STRNAMEDUT":"Hof ten Berglaan","SLOPE":2.05,"LENGTH":24.6194037788579},"bbox":[154850.13407416,171991.70846538,154871.53792204,172003.87326394]},{"type":"Feature","id":"StreetAxes.fid--481543fe_1a031752986_-4537","geometry":{"type":"LineString","coordinates":[[154850.13407416,172003.87326394],[154846.276582,171996.7289645],[154802.0116575,171917.346266],[154797.382,171909.283]]},"geometry_name":"GEOM","properties":{"INSPIRE_ID":"https://databrussels.be/id/streetaxe/70494","TYPE":"S","HIERARCHY":"DR","LVL":0,"STARTSN_ID":"https://databrussels.be/id/streetnode/607","ENDSN_ID":"https://databrussels.be/id/streetnode/2246","STRNAMEFRE":"Avenue des Briqueteries","STRNAMEDUT":"Steenbakkerijenlaan","SLOPE":1.99,"LENGTH":108.30706283071},"bbox":[154797.382,171909.283,154850.13407416,172003.87326394]},{"type":"Feature","id":"StreetAxes.fid--481543fe_1a031752986_-452c","geometry":{"type":"LineString","coordinates":[[154652.824,172021.588],[154612.18456166,172043.58519431],[154585.31851813,172056.95048639],[154570.26164757,172064.53517454],[154560.48054368,172068.55355237],[154551.9053293,172069.82603868],[154543.53109651,172069.69209275],[154537.97060594,172069.15630904],[154530.73526881,172067.48198495],[154521.61991642,172063.38826254],[154515.65746268,172059.97264138],[154510.90089846,172055.6863717],[154506.34531582,172050.86431831],[154500.44985594,172041.55507635],[154495.49231013,172032.11188846],[154485.71973,172010.62163973],[154481.43212281,172002.0108301],[154475.83619129,171990.33002765],[154469.40478051,171972.9935976],[154465.15545553,171959.29284273],[154455.52748046,171926.69674248],[154449.99809419,171909.49007255],[154449.34729666,171902.79277618],[154443.43329384,171880.74551569],[154439.03084003,171863.44735591],[154433.21512228,171841.57769338],[154429.58070525,171827.16176293],[154427.21917161,171817.75206152],[154427.35315933,171813.5327648],[154428.49673512,171806.45166794]]},"geometry_name":"GEOM","properties":{"INSPIRE_ID":"https://databrussels.be/id/streetaxe/77891","TYPE":"S","HIERARCHY":null,"LVL":0,"STARTSN_ID":"https://databrussels.be/id/streetnode/4703","ENDSN_ID":"https://databrussels.be/id/streetnode/8218","STRNAMEFRE":"Avenue Ariane","STRNAMEDUT":"Arianelaan","SLOPE":3.07,"LENGTH":422.367458528107},"bbox":[154427.21917161,171806.45166794,154652.824,172069.82603868]},{"type":"Feature","id":"StreetAxes.fid--481543fe_1a031752986_-4531","geometry":{"type":"LineString","coordinates":[[155114.97034513,171950.84162457],[154924.73587847,172056.12886322]]},"geometry_name":"GEOM","properties":{"INSPIRE_ID":"https://databrussels.be/id/streetaxe/79675","TYPE":"S","HIERARCHY":"DR","LVL":0,"STARTSN_ID":"https://databrussels.be/id/streetnode/13580","ENDSN_ID":"https://databrussels.be/id/streetnode/14439","STRNAMEFRE":"Avenue Oscar Jespers","STRNAMEDUT":"Oscar Jesperslaan","SLOPE":2.81,"LENGTH":217.42712555946},"bbox":[154924.73587847,171950.84162457,155114.97034513,172056.12886322]},{"type":"Feature","id":"StreetAxes.fid--481543fe_1a031752986_-4532","geometry":{"type":"LineString","coordinates":[[154949.2792496,172099.98204643],[154949.81189837,172102.603347],[154949.75502255,172105.93253626],[154948.46939611,172108.78767533],[154945.62901491,172111.88597467],[154918.43144158,172140.14933263],[154916.7363283,172142.17319171],[154916.06799054,172143.63828044],[154915.73181259,172145.09572937]]},"geometry_name":"GEOM","properties":{"INSPIRE_ID":"https://databrussels.be/id/streetaxe/79942","TYPE":"S","HIERARCHY":"DR","LVL":0,"STARTSN_ID":"https://databrussels.be/id/streetnode/14429","ENDSN_ID":"https://databrussels.be/id/streetnode/13575","STRNAMEFRE":"Avenue H.V. Wolvens","STRNAMEDUT":"H.V.Wolvenslaan","SLOPE":0.86,"LENGTH":58.3090770633456},"bbox":[154915.73181259,172099.98204643,154949.81189837,172145.09572937]},{"type":"Feature","id":"StreetAxes.fid--481543fe_1a031752986_-452f","geometry":{"type":"LineString","coordinates":[[154949.2792496,172099.98204643],[155001.16381218,172089.62916604],[155012.30191166,172085.82892182],[155021.519,172083.014]]},"geometry_name":"GEOM","properties":{"INSPIRE_ID":"https://databrussels.be/id/streetaxe/79944","TYPE":"S","HIERARCHY":"DR","LVL":0,"STARTSN_ID":"https://databrussels.be/id/streetnode/14429","ENDSN_ID":"https://databrussels.be/id/streetnode/511","STRNAMEFRE":"Avenue H.V. Wolvens","STRNAMEDUT":"H.V.Wolvenslaan","SLOPE":2.62,"LENGTH":74.3132856523007},"bbox":[154949.2792496,172083.014,155021.519,172099.98204643]},{"type":"Feature","id":"StreetAxes.fid--481543fe_1a031752986_-4533","geometry":{"type":"LineString","coordinates":[[154915.73181259,172145.09572937],[154915.69180521,172146.25787572],[154915.94831626,172148.32761373],[154916.74555321,172150.57455431],[154919.14164367,172154.70298458],[154936.05743676,172185.11481683],[154981.60115079,172176.99263767],[155021.50862917,172154.39696772],[155022.51389334,172151.0920174],[155076.64815465,172120.39873938],[155066.60497331,172101.43622009]]},"geometry_name":"GEOM","properties":{"INSPIRE_ID":"https://databrussels.be/id/streetaxe/83175","TYPE":"S","HIERARCHY":null,"LVL":0,"STARTSN_ID":"https://databrussels.be/id/streetnode/13575","ENDSN_ID":"https://databrussels.be/id/streetnode/14435","STRNAMEFRE":"Avenue H.V. Wolvens","STRNAMEDUT":"H.V.Wolvenslaan","SLOPE":1.54,"LENGTH":224.470936965477},"bbox":[154915.69180521,172101.43622009,155076.64815465,172185.11481683]},{"type":"Feature","id":"StreetAxes.fid--481543fe_1a031752986_-4535","geometry":{"type":"LineString","coordinates":[[154871.53792204,171991.70846538],[154893.05292341,172032.98773252],[154924.73587847,172056.12886322]]},"geometry_name":"GEOM","properties":{"INSPIRE_ID":"https://databrussels.be/id/streetaxe/83288","TYPE":"S","HIERARCHY":"DR","LVL":0,"STARTSN_ID":"https://databrussels.be/id/streetnode/3076","ENDSN_ID":"https://databrussels.be/id/streetnode/14439","STRNAMEFRE":"Avenue H.V. Wolvens","STRNAMEDUT":"H.V.Wolvenslaan","SLOPE":1.44,"LENGTH":85.7838738708548},"bbox":[154871.53792204,171991.70846538,154924.73587847,172056.12886322]},{"type":"Feature","id":"StreetAxes.fid--481543fe_1a031752986_-4530","geometry":{"type":"LineString","coordinates":[[154924.73587847,172056.12886322],[154949.2792496,172099.98204643]]},"geometry_name":"GEOM","properties":{"INSPIRE_ID":"https://databrussels.be/id/streetaxe/86742","TYPE":"S","HIERARCHY":"DR","LVL":0,"STARTSN_ID":"https://databrussels.be/id/streetnode/14439","ENDSN_ID":"https://databrussels.be/id/streetnode/14429","STRNAMEFRE":"Avenue H.V. Wolvens","STRNAMEDUT":"H.V.Wolvenslaan","SLOPE":1.03,"LENGTH":50.2541415568792},"bbox":[154924.73587847,172056.12886322,154949.2792496,172099.98204643]},{"type":"Feature","id":"StreetAxes.fid--481543fe_1a031752986_-4534","geometry":{"type":"LineString","coordinates":[[154871.66917369,172085.9469427],[154924.73587847,172056.12886322]]},"geometry_name":"GEOM","properties":{"INSPIRE_ID":"https://databrussels.be/id/streetaxe/87420","TYPE":"S","HIERARCHY":"DR","LVL":0,"STARTSN_ID":"https://databrussels.be/id/streetnode/10876","ENDSN_ID":"https://databrussels.be/id/streetnode/14439","STRNAMEFRE":"Avenue Oscar Jespers","STRNAMEDUT":"Oscar Jesperslaan","SLOPE":2.32,"LENGTH":60.8702966905479},"bbox":[154871.66917369,172056.12886322,154924.73587847,172085.9469427]},{"type":"Feature","id":"StreetAxes.fid--481543fe_1a031752986_-452b","geometry":{"type":"LineString","coordinates":[[154850.13407416,172003.87326394],[154831.33797874,172015.03071402],[154737.07448099,172067.52325044],[154693.1643353,172092.18462976],[154655.5210204,172113.32333076],[154609.78495424,172138.88059675],[154579.42571839,172156.10630475],[154571.55694722,172160.7320333],[154569.23,172161.352],[154563.845,172160.572],[154557.962,172158.584],[154541.239,172150.403],[154533.014,172146.072]]},"geometry_name":"GEOM","properties":{"INSPIRE_ID":"https://databrussels.be/id/streetaxe/99204","TYPE":"S","HIERARCHY":"DR","LVL":0,"STARTSN_ID":"https://databrussels.be/id/streetnode/607","ENDSN_ID":"https://databrussels.be/id/streetnode/12501","STRNAMEFRE":"Avenue Hof ten Berg","STRNAMEDUT":"Hof ten Berglaan","SLOPE":1.65,"LENGTH":361.683438058586},"bbox":[154533.014,172003.87326394,154850.13407416,172161.352]},{"type":"Feature","id":"StreetAxes.fid--481543fe_1a031752986_-452d","geometry":{"type":"LineString","coordinates":[[154368.1165268,172104.09580565],[154369.48031884,172104.80707445],[154443.85614064,172141.96901815],[154507.60990819,172173.82364326],[154529.02900281,172184.52571242]]},"geometry_name":"GEOM","properties":{"INSPIRE_ID":"https://databrussels.be/id/streetaxe/99289","TYPE":"S","HIERARCHY":"H","LVL":0,"STARTSN_ID":"https://databrussels.be/id/streetnode/7093","ENDSN_ID":"https://databrussels.be/id/streetnode/7096","STRNAMEFRE":"Autoroute E40","STRNAMEDUT":"Autosnelweg E40","SLOPE":0.29,"LENGTH":179.894073040113},"bbox":[154368.1165268,172104.09580565,154529.02900281,172184.52571242]},{"type":"Feature","id":"StreetAxes.fid--481543fe_1a031752986_-452e","geometry":{"type":"LineString","coordinates":[[154357.85405662,172123.26887423],[154378.91796111,172133.505977],[154506.32574565,172197.22250693]]},"geometry_name":"GEOM","properties":{"INSPIRE_ID":"https://databrussels.be/id/streetaxe/99309","TYPE":"S","HIERARCHY":"H","LVL":0,"STARTSN_ID":"https://databrussels.be/id/streetnode/6862","ENDSN_ID":"https://databrussels.be/id/streetnode/6567","STRNAMEFRE":"Autoroute E40","STRNAMEDUT":"Autosnelweg E40","SLOPE":0.95,"LENGTH":165.871671066879},"bbox":[154357.85405662,172123.26887423,154506.32574565,172197.22250693]}],"numberReturned":13,"grand_bruxelles_source":{"authority":"Paradigm / Brussels-Capital Region","service":"https://geoservices-urbis.irisnet.be/geoserver/urbisvector/wfs","layer":"urbisvector:StreetAxes","crs":"EPSG:31370","bbox":[154500.0,172000.0,155000.0,172500.0],"cell_id":"bxl-e154500-n172000-s500","ownership":"bbox_intersection_source_unclipped"}}
