{"type":"FeatureCollection","totalFeatures":104,"numberMatched":104,"timeStamp":"2026-08-22T13:05:31.390Z","crs":{"type":"name","properties":{"name":"urn:ogc:def:crs:EPSG::31370"}},"bbox":[147382.26166052,169359.3888731,148108.94423775,170083.268],"features":[{"type":"Feature","id":"StreetAxes.fid--63af041f_1a0299052a9_-2088","geometry":{"type":"LineString","coordinates":[[147940.0161494,169680.82712314],[147888.47745316,169722.37149152],[147861.86739661,169742.3707431],[147858.83035095,169744.670756]]},"geometry_name":"GEOM","properties":{"INSPIRE_ID":"https://databrussels.be/id/streetaxe/100382","TYPE":"S","HIERARCHY":"DR","LVL":0,"STARTSN_ID":"https://databrussels.be/id/streetnode/","ENDSN_ID":"https://databrussels.be/id/streetnode/","STRNAMEFRE":"Rue de l'Argonne","STRNAMEDUT":"Argonnestraat","SLOPE":null,"LENGTH":103.295272629993},"bbox":[147858.83035095,169680.82712314,147940.0161494,169744.670756]},{"type":"Feature","id":"StreetAxes.fid--63af041f_1a0299052a9_-208e","geometry":{"type":"LineString","coordinates":[[147758.62589451,169816.50795734],[147763.66326909,169815.65699437],[147767.12932357,169814.83728547],[147772.94257688,169812.30033929],[147778.46350912,169808.57540059],[147790.43993633,169799.30319882],[147819.69579103,169775.62907957],[147856.26231996,169746.6155751],[147858.83035095,169744.670756]]},"geometry_name":"GEOM","properties":{"INSPIRE_ID":"https://databrussels.be/id/streetaxe/100392","TYPE":"C","HIERARCHY":"DR","LVL":0,"STARTSN_ID":"https://databrussels.be/id/streetnode/7656","ENDSN_ID":"https://databrussels.be/id/streetnode/7979","STRNAMEFRE":"Rue de l'Argonne","STRNAMEDUT":"Argonnestraat","SLOPE":0.46,"LENGTH":124.354040080816},"bbox":[147758.62589451,169744.670756,147858.83035095,169816.50795734]},{"type":"Feature","id":"StreetAxes.fid--63af041f_1a0299052a9_-2089","geometry":{"type":"LineString","coordinates":[[147858.83035095,169744.670756],[147862.80540606,169747.46342716],[147866.62268713,169749.80624934],[147870.53717949,169751.12945839]]},"geometry_name":"GEOM","properties":{"INSPIRE_ID":"https://databrussels.be/id/streetaxe/100398","TYPE":"S","HIERARCHY":"DR","LVL":0,"STARTSN_ID":"https://databrussels.be/id/streetnode/7979","ENDSN_ID":"https://databrussels.be/id/streetnode/7652","STRNAMEFRE":"Esplanade de l'Europe","STRNAMEDUT":"Europaesplanade","SLOPE":0,"LENGTH":13.4689660594855},"bbox":[147858.83035095,169744.670756,147870.53717949,169751.12945839]},{"type":"Feature","id":"StreetAxes.fid--63af041f_1a0299052a9_-2099","geometry":{"type":"LineString","coordinates":[[147689.23017949,169683.65218056],[147692.93131399,169682.14100001],[147700.01235127,169678.39745748],[147706.19666331,169675.70581947],[147710.80397578,169674.0351476],[147720.74194436,169671.58880665],[147725.6816636,169670.95898987],[147733.7278953,169670.65844573],[147740.27553567,169671.3622936],[147749.19318992,169673.13730023],[147760.45741484,169678.37531919],[147769.29171248,169684.04196339],[147858.83035095,169744.670756]]},"geometry_name":"GEOM","properties":{"INSPIRE_ID":"https://databrussels.be/id/streetaxe/100411","TYPE":"S","HIERARCHY":"DR","LVL":0,"STARTSN_ID":"https://databrussels.be/id/streetnode/7661","ENDSN_ID":"https://databrussels.be/id/streetnode/7979","STRNAMEFRE":"Esplanade de l'Europe","STRNAMEDUT":"Europaesplanade","SLOPE":0.21,"LENGTH":193.649443459847},"bbox":[147689.23017949,169670.65844573,147858.83035095,169744.670756]},{"type":"Feature","id":"StreetAxes.fid--63af041f_1a0299052a9_-208b","geometry":{"type":"LineString","coordinates":[[147854.32996362,169522.80025683],[147856.08176292,169529.50881739],[147858.8691207,169537.16921158],[147861.590218,169542.18122719],[147866.08218331,169549.45085719],[147876.10868418,169561.68864073],[147889.40619762,169578.1855559],[147906.52604223,169599.68536075],[147917.68707524,169613.55664461],[147942.16379632,169643.93257543],[147945.28904753,169648.54071095],[147946.6711375,169650.84097257],[147947.86097094,169653.25933323],[147948.75143018,169655.74878916],[147949.34985123,169658.6636788],[147949.51084404,169660.11261412],[147949.55884384,169662.0038059],[147949.44401587,169663.89846729],[147948.86798292,169667.462061],[147948.45956817,169669.05772791],[147947.89958147,169670.59531853],[147947.34156725,169671.77755204],[147946.68705783,169672.9421938],[147945.97714904,169674.0897176],[147944.67347067,169676.01604832],[147943.02820855,169677.99036287],[147941.01255443,169680.02539827],[147940.0161494,169680.82712314]]},"geometry_name":"GEOM","properties":{"INSPIRE_ID":"https://databrussels.be/id/streetaxe/100423","TYPE":"C","HIERARCHY":"DR","LVL":0,"STARTSN_ID":"https://databrussels.be/id/streetnode/","ENDSN_ID":"https://databrussels.be/id/streetnode/","STRNAMEFRE":"Avenue Fonsny","STRNAMEDUT":"Fonsnylaan","SLOPE":0.15,"LENGTH":192.380282744719},"bbox":[147854.32996362,169522.80025683,147949.55884384,169680.82712314]},{"type":"Feature","id":"StreetAxes.fid--63af041f_1a0299052a9_-20ae","geometry":{"type":"LineString","coordinates":[[147756.87897791,169842.84073048],[147775.31635017,169849.11162807],[147780.31697115,169849.78528106],[147795.34287553,169849.50058247],[147815.52437222,169850.35517972]]},"geometry_name":"GEOM","properties":{"INSPIRE_ID":"https://databrussels.be/id/streetaxe/101337","TYPE":"S","HIERARCHY":"MER","LVL":0,"STARTSN_ID":"https://databrussels.be/id/streetnode/","ENDSN_ID":"https://databrussels.be/id/streetnode/","STRNAMEFRE":"Boulevard Jamar","STRNAMEDUT":"Jamarlaan","SLOPE":0.59,"LENGTH":59.7485969476011},"bbox":[147756.87897791,169842.84073048,147815.52437222,169850.35517972]},{"type":"Feature","id":"StreetAxes.fid--63af041f_1a0299052a9_-20be","geometry":{"type":"LineString","coordinates":[[147985.86873827,169831.99831189],[148022.58598958,169807.46899454],[148036.776,169754.205],[148040.43263871,169733.20826881]]},"geometry_name":"GEOM","properties":{"INSPIRE_ID":"https://databrussels.be/id/streetaxe/101354","TYPE":"S","HIERARCHY":"MER","LVL":0,"STARTSN_ID":"https://databrussels.be/id/streetnode/","ENDSN_ID":"https://databrussels.be/id/streetnode/","STRNAMEFRE":"Boulevard Poincaré","STRNAMEDUT":"Poincarélaan","SLOPE":0.59,"LENGTH":120.591566989159},"bbox":[147985.86873827,169733.20826881,148040.43263871,169831.99831189]},{"type":"Feature","id":"StreetAxes.fid--63af041f_1a0299052a9_-20ac","geometry":{"type":"LineString","coordinates":[[147995.97569298,169945.90085763],[148003.92315816,169908.8245866],[148003.92859849,169899.54584568],[147976.79123253,169844.40865367]]},"geometry_name":"GEOM","properties":{"INSPIRE_ID":"https://databrussels.be/id/streetaxe/101357","TYPE":"S","HIERARCHY":"MER","LVL":0,"STARTSN_ID":"https://databrussels.be/id/streetnode/","ENDSN_ID":"https://databrussels.be/id/streetnode/","STRNAMEFRE":"Boulevard Poincaré","STRNAMEDUT":"Poincarélaan","SLOPE":0.94,"LENGTH":108.650848240999},"bbox":[147976.79123253,169844.40865367,148003.92859849,169945.90085763]},{"type":"Feature","id":"StreetAxes.fid--63af041f_1a0299052a9_-2075","geometry":{"type":"LineString","coordinates":[[147659.368,170025.55],[147654.086,170019.808],[147615.301,169978.35],[147607.372,169969.679]]},"geometry_name":"GEOM","properties":{"INSPIRE_ID":"https://databrussels.be/id/streetaxe/71117","TYPE":"S","HIERARCHY":"DR","LVL":0,"STARTSN_ID":"https://databrussels.be/id/streetnode/522","ENDSN_ID":"https://databrussels.be/id/streetnode/2086","STRNAMEFRE":"Rue Brogniez","STRNAMEDUT":"Brogniezstraat","SLOPE":0.03,"LENGTH":76.3234628415605},"bbox":[147607.372,169969.679,147659.368,170025.55]},{"type":"Feature","id":"StreetAxes.fid--63af041f_1a0299052a9_-2064","geometry":{"type":"LineString","coordinates":[[147998.057,169515.18],[147992.29,169507.485],[147949.918,169452.737],[147945.64,169447.213]]},"geometry_name":"GEOM","properties":{"INSPIRE_ID":"https://databrussels.be/id/streetaxe/72562","TYPE":"S","HIERARCHY":"DC","LVL":0,"STARTSN_ID":"https://databrussels.be/id/streetnode/1768","ENDSN_ID":"https://databrussels.be/id/streetnode/2888","STRNAMEFRE":"Rue de Mérode","STRNAMEDUT":"de Mérodestraat","SLOPE":0.33,"LENGTH":85.8325802704542},"bbox":[147945.64,169447.213,147998.057,169515.18]},{"type":"Feature","id":"StreetAxes.fid--63af041f_1a0299052a9_-206a","geometry":{"type":"LineString","coordinates":[[147653.09810951,169692.74643035],[147653.23410259,169683.58191408],[147652.69297529,169679.58313002],[147642.72077212,169667.49396274],[147636.7703722,169662.47680134],[147633.50374459,169656.32028468],[147633.30515704,169651.792741],[147635.14498988,169647.13651662],[147638.33764097,169644.05041441],[147641.69263025,169642.48029224]]},"geometry_name":"GEOM","properties":{"INSPIRE_ID":"https://databrussels.be/id/streetaxe/74214","TYPE":"S","HIERARCHY":"DR","LVL":0,"STARTSN_ID":"https://databrussels.be/id/streetnode/7964","ENDSN_ID":"https://databrussels.be/id/streetnode/7267","STRNAMEFRE":"Place Victor Horta","STRNAMEDUT":"Victor Hortaplein","SLOPE":0.2,"LENGTH":61.3079329924663},"bbox":[147633.30515704,169642.48029224,147653.23410259,169692.74643035]},{"type":"Feature","id":"StreetAxes.fid--63af041f_1a0299052a9_-2090","geometry":{"type":"LineString","coordinates":[[147746.50895112,169815.36242587],[147752.01315509,169815.77563235],[147758.62589451,169816.50795734]]},"geometry_name":"GEOM","properties":{"INSPIRE_ID":"https://databrussels.be/id/streetaxe/74732","TYPE":"S","HIERARCHY":"DR","LVL":0,"STARTSN_ID":"https://databrussels.be/id/streetnode/7041","ENDSN_ID":"https://databrussels.be/id/streetnode/7656","STRNAMEFRE":"Rue de l'Argonne","STRNAMEDUT":"Argonnestraat","SLOPE":0.58,"LENGTH":12.1728584659511},"bbox":[147746.50895112,169815.36242587,147758.62589451,169816.50795734]},{"type":"Feature","id":"StreetAxes.fid--63af041f_1a0299052a9_-206d","geometry":{"type":"LineString","coordinates":[[147662.44551602,169846.30009818],[147598.66969167,169767.21771963],[147592.92766838,169759.28368566],[147589.69636534,169754.30067477],[147584.40104816,169745.78488898],[147581.09432221,169740.98800412],[147575.64889807,169733.95886019],[147568.04534359,169724.5055401]]},"geometry_name":"GEOM","properties":{"INSPIRE_ID":"https://databrussels.be/id/streetaxe/74787","TYPE":"S","HIERARCHY":"MER","LVL":0,"STARTSN_ID":"https://databrussels.be/id/streetnode/7276","ENDSN_ID":"https://databrussels.be/id/streetnode/7040","STRNAMEFRE":"Rue Bara","STRNAMEDUT":"Barastraat","SLOPE":0.19,"LENGTH":154.204552577587},"bbox":[147568.04534359,169724.5055401,147662.44551602,169846.30009818]},{"type":"Feature","id":"StreetAxes.fid--63af041f_1a0299052a9_-20c5","geometry":{"type":"LineString","coordinates":[[147949.18248586,169804.3227836],[147982.27949012,169827.62938014],[147985.86873827,169831.99831189]]},"geometry_name":"GEOM","properties":{"INSPIRE_ID":"https://databrussels.be/id/streetaxe/74797","TYPE":"S","HIERARCHY":"DR","LVL":0,"STARTSN_ID":"https://databrussels.be/id/streetnode/","ENDSN_ID":"https://databrussels.be/id/streetnode/","STRNAMEFRE":"Esplanade de l'Europe","STRNAMEDUT":"Europaesplanade","SLOPE":0.5,"LENGTH":46.1339628957603},"bbox":[147949.18248586,169804.3227836,147985.86873827,169831.99831189]},{"type":"Feature","id":"StreetAxes.fid--63af041f_1a0299052a9_-2071","geometry":{"type":"LineString","coordinates":[[147498.92500049,169638.71935001],[147505.80372116,169647.14598256],[147563.3946447,169718.72343579],[147568.04534359,169724.5055401]]},"geometry_name":"GEOM","properties":{"INSPIRE_ID":"https://databrussels.be/id/streetaxe/74798","TYPE":"S","HIERARCHY":"MER","LVL":0,"STARTSN_ID":"https://databrussels.be/id/streetnode/7982","ENDSN_ID":"https://databrussels.be/id/streetnode/7040","STRNAMEFRE":"Rue Bara","STRNAMEDUT":"Barastraat","SLOPE":0.01,"LENGTH":110.167810228206},"bbox":[147498.92500049,169638.71935001,147568.04534359,169724.5055401]},{"type":"Feature","id":"StreetAxes.fid--63af041f_1a0299052a9_-2097","geometry":{"type":"LineString","coordinates":[[147715.40766381,169819.89330027],[147711.54843597,169813.11259224],[147709.92269442,169810.31754606],[147708.97347146,169807.65827835],[147701.78323421,169699.72193049],[147702.19551731,169698.32672683]]},"geometry_name":"GEOM","properties":{"INSPIRE_ID":"https://databrussels.be/id/streetaxe/74801","TYPE":"S","HIERARCHY":"DR","LVL":0,"STARTSN_ID":"https://databrussels.be/id/streetnode/7966","ENDSN_ID":"https://databrussels.be/id/streetnode/7605","STRNAMEFRE":"Avenue Paul-Henri Spaak","STRNAMEDUT":"Paul-Henri Spaaklaan","SLOPE":0.69,"LENGTH":123.489516004744},"bbox":[147701.78323421,169698.32672683,147715.40766381,169819.89330027]},{"type":"Feature","id":"StreetAxes.fid--63af041f_1a0299052a9_-206e","geometry":{"type":"LineString","coordinates":[[147568.04534359,169724.5055401],[147588.88548912,169707.19293932],[147593.95515239,169701.70815034]]},"geometry_name":"GEOM","properties":{"INSPIRE_ID":"https://databrussels.be/id/streetaxe/74802","TYPE":"S","HIERARCHY":"DR","LVL":0,"STARTSN_ID":"https://databrussels.be/id/streetnode/7040","ENDSN_ID":"https://databrussels.be/id/streetnode/7655","STRNAMEFRE":"Rue Ernest Blerot","STRNAMEDUT":"Ernest Blerotstraat","SLOPE":0.81,"LENGTH":34.5620274056127},"bbox":[147568.04534359,169701.70815034,147593.95515239,169724.5055401]},{"type":"Feature","id":"StreetAxes.fid--63af041f_1a0299052a9_-2074","geometry":{"type":"LineString","coordinates":[[147698.94813625,169894.62101942],[147692.74,169898.067],[147615.73,169962.67],[147607.372,169969.679]]},"geometry_name":"GEOM","properties":{"INSPIRE_ID":"https://databrussels.be/id/streetaxe/75070","TYPE":"S","HIERARCHY":"IDR","LVL":0,"STARTSN_ID":"https://databrussels.be/id/streetnode/7981","ENDSN_ID":"https://databrussels.be/id/streetnode/2086","STRNAMEFRE":"Avenue Clemenceau","STRNAMEDUT":"Clemenceaulaan","SLOPE":0.82,"LENGTH":118.527393615052},"bbox":[147607.372,169894.62101942,147698.94813625,169969.679]},{"type":"Feature","id":"StreetAxes.fid--63af041f_1a0299052a9_-20b6","geometry":{"type":"LineString","coordinates":[[147923.70516027,169849.59767382],[147922.96808086,169845.06133826],[147920.28326097,169833.01864774]]},"geometry_name":"GEOM","properties":{"INSPIRE_ID":"https://databrussels.be/id/streetaxe/75072","TYPE":"S","HIERARCHY":"DR","LVL":0,"STARTSN_ID":"https://databrussels.be/id/streetnode/7985","ENDSN_ID":"https://databrussels.be/id/streetnode/7280","STRNAMEFRE":"Boulevard Jamar","STRNAMEDUT":"Jamarlaan","SLOPE":1.58,"LENGTH":16.9341678238885},"bbox":[147920.28326097,169833.01864774,147923.70516027,169849.59767382]},{"type":"Feature","id":"StreetAxes.fid--63af041f_1a0299052a9_-20a4","geometry":{"type":"LineString","coordinates":[[147923.70516027,169849.59767382],[147815.52437222,169850.35517972]]},"geometry_name":"GEOM","properties":{"INSPIRE_ID":"https://databrussels.be/id/streetaxe/75344","TYPE":"S","HIERARCHY":"MER","LVL":0,"STARTSN_ID":"https://databrussels.be/id/streetnode/7985","ENDSN_ID":"https://databrussels.be/id/streetnode/7664","STRNAMEFRE":"Boulevard Jamar","STRNAMEDUT":"Jamarlaan","SLOPE":0.09,"LENGTH":108.183440119803},"bbox":[147815.52437222,169849.59767382,147923.70516027,169850.35517972]},{"type":"Feature","id":"StreetAxes.fid--63af041f_1a0299052a9_-20aa","geometry":{"type":"LineString","coordinates":[[147923.70516027,169849.59767382],[147955.22866505,169844.40865367]]},"geometry_name":"GEOM","properties":{"INSPIRE_ID":"https://databrussels.be/id/streetaxe/75345","TYPE":"S","HIERARCHY":"MER","LVL":0,"STARTSN_ID":"https://databrussels.be/id/streetnode/7985","ENDSN_ID":"https://databrussels.be/id/streetnode/7658","STRNAMEFRE":"Boulevard Jamar","STRNAMEDUT":"Jamarlaan","SLOPE":1.23,"LENGTH":31.9477273642995},"bbox":[147923.70516027,169844.40865367,147955.22866505,169849.59767382]},{"type":"Feature","id":"StreetAxes.fid--63af041f_1a0299052a9_-209a","geometry":{"type":"LineString","coordinates":[[147679.78150622,169686.60279763],[147682.6527219,169685.83554539],[147689.23017949,169683.65218056]]},"geometry_name":"GEOM","properties":{"INSPIRE_ID":"https://databrussels.be/id/streetaxe/75346","TYPE":"S","HIERARCHY":"DR","LVL":0,"STARTSN_ID":"https://databrussels.be/id/streetnode/7646","ENDSN_ID":"https://databrussels.be/id/streetnode/7661","STRNAMEFRE":"Rue Ernest Blerot","STRNAMEDUT":"Ernest Blerotstraat","SLOPE":0.81,"LENGTH":9.90233169340823},"bbox":[147679.78150622,169683.65218056,147689.23017949,169686.60279763]},{"type":"Feature","id":"StreetAxes.fid--63af041f_1a0299052a9_-20b3","geometry":{"type":"LineString","coordinates":[[147686.05876826,169838.76988688],[147744.00050069,169836.61862977]]},"geometry_name":"GEOM","properties":{"INSPIRE_ID":"https://databrussels.be/id/streetaxe/75347","TYPE":"S","HIERARCHY":"MER","LVL":0,"STARTSN_ID":"https://databrussels.be/id/streetnode/7648","ENDSN_ID":"https://databrussels.be/id/streetnode/7271","STRNAMEFRE":"Place Bara","STRNAMEDUT":"Baraplein","SLOPE":1.16,"LENGTH":57.9816545470618},"bbox":[147686.05876826,169836.61862977,147744.00050069,169838.76988688]},{"type":"Feature","id":"StreetAxes.fid--63af041f_1a0299052a9_-2062","geometry":{"type":"LineString","coordinates":[[147437.16619567,169528.27879501],[147470.39887331,169502.39891728],[147489.65948847,169486.72785186],[147508.59153365,169471.54462555]]},"geometry_name":"GEOM","properties":{"INSPIRE_ID":"https://databrussels.be/id/streetaxe/75349","TYPE":"S","HIERARCHY":"MER","LVL":0,"STARTSN_ID":"https://databrussels.be/id/streetnode/7649","ENDSN_ID":"https://databrussels.be/id/streetnode/7967","STRNAMEFRE":"Rue de l'Instruction","STRNAMEDUT":"Onderwijsstraat","SLOPE":0.72,"LENGTH":91.2198482301681},"bbox":[147437.16619567,169471.54462555,147508.59153365,169528.27879501]},{"type":"Feature","id":"StreetAxes.fid--63af041f_1a0299052a9_-20a0","geometry":{"type":"LineString","coordinates":[[147704.23153529,170049.296401],[147709.08399161,170042.00578339],[147719.33798412,170025.32027722],[147735.4121683,169945.74060576],[147737.79353249,169932.58102725]]},"geometry_name":"GEOM","properties":{"INSPIRE_ID":"https://databrussels.be/id/streetaxe/75917","TYPE":"S","HIERARCHY":"DR","LVL":0,"STARTSN_ID":"https://databrussels.be/id/streetnode/7058","ENDSN_ID":"https://databrussels.be/id/streetnode/7666","STRNAMEFRE":"Rue Limnander","STRNAMEDUT":"Limnanderstraat","SLOPE":0.59,"LENGTH":122.90241880288},"bbox":[147704.23153529,169932.58102725,147737.79353249,170049.296401]},{"type":"Feature","id":"StreetAxes.fid--63af041f_1a0299052a9_-20a5","geometry":{"type":"LineString","coordinates":[[147678.00930349,169847.89373125],[147678.46922867,169860.0020906],[147678.9816431,169864.68704347],[147680.5937537,169868.50429079],[147693.11889994,169883.86668683],[147698.94813625,169894.62101942]]},"geometry_name":"GEOM","properties":{"INSPIRE_ID":"https://databrussels.be/id/streetaxe/76313","TYPE":"S","HIERARCHY":"IDR","LVL":0,"STARTSN_ID":"https://databrussels.be/id/streetnode/7262","ENDSN_ID":"https://databrussels.be/id/streetnode/7981","STRNAMEFRE":"Place Bara","STRNAMEDUT":"Baraplein","SLOPE":0.08,"LENGTH":53.0275162157142},"bbox":[147678.00930349,169847.89373125,147698.94813625,169894.62101942]},{"type":"Feature","id":"StreetAxes.fid--63af041f_1a0299052a9_-2080","geometry":{"type":"LineString","coordinates":[[147912.64990757,169584.30599033],[147917.17087786,169590.14055677],[147971.93760484,169658.60867542],[147977.12182875,169665.78304978]]},"geometry_name":"GEOM","properties":{"INSPIRE_ID":"https://databrussels.be/id/streetaxe/76314","TYPE":"S","HIERARCHY":"MAR","LVL":0,"STARTSN_ID":"https://databrussels.be/id/streetnode/7263","ENDSN_ID":"https://databrussels.be/id/streetnode/7984","STRNAMEFRE":"Avenue Fonsny","STRNAMEDUT":"Fonsnylaan","SLOPE":0.17,"LENGTH":103.909699767046},"bbox":[147912.64990757,169584.30599033,147977.12182875,169665.78304978]},{"type":"Feature","id":"StreetAxes.fid--63af041f_1a0299052a9_-2087","geometry":{"type":"LineString","coordinates":[[147864.88903713,169512.04163448],[147872.46835675,169522.51120321],[147918.61550898,169579.46420573]]},"geometry_name":"GEOM","properties":{"INSPIRE_ID":"https://databrussels.be/id/streetaxe/76581","TYPE":"S","HIERARCHY":"MAR","LVL":0,"STARTSN_ID":"https://databrussels.be/id/streetnode/7969","ENDSN_ID":"https://databrussels.be/id/streetnode/7038","STRNAMEFRE":"Avenue Fonsny","STRNAMEDUT":"Fonsnylaan","SLOPE":0.23,"LENGTH":86.2272330561647},"bbox":[147864.88903713,169512.04163448,147918.61550898,169579.46420573]},{"type":"Feature","id":"StreetAxes.fid--63af041f_1a0299052a9_-2065","geometry":{"type":"LineString","coordinates":[[147864.88903713,169512.04163448],[147938.975,169452.56],[147945.64,169447.213]]},"geometry_name":"GEOM","properties":{"INSPIRE_ID":"https://databrussels.be/id/streetaxe/76582","TYPE":"S","HIERARCHY":"DR","LVL":0,"STARTSN_ID":"https://databrussels.be/id/streetnode/7969","ENDSN_ID":"https://databrussels.be/id/streetnode/2888","STRNAMEFRE":"Rue d'Angleterre","STRNAMEDUT":"Engelandstraat","SLOPE":1.4,"LENGTH":103.554188560893},"bbox":[147864.88903713,169447.213,147945.64,169512.04163448]},{"type":"Feature","id":"StreetAxes.fid--63af041f_1a0299052a9_-209f","geometry":{"type":"LineString","coordinates":[[147737.79353249,169932.58102725],[147727.45624985,169924.31253191],[147715.96830461,169910.54963913]]},"geometry_name":"GEOM","properties":{"INSPIRE_ID":"https://databrussels.be/id/streetaxe/76630","TYPE":"S","HIERARCHY":"IDR","LVL":0,"STARTSN_ID":"https://databrussels.be/id/streetnode/7666","ENDSN_ID":"https://databrussels.be/id/streetnode/7654","STRNAMEFRE":"Place Bara","STRNAMEDUT":"Baraplein","SLOPE":0.29,"LENGTH":31.1647060142563},"bbox":[147715.96830461,169910.54963913,147737.79353249,169932.58102725]},{"type":"Feature","id":"StreetAxes.fid--63af041f_1a0299052a9_-20c1","geometry":{"type":"LineString","coordinates":[[147981.54674015,169671.90662226],[147986.55537446,169678.83800063],[148028.73288182,169731.64118303],[148040.43263871,169733.20826881]]},"geometry_name":"GEOM","properties":{"INSPIRE_ID":"https://databrussels.be/id/streetaxe/76631","TYPE":"S","HIERARCHY":"MAR","LVL":0,"STARTSN_ID":"https://databrussels.be/id/streetnode/7603","ENDSN_ID":"https://databrussels.be/id/streetnode/4544","STRNAMEFRE":"Place de la Constitution","STRNAMEDUT":"Grondwetplein","SLOPE":0.34,"LENGTH":87.9363295010607},"bbox":[147981.54674015,169671.90662226,148040.43263871,169733.20826881]},{"type":"Feature","id":"StreetAxes.fid--63af041f_1a0299052a9_-2069","geometry":{"type":"LineString","coordinates":[[147727.8868153,169359.3888731],[147783.83488369,169428.08983128],[147831.15316138,169486.4087346],[147842.6827316,169501.73929338],[147849.77156509,169512.36734073],[147854.32996362,169522.80025683]]},"geometry_name":"GEOM","properties":{"INSPIRE_ID":"https://databrussels.be/id/streetaxe/76632","TYPE":"S","HIERARCHY":"MAR","LVL":0,"STARTSN_ID":"https://databrussels.be/id/streetnode/7604","ENDSN_ID":"https://databrussels.be/id/streetnode/7651","STRNAMEFRE":"Avenue Fonsny","STRNAMEDUT":"Fonsnylaan","SLOPE":0.47,"LENGTH":207.043701969793},"bbox":[147727.8868153,169359.3888731,147854.32996362,169522.80025683]},{"type":"Feature","id":"StreetAxes.fid--63af041f_1a0299052a9_-2096","geometry":{"type":"LineString","coordinates":[[147702.19551731,169698.32672683],[147703.28220492,169694.64927668],[147705.32614472,169690.9757609],[147709.22521538,169686.74724316],[147713.69528292,169684.34327191],[147718.78480825,169683.15115549],[147723.654419,169683.44556749],[147729.21739036,169685.22183072],[147733.35751733,169687.91499326],[147737.33855816,169692.76064061],[147739.13074897,169697.38114652],[147739.39660636,169702.88914191],[147744.04470512,169769.09603804],[147745.88122492,169779.39314771],[147747.5378315,169805.86063735],[147746.50895112,169815.36242587]]},"geometry_name":"GEOM","properties":{"INSPIRE_ID":"https://databrussels.be/id/streetaxe/76633","TYPE":"S","HIERARCHY":"DR","LVL":0,"STARTSN_ID":"https://databrussels.be/id/streetnode/7605","ENDSN_ID":"https://databrussels.be/id/streetnode/7041","STRNAMEFRE":"Avenue Paul-Henri Spaak","STRNAMEDUT":"Paul-Henri Spaaklaan","SLOPE":0.29,"LENGTH":169.397911452199},"bbox":[147702.19551731,169683.15115549,147747.5378315,169815.36242587]},{"type":"Feature","id":"StreetAxes.fid--63af041f_1a0299052a9_-2098","geometry":{"type":"LineString","coordinates":[[147702.19551731,169698.32672683],[147700.35698114,169693.75507306],[147696.85624488,169689.2112383],[147689.23017949,169683.65218056]]},"geometry_name":"GEOM","properties":{"INSPIRE_ID":"https://databrussels.be/id/streetaxe/76634","TYPE":"S","HIERARCHY":"DR","LVL":0,"STARTSN_ID":"https://databrussels.be/id/streetnode/7605","ENDSN_ID":"https://databrussels.be/id/streetnode/7661","STRNAMEFRE":"Esplanade de l'Europe","STRNAMEDUT":"Europaesplanade","SLOPE":1.29,"LENGTH":20.1006487162518},"bbox":[147689.23017949,169683.65218056,147702.19551731,169698.32672683]},{"type":"Feature","id":"StreetAxes.fid--63af041f_1a0299052a9_-206c","geometry":{"type":"LineString","coordinates":[[147593.95515239,169701.70815034],[147642.15538703,169694.68819885],[147653.09810951,169692.74643035]]},"geometry_name":"GEOM","properties":{"INSPIRE_ID":"https://databrussels.be/id/streetaxe/76763","TYPE":"S","HIERARCHY":"DR","LVL":0,"STARTSN_ID":"https://databrussels.be/id/streetnode/7655","ENDSN_ID":"https://databrussels.be/id/streetnode/7964","STRNAMEFRE":"Rue Ernest Blerot","STRNAMEDUT":"Ernest Blerotstraat","SLOPE":1.35,"LENGTH":59.822419188451},"bbox":[147593.95515239,169692.74643035,147653.09810951,169701.70815034]},{"type":"Feature","id":"StreetAxes.fid--63af041f_1a0299052a9_-20bd","geometry":{"type":"LineString","coordinates":[[147987.719797,169666.89575897],[147992.70306614,169673.83984209],[148032.32936327,169723.54887721],[148040.43263871,169733.20826881]]},"geometry_name":"GEOM","properties":{"INSPIRE_ID":"https://databrussels.be/id/streetaxe/76764","TYPE":"S","HIERARCHY":"MAR","LVL":0,"STARTSN_ID":"https://databrussels.be/id/streetnode/7657","ENDSN_ID":"https://databrussels.be/id/streetnode/4544","STRNAMEFRE":"Place de la Constitution","STRNAMEDUT":"Grondwetplein","SLOPE":0.21,"LENGTH":84.726010375945},"bbox":[147987.719797,169666.89575897,148040.43263871,169733.20826881]},{"type":"Feature","id":"StreetAxes.fid--63af041f_1a0299052a9_-20a1","geometry":{"type":"LineString","coordinates":[[147715.96830461,169910.54963913],[147722.53436611,169912.73914634],[147726.95131604,169913.12282938],[147731.12593788,169912.27594334],[147734.52859068,169910.20481558],[147744.15322702,169900.21373666]]},"geometry_name":"GEOM","properties":{"INSPIRE_ID":"https://databrussels.be/id/streetaxe/76776","TYPE":"S","HIERARCHY":"IDR","LVL":0,"STARTSN_ID":"https://databrussels.be/id/streetnode/7654","ENDSN_ID":"https://databrussels.be/id/streetnode/7266","STRNAMEFRE":"Place Bara","STRNAMEDUT":"Baraplein","SLOPE":0.09,"LENGTH":33.4709796948599},"bbox":[147715.96830461,169900.21373666,147744.15322702,169913.12282938]},{"type":"Feature","id":"StreetAxes.fid--63af041f_1a0299052a9_-20a2","geometry":{"type":"LineString","coordinates":[[147715.96830461,169910.54963913],[147704.13326489,169897.27173499],[147698.94813625,169894.62101942]]},"geometry_name":"GEOM","properties":{"INSPIRE_ID":"https://databrussels.be/id/streetaxe/76777","TYPE":"S","HIERARCHY":"IDR","LVL":0,"STARTSN_ID":"https://databrussels.be/id/streetnode/7654","ENDSN_ID":"https://databrussels.be/id/streetnode/7981","STRNAMEFRE":"Place Bara","STRNAMEDUT":"Baraplein","SLOPE":0.04,"LENGTH":23.6102066197085},"bbox":[147698.94813625,169894.62101942,147715.96830461,169910.54963913]},{"type":"Feature","id":"StreetAxes.fid--63af041f_1a0299052a9_-2073","geometry":{"type":"LineString","coordinates":[[147593.95515239,169701.70815034],[147584.0545167,169699.96595181],[147572.80321215,169701.46367118],[147569.44378928,169701.19412237],[147566.27825303,169700.18864049],[147563.33628745,169698.57984536],[147560.68940084,169696.69646102],[147435.16142037,169541.72031623],[147437.16619567,169528.27879501]]},"geometry_name":"GEOM","properties":{"INSPIRE_ID":"https://databrussels.be/id/streetaxe/76778","TYPE":"S","HIERARCHY":"DR","LVL":0,"STARTSN_ID":"https://databrussels.be/id/streetnode/7655","ENDSN_ID":"https://databrussels.be/id/streetnode/7649","STRNAMEFRE":"Rue Ernest Blerot","STRNAMEDUT":"Ernest Blerotstraat","SLOPE":0.02,"LENGTH":247.723194220813},"bbox":[147435.16142037,169528.27879501,147593.95515239,169701.70815034]},{"type":"Feature","id":"StreetAxes.fid--63af041f_1a0299052a9_-208a","geometry":{"type":"LineString","coordinates":[[147854.32996362,169522.80025683],[147870.43046656,169531.84765347],[147912.64990757,169584.30599033]]},"geometry_name":"GEOM","properties":{"INSPIRE_ID":"https://databrussels.be/id/streetaxe/77019","TYPE":"S","HIERARCHY":"MAR","LVL":0,"STARTSN_ID":"https://databrussels.be/id/streetnode/7651","ENDSN_ID":"https://databrussels.be/id/streetnode/7263","STRNAMEFRE":"Avenue Fonsny","STRNAMEDUT":"Fonsnylaan","SLOPE":0.24,"LENGTH":85.8060381501398},"bbox":[147854.32996362,169522.80025683,147912.64990757,169584.30599033]},{"type":"Feature","id":"StreetAxes.fid--63af041f_1a0299052a9_-2085","geometry":{"type":"LineString","coordinates":[[147870.53717949,169751.12945839],[147872.77166024,169751.37968634],[147875.22771559,169751.22057473],[147878.36325973,169750.45266893],[147888.66975954,169743.00643804]]},"geometry_name":"GEOM","properties":{"INSPIRE_ID":"https://databrussels.be/id/streetaxe/77020","TYPE":"S","HIERARCHY":"DR","LVL":0,"STARTSN_ID":"https://databrussels.be/id/streetnode/7652","ENDSN_ID":"https://databrussels.be/id/streetnode/7274","STRNAMEFRE":"Esplanade de l'Europe","STRNAMEDUT":"Europaesplanade","SLOPE":0.48,"LENGTH":20.6528215289909},"bbox":[147870.53717949,169743.00643804,147888.66975954,169751.37968634]},{"type":"Feature","id":"StreetAxes.fid--63af041f_1a0299052a9_-208d","geometry":{"type":"LineString","coordinates":[[147870.53717949,169751.12945839],[147803.79709727,169804.70852412],[147801.71541367,169806.91315907],[147800.31510872,169809.45010524],[147800.03681468,169812.55479973],[147800.49511638,169814.91846178],[147801.63185757,169817.4898094]]},"geometry_name":"GEOM","properties":{"INSPIRE_ID":"https://databrussels.be/id/streetaxe/77021","TYPE":"S","HIERARCHY":"DR","LVL":0,"STARTSN_ID":"https://databrussels.be/id/streetnode/7652","ENDSN_ID":"https://databrussels.be/id/streetnode/7270","STRNAMEFRE":"Rue de l'Argonne","STRNAMEDUT":"Argonnestraat","SLOPE":0.15,"LENGTH":99.8520632263879},"bbox":[147800.03681468,169751.12945839,147870.53717949,169817.4898094]},{"type":"Feature","id":"StreetAxes.fid--63af041f_1a0299052a9_-207b","geometry":{"type":"LineString","coordinates":[[147607.372,169969.679],[147599.304,169976.444],[147479.236,170077.248],[147471.845,170083.268]]},"geometry_name":"GEOM","properties":{"INSPIRE_ID":"https://databrussels.be/id/streetaxe/77052","TYPE":"S","HIERARCHY":"IDR","LVL":0,"STARTSN_ID":"https://databrussels.be/id/streetnode/2086","ENDSN_ID":"https://databrussels.be/id/streetnode/10448","STRNAMEFRE":"Avenue Clemenceau","STRNAMEDUT":"Clemenceaulaan","SLOPE":0.2,"LENGTH":176.834330575651},"bbox":[147471.845,169969.679,147607.372,170083.268]},{"type":"Feature","id":"StreetAxes.fid--63af041f_1a0299052a9_-2076","geometry":{"type":"LineString","coordinates":[[147554.748,169912.7],[147562.568,169905.25],[147605.712,169864.534],[147611.754,169858.832],[147611.489,169847.674]]},"geometry_name":"GEOM","properties":{"INSPIRE_ID":"https://databrussels.be/id/streetaxe/77109","TYPE":"S","HIERARCHY":"DR","LVL":0,"STARTSN_ID":"https://databrussels.be/id/streetnode/12233","ENDSN_ID":"https://databrussels.be/id/streetnode/789","STRNAMEFRE":"Rue Sergent De Bruyne","STRNAMEDUT":"Sergeant De Bruynestraat","SLOPE":0.66,"LENGTH":89.5924011780894},"bbox":[147554.748,169847.674,147611.754,169912.7]},{"type":"Feature","id":"StreetAxes.fid--63af041f_1a0299052a9_-207e","geometry":{"type":"LineString","coordinates":[[147938.93759621,169821.06217279],[147949.18248586,169804.3227836]]},"geometry_name":"GEOM","properties":{"INSPIRE_ID":"https://databrussels.be/id/streetaxe/77363","TYPE":"S","HIERARCHY":"DR","LVL":0,"STARTSN_ID":"https://databrussels.be/id/streetnode/","ENDSN_ID":"https://databrussels.be/id/streetnode/","STRNAMEFRE":"Esplanade de l'Europe","STRNAMEDUT":"Europaesplanade","SLOPE":0.86,"LENGTH":19.6256188249172},"bbox":[147938.93759621,169804.3227836,147949.18248586,169821.06217279]},{"type":"Feature","id":"StreetAxes.fid--63af041f_1a0299052a9_-20a8","geometry":{"type":"LineString","coordinates":[[147685.0254094,169847.88012277],[147737.94576196,169847.7774781],[147754.65885597,169852.84996849]]},"geometry_name":"GEOM","properties":{"INSPIRE_ID":"https://databrussels.be/id/streetaxe/77372","TYPE":"S","HIERARCHY":"MER","LVL":0,"STARTSN_ID":"https://databrussels.be/id/streetnode/7663","ENDSN_ID":"https://databrussels.be/id/streetnode/7650","STRNAMEFRE":"Place Bara","STRNAMEDUT":"Baraplein","SLOPE":0.82,"LENGTH":70.3863523228124},"bbox":[147685.0254094,169847.7774781,147754.65885597,169852.84996849]},{"type":"Feature","id":"StreetAxes.fid--63af041f_1a0299052a9_-20c0","geometry":{"type":"LineString","coordinates":[[147981.72511869,169658.54229794],[148042.19850763,169609.89509019],[148045.42242744,169607.85357237]]},"geometry_name":"GEOM","properties":{"INSPIRE_ID":"https://databrussels.be/id/streetaxe/78031","TYPE":"S","HIERARCHY":"DR","LVL":0,"STARTSN_ID":"https://databrussels.be/id/streetnode/7279","ENDSN_ID":"https://databrussels.be/id/streetnode/4995","STRNAMEFRE":"Rue de l'Argonne","STRNAMEDUT":"Argonnestraat","SLOPE":1.22,"LENGTH":81.4276834951232},"bbox":[147981.72511869,169607.85357237,148045.42242744,169658.54229794]},{"type":"Feature","id":"StreetAxes.fid--63af041f_1a0299052a9_-2084","geometry":{"type":"LineString","coordinates":[[147888.66975954,169743.00643804],[147899.62631049,169738.4039968],[147981.54674015,169671.90662226]]},"geometry_name":"GEOM","properties":{"INSPIRE_ID":"https://databrussels.be/id/streetaxe/78049","TYPE":"S","HIERARCHY":"DR","LVL":0,"STARTSN_ID":"https://databrussels.be/id/streetnode/7274","ENDSN_ID":"https://databrussels.be/id/streetnode/7603","STRNAMEFRE":"Rue de l'Argonne","STRNAMEDUT":"Argonnestraat","SLOPE":0.16,"LENGTH":117.396316332709},"bbox":[147888.66975954,169671.90662226,147981.54674015,169743.00643804]},{"type":"Feature","id":"StreetAxes.fid--63af041f_1a0299052a9_-2077","geometry":{"type":"LineString","coordinates":[[147607.372,169969.679],[147599.326,169960.88],[147559.949,169918.498],[147554.748,169912.7]]},"geometry_name":"GEOM","properties":{"INSPIRE_ID":"https://databrussels.be/id/streetaxe/78091","TYPE":"S","HIERARCHY":"DR","LVL":0,"STARTSN_ID":"https://databrussels.be/id/streetnode/2086","ENDSN_ID":"https://databrussels.be/id/streetnode/12233","STRNAMEFRE":"Rue Brogniez","STRNAMEDUT":"Brogniezstraat","SLOPE":0.09,"LENGTH":77.5634030575715},"bbox":[147554.748,169912.7,147607.372,169969.679]},{"type":"Feature","id":"StreetAxes.fid--63af041f_1a0299052a9_-20bb","geometry":{"type":"LineString","coordinates":[[147744.00050069,169836.61862977],[147746.19582172,169827.99927223],[147745.12688272,169819.34548555],[147746.50895112,169815.36242587]]},"geometry_name":"GEOM","properties":{"INSPIRE_ID":"https://databrussels.be/id/streetaxe/78114","TYPE":"S","HIERARCHY":"DR","LVL":0,"STARTSN_ID":"https://databrussels.be/id/streetnode/7271","ENDSN_ID":"https://databrussels.be/id/streetnode/7041","STRNAMEFRE":"Place Bara","STRNAMEDUT":"Baraplein","SLOPE":0.18,"LENGTH":21.8301174697208},"bbox":[147744.00050069,169815.36242587,147746.50895112,169836.61862977]},{"type":"Feature","id":"StreetAxes.fid--63af041f_1a0299052a9_-2066","geometry":{"type":"LineString","coordinates":[[147804.41467451,169436.19063838],[147847.55571993,169489.38195725],[147860.33276886,169505.74790809],[147864.88903713,169512.04163448]]},"geometry_name":"GEOM","properties":{"INSPIRE_ID":"https://databrussels.be/id/streetaxe/78116","TYPE":"S","HIERARCHY":"MAR","LVL":0,"STARTSN_ID":"https://databrussels.be/id/streetnode/7272","ENDSN_ID":"https://databrussels.be/id/streetnode/7969","STRNAMEFRE":"Avenue Fonsny","STRNAMEDUT":"Fonsnylaan","SLOPE":0.48,"LENGTH":97.0197119510153},"bbox":[147804.41467451,169436.19063838,147864.88903713,169512.04163448]},{"type":"Feature","id":"StreetAxes.fid--63af041f_1a0299052a9_-207c","geometry":{"type":"LineString","coordinates":[[147424.33928693,170035.34784127],[147431.622,170028.692],[147547.22602805,169919.87056583],[147554.748,169912.7]]},"geometry_name":"GEOM","properties":{"INSPIRE_ID":"https://databrussels.be/id/streetaxe/78238","TYPE":"S","HIERARCHY":"DR","LVL":0,"STARTSN_ID":"https://databrussels.be/id/streetnode/10449","ENDSN_ID":"https://databrussels.be/id/streetnode/12233","STRNAMEFRE":"Rue Sergent De Bruyne","STRNAMEDUT":"Sergeant De Bruynestraat","SLOPE":0.04,"LENGTH":179.023395509918},"bbox":[147424.33928693,169912.7,147554.748,170035.34784127]},{"type":"Feature","id":"StreetAxes.fid--63af041f_1a0299052a9_-2082","geometry":{"type":"LineString","coordinates":[[147949.18248586,169804.3227836],[147915.82274706,169781.6640267],[147903.77833668,169773.44002444]]},"geometry_name":"GEOM","properties":{"INSPIRE_ID":"https://databrussels.be/id/streetaxe/78391","TYPE":"S","HIERARCHY":"DR","LVL":0,"STARTSN_ID":"https://databrussels.be/id/streetnode/7264","ENDSN_ID":"https://databrussels.be/id/streetnode/7039","STRNAMEFRE":"Esplanade de l'Europe","STRNAMEDUT":"Europaesplanade","SLOPE":0.3,"LENGTH":54.9116116905638},"bbox":[147903.77833668,169773.44002444,147949.18248586,169804.3227836]},{"type":"Feature","id":"StreetAxes.fid--63af041f_1a0299052a9_-20a3","geometry":{"type":"LineString","coordinates":[[147744.15322702,169900.21373666],[147754.65885597,169852.84996849]]},"geometry_name":"GEOM","properties":{"INSPIRE_ID":"https://databrussels.be/id/streetaxe/78394","TYPE":"S","HIERARCHY":"IDR","LVL":0,"STARTSN_ID":"https://databrussels.be/id/streetnode/7266","ENDSN_ID":"https://databrussels.be/id/streetnode/7650","STRNAMEFRE":"Place Bara","STRNAMEDUT":"Baraplein","SLOPE":1.22,"LENGTH":48.5148922979936},"bbox":[147744.15322702,169852.84996849,147754.65885597,169900.21373666]},{"type":"Feature","id":"StreetAxes.fid--63af041f_1a0299052a9_-209e","geometry":{"type":"LineString","coordinates":[[147744.15322702,169900.21373666],[147739.92409879,169920.80737479],[147737.79353249,169932.58102725]]},"geometry_name":"GEOM","properties":{"INSPIRE_ID":"https://databrussels.be/id/streetaxe/78395","TYPE":"S","HIERARCHY":"IDR","LVL":0,"STARTSN_ID":"https://databrussels.be/id/streetnode/7266","ENDSN_ID":"https://databrussels.be/id/streetnode/7666","STRNAMEFRE":"Place Bara","STRNAMEDUT":"Baraplein","SLOPE":0.36,"LENGTH":32.9882764075964},"bbox":[147737.79353249,169900.21373666,147744.15322702,169932.58102725]},{"type":"Feature","id":"StreetAxes.fid--63af041f_1a0299052a9_-209c","geometry":{"type":"LineString","coordinates":[[147641.69263025,169642.48029224],[147646.94156509,169641.39744936],[147652.89396543,169643.94213013],[147655.76194013,169647.13651662],[147658.7381403,169653.09215245],[147662.90482054,169659.318499],[147673.72736661,169673.39545643],[147674.77181047,169676.17250848],[147679.78150622,169686.60279763]]},"geometry_name":"GEOM","properties":{"INSPIRE_ID":"https://databrussels.be/id/streetaxe/78396","TYPE":"S","HIERARCHY":"DR","LVL":0,"STARTSN_ID":"https://databrussels.be/id/streetnode/7267","ENDSN_ID":"https://databrussels.be/id/streetnode/7646","STRNAMEFRE":"Place Victor Horta","STRNAMEDUT":"Victor Hortaplein","SLOPE":0.11,"LENGTH":62.5700348956392},"bbox":[147641.69263025,169641.39744936,147679.78150622,169686.60279763]},{"type":"Feature","id":"StreetAxes.fid--63af041f_1a0299052a9_-2095","geometry":{"type":"LineString","coordinates":[[147722.96052793,169817.40370421],[147720.43574891,169810.23918766],[147713.6364175,169706.17563985],[147713.13130002,169705.84360816],[147711.0113112,169701.56125996],[147710.89449459,169697.76851277],[147712.25320695,169694.23496379],[147714.57651877,169691.84349358],[147717.48241006,169690.22424693],[147720.8513722,169689.79037698],[147724.1460109,169690.59205749],[147727.26387727,169692.66823043],[147729.38593242,169695.80308462],[147730.0551829,169699.73167187],[147729.47811278,169702.65835533],[147728.43927515,169704.38603081],[147735.40597245,169815.36120054]]},"geometry_name":"GEOM","properties":{"INSPIRE_ID":"https://databrussels.be/id/streetaxe/78397","TYPE":"S","HIERARCHY":"DR","LVL":0,"STARTSN_ID":"https://databrussels.be/id/streetnode/7269","ENDSN_ID":"https://databrussels.be/id/streetnode/7983","STRNAMEFRE":"Avenue Paul-Henri Spaak","STRNAMEDUT":"Paul-Henri Spaaklaan","SLOPE":0.05,"LENGTH":266.00254275303},"bbox":[147710.89449459,169689.79037698,147735.40597245,169817.40370421]},{"type":"Feature","id":"StreetAxes.fid--63af041f_1a0299052a9_-209d","geometry":{"type":"LineString","coordinates":[[147881.54845232,170026.02441746],[147882.44744141,170020.01647589],[147876.05028808,170013.6321803],[147750.37319556,169942.64313826],[147737.79353249,169932.58102725]]},"geometry_name":"GEOM","properties":{"INSPIRE_ID":"https://databrussels.be/id/streetaxe/78405","TYPE":"S","HIERARCHY":"DR","LVL":0,"STARTSN_ID":"https://databrussels.be/id/streetnode/7963","ENDSN_ID":"https://databrussels.be/id/streetnode/7666","STRNAMEFRE":"Rue de l'Autonomie","STRNAMEDUT":"Zelfbestuursstraat","SLOPE":0.08,"LENGTH":175.561985149691},"bbox":[147737.79353249,169932.58102725,147882.44744141,170026.02441746]},{"type":"Feature","id":"StreetAxes.fid--63af041f_1a0299052a9_-209b","geometry":{"type":"LineString","coordinates":[[147653.09810951,169692.74643035],[147657.93580214,169691.88798958],[147668.27744162,169689.69997635],[147673.33381718,169688.32576254],[147679.78150622,169686.60279763]]},"geometry_name":"GEOM","properties":{"INSPIRE_ID":"https://databrussels.be/id/streetaxe/78407","TYPE":"S","HIERARCHY":"DR","LVL":0,"STARTSN_ID":"https://databrussels.be/id/streetnode/7964","ENDSN_ID":"https://databrussels.be/id/streetnode/7646","STRNAMEFRE":"Rue Ernest Blerot","STRNAMEDUT":"Ernest Blerotstraat","SLOPE":0.69,"LENGTH":27.3975517115255},"bbox":[147653.09810951,169686.60279763,147679.78150622,169692.74643035]},{"type":"Feature","id":"StreetAxes.fid--63af041f_1a0299052a9_-2083","geometry":{"type":"LineString","coordinates":[[147888.66975954,169743.00643804],[147893.93744847,169733.64252316],[147977.12182875,169665.78304978]]},"geometry_name":"GEOM","properties":{"INSPIRE_ID":"https://databrussels.be/id/streetaxe/78473","TYPE":"S","HIERARCHY":"DR","LVL":0,"STARTSN_ID":"https://databrussels.be/id/streetnode/7274","ENDSN_ID":"https://databrussels.be/id/streetnode/7984","STRNAMEFRE":"Rue de l'Argonne","STRNAMEDUT":"Argonnestraat","SLOPE":0.14,"LENGTH":118.096356243345},"bbox":[147888.66975954,169665.78304978,147977.12182875,169743.00643804]},{"type":"Feature","id":"StreetAxes.fid--63af041f_1a0299052a9_-208c","geometry":{"type":"LineString","coordinates":[[147801.63185757,169817.4898094],[147803.14664017,169818.70841185],[147805.78704763,169819.97357012],[147808.61202593,169820.27853403],[147909.68908449,169818.88492629],[147912.99516722,169817.70311221],[147915.63927615,169815.78998456],[147916.83448911,169813.52825776],[147917.43824834,169810.6470499],[147917.47358727,169799.37165564],[147916.82040875,169796.84867909],[147902.27080941,169775.64786394],[147903.77833668,169773.44002444]]},"geometry_name":"GEOM","properties":{"INSPIRE_ID":"https://databrussels.be/id/streetaxe/79433","TYPE":"S","HIERARCHY":null,"LVL":0,"STARTSN_ID":"https://databrussels.be/id/streetnode/7270","ENDSN_ID":"https://databrussels.be/id/streetnode/7039","STRNAMEFRE":"Boulevard Jamar","STRNAMEDUT":"Jamarlaan","SLOPE":0.15,"LENGTH":163.344702177194},"bbox":[147801.63185757,169773.44002444,147917.47358727,169820.27853403]},{"type":"Feature","id":"StreetAxes.fid--63af041f_1a0299052a9_-20c8","geometry":{"type":"LineString","coordinates":[[148036.76271708,169961.00839771],[148030.75014009,169959.94598955],[148023.83407677,169959.75754184],[148016.05138406,169958.410961],[148007.73506876,169955.23042624],[148001.2727091,169950.67165976],[147995.97569298,169945.90085763]]},"geometry_name":"GEOM","properties":{"INSPIRE_ID":"https://databrussels.be/id/streetaxe/79553","TYPE":"S","HIERARCHY":"MER","LVL":0,"STARTSN_ID":"https://databrussels.be/id/streetnode/5441","ENDSN_ID":"https://databrussels.be/id/streetnode/3821","STRNAMEFRE":"Boulevard du Midi","STRNAMEDUT":"Zuidlaan","SLOPE":1.3,"LENGTH":44.8636785301243},"bbox":[147995.97569298,169945.90085763,148036.76271708,169961.00839771]},{"type":"Feature","id":"StreetAxes.fid--63af041f_1a0299052a9_-20bc","geometry":{"type":"LineString","coordinates":[[148054.24858242,169585.31246731],[148050.682,169583.219],[148004.204,169522.924],[147998.057,169515.18]]},"geometry_name":"GEOM","properties":{"INSPIRE_ID":"https://databrussels.be/id/streetaxe/79936","TYPE":"S","HIERARCHY":"DC","LVL":0,"STARTSN_ID":"https://databrussels.be/id/streetnode/4998","ENDSN_ID":"https://databrussels.be/id/streetnode/1768","STRNAMEFRE":"Rue de Mérode","STRNAMEDUT":"de Mérodestraat","SLOPE":0.45,"LENGTH":90.152150651451},"bbox":[147998.057,169515.18,148054.24858242,169585.31246731]},{"type":"Feature","id":"StreetAxes.fid--63af041f_1a0299052a9_-2072","geometry":{"type":"LineString","coordinates":[[147565.637,169848.358],[147565.49,169838.37],[147560.802,169830.693],[147447.888,169692.878],[147442.002,169684.801]]},"geometry_name":"GEOM","properties":{"INSPIRE_ID":"https://databrussels.be/id/streetaxe/80532","TYPE":"S","HIERARCHY":"DR","LVL":0,"STARTSN_ID":"https://databrussels.be/id/streetnode/210","ENDSN_ID":"https://databrussels.be/id/streetnode/12237","STRNAMEFRE":"Rue Grisar","STRNAMEDUT":"Grisarstraat","SLOPE":0.23,"LENGTH":207.142807094485},"bbox":[147442.002,169684.801,147565.637,169848.358]},{"type":"Feature","id":"StreetAxes.fid--63af041f_1a0299052a9_-207f","geometry":{"type":"LineString","coordinates":[[147918.61550898,169579.46420573],[147923.2062415,169585.24751317],[147977.84104172,169653.1299165],[147981.72511869,169658.54229794]]},"geometry_name":"GEOM","properties":{"INSPIRE_ID":"https://databrussels.be/id/streetaxe/81068","TYPE":"S","HIERARCHY":"MAR","LVL":0,"STARTSN_ID":"https://databrussels.be/id/streetnode/7038","ENDSN_ID":"https://databrussels.be/id/streetnode/7279","STRNAMEFRE":"Avenue Fonsny","STRNAMEDUT":"Fonsnylaan","SLOPE":0.12,"LENGTH":101.18341062436},"bbox":[147918.61550898,169579.46420573,147981.72511869,169658.54229794]},{"type":"Feature","id":"StreetAxes.fid--63af041f_1a0299052a9_-20c6","geometry":{"type":"LineString","coordinates":[[147918.61550898,169579.46420573],[147990.885,169521.125],[147998.057,169515.18]]},"geometry_name":"GEOM","properties":{"INSPIRE_ID":"https://databrussels.be/id/streetaxe/81069","TYPE":"S","HIERARCHY":"DR","LVL":0,"STARTSN_ID":"https://databrussels.be/id/streetnode/7038","ENDSN_ID":"https://databrussels.be/id/streetnode/1768","STRNAMEFRE":"Rue de Russie","STRNAMEDUT":"Ruslandstraat","SLOPE":1.34,"LENGTH":102.193715331807},"bbox":[147918.61550898,169515.18,147998.057,169579.46420573]},{"type":"Feature","id":"StreetAxes.fid--63af041f_1a0299052a9_-2086","geometry":{"type":"LineString","coordinates":[[147903.77833668,169773.44002444],[147898.23130178,169769.65247269],[147880.2007119,169756.62185673],[147870.53717949,169751.12945839]]},"geometry_name":"GEOM","properties":{"INSPIRE_ID":"https://databrussels.be/id/streetaxe/81070","TYPE":"S","HIERARCHY":"DR","LVL":0,"STARTSN_ID":"https://databrussels.be/id/streetnode/7039","ENDSN_ID":"https://databrussels.be/id/streetnode/7652","STRNAMEFRE":"Esplanade de l'Europe","STRNAMEDUT":"Europaesplanade","SLOPE":1,"LENGTH":40.0784272952553},"bbox":[147870.53717949,169751.12945839,147903.77833668,169773.44002444]},{"type":"Feature","id":"StreetAxes.fid--63af041f_1a0299052a9_-207a","geometry":{"type":"LineString","coordinates":[[147506.22327383,169860.0057908],[147496.154,169849.164]]},"geometry_name":"GEOM","properties":{"INSPIRE_ID":"https://databrussels.be/id/streetaxe/82610","TYPE":"S","HIERARCHY":"DR","LVL":0,"STARTSN_ID":"https://databrussels.be/id/streetnode/10942","ENDSN_ID":"https://databrussels.be/id/streetnode/12235","STRNAMEFRE":"Rue Brogniez","STRNAMEDUT":"Brogniezstraat","SLOPE":0.41,"LENGTH":14.7964422457765},"bbox":[147496.154,169849.164,147506.22327383,169860.0057908]},{"type":"Feature","id":"StreetAxes.fid--63af041f_1a0299052a9_-20b9","geometry":{"type":"LineString","coordinates":[[147985.86873827,169831.99831189],[147976.79123253,169844.40865367]]},"geometry_name":"GEOM","properties":{"INSPIRE_ID":"https://databrussels.be/id/streetaxe/83977","TYPE":"S","HIERARCHY":"MER","LVL":0,"STARTSN_ID":"https://databrussels.be/id/streetnode/7658","ENDSN_ID":"https://databrussels.be/id/streetnode/7057","STRNAMEFRE":"Boulevard Poincaré","STRNAMEDUT":"Poincarélaan","SLOPE":0.69,"LENGTH":15.3758802568802},"bbox":[147976.79123253,169831.99831189,147985.86873827,169844.40865367]},{"type":"Feature","id":"StreetAxes.fid--63af041f_1a0299052a9_-20ab","geometry":{"type":"LineString","coordinates":[[147955.22866505,169844.40865367],[147969.75267423,169845.86211713],[147976.79123253,169844.40865367]]},"geometry_name":"GEOM","properties":{"INSPIRE_ID":"https://databrussels.be/id/streetaxe/83978","TYPE":"S","HIERARCHY":"MER","LVL":0,"STARTSN_ID":"https://databrussels.be/id/streetnode/","ENDSN_ID":"https://databrussels.be/id/streetnode/","STRNAMEFRE":"Boulevard Jamar","STRNAMEDUT":"Jamarlaan","SLOPE":0.01,"LENGTH":21.7836162581447},"bbox":[147955.22866505,169844.40865367,147976.79123253,169845.86211713]},{"type":"Feature","id":"StreetAxes.fid--63af041f_1a0299052a9_-20c7","geometry":{"type":"LineString","coordinates":[[147999.50073167,170069.05896706],[148015.27,170000],[148022.5076635,169969.70334005]]},"geometry_name":"GEOM","properties":{"INSPIRE_ID":"https://databrussels.be/id/streetaxe/84516","TYPE":"AC","HIERARCHY":"MAR","LVL":0,"STARTSN_ID":"https://databrussels.be/id/streetnode/10945","ENDSN_ID":"https://databrussels.be/id/streetnode/13762","STRNAMEFRE":"Boulevard du Midi","STRNAMEDUT":"Zuidlaan","SLOPE":3.85,"LENGTH":101.98568662197},"bbox":[147999.50073167,169969.70334005,148022.5076635,170069.05896706]},{"type":"Feature","id":"StreetAxes.fid--63af041f_1a0299052a9_-207d","geometry":{"type":"LineString","coordinates":[[147382.26166052,169990.99345402],[147388.43,169984.474],[147499.47646578,169867.10654167],[147502.679,169863.736],[147506.22327383,169860.0057908]]},"geometry_name":"GEOM","properties":{"INSPIRE_ID":"https://databrussels.be/id/streetaxe/84607","TYPE":"S","HIERARCHY":"DR","LVL":0,"STARTSN_ID":"https://databrussels.be/id/streetnode/12231","ENDSN_ID":"https://databrussels.be/id/streetnode/10942","STRNAMEFRE":"Rue Jorez","STRNAMEDUT":"Jorezstraat","SLOPE":0.13,"LENGTH":180.344827874795},"bbox":[147382.26166052,169860.0057908,147506.22327383,169990.99345402]},{"type":"Feature","id":"StreetAxes.fid--63af041f_1a0299052a9_-2078","geometry":{"type":"LineString","coordinates":[[147554.748,169912.7],[147549.624,169906.987],[147514.671457,169869.1021205],[147506.22327383,169860.0057908]]},"geometry_name":"GEOM","properties":{"INSPIRE_ID":"https://databrussels.be/id/streetaxe/84608","TYPE":"S","HIERARCHY":"DR","LVL":0,"STARTSN_ID":"https://databrussels.be/id/streetnode/12233","ENDSN_ID":"https://databrussels.be/id/streetnode/10942","STRNAMEFRE":"Rue Brogniez","STRNAMEDUT":"Brogniezstraat","SLOPE":0.03,"LENGTH":71.6340889360848},"bbox":[147506.22327383,169860.0057908,147554.748,169912.7]},{"type":"Feature","id":"StreetAxes.fid--63af041f_1a0299052a9_-2067","geometry":{"type":"LineString","coordinates":[[147998.057,169515.18],[148005.624,169509.214],[148083.02816665,169447.79247598],[148108.94423775,169427.12154004]]},"geometry_name":"GEOM","properties":{"INSPIRE_ID":"https://databrussels.be/id/streetaxe/84974","TYPE":"S","HIERARCHY":"DC","LVL":0,"STARTSN_ID":"https://databrussels.be/id/streetnode/1768","ENDSN_ID":"https://databrussels.be/id/streetnode/4213","STRNAMEFRE":"Rue de Russie","STRNAMEDUT":"Ruslandstraat","SLOPE":2.23,"LENGTH":141.599124165897},"bbox":[147998.057,169427.12154004,148108.94423775,169515.18]},{"type":"Feature","id":"StreetAxes.fid--63af041f_1a0299052a9_-2079","geometry":{"type":"LineString","coordinates":[[147565.637,169848.358],[147557.926,169848.544],[147530.844,169848.906],[147496.154,169849.164]]},"geometry_name":"GEOM","properties":{"INSPIRE_ID":"https://databrussels.be/id/streetaxe/86839","TYPE":"SC","HIERARCHY":"DR","LVL":0,"STARTSN_ID":"https://databrussels.be/id/streetnode/210","ENDSN_ID":"https://databrussels.be/id/streetnode/12235","STRNAMEFRE":"Rue de Fiennes","STRNAMEDUT":"de Fiennesstraat","SLOPE":0.46,"LENGTH":69.4886216461343},"bbox":[147496.154,169848.358,147565.637,169849.164]},{"type":"Feature","id":"StreetAxes.fid--63af041f_1a0299052a9_-2068","geometry":{"type":"LineString","coordinates":[[147736.20652922,169359.89349525],[147737.87421884,169361.9449365],[147805.16831358,169445.23009832],[147838.2042142,169485.9542204],[147843.34495324,169492.30867802],[147847.49072274,169498.54831483],[147849.29827864,169501.86331889],[147851.78044022,169507.87508038],[147852.51943034,169510.64506462],[147854.32996362,169522.80025683]]},"geometry_name":"GEOM","properties":{"INSPIRE_ID":"https://databrussels.be/id/streetaxe/87505","TYPE":"C","HIERARCHY":"MAR","LVL":0,"STARTSN_ID":"https://databrussels.be/id/streetnode/7659","ENDSN_ID":"https://databrussels.be/id/streetnode/7651","STRNAMEFRE":"Avenue Fonsny","STRNAMEDUT":"Fonsnylaan","SLOPE":0.44,"LENGTH":203.257735060717},"bbox":[147736.20652922,169359.89349525,147854.32996362,169522.80025683]},{"type":"Feature","id":"StreetAxes.fid--63af041f_1a0299052a9_-20b7","geometry":{"type":"LineString","coordinates":[[147793.85811829,169834.6774834],[147805.03130351,169834.27523051],[147920.28326097,169833.01864774]]},"geometry_name":"GEOM","properties":{"INSPIRE_ID":"https://databrussels.be/id/streetaxe/87507","TYPE":"C","HIERARCHY":"DR","LVL":0,"STARTSN_ID":"https://databrussels.be/id/streetnode/7278","ENDSN_ID":"https://databrussels.be/id/streetnode/7280","STRNAMEFRE":"Boulevard Jamar","STRNAMEDUT":"Jamarlaan","SLOPE":0.12,"LENGTH":126.439231225961},"bbox":[147793.85811829,169833.01864774,147920.28326097,169834.6774834]},{"type":"Feature","id":"StreetAxes.fid--63af041f_1a0299052a9_-2081","geometry":{"type":"LineString","coordinates":[[147912.64990757,169584.30599033],[147918.61550898,169579.46420573]]},"geometry_name":"GEOM","properties":{"INSPIRE_ID":"https://databrussels.be/id/streetaxe/87508","TYPE":"I","HIERARCHY":"MAR","LVL":0,"STARTSN_ID":"https://databrussels.be/id/streetnode/7263","ENDSN_ID":"https://databrussels.be/id/streetnode/7038","STRNAMEFRE":"Avenue Fonsny","STRNAMEDUT":"Fonsnylaan","SLOPE":1.3,"LENGTH":7.68318152341765},"bbox":[147912.64990757,169579.46420573,147918.61550898,169584.30599033]},{"type":"Feature","id":"StreetAxes.fid--63af041f_1a0299052a9_-20b1","geometry":{"type":"LineString","coordinates":[[147662.44551602,169846.30009818],[147667.09086799,169846.01532939],[147671.38513042,169845.38906227],[147675.17965934,169844.3720226],[147679.2978419,169842.75504335],[147683.22605286,169840.70096758],[147686.05876826,169838.76988688]]},"geometry_name":"GEOM","properties":{"INSPIRE_ID":"https://databrussels.be/id/streetaxe/87509","TYPE":"IC","HIERARCHY":"MER","LVL":0,"STARTSN_ID":"https://databrussels.be/id/streetnode/7276","ENDSN_ID":"https://databrussels.be/id/streetnode/7648","STRNAMEFRE":"Place Bara","STRNAMEDUT":"Baraplein","SLOPE":0.48,"LENGTH":25.2076364418772},"bbox":[147662.44551602,169838.76988688,147686.05876826,169846.30009818]},{"type":"Feature","id":"StreetAxes.fid--63af041f_1a0299052a9_-208f","geometry":{"type":"LineString","coordinates":[[147758.62589451,169816.50795734],[147761.13148747,169817.23548253],[147766.08719871,169818.87171979],[147771.10628393,169820.80847519],[147776.48645589,169823.44685715],[147781.45687797,169826.65089816],[147792.18412989,169833.78000294],[147793.85811829,169834.6774834]]},"geometry_name":"GEOM","properties":{"INSPIRE_ID":"https://databrussels.be/id/streetaxe/88193","TYPE":"C","HIERARCHY":"DR","LVL":0,"STARTSN_ID":"https://databrussels.be/id/streetnode/7656","ENDSN_ID":"https://databrussels.be/id/streetnode/7278","STRNAMEFRE":"Boulevard Jamar","STRNAMEDUT":"Jamarlaan","SLOPE":0.3,"LENGTH":39.8931587946333},"bbox":[147758.62589451,169816.50795734,147793.85811829,169834.6774834]},{"type":"Feature","id":"StreetAxes.fid--63af041f_1a0299052a9_-20a7","geometry":{"type":"LineString","coordinates":[[147685.0254094,169847.88012277],[147684.35203778,169853.81666085],[147685.01134733,169858.07949202],[147687.33794002,169863.88985826],[147689.85393936,169868.64887618],[147694.31601357,169875.35145731],[147696.78400511,169880.52141086],[147697.62870527,169884.31852773],[147698.94813625,169894.62101942]]},"geometry_name":"GEOM","properties":{"INSPIRE_ID":"https://databrussels.be/id/streetaxe/88194","TYPE":"C","HIERARCHY":"IDR","LVL":0,"STARTSN_ID":"https://databrussels.be/id/streetnode/7663","ENDSN_ID":"https://databrussels.be/id/streetnode/7981","STRNAMEFRE":"Place Bara","STRNAMEDUT":"Baraplein","SLOPE":0.1,"LENGTH":49.9875516962592},"bbox":[147684.35203778,169847.88012277,147698.94813625,169894.62101942]},{"type":"Feature","id":"StreetAxes.fid--63af041f_1a0299052a9_-2070","geometry":{"type":"LineString","coordinates":[[147641.69263025,169642.48029224],[147639.47938025,169636.69237979],[147575.24313333,169557.15455481],[147540.09195856,169513.95872171],[147535.28640889,169505.42966691],[147508.59153365,169471.54462555]]},"geometry_name":"GEOM","properties":{"INSPIRE_ID":"https://databrussels.be/id/streetaxe/89674","TYPE":"P","HIERARCHY":"DR","LVL":0,"STARTSN_ID":"https://databrussels.be/id/streetnode/7267","ENDSN_ID":"https://databrussels.be/id/streetnode/7967","STRNAMEFRE":"Place Victor Horta","STRNAMEDUT":"Victor Hortaplein","SLOPE":0.1,"LENGTH":217.052217762396},"bbox":[147508.59153365,169471.54462555,147641.69263025,169642.48029224]},{"type":"Feature","id":"StreetAxes.fid--63af041f_1a0299052a9_-20af","geometry":{"type":"LineString","coordinates":[[147815.52437222,169850.35517972],[147797.29294157,169845.69574661],[147776.14448202,169842.60817044],[147756.87897791,169842.84073048]]},"geometry_name":"GEOM","properties":{"INSPIRE_ID":"https://databrussels.be/id/streetaxe/90556","TYPE":"IC","HIERARCHY":"MER","LVL":0,"STARTSN_ID":"https://databrussels.be/id/streetnode/7664","ENDSN_ID":"https://databrussels.be/id/streetnode/7968","STRNAMEFRE":"Boulevard Jamar","STRNAMEDUT":"Jamarlaan","SLOPE":0.02,"LENGTH":59.4569869943154},"bbox":[147756.87897791,169842.60817044,147815.52437222,169850.35517972]},{"type":"Feature","id":"StreetAxes.fid--63af041f_1a0299052a9_-20c4","geometry":{"type":"LineString","coordinates":[[147977.12182875,169665.78304978],[147981.54674015,169671.90662226]]},"geometry_name":"GEOM","properties":{"INSPIRE_ID":"https://databrussels.be/id/streetaxe/90765","TYPE":"I","HIERARCHY":"MAR","LVL":0,"STARTSN_ID":"https://databrussels.be/id/streetnode/7984","ENDSN_ID":"https://databrussels.be/id/streetnode/7603","STRNAMEFRE":"Rue de l'Argonne","STRNAMEDUT":"Argonnestraat","SLOPE":0.4,"LENGTH":7.55499706780755},"bbox":[147977.12182875,169665.78304978,147981.54674015,169671.90662226]},{"type":"Feature","id":"StreetAxes.fid--63af041f_1a0299052a9_-2063","geometry":{"type":"LineString","coordinates":[[147854.32996362,169522.80025683],[147864.88903713,169512.04163448]]},"geometry_name":"GEOM","properties":{"INSPIRE_ID":"https://databrussels.be/id/streetaxe/90766","TYPE":"IC","HIERARCHY":"MAR","LVL":0,"STARTSN_ID":"https://databrussels.be/id/streetnode/7651","ENDSN_ID":"https://databrussels.be/id/streetnode/7969","STRNAMEFRE":"Avenue Fonsny","STRNAMEDUT":"Fonsnylaan","SLOPE":0.73,"LENGTH":15.0745477016032},"bbox":[147854.32996362,169512.04163448,147864.88903713,169522.80025683]},{"type":"Feature","id":"StreetAxes.fid--63af041f_1a0299052a9_-2093","geometry":{"type":"LineString","coordinates":[[147735.40597245,169815.36120054],[147730.43857455,169815.89721766],[147727.19181073,169816.41433038],[147722.96052793,169817.40370421]]},"geometry_name":"GEOM","properties":{"INSPIRE_ID":"https://databrussels.be/id/streetaxe/90767","TYPE":"IC","HIERARCHY":"DR","LVL":0,"STARTSN_ID":"https://databrussels.be/id/streetnode/7983","ENDSN_ID":"https://databrussels.be/id/streetnode/7269","STRNAMEFRE":"Place Bara","STRNAMEDUT":"Baraplein","SLOPE":1.03,"LENGTH":12.6293335260919},"bbox":[147722.96052793,169815.36120054,147735.40597245,169817.40370421]},{"type":"Feature","id":"StreetAxes.fid--63af041f_1a0299052a9_-20ba","geometry":{"type":"LineString","coordinates":[[147686.05876826,169838.76988688],[147689.70238814,169836.28600728],[147700.62632673,169827.90065048],[147707.03592443,169823.99357659],[147711.85968782,169821.48756878],[147715.40766381,169819.89330027]]},"geometry_name":"GEOM","properties":{"INSPIRE_ID":"https://databrussels.be/id/streetaxe/91487","TYPE":"IC","HIERARCHY":"DR","LVL":0,"STARTSN_ID":"https://databrussels.be/id/streetnode/7648","ENDSN_ID":"https://databrussels.be/id/streetnode/7966","STRNAMEFRE":"Place Bara","STRNAMEDUT":"Baraplein","SLOPE":1,"LENGTH":35.0130717108029},"bbox":[147686.05876826,169819.89330027,147715.40766381,169838.76988688]},{"type":"Feature","id":"StreetAxes.fid--63af041f_1a0299052a9_-206f","geometry":{"type":"LineString","coordinates":[[147611.489,169847.674],[147600.658,169847.931],[147573.348,169848.171],[147565.637,169848.358]]},"geometry_name":"GEOM","properties":{"INSPIRE_ID":"https://databrussels.be/id/streetaxe/91734","TYPE":"SC","HIERARCHY":"DR","LVL":0,"STARTSN_ID":"https://databrussels.be/id/streetnode/789","ENDSN_ID":"https://databrussels.be/id/streetnode/210","STRNAMEFRE":"Rue de Fiennes","STRNAMEDUT":"de Fiennesstraat","SLOPE":0.5,"LENGTH":45.8583703232249},"bbox":[147565.637,169847.674,147611.489,169848.358]},{"type":"Feature","id":"StreetAxes.fid--63af041f_1a0299052a9_-206b","geometry":{"type":"LineString","coordinates":[[147662.44551602,169846.30009818],[147640.912,169847.234],[147622.32,169847.418],[147611.489,169847.674]]},"geometry_name":"GEOM","properties":{"INSPIRE_ID":"https://databrussels.be/id/streetaxe/91735","TYPE":"SC","HIERARCHY":"DR","LVL":0,"STARTSN_ID":"https://databrussels.be/id/streetnode/7276","ENDSN_ID":"https://databrussels.be/id/streetnode/789","STRNAMEFRE":"Rue de Fiennes","STRNAMEDUT":"de Fiennesstraat","SLOPE":0.82,"LENGTH":50.9806934689029},"bbox":[147611.489,169846.30009818,147662.44551602,169847.674]},{"type":"Feature","id":"StreetAxes.fid--63af041f_1a0299052a9_-2092","geometry":{"type":"LineString","coordinates":[[147746.50895112,169815.36242587],[147743.23520981,169815.23740961],[147739.62559095,169815.2121538],[147735.40597245,169815.36120054]]},"geometry_name":"GEOM","properties":{"INSPIRE_ID":"https://databrussels.be/id/streetaxe/92030","TYPE":"IC","HIERARCHY":"DR","LVL":0,"STARTSN_ID":"https://databrussels.be/id/streetnode/7041","ENDSN_ID":"https://databrussels.be/id/streetnode/7983","STRNAMEFRE":"Place Bara","STRNAMEDUT":"Baraplein","SLOPE":0.99,"LENGTH":11.1080847011736},"bbox":[147735.40597245,169815.2121538,147746.50895112,169815.36242587]},{"type":"Feature","id":"StreetAxes.fid--63af041f_1a0299052a9_-20c3","geometry":{"type":"LineString","coordinates":[[147977.12182875,169665.78304978],[147981.72511869,169658.54229794]]},"geometry_name":"GEOM","properties":{"INSPIRE_ID":"https://databrussels.be/id/streetaxe/92031","TYPE":"I","HIERARCHY":"MAR","LVL":0,"STARTSN_ID":"https://databrussels.be/id/streetnode/7984","ENDSN_ID":"https://databrussels.be/id/streetnode/7279","STRNAMEFRE":"Rue de l'Argonne","STRNAMEDUT":"Argonnestraat","SLOPE":0.47,"LENGTH":8.58013785168189},"bbox":[147977.12182875,169658.54229794,147981.72511869,169665.78304978]},{"type":"Feature","id":"StreetAxes.fid--63af041f_1a0299052a9_-20b2","geometry":{"type":"LineString","coordinates":[[147685.0254094,169847.88012277],[147686.05876826,169838.76988688]]},"geometry_name":"GEOM","properties":{"INSPIRE_ID":"https://databrussels.be/id/streetaxe/92032","TYPE":"IC","HIERARCHY":"MER","LVL":0,"STARTSN_ID":"https://databrussels.be/id/streetnode/7663","ENDSN_ID":"https://databrussels.be/id/streetnode/7648","STRNAMEFRE":"Place Bara","STRNAMEDUT":"Baraplein","SLOPE":0.44,"LENGTH":9.16865466962868},"bbox":[147685.0254094,169838.76988688,147686.05876826,169847.88012277]},{"type":"Feature","id":"StreetAxes.fid--63af041f_1a0299052a9_-20b4","geometry":{"type":"LineString","coordinates":[[147756.87897791,169842.84073048],[147744.00050069,169836.61862977]]},"geometry_name":"GEOM","properties":{"INSPIRE_ID":"https://databrussels.be/id/streetaxe/92034","TYPE":"IC","HIERARCHY":"MER","LVL":0,"STARTSN_ID":"https://databrussels.be/id/streetnode/7968","ENDSN_ID":"https://databrussels.be/id/streetnode/7271","STRNAMEFRE":"Place Bara","STRNAMEDUT":"Baraplein","SLOPE":0.7,"LENGTH":14.3027868804638},"bbox":[147744.00050069,169836.61862977,147756.87897791,169842.84073048]},{"type":"Feature","id":"StreetAxes.fid--63af041f_1a0299052a9_-20c2","geometry":{"type":"LineString","coordinates":[[147981.54674015,169671.90662226],[147987.719797,169666.89575897]]},"geometry_name":"GEOM","properties":{"INSPIRE_ID":"https://databrussels.be/id/streetaxe/92239","TYPE":"I","HIERARCHY":"MAR","LVL":0,"STARTSN_ID":"https://databrussels.be/id/streetnode/7603","ENDSN_ID":"https://databrussels.be/id/streetnode/7657","STRNAMEFRE":"Rue de l'Argonne","STRNAMEDUT":"Argonnestraat","SLOPE":1.51,"LENGTH":7.95081013617002},"bbox":[147981.54674015,169666.89575897,147987.719797,169671.90662226]},{"type":"Feature","id":"StreetAxes.fid--63af041f_1a0299052a9_-20b5","geometry":{"type":"LineString","coordinates":[[147793.85811829,169834.6774834],[147796.98121849,169836.28515524],[147801.77157346,169838.30700561],[147806.55801732,169839.78610023],[147811.19022738,169840.67769176]]},"geometry_name":"GEOM","properties":{"INSPIRE_ID":"https://databrussels.be/id/streetaxe/92470","TYPE":"C","HIERARCHY":"DR","LVL":0,"STARTSN_ID":"https://databrussels.be/id/streetnode/7278","ENDSN_ID":"https://databrussels.be/id/streetnode/7268","STRNAMEFRE":"Boulevard Jamar","STRNAMEDUT":"Jamarlaan","SLOPE":0.98,"LENGTH":18.4391583768752},"bbox":[147793.85811829,169834.6774834,147811.19022738,169840.67769176]},{"type":"Feature","id":"StreetAxes.fid--63af041f_1a0299052a9_-20a6","geometry":{"type":"LineString","coordinates":[[147678.00930349,169847.89373125],[147685.0254094,169847.88012277]]},"geometry_name":"GEOM","properties":{"INSPIRE_ID":"https://databrussels.be/id/streetaxe/92471","TYPE":"IC","HIERARCHY":"MER","LVL":0,"STARTSN_ID":"https://databrussels.be/id/streetnode/7262","ENDSN_ID":"https://databrussels.be/id/streetnode/7663","STRNAMEFRE":"Place Bara","STRNAMEDUT":"Baraplein","SLOPE":0.14,"LENGTH":7.01611910353302},"bbox":[147678.00930349,169847.88012277,147685.0254094,169847.89373125]},{"type":"Feature","id":"StreetAxes.fid--63af041f_1a0299052a9_-20ad","geometry":{"type":"LineString","coordinates":[[147756.87897791,169842.84073048],[147754.65885597,169852.84996849]]},"geometry_name":"GEOM","properties":{"INSPIRE_ID":"https://databrussels.be/id/streetaxe/92474","TYPE":"IC","HIERARCHY":"MER","LVL":0,"STARTSN_ID":"https://databrussels.be/id/streetnode/7968","ENDSN_ID":"https://databrussels.be/id/streetnode/7650","STRNAMEFRE":"Place Bara","STRNAMEDUT":"Baraplein","SLOPE":2.24,"LENGTH":10.2525015019536},"bbox":[147754.65885597,169842.84073048,147756.87897791,169852.84996849]},{"type":"Feature","id":"StreetAxes.fid--63af041f_1a0299052a9_-20bf","geometry":{"type":"LineString","coordinates":[[147981.72511869,169658.54229794],[147987.719797,169666.89575897]]},"geometry_name":"GEOM","properties":{"INSPIRE_ID":"https://databrussels.be/id/streetaxe/92476","TYPE":"I","HIERARCHY":"MAR","LVL":0,"STARTSN_ID":"https://databrussels.be/id/streetnode/7279","ENDSN_ID":"https://databrussels.be/id/streetnode/7657","STRNAMEFRE":"Rue de l'Argonne","STRNAMEDUT":"Argonnestraat","SLOPE":0.49,"LENGTH":10.2818519364863},"bbox":[147981.72511869,169658.54229794,147987.719797,169666.89575897]},{"type":"Feature","id":"StreetAxes.fid--63af041f_1a0299052a9_-20b8","geometry":{"type":"LineString","coordinates":[[147920.28326097,169833.01864774],[147955.22866505,169844.40865367]]},"geometry_name":"GEOM","properties":{"INSPIRE_ID":"https://databrussels.be/id/streetaxe/92477","TYPE":"C","HIERARCHY":"MER","LVL":0,"STARTSN_ID":"https://databrussels.be/id/streetnode/","ENDSN_ID":"https://databrussels.be/id/streetnode/","STRNAMEFRE":"Boulevard Jamar","STRNAMEDUT":"Jamarlaan","SLOPE":0.82,"LENGTH":36.7547752142329},"bbox":[147920.28326097,169833.01864774,147955.22866505,169844.40865367]},{"type":"Feature","id":"StreetAxes.fid--63af041f_1a0299052a9_-2094","geometry":{"type":"LineString","coordinates":[[147722.96052793,169817.40370421],[147717.02358837,169819.16719118],[147715.40766381,169819.89330027]]},"geometry_name":"GEOM","properties":{"INSPIRE_ID":"https://databrussels.be/id/streetaxe/92479","TYPE":"IC","HIERARCHY":"DR","LVL":0,"STARTSN_ID":"https://databrussels.be/id/streetnode/7269","ENDSN_ID":"https://databrussels.be/id/streetnode/7966","STRNAMEFRE":"Place Bara","STRNAMEDUT":"Baraplein","SLOPE":1.51,"LENGTH":7.96488008164334},"bbox":[147715.40766381,169817.40370421,147722.96052793,169819.89330027]},{"type":"Feature","id":"StreetAxes.fid--63af041f_1a0299052a9_-20b0","geometry":{"type":"LineString","coordinates":[[147811.19022738,169840.67769176],[147819.95927258,169841.17294967],[147831.64762234,169841.17294967],[147917.64950274,169840.01447738]]},"geometry_name":"GEOM","properties":{"INSPIRE_ID":"https://databrussels.be/id/streetaxe/92481","TYPE":"AC","HIERARCHY":"DR","LVL":0,"STARTSN_ID":"https://databrussels.be/id/streetnode/7268","ENDSN_ID":"https://databrussels.be/id/streetnode/7602","STRNAMEFRE":"Boulevard Jamar","STRNAMEDUT":"Jamarlaan","SLOPE":4.93,"LENGTH":106.481051950251},"bbox":[147811.19022738,169840.01447738,147917.64950274,169841.17294967]},{"type":"Feature","id":"StreetAxes.fid--63af041f_1a0299052a9_-20a9","geometry":{"type":"LineString","coordinates":[[147662.44551602,169846.30009818],[147678.00930349,169847.89373125]]},"geometry_name":"GEOM","properties":{"INSPIRE_ID":"https://databrussels.be/id/streetaxe/92482","TYPE":"IC","HIERARCHY":"MER","LVL":0,"STARTSN_ID":"https://databrussels.be/id/streetnode/7276","ENDSN_ID":"https://databrussels.be/id/streetnode/7262","STRNAMEFRE":"Place Bara","STRNAMEDUT":"Baraplein","SLOPE":0.45,"LENGTH":15.645163682118},"bbox":[147662.44551602,169846.30009818,147678.00930349,169847.89373125]},{"type":"Feature","id":"StreetAxes.fid--63af041f_1a0299052a9_-2091","geometry":{"type":"LineString","coordinates":[[147854.32996362,169522.80025683],[147853.07126887,169536.22009167],[147850.65562512,169542.65391949],[147843.84350974,169548.31375298],[147823.7604515,169563.6636326],[147775.34706843,169602.63200084],[147771.23357221,169607.30360944],[147768.666088,169611.83700477],[147767.42375692,169616.70211195],[147766.54032149,169622.25828549],[147766.45749942,169627.89738699],[147764.99430949,169632.29256904],[147761.98510756,169636.19018332],[147757.7059672,169639.00973407],[147752.01885163,169640.36422414],[147747.07713469,169639.31380327],[147743.35014148,169636.79832171],[147741.19676762,169632.9836354],[147739.81639976,169628.97545051],[147739.54032619,169623.99977271],[147741.11394555,169618.99645226],[147743.57100033,169614.04841712],[147748.87161291,169609.04509667],[147761.23970892,169599.89537806],[147815.90572702,169555.93319152],[147833.407066,169540.1872445],[147845.78378931,169530.29981254],[147854.32996362,169522.80025683]]},"geometry_name":"GEOM","properties":{"INSPIRE_ID":"https://databrussels.be/id/streetaxe/97469","TYPE":"S","HIERARCHY":"DR","LVL":0,"STARTSN_ID":"https://databrussels.be/id/streetnode/7651","ENDSN_ID":"https://databrussels.be/id/streetnode/7651","STRNAMEFRE":"Rue Couverte","STRNAMEDUT":"Overdektestraat","SLOPE":null,"LENGTH":342.38018917409},"bbox":[147739.54032619,169522.80025683,147854.32996362,169640.36422414]},{"type":"Feature","id":"StreetAxes.fid--63af041f_1a0299052a9_-20c9","geometry":{"type":"LineString","coordinates":[[147974.20767638,170040.5376853],[147990.12044633,169971.01560294],[147995.97569298,169945.90085763]]},"geometry_name":"GEOM","properties":{"INSPIRE_ID":"https://databrussels.be/id/streetaxe/98544","TYPE":"S","HIERARCHY":"MAR","LVL":0,"STARTSN_ID":"https://databrussels.be/id/streetnode/3821","ENDSN_ID":"https://databrussels.be/id/streetnode/17025","STRNAMEFRE":"Boulevard Poincaré","STRNAMEDUT":"Poincarélaan","SLOPE":null,"LENGTH":97.1082162536616},"bbox":[147974.20767638,169945.90085763,147995.97569298,170040.5376853]}],"numberReturned":104,"grand_bruxelles_source":{"authority":"Paradigm / Brussels-Capital Region","service":"https://geoservices-urbis.irisnet.be/geoserver/urbisvector/wfs","layer":"urbisvector:StreetAxes","crs":"EPSG:31370","bbox":[147500.0,169500.0,148000.0,170000.0],"cell_id":"bxl-e147500-n169500-s500","ownership":"bbox_intersection_source_unclipped"}}
