{"type":"FeatureCollection","totalFeatures":14,"numberMatched":14,"timeStamp":"2026-08-21T15:01:04.764Z","crs":{"type":"name","properties":{"name":"urn:ogc:def:crs:EPSG::31370"}},"bbox":[146896.5804,176519.22904241,147009.782,176618.1104],"features":[{"type":"Feature","id":"Buildings.fid-43850477_1a024d2690f_-1a30","geometry":{"type":"Polygon","coordinates":[[[146965.363,176545.237],[146973.479,176531.94],[146978.667,176535.342],[146972.20242,176545.65292298],[146971.87469585,176546.21393509],[146971.56834756,176545.99976354],[146969.48535195,176549.52129267],[146969.054,176549.258],[146964.574,176546.536],[146965.363,176545.237]]]},"geometry_name":"GEOM","properties":{"INSPIRE_ID":"https://databrussels.be/id/building/100188","BLOCK_ID":null,"AREA":102},"bbox":[146964.574,176531.94,146978.667,176549.52129267]},{"type":"Feature","id":"Buildings.fid-43850477_1a024d2690f_-1a31","geometry":{"type":"Polygon","coordinates":[[[146965.363,176545.237],[146964.139,176544.493],[146963.601,176545.378],[146958.193,176542.092],[146967.045,176527.721],[146973.479,176531.94],[146965.363,176545.237]]]},"geometry_name":"GEOM","properties":{"INSPIRE_ID":"https://databrussels.be/id/building/100197","BLOCK_ID":null,"AREA":128},"bbox":[146958.193,176527.721,146973.479,176545.378]},{"type":"Feature","id":"Buildings.fid-43850477_1a024d2690f_-1a2f","geometry":{"type":"Polygon","coordinates":[[[146971.196,176551.911],[146971.66671011,176551.08192899],[146974.045,176546.893],[146977.078,176541.948],[146989.288,176548.924],[146989.005,176549.375],[146987.51,176551.754],[146983.63135723,176557.73113793],[146982.137,176560.034],[146977.941,176557.485],[146979.138,176555.516],[146974.561,176552.735],[146974.019,176553.626],[146971.196,176551.911]]]},"geometry_name":"GEOM","properties":{"INSPIRE_ID":"https://databrussels.be/id/building/100205","BLOCK_ID":null,"AREA":164},"bbox":[146971.196,176541.948,146989.288,176560.034]},{"type":"Feature","id":"Buildings.fid-43850477_1a024d2690f_-1a28","geometry":{"type":"Polygon","coordinates":[[[146972.673,176609.378],[146967.904,176606.078],[146989.05,176575.524],[146994,176578.818],[146987.21451947,176588.5410874],[146979.67346657,176599.34685364],[146972.673,176609.378]]]},"geometry_name":"GEOM","properties":{"INSPIRE_ID":"https://databrussels.be/id/building/100599","BLOCK_ID":null,"AREA":219},"bbox":[146967.904,176575.524,146994,176609.378]},{"type":"Feature","id":"Buildings.fid-43850477_1a024d2690f_-1a2c","geometry":{"type":"Polygon","coordinates":[[[146962.553,176602.922],[146957.824,176600.049],[146971.17813572,176578.07039839],[146972.6231474,176575.69215867],[146982.137,176560.034],[146983.63135723,176557.73113793],[146987.51,176551.754],[146992.109,176554.278],[146962.553,176602.922]]]},"geometry_name":"GEOM","properties":{"INSPIRE_ID":"https://databrussels.be/id/building/100608","BLOCK_ID":null,"AREA":313},"bbox":[146957.824,176551.754,146992.109,176602.922]},{"type":"Feature","id":"Buildings.fid-43850477_1a024d2690f_-1a2e","geometry":{"type":"Polygon","coordinates":[[[146969.054,176549.258],[146969.48535195,176549.52129267],[146971.56834756,176545.99976354],[146971.87469585,176546.21393509],[146972.20242,176545.65292298],[146974.045,176546.893],[146971.66671011,176551.08192899],[146971.196,176551.911],[146969.695,176554.381],[146966.953,176552.715],[146969.054,176549.258]]]},"geometry_name":"GEOM","properties":{"INSPIRE_ID":"https://databrussels.be/id/building/102425","BLOCK_ID":null,"AREA":25},"bbox":[146966.953,176545.65292298,146974.045,176554.381]},{"type":"Feature","id":"Buildings.fid-43850477_1a024d2690f_-1a29","geometry":{"type":"Polygon","coordinates":[[[146971.17813572,176578.07039839],[146969.75836487,176577.20774967],[146971.20252727,176574.83090772],[146972.6231474,176575.69215867],[146971.17813572,176578.07039839]]]},"geometry_name":"GEOM","properties":{"INSPIRE_ID":"https://databrussels.be/id/building/102532","BLOCK_ID":null,"AREA":5},"bbox":[146969.75836487,176574.83090772,146972.6231474,176578.07039839]},{"type":"Feature","id":"Buildings.fid-43850477_1a024d2690f_-1a2b","geometry":{"type":"Polygon","coordinates":[[[146989.05,176575.524],[146985.117,176572.703],[146992.343,176562.262],[146995.479,176564.432],[146997.9234333,176566.1232602],[147000,176567.56031832],[147001.17,176568.37],[147000,176570.07490377],[146994,176578.818],[146989.05,176575.524]]]},"geometry_name":"GEOM","properties":{"INSPIRE_ID":"https://databrussels.be/id/building/108378","BLOCK_ID":null,"AREA":137},"bbox":[146985.117,176562.262,147001.17,176578.818]},{"type":"Feature","id":"Buildings.fid-43850477_1a024d2690f_-1a26","geometry":{"type":"Polygon","coordinates":[[[146979.66761992,176613.58580188],[146986.41950075,176603.86617315],[146999.455,176585.101],[147000,176585.478],[147004.301,176588.454],[147004.447,176588.555],[147000,176594.98],[146984.723,176617.054],[146979.66761992,176613.58580188]]]},"geometry_name":"GEOM","properties":{"INSPIRE_ID":"https://databrussels.be/id/building/108379","BLOCK_ID":null,"AREA":212},"bbox":[146979.66761992,176585.101,147004.447,176617.054]},{"type":"Feature","id":"Buildings.fid-43850477_1a024d2690f_-1a27","geometry":{"type":"Polygon","coordinates":[[[146972.673,176609.378],[146979.67346657,176599.34685364],[146987.21451947,176588.5410874],[146994,176578.818],[147000,176582.81025268],[147000.712,176583.284],[147000,176584.31319968],[146999.455,176585.101],[146986.41950075,176603.86617315],[146979.66761992,176613.58580188],[146979.50905353,176613.83348094],[146978.74404436,176613.30053397],[146972.829,176609.486],[146972.673,176609.378]]]},"geometry_name":"GEOM","properties":{"INSPIRE_ID":"https://databrussels.be/id/building/108380","BLOCK_ID":null,"AREA":302},"bbox":[146972.673,176578.818,147000.712,176613.83348094]},{"type":"Feature","id":"Buildings.fid-43850477_1a024d2690f_-1a25","geometry":{"type":"Polygon","coordinates":[[[146978.744,176613.3],[146979.509,176613.833],[146976.659,176618.1104],[146969.9209,176614.0311],[146972.829,176609.486],[146975.5381,176611.2329],[146976.258,176611.6971],[146978.744,176613.3]]]},"geometry_name":"GEOM","properties":{"INSPIRE_ID":"https://databrussels.be/id/building/776282","BLOCK_ID":null,"AREA":42},"bbox":[146969.9209,176609.486,146979.509,176618.1104]},{"type":"Feature","id":"Buildings.fid-43850477_1a024d2690f_-1a32","geometry":{"type":"Polygon","coordinates":[[[146947.81790001,176539.41304241],[146946.7036,176541.35194241],[146948.1116,176542.14924241],[146928.59390001,176575.61754241],[146925.04550001,176571.99564241],[146918.5119,176565.32664241],[146905.4056,176551.94874241],[146896.5804,176542.94064241],[146934.33330001,176519.22904241],[146948.97770001,176527.89104241],[146949.9039,176526.32514241],[146953.96060001,176528.72374241],[146947.81790001,176539.41304241]]]},"geometry_name":"GEOM","properties":{"INSPIRE_ID":"https://databrussels.be/id/building/784084","BLOCK_ID":null,"AREA":1587},"bbox":[146896.5804,176519.22904241,146953.96060001,176575.61754241]}],"numberReturned":12,"grand_bruxelles_source":{"authority":"Paradigm / Brussels-Capital Region","service":"https://geoservices-urbis.irisnet.be/geoserver/urbisvector/wfs","layer":"urbisvector:Buildings","crs":"EPSG:31370","bbox":[146500.0,176500.0,147000.0,177000.0],"cell_id":"bxl-e146500-n176500-s500","ownership":"polygon_or_multipolygon_centroid_global_500m_cell"}}
