{"type":"FeatureCollection","totalFeatures":7,"numberMatched":7,"timeStamp":"2026-08-23T04:19:12.127Z","crs":{"type":"name","properties":{"name":"urn:ogc:def:crs:EPSG::31370"}},"bbox":[141945.93709631,169038.5374617,142209.44300001,169253.08700034],"features":[{"type":"Feature","id":"StreetSurfaces.fid--590544ac_1a02c121f93_6934","geometry":{"type":"Polygon","coordinates":[[[141976.84465411,169041.07743766],[141975.825,169048.28600034],[141971.31600001,169059.93700034],[141953.505,169092.51300036],[141950.14200001,169103.86900035],[141951.377,169112.80700034],[141954.80699999,169122.29600035],[141954.6939409,169122.33686721],[141954.56834414,169122.38226599],[141953.49161251,169122.77136034],[141950.20608749,169113.09600035],[141948.91796999,169103.77696034],[141952.39093499,169092.04992036],[141970.22507,169059.43008036],[141974.6510325,169047.99408034],[141976.46596999,169041.54304034],[141976.65092499,169041.31600036],[141976.84465411,169041.07743766]]]},"geometry_name":"GEOM","properties":{"INSPIRE_ID":"https://databrussels.be/id/streetsurface/161056","TYPE":"SW","STREET_ID":"https://databrussels.be/id/streetname/839","STRNAMEFRE":"Rue Vlasendael","STRNAMEDUT":"Vlazendaalstraat","MUNNISCODE":"21001","HIERARCHY":"DR","LVL":0,"ADMIN":"MUN_RBC","AREA":103},"bbox":[141948.91796999,169041.07743766,141976.84465411,169122.77136034]},{"type":"Feature","id":"StreetSurfaces.fid--590544ac_1a02c121f93_6939","geometry":{"type":"Polygon","coordinates":[[[141969.72416349,169202.58641702],[141970.20660999,169201.16992034],[141972.08118751,169197.77760035],[141973.00752087,169196.95362641],[141973.91900001,169197.85000035],[141972.68,169199.11000034],[141969.72416349,169202.58641702]]]},"geometry_name":"GEOM","properties":{"INSPIRE_ID":"https://databrussels.be/id/streetsurface/161057","TYPE":"SW","STREET_ID":"https://databrussels.be/id/streetname/839","STRNAMEFRE":"Rue Vlasendael","STRNAMEDUT":"Vlazendaalstraat","MUNNISCODE":"21001","HIERARCHY":"DR","LVL":0,"ADMIN":"MUN_RBC","AREA":6},"bbox":[141969.72416349,169196.95362641,141973.91900001,169202.58641702]},{"type":"Feature","id":"StreetSurfaces.fid--590544ac_1a02c121f93_6935","geometry":{"type":"Polygon","coordinates":[[[142000.3450274,169166.65853709],[142003.09058263,169164.26521384],[142005.16299305,169162.58909291],[142010.03843675,169158.64593906],[142017.02000001,169154.45000035],[142048.34000001,169137.65000035],[142057.17,169134.48000035],[142066.25,169131.93000034],[142074.75999999,169131.12000036],[142081.75999999,169131.53100034],[142090.94000001,169138.75000035],[142095.30999999,169142.75000035],[142099.4,169146.97000035],[142105.8,169152.71000034],[142109.65,169158.21000034],[142111.38,169160.01000034],[142115.97000001,169166.96000034],[142118.85999999,169170.41000034],[142120.75,169171.92000035],[142121.75999999,169172.51000034],[142138.44300001,169178.29900035],[142143.98800001,169180.50700034],[142146.829,169181.94400035],[142155.677,169189.19000036],[142165.975,169199.25700034],[142169.44000001,169201.28200034],[142169.47000001,169204.45800034],[142174.65999999,169211.89000036],[142176.72000001,169215.33000034],[142179,169218.63000034],[142181.48,169221.77000035],[142184.876,169226.13400034],[142193.798,169235.73600034],[142199.68800001,169240.84900035],[142209.44300001,169248.75800034],[142208.74027557,169249.58762156],[142207.67995501,169248.81008035],[142205.99991751,169247.52000035],[142204.3800525,169246.13008036],[142202.76995001,169244.75008034],[142199.2400075,169241.58000034],[142195.71006501,169238.42000035],[142192.289995,169235.15008034],[142189.8300225,169232.60992035],[142187.43004501,169230.02000035],[142185.06006501,169227.38000035],[142182.6700275,169224.69008035],[142180.3199275,169221.96000034],[142178.06993749,169219.16000034],[142175.96993501,169216.28000035],[142173.95992501,169213.32992035],[142172.02002749,169210.32992036],[142170.49991751,169207.73008036],[142169.0199225,169205.10000035],[142167.40999751,169202.54992036],[142166.019995,169200.65008034],[142164.54993999,169198.79008035],[142163.00995,169197.01008035],[142161.22997999,169195.16000034],[142159.36995749,169193.39008035],[142157.509935,169191.60992035],[142156.7000025,169190.83296036],[142154.82098751,169189.17296034],[142152.91694501,169187.59808034],[142150.85492749,169185.94896034],[142148.67096751,169184.33792035],[142146.31891501,169182.83904034],[142143.56003251,169181.44304034],[142140.78908,169180.30896036],[142138.08096249,169179.26096035],[142134.96796751,169178.11696035],[142131.8560375,169177.07696034],[142123.9363425,169173.98960034],[142120.92612,169172.69728035],[142119.9230675,169172.17472035],[142118.24214251,169170.88752035],[142117.53160999,169170.17152034],[142116.77279749,169169.34192034],[142114.57978499,169166.30208036],[142112.27441499,169162.98608035],[142110.21115501,169159.96288034],[142108.85718501,169157.94752034],[142106.77511001,169155.54032034],[142104.1443825,169152.54736034],[142100.3000875,169148.95008034],[142097.00994749,169145.78000035],[142093.68004749,169142.67008034],[142091.4300575,169140.60000035],[142086.88996251,169136.52000035],[142083.1060175,169133.59008035],[142077.76894751,169132.95008034],[142072.97005751,169132.95008034],[142071.09991751,169132.95008034],[142069.24007249,169133.03008036],[142067.05007751,169133.28000035],[142064.86008251,169133.64000036],[142062.710025,169134.14000036],[142060.63008001,169134.78000034],[142058.60001249,169135.54000036],[142056.569945,169136.32992035],[142053.07994001,169137.74000036],[142049.63004999,169139.24000036],[142046.1899225,169140.73008036],[142038.579965,169144.40000035],[142037.4100625,169145.23008036],[142036.20004499,169146.00000035],[142034.96997001,169146.75008034],[142032.5699925,169148.09008035],[142030.11996,169149.34000036],[142027.69992499,169150.65008034],[142025.55998499,169151.95008034],[142023.45998249,169153.30000035],[142021.35004001,169154.65008034],[142013.99000249,169158.91008035],[142011.4425225,169160.43568036],[142010.35000999,169161.09008035],[142008.1399575,169162.45008034],[142005.94002249,169163.82992035],[142003.78002501,169165.28000035],[142001.33993249,169167.07008034],[141998.96001251,169168.94000036],[141997.30968201,169170.28736099],[141996.74197249,169169.79968034],[142000.3450274,169166.65853709]]]},"geometry_name":"GEOM","properties":{"INSPIRE_ID":"https://databrussels.be/id/streetsurface/162871","TYPE":"SW","STREET_ID":"https://databrussels.be/id/streetname/839","STRNAMEFRE":"Rue Vlasendael","STRNAMEDUT":"Vlazendaalstraat","MUNNISCODE":"21001","HIERARCHY":"DR","LVL":0,"ADMIN":"MUN_RBC","AREA":313},"bbox":[141996.74197249,169131.12000036,142209.44300001,169249.58762156]},{"type":"Feature","id":"StreetSurfaces.fid--590544ac_1a02c121f93_6937","geometry":{"type":"Polygon","coordinates":[[[141973.00752087,169196.95362641],[141974.52660501,169195.60240034],[141976.74997001,169193.64000036],[141979.7800725,169190.66000034],[141982.80999751,169187.66000034],[141984.4699775,169186.06000034],[141985.86991999,169184.71008035],[141990.03992751,169180.88000034],[141992.54995501,169178.66000034],[141994.26993001,169177.14000036],[141998.589925,169173.49008035],[141998.939955,169173.20000035],[141999.999985,169172.32992036],[142001.6200275,169171.00000035],[142004.67995,169168.56000034],[142007.83004251,169166.22000035],[142011.62002251,169163.73008036],[142015.5200525,169161.38000034],[142019.40996499,169159.03008036],[142030.37005751,169152.26992034],[142035.9400075,169149.04992036],[142040.41993001,169146.71008035],[142044.960025,169144.48000034],[142049.49000249,169142.25008034],[142054.81003251,169139.97008034],[142057.50004499,169138.92000035],[142061.14163499,169137.51408035],[142065.150295,169136.32992035],[142068.3788425,169135.67776035],[142071.0385025,169135.38000034],[142073.0815275,169135.25808035],[142075.46410999,169135.39696034],[142078.02348249,169135.89312035],[142080.856915,169136.79568035],[142083.49474249,169137.97296034],[142085.46055501,169139.09008035],[142087.50997,169140.54512035],[142091.26835499,169143.83792034],[142095.67994001,169148.22000035],[142098.210025,169150.74000036],[142100.6600575,169153.34000036],[142103.00004001,169156.03008036],[142104.72995501,169158.22000035],[142106.37999499,169160.48000034],[142107.98992,169162.76000034],[142109.3600425,169164.84000036],[142110.69005001,169166.95008034],[142112.0899925,169169.01008035],[142113.129965,169170.52000035],[142114.189995,169172.00000035],[142115.42007001,169173.30000035],[142116.96006,169174.39008035],[142118.680035,169175.26992034],[142120.43000751,169176.07008034],[142122.85998249,169177.06000034],[142127.85998001,169178.74000036],[142130.93996,169179.79008035],[142134.01994,169180.82000035],[142137.0699225,169181.94000036],[142139.72993751,169182.97008034],[142142.37007251,169184.04992036],[142144.89998,169185.32992035],[142147.0500375,169186.70000035],[142149.10992501,169188.22000035],[142151.10999501,169189.82000035],[142152.9600775,169191.35008034],[142154.75992751,169192.94000036],[142156.49001999,169194.60000035],[142158.339925,169196.54992036],[142160.109955,169198.58000034],[142161.82993,169200.65008034],[142163.27992749,169202.49008035],[142164.68004749,169204.37008034],[142166.08993001,169206.24000036],[142167.85002,169209.00000035],[142169.59999249,169211.76000034],[142171.39008,169214.49008035],[142173.719945,169217.97008034],[142176.10998249,169221.40000035],[142177.5399225,169223.30000035],[142178.62001,169224.73008035],[142180.69001501,169227.20000035],[142182.82995501,169229.60992035],[142184.98995249,169232.00000035],[142187.14001,169234.42000035],[142189.30994749,169236.82992036],[142191.58993499,169239.13008036],[142193.41001999,169240.76992034],[142194.94007001,169242.04000036],[142195.30004001,169242.34000036],[142197.19006,169243.91008035],[142199.6599725,169245.98000034],[142202.13006251,169248.04000036],[142204.609915,169250.10000035],[142206.80285656,169251.87481688],[142205.776,169253.08700034],[142193.94000001,169243.06000034],[142191.60999999,169241.35000035],[142184.38,169233.32000035],[142177.97000001,169226.87000035],[142167.53,169210.91000034],[142162.52000001,169204.06000034],[142157.54000001,169198.47000035],[142152.04000001,169193.06000034],[142146.77000001,169188.93000034],[142143.95,169187.13000034],[142139.03,169184.70000035],[142129.59000001,169180.76000034],[142120.10999999,169177.16000034],[142117.28,169175.74000036],[142114.15999999,169173.53000034],[142112.79000001,169172.23000034],[142111.57000001,169170.53000035],[142109.48,169166.80000035],[142105.55999999,169161.64000036],[142096.84000001,169151.30000035],[142094.78,169149.11000034],[142090.35,169145.46000034],[142084.15999999,169140.86000034],[142080.20999999,169138.51000034],[142078.24000001,169137.55000035],[142076.20999999,169136.87000035],[142073.54000001,169136.56000034],[142070.78,169136.69000036],[142068.05,169137.04000036],[142065.42,169137.58000035],[142057.09000001,169140.28000034],[142047.47000001,169144.10000035],[142020.8,169158.89000036],[142008.29200001,169166.65300035],[141999.52000001,169173.40000035],[141979.67,169192.00000035],[141973.91900001,169197.85000035],[141973.00752087,169196.95362641]]]},"geometry_name":"GEOM","properties":{"INSPIRE_ID":"https://databrussels.be/id/streetsurface/163162","TYPE":"SW","STREET_ID":"https://databrussels.be/id/streetname/839","STRNAMEFRE":"Rue Vlasendael","STRNAMEDUT":"Vlazendaalstraat","MUNNISCODE":"21001","HIERARCHY":"DR","LVL":0,"ADMIN":"MUN_RBC","AREA":394},"bbox":[141973.00752087,169135.25808035,142206.80285656,169253.08700034]},{"type":"Feature","id":"StreetSurfaces.fid--590544ac_1a02c121f93_6936","geometry":{"type":"Polygon","coordinates":[[[141973.00752087,169196.95362641],[141971.98496497,169195.94801649],[141972.51587689,169194.38928],[141974.18870366,169192.88806914],[141981.77891793,169186.07911224],[141989.19408455,169178.89316916],[141995.24840522,169173.03539897],[141997.40319502,169171.20712859],[141997.92915075,169170.81806344],[141997.30968201,169170.28736099],[141998.96001251,169168.94000036],[142001.33993249,169167.07008034],[142003.78002501,169165.28000035],[142005.94002249,169163.82992035],[142008.1399575,169162.45008034],[142010.35000999,169161.09008035],[142011.4425225,169160.43568036],[142013.99000249,169158.91008035],[142021.35004001,169154.65008034],[142023.45998249,169153.30000035],[142025.55998499,169151.95008034],[142027.69992499,169150.65008034],[142030.11996,169149.34000036],[142032.5699925,169148.09008035],[142034.96997001,169146.75008034],[142036.20004499,169146.00000035],[142037.4100625,169145.23008036],[142038.579965,169144.40000035],[142046.1899225,169140.73008036],[142049.63004999,169139.24000036],[142053.07994001,169137.74000036],[142056.569945,169136.32992035],[142058.60001249,169135.54000036],[142060.63008001,169134.78000034],[142062.710025,169134.14000036],[142064.86008251,169133.64000036],[142067.05007751,169133.28000035],[142069.24007249,169133.03008036],[142071.09991751,169132.95008034],[142072.97005751,169132.95008034],[142077.76894751,169132.95008034],[142083.1060175,169133.59008035],[142086.88996251,169136.52000035],[142091.4300575,169140.60000035],[142093.68004749,169142.67008034],[142097.00994749,169145.78000035],[142100.3000875,169148.95008034],[142104.1443825,169152.54736034],[142106.77511001,169155.54032034],[142108.85718501,169157.94752034],[142110.21115501,169159.96288034],[142112.27441499,169162.98608035],[142114.57978499,169166.30208036],[142116.77279749,169169.34192034],[142117.53160999,169170.17152034],[142118.24214251,169170.88752035],[142119.9230675,169172.17472035],[142120.92612,169172.69728035],[142123.9363425,169173.98960034],[142131.8560375,169177.07696034],[142134.96796751,169178.11696035],[142138.08096249,169179.26096035],[142140.78908,169180.30896036],[142143.56003251,169181.44304034],[142146.31891501,169182.83904034],[142148.67096751,169184.33792035],[142150.85492749,169185.94896034],[142152.91694501,169187.59808034],[142154.82098751,169189.17296034],[142156.7000025,169190.83296036],[142157.509935,169191.60992035],[142159.36995749,169193.39008035],[142161.22997999,169195.16000034],[142163.00995,169197.01008035],[142164.54993999,169198.79008035],[142166.019995,169200.65008034],[142167.40999751,169202.54992036],[142169.0199225,169205.10000035],[142170.49991751,169207.73008036],[142172.02002749,169210.32992036],[142173.95992501,169213.32992035],[142175.96993501,169216.28000035],[142178.06993749,169219.16000034],[142180.3199275,169221.96000034],[142182.6700275,169224.69008035],[142185.06006501,169227.38000035],[142187.43004501,169230.02000035],[142189.8300225,169232.60992035],[142192.289995,169235.15008034],[142195.71006501,169238.42000035],[142199.2400075,169241.58000034],[142202.76995001,169244.75008034],[142204.3800525,169246.13008036],[142205.99991751,169247.52000035],[142207.67995501,169248.81008035],[142208.74027557,169249.58762156],[142207.60999999,169250.92200035],[142206.80285656,169251.87481688],[142204.609915,169250.10000035],[142202.13006251,169248.04000036],[142199.6599725,169245.98000034],[142197.19006,169243.91008035],[142195.30004001,169242.34000036],[142194.94007001,169242.04000036],[142193.41001999,169240.76992034],[142191.58993499,169239.13008036],[142189.30994749,169236.82992036],[142187.14001,169234.42000035],[142184.98995249,169232.00000035],[142182.82995501,169229.60992035],[142180.69001501,169227.20000035],[142178.62001,169224.73008035],[142177.5399225,169223.30000035],[142176.10998249,169221.40000035],[142173.719945,169217.97008034],[142171.39008,169214.49008035],[142169.59999249,169211.76000034],[142167.85002,169209.00000035],[142166.08993001,169206.24000036],[142164.68004749,169204.37008034],[142163.27992749,169202.49008035],[142161.82993,169200.65008034],[142160.109955,169198.58000034],[142158.339925,169196.54992036],[142156.49001999,169194.60000035],[142154.75992751,169192.94000036],[142152.9600775,169191.35008034],[142151.10999501,169189.82000035],[142149.10992501,169188.22000035],[142147.0500375,169186.70000035],[142144.89998,169185.32992035],[142142.37007251,169184.04992036],[142139.72993751,169182.97008034],[142137.0699225,169181.94000036],[142134.01994,169180.82000035],[142130.93996,169179.79008035],[142127.85998001,169178.74000036],[142122.85998249,169177.06000034],[142120.43000751,169176.07008034],[142118.680035,169175.26992034],[142116.96006,169174.39008035],[142115.42007001,169173.30000035],[142114.189995,169172.00000035],[142113.129965,169170.52000035],[142112.0899925,169169.01008035],[142110.69005001,169166.95008034],[142109.3600425,169164.84000036],[142107.98992,169162.76000034],[142106.37999499,169160.48000034],[142104.72995501,169158.22000035],[142103.00004001,169156.03008036],[142100.6600575,169153.34000036],[142098.210025,169150.74000036],[142095.67994001,169148.22000035],[142091.26835499,169143.83792034],[142087.50997,169140.54512035],[142085.46055501,169139.09008035],[142083.49474249,169137.97296034],[142080.856915,169136.79568035],[142078.02348249,169135.89312035],[142075.46410999,169135.39696034],[142073.0815275,169135.25808035],[142071.0385025,169135.38000034],[142068.3788425,169135.67776035],[142065.150295,169136.32992035],[142061.14163499,169137.51408035],[142057.50004499,169138.92000035],[142054.81003251,169139.97008034],[142049.49000249,169142.25008034],[142044.960025,169144.48000034],[142040.41993001,169146.71008035],[142035.9400075,169149.04992036],[142030.37005751,169152.26992034],[142019.40996499,169159.03008036],[142015.5200525,169161.38000034],[142011.62002251,169163.73008036],[142007.83004251,169166.22000035],[142004.67995,169168.56000034],[142001.6200275,169171.00000035],[141999.999985,169172.32992036],[141998.939955,169173.20000035],[141998.589925,169173.49008035],[141994.26993001,169177.14000036],[141992.54995501,169178.66000034],[141990.03992751,169180.88000034],[141985.86991999,169184.71008035],[141984.4699775,169186.06000034],[141982.80999751,169187.66000034],[141979.7800725,169190.66000034],[141976.74997001,169193.64000036],[141974.52660501,169195.60240034],[141973.00752087,169196.95362641]]]},"geometry_name":"GEOM","properties":{"INSPIRE_ID":"https://databrussels.be/id/streetsurface/24743","TYPE":"S","STREET_ID":"https://databrussels.be/id/streetname/839","STRNAMEFRE":"Rue Vlasendael","STRNAMEDUT":"Vlazendaalstraat","MUNNISCODE":"21001","HIERARCHY":"DR","LVL":0,"ADMIN":"MUN_RBC","AREA":871},"bbox":[141971.98496497,169132.95008034,142208.74027557,169251.87481688]},{"type":"Feature","id":"StreetSurfaces.fid--590544ac_1a02c121f93_6933","geometry":{"type":"Polygon","coordinates":[[[141976.84465411,169041.07743766],[141976.65092499,169041.31600036],[141976.46596999,169041.54304034],[141974.6510325,169047.99408034],[141970.22507,169059.43008036],[141952.39093499,169092.04992036],[141948.91796999,169103.77696034],[141950.20608749,169113.09600035],[141953.49161251,169122.77136034],[141951.98569999,169123.31580035],[141950.40504611,169123.87674715],[141948.77056179,169120.032876],[141947.6011874,169117.05596494],[141946.95294187,169115.09700974],[141946.44668474,169113.03603701],[141946.08439379,169110.69204384],[141945.93709631,169108.28302542],[141945.9587724,169105.64998459],[141946.07450969,169103.50894031],[141946.3242671,169101.5238831],[141946.69004045,169099.66181454],[141947.26779223,169097.61271924],[141947.69161863,169096.17865035],[141948.27140217,169094.38755857],[141949.10814834,169092.27843307],[141950.22382944,169089.625268],[141951.40950129,169086.89309384],[141952.73917561,169084.17290351],[141953.53799646,169082.67279111],[141954.35681868,169081.18267659],[141956.04148321,169078.36344453],[141957.78014517,169075.52020597],[141960.47462816,169071.16983702],[141962.90416103,169067.23950414],[141965.01175964,169063.86121577],[141967.87321396,169059.26882409],[141969.04697147,169057.23366119],[141969.76880334,169055.82755872],[141970.59359837,169054.11644012],[141971.63431583,169051.76328758],[141972.78993759,169048.6261105],[141973.82150247,169045.03394078],[141974.53712764,169041.94881433],[141977.20372593,169038.5374617],[141976.84465411,169041.07743766]]]},"geometry_name":"GEOM","properties":{"INSPIRE_ID":"https://databrussels.be/id/streetsurface/25035","TYPE":"S","STREET_ID":"https://databrussels.be/id/streetname/839","STRNAMEFRE":"Rue Vlasendael","STRNAMEDUT":"Vlazendaalstraat","MUNNISCODE":"21001","HIERARCHY":"DR","LVL":0,"ADMIN":"MUN_RBC","AREA":256},"bbox":[141945.93709631,169038.5374617,141977.20372593,169123.87674715]},{"type":"Feature","id":"StreetSurfaces.fid--590544ac_1a02c121f93_6938","geometry":{"type":"Polygon","coordinates":[[[141973.00752087,169196.95362641],[141972.08118751,169197.77760035],[141970.20660999,169201.16992034],[141971.98496497,169195.94801649],[141973.00752087,169196.95362641]]]},"geometry_name":"GEOM","properties":{"INSPIRE_ID":"https://databrussels.be/id/streetsurface/25199","TYPE":"I","STREET_ID":"https://databrussels.be/id/streetname/839","STRNAMEFRE":"Rue Vlasendael","STRNAMEDUT":"Vlazendaalstraat","MUNNISCODE":"21001","HIERARCHY":"DR","LVL":0,"ADMIN":"MUN_RBC","AREA":3},"bbox":[141970.20660999,169195.94801649,141973.00752087,169201.16992034]}],"numberReturned":7,"grand_bruxelles_source":{"authority":"Paradigm / Brussels-Capital Region","service":"https://geoservices-urbis.irisnet.be/geoserver/urbisvector/wfs","layer":"urbisvector:StreetSurfaces","crs":"EPSG:31370","bbox":[141500.0,169000.0,142000.0,169500.0],"cell_id":"bxl-e141500-n169000-s500","ownership":"bbox_intersection_source_unclipped"}}
