{"type":"FeatureCollection","totalFeatures":48,"numberMatched":48,"timeStamp":"2026-08-23T00:56:44.985Z","crs":{"type":"name","properties":{"name":"urn:ogc:def:crs:EPSG::31370"}},"bbox":[144425.03484667,168752.93454279,145100.21,169626.93000403],"features":[{"type":"Feature","id":"StreetAxes.fid--1290087_1a02c00fa75_-29a3","geometry":{"type":"LineString","coordinates":[[144972.324,169459.604],[144973.657,169470.042],[144989.63,169573.792],[144995.42,169583.544]]},"geometry_name":"GEOM","properties":{"INSPIRE_ID":"https://databrussels.be/id/streetaxe/70955","TYPE":"S","HIERARCHY":"DR","LVL":0,"STARTSN_ID":"https://databrussels.be/id/streetnode/1323","ENDSN_ID":"https://databrussels.be/id/streetnode/735","STRNAMEFRE":"Rue du Trophée","STRNAMEDUT":"Tropeestraat","SLOPE":3.3,"LENGTH":126.836468612882},"bbox":[144972.324,169459.604,144995.42,169583.544]},{"type":"Feature","id":"StreetAxes.fid--1290087_1a02c00fa75_-298c","geometry":{"type":"LineString","coordinates":[[144630.219,169518.116],[144630.602,169508.109],[144651.6,169440.35],[144655.228,169430.648]]},"geometry_name":"GEOM","properties":{"INSPIRE_ID":"https://databrussels.be/id/streetaxe/71594","TYPE":"S","HIERARCHY":"DR","LVL":0,"STARTSN_ID":"https://databrussels.be/id/streetnode/1565","ENDSN_ID":"https://databrussels.be/id/streetnode/1499","STRNAMEFRE":"Rue Elskamp","STRNAMEDUT":"Elskampstraat","SLOPE":1.93,"LENGTH":91.3104602123377},"bbox":[144630.219,169430.648,144655.228,169518.116]},{"type":"Feature","id":"StreetAxes.fid--1290087_1a02c00fa75_-29a5","geometry":{"type":"LineString","coordinates":[[144951.60611031,169353.07121253],[145058.9904328,169427.01380592],[145065.99064589,169437.16757794],[145067.09677739,169446.63945699]]},"geometry_name":"GEOM","properties":{"INSPIRE_ID":"https://databrussels.be/id/streetaxe/73359","TYPE":"S","HIERARCHY":"DR","LVL":0,"STARTSN_ID":"https://databrussels.be/id/streetnode/7194","ENDSN_ID":"https://databrussels.be/id/streetnode/6247","STRNAMEFRE":"Avenue Théo Verbeeck","STRNAMEDUT":"Théo Verbeecklaan","SLOPE":0.87,"LENGTH":152.249043534438},"bbox":[144951.60611031,169353.07121253,145067.09677739,169446.63945699]},{"type":"Feature","id":"StreetAxes.fid--1290087_1a02c00fa75_-298b","geometry":{"type":"LineString","coordinates":[[144811.04694692,169469.24867028],[144781.44722546,169463.69991159],[144701.25,169444.935],[144663.708,169433.37],[144655.228,169430.648]]},"geometry_name":"GEOM","properties":{"INSPIRE_ID":"https://databrussels.be/id/streetaxe/73817","TYPE":"S","HIERARCHY":"IDR","LVL":0,"STARTSN_ID":"https://databrussels.be/id/streetnode/7195","ENDSN_ID":"https://databrussels.be/id/streetnode/1499","STRNAMEFRE":"Avenue d'Itterbeek","STRNAMEDUT":"Itterbeekse Laan","SLOPE":0.17,"LENGTH":160.667758436637},"bbox":[144655.228,169430.648,144811.04694692,169469.24867028]},{"type":"Feature","id":"StreetAxes.fid--1290087_1a02c00fa75_-29a1","geometry":{"type":"LineString","coordinates":[[144811.04694692,169469.24867028],[144811.80385063,169495.14708431],[144811.98062094,169504.28686687]]},"geometry_name":"GEOM","properties":{"INSPIRE_ID":"https://databrussels.be/id/streetaxe/73818","TYPE":"S","HIERARCHY":"IDR","LVL":0,"STARTSN_ID":"https://databrussels.be/id/streetnode/7195","ENDSN_ID":"https://databrussels.be/id/streetnode/7986","STRNAMEFRE":"Rue René Henry","STRNAMEDUT":"René Henrystraat","SLOPE":3.11,"LENGTH":35.0509640894133},"bbox":[144811.04694692,169469.24867028,144811.98062094,169504.28686687]},{"type":"Feature","id":"StreetAxes.fid--1290087_1a02c00fa75_-2987","geometry":{"type":"LineString","coordinates":[[144772.87442228,169151.56009637],[144779.07314405,169145.1552327],[144783.576,169135.272],[144796.834,169103.094],[144809.34,169079.135],[144826.364,169053.834],[144836.3,169041.265],[144861.83,169013.62],[144947.425,168924.605],[144958.151,168913.423]]},"geometry_name":"GEOM","properties":{"INSPIRE_ID":"https://databrussels.be/id/streetaxe/74455","TYPE":"S","HIERARCHY":"DR","LVL":0,"STARTSN_ID":"https://databrussels.be/id/streetnode/8000","ENDSN_ID":"https://databrussels.be/id/streetnode/807","STRNAMEFRE":"Avenue Eugène Ysaye","STRNAMEDUT":"Eugène Ysayelaan","SLOPE":3.54,"LENGTH":304.736305994914},"bbox":[144772.87442228,168913.423,144958.151,169151.56009637]},{"type":"Feature","id":"StreetAxes.fid--1290087_1a02c00fa75_-2988","geometry":{"type":"LineString","coordinates":[[144756.21964823,169146.29653587],[144754.482,169136.635],[144693.172,168798.968],[144692.08175,168791.791],[144691.5072135,168784.236824],[144693.68184506,168775.82402668],[144701.28596635,168763.46510563],[144707.0139661,168752.93454279]]},"geometry_name":"GEOM","properties":{"INSPIRE_ID":"https://databrussels.be/id/streetaxe/74522","TYPE":"S","HIERARCHY":"DR","LVL":0,"STARTSN_ID":"https://databrussels.be/id/streetnode/7991","ENDSN_ID":"https://databrussels.be/id/streetnode/6694","STRNAMEFRE":"Avenue Nellie Melba","STRNAMEDUT":"Nellie Melbalaan","SLOPE":4.26,"LENGTH":403.027559216947},"bbox":[144691.5072135,168752.93454279,144756.21964823,169146.29653587]},{"type":"Feature","id":"StreetAxes.fid--1290087_1a02c00fa75_-29a4","geometry":{"type":"LineString","coordinates":[[145067.09677739,169446.63945699],[145055.146,169448.572],[144982.817,169458.124],[144972.324,169459.604]]},"geometry_name":"GEOM","properties":{"INSPIRE_ID":"https://databrussels.be/id/streetaxe/76301","TYPE":"S","HIERARCHY":"DC","LVL":0,"STARTSN_ID":"https://databrussels.be/id/streetnode/6247","ENDSN_ID":"https://databrussels.be/id/streetnode/1323","STRNAMEFRE":"Avenue d'Itterbeek","STRNAMEDUT":"Itterbeekse Laan","SLOPE":0.53,"LENGTH":95.6598912551539},"bbox":[144972.324,169446.63945699,145067.09677739,169459.604]},{"type":"Feature","id":"StreetAxes.fid--1290087_1a02c00fa75_-299e","geometry":{"type":"LineString","coordinates":[[144839.04213933,169615.39107473],[144826.89873874,169545.51254092],[144824.85219997,169523.27319278],[144824.93385902,169500.39531442],[144825.35076761,169473.78795819]]},"geometry_name":"GEOM","properties":{"INSPIRE_ID":"https://databrussels.be/id/streetaxe/76443","TYPE":"S","HIERARCHY":"IDR","LVL":0,"STARTSN_ID":"https://databrussels.be/id/streetnode/6601","ENDSN_ID":"https://databrussels.be/id/streetnode/7755","STRNAMEFRE":"Rue de la Compétition","STRNAMEDUT":"Mededingingstraat","SLOPE":3.57,"LENGTH":142.747778699469},"bbox":[144824.85219997,169473.78795819,144839.04213933,169615.39107473]},{"type":"Feature","id":"StreetAxes.fid--1290087_1a02c00fa75_-299c","geometry":{"type":"LineString","coordinates":[[144843.21999515,169291.48129043],[144842.07182507,169294.60550952],[144841.34442982,169297.58980243],[144831.09070145,169403.99649844],[144825.78640535,169445.98529576],[144825.35076761,169473.78795819]]},"geometry_name":"GEOM","properties":{"INSPIRE_ID":"https://databrussels.be/id/streetaxe/76775","TYPE":"S","HIERARCHY":"IDR","LVL":0,"STARTSN_ID":"https://databrussels.be/id/streetnode/7998","ENDSN_ID":"https://databrussels.be/id/streetnode/7755","STRNAMEFRE":"Rue René Henry","STRNAMEDUT":"René Henrystraat","SLOPE":2.35,"LENGTH":183.428361395684},"bbox":[144825.35076761,169291.48129043,144843.21999515,169473.78795819]},{"type":"Feature","id":"StreetAxes.fid--1290087_1a02c00fa75_-2997","geometry":{"type":"LineString","coordinates":[[144905.64010409,169469.63486361],[144907.75529254,169475.19279346],[144928.134,169607.564],[144930.97214149,169626.93000403]]},"geometry_name":"GEOM","properties":{"INSPIRE_ID":"https://databrussels.be/id/streetaxe/77654","TYPE":"S","HIERARCHY":"DR","LVL":0,"STARTSN_ID":"https://databrussels.be/id/streetnode/7754","ENDSN_ID":"https://databrussels.be/id/streetnode/6811","STRNAMEFRE":"Rue du Champion","STRNAMEDUT":"Kampioenstraat","SLOPE":3.69,"LENGTH":159.450366462683},"bbox":[144905.64010409,169469.63486361,144930.97214149,169626.93000403]},{"type":"Feature","id":"StreetAxes.fid--1290087_1a02c00fa75_-2995","geometry":{"type":"LineString","coordinates":[[144924.71232339,169391.81932048],[144926.34815953,169402.68810932],[144935.71694466,169464.93599849]]},"geometry_name":"GEOM","properties":{"INSPIRE_ID":"https://databrussels.be/id/streetaxe/77843","TYPE":"S","HIERARCHY":"DR","LVL":0,"STARTSN_ID":"https://databrussels.be/id/streetnode/8002","ENDSN_ID":"https://databrussels.be/id/streetnode/7995","STRNAMEFRE":"Rue Emile Versé","STRNAMEDUT":"Emile Verséstraat","SLOPE":1.66,"LENGTH":73.9401804980608},"bbox":[144924.71232339,169391.81932048,144935.71694466,169464.93599849]},{"type":"Feature","id":"StreetAxes.fid--1290087_1a02c00fa75_-297e","geometry":{"type":"LineString","coordinates":[[144769.66307137,169174.50242395],[144764.30977605,169177.70044712],[144757.21706028,169178.62674006],[144750.07543839,169176.27140072],[144744.92537376,169171.3073832]]},"geometry_name":"GEOM","properties":{"INSPIRE_ID":"https://databrussels.be/id/streetaxe/78263","TYPE":"S","HIERARCHY":"IDR","LVL":0,"STARTSN_ID":"https://databrussels.be/id/streetnode/7987","ENDSN_ID":"https://databrussels.be/id/streetnode/7092","STRNAMEFRE":"Square Egide Rombaux","STRNAMEDUT":"Egide Rombauxsquare","SLOPE":0.75,"LENGTH":28.0616846808456},"bbox":[144744.92537376,169171.3073832,144769.66307137,169178.62674006]},{"type":"Feature","id":"StreetAxes.fid--1290087_1a02c00fa75_-2991","geometry":{"type":"LineString","coordinates":[[144561.76305914,169245.62716523],[144565.12708962,169257.50244735],[144581.256,169341.547],[144588.064,169370.241],[144589.96845376,169377.04590159]]},"geometry_name":"GEOM","properties":{"INSPIRE_ID":"https://databrussels.be/id/streetaxe/78264","TYPE":"S","HIERARCHY":"DR","LVL":0,"STARTSN_ID":"https://databrussels.be/id/streetnode/7989","ENDSN_ID":"https://databrussels.be/id/streetnode/7291","STRNAMEFRE":"Avenue Albert De Coster","STRNAMEDUT":"Albert De Costerlaan","SLOPE":2.83,"LENGTH":134.477727640845},"bbox":[144561.76305914,169245.62716523,144589.96845376,169377.04590159]},{"type":"Feature","id":"StreetAxes.fid--1290087_1a02c00fa75_-298a","geometry":{"type":"LineString","coordinates":[[144951.60611031,169353.07121253],[144945.938,169360.751],[144924.71232339,169391.81932048]]},"geometry_name":"GEOM","properties":{"INSPIRE_ID":"https://databrussels.be/id/streetaxe/79216","TYPE":"S","HIERARCHY":"DR","LVL":0,"STARTSN_ID":"https://databrussels.be/id/streetnode/7194","ENDSN_ID":"https://databrussels.be/id/streetnode/8002","STRNAMEFRE":"Rue Emile Versé","STRNAMEDUT":"Emile Verséstraat","SLOPE":1.72,"LENGTH":47.1716959697054},"bbox":[144924.71232339,169353.07121253,144951.60611031,169391.81932048]},{"type":"Feature","id":"StreetAxes.fid--1290087_1a02c00fa75_-2985","geometry":{"type":"LineString","coordinates":[[144557.96240009,169219.87329138],[144555.00904626,169204.5741371],[144548.2604865,169179.82676846],[144540.175,169165.135],[144528.585,169148.925],[144517.46,169137.27],[144508.14,169129.775],[144494.39,169121.235],[144478.65668621,169113.5604989]]},"geometry_name":"GEOM","properties":{"INSPIRE_ID":"https://databrussels.be/id/streetaxe/79797","TYPE":"S","HIERARCHY":null,"LVL":0,"STARTSN_ID":"https://databrussels.be/id/streetnode/7993","ENDSN_ID":"https://databrussels.be/id/streetnode/7292","STRNAMEFRE":"Avenue Camille Vaneukem","STRNAMEDUT":"Camille Vaneukemlaan","SLOPE":1.12,"LENGTH":139.693113899642},"bbox":[144478.65668621,169113.5604989,144557.96240009,169219.87329138]},{"type":"Feature","id":"StreetAxes.fid--1290087_1a02c00fa75_-29a2","geometry":{"type":"LineString","coordinates":[[144811.04694692,169469.24867028],[144810.90429561,169448.83686],[144812.01144554,169433.22235781],[144819.20209554,169333.91275352],[144816.35090924,169309.56890763]]},"geometry_name":"GEOM","properties":{"INSPIRE_ID":"https://databrussels.be/id/streetaxe/79983","TYPE":"S","HIERARCHY":"DR","LVL":0,"STARTSN_ID":"https://databrussels.be/id/streetnode/7195","ENDSN_ID":"https://databrussels.be/id/streetnode/7992","STRNAMEFRE":"Rue René Henry","STRNAMEDUT":"René Henrystraat","SLOPE":2.42,"LENGTH":160.145846293522},"bbox":[144810.90429561,169309.56890763,144819.20209554,169469.24867028]},{"type":"Feature","id":"StreetAxes.fid--1290087_1a02c00fa75_-297d","geometry":{"type":"LineString","coordinates":[[144744.92537376,169171.3073832],[144737.70731292,169180.6002421],[144726.64,169187.2],[144584.15127479,169235.76362121],[144573.03536065,169232.88929077]]},"geometry_name":"GEOM","properties":{"INSPIRE_ID":"https://databrussels.be/id/streetaxe/80324","TYPE":"S","HIERARCHY":"DR","LVL":0,"STARTSN_ID":"https://databrussels.be/id/streetnode/7092","ENDSN_ID":"https://databrussels.be/id/streetnode/7690","STRNAMEFRE":"Rue Docteur Huet","STRNAMEDUT":"Dokter Huetstraat","SLOPE":0.01,"LENGTH":186.671304913352},"bbox":[144573.03536065,169171.3073832,144744.92537376,169235.76362121]},{"type":"Feature","id":"StreetAxes.fid--1290087_1a02c00fa75_-2993","geometry":{"type":"LineString","coordinates":[[144583.44979724,169409.11484888],[144554.112,169400.236],[144506.83,169385.51],[144495.969,169382.779]]},"geometry_name":"GEOM","properties":{"INSPIRE_ID":"https://databrussels.be/id/streetaxe/80325","TYPE":"S","HIERARCHY":"IDR","LVL":0,"STARTSN_ID":"https://databrussels.be/id/streetnode/7689","ENDSN_ID":"https://databrussels.be/id/streetnode/447","STRNAMEFRE":"Avenue d'Itterbeek","STRNAMEDUT":"Itterbeekse Laan","SLOPE":0.34,"LENGTH":91.3731571412348},"bbox":[144495.969,169382.779,144583.44979724,169409.11484888]},{"type":"Feature","id":"StreetAxes.fid--1290087_1a02c00fa75_-2990","geometry":{"type":"LineString","coordinates":[[144583.44979724,169409.11484888],[144621.34347365,169420.58306592]]},"geometry_name":"GEOM","properties":{"INSPIRE_ID":"https://databrussels.be/id/streetaxe/80326","TYPE":"S","HIERARCHY":"IDR","LVL":0,"STARTSN_ID":"https://databrussels.be/id/streetnode/7689","ENDSN_ID":"https://databrussels.be/id/streetnode/7288","STRNAMEFRE":"Avenue d'Itterbeek","STRNAMEDUT":"Itterbeekse Laan","SLOPE":0.18,"LENGTH":39.5910433541084},"bbox":[144583.44979724,169409.11484888,144621.34347365,169420.58306592]},{"type":"Feature","id":"StreetAxes.fid--1290087_1a02c00fa75_-2978","geometry":{"type":"LineString","coordinates":[[144573.03536065,169232.88929077],[144572.2269528,169237.07553449],[144570.2670809,169240.52113001],[144567.66407298,169242.98030475],[144561.76305914,169245.62716523]]},"geometry_name":"GEOM","properties":{"INSPIRE_ID":"https://databrussels.be/id/streetaxe/80327","TYPE":"S","HIERARCHY":"DR","LVL":0,"STARTSN_ID":"https://databrussels.be/id/streetnode/7690","ENDSN_ID":"https://databrussels.be/id/streetnode/7989","STRNAMEFRE":"Rond point Pierre De Tollenaere","STRNAMEDUT":"Pierre De Tollenaereplein","SLOPE":1.59,"LENGTH":18.275969032704},"bbox":[144561.76305914,169232.88929077,144573.03536065,169245.62716523]},{"type":"Feature","id":"StreetAxes.fid--1290087_1a02c00fa75_-297c","geometry":{"type":"LineString","coordinates":[[144827.47857291,169242.88373241],[144774.73669437,169183.78565704],[144769.66307137,169174.50242395]]},"geometry_name":"GEOM","properties":{"INSPIRE_ID":"https://databrussels.be/id/streetaxe/80328","TYPE":"S","HIERARCHY":"IDR","LVL":0,"STARTSN_ID":"https://databrussels.be/id/streetnode/7285","ENDSN_ID":"https://databrussels.be/id/streetnode/7987","STRNAMEFRE":"Avenue Théo Verbeeck","STRNAMEDUT":"Théo Verbeecklaan","SLOPE":1.38,"LENGTH":89.7896331153134},"bbox":[144769.66307137,169174.50242395,144827.47857291,169242.88373241]},{"type":"Feature","id":"StreetAxes.fid--1290087_1a02c00fa75_-299f","geometry":{"type":"LineString","coordinates":[[144827.47857291,169242.88373241],[144820.22536215,169249.5224845],[144823.36763568,169288.01344615],[144826.60872052,169290.72479263],[144843.21999515,169291.48129043]]},"geometry_name":"GEOM","properties":{"INSPIRE_ID":"https://databrussels.be/id/streetaxe/80329","TYPE":"S","HIERARCHY":"IDR","LVL":0,"STARTSN_ID":"https://databrussels.be/id/streetnode/7285","ENDSN_ID":"https://databrussels.be/id/streetnode/7998","STRNAMEFRE":"Rue René Henry","STRNAMEDUT":"René Henrystraat","SLOPE":0.55,"LENGTH":69.3058477313014},"bbox":[144820.22536215,169242.88373241,144843.21999515,169291.48129043]},{"type":"Feature","id":"StreetAxes.fid--1290087_1a02c00fa75_-2986","geometry":{"type":"LineString","coordinates":[[144717.95106574,169145.70317222],[144697.294,169131.468],[144584.51820177,169062.0244464],[144452.10758596,168983.02190837]]},"geometry_name":"GEOM","properties":{"INSPIRE_ID":"https://databrussels.be/id/streetaxe/80331","TYPE":"S","HIERARCHY":"IDR","LVL":0,"STARTSN_ID":"https://databrussels.be/id/streetnode/7289","ENDSN_ID":"https://databrussels.be/id/streetnode/7585","STRNAMEFRE":"Rue de Neerpede","STRNAMEDUT":"Neerpedestraat","SLOPE":1.41,"LENGTH":311.716684450511},"bbox":[144452.10758596,168983.02190837,144717.95106574,169145.70317222]},{"type":"Feature","id":"StreetAxes.fid--1290087_1a02c00fa75_-2983","geometry":{"type":"LineString","coordinates":[[144717.95106574,169145.70317222],[144724.745,169150.385],[144742.88000432,169156.01389643]]},"geometry_name":"GEOM","properties":{"INSPIRE_ID":"https://databrussels.be/id/streetaxe/80332","TYPE":"S","HIERARCHY":"IDR","LVL":0,"STARTSN_ID":"https://databrussels.be/id/streetnode/7289","ENDSN_ID":"https://databrussels.be/id/streetnode/7287","STRNAMEFRE":"Square Egide Rombaux","STRNAMEDUT":"Egide Rombauxsquare","SLOPE":1.87,"LENGTH":27.2393747677101},"bbox":[144717.95106574,169145.70317222,144742.88000432,169156.01389643]},{"type":"Feature","id":"StreetAxes.fid--1290087_1a02c00fa75_-298e","geometry":{"type":"LineString","coordinates":[[144589.96845376,169377.04590159],[144602.63149976,169392.97287239],[144614.89165203,169409.45396909],[144621.34347365,169420.58306592]]},"geometry_name":"GEOM","properties":{"INSPIRE_ID":"https://databrussels.be/id/streetaxe/80333","TYPE":"S","HIERARCHY":"DR","LVL":0,"STARTSN_ID":"https://databrussels.be/id/streetnode/7291","ENDSN_ID":"https://databrussels.be/id/streetnode/7288","STRNAMEFRE":"Avenue Albert De Coster","STRNAMEDUT":"Albert De Costerlaan","SLOPE":2.05,"LENGTH":53.7526476196616},"bbox":[144589.96845376,169377.04590159,144621.34347365,169420.58306592]},{"type":"Feature","id":"StreetAxes.fid--1290087_1a02c00fa75_-29a6","geometry":{"type":"LineString","coordinates":[[144972.324,169459.604],[144961.83,169461.085],[144952.26155222,169462.44593971],[144935.71694466,169464.93599849]]},"geometry_name":"GEOM","properties":{"INSPIRE_ID":"https://databrussels.be/id/streetaxe/81947","TYPE":"S","HIERARCHY":"DC","LVL":0,"STARTSN_ID":"https://databrussels.be/id/streetnode/1323","ENDSN_ID":"https://databrussels.be/id/streetnode/7995","STRNAMEFRE":"Avenue d'Itterbeek","STRNAMEDUT":"Itterbeekse Laan","SLOPE":0.54,"LENGTH":36.9936803729403},"bbox":[144935.71694466,169459.604,144972.324,169464.93599849]},{"type":"Feature","id":"StreetAxes.fid--1290087_1a02c00fa75_-2999","geometry":{"type":"LineString","coordinates":[[144951.60611031,169353.07121253],[144887.32107007,169308.87174053],[144857.74166476,169276.79398614]]},"geometry_name":"GEOM","properties":{"INSPIRE_ID":"https://databrussels.be/id/streetaxe/81950","TYPE":"S","HIERARCHY":"DR","LVL":0,"STARTSN_ID":"https://databrussels.be/id/streetnode/7194","ENDSN_ID":"https://databrussels.be/id/streetnode/7988","STRNAMEFRE":"Avenue Théo Verbeeck","STRNAMEDUT":"Théo Verbeecklaan","SLOPE":1.15,"LENGTH":121.647815533075},"bbox":[144857.74166476,169276.79398614,144951.60611031,169353.07121253]},{"type":"Feature","id":"StreetAxes.fid--1290087_1a02c00fa75_-2980","geometry":{"type":"LineString","coordinates":[[144772.87442228,169151.56009637],[144775.01258906,169159.9666633],[144773.8360485,169168.59331312],[144769.66307137,169174.50242395]]},"geometry_name":"GEOM","properties":{"INSPIRE_ID":"https://databrussels.be/id/streetaxe/82815","TYPE":"S","HIERARCHY":"IDR","LVL":0,"STARTSN_ID":"https://databrussels.be/id/streetnode/8000","ENDSN_ID":"https://databrussels.be/id/streetnode/7987","STRNAMEFRE":"Square Egide Rombaux","STRNAMEDUT":"Egide Rombauxsquare","SLOPE":1.22,"LENGTH":24.6147725093884},"bbox":[144769.66307137,169151.56009637,144775.01258906,169174.50242395]},{"type":"Feature","id":"StreetAxes.fid--1290087_1a02c00fa75_-297a","geometry":{"type":"LineString","coordinates":[[144552.52636618,169242.69202885],[144549.68907781,169239.61615239],[144548.09963562,169236.12600938],[144547.61001456,169232.66153892],[144548.12954158,169228.99186167],[144549.89974368,169225.31178439],[144552.94198597,169222.24771899],[144557.96240009,169219.87329138]]},"geometry_name":"GEOM","properties":{"INSPIRE_ID":"https://databrussels.be/id/streetaxe/82816","TYPE":"S","HIERARCHY":"DR","LVL":0,"STARTSN_ID":"https://databrussels.be/id/streetnode/8001","ENDSN_ID":"https://databrussels.be/id/streetnode/7993","STRNAMEFRE":"Rond point Pierre De Tollenaere","STRNAMEDUT":"Pierre De Tollenaereplein","SLOPE":1.2,"LENGTH":29.1799707889143},"bbox":[144547.61001456,169219.87329138,144557.96240009,169242.69202885]},{"type":"Feature","id":"StreetAxes.fid--1290087_1a02c00fa75_-2994","geometry":{"type":"LineString","coordinates":[[144552.52636618,169242.69202885],[144546.3322492,169250.08904061],[144500.122,169300.066],[144479.64,169316.205],[144436.224,169346.604],[144430.27850077,169351.6024922],[144426.21317763,169361.18209559],[144425.03484667,169366.51434072]]},"geometry_name":"GEOM","properties":{"INSPIRE_ID":"https://databrussels.be/id/streetaxe/82817","TYPE":"S","HIERARCHY":"DR","LVL":0,"STARTSN_ID":"https://databrussels.be/id/streetnode/8001","ENDSN_ID":"https://databrussels.be/id/streetnode/7960","STRNAMEFRE":"Rue Docteur Huet","STRNAMEDUT":"Dokter Huetstraat","SLOPE":2.44,"LENGTH":180.426476454381},"bbox":[144425.03484667,169242.69202885,144552.52636618,169366.51434072]},{"type":"Feature","id":"StreetAxes.fid--1290087_1a02c00fa75_-2996","geometry":{"type":"LineString","coordinates":[[144924.71232339,169391.81932048],[144915.68573849,169405.15139317],[144924.94009891,169466.63902405]]},"geometry_name":"GEOM","properties":{"INSPIRE_ID":"https://databrussels.be/id/streetaxe/82818","TYPE":"S","HIERARCHY":"DR","LVL":0,"STARTSN_ID":"https://databrussels.be/id/streetnode/8002","ENDSN_ID":"https://databrussels.be/id/streetnode/7196","STRNAMEFRE":"Rue Emile Versé","STRNAMEDUT":"Emile Verséstraat","SLOPE":1.65,"LENGTH":78.2805731628201},"bbox":[144915.68573849,169391.81932048,144924.94009891,169466.63902405]},{"type":"Feature","id":"StreetAxes.fid--1290087_1a02c00fa75_-298d","geometry":{"type":"LineString","coordinates":[[144655.228,169430.648],[144646.749,169427.926],[144621.34347365,169420.58306592]]},"geometry_name":"GEOM","properties":{"INSPIRE_ID":"https://databrussels.be/id/streetaxe/84438","TYPE":"S","HIERARCHY":"IDR","LVL":0,"STARTSN_ID":"https://databrussels.be/id/streetnode/1499","ENDSN_ID":"https://databrussels.be/id/streetnode/7288","STRNAMEFRE":"Avenue d'Itterbeek","STRNAMEDUT":"Itterbeekse Laan","SLOPE":0.54,"LENGTH":35.3506128280384},"bbox":[144621.34347365,169420.58306592,144655.228,169430.648]},{"type":"Feature","id":"StreetAxes.fid--1290087_1a02c00fa75_-2984","geometry":{"type":"LineString","coordinates":[[144717.95106574,169145.70317222],[144710.42303054,169153.32439341],[144695.064,169159.826],[144574.15076041,169213.89676168],[144567.64080552,169222.24993975]]},"geometry_name":"GEOM","properties":{"INSPIRE_ID":"https://databrussels.be/id/streetaxe/85003","TYPE":"S","HIERARCHY":"DR","LVL":0,"STARTSN_ID":"https://databrussels.be/id/streetnode/7289","ENDSN_ID":"https://databrussels.be/id/streetnode/11064","STRNAMEFRE":"Rue Docteur Huet","STRNAMEDUT":"Dokter Huetstraat","SLOPE":0.4,"LENGTH":170.433602734656},"bbox":[144567.64080552,169145.70317222,144717.95106574,169222.24993975]},{"type":"Feature","id":"StreetAxes.fid--1290087_1a02c00fa75_-299d","geometry":{"type":"LineString","coordinates":[[144905.64010409,169469.63486361],[144895.734,169471.012],[144854.46171411,169477.38719509],[144825.35076761,169473.78795819]]},"geometry_name":"GEOM","properties":{"INSPIRE_ID":"https://databrussels.be/id/streetaxe/89205","TYPE":"S","HIERARCHY":"DC","LVL":0,"STARTSN_ID":"https://databrussels.be/id/streetnode/7754","ENDSN_ID":"https://databrussels.be/id/streetnode/7755","STRNAMEFRE":"Avenue d'Itterbeek","STRNAMEDUT":"Itterbeekse Laan","SLOPE":0.44,"LENGTH":81.0957361453577},"bbox":[144825.35076761,169469.63486361,144905.64010409,169477.38719509]},{"type":"Feature","id":"StreetAxes.fid--1290087_1a02c00fa75_-2981","geometry":{"type":"LineString","coordinates":[[144756.21964823,169146.29653587],[144765.45561086,169147.02650975],[144772.87442228,169151.56009637]]},"geometry_name":"GEOM","properties":{"INSPIRE_ID":"https://databrussels.be/id/streetaxe/89847","TYPE":"I","HIERARCHY":"IDR","LVL":0,"STARTSN_ID":"https://databrussels.be/id/streetnode/7991","ENDSN_ID":"https://databrussels.be/id/streetnode/8000","STRNAMEFRE":"Square Egide Rombaux","STRNAMEDUT":"Egide Rombauxsquare","SLOPE":0.06,"LENGTH":17.9591406340072},"bbox":[144756.21964823,169146.29653587,144772.87442228,169151.56009637]},{"type":"Feature","id":"StreetAxes.fid--1290087_1a02c00fa75_-2979","geometry":{"type":"LineString","coordinates":[[144567.64080552,169222.24993975],[144571.74668275,169226.85586785],[144573.03536065,169232.88929077]]},"geometry_name":"GEOM","properties":{"INSPIRE_ID":"https://databrussels.be/id/streetaxe/89848","TYPE":"I","HIERARCHY":"DR","LVL":0,"STARTSN_ID":"https://databrussels.be/id/streetnode/11064","ENDSN_ID":"https://databrussels.be/id/streetnode/7690","STRNAMEFRE":"Rond point Pierre De Tollenaere","STRNAMEDUT":"Pierre De Tollenaereplein","SLOPE":2.03,"LENGTH":12.3398285269779},"bbox":[144567.64080552,169222.24993975,144573.03536065,169232.88929077]},{"type":"Feature","id":"StreetAxes.fid--1290087_1a02c00fa75_-298f","geometry":{"type":"LineString","coordinates":[[144589.96845376,169377.04590159],[144588.45812494,169395.85524064],[144585.42994715,169402.53874793],[144583.44979724,169409.11484888]]},"geometry_name":"GEOM","properties":{"INSPIRE_ID":"https://databrussels.be/id/streetaxe/89849","TYPE":"I","HIERARCHY":"IDR","LVL":0,"STARTSN_ID":"https://databrussels.be/id/streetnode/7291","ENDSN_ID":"https://databrussels.be/id/streetnode/7689","STRNAMEFRE":"Avenue Albert De Coster","STRNAMEDUT":"Albert De Costerlaan","SLOPE":3.11,"LENGTH":33.0751519625111},"bbox":[144583.44979724,169377.04590159,144589.96845376,169409.11484888]},{"type":"Feature","id":"StreetAxes.fid--1290087_1a02c00fa75_-2982","geometry":{"type":"LineString","coordinates":[[144742.88000432,169156.01389643],[144748.00889707,169149.25386291],[144756.21964823,169146.29653587]]},"geometry_name":"GEOM","properties":{"INSPIRE_ID":"https://databrussels.be/id/streetaxe/89850","TYPE":"I","HIERARCHY":"IDR","LVL":0,"STARTSN_ID":"https://databrussels.be/id/streetnode/7287","ENDSN_ID":"https://databrussels.be/id/streetnode/7991","STRNAMEFRE":"Square Egide Rombaux","STRNAMEDUT":"Egide Rombauxsquare","SLOPE":2.44,"LENGTH":17.2125899154267},"bbox":[144742.88000432,169146.29653587,144756.21964823,169156.01389643]},{"type":"Feature","id":"StreetAxes.fid--1290087_1a02c00fa75_-297b","geometry":{"type":"LineString","coordinates":[[144557.96240009,169219.87329138],[144563.13155142,169220.18978512],[144567.64080552,169222.24993975]]},"geometry_name":"GEOM","properties":{"INSPIRE_ID":"https://databrussels.be/id/streetaxe/89851","TYPE":"I","HIERARCHY":"DR","LVL":0,"STARTSN_ID":"https://databrussels.be/id/streetnode/7993","ENDSN_ID":"https://databrussels.be/id/streetnode/11064","STRNAMEFRE":"Rond point Pierre De Tollenaere","STRNAMEDUT":"Pierre De Tollenaereplein","SLOPE":0.3,"LENGTH":10.1364123341746},"bbox":[144557.96240009,169219.87329138,144567.64080552,169222.24993975]},{"type":"Feature","id":"StreetAxes.fid--1290087_1a02c00fa75_-2992","geometry":{"type":"LineString","coordinates":[[144561.76305914,169245.62716523],[144557.00693912,169244.93636208],[144552.52636618,169242.69202885]]},"geometry_name":"GEOM","properties":{"INSPIRE_ID":"https://databrussels.be/id/streetaxe/89852","TYPE":"I","HIERARCHY":"DR","LVL":0,"STARTSN_ID":"https://databrussels.be/id/streetnode/7989","ENDSN_ID":"https://databrussels.be/id/streetnode/8001","STRNAMEFRE":"Rond point Pierre De Tollenaere","STRNAMEDUT":"Pierre De Tollenaereplein","SLOPE":2.24,"LENGTH":9.81726999051406},"bbox":[144552.52636618,169242.69202885,144561.76305914,169245.62716523]},{"type":"Feature","id":"StreetAxes.fid--1290087_1a02c00fa75_-297f","geometry":{"type":"LineString","coordinates":[[144744.92537376,169171.3073832],[144742.14631744,169164.04143912],[144742.88000432,169156.01389643]]},"geometry_name":"GEOM","properties":{"INSPIRE_ID":"https://databrussels.be/id/streetaxe/89853","TYPE":"I","HIERARCHY":"IDR","LVL":0,"STARTSN_ID":"https://databrussels.be/id/streetnode/7092","ENDSN_ID":"https://databrussels.be/id/streetnode/7287","STRNAMEFRE":"Square Egide Rombaux","STRNAMEDUT":"Egide Rombauxsquare","SLOPE":0.51,"LENGTH":15.8402746401833},"bbox":[144742.14631744,169156.01389643,144744.92537376,169171.3073832]},{"type":"Feature","id":"StreetAxes.fid--1290087_1a02c00fa75_-29a7","geometry":{"type":"LineString","coordinates":[[144935.71694466,169464.93599849],[144924.94009891,169466.63902405]]},"geometry_name":"GEOM","properties":{"INSPIRE_ID":"https://databrussels.be/id/streetaxe/89854","TYPE":"I","HIERARCHY":"DC","LVL":0,"STARTSN_ID":"https://databrussels.be/id/streetnode/7995","ENDSN_ID":"https://databrussels.be/id/streetnode/7196","STRNAMEFRE":"Avenue d'Itterbeek","STRNAMEDUT":"Itterbeekse Laan","SLOPE":0.55,"LENGTH":10.910577456488},"bbox":[144924.94009891,169464.93599849,144935.71694466,169466.63902405]},{"type":"Feature","id":"StreetAxes.fid--1290087_1a02c00fa75_-2998","geometry":{"type":"LineString","coordinates":[[144905.64010409,169469.63486361],[144924.94009891,169466.63902405]]},"geometry_name":"GEOM","properties":{"INSPIRE_ID":"https://databrussels.be/id/streetaxe/89855","TYPE":"I","HIERARCHY":"DC","LVL":0,"STARTSN_ID":"https://databrussels.be/id/streetnode/7754","ENDSN_ID":"https://databrussels.be/id/streetnode/7196","STRNAMEFRE":"Avenue d'Itterbeek","STRNAMEDUT":"Itterbeekse Laan","SLOPE":1.23,"LENGTH":19.5311252811956},"bbox":[144905.64010409,169466.63902405,144924.94009891,169469.63486361]},{"type":"Feature","id":"StreetAxes.fid--1290087_1a02c00fa75_-299b","geometry":{"type":"LineString","coordinates":[[144857.74166476,169276.79398614],[144827.47857291,169242.88373241]]},"geometry_name":"GEOM","properties":{"INSPIRE_ID":"https://databrussels.be/id/streetaxe/89856","TYPE":"I","HIERARCHY":"IDR","LVL":0,"STARTSN_ID":"https://databrussels.be/id/streetnode/7988","ENDSN_ID":"https://databrussels.be/id/streetnode/7285","STRNAMEFRE":"Rue René Henry","STRNAMEDUT":"René Henrystraat","SLOPE":1.3,"LENGTH":45.4506329586281},"bbox":[144827.47857291,169242.88373241,144857.74166476,169276.79398614]},{"type":"Feature","id":"StreetAxes.fid--1290087_1a02c00fa75_-299a","geometry":{"type":"LineString","coordinates":[[144857.74166476,169276.79398614],[144845.81005324,169287.79631407],[144843.21999515,169291.48129043]]},"geometry_name":"GEOM","properties":{"INSPIRE_ID":"https://databrussels.be/id/streetaxe/89857","TYPE":"I","HIERARCHY":"IDR","LVL":0,"STARTSN_ID":"https://databrussels.be/id/streetnode/7988","ENDSN_ID":"https://databrussels.be/id/streetnode/7998","STRNAMEFRE":"Rue René Henry","STRNAMEDUT":"René Henrystraat","SLOPE":1.01,"LENGTH":20.7342109255843},"bbox":[144843.21999515,169276.79398614,144857.74166476,169291.48129043]},{"type":"Feature","id":"StreetAxes.fid--1290087_1a02c00fa75_-2989","geometry":{"type":"LineString","coordinates":[[145100.21,169004.29],[145092.497,168999.175],[144970.635,168921.39],[144958.151,168913.423]]},"geometry_name":"GEOM","properties":{"INSPIRE_ID":"https://databrussels.be/id/streetaxe/91730","TYPE":"SC","HIERARCHY":"DC","LVL":0,"STARTSN_ID":"https://databrussels.be/id/streetnode/888","ENDSN_ID":"https://databrussels.be/id/streetnode/807","STRNAMEFRE":"Avenue du Roi-Soldat","STRNAMEDUT":"Koning-Soldaatlaan","SLOPE":1.74,"LENGTH":168.635766073068},"bbox":[144958.151,168913.423,145100.21,169004.29]},{"type":"Feature","id":"StreetAxes.fid--1290087_1a02c00fa75_-29a0","geometry":{"type":"LineString","coordinates":[[144811.04694692,169469.24867028],[144825.35076761,169473.78795819]]},"geometry_name":"GEOM","properties":{"INSPIRE_ID":"https://databrussels.be/id/streetaxe/92459","TYPE":"I","HIERARCHY":"IDR","LVL":0,"STARTSN_ID":"https://databrussels.be/id/streetnode/7195","ENDSN_ID":"https://databrussels.be/id/streetnode/7755","STRNAMEFRE":"Rue René Henry","STRNAMEDUT":"René Henrystraat","SLOPE":0.47,"LENGTH":15.0068124897625},"bbox":[144811.04694692,169469.24867028,144825.35076761,169473.78795819]}],"numberReturned":48,"grand_bruxelles_source":{"authority":"Paradigm / Brussels-Capital Region","service":"https://geoservices-urbis.irisnet.be/geoserver/urbisvector/wfs","layer":"urbisvector:StreetAxes","crs":"EPSG:31370","bbox":[144500.0,169000.0,145000.0,169500.0],"cell_id":"bxl-e144500-n169000-s500","ownership":"bbox_intersection_source_unclipped"}}
