{"type":"FeatureCollection","totalFeatures":24,"numberMatched":24,"timeStamp":"2026-08-24T01:19:28.802Z","crs":{"type":"name","properties":{"name":"urn:ogc:def:crs:EPSG::31370"}},"bbox":[150395.91033923,169960.40206074,150637.25080363,170218.74465057],"features":[{"type":"Feature","id":"TramNetwork.fid--6f55e203_1a031389953_-ba7","geometry":{"type":"LineString","coordinates":[[150451.93143893,170090.54187619],[150454.7111142,170095.28689443],[150457.35610453,170099.71913359],[150459.97002374,170103.88638144],[150462.54940909,170107.66625359],[150465.86339749,170112.60467868],[150468.69568493,170116.43302186],[150471.88389793,170120.60231384],[150475.65100027,170125.16837271],[150477.68490344,170127.58198403],[150479.12337402,170129.22432267],[150480.40450486,170130.73682314],[150481.98554216,170132.48719554],[150483.64320977,170134.3113909],[150485.84127191,170136.65536449],[150487.74011736,170138.65263292],[150489.8753001,170140.8012741],[150492.66850667,170143.59130208],[150495.93516444,170146.71715114],[150498.85099286,170149.40459144],[150501.78997747,170152.06242283],[150504.83571405,170154.68022817],[150506.83317247,170156.38791665],[150509.8377859,170158.88705581],[150512.18001656,170160.72121613],[150514.94701128,170162.83026775],[150518.17221423,170165.3220122],[150521.08947481,170167.42548446],[150524.02611571,170169.54321483],[150526.95673846,170171.57212814],[150529.41523946,170173.2635867],[150534.8339702,170176.70892293],[150538.3767195,170178.903679],[150544.40184906,170182.47082348],[150548.04603923,170184.53636743],[150551.97658766,170186.68314736],[150555.12184863,170188.39846074],[150559.83438273,170190.90856108],[150563.05822612,170192.55167952]]},"geometry_name":"GEOM","properties":{"INSPIRE_ID":"https://databrussels.be/id/rail/24254","TYPE":"RW","LVL":0,"SLOPE":null,"LENGTH":153.220389922353},"bbox":[150451.93143893,170090.54187619,150563.05822612,170192.55167952]},{"type":"Feature","id":"TramNetwork.fid--6f55e203_1a031389953_-ba6","geometry":{"type":"LineString","coordinates":[[150453.3902742,170090.06475255],[150456.00224158,170094.52348661],[150458.63558744,170098.936213],[150461.22528266,170103.0648417],[150463.79163701,170106.82561802],[150467.08968416,170111.74028785],[150469.894404,170115.53136848],[150473.05853456,170119.66916736],[150476.8030155,170124.20780712],[150478.82265833,170126.60449583],[150480.25987519,170128.24540307],[150481.53359298,170129.74915171],[150483.09711442,170131.48013224],[150484.74536413,170133.29396358],[150486.93186595,170135.62560945],[150488.81573992,170137.60713039],[150490.93726981,170139.74203266],[150493.71712314,170142.5187226],[150496.9620151,170145.62374405],[150499.86230928,170148.29686687],[150502.78200358,170150.93725333],[150505.81189616,170153.54144077],[150507.80013745,170155.24124925],[150510.7799511,170157.71976075],[150513.09706284,170159.53425088],[150515.86015646,170161.64032902],[150519.06959232,170164.11989205],[150521.96676038,170166.20887672],[150524.89174608,170168.31820206],[150527.80871415,170170.33766203],[150530.24298824,170172.01245238],[150535.63134478,170175.43847609],[150539.15382459,170177.62067509],[150545.15379432,170181.17292383],[150548.77537999,170183.22565544],[150552.69514961,170185.36654822],[150555.83350758,170187.07809694],[150560.52756175,170189.57835407],[150563.72846372,170191.2097798]]},"geometry_name":"GEOM","properties":{"INSPIRE_ID":"https://databrussels.be/id/rail/24583","TYPE":"RW","LVL":0,"SLOPE":null,"LENGTH":152.028194085532},"bbox":[150453.3902742,170090.06475255,150563.72846372,170191.2097798]},{"type":"Feature","id":"TramNetwork.fid--6f55e203_1a031389953_-ba2","geometry":{"type":"LineString","coordinates":[[150464.19427455,170086.53121859],[150464.9713594,170087.83867257],[150468.50042874,170093.61932101],[150473.90306979,170101.52903688],[150479.75752301,170109.39977691],[150485.88796125,170117.05751143],[150492.2866412,170124.49256799],[150494.12510972,170126.53771357],[150494.54800854,170127.00262911],[150495.36766183,170127.89750127],[150496.20619094,170128.80685297],[150497.0636485,170129.73068733],[150497.93982391,170130.66869843],[150498.83345384,170131.61934398],[150499.74301176,170132.58077263],[150502.77450199,170135.44851663],[150507.26924772,170139.71559781],[150513.45063346,170145.26974847],[150519.23062331,170150.10417643],[150525.41756087,170155.05132367],[150530.9198908,170159.16727906],[150535.46793391,170162.47426698],[150539.34254241,170165.00562399],[150544.88546996,170168.66820201],[150549.64118861,170171.56626131],[150556.10345813,170175.25439736],[150562.53467535,170178.72140082],[150571.14046731,170182.97446913],[150578.66428082,170186.31519406],[150585.58605714,170189.23964481],[150598.08842677,170194.06167933]]},"geometry_name":"GEOM","properties":{"INSPIRE_ID":"https://databrussels.be/id/rail/24874","TYPE":"RW","LVL":0,"SLOPE":null,"LENGTH":175.267707259763},"bbox":[150464.19427455,170086.53121859,150598.08842677,170194.06167933]},{"type":"Feature","id":"TramNetwork.fid--6f55e203_1a031389953_-ba5","geometry":{"type":"LineString","coordinates":[[150458.68292078,170088.33375053],[150459.25838786,170089.38043901],[150462.56489159,170094.7480099],[150466.42778516,170101.01446844],[150468.29695103,170103.88933869],[150473.00738981,170110.40312468],[150479.18306066,170118.33590046],[150485.78720928,170126.21482094],[150488.89481587,170129.64892015],[150493.14234908,170134.21229124],[150497.08233607,170138.2492007],[150501.15427924,170142.26159294],[150506.45693059,170147.1128766],[150510.67188205,170150.92488366],[150514.18708235,170153.94023792],[150519.16371473,170157.94076153],[150523.47950374,170161.25834638],[150527.64103771,170164.32110564],[150532.10884814,170167.44785994],[150536.91085097,170170.72454794],[150542.20528996,170174.10987231],[150546.25409141,170176.5199275],[150550.58729705,170179.01835136],[150555.28939026,170181.66157552],[150560.11147298,170184.13325534],[150566.15473191,170187.12127258],[150572.97259197,170190.31374252],[150578.82849355,170192.7895354],[150583.95551804,170194.81992116],[150590.55478825,170197.34874443],[150600.64468473,170200.70396345],[150608.08387262,170202.8286133],[150636.79027064,170210.76676524]]},"geometry_name":"GEOM","properties":{"INSPIRE_ID":"https://databrussels.be/id/rail/24996","TYPE":"RW","LVL":0,"SLOPE":null,"LENGTH":222.822313262681},"bbox":[150458.68292078,170088.33375053,150636.79027064,170210.76676524]},{"type":"Feature","id":"TramNetwork.fid--6f55e203_1a031389953_-ba9","geometry":{"type":"LineString","coordinates":[[150448.3426142,170091.71562976],[150448.65436775,170092.27723007],[150451.52205866,170097.17249457],[150454.19581057,170101.65292981],[150456.86956247,170105.91556611],[150459.48113411,170109.74260455],[150462.83449701,170114.73970456],[150465.7348758,170118.6600854],[150468.98257189,170122.90716464],[150472.80554856,170127.54094811],[150474.87467447,170129.99635787],[150476.31624171,170131.64223204],[150477.6156826,170133.17634932],[150479.23998371,170134.97461925],[150480.92091329,170136.82441346],[150483.14752918,170139.19883625],[150485.08335385,170141.23500064],[150487.25225881,170143.41757661],[150490.07844757,170146.24054925],[150493.39886643,170149.41784203],[150496.35306408,170152.14064621],[150499.3396953,170154.84156618],[150502.42456621,170157.49300741],[150504.44479072,170159.22015931],[150507.51065907,170161.77024831],[150509.91493289,170163.65299356],[150512.69156325,170165.76938963],[150515.95571054,170168.29122191],[150518.92259804,170170.43047734],[150521.88802819,170172.5689688],[150524.85237772,170174.62123166],[150527.37071859,170176.35386029],[150532.86447295,170179.84689802],[150536.45728743,170182.0726698],[150542.54456119,170185.6766064],[150546.24458396,170187.77379654],[150550.20175582,170189.9351176],[150553.36406705,170191.65972958],[150558.12224619,170194.19414245],[150561.40275433,170195.8661416],[150567.3743043,170198.78828488],[150575.06085525,170202.40641413],[150580.83473811,170204.96666284],[150587.83562312,170207.97193742],[150593.86710998,170210.43146511],[150599.79200208,170212.71906523],[150604.3664163,170214.41534112],[150610.13331973,170216.5010993],[150616.83435494,170218.74465057]]},"geometry_name":"GEOM","properties":{"INSPIRE_ID":"https://databrussels.be/id/rail/24997","TYPE":"RW","LVL":0,"SLOPE":null,"LENGTH":216.183256947773},"bbox":[150448.3426142,170091.71562976,150616.83435494,170218.74465057]},{"type":"Feature","id":"TramNetwork.fid--6f55e203_1a031389953_-ba3","geometry":{"type":"LineString","coordinates":[[150462.75651689,170087.00144863],[150463.68191685,170088.60505233],[150467.24159537,170094.46257753],[150472.68360098,170102.40288272],[150478.56987598,170110.31640402],[150484.73363612,170118.01576203],[150491.16027835,170125.48330985],[150493.01252881,170127.54378671],[150493.44013323,170128.01387536],[150494.26322808,170128.91250492],[150495.10511146,170129.82549418],[150495.96584746,170130.75286078],[150496.8452692,170131.6943473],[150497.74216347,170132.64846547],[150498.6819613,170133.64185857],[150501.74271421,170136.53728463],[150506.25141075,170140.81760999],[150512.46787359,170146.40327841],[150518.28094405,170151.26537525],[150524.49969376,170156.23795986],[150530.02953471,170160.37449456],[150534.61612699,170163.70951248],[150538.51886605,170166.25924772],[150544.08145316,170169.93481611],[150548.87899459,170172.85836154],[150555.37569997,170176.56615078],[150561.84627091,170180.05436943],[150570.50354479,170184.33288061],[150578.067979,170187.69164195],[150585.02410715,170190.63060636],[150597.57267709,170195.4710523]]},"geometry_name":"GEOM","properties":{"INSPIRE_ID":"https://databrussels.be/id/rail/25325","TYPE":"RW","LVL":0,"SLOPE":null,"LENGTH":176.624712820948},"bbox":[150462.75651689,170087.00144863,150597.57267709,170195.4710523]},{"type":"Feature","id":"TramNetwork.fid--6f55e203_1a031389953_-ba8","geometry":{"type":"LineString","coordinates":[[150617.30628702,170217.32079162],[150610.62659887,170215.08438748],[150604.88228235,170213.00679849],[150600.32293602,170211.31611004],[150594.42050181,170209.0371809],[150591.84283769,170207.98605762],[150588.41472291,170206.58813644],[150581.43463223,170203.59178826],[150575.68437636,170201.0420162],[150568.02342217,170197.43593558],[150562.073038,170194.52414966],[150558.81547284,170192.86384401],[150554.07577491,170190.33927504],[150550.92036718,170188.61842798],[150546.97397485,170186.46299446],[150543.29655813,170184.37861755],[150537.23444592,170180.7895777],[150533.66190233,170178.57636387],[150528.19852427,170175.10263998],[150525.70441195,170173.3866807],[150522.75371805,170171.34387184],[150519.79994439,170169.21378633],[150516.85315031,170167.08901913],[150513.60477119,170164.57936911],[150510.8320422,170162.46594673],[150508.45288902,170160.60287303],[150505.41182216,170158.0734131],[150503.40081542,170156.35414174],[150500.3317896,170153.71631934],[150497.36445,170151.0328455],[150494.42578766,170148.32435979],[150491.12713612,170145.16789605],[150488.31430152,170142.35826237],[150486.15905034,170140.18942625],[150484.23819818,170138.16901044],[150482.02314341,170135.80691622],[150480.35163237,170133.96748673],[150478.74484833,170132.18861002],[150477.45282099,170130.66324516],[150476.01250756,170129.01880249],[150473.95764298,170126.58031649],[150470.15728926,170121.97395402],[150466.93367726,170117.75837005],[150464.06086797,170113.87525432],[150460.7234474,170108.90191119],[150458.12490766,170105.09396991],[150455.47538141,170100.86995541],[150452.81327477,170096.40903428],[150449.9486604,170091.51902155],[150449.80348559,170091.23784019]]},"geometry_name":"GEOM","properties":{"INSPIRE_ID":"https://databrussels.be/id/rail/25914","TYPE":"RW","LVL":0,"SLOPE":null,"LENGTH":214.776056734233},"bbox":[150449.80348559,170091.23784019,150617.30628702,170217.32079162]},{"type":"Feature","id":"TramNetwork.fid--6f55e203_1a031389953_-ba4","geometry":{"type":"LineString","coordinates":[[150637.25080363,170209.33782112],[150621.47647366,170204.97576121],[150608.48974077,170201.38455276],[150601.08751191,170199.27045851],[150591.06006983,170195.93600761],[150584.50005061,170193.42222521],[150579.3967744,170191.40124417],[150573.58291851,170188.94322761],[150566.80526833,170185.76958599],[150560.78603149,170182.79344618],[150555.99927653,170180.3398745],[150551.32945793,170177.71479311],[150547.01237013,170175.22566242],[150542.99313696,170172.83320779],[150537.7377932,170169.47288135],[150532.96164008,170166.21383212],[150528.51575028,170163.10241876],[150524.38124764,170160.05955373],[150520.09080853,170156.76145556],[150515.14553338,170152.78613883],[150511.66343788,170149.79918201],[150507.46626918,170146.00325771],[150502.18729878,170141.17363924],[150498.14558078,170137.19103014],[150494.22822333,170133.1773069],[150489.9999645,170128.63464339],[150486.91850889,170125.22944263],[150480.35003442,170117.39308235],[150474.20731441,170109.50263259],[150469.53423638,170103.04051059],[150467.69519445,170100.21197245],[150463.84189851,170093.96108337],[150460.5355159,170088.59370909],[150460.1325065,170087.85965203]]},"geometry_name":"GEOM","properties":{"INSPIRE_ID":"https://databrussels.be/id/rail/25915","TYPE":"RW","LVL":0,"SLOPE":null,"LENGTH":221.404846238945},"bbox":[150460.1325065,170087.85965203,150637.25080363,170209.33782112]},{"type":"Feature","id":"TramNetwork.fid--6f55e203_1a031389953_-baa","geometry":{"type":"LineString","coordinates":[[150441.34062633,170041.58527798],[150449.64127529,170059.03292918],[150454.00392056,170067.79806214],[150458.67858596,170076.40873448],[150463.23507722,170084.84617046],[150464.19427455,170086.53121859]]},"geometry_name":"GEOM","properties":{"INSPIRE_ID":"https://databrussels.be/id/rail/28001","TYPE":"RW","LVL":-1,"SLOPE":null,"LENGTH":50.438198527158},"bbox":[150441.34062633,170041.58527798,150464.19427455,170086.53121859]},{"type":"Feature","id":"TramNetwork.fid--6f55e203_1a031389953_-bab","geometry":{"type":"LineString","coordinates":[[150439.9861019,170042.22968746],[150448.2924769,170059.68937457],[150452.67294015,170068.49030622],[150457.35953389,170077.12295039],[150461.78641405,170085.32038036],[150462.75651689,170087.00144863]]},"geometry_name":"GEOM","properties":{"INSPIRE_ID":"https://databrussels.be/id/rail/28002","TYPE":"RW","LVL":-1,"SLOPE":null,"LENGTH":50.2457187175909},"bbox":[150439.9861019,170042.22968746,150462.75651689,170087.00144863]},{"type":"Feature","id":"TramNetwork.fid--6f55e203_1a031389953_-bac","geometry":{"type":"LineString","coordinates":[[150460.1325065,170087.85965203],[150459.20273497,170086.16612988],[150457.94716617,170083.87918786],[150453.60605256,170075.47111603],[150449.13692008,170066.53971204],[150444.89712698,170057.51451802],[150437.99697703,170042.97077448]]},"geometry_name":"GEOM","properties":{"INSPIRE_ID":"https://databrussels.be/id/rail/28003","TYPE":"RW","LVL":-1,"SLOPE":null,"LENGTH":50.0597113830804},"bbox":[150437.99697703,170042.97077448,150460.1325065,170087.85965203]},{"type":"Feature","id":"TramNetwork.fid--6f55e203_1a031389953_-bad","geometry":{"type":"LineString","coordinates":[[150458.68292078,170088.33375053],[150457.7522204,170086.64094582],[150456.62309824,170084.58431863],[150452.26886355,170076.15083329],[150447.78716851,170067.19432348],[150443.54069015,170058.15489862],[150436.64176738,170043.61374167]]},"geometry_name":"GEOM","properties":{"INSPIRE_ID":"https://databrussels.be/id/rail/28004","TYPE":"RW","LVL":-1,"SLOPE":null,"LENGTH":49.8663215584344},"bbox":[150436.64176738,170043.61374167,150458.68292078,170088.33375053]},{"type":"Feature","id":"TramNetwork.fid--6f55e203_1a031389953_-b97","geometry":{"type":"LineString","coordinates":[[150436.64176738,170043.61374167],[150430.67268036,170031.0324396],[150430.31559991,170030.2769545],[150429.43796097,170028.41925809],[150428.72202363,170026.90317219],[150428.13458636,170025.65889594],[150427.64245093,170024.61663548],[150427.21241346,170023.70658476],[150426.81124525,170022.85888489],[150426.41131824,170022.01546664],[150426.00751906,170021.16565699],[150425.60038068,170020.3106693],[150425.19043901,170019.45172302],[150424.77823014,170018.59003805],[150424.36429016,170017.72683419],[150423.9491553,170016.86333153],[150423.53336027,170016.000747],[150423.11715377,170015.13968086],[150422.69966729,170014.27832264],[150422.27975897,170013.41427158],[150421.85628867,170012.54513045],[150421.42811636,170011.6685024],[150420.99410237,170010.78199123],[150420.55310729,170009.8832014],[150420.10398962,170008.96973303],[150419.6415628,170008.03093523],[150419.14451114,170007.0232565],[150418.58750438,170005.89495608],[150417.19239613,170003.06971164],[150416.30367021,170001.26935833],[150415.25375078,169999.14158615],[150414.87113501,169998.36581913],[150409.82307014,169988.05878988]]},"geometry_name":"GEOM","properties":{"INSPIRE_ID":"https://databrussels.be/id/rail/28469","TYPE":"RW","LVL":-1,"SLOPE":null,"LENGTH":61.690931000606},"bbox":[150409.82307014,169988.05878988,150436.64176738,170043.61374167]},{"type":"Feature","id":"TramNetwork.fid--6f55e203_1a031389953_-b9f","geometry":{"type":"LineString","coordinates":[[150420.0871246,169976.7115335],[150425.20862547,169991.96155794],[150434.33919351,170020.2039608],[150436.99220686,170028.45039126],[150441.34062633,170041.58527798]]},"geometry_name":"GEOM","properties":{"INSPIRE_ID":"https://databrussels.be/id/rail/28563","TYPE":"RW","LVL":-1,"SLOPE":null,"LENGTH":68.2673508525032},"bbox":[150420.0871246,169976.7115335,150441.34062633,170041.58527798]},{"type":"Feature","id":"TramNetwork.fid--6f55e203_1a031389953_-b99","geometry":{"type":"LineString","coordinates":[[150437.99697703,170042.97077448],[150432.85322786,170032.12907259],[150432.02836021,170030.39046348],[150431.67180525,170029.63609015],[150430.7942771,170027.77862826],[150430.0784241,170026.26272096],[150429.49099913,170025.01847077],[150428.99875091,170023.97597144],[150428.56843523,170023.06533198],[150428.16683935,170022.2167284],[150427.76640837,170021.3722473],[150427.36207927,170020.52132243],[150426.95438973,170019.66517729],[150426.54387362,170018.80502742],[150426.1310648,170017.9420883],[150425.7164969,170017.07757502],[150425.30070353,170016.21270263],[150424.88422014,170015.34869005],[150424.4673125,170014.48617337],[150424.04913348,170013.62338629],[150423.62855038,170012.75794672],[150423.20442836,170011.887468],[150422.77563235,170011.00956298],[150422.34102691,170010.12184373],[150421.89947621,170009.22192149],[150421.4498471,170008.30741291],[150420.98699295,170007.36774756],[150420.48964896,170006.35947619],[150419.93249882,170005.23088533],[150418.53739838,170002.40565671],[150417.64876981,170000.60550061],[150416.59896522,169998.47796114],[150416.21732917,169997.70418056],[150411.19669251,169987.45315363]]},"geometry_name":"GEOM","properties":{"INSPIRE_ID":"https://databrussels.be/id/rail/28811","TYPE":"RW","LVL":-1,"SLOPE":null,"LENGTH":61.6493068074065},"bbox":[150411.19669251,169987.45315363,150437.99697703,170042.97077448]},{"type":"Feature","id":"TramNetwork.fid--6f55e203_1a031389953_-b9a","geometry":{"type":"LineString","coordinates":[[150411.54255463,169983.37246231],[150427.47540789,170015.82678489],[150432.51176294,170026.55264874],[150434.00456196,170029.656716],[150439.9861019,170042.22968746]]},"geometry_name":"GEOM","properties":{"INSPIRE_ID":"https://databrussels.be/id/rail/28812","TYPE":"RW","LVL":-1,"SLOPE":null,"LENGTH":65.3714820245786},"bbox":[150411.54255463,169983.37246231,150439.9861019,170042.22968746]},{"type":"Feature","id":"TramNetwork.fid--6f55e203_1a031389953_-b9b","geometry":{"type":"LineString","coordinates":[[150412.94979491,169982.78923079],[150428.83256097,170015.18793004],[150434.4634571,170027.14993975],[150435.35773045,170029.00945639],[150436.18533878,170030.7490579],[150441.34062633,170041.58527798]]},"geometry_name":"GEOM","properties":{"INSPIRE_ID":"https://databrussels.be/id/rail/28813","TYPE":"RW","LVL":-1,"SLOPE":null,"LENGTH":65.2932857699524},"bbox":[150412.94979491,169982.78923079,150441.34062633,170041.58527798]},{"type":"Feature","id":"TramNetwork.fid--6f55e203_1a031389953_-b9c","geometry":{"type":"LineString","coordinates":[[150415.69251518,169980.58613793],[150420.38158207,169994.26273524],[150422.64418,170001.03062712],[150427.09758421,170014.66965902],[150427.47540789,170015.82678489],[150431.55571983,170028.32318135],[150432.25555681,170030.31727832],[150432.85322786,170032.12907259],[150436.64176738,170043.61374167]]},"geometry_name":"GEOM","properties":{"INSPIRE_ID":"https://databrussels.be/id/rail/28814","TYPE":"RW","LVL":-1,"SLOPE":null,"LENGTH":66.4193735033881},"bbox":[150415.69251518,169980.58613793,150436.64176738,170043.61374167]},{"type":"Feature","id":"TramNetwork.fid--6f55e203_1a031389953_-b9d","geometry":{"type":"LineString","coordinates":[[150437.99697703,170042.97077448],[150433.66464792,170029.83764866],[150432.51176294,170026.55264874],[150428.83256097,170015.18793004],[150428.51248622,170014.20766651],[150424.05745873,170000.56366316],[150421.7943797,169993.79433219],[150417.12524719,169980.23165613]]},"geometry_name":"GEOM","properties":{"INSPIRE_ID":"https://databrussels.be/id/rail/28815","TYPE":"RW","LVL":-1,"SLOPE":null,"LENGTH":66.1217049300703},"bbox":[150417.12524719,169980.23165613,150437.99697703,170042.97077448]},{"type":"Feature","id":"TramNetwork.fid--6f55e203_1a031389953_-b9e","geometry":{"type":"LineString","coordinates":[[150418.71195247,169977.1919937],[150423.79269784,169992.42039864],[150432.92262249,170020.66081139],[150435.57723471,170028.91221162],[150436.18533878,170030.7490579],[150439.9861019,170042.22968746]]},"geometry_name":"GEOM","properties":{"INSPIRE_ID":"https://databrussels.be/id/rail/28816","TYPE":"RW","LVL":-1,"SLOPE":null,"LENGTH":68.4293766317265},"bbox":[150418.71195247,169977.1919937,150439.9861019,170042.22968746]},{"type":"Feature","id":"TramNetwork.fid--6f55e203_1a031389953_-b98","geometry":{"type":"LineString","coordinates":[[150453.3902742,170090.06475255],[150452.48387165,170088.36550345],[150447.44373578,170078.60353263],[150442.93349049,170069.58996613],[150437.91969963,170058.51063624],[150429.81420008,170038.8151914],[150411.19669251,169987.45315363]]},"geometry_name":"GEOM","properties":{"INSPIRE_ID":"https://databrussels.be/id/rail/29155","TYPE":"RW","LVL":-1,"SLOPE":null,"LENGTH":111.082455105027},"bbox":[150411.19669251,169987.45315363,150453.3902742,170090.06475255]},{"type":"Feature","id":"TramNetwork.fid--6f55e203_1a031389953_-b96","geometry":{"type":"LineString","coordinates":[[150451.93143893,170090.54187619],[150451.04192957,170088.83751324],[150446.10851671,170079.28224853],[150441.58096254,170070.23409087],[150436.54446354,170059.10458117],[150428.41695422,170039.3556551],[150409.82307014,169988.05878988]]},"geometry_name":"GEOM","properties":{"INSPIRE_ID":"https://databrussels.be/id/rail/29156","TYPE":"RW","LVL":-1,"SLOPE":null,"LENGTH":110.928733415789},"bbox":[150409.82307014,169988.05878988,150451.93143893,170090.54187619]},{"type":"Feature","id":"TramNetwork.fid--6f55e203_1a031389953_-ba1","geometry":{"type":"LineString","coordinates":[[150449.80348559,170091.23784019],[150448.92240627,170089.53132457],[150444.14586649,170080.27989898],[150439.59286987,170071.18089547],[150434.52299196,170059.97762602],[150426.3631303,170040.15008742],[150397.45638215,169960.40206074]]},"geometry_name":"GEOM","properties":{"INSPIRE_ID":"https://databrussels.be/id/rail/29157","TYPE":"RW","LVL":-1,"SLOPE":null,"LENGTH":141.070220102481},"bbox":[150397.45638215,169960.40206074,150449.80348559,170091.23784019]},{"type":"Feature","id":"TramNetwork.fid--6f55e203_1a031389953_-ba0","geometry":{"type":"LineString","coordinates":[[150448.3426142,170091.71562976],[150447.40568017,170090.0278144],[150442.74139841,170080.9938154],[150438.17019523,170071.85842671],[150433.07643145,170060.60237495],[150424.89341852,170040.71858141],[150395.91033923,169960.75997213]]},"geometry_name":"GEOM","properties":{"INSPIRE_ID":"https://databrussels.be/id/rail/29158","TYPE":"RW","LVL":-1,"SLOPE":null,"LENGTH":141.21885366016},"bbox":[150395.91033923,169960.75997213,150448.3426142,170091.71562976]}],"numberReturned":24,"grand_bruxelles_source":{"authority":"Paradigm / Brussels-Capital Region","service":"https://geoservices-urbis.irisnet.be/geoserver/urbisvector/wfs","layer":"urbisvector:TramNetwork","crs":"EPSG:31370","bbox":[150000.0,170000.0,150500.0,170500.0],"cell_id":"bxl-e150000-n170000-s500","ownership":"bbox_intersection_source_unclipped"}}
