{"type":"FeatureCollection","totalFeatures":44,"numberMatched":44,"timeStamp":"2026-08-24T01:58:55.180Z","crs":{"type":"name","properties":{"name":"urn:ogc:def:crs:EPSG::31370"}},"bbox":[153481.93472794,163982.91239532,154545.45116299,164650.639],"features":[{"type":"Feature","id":"StreetAxes.fid--1290087_1a0317dc62a_-77e5","geometry":{"type":"LineString","coordinates":[[153888.72,164210.913],[153892.662,164196.702],[153915.376,164122.123],[153919.314,164110.037]]},"geometry_name":"GEOM","properties":{"INSPIRE_ID":"https://databrussels.be/id/streetaxe/70106","TYPE":"S","HIERARCHY":"DR","LVL":0,"STARTSN_ID":"https://databrussels.be/id/streetnode/958","ENDSN_ID":"https://databrussels.be/id/streetnode/3480","STRNAMEFRE":"Drève du Rembucher","STRNAMEDUT":"Terugdrift","SLOPE":1.71,"LENGTH":105.420216158052},"bbox":[153888.72,164110.037,153919.314,164210.913]},{"type":"Feature","id":"StreetAxes.fid--1290087_1a0317dc62a_-77dd","geometry":{"type":"LineString","coordinates":[[153766.959,164468.396],[153771.84,164463.785],[153784.761,164451.822],[153802.232,164429.926],[153805.813,164425.137]]},"geometry_name":"GEOM","properties":{"INSPIRE_ID":"https://databrussels.be/id/streetaxe/70125","TYPE":"S","HIERARCHY":"DR","LVL":0,"STARTSN_ID":"https://databrussels.be/id/streetnode/72","ENDSN_ID":"https://databrussels.be/id/streetnode/1738","STRNAMEFRE":"Chaussée de La Hulpe","STRNAMEDUT":"Terhulpsesteenweg","SLOPE":4.8,"LENGTH":58.3150319654974},"bbox":[153766.959,164425.137,153805.813,164468.396]},{"type":"Feature","id":"StreetAxes.fid--1290087_1a0317dc62a_-77e1","geometry":{"type":"LineString","coordinates":[[153888.72,164210.913],[153899.508,164212.512],[153926.139,164221.409],[153945.965,164230.91],[153953.48,164234.106]]},"geometry_name":"GEOM","properties":{"INSPIRE_ID":"https://databrussels.be/id/streetaxe/70126","TYPE":"S","HIERARCHY":"DR","LVL":0,"STARTSN_ID":"https://databrussels.be/id/streetnode/958","ENDSN_ID":"https://databrussels.be/id/streetnode/2640","STRNAMEFRE":"Heiligenborre","STRNAMEDUT":"Heiligenborre","SLOPE":2.83,"LENGTH":69.1350790562526},"bbox":[153888.72,164210.913,153953.48,164234.106]},{"type":"Feature","id":"StreetAxes.fid--1290087_1a0317dc62a_-77e9","geometry":{"type":"LineString","coordinates":[[153962.797,164206.53],[153964.274,164201.822],[153979.017,164154.528],[153986.896,164129.904],[153999.584,164081.914],[154012.239,164045.931],[154022.53,164023.882],[154025.086,164018.418]]},"geometry_name":"GEOM","properties":{"INSPIRE_ID":"https://databrussels.be/id/streetaxe/70203","TYPE":"S","HIERARCHY":"DR","LVL":0,"STARTSN_ID":"https://databrussels.be/id/streetnode/4140","ENDSN_ID":"https://databrussels.be/id/streetnode/3901","STRNAMEFRE":"Chaussée de La Hulpe","STRNAMEDUT":"Terhulpsesteenweg","SLOPE":2.09,"LENGTH":198.473786607795},"bbox":[153962.797,164018.418,154025.086,164206.53]},{"type":"Feature","id":"StreetAxes.fid--1290087_1a0317dc62a_-77e3","geometry":{"type":"LineString","coordinates":[[153953.48,164234.106],[153956.19,164226.544],[153961.32,164211.239],[153962.797,164206.53]]},"geometry_name":"GEOM","properties":{"INSPIRE_ID":"https://databrussels.be/id/streetaxe/70304","TYPE":"S","HIERARCHY":"DR","LVL":0,"STARTSN_ID":"https://databrussels.be/id/streetnode/2640","ENDSN_ID":"https://databrussels.be/id/streetnode/4140","STRNAMEFRE":"Chaussée de La Hulpe","STRNAMEDUT":"Terhulpsesteenweg","SLOPE":1.41,"LENGTH":29.1099985375859},"bbox":[153953.48,164206.53,153962.797,164234.106]},{"type":"Feature","id":"StreetAxes.fid--1290087_1a0317dc62a_-77df","geometry":{"type":"LineString","coordinates":[[153805.813,164425.137],[153809.394,164420.348],[153831.178,164388.234],[153926.248,164278.49],[153950.77,164241.668],[153953.48,164234.106]]},"geometry_name":"GEOM","properties":{"INSPIRE_ID":"https://databrussels.be/id/streetaxe/70305","TYPE":"S","HIERARCHY":"DR","LVL":0,"STARTSN_ID":"https://databrussels.be/id/streetnode/1738","ENDSN_ID":"https://databrussels.be/id/streetnode/2640","STRNAMEFRE":"Chaussée de La Hulpe","STRNAMEDUT":"Terhulpsesteenweg","SLOPE":0.86,"LENGTH":242.254751156276},"bbox":[153805.813,164234.106,153953.48,164425.137]},{"type":"Feature","id":"StreetAxes.fid--1290087_1a0317dc62a_-77da","geometry":{"type":"LineString","coordinates":[[153744.162,164497.102],[153751.011,164486.922],[153762.078,164473.006],[153766.959,164468.396]]},"geometry_name":"GEOM","properties":{"INSPIRE_ID":"https://databrussels.be/id/streetaxe/70333","TYPE":"S","HIERARCHY":"DR","LVL":0,"STARTSN_ID":"https://databrussels.be/id/streetnode/2659","ENDSN_ID":"https://databrussels.be/id/streetnode/72","STRNAMEFRE":"Chaussée de La Hulpe","STRNAMEDUT":"Terhulpsesteenweg","SLOPE":3.81,"LENGTH":36.763553628976},"bbox":[153744.162,164468.396,153766.959,164497.102]},{"type":"Feature","id":"StreetAxes.fid--1290087_1a0317dc62a_-77e0","geometry":{"type":"LineString","coordinates":[[153873.436,164462.235],[153876.035,164458.51],[153934.875,164373.01],[153969.59,164346.224],[153974.137,164341.735],[154027.984,164237.312],[154030.772,164228.4]]},"geometry_name":"GEOM","properties":{"INSPIRE_ID":"https://databrussels.be/id/streetaxe/70608","TYPE":"S","HIERARCHY":null,"LVL":0,"STARTSN_ID":"https://databrussels.be/id/streetnode/1430","ENDSN_ID":"https://databrussels.be/id/streetnode/1436","STRNAMEFRE":"Rue de la Sapinière","STRNAMEDUT":"Dennebosstraat","SLOPE":3.22,"LENGTH":285.396380535031},"bbox":[153873.436,164228.4,154030.772,164462.235]},{"type":"Feature","id":"StreetAxes.fid--1290087_1a0317dc62a_-77ce","geometry":{"type":"LineString","coordinates":[[153650.165,164650.639],[153652.914,164645.834],[153675.768,164604.93],[153701.861,164561.851],[153737.313,164507.282],[153744.162,164497.102]]},"geometry_name":"GEOM","properties":{"INSPIRE_ID":"https://databrussels.be/id/streetaxe/70610","TYPE":"S","HIERARCHY":"DR","LVL":0,"STARTSN_ID":"https://databrussels.be/id/streetnode/2229","ENDSN_ID":"https://databrussels.be/id/streetnode/2659","STRNAMEFRE":"Chaussée de La Hulpe","STRNAMEDUT":"Terhulpsesteenweg","SLOPE":1.51,"LENGTH":180.099942101412},"bbox":[153650.165,164497.102,153744.162,164650.639]},{"type":"Feature","id":"StreetAxes.fid--1290087_1a0317dc62a_-77de","geometry":{"type":"LineString","coordinates":[[153805.813,164425.137],[153808.646,164430.879],[153814.951,164433.925],[153869.874,164460.456],[153873.436,164462.235]]},"geometry_name":"GEOM","properties":{"INSPIRE_ID":"https://databrussels.be/id/streetaxe/71448","TYPE":"S","HIERARCHY":"DR","LVL":0,"STARTSN_ID":"https://databrussels.be/id/streetnode/1738","ENDSN_ID":"https://databrussels.be/id/streetnode/1430","STRNAMEFRE":"Rue du Rouge-Gorge","STRNAMEDUT":"Roodborstjestraat","SLOPE":12.18,"LENGTH":78.3819410919002},"bbox":[153805.813,164425.137,153873.436,164462.235]},{"type":"Feature","id":"StreetAxes.fid--1290087_1a0317dc62a_-77e2","geometry":{"type":"LineString","coordinates":[[153742.021,164313.26],[153751.15,164299.845],[153795.598,164246.633],[153803.561,164237.68],[153824.729,164213.292],[153833.326,164212.267],[153858.356,164209.282],[153877.931,164209.314],[153888.72,164210.913]]},"geometry_name":"GEOM","properties":{"INSPIRE_ID":"https://databrussels.be/id/streetaxe/71601","TYPE":"S","HIERARCHY":null,"LVL":0,"STARTSN_ID":"https://databrussels.be/id/streetnode/2594","ENDSN_ID":"https://databrussels.be/id/streetnode/958","STRNAMEFRE":"Drève du Rembucher","STRNAMEDUT":"Terugdrift","SLOPE":0.28,"LENGTH":194.18243573435},"bbox":[153742.021,164209.282,153888.72,164313.26]},{"type":"Feature","id":"StreetAxes.fid--1290087_1a0317dc62a_-77c7","geometry":{"type":"LineString","coordinates":[[153686.861,164293.446],[153706.784,164310.087],[153714.776,164315.994],[153726.014,164318.328],[153731.182,164318.62],[153742.021,164313.26]]},"geometry_name":"GEOM","properties":{"INSPIRE_ID":"https://databrussels.be/id/streetaxe/72538","TYPE":"S","HIERARCHY":null,"LVL":0,"STARTSN_ID":"https://databrussels.be/id/streetnode/4668","ENDSN_ID":"https://databrussels.be/id/streetnode/2594","STRNAMEFRE":"Heiligenborre","STRNAMEDUT":"Heiligenborre","SLOPE":4.7,"LENGTH":64.6425760592566},"bbox":[153686.861,164293.446,153742.021,164318.62]},{"type":"Feature","id":"StreetAxes.fid--1290087_1a0317dc62a_-77d8","geometry":{"type":"LineString","coordinates":[[153597.13690763,164570.76368015],[153594.68921595,164565.56250496],[153603.42105337,164540.5610014],[153607.02766224,164527.86360012],[153609.30319859,164519.547879],[153612.1901776,164506.66616709],[153613.5991508,164499.01774932],[153616.46379233,164480.4332895],[153619.15419202,164451.41047669],[153625.83103439,164446.99042601]]},"geometry_name":"GEOM","properties":{"INSPIRE_ID":"https://databrussels.be/id/streetaxe/76731","TYPE":"S","HIERARCHY":"DR","LVL":0,"STARTSN_ID":"https://databrussels.be/id/streetnode/6529","ENDSN_ID":"https://databrussels.be/id/streetnode/6527","STRNAMEFRE":"Avenue de la Foresterie","STRNAMEDUT":"Vorsterielaan","SLOPE":3.24,"LENGTH":130.988789366471},"bbox":[153594.68921595,164446.99042601,153625.83103439,164570.76368015]},{"type":"Feature","id":"StreetAxes.fid--1290087_1a0317dc62a_-77d4","geometry":{"type":"LineString","coordinates":[[153613.77006575,164548.58440845],[153616.86924927,164539.52648681],[153621.82370222,164522.56066703],[153626.34079613,164503.18639622],[153629.52062209,164483.54829006],[153630.22315995,164474.82108742],[153634.4997424,164418.73362931],[153628.84129929,164406.75191711]]},"geometry_name":"GEOM","properties":{"INSPIRE_ID":"https://databrussels.be/id/streetaxe/76732","TYPE":"S","HIERARCHY":"MAR","LVL":0,"STARTSN_ID":"https://databrussels.be/id/streetnode/6530","ENDSN_ID":"https://databrussels.be/id/streetnode/6209","STRNAMEFRE":"Avenue de la Foresterie","STRNAMEDUT":"Vorsterielaan","SLOPE":2.11,"LENGTH":145.291979038339},"bbox":[153613.77006575,164406.75191711,153634.4997424,164548.58440845]},{"type":"Feature","id":"StreetAxes.fid--1290087_1a0317dc62a_-77ea","geometry":{"type":"LineString","coordinates":[[153919.314,164110.037],[153923.338,164097.977],[153928.308,164082.835],[153928.988,164037.431],[153950.78,164009.586],[153974.323,163995.035],[153993.654,164003.924],[154019.396,164015.76],[154025.086,164018.418]]},"geometry_name":"GEOM","properties":{"INSPIRE_ID":"https://databrussels.be/id/streetaxe/77799","TYPE":"S","HIERARCHY":null,"LVL":0,"STARTSN_ID":"https://databrussels.be/id/streetnode/3480","ENDSN_ID":"https://databrussels.be/id/streetnode/3901","STRNAMEFRE":"Drève du Rembucher","STRNAMEDUT":"Terugdrift","SLOPE":0.41,"LENGTH":192.984645223601},"bbox":[153919.314,163995.035,154025.086,164110.037]},{"type":"Feature","id":"StreetAxes.fid--1290087_1a0317dc62a_-77e7","geometry":{"type":"LineString","coordinates":[[153637.55410182,164332.16624716],[153636.13037448,164329.79867601],[153637.76913191,164320.47727064],[153641.994,164302.68],[153649.18118822,164279.53480925],[153655.39189193,164262.95207654],[153666.3710044,164238.23515398],[153679.538,164214.493],[153693.7060166,164193.31106605],[153706.166,164177.194],[153716.19561422,164165.74183737],[153729.18549678,164152.15674695],[153743.3502405,164138.89735827],[153920.15021968,163987.94820192],[153924.19075849,163984.31311557]]},"geometry_name":"GEOM","properties":{"INSPIRE_ID":"https://databrussels.be/id/streetaxe/78390","TYPE":"S","HIERARCHY":null,"LVL":0,"STARTSN_ID":"https://databrussels.be/id/streetnode/6217","ENDSN_ID":"https://databrussels.be/id/streetnode/7739","STRNAMEFRE":"Avenue de la Foresterie","STRNAMEDUT":"Vorsterielaan","SLOPE":1.49,"LENGTH":463.841763059975},"bbox":[153636.13037448,163984.31311557,153924.19075849,164332.16624716]},{"type":"Feature","id":"StreetAxes.fid--1290087_1a0317dc62a_-77d9","geometry":{"type":"LineString","coordinates":[[153733.89700767,164582.02735555],[153734.3909875,164573.11849766],[153736.82174571,164559.60733804],[153743.28756255,164524.26812243],[153745.728,164510.671],[153748.06421946,164501.29793604],[153744.162,164497.102]]},"geometry_name":"GEOM","properties":{"INSPIRE_ID":"https://databrussels.be/id/streetaxe/79409","TYPE":"S","HIERARCHY":"DR","LVL":0,"STARTSN_ID":"https://databrussels.be/id/streetnode/5212","ENDSN_ID":"https://databrussels.be/id/streetnode/2659","STRNAMEFRE":"Rue Auguste Beernaert","STRNAMEDUT":"Auguste Beernaertstraat","SLOPE":6.4,"LENGTH":87.7807162220069},"bbox":[153733.89700767,164497.102,153748.06421946,164582.02735555]},{"type":"Feature","id":"StreetAxes.fid--1290087_1a0317dc62a_-77c2","geometry":{"type":"LineString","coordinates":[[153716.05433531,164380.39719216],[153722.06231386,164367.11507113],[153735.45569396,164334.66942232],[153739.587,164324.392],[153742.021,164313.26]]},"geometry_name":"GEOM","properties":{"INSPIRE_ID":"https://databrussels.be/id/streetaxe/79775","TYPE":"S","HIERARCHY":"DR","LVL":0,"STARTSN_ID":"https://databrussels.be/id/streetnode/6214","ENDSN_ID":"https://databrussels.be/id/streetnode/2594","STRNAMEFRE":"Heiligenborre","STRNAMEDUT":"Heiligenborre","SLOPE":5.72,"LENGTH":72.150743686192},"bbox":[153716.05433531,164313.26,153742.021,164380.39719216]},{"type":"Feature","id":"StreetAxes.fid--1290087_1a0317dc62a_-77c0","geometry":{"type":"LineString","coordinates":[[153596.09835896,164370.19529861],[153580.783,164352.78],[153541.342,164304.006],[153536.994,164299.262],[153529.748,164291.932],[153520.805,164284.088],[153502.941,164271.02],[153481.93472794,164257.44860888]]},"geometry_name":"GEOM","properties":{"INSPIRE_ID":"https://databrussels.be/id/streetaxe/79839","TYPE":"S","HIERARCHY":null,"LVL":0,"STARTSN_ID":"https://databrussels.be/id/streetnode/6215","ENDSN_ID":"https://databrussels.be/id/streetnode/5052","STRNAMEFRE":"Avenue Van Kerm","STRNAMEDUT":"Van Kermlaan","SLOPE":6.77,"LENGTH":161.697389003834},"bbox":[153481.93472794,164257.44860888,153596.09835896,164370.19529861]},{"type":"Feature","id":"StreetAxes.fid--1290087_1a0317dc62a_-77d7","geometry":{"type":"LineString","coordinates":[[153596.09835896,164370.19529861],[153602.99756603,164371.78398113],[153613.07162945,164379.36077466],[153630.60284388,164380.87703354]]},"geometry_name":"GEOM","properties":{"INSPIRE_ID":"https://databrussels.be/id/streetaxe/79840","TYPE":"S","HIERARCHY":"DR","LVL":0,"STARTSN_ID":"https://databrussels.be/id/streetnode/6215","ENDSN_ID":"https://databrussels.be/id/streetnode/6211","STRNAMEFRE":"Avenue Van Kerm","STRNAMEDUT":"Van Kermlaan","SLOPE":3.54,"LENGTH":37.2817582996766},"bbox":[153596.09835896,164370.19529861,153630.60284388,164380.87703354]},{"type":"Feature","id":"StreetAxes.fid--1290087_1a0317dc62a_-77cd","geometry":{"type":"LineString","coordinates":[[153650.19912037,164392.23074625],[153650.98227984,164398.84931865],[153650.49001214,164406.64297719]]},"geometry_name":"GEOM","properties":{"INSPIRE_ID":"https://databrussels.be/id/streetaxe/79841","TYPE":"S","HIERARCHY":"DR","LVL":0,"STARTSN_ID":"https://databrussels.be/id/streetnode/6216","ENDSN_ID":"https://databrussels.be/id/streetnode/6212","STRNAMEFRE":"Heiligenborre","STRNAMEDUT":"Heiligenborre","SLOPE":0.76,"LENGTH":14.473935527066},"bbox":[153650.19912037,164392.23074625,153650.98227984,164406.64297719]},{"type":"Feature","id":"StreetAxes.fid--1290087_1a0317dc62a_-77eb","geometry":{"type":"LineString","coordinates":[[153637.55410182,164332.16624716],[153642.5187261,164330.83764087],[153644.15777175,164321.80719265],[153648.28943718,164304.40253854],[153655.35540739,164281.64771103],[153661.43231267,164265.42222343],[153672.21537462,164241.1466631],[153685.11090055,164217.89401142],[153699.00358911,164197.12370746],[153711.20465885,164181.34154784],[153721.00883271,164170.14680085],[153733.77523488,164156.79543089],[153751.33707891,164140.17248231],[153924.28636091,163993.23239271],[153924.19075849,163984.31311557]]},"geometry_name":"GEOM","properties":{"INSPIRE_ID":"https://databrussels.be/id/streetaxe/79842","TYPE":"S","HIERARCHY":null,"LVL":0,"STARTSN_ID":"https://databrussels.be/id/streetnode/6217","ENDSN_ID":"https://databrussels.be/id/streetnode/7739","STRNAMEFRE":"Avenue de la Foresterie","STRNAMEDUT":"Vorsterielaan","SLOPE":1.48,"LENGTH":464.844286299836},"bbox":[153637.55410182,163984.31311557,153924.28636091,164332.16624716]},{"type":"Feature","id":"StreetAxes.fid--1290087_1a0317dc62a_-77cb","geometry":{"type":"LineString","coordinates":[[153672.31995141,164393.02958915],[153665.56104225,164397.91988136],[153655.74334477,164404.12399228],[153650.49001214,164406.64297719]]},"geometry_name":"GEOM","properties":{"INSPIRE_ID":"https://databrussels.be/id/streetaxe/80167","TYPE":"S","HIERARCHY":"DR","LVL":0,"STARTSN_ID":"https://databrussels.be/id/streetnode/5053","ENDSN_ID":"https://databrussels.be/id/streetnode/6212","STRNAMEFRE":"Heiligenborre","STRNAMEDUT":"Heiligenborre","SLOPE":7.99,"LENGTH":25.7822806416159},"bbox":[153650.49001214,164393.02958915,153672.31995141,164406.64297719]},{"type":"Feature","id":"StreetAxes.fid--1290087_1a0317dc62a_-77cc","geometry":{"type":"LineString","coordinates":[[153672.31995141,164393.02958915],[153650.19912037,164392.23074625]]},"geometry_name":"GEOM","properties":{"INSPIRE_ID":"https://databrussels.be/id/streetaxe/82131","TYPE":"S","HIERARCHY":"DR","LVL":0,"STARTSN_ID":"https://databrussels.be/id/streetnode/5053","ENDSN_ID":"https://databrussels.be/id/streetnode/6216","STRNAMEFRE":"Heiligenborre","STRNAMEDUT":"Heiligenborre","SLOPE":9.8,"LENGTH":22.1352505326357},"bbox":[153650.19912037,164392.23074625,153672.31995141,164393.02958915]},{"type":"Feature","id":"StreetAxes.fid--1290087_1a0317dc62a_-77e4","geometry":{"type":"LineString","coordinates":[[153962.797,164206.53],[153970.122,164207.416],[154008.13582083,164219.81053232]]},"geometry_name":"GEOM","properties":{"INSPIRE_ID":"https://databrussels.be/id/streetaxe/82289","TYPE":"S","HIERARCHY":"DR","LVL":0,"STARTSN_ID":"https://databrussels.be/id/streetnode/4140","ENDSN_ID":"https://databrussels.be/id/streetnode/13287","STRNAMEFRE":"Rue du Triage","STRNAMEDUT":"Hakbosstraat","SLOPE":2.66,"LENGTH":47.3618229226809},"bbox":[153962.797,164206.53,154008.13582083,164219.81053232]},{"type":"Feature","id":"StreetAxes.fid--1290087_1a0317dc62a_-77c4","geometry":{"type":"LineString","coordinates":[[153709.03526334,164400.39290969],[153711.59984862,164396.55021515],[153717.12147593,164385.46808655],[153716.05433531,164380.39719216]]},"geometry_name":"GEOM","properties":{"INSPIRE_ID":"https://databrussels.be/id/streetaxe/83417","TYPE":"S","HIERARCHY":"DR","LVL":0,"STARTSN_ID":"https://databrussels.be/id/streetnode/6210","ENDSN_ID":"https://databrussels.be/id/streetnode/6214","STRNAMEFRE":"Heiligenborre","STRNAMEDUT":"Heiligenborre","SLOPE":4.28,"LENGTH":22.1833726153819},"bbox":[153709.03526334,164380.39719216,153717.12147593,164400.39290969]},{"type":"Feature","id":"StreetAxes.fid--1290087_1a0317dc62a_-77cf","geometry":{"type":"LineString","coordinates":[[153630.60284388,164380.87703354],[153633.88212169,164364.2704001],[153635.5678836,164348.44369338],[153637.55410182,164332.16624716]]},"geometry_name":"GEOM","properties":{"INSPIRE_ID":"https://databrussels.be/id/streetaxe/83478","TYPE":"S","HIERARCHY":"MAR","LVL":0,"STARTSN_ID":"https://databrussels.be/id/streetnode/6211","ENDSN_ID":"https://databrussels.be/id/streetnode/6217","STRNAMEFRE":"Avenue de la Foresterie","STRNAMEDUT":"Vorsterielaan","SLOPE":1.24,"LENGTH":49.2417256180838},"bbox":[153630.60284388,164332.16624716,153637.55410182,164380.87703354]},{"type":"Feature","id":"StreetAxes.fid--1290087_1a0317dc62a_-77d0","geometry":{"type":"LineString","coordinates":[[153650.19912037,164392.23074625],[153642.06308085,164391.42915974],[153630.60284388,164380.87703354]]},"geometry_name":"GEOM","properties":{"INSPIRE_ID":"https://databrussels.be/id/streetaxe/83617","TYPE":"S","HIERARCHY":"MAR","LVL":0,"STARTSN_ID":"https://databrussels.be/id/streetnode/6216","ENDSN_ID":"https://databrussels.be/id/streetnode/6211","STRNAMEFRE":"Avenue de la Foresterie","STRNAMEDUT":"Vorsterielaan","SLOPE":4.55,"LENGTH":23.7537625424503},"bbox":[153630.60284388,164380.87703354,153650.19912037,164392.23074625]},{"type":"Feature","id":"StreetAxes.fid--1290087_1a0317dc62a_-77e8","geometry":{"type":"LineString","coordinates":[[153630.60284388,164380.87703354],[153625.4806686,164363.57804759],[153626.75062588,164349.21354398],[153628.23322216,164335.72342867],[153631.21142211,164319.11215336],[153635.53195939,164300.91187593],[153642.84357356,164277.36599131],[153649.19161656,164260.41655929],[153660.37196786,164235.24659423],[153673.81761734,164211.00198369],[153688.26824832,164189.39752631],[153700.9939973,164172.93669082],[153711.25501797,164161.22030024],[153724.47429513,164147.39530416],[153738.88620287,164133.90454923],[153915.73654316,163982.91239532],[153924.19075849,163984.31311557]]},"geometry_name":"GEOM","properties":{"INSPIRE_ID":"https://databrussels.be/id/streetaxe/83737","TYPE":"S","HIERARCHY":null,"LVL":0,"STARTSN_ID":"https://databrussels.be/id/streetnode/6211","ENDSN_ID":"https://databrussels.be/id/streetnode/7739","STRNAMEFRE":"Avenue de la Foresterie","STRNAMEDUT":"Vorsterielaan","SLOPE":1.44,"LENGTH":521.984953609269},"bbox":[153625.4806686,163982.91239532,153924.19075849,164380.87703354]},{"type":"Feature","id":"StreetAxes.fid--1290087_1a0317dc62a_-77d1","geometry":{"type":"LineString","coordinates":[[153650.49001214,164406.64297719],[153642.09818664,164410.66687655],[153628.84129929,164406.75191711]]},"geometry_name":"GEOM","properties":{"INSPIRE_ID":"https://databrussels.be/id/streetaxe/83738","TYPE":"S","HIERARCHY":"MAR","LVL":0,"STARTSN_ID":"https://databrussels.be/id/streetnode/6212","ENDSN_ID":"https://databrussels.be/id/streetnode/6209","STRNAMEFRE":"Avenue de la Foresterie","STRNAMEDUT":"Vorsterielaan","SLOPE":3.76,"LENGTH":23.1295696920747},"bbox":[153628.84129929,164406.64297719,153650.49001214,164410.66687655]},{"type":"Feature","id":"StreetAxes.fid--1290087_1a0317dc62a_-77ca","geometry":{"type":"LineString","coordinates":[[153698.77827043,164393.44235541],[153681.079,164378.548],[153672.56734455,164370.26515795],[153663.02437724,164359.75869087],[153652.554,164344.637]]},"geometry_name":"GEOM","properties":{"INSPIRE_ID":"https://databrussels.be/id/streetaxe/83739","TYPE":"S","HIERARCHY":"DR","LVL":0,"STARTSN_ID":"https://databrussels.be/id/streetnode/6213","ENDSN_ID":"https://databrussels.be/id/streetnode/836","STRNAMEFRE":"Heiligenborre","STRNAMEDUT":"Heiligenborre","SLOPE":3.55,"LENGTH":67.5951946733589},"bbox":[153652.554,164344.637,153698.77827043,164393.44235541]},{"type":"Feature","id":"StreetAxes.fid--1290087_1a0317dc62a_-77c5","geometry":{"type":"LineString","coordinates":[[153698.77827043,164393.44235541],[153701.35427595,164389.64092184],[153710.64217725,164381.1933584],[153716.05433531,164380.39719216]]},"geometry_name":"GEOM","properties":{"INSPIRE_ID":"https://databrussels.be/id/streetaxe/83740","TYPE":"S","HIERARCHY":"DR","LVL":0,"STARTSN_ID":"https://databrussels.be/id/streetnode/6213","ENDSN_ID":"https://databrussels.be/id/streetnode/6214","STRNAMEFRE":"Heiligenborre","STRNAMEDUT":"Heiligenborre","SLOPE":2.79,"LENGTH":22.6173681300603},"bbox":[153698.77827043,164380.39719216,153716.05433531,164393.44235541]},{"type":"Feature","id":"StreetAxes.fid--1290087_1a0317dc62a_-77d5","geometry":{"type":"LineString","coordinates":[[153625.83103439,164446.99042601],[153625.24116399,164454.4360649],[153623.38887309,164476.5979261],[153621.12290418,164492.00358071],[153619.95587911,164499.29632954],[153617.18930313,164513.11277832],[153614.76582877,164522.29972094],[153610.62262587,164537.67938871],[153607.75338641,164546.67563475]]},"geometry_name":"GEOM","properties":{"INSPIRE_ID":"https://databrussels.be/id/streetaxe/83913","TYPE":"S","HIERARCHY":"MAR","LVL":0,"STARTSN_ID":"https://databrussels.be/id/streetnode/6527","ENDSN_ID":"https://databrussels.be/id/streetnode/6526","STRNAMEFRE":"Avenue de la Foresterie","STRNAMEDUT":"Vorsterielaan","SLOPE":2.8,"LENGTH":101.627672068905},"bbox":[153607.75338641,164446.99042601,153625.83103439,164546.67563475]},{"type":"Feature","id":"StreetAxes.fid--1290087_1a0317dc62a_-77d3","geometry":{"type":"LineString","coordinates":[[153628.84129929,164406.75191711],[153627.93491711,164418.5450381],[153627.80023941,164420.47060441],[153627.24536064,164429.13809362],[153625.83103439,164446.99042601]]},"geometry_name":"GEOM","properties":{"INSPIRE_ID":"https://databrussels.be/id/streetaxe/84059","TYPE":"S","HIERARCHY":"MAR","LVL":0,"STARTSN_ID":"https://databrussels.be/id/streetnode/6209","ENDSN_ID":"https://databrussels.be/id/streetnode/6527","STRNAMEFRE":"Avenue de la Foresterie","STRNAMEDUT":"Vorsterielaan","SLOPE":1.07,"LENGTH":40.3516719591349},"bbox":[153625.83103439,164406.75191711,153628.84129929,164446.99042601]},{"type":"Feature","id":"StreetAxes.fid--1290087_1a0317dc62a_-77d6","geometry":{"type":"LineString","coordinates":[[153628.84129929,164406.75191711],[153611.99919649,164395.45164076],[153605.81,164388.80667062],[153599.15110545,164377.84753586],[153596.09835896,164370.19529861]]},"geometry_name":"GEOM","properties":{"INSPIRE_ID":"https://databrussels.be/id/streetaxe/84060","TYPE":"S","HIERARCHY":"DR","LVL":0,"STARTSN_ID":"https://databrussels.be/id/streetnode/6209","ENDSN_ID":"https://databrussels.be/id/streetnode/6215","STRNAMEFRE":"Avenue Van Kerm","STRNAMEDUT":"Van Kermlaan","SLOPE":3.25,"LENGTH":50.4249200082608},"bbox":[153596.09835896,164370.19529861,153628.84129929,164406.75191711]},{"type":"Feature","id":"StreetAxes.fid--1290087_1a0317dc62a_-77c3","geometry":{"type":"LineString","coordinates":[[153766.959,164468.396],[153763.31,164463.85],[153716.117,164407.727],[153709.03526334,164400.39290969]]},"geometry_name":"GEOM","properties":{"INSPIRE_ID":"https://databrussels.be/id/streetaxe/84476","TYPE":"S","HIERARCHY":"DR","LVL":0,"STARTSN_ID":"https://databrussels.be/id/streetnode/72","ENDSN_ID":"https://databrussels.be/id/streetnode/6210","STRNAMEFRE":"Heiligenborre","STRNAMEDUT":"Heiligenborre","SLOPE":2.08,"LENGTH":89.352268464271},"bbox":[153709.03526334,164400.39290969,153766.959,164468.396]},{"type":"Feature","id":"StreetAxes.fid--1290087_1a0317dc62a_-77c6","geometry":{"type":"LineString","coordinates":[[153698.77827043,164393.44235541],[153709.03526334,164400.39290969]]},"geometry_name":"GEOM","properties":{"INSPIRE_ID":"https://databrussels.be/id/streetaxe/86856","TYPE":"I","HIERARCHY":"DR","LVL":0,"STARTSN_ID":"https://databrussels.be/id/streetnode/6213","ENDSN_ID":"https://databrussels.be/id/streetnode/6210","STRNAMEFRE":"Heiligenborre","STRNAMEDUT":"Heiligenborre","SLOPE":2.58,"LENGTH":12.390161764948},"bbox":[153698.77827043,164393.44235541,153709.03526334,164400.39290969]},{"type":"Feature","id":"StreetAxes.fid--1290087_1a0317dc62a_-77d2","geometry":{"type":"LineString","coordinates":[[153628.84129929,164406.75191711],[153630.60284388,164380.87703354]]},"geometry_name":"GEOM","properties":{"INSPIRE_ID":"https://databrussels.be/id/streetaxe/86857","TYPE":"I","HIERARCHY":"MAR","LVL":0,"STARTSN_ID":"https://databrussels.be/id/streetnode/6209","ENDSN_ID":"https://databrussels.be/id/streetnode/6211","STRNAMEFRE":"Avenue de la Foresterie","STRNAMEDUT":"Vorsterielaan","SLOPE":1.23,"LENGTH":25.9347766350454},"bbox":[153628.84129929,164380.87703354,153630.60284388,164406.75191711]},{"type":"Feature","id":"StreetAxes.fid--1290087_1a0317dc62a_-77e6","geometry":{"type":"LineString","coordinates":[[153742.021,164313.26],[153735.03,164300.37],[153728.504,164292.237],[153713.567,164269.252],[153712.78,164260.152],[153715.116,164251.97],[153719.923,164243.328],[153742.016,164212.573],[153761.172,164191.244],[153777.767,164175.69],[153843.097,164119.336],[153853.11,164111.374],[153865.974,164105.04],[153879.546,164101.12],[153892.748,164101.69],[153901.66,164105.227],[153919.314,164110.037]]},"geometry_name":"GEOM","properties":{"INSPIRE_ID":"https://databrussels.be/id/streetaxe/89379","TYPE":"S","HIERARCHY":null,"LVL":0,"STARTSN_ID":"https://databrussels.be/id/streetnode/2594","ENDSN_ID":"https://databrussels.be/id/streetnode/3480","STRNAMEFRE":"Drève des Equipages","STRNAMEDUT":"Jachtstoetdreef","SLOPE":0.37,"LENGTH":337.951980746372},"bbox":[153712.78,164101.12,153919.314,164313.26]},{"type":"Feature","id":"StreetAxes.fid--1290087_1a0317dc62a_-77c8","geometry":{"type":"LineString","coordinates":[[153672.31995141,164393.02958915],[153676.80023482,164392.16472439],[153687.02858238,164390.97303595],[153698.77827043,164393.44235541]]},"geometry_name":"GEOM","properties":{"INSPIRE_ID":"https://databrussels.be/id/streetaxe/92289","TYPE":"I","HIERARCHY":"DR","LVL":0,"STARTSN_ID":"https://databrussels.be/id/streetnode/5053","ENDSN_ID":"https://databrussels.be/id/streetnode/6213","STRNAMEFRE":"Heiligenborre","STRNAMEDUT":"Heiligenborre","SLOPE":4.47,"LENGTH":26.8668913390919},"bbox":[153672.31995141,164390.97303595,153698.77827043,164393.44235541]},{"type":"Feature","id":"StreetAxes.fid--1290087_1a0317dc62a_-77c9","geometry":{"type":"LineString","coordinates":[[153661.434,164420.984],[153674.399,164399.364],[153672.31995141,164393.02958915]]},"geometry_name":"GEOM","properties":{"INSPIRE_ID":"https://databrussels.be/id/streetaxe/94594","TYPE":"S","HIERARCHY":"DR","LVL":0,"STARTSN_ID":"https://databrussels.be/id/streetnode/13284","ENDSN_ID":"https://databrussels.be/id/streetnode/5053","STRNAMEFRE":"Kattenberg","STRNAMEDUT":"Kattenberg","SLOPE":5.24,"LENGTH":31.876308853815},"bbox":[153661.434,164393.02958915,153674.399,164420.984]},{"type":"Feature","id":"StreetAxes.fid--1290087_1a0317dc62a_-77c1","geometry":{"type":"LineString","coordinates":[[153481.93472794,164257.44860888],[153491.974,164275.7805],[153496.50560144,164285.89359484],[153506.12565411,164304.71558694],[153509.77682921,164311.9841134],[153530.25515915,164353.02430864],[153552.5273273,164398.02410509],[153562.30612671,164417.96494242],[153576.0297827,164441.07187369],[153587.0864934,164459.23525477],[153595.58738153,164472.28844912],[153599.75448355,164480.00927471],[153601.92137661,164486.78582667],[153604.75500598,164498.61701985],[153603.58821741,164503.67166107],[153598.36544955,164520.39085894],[153577.145,164575.175],[153572.78300179,164587.38476816],[153588.1350244,164592.86935185]]},"geometry_name":"GEOM","properties":{"INSPIRE_ID":"https://databrussels.be/id/streetaxe/94872","TYPE":"S","HIERARCHY":null,"LVL":0,"STARTSN_ID":"https://databrussels.be/id/streetnode/5052","ENDSN_ID":"https://databrussels.be/id/streetnode/6525","STRNAMEFRE":"Avenue Van Kerm","STRNAMEDUT":"Van Kermlaan","SLOPE":4.86,"LENGTH":382.031932140724},"bbox":[153481.93472794,164257.44860888,153604.75500598,164592.86935185]},{"type":"Feature","id":"StreetAxes.fid--1290087_1a0317dc62a_-77db","geometry":{"type":"LineString","coordinates":[[153873.436,164462.235],[153877.27,164464.15],[153902.967,164476.445],[153904.795,164477.319],[153912.94454011,164481.40013145],[153931.3135227,164486.74837035],[153943.31477652,164489.80337329],[153979.94013072,164498.52748962],[154001.89381321,164503.17708789],[154012.08875587,164505.26174481],[154018.26060248,164506.66171832],[154027.82169208,164508.89260729],[154101.65055044,164526.66681557],[154121.28185311,164531.38308262],[154264.10633387,164566.38034816],[154291.99275069,164573.07641581],[154371.89813675,164591.851134],[154426.56110742,164604.80290821],[154461.18625264,164613.28140925],[154497.41225956,164622.30755428],[154525.06358592,164629.31930674],[154529.82400389,164630.45005458],[154535.28489188,164631.18008126],[154538.65032285,164631.370523],[154543.92,164630.55],[154545.45116299,164631.93425358]]},"geometry_name":"GEOM","properties":{"INSPIRE_ID":"https://databrussels.be/id/streetaxe/95114","TYPE":"S","HIERARCHY":null,"LVL":0,"STARTSN_ID":"https://databrussels.be/id/streetnode/1430","ENDSN_ID":"https://databrussels.be/id/streetnode/5766","STRNAMEFRE":"Rue du Rouge-Gorge","STRNAMEDUT":"Roodborstjestraat","SLOPE":3.79,"LENGTH":694.865358478658},"bbox":[153873.436,164462.235,154545.45116299,164631.93425358]},{"type":"Feature","id":"StreetAxes.fid--1290087_1a0317dc62a_-77dc","geometry":{"type":"LineString","coordinates":[[153820.64119919,164538.95551534],[153823.504,164534.353],[153870.834,164465.964],[153873.436,164462.235]]},"geometry_name":"GEOM","properties":{"INSPIRE_ID":"https://databrussels.be/id/streetaxe/98500","TYPE":"S","HIERARCHY":"DR","LVL":0,"STARTSN_ID":"https://databrussels.be/id/streetnode/4158","ENDSN_ID":"https://databrussels.be/id/streetnode/1430","STRNAMEFRE":"Rue de la Sapinière","STRNAMEDUT":"Dennebosstraat","SLOPE":1.65,"LENGTH":93.1369002719862},"bbox":[153820.64119919,164462.235,153873.436,164538.95551534]}],"numberReturned":44,"grand_bruxelles_source":{"authority":"Paradigm / Brussels-Capital Region","service":"https://geoservices-urbis.irisnet.be/geoserver/urbisvector/wfs","layer":"urbisvector:StreetAxes","crs":"EPSG:31370","bbox":[153500.0,164000.0,154000.0,164500.0],"cell_id":"bxl-e153500-n164000-s500","ownership":"bbox_intersection_source_unclipped"}}
