{"type":"FeatureCollection","totalFeatures":8,"numberMatched":8,"timeStamp":"2026-08-24T01:23:17.161Z","crs":{"type":"name","properties":{"name":"urn:ogc:def:crs:EPSG::31370"}},"bbox":[150079.035,174541.214,150567.086,174777.023],"features":[{"type":"Feature","id":"Buildings.fid--6f55e203_1a031389953_-477","geometry":{"type":"Polygon","coordinates":[[[150402.196,174585.85],[150414.012,174593.529],[150413.359,174594.533],[150423.218,174600.94],[150419.49,174606.677],[150397.816,174592.591],[150402.196,174585.85]]]},"geometry_name":"GEOM","properties":{"INSPIRE_ID":"https://databrussels.be/id/building/1653532","BLOCK_ID":"https://databrussels.be/id/block/26634","AREA":194},"bbox":[150397.816,174585.85,150423.218,174606.677]},{"type":"Feature","id":"Buildings.fid--6f55e203_1a031389953_-476","geometry":{"type":"Polygon","coordinates":[[[150399.821,174624.127],[150404.514,174617.241],[150413.98,174623.692],[150421.629,174611.884],[150433.391,174619.901],[150433.488,174620.203],[150429.802,174625.612],[150430.048,174626.779],[150429.974,174627.969],[150429.586,174629.097],[150428.912,174630.08],[150428,174630.849],[150426.917,174631.347],[150425.74,174631.539],[150422.88,174635.85],[150422.169,174636.92],[150415.177,174632.281],[150414.24,174633.693],[150399.821,174624.127]]]},"geometry_name":"GEOM","properties":{"INSPIRE_ID":"https://databrussels.be/id/building/1653536","BLOCK_ID":"https://databrussels.be/id/block/26634","AREA":406},"bbox":[150399.821,174611.884,150433.488,174636.92]},{"type":"Feature","id":"Buildings.fid--6f55e203_1a031389953_-479","geometry":{"type":"Polygon","coordinates":[[[150079.035,174762.773],[150081.185,174756.912],[150085.148,174758.366],[150083.135,174763.855],[150082.998,174764.227],[150079.727,174763.027],[150079.035,174762.773]]]},"geometry_name":"GEOM","properties":{"INSPIRE_ID":"https://databrussels.be/id/building/1668571","BLOCK_ID":"https://databrussels.be/id/block/27151","AREA":26},"bbox":[150079.035,174756.912,150085.148,174764.227]},{"type":"Feature","id":"Buildings.fid--6f55e203_1a031389953_-475","geometry":{"type":"Polygon","coordinates":[[[150463.007,174703.883],[150461.304,174702.256],[150461.092,174702.479],[150454.127,174697.372],[150454.461,174696.918],[150460.409,174688.82],[150460.686,174688.442],[150499.922,174717.232],[150493.391,174726.163],[150463.007,174703.883]]]},"geometry_name":"GEOM","properties":{"INSPIRE_ID":"https://databrussels.be/id/building/1695997","BLOCK_ID":"https://databrussels.be/id/block/26634","AREA":539},"bbox":[150454.127,174688.442,150499.922,174726.163]},{"type":"Feature","id":"Buildings.fid--6f55e203_1a031389953_-47a","geometry":{"type":"Polygon","coordinates":[[[150103.94983117,174737.46796214],[150107.72997847,174734.88039254],[150109.77000399,174737.8606397],[150105.98985669,174740.44820931],[150103.94983117,174737.46796214]]]},"geometry_name":"GEOM","properties":{"INSPIRE_ID":"https://databrussels.be/id/building/1704083","BLOCK_ID":"https://databrussels.be/id/block/27151","AREA":17},"bbox":[150103.94983117,174734.88039254,150109.77000399,174740.44820931]},{"type":"Feature","id":"Buildings.fid--6f55e203_1a031389953_-474","geometry":{"type":"Polygon","coordinates":[[[150480.056,174720.176],[150480.665,174722.164],[150479.035,174723.83],[150478.695,174724.178],[150473.524,174719.28],[150473.376,174719.14],[150458.519,174705.193],[150461.092,174702.479],[150461.304,174702.256],[150463.007,174703.883],[150480.056,174720.176]]]},"geometry_name":"GEOM","properties":{"INSPIRE_ID":"https://databrussels.be/id/building/1812880","BLOCK_ID":"https://databrussels.be/id/block/26634","AREA":108},"bbox":[150458.519,174702.256,150480.665,174724.178]}],"numberReturned":6,"grand_bruxelles_source":{"authority":"Paradigm / Brussels-Capital Region","service":"https://geoservices-urbis.irisnet.be/geoserver/urbisvector/wfs","layer":"urbisvector:Buildings","crs":"EPSG:31370","bbox":[150000.0,174500.0,150500.0,175000.0],"cell_id":"bxl-e150000-n174500-s500","ownership":"polygon_or_multipolygon_centroid_global_500m_cell"}}
