{
  "type": "FeatureCollection",
  "name": "Schaerbeek",
  "crs": {
    "type": "name",
    "properties": {
      "name": "EPSG:31370"
    }
  },
  "features": [
    {
      "type": "Feature",
      "id": "Municipalities.fid--ab54bf_19ff3232919_-7724",
      "geometry": {
        "type": "Polygon",
        "coordinates": [
          [
            [
              150738.64416457,
              171437.25046251
            ],
            [
              150796.1760813,
              171391.73174779
            ],
            [
              150808.85703917,
              171381.69859196
            ],
            [
              150859.94485679,
              171340.59781638
            ],
            [
              150872.55359806,
              171330.42556902
            ],
            [
              150932.20204166,
              171282.49718044
            ],
            [
              150942.34551409,
              171274.34685638
            ],
            [
              150949.14179264,
              171268.88596931
            ],
            [
              151053.66419133,
              171236.516738
            ],
            [
              151065.44503655,
              171230.53243546
            ],
            [
              151077.40507189,
              171224.45701015
            ],
            [
              151087.94866751,
              171228.8580607
            ],
            [
              151095.04467332,
              171231.86102016
            ],
            [
              151102.14167911,
              171234.86407947
            ],
            [
              151130.12674469,
              171246.42206136
            ],
            [
              151152.23569787,
              171255.69004095
            ],
            [
              151160.08670744,
              171252.08034345
            ],
            [
              151160.22560053,
              171252.01652581
            ],
            [
              151172.82867385,
              171246.22202463
            ],
            [
              151198.53273093,
              171230.5620222
            ],
            [
              151206.32470332,
              171224.99401328
            ],
            [
              151214.11767589,
              171219.42710431
            ],
            [
              151236.06372191,
              171200.55003245
            ],
            [
              151256.34370424,
              171179.57504536
            ],
            [
              151264.72869933,
              171170.8580341
            ],
            [
              151273.50874712,
              171161.7300706
            ],
            [
              151336.70068634,
              171101.07604833
            ],
            [
              151342.47275775,
              171095.59408899
            ],
            [
              151348.2437293,
              171090.11302985
            ],
            [
              151460.80467907,
              170983.22003239
            ],
            [
              151471.26870284,
              170972.9690547
            ],
            [
              151482.26366694,
              170962.19700727
            ],
            [
              151494.43269926,
              170950.27510548
            ],
            [
              151502.50169236,
              170942.36904348
            ],
            [
              151519.49668278,
              170925.72000702
            ],
            [
              151551.87673892,
              170891.46402327
            ],
            [
              151557.22967582,
              170885.70801438
            ],
            [
              151557.48964364,
              170885.42867996
            ],
            [
              151562.58271275,
              170879.95210553
            ],
            [
              151575.80366879,
              170866.51006226
            ],
            [
              151586.73467783,
              170856.10302776
            ],
            [
              151598.55867647,
              170845.5620831
            ],
            [
              151604.75166794,
              170840.21207573
            ],
            [
              151610.94465944,
              170834.86206841
            ],
            [
              151683.84071684,
              170772.86107838
            ],
            [
              151700.14374241,
              170758.99505687
            ],
            [
              151707.39974166,
              170752.82301275
            ],
            [
              151710.19874415,
              170749.38903879
            ],
            [
              151729.93110548,
              170722.39377702
            ],
            [
              151729.9435035,
              170722.37677535
            ],
            [
              151739.06275315,
              170709.90104549
            ],
            [
              151748.59972769,
              170697.60906646
            ],
            [
              151755.90973501,
              170688.18608621
            ],
            [
              151793.79974405,
              170629.17201301
            ],
            [
              151799.68472145,
              170618.74309818
            ],
            [
              151805.09673334,
              170609.45205167
            ],
            [
              151855.21071553,
              170523.87904693
            ],
            [
              151865.32266558,
              170503.05802187
            ],
            [
              151874.87375172,
              170483.39207614
            ],
            [
              151875.53469148,
              170482.03008301
            ],
            [
              151875.87768041,
              170481.09203257
            ],
            [
              151878.31269157,
              170474.43007443
            ],
            [
              151881.5567406,
              170465.55409733
            ],
            [
              151893.31267698,
              170432.82403969
            ],
            [
              151900.93873565,
              170407.06803835
            ],
            [
              151903.18978106,
              170398.99097876
            ],
            [
              151905.4407265,
              170390.9140192
            ],
            [
              151917.54777538,
              170347.3258839
            ],
            [
              151918.36482774,
              170344.3839533
            ],
            [
              151919.73180225,
              170339.09613096
            ],
            [
              151921.04295151,
              170333.60061324
            ],
            [
              152124.04569642,
              170474.13100312
            ],
            [
              152204.3890154,
              170360.98054197
            ],
            [
              152458.14069852,
              170566.07908165
            ],
            [
              152561.23487561,
              170638.17673836
            ],
            [
              152787.20539721,
              170820.64580809
            ],
            [
              152963.62273045,
              170971.9650219
            ],
            [
              152901.87257805,
              171145.5881834
            ],
            [
              152919.90423823,
              171149.65607854
            ],
            [
              152931.67732581,
              171151.65523327
            ],
            [
              152941.55759849,
              171152.75541537
            ],
            [
              152954.03324298,
              171153.52567223
            ],
            [
              152966.82622804,
              171153.78418526
            ],
            [
              152978.83594881,
              171152.68658395
            ],
            [
              152979.54941261,
              171159.09695032
            ],
            [
              152979.91500389,
              171162.38103307
            ],
            [
              152983.48212202,
              171194.42876481
            ],
            [
              153052.8748601,
              171260.65100894
            ],
            [
              153029.98788429,
              171294.52294302
            ],
            [
              152996.88816491,
              171343.50937697
            ],
            [
              152970.85766367,
              171383.10115289
            ],
            [
              152959.42152478,
              171399.98461984
            ],
            [
              152953.83469269,
              171408.31318611
            ],
            [
              153026.29374006,
              171457.87080001
            ],
            [
              153045.9256034,
              171471.29827311
            ],
            [
              153117.56426439,
              171520.29667981
            ],
            [
              153077.47018847,
              171578.34416233
            ],
            [
              152971.41516679,
              171722.85179042
            ],
            [
              152953.69616146,
              171747.00340207
            ],
            [
              152832.0234948,
              171912.76446963
            ],
            [
              152826.40558506,
              171920.41793492
            ],
            [
              152752.86603151,
              171891.17664248
            ],
            [
              152741.87428458,
              171886.80597374
            ],
            [
              152726.8417033,
              171910.09434627
            ],
            [
              152650.22773459,
              172019.09472908
            ],
            [
              152569.71998697,
              172113.73087916
            ],
            [
              152531.83503411,
              172157.68286339
            ],
            [
              152486.60506653,
              172181.9197981
            ],
            [
              152498.64569618,
              172217.15908648
            ],
            [
              152491.82623506,
              172227.89792414
            ],
            [
              152489.02482925,
              172233.0398153
            ],
            [
              152485.14146766,
              172238.57674449
            ],
            [
              152478.18900547,
              172247.58478448
            ],
            [
              152460.26654382,
              172265.32896267
            ],
            [
              152436.27387295,
              172288.20163888
            ],
            [
              152422.39811988,
              172300.78547041
            ],
            [
              152409.12606904,
              172314.22673364
            ],
            [
              152390.91451767,
              172339.69531036
            ],
            [
              152365.40534031,
              172375.26127826
            ],
            [
              152348.28108638,
              172398.9247043
            ],
            [
              152334.12556003,
              172418.49982704
            ],
            [
              152321.56611868,
              172436.20793566
            ],
            [
              152305.16724161,
              172460.46267567
            ],
            [
              152277.06149508,
              172502.19121344
            ],
            [
              152265.99622102,
              172518.77482438
            ],
            [
              152248.44554924,
              172543.98181189
            ],
            [
              152245.6034264,
              172548.08719871
            ],
            [
              152234.59509276,
              172564.13799814
            ],
            [
              152222.16582939,
              172582.50089304
            ],
            [
              152208.01642933,
              172603.96782702
            ],
            [
              152202.65761205,
              172612.40016193
            ],
            [
              152195.62584419,
              172625.52714303
            ],
            [
              152190.06076534,
              172635.98612006
            ],
            [
              152177.80576195,
              172659.07223156
            ],
            [
              152162.04619871,
              172686.7757162
            ],
            [
              152151.71915176,
              172704.34044285
            ],
            [
              152129.62332572,
              172744.28391448
            ],
            [
              152116.31483061,
              172769.08467053
            ],
            [
              152107.90614278,
              172783.69963465
            ],
            [
              152101.82258278,
              172793.43107002
            ],
            [
              152100.22582899,
              172796.38409252
            ],
            [
              152092.83699485,
              172808.03970579
            ],
            [
              152084.73136345,
              172822.26682905
            ],
            [
              152072.11656374,
              172844.42727731
            ],
            [
              152050.96698773,
              172879.55239185
            ],
            [
              152046.91777683,
              172887.11785668
            ],
            [
              152034.01840915,
              172908.66443525
            ],
            [
              152024.98698308,
              172923.75028049
            ],
            [
              151998.03731504,
              172969.05539854
            ],
            [
              151980.45505234,
              173001.62034859
            ],
            [
              151966.39445805,
              173032.19054463
            ],
            [
              151959.04396595,
              173050.05130335
            ],
            [
              151948.29725683,
              173076.22985174
            ],
            [
              151936.49928123,
              173103.53923985
            ],
            [
              151933.73149378,
              173110.53183975
            ],
            [
              151928.62470199,
              173120.97075766
            ],
            [
              151924.95996787,
              173129.2980797
            ],
            [
              151921.89839515,
              173136.42691725
            ],
            [
              151920.87050335,
              173139.07796625
            ],
            [
              151919.49110978,
              173144.26717948
            ],
            [
              151918.63872089,
              173147.78141375
            ],
            [
              151917.47884894,
              173153.14420119
            ],
            [
              151916.21735461,
              173159.16790662
            ],
            [
              151914.72985674,
              173166.86325368
            ],
            [
              151909.67974578,
              173188.13445308
            ],
            [
              151907.78635444,
              173195.90165115
            ],
            [
              151905.20724267,
              173206.06265378
            ],
            [
              151902.31644899,
              173218.92771714
            ],
            [
              151896.90039254,
              173242.36517993
            ],
            [
              151895.4802766,
              173248.21170374
            ],
            [
              151891.1035862,
              173265.39558677
            ],
            [
              151881.98539878,
              173303.10442571
            ],
            [
              151878.49084716,
              173316.34806746
            ],
            [
              151863.480803,
              173371.58038177
            ],
            [
              151850.88355458,
              173419.05833423
            ],
            [
              151848.25593026,
              173429.11074282
            ],
            [
              151841.09765758,
              173455.8558509
            ],
            [
              151840.27028164,
              173458.6305764
            ],
            [
              151837.19218723,
              173468.95344334
            ],
            [
              151813.25926201,
              173549.21587554
            ],
            [
              151802.63804938,
              173581.67556246
            ],
            [
              151781.93757645,
              173641.9336321
            ],
            [
              151778.50893108,
              173650.14362613
            ],
            [
              151757.97342347,
              173699.09808418
            ],
            [
              151748.30990697,
              173723.01818399
            ],
            [
              151736.82682389,
              173753.20946244
            ],
            [
              151725.26431406,
              173785.71127043
            ],
            [
              151714.50804478,
              173824.30262726
            ],
            [
              151708.98056458,
              173848.53221507
            ],
            [
              151701.65196274,
              173884.11212091
            ],
            [
              151696.94404935,
              173906.24318973
            ],
            [
              151695.56294606,
              173911.56350563
            ],
            [
              151691.7928862,
              173921.77315945
            ],
            [
              151687.79844126,
              173936.5339788
            ],
            [
              151684.80596762,
              173940.4132836
            ],
            [
              151679.06414317,
              173948.36296452
            ],
            [
              151678.23836911,
              173949.50627684
            ],
            [
              151668.28577036,
              173969.31298041
            ],
            [
              151654.96147542,
              174001.62560779
            ],
            [
              151641.2587251,
              174035.21659346
            ],
            [
              151635.36904838,
              174049.75324792
            ],
            [
              151620.51362102,
              174086.21720192
            ],
            [
              151612.93830949,
              174102.26457944
            ],
            [
              151608.69767884,
              174110.96598035
            ],
            [
              151604.28509278,
              174119.18439874
            ],
            [
              151589.03922715,
              174141.19798261
            ],
            [
              151585.33746963,
              174146.9946924
            ],
            [
              151586.10503557,
              174151.0723306
            ],
            [
              151533.07448565,
              174245.9012352
            ],
            [
              151520.75182904,
              174254.64034557
            ],
            [
              151420.96385208,
              174446.5200034
            ],
            [
              151422.34530711,
              174447.87374221
            ],
            [
              151423.04051812,
              174448.85276358
            ],
            [
              151423.61143681,
              174449.90530108
            ],
            [
              151424.16039118,
              174451.28054402
            ],
            [
              151424.91273417,
              174455.25418325
            ],
            [
              151424.08979336,
              174457.62060578
            ],
            [
              151421.34908185,
              174463.02159312
            ],
            [
              151421.14353805,
              174468.04816077
            ],
            [
              151413.57717967,
              174478.59639376
            ],
            [
              151401.58395674,
              174495.0172288
            ],
            [
              151381.73449951,
              174522.19353529
            ],
            [
              151367.52446264,
              174516.8993658
            ],
            [
              151212.26920726,
              174461.05948499
            ],
            [
              151146.22762404,
              174438.22363797
            ],
            [
              151092.4152234,
              174419.36289642
            ],
            [
              151072.21541629,
              174408.31512419
            ],
            [
              151049.17532245,
              174395.69739291
            ],
            [
              151027.10328177,
              174383.53384437
            ],
            [
              151012.51741906,
              174372.71797261
            ],
            [
              151007.39632653,
              174380.12637527
            ],
            [
              150983.03791658,
              174362.9596688
            ],
            [
              150972.83287296,
              174355.75828084
            ],
            [
              150961.63878018,
              174343.6786744
            ],
            [
              150898.55357618,
              174288.1179637
            ],
            [
              150895.90880945,
              174291.1209199
            ],
            [
              150852.82199369,
              174253.17346463
            ],
            [
              150854.60137136,
              174251.17032511
            ],
            [
              150842.68231121,
              174240.58351953
            ],
            [
              150844.14660703,
              174238.7498208
            ],
            [
              150835.7460274,
              174231.36460416
            ],
            [
              150834.33893323,
              174233.21059587
            ],
            [
              150791.72509709,
              174195.99738528
            ],
            [
              150793.33278835,
              174194.11916825
            ],
            [
              150784.2892582,
              174186.32532777
            ],
            [
              150785.87125119,
              174184.46311409
            ],
            [
              150769.26887083,
              174170.39716108
            ],
            [
              150768.11862144,
              174171.75201646
            ],
            [
              150757.18458685,
              174162.24789645
            ],
            [
              150749.23165606,
              174170.98456522
            ],
            [
              150741.96899831,
              174164.63701505
            ],
            [
              150743.01666368,
              174163.42557372
            ],
            [
              150726.8485344,
              174149.80116988
            ],
            [
              150725.72628561,
              174151.15972181
            ],
            [
              150700.12537981,
              174127.62830638
            ],
            [
              150427.61467862,
              173902.97296312
            ],
            [
              150404.95486066,
              173877.65435721
            ],
            [
              150347.43621981,
              173708.56677024
            ],
            [
              150319.98278873,
              173627.86253361
            ],
            [
              150314.83816719,
              173612.75783252
            ],
            [
              150287.09374445,
              173531.31552135
            ],
            [
              150278.53421492,
              173506.20075033
            ],
            [
              150264.67441375,
              173465.57419235
            ],
            [
              150254.04831981,
              173466.89592498
            ],
            [
              150232.68015367,
              173467.20568278
            ],
            [
              150214.68478528,
              173466.51971218
            ],
            [
              150193.49313447,
              173464.43082547
            ],
            [
              150170.06798141,
              173460.77259799
            ],
            [
              150151.90332069,
              173456.90140924
            ],
            [
              150132.23079265,
              173451.69499432
            ],
            [
              150105.92951769,
              173443.04236677
            ],
            [
              150093.90885957,
              173438.07120694
            ],
            [
              150078.98590038,
              173431.54619133
            ],
            [
              150059.35699192,
              173421.46722395
            ],
            [
              150039.75082575,
              173410.90404883
            ],
            [
              150025.3603423,
              173403.3137566
            ],
            [
              150018.49680435,
              173399.11546553
            ],
            [
              150006.37476447,
              173391.78689495
            ],
            [
              149991.16842353,
              173381.23537488
            ],
            [
              149974.23154917,
              173367.96654254
            ],
            [
              149951.99829104,
              173348.36680404
            ],
            [
              149940.06189659,
              173336.37886487
            ],
            [
              149928.78126531,
              173324.05224115
            ],
            [
              149916.35897721,
              173308.78523005
            ],
            [
              149904.05122225,
              173292.11389096
            ],
            [
              149892.95623644,
              173276.80671482
            ],
            [
              149882.15715792,
              173262.38721041
            ],
            [
              149870.19415806,
              173246.1661322
            ],
            [
              149817.18095966,
              173240.3165229
            ],
            [
              149750.52916908,
              173232.97215489
            ],
            [
              149728.90856451,
              173347.30593274
            ],
            [
              149752.82537348,
              173390.59680931
            ],
            [
              149707.02978161,
              173415.6910965
            ],
            [
              149699.7752303,
              173402.21665841
            ],
            [
              149646.72967524,
              173431.34687995
            ],
            [
              149643.78801951,
              173425.99988985
            ],
            [
              149639.10267516,
              173417.48408341
            ],
            [
              149616.87372011,
              173377.08202422
            ],
            [
              149603.72869271,
              173353.21500809
            ],
            [
              149590.2487145,
              173332.29506182
            ],
            [
              149568.64370391,
              173301.46501763
            ],
            [
              149543.96171098,
              173267.5920211
            ],
            [
              149530.19673086,
              173249.19103314
            ],
            [
              149502.61375721,
              173210.60814481
            ],
            [
              149479.96872113,
              173181.31013972
            ],
            [
              149477.74808826,
              173178.6358863
            ],
            [
              149464.50870442,
              173162.70015633
            ],
            [
              149460.36157145,
              173158.45032414
            ],
            [
              149456.93678188,
              173146.1436227
            ],
            [
              149441.66874118,
              173091.28005296
            ],
            [
              149430.18868968,
              173054.57009776
            ],
            [
              149425.44866283,
              173037.83011315
            ],
            [
              149422.19867521,
              173026.36999806
            ],
            [
              149408.42871146,
              172980.46013111
            ],
            [
              149407.35637813,
              172976.88452708
            ],
            [
              149405.84605616,
              172971.75086128
            ],
            [
              149405.04874562,
              172969.19003361
            ],
            [
              149359.11875201,
              172808.2300603
            ],
            [
              149356.61709093,
              172799.46937936
            ],
            [
              149335.38878676,
              172725.13013702
            ],
            [
              149296.15870388,
              172588.24006879
            ],
            [
              149282.29183991,
              172536.48644594
            ],
            [
              149264.45868373,
              172469.93005821
            ],
            [
              149255.06864188,
              172438.24008776
            ],
            [
              149233.79869004,
              172369.399995
            ],
            [
              149215.08874325,
              172304.66002842
            ],
            [
              149185.64872556,
              172213.94010835
            ],
            [
              149228.2336125,
              172198.1079395
            ],
            [
              149324.14928064,
              172162.44755068
            ],
            [
              149340.23177186,
              172156.46832421
            ],
            [
              149340.84434867,
              172156.24054702
            ],
            [
              149403.53507613,
              172132.93284908
            ],
            [
              149428.31843843,
              172123.7187274
            ],
            [
              149507.71728697,
              172094.19910698
            ],
            [
              149514.7925142,
              172091.56861386
            ],
            [
              149528.81067378,
              172086.35684441
            ],
            [
              149536.29278534,
              172083.57510003
            ],
            [
              149551.4127025,
              172077.95369174
            ],
            [
              149571.08004443,
              172070.64160976
            ],
            [
              149577.1987086,
              172068.36673765
            ],
            [
              149597.82361372,
              172060.6986352
            ],
            [
              149605.41732107,
              172057.8753771
            ],
            [
              149612.39835206,
              172055.27999634
            ],
            [
              149637.58748142,
              172045.91491863
            ],
            [
              149658.83076292,
              172038.01693905
            ],
            [
              149666.16578032,
              172035.2898139
            ],
            [
              149684.87485956,
              172028.33405433
            ],
            [
              149698.51703402,
              172023.26203395
            ],
            [
              149708.79743801,
              172019.4398376
            ],
            [
              149718.24697714,
              172015.95224635
            ],
            [
              149731.37217199,
              172011.0755915
            ],
            [
              149739.33706545,
              172008.11618733
            ],
            [
              149746.00430885,
              172005.63894679
            ],
            [
              149752.65615288,
              172003.16750822
            ],
            [
              149757.28377479,
              172001.44812486
            ],
            [
              149761.35161826,
              171999.93671207
            ],
            [
              149765.59065513,
              171998.36167772
            ],
            [
              149772.27399795,
              171995.87843527
            ],
            [
              149779.07753616,
              171993.35057771
            ],
            [
              149785.54528731,
              171990.9475625
            ],
            [
              149791.94214117,
              171988.57075625
            ],
            [
              149798.96047113,
              171985.96307171
            ],
            [
              149805.37912418,
              171983.57826278
            ],
            [
              149811.97027061,
              171981.12933214
            ],
            [
              149818.56261697,
              171978.67990137
            ],
            [
              149824.50768827,
              171976.4710522
            ],
            [
              149830.38515943,
              171974.28730876
            ],
            [
              149838.47334422,
              171971.28208542
            ],
            [
              149841.77781545,
              171970.05426735
            ],
            [
              149840.45715002,
              171966.2786896
            ],
            [
              149860.72298097,
              171958.91872757
            ],
            [
              149881.32279939,
              171951.43752359
            ],
            [
              149884.60627482,
              171950.24510855
            ],
            [
              149884.16561215,
              171948.92434875
            ],
            [
              149888.59144997,
              171947.36418982
            ],
            [
              149941.19172292,
              171928.82234803
            ],
            [
              149950.23109185,
              171925.6360068
            ],
            [
              149942.79679076,
              171902.88088092
            ],
            [
              150054.43773736,
              171865.44871188
            ],
            [
              150065.72613045,
              171897.03835468
            ],
            [
              150065.91752287,
              171896.96613048
            ],
            [
              150072.26567149,
              171894.57082779
            ],
            [
              150088.69293,
              171888.44645154
            ],
            [
              150091.45012234,
              171887.41850308
            ],
            [
              150107.23400607,
              171881.53410832
            ],
            [
              150107.46249715,
              171881.44887945
            ],
            [
              150121.2496589,
              171876.30883718
            ],
            [
              150127.05123242,
              171874.14580407
            ],
            [
              150128.95395815,
              171873.43646364
            ],
            [
              150132.7289108,
              171872.02908664
            ],
            [
              150136.64645789,
              171870.56859163
            ],
            [
              150137.80121281,
              171870.13804572
            ],
            [
              150142.78161842,
              171868.28131643
            ],
            [
              150159.00038543,
              171862.23466724
            ],
            [
              150166.67278602,
              171859.37429792
            ],
            [
              150176.61139821,
              171855.66904234
            ],
            [
              150183.09044249,
              171853.25352067
            ],
            [
              150186.29651586,
              171852.05821398
            ],
            [
              150201.69920759,
              171846.31586026
            ],
            [
              150204.70258898,
              171845.19607932
            ],
            [
              150210.20487172,
              171843.14478144
            ],
            [
              150267.62213667,
              171816.21374386
            ],
            [
              150272.15874632,
              171811.94914252
            ],
            [
              150276.76074893,
              171807.62303255
            ],
            [
              150351.96263448,
              171747.77067859
            ],
            [
              150361.53795668,
              171738.41000686
            ],
            [
              150406.70134146,
              171703.91320742
            ],
            [
              150418.32245945,
              171694.4182836
            ],
            [
              150466.42158808,
              171655.99598718
            ],
            [
              150491.88197482,
              171635.65785544
            ],
            [
              150547.5262084,
              171591.1035754
            ],
            [
              150555.57435155,
              171584.4576207
            ],
            [
              150620.26421751,
              171532.38745273
            ],
            [
              150679.06991581,
              171485.05355499
            ],
            [
              150727.75284612,
              171445.86758558
            ],
            [
              150738.64416457,
              171437.25046251
            ]
          ]
        ]
      },
      "geometry_name": "GEOM",
      "properties": {
        "NISCODE": "21015",
        "NAMEFRE": "Schaerbeek",
        "NAMEDUT": "Schaarbeek",
        "POLICEZONE": "5344",
        "AREA": 7901427.89090056,
        "INSPIRE_ID": "https://databrussels.be/id/municipality/5000085"
      },
      "bbox": [
        149185.64872556,
        170333.60061324,
        153117.56426439,
        174522.19353529
      ]
    }
  ],
  "source": {
    "service": "https://geoservices-urbis.irisnet.be/geoserver/urbisvector/wfs",
    "layer": "urbisvector:Municipalities",
    "crs": "EPSG:31370"
  }
}
