{"type":"FeatureCollection","totalFeatures":18,"numberMatched":18,"timeStamp":"2026-08-21T18:59:50.018Z","crs":{"type":"name","properties":{"name":"urn:ogc:def:crs:EPSG::31370"}},"bbox":[142930.9068,167425.133,143590.04093229,168025.5],"features":[{"type":"Feature","id":"Buildings.fid--21a77ec8_1a0253bbced_31cd","geometry":{"type":"Polygon","coordinates":[[[143310.09,167985.514],[143304.795,167983.476],[143309.704,167970.14],[143314.913,167972.062],[143310.09,167985.514]]]},"geometry_name":"GEOM","properties":{"INSPIRE_ID":"https://databrussels.be/id/building/1660735","BLOCK_ID":"https://databrussels.be/id/block/25297","AREA":80},"bbox":[143304.795,167970.14,143314.913,167985.514]},{"type":"Feature","id":"Buildings.fid--21a77ec8_1a0253bbced_31d1","geometry":{"type":"Polygon","coordinates":[[[143373.15,167981.05],[143373.129,167979.888],[143373.388,167978.756],[143373.912,167977.719],[143374.667,167976.842],[143378.6235,167973.7419],[143372.5058,167965.8174],[143372.67,167965.6906],[143368.3564,167960.2935],[143372.6213,167956.8849],[143376.9923,167962.3538],[143383.7043,167957.1721],[143393.6325,167970.0325],[143403.5827,167982.9214],[143402.8642,167983.4761],[143404.72,167985.88],[143399.0385,167990.2661],[143397.1826,167987.8622],[143392.3842,167991.5666],[143384.5789,167981.4561],[143381.65,167983.56],[143380.94,167984.01],[143380.23,167984.47],[143379.48,167984.8],[143378.62,167984.98],[143377.73,167985.03],[143376.87,167984.93],[143375.83,167984.59],[143374.85,167984.02],[143374.07,167983.3],[143373.48,167982.27],[143373.15,167981.05]]]},"geometry_name":"GEOM","properties":{"INSPIRE_ID":"https://databrussels.be/id/building/1709440","BLOCK_ID":"https://databrussels.be/id/block/25280","AREA":600},"bbox":[143368.3564,167956.8849,143404.72,167991.5666]},{"type":"Feature","id":"Buildings.fid--21a77ec8_1a0253bbced_31d9","geometry":{"type":"Polygon","coordinates":[[[143075.63170474,167541.41502139],[143074.4860936,167551.51544436],[143096.885,167554.485],[143097.477,167549.555],[143140.947,167554.576],[143141.562,167549.142],[143142.687,167539.215],[143143.804,167529.359],[143144.951,167519.239],[143146.12174721,167508.90578043],[143151.62739205,167509.6523332],[143149.65372443,167525.52297538],[143154.21255506,167526.07947148],[143153.227,167535.447],[143152.31495455,167544.11722747],[143212.06686289,167551.40698229],[143213.099,167542.525],[143214.1,167533.922],[143215.117,167525.169],[143216.13,167516.457],[143217.296,167506.435],[143218.43,167496.682],[143219.593,167486.679],[143220.83310678,167476.01742899],[143161.29571631,167469.07560347],[143160.004,167479.611],[143158.787,167489.537],[143157.52601226,167499.83202339],[143147.6811843,167498.7501293],[143148.67010472,167489.51766451],[143149.924,167479.485],[143114.456,167475.245],[143093.35,167472.823],[143083.33451081,167471.67302486],[143083.05619397,167474.24402716],[143082.64579638,167478.03514924],[143082.24290495,167481.75693195],[143081.16553669,167491.70931656],[143080.09090528,167501.63641911],[143079.00763395,167511.64333442],[143077.8850652,167521.54798893],[143076.75725729,167531.4914475],[143075.63170474,167541.41502139]]]},"geometry_name":"GEOM","properties":{"INSPIRE_ID":"https://databrussels.be/id/building/1744056","BLOCK_ID":"https://databrussels.be/id/block/25464","AREA":9884},"bbox":[143074.4860936,167469.07560347,143220.83310678,167554.576]},{"type":"Feature","id":"Buildings.fid--21a77ec8_1a0253bbced_31cb","geometry":{"type":"Polygon","coordinates":[[[143290.9794,167524.5907],[143261.5303,167521.1176],[143265.709,167485.6858],[143295.1582,167489.159],[143290.9794,167524.5907]]]},"geometry_name":"GEOM","properties":{"INSPIRE_ID":"https://databrussels.be/id/building/1783402","BLOCK_ID":"https://databrussels.be/id/block/25464","AREA":1058},"bbox":[143261.5303,167485.6858,143295.1582,167524.5907]},{"type":"Feature","id":"Buildings.fid--21a77ec8_1a0253bbced_31ce","geometry":{"type":"Polygon","coordinates":[[[143390.94620001,167879.43914244],[143387.67120001,167883.26874244],[143384.07680001,167887.47204244],[143392.55540001,167894.49084244],[143378.54480001,167911.50004244],[143369.72130001,167904.27664244],[143357.0174,167899.87614244],[143356.3453,167901.81884244],[143347.12650001,167901.52584244],[143344.65080001,167900.78204244],[143338.1332,167898.82414244],[143330.14890001,167894.39794244],[143329.78830001,167895.43914244],[143321.57080001,167878.21014244],[143324.57880001,167869.51554244],[143328.59360001,167857.91124244],[143329.42740001,167855.50114244],[143332.93680001,167856.71674244],[143347.81460001,167861.87034244],[143348.57810001,167859.66604244],[143350.8968,167860.46924244],[143361.09060001,167864.00024244],[143360.32710001,167866.20454244],[143367.77300001,167868.78374244],[143380.24990001,167873.10564244],[143390.3946,167876.61964244],[143389.5817,167878.96644244],[143390.94620001,167879.43914244]]]},"geometry_name":"GEOM","properties":{"INSPIRE_ID":"https://databrussels.be/id/building/1787942","BLOCK_ID":"https://databrussels.be/id/block/25297","AREA":2352},"bbox":[143321.57080001,167855.50114244,143392.55540001,167911.50004244]},{"type":"Feature","id":"Buildings.fid--21a77ec8_1a0253bbced_31d7","geometry":{"type":"Polygon","coordinates":[[[143118.02410001,167569.42684244],[143101.60880001,167571.12324244],[143014.97530001,167580.17544244],[143007.48720001,167579.94894244],[142996.54810001,167578.25444244],[142989.21390001,167577.31764244],[142989.07390001,167576.05804244],[142988.34070001,167569.46104244],[143100.10340001,167557.75424244],[143100.15160001,167557.74914244],[143100.16280001,167557.74794244],[143117.83010001,167559.80084244],[143119.05370001,167559.94284244],[143118.02410001,167569.42684244]]]},"geometry_name":"GEOM","properties":{"INSPIRE_ID":"https://databrussels.be/id/building/1787943","BLOCK_ID":"https://databrussels.be/id/block/25464","AREA":1649},"bbox":[142988.34070001,167557.74794244,143119.05370001,167580.17544244]},{"type":"Feature","id":"Buildings.fid--21a77ec8_1a0253bbced_31d8","geometry":{"type":"Polygon","coordinates":[[[143083.05619397,167474.24402716],[143083.33451081,167471.67302486],[143066.813,167469.778],[143027.25699993,167465.30899994],[143026.069,167475.218],[143024.883,167485.115],[143023.688,167495.082],[143022.495,167505.039],[143021.307,167514.956],[143020.116,167524.893],[143018.933,167534.802],[143017.758,167544.978],[143074.4860936,167551.51544436],[143075.63170474,167541.41502139],[143076.75725729,167531.4914475],[143077.8850652,167521.54798893],[143079.00763395,167511.64333442],[143080.09090528,167501.63641911],[143081.16553669,167491.70931656],[143082.24290495,167481.75693195],[143082.64579638,167478.03514924],[143083.05619397,167474.24402716]]]},"geometry_name":"GEOM","properties":{"INSPIRE_ID":"https://databrussels.be/id/building/1789989","BLOCK_ID":"https://databrussels.be/id/block/25464","AREA":4564},"bbox":[143017.758,167465.30899994,143083.33451081,167551.51544436]},{"type":"Feature","id":"Buildings.fid--21a77ec8_1a0253bbced_31ca","geometry":{"type":"Polygon","coordinates":[[[143222.8563,167877.2153],[143220.9422,167871.9157],[143219.4911,167867.8979],[143217.1117,167861.3102],[143250.3537,167849.3039],[143250.9026,167850.8235],[143264.4685,167851.821],[143265.9916,167831.1079],[143315.99,167834.844],[143315.2971,167843.8135],[143331.1599,167849.3082],[143334.1425,167850.3413],[143332.0418,167856.4059],[143329.4274,167855.5003],[143328.5936,167857.9104],[143328.5201,167858.1229],[143324.5788,167869.5147],[143321.7659,167877.6453],[143318.0111,167879.5587],[143317.4922,167885.4348],[143307.9749,167871.7941],[143294.9231,167874.269],[143286.1123,167872.8077],[143280.9267,167874.6571],[143276.0656,167872.9224],[143266.1595,167869.3874],[143254.0552,167868.7054],[143254.1269,167866.9613],[143240.4059,167870.7938],[143222.8563,167877.2153]]]},"geometry_name":"GEOM","properties":{"INSPIRE_ID":"https://databrussels.be/id/building/1828143","BLOCK_ID":"https://databrussels.be/id/block/25297","AREA":3240},"bbox":[143217.1117,167831.1079,143334.1425,167885.4348]},{"type":"Feature","id":"Buildings.fid--21a77ec8_1a0253bbced_31c8","geometry":{"type":"Polygon","coordinates":[[[143208.6206,167996.7526],[143202.2864,167994.5641],[143205.0466,167986.5751],[143211.3808,167988.7635],[143208.6206,167996.7526]]]},"geometry_name":"GEOM","properties":{"INSPIRE_ID":"https://databrussels.be/id/building/1828144","BLOCK_ID":"https://databrussels.be/id/block/25297","AREA":57},"bbox":[143202.2864,167986.5751,143211.3808,167996.7526]},{"type":"Feature","id":"Buildings.fid--21a77ec8_1a0253bbced_31d0","geometry":{"type":"Polygon","coordinates":[[[143355.1196,167978.6733],[143356.3012,167978.5155],[143356.4636,167979.7316],[143355.282,167979.8894],[143355.1196,167978.6733]]]},"geometry_name":"GEOM","properties":{"INSPIRE_ID":"https://databrussels.be/id/building/1828145","BLOCK_ID":"https://databrussels.be/id/block/25280","AREA":1},"bbox":[143355.1196,167978.5155,143356.4636,167979.8894]},{"type":"Feature","id":"Buildings.fid--21a77ec8_1a0253bbced_31d3","geometry":{"type":"Polygon","coordinates":[[[143402.2221,167994.3835],[143399.2522,167990.5365],[143408.8205,167983.1355],[143411.7973,167986.9915],[143402.2221,167994.3835]]]},"geometry_name":"GEOM","properties":{"INSPIRE_ID":"https://databrussels.be/id/building/1828146","BLOCK_ID":"https://databrussels.be/id/block/25280","AREA":59},"bbox":[143399.2522,167983.1355,143411.7973,167994.3835]},{"type":"Feature","id":"Buildings.fid--21a77ec8_1a0253bbced_31c9","geometry":{"type":"MultiPolygon","coordinates":[[[[143213.8858,167545.01320035],[143214.7366,167537.96340035],[143230.5432,167539.87100035],[143229.6924,167546.92080035],[143213.8858,167545.01320035]]]]},"geometry_name":"GEOM","properties":{"INSPIRE_ID":"https://databrussels.be/id/building/1830088","BLOCK_ID":"https://databrussels.be/id/block/25464","AREA":113},"bbox":[143213.8858,167537.96340035,143230.5432,167546.92080035]},{"type":"Feature","id":"Buildings.fid--21a77ec8_1a0253bbced_31d5","geometry":{"type":"MultiPolygon","coordinates":[[[[143484.1899,167621.47830035],[143484.619,167630.61890035],[143481.135,167630.89660035],[143474.1353,167626.53110035],[143484.1899,167621.47830035]]]]},"geometry_name":"GEOM","properties":{"INSPIRE_ID":"https://databrussels.be/id/building/1830089","BLOCK_ID":"https://databrussels.be/id/block/28286","AREA":56},"bbox":[143474.1353,167621.47830035,143484.619,167630.89660035]},{"type":"Feature","id":"Buildings.fid--21a77ec8_1a0253bbced_31cf","geometry":{"type":"Polygon","coordinates":[[[143350.9666,167990.9894],[143353.693,167992.0116],[143353.0364,167993.7628],[143350.31,167992.7406],[143350.9666,167990.9894]]]},"geometry_name":"GEOM","properties":{"INSPIRE_ID":"https://databrussels.be/id/building/215677","BLOCK_ID":"https://databrussels.be/id/block/25280","AREA":5},"bbox":[143350.31,167990.9894,143353.693,167993.7628]}],"numberReturned":14,"grand_bruxelles_source":{"authority":"Paradigm / Brussels-Capital Region","service":"https://geoservices-urbis.irisnet.be/geoserver/urbisvector/wfs","layer":"urbisvector:Buildings","crs":"EPSG:31370","bbox":[143000.0,167500.0,143500.0,168000.0],"cell_id":"bxl-e143000-n167500-s500","ownership":"polygon_or_multipolygon_centroid_global_500m_cell"}}
