{"type":"FeatureCollection","totalFeatures":56,"numberMatched":56,"timeStamp":"2026-08-24T03:41:10.262Z","crs":{"type":"name","properties":{"name":"urn:ogc:def:crs:EPSG::31370"}},"bbox":[155380.408,168917.837,156202.39851421,169625.407],"features":[{"type":"Feature","id":"StreetAxes.fid-6d0a8ac7_1a031465927_e1f","geometry":{"type":"LineString","coordinates":[[155658.683,169119.463],[155664.308,169115.281],[155717.024,169078.116],[155721.16,169075.018]]},"geometry_name":"GEOM","properties":{"INSPIRE_ID":"https://databrussels.be/id/streetaxe/70091","TYPE":"S","HIERARCHY":"DC","LVL":0,"STARTSN_ID":"https://databrussels.be/id/streetnode/4009","ENDSN_ID":"https://databrussels.be/id/streetnode/2115","STRNAMEFRE":"Rue au Bois","STRNAMEDUT":"Bosstraat","SLOPE":0.05,"LENGTH":76.6765826566225},"bbox":[155658.683,169075.018,155721.16,169119.463]},{"type":"Feature","id":"StreetAxes.fid-6d0a8ac7_1a031465927_e46","geometry":{"type":"LineString","coordinates":[[155615.611,169455.105],[155619.27,169459.865],[155639.878,169486.55],[155651.622,169499.87],[155666.045,169515.709],[155667.301,169523.17],[155684.166,169544.832],[155738.702,169615.448],[155745.386,169625.407]]},"geometry_name":"GEOM","properties":{"INSPIRE_ID":"https://databrussels.be/id/streetaxe/70253","TYPE":"S","HIERARCHY":"DR","LVL":0,"STARTSN_ID":"https://databrussels.be/id/streetnode/1820","ENDSN_ID":"https://databrussels.be/id/streetnode/2390","STRNAMEFRE":"Avenue du Tennis","STRNAMEDUT":"Tennislaan","SLOPE":1.29,"LENGTH":215.136165908947},"bbox":[155615.611,169455.105,155745.386,169625.407]},{"type":"Feature","id":"StreetAxes.fid-6d0a8ac7_1a031465927_e1e","geometry":{"type":"LineString","coordinates":[[155880,169388.948],[155886.944,169382.22],[155933.428,169337.854],[155939.488,169331.692]]},"geometry_name":"GEOM","properties":{"INSPIRE_ID":"https://databrussels.be/id/streetaxe/70433","TYPE":"S","HIERARCHY":"DR","LVL":0,"STARTSN_ID":"https://databrussels.be/id/streetnode/1007","ENDSN_ID":"https://databrussels.be/id/streetnode/4684","STRNAMEFRE":"Avenue de la Raquette","STRNAMEDUT":"Raketlaan","SLOPE":0.7,"LENGTH":82.5694365800159},"bbox":[155880,169331.692,155939.488,169388.948]},{"type":"Feature","id":"StreetAxes.fid-6d0a8ac7_1a031465927_e41","geometry":{"type":"LineString","coordinates":[[155533.673,168929.734],[155529.211,168934.003],[155475.183,168982.888],[155508.327,169017.82],[155512.279,169022.075]]},"geometry_name":"GEOM","properties":{"INSPIRE_ID":"https://databrussels.be/id/streetaxe/71696","TYPE":"S","HIERARCHY":null,"LVL":0,"STARTSN_ID":"https://databrussels.be/id/streetnode/1814","ENDSN_ID":"https://databrussels.be/id/streetnode/555","STRNAMEFRE":"Square Louisa","STRNAMEDUT":"Louisaplantsoen","SLOPE":2.94,"LENGTH":132.997331251199},"bbox":[155475.183,168929.734,155533.673,169022.075]},{"type":"Feature","id":"StreetAxes.fid-6d0a8ac7_1a031465927_e42","geometry":{"type":"LineString","coordinates":[[155512.279,169022.075],[155516.798,169017.884],[155622.936,168921.81],[155627.336,168917.837]]},"geometry_name":"GEOM","properties":{"INSPIRE_ID":"https://databrussels.be/id/streetaxe/72897","TYPE":"S","HIERARCHY":"DR","LVL":0,"STARTSN_ID":"https://databrussels.be/id/streetnode/555","ENDSN_ID":"https://databrussels.be/id/streetnode/1521","STRNAMEFRE":"Rue Mareyde","STRNAMEDUT":"Mareydestraat","SLOPE":2.35,"LENGTH":155.254019522054},"bbox":[155512.279,168917.837,155627.336,169022.075]},{"type":"Feature","id":"StreetAxes.fid-6d0a8ac7_1a031465927_e21","geometry":{"type":"LineString","coordinates":[[155721.16,169075.018],[155717.828,169070.059],[155709.448,169057.584],[155701.528,169046.359],[155692.868,169031.655],[155689.136,169016.344],[155689.305,168999.045],[155694.075,168984.138],[155700.682,168972.565],[155708.502,168959.698],[155710.3155665,168956.12410153]]},"geometry_name":"GEOM","properties":{"INSPIRE_ID":"https://databrussels.be/id/streetaxe/73258","TYPE":"S","HIERARCHY":null,"LVL":0,"STARTSN_ID":"https://databrussels.be/id/streetnode/2115","ENDSN_ID":"https://databrussels.be/id/streetnode/4455","STRNAMEFRE":"Avenue Paule","STRNAMEDUT":"Paulalaan","SLOPE":2.48,"LENGTH":132.906723702842},"bbox":[155689.136,168956.12410153,155721.16,169075.018]},{"type":"Feature","id":"StreetAxes.fid-6d0a8ac7_1a031465927_e11","geometry":{"type":"LineString","coordinates":[[155939.488,169331.692],[155946.999,169337.98],[156110.845,169472.96],[156116.751,169477.876]]},"geometry_name":"GEOM","properties":{"INSPIRE_ID":"https://databrussels.be/id/streetaxe/73465","TYPE":"S","HIERARCHY":"DR","LVL":0,"STARTSN_ID":"https://databrussels.be/id/streetnode/4684","ENDSN_ID":"https://databrussels.be/id/streetnode/2798","STRNAMEFRE":"Avenue de l'Hélice","STRNAMEDUT":"Schroeflaan","SLOPE":0.95,"LENGTH":229.765326808837},"bbox":[155939.488,169331.692,156116.751,169477.876]},{"type":"Feature","id":"StreetAxes.fid-6d0a8ac7_1a031465927_e3e","geometry":{"type":"LineString","coordinates":[[155615.611,169455.105],[155620.397,169451.6],[155693.97597634,169393.73479711],[155699.81605123,169389.59963606]]},"geometry_name":"GEOM","properties":{"INSPIRE_ID":"https://databrussels.be/id/streetaxe/74932","TYPE":"S","HIERARCHY":"DR","LVL":0,"STARTSN_ID":"https://databrussels.be/id/streetnode/1820","ENDSN_ID":"https://databrussels.be/id/streetnode/11071","STRNAMEFRE":"Avenue Louis Jasmin","STRNAMEDUT":"Louis Jasminlaan","SLOPE":0.87,"LENGTH":106.694901399016},"bbox":[155615.611,169389.59963606,155699.81605123,169455.105]},{"type":"Feature","id":"StreetAxes.fid-6d0a8ac7_1a031465927_e47","geometry":{"type":"LineString","coordinates":[[155532.357,169517.298],[155543.31,169510.245],[155610.826,169458.609],[155615.611,169455.105]]},"geometry_name":"GEOM","properties":{"INSPIRE_ID":"https://databrussels.be/id/streetaxe/75533","TYPE":"S","HIERARCHY":"DR","LVL":0,"STARTSN_ID":"https://databrussels.be/id/streetnode/221","ENDSN_ID":"https://databrussels.be/id/streetnode/1820","STRNAMEFRE":"Avenue Louis Jasmin","STRNAMEDUT":"Louis Jasminlaan","SLOPE":1.9,"LENGTH":103.956339802429},"bbox":[155532.357,169455.105,155615.611,169517.298]},{"type":"Feature","id":"StreetAxes.fid-6d0a8ac7_1a031465927_e44","geometry":{"type":"LineString","coordinates":[[155786.7978028,169476.53807374],[155796.126,169468.441],[155872.447,169396.266],[155880,169388.948]]},"geometry_name":"GEOM","properties":{"INSPIRE_ID":"https://databrussels.be/id/streetaxe/76610","TYPE":"S","HIERARCHY":"DR","LVL":0,"STARTSN_ID":"https://databrussels.be/id/streetnode/11077","ENDSN_ID":"https://databrussels.be/id/streetnode/1007","STRNAMEFRE":"Avenue de la Raquette","STRNAMEDUT":"Raketlaan","SLOPE":0.67,"LENGTH":127.912385720563},"bbox":[155786.7978028,169388.948,155880,169476.53807374]},{"type":"Feature","id":"StreetAxes.fid-6d0a8ac7_1a031465927_e43","geometry":{"type":"LineString","coordinates":[[155533.17431172,169208.82166333],[155540.105,169203.982],[155651.948,169124.469],[155658.683,169119.463]]},"geometry_name":"GEOM","properties":{"INSPIRE_ID":"https://databrussels.be/id/streetaxe/76612","TYPE":"S","HIERARCHY":"DC","LVL":0,"STARTSN_ID":"https://databrussels.be/id/streetnode/11079","ENDSN_ID":"https://databrussels.be/id/streetnode/4009","STRNAMEFRE":"Rue au Bois","STRNAMEDUT":"Bosstraat","SLOPE":1.72,"LENGTH":154.071613516148},"bbox":[155533.17431172,169119.463,155658.683,169208.82166333]},{"type":"Feature","id":"StreetAxes.fid-6d0a8ac7_1a031465927_e3f","geometry":{"type":"LineString","coordinates":[[155430.44207137,169097.83842662],[155437.135,169092.32],[155507.76,169026.266],[155512.279,169022.075]]},"geometry_name":"GEOM","properties":{"INSPIRE_ID":"https://databrussels.be/id/streetaxe/77905","TYPE":"S","HIERARCHY":"DR","LVL":0,"STARTSN_ID":"https://databrussels.be/id/streetnode/2993","ENDSN_ID":"https://databrussels.be/id/streetnode/555","STRNAMEFRE":"Rue Mareyde","STRNAMEDUT":"Mareydestraat","SLOPE":3.25,"LENGTH":111.538524977048},"bbox":[155430.44207137,169022.075,155512.279,169097.83842662]},{"type":"Feature","id":"StreetAxes.fid-6d0a8ac7_1a031465927_e20","geometry":{"type":"LineString","coordinates":[[155658.683,169119.463],[155664.742,169126.192],[155675.096,169138.54],[155688.164,169153.422],[155699.52,169161.8],[155713.065,169166.32],[155723.422,169167.228],[155736.024,169169.248],[155749.303,169175.184],[155759.157,169182.918],[155765.27377455,169189.44291906]]},"geometry_name":"GEOM","properties":{"INSPIRE_ID":"https://databrussels.be/id/streetaxe/77932","TYPE":"S","HIERARCHY":null,"LVL":0,"STARTSN_ID":"https://databrussels.be/id/streetnode/4009","ENDSN_ID":"https://databrussels.be/id/streetnode/13181","STRNAMEFRE":"Avenue Joseph Van Genegen","STRNAMEDUT":"Joseph Van Genegenlaan","SLOPE":0.46,"LENGTH":132.541212170663},"bbox":[155658.683,169119.463,155765.27377455,169189.44291906]},{"type":"Feature","id":"StreetAxes.fid-6d0a8ac7_1a031465927_e39","geometry":{"type":"LineString","coordinates":[[155699.81605123,169389.59963606],[155695.00273875,169384.55394102],[155691.40214424,169380.60158213],[155688.05774357,169372.19878484]]},"geometry_name":"GEOM","properties":{"INSPIRE_ID":"https://databrussels.be/id/streetaxe/79506","TYPE":"S","HIERARCHY":"IDR","LVL":0,"STARTSN_ID":"https://databrussels.be/id/streetnode/11071","ENDSN_ID":"https://databrussels.be/id/streetnode/11072","STRNAMEFRE":"Avenue Grandchamp","STRNAMEDUT":"Grootveldlaan","SLOPE":0.28,"LENGTH":21.363734934285},"bbox":[155688.05774357,169372.19878484,155699.81605123,169389.59963606]},{"type":"Feature","id":"StreetAxes.fid-6d0a8ac7_1a031465927_e3a","geometry":{"type":"LineString","coordinates":[[155688.05774357,169372.19878484],[155696.14124559,169376.20807188],[155700.32307028,169380.39576627],[155705.35347923,169385.67876913]]},"geometry_name":"GEOM","properties":{"INSPIRE_ID":"https://databrussels.be/id/streetaxe/79507","TYPE":"S","HIERARCHY":"IDR","LVL":0,"STARTSN_ID":"https://databrussels.be/id/streetnode/11072","ENDSN_ID":"https://databrussels.be/id/streetnode/11074","STRNAMEFRE":"Avenue Grandchamp","STRNAMEDUT":"Grootveldlaan","SLOPE":0.63,"LENGTH":22.2361738972132},"bbox":[155688.05774357,169372.19878484,155705.35347923,169385.67876913]},{"type":"Feature","id":"StreetAxes.fid-6d0a8ac7_1a031465927_e35","geometry":{"type":"LineString","coordinates":[[155650.89054901,169333.01313414],[155647.75600447,169324.88112836],[155644.01085223,169320.72512744],[155638.37186262,169314.76887679]]},"geometry_name":"GEOM","properties":{"INSPIRE_ID":"https://databrussels.be/id/streetaxe/79508","TYPE":"S","HIERARCHY":"IDR","LVL":0,"STARTSN_ID":"https://databrussels.be/id/streetnode/11073","ENDSN_ID":"https://databrussels.be/id/streetnode/11069","STRNAMEFRE":"Avenue Grandchamp","STRNAMEDUT":"Grootveldlaan","SLOPE":2,"LENGTH":22.5118586762214},"bbox":[155638.37186262,169314.76887679,155650.89054901,169333.01313414]},{"type":"Feature","id":"StreetAxes.fid-6d0a8ac7_1a031465927_e37","geometry":{"type":"LineString","coordinates":[[155650.89054901,169333.01313414],[155642.92339978,169329.42235882],[155639.16121263,169325.41732833],[155633.0549623,169318.99434331]]},"geometry_name":"GEOM","properties":{"INSPIRE_ID":"https://databrussels.be/id/streetaxe/79509","TYPE":"S","HIERARCHY":"IDR","LVL":0,"STARTSN_ID":"https://databrussels.be/id/streetnode/11073","ENDSN_ID":"https://databrussels.be/id/streetnode/11068","STRNAMEFRE":"Avenue Grandchamp","STRNAMEDUT":"Grootveldlaan","SLOPE":2.03,"LENGTH":23.0962172226619},"bbox":[155633.0549623,169318.99434331,155650.89054901,169333.01313414]},{"type":"Feature","id":"StreetAxes.fid-6d0a8ac7_1a031465927_e38","geometry":{"type":"LineString","coordinates":[[155650.89054901,169333.01313414],[155656.23010048,169338.66265064],[155683.61128234,169367.44797035],[155688.05774357,169372.19878484]]},"geometry_name":"GEOM","properties":{"INSPIRE_ID":"https://databrussels.be/id/streetaxe/79669","TYPE":"S","HIERARCHY":"IDR","LVL":0,"STARTSN_ID":"https://databrussels.be/id/streetnode/11073","ENDSN_ID":"https://databrussels.be/id/streetnode/11072","STRNAMEFRE":"Avenue Grandchamp","STRNAMEDUT":"Grootveldlaan","SLOPE":1.31,"LENGTH":54.0086738280991},"bbox":[155650.89054901,169333.01313414,155688.05774357,169372.19878484]},{"type":"Feature","id":"StreetAxes.fid-6d0a8ac7_1a031465927_e30","geometry":{"type":"LineString","coordinates":[[155705.35347923,169385.67876913],[155710.68705524,169381.90224294],[155815.177,169293.67],[155820.25317771,169289.24775937]]},"geometry_name":"GEOM","properties":{"INSPIRE_ID":"https://databrussels.be/id/streetaxe/79670","TYPE":"S","HIERARCHY":"DR","LVL":0,"STARTSN_ID":"https://databrussels.be/id/streetnode/11074","ENDSN_ID":"https://databrussels.be/id/streetnode/13176","STRNAMEFRE":"Avenue du Polo","STRNAMEDUT":"Pololaan","SLOPE":0.78,"LENGTH":150.026715449588},"bbox":[155705.35347923,169289.24775937,155820.25317771,169385.67876913]},{"type":"Feature","id":"StreetAxes.fid-6d0a8ac7_1a031465927_e16","geometry":{"type":"LineString","coordinates":[[155958.4408012,169108.1565534],[155941.54365259,169084.4905176],[155928.26381006,169066.66185541],[155917.66388659,169053.17399653],[155896.97938389,169027.78509306],[155887.29798005,169015.49650192]]},"geometry_name":"GEOM","properties":{"INSPIRE_ID":"https://databrussels.be/id/streetaxe/80910","TYPE":"S","HIERARCHY":"IDR","LVL":0,"STARTSN_ID":"https://databrussels.be/id/streetnode/13454","ENDSN_ID":"https://databrussels.be/id/streetnode/13455","STRNAMEFRE":"Avenue Orban","STRNAMEDUT":"Orbanlaan","SLOPE":1.55,"LENGTH":116.857027531474},"bbox":[155887.29798005,169015.49650192,155958.4408012,169108.1565534]},{"type":"Feature","id":"StreetAxes.fid-6d0a8ac7_1a031465927_e12","geometry":{"type":"LineString","coordinates":[[156048.33940813,168942.31623568],[156040.52922324,168950.2062527],[156031.50046911,168958.56042395],[156022.43985065,168966.21399988],[156012.50568252,168973.50537552],[156004.65181123,168978.13894632],[155995.56755781,168982.2434196],[155987.2262046,168985.58718505],[155978.74798328,168988.58920056],[155966.75130355,168992.27789217],[155955.30646942,168994.8520567],[155944.93686968,168996.70379306],[155930.65870491,168998.56585792],[155921.36118254,168999.43500444],[155915.9530316,168999.54614184],[155908.32408776,168999.55104732],[155901.3176162,168999.19196888],[155888.44200698,168997.99464314],[155885.26543115,168998.10037338],[155878.12464092,169003.85279655]]},"geometry_name":"GEOM","properties":{"INSPIRE_ID":"https://databrussels.be/id/streetaxe/81256","TYPE":"S","HIERARCHY":"DC","LVL":0,"STARTSN_ID":"https://databrussels.be/id/streetnode/13457","ENDSN_ID":"https://databrussels.be/id/streetnode/13452","STRNAMEFRE":"Avenue Jules Du Jardin","STRNAMEDUT":"Jules Du Jardinlaan","SLOPE":0.48,"LENGTH":188.539437188538},"bbox":[155878.12464092,168942.31623568,156048.33940813,169003.85279655]},{"type":"Feature","id":"StreetAxes.fid-6d0a8ac7_1a031465927_e23","geometry":{"type":"LineString","coordinates":[[155765.27377455,169189.44291906],[155761.8285,169193.086],[155760.4305,169197.0545],[155760.2905,169202.5505],[155760.8135,169204.469],[155763.07328403,169209.24219484]]},"geometry_name":"GEOM","properties":{"INSPIRE_ID":"https://databrussels.be/id/streetaxe/81984","TYPE":"S","HIERARCHY":"DR","LVL":0,"STARTSN_ID":"https://databrussels.be/id/streetnode/13181","ENDSN_ID":"https://databrussels.be/id/streetnode/13175","STRNAMEFRE":"Avenue Joseph Van Genegen","STRNAMEDUT":"Joseph Van Genegenlaan","SLOPE":0.82,"LENGTH":21.9891080798729},"bbox":[155760.2905,169189.44291906,155765.27377455,169209.24219484]},{"type":"Feature","id":"StreetAxes.fid-6d0a8ac7_1a031465927_e26","geometry":{"type":"LineString","coordinates":[[155782.90673747,169211.15577074],[155785.3565,169207.354],[155786.7095,169203.3305],[155786.9645,169198.0295],[155786.5315,169195.321],[155784.44528035,169191.05611993]]},"geometry_name":"GEOM","properties":{"INSPIRE_ID":"https://databrussels.be/id/streetaxe/81985","TYPE":"S","HIERARCHY":"DR","LVL":0,"STARTSN_ID":"https://databrussels.be/id/streetnode/13182","ENDSN_ID":"https://databrussels.be/id/streetnode/13177","STRNAMEFRE":"Avenue Joseph Van Genegen","STRNAMEDUT":"Joseph Van Genegenlaan","SLOPE":0.79,"LENGTH":21.5654093323298},"bbox":[155782.90673747,169191.05611993,155786.9645,169211.15577074]},{"type":"Feature","id":"StreetAxes.fid-6d0a8ac7_1a031465927_e2d","geometry":{"type":"LineString","coordinates":[[155782.90673747,169211.15577074],[155787.02,169216.046],[155827.54,169264.382],[155836.78,169274.85]]},"geometry_name":"GEOM","properties":{"INSPIRE_ID":"https://databrussels.be/id/streetaxe/81986","TYPE":"S","HIERARCHY":"DR","LVL":0,"STARTSN_ID":"https://databrussels.be/id/streetnode/13182","ENDSN_ID":"https://databrussels.be/id/streetnode/2914","STRNAMEFRE":"Avenue Joseph Van Genegen","STRNAMEDUT":"Joseph Van Genegenlaan","SLOPE":3.52,"LENGTH":83.4260635849319},"bbox":[155782.90673747,169211.15577074,155836.78,169274.85]},{"type":"Feature","id":"StreetAxes.fid-6d0a8ac7_1a031465927_e3c","geometry":{"type":"LineString","coordinates":[[155716.91510785,169402.59619785],[155713.2675917,169394.23327982],[155710.34793478,169390.92401325],[155705.35347923,169385.67876913]]},"geometry_name":"GEOM","properties":{"INSPIRE_ID":"https://databrussels.be/id/streetaxe/82299","TYPE":"S","HIERARCHY":"IDR","LVL":0,"STARTSN_ID":"https://databrussels.be/id/streetnode/11075","ENDSN_ID":"https://databrussels.be/id/streetnode/11074","STRNAMEFRE":"Avenue Grandchamp","STRNAMEDUT":"Grootveldlaan","SLOPE":1.83,"LENGTH":20.7796016095005},"bbox":[155705.35347923,169385.67876913,155716.91510785,169402.59619785]},{"type":"Feature","id":"StreetAxes.fid-6d0a8ac7_1a031465927_e3d","geometry":{"type":"LineString","coordinates":[[155716.91510785,169402.59619785],[155708.69573324,169398.90802141],[155699.81605123,169389.59963606]]},"geometry_name":"GEOM","properties":{"INSPIRE_ID":"https://databrussels.be/id/streetaxe/82300","TYPE":"S","HIERARCHY":"IDR","LVL":0,"STARTSN_ID":"https://databrussels.be/id/streetnode/11075","ENDSN_ID":"https://databrussels.be/id/streetnode/11071","STRNAMEFRE":"Avenue Grandchamp","STRNAMEDUT":"Grootveldlaan","SLOPE":2.1,"LENGTH":21.8734047803598},"bbox":[155699.81605123,169389.59963606,155716.91510785,169402.59619785]},{"type":"Feature","id":"StreetAxes.fid-6d0a8ac7_1a031465927_e45","geometry":{"type":"LineString","coordinates":[[155716.91510785,169402.59619785],[155724.69544961,169410.91473845],[155781.00787111,169470.37598885],[155786.7978028,169476.53807374]]},"geometry_name":"GEOM","properties":{"INSPIRE_ID":"https://databrussels.be/id/streetaxe/82301","TYPE":"S","HIERARCHY":"IDR","LVL":0,"STARTSN_ID":"https://databrussels.be/id/streetnode/11075","ENDSN_ID":"https://databrussels.be/id/streetnode/11077","STRNAMEFRE":"Avenue Grandchamp","STRNAMEDUT":"Grootveldlaan","SLOPE":1.22,"LENGTH":101.7400583029},"bbox":[155716.91510785,169402.59619785,155786.7978028,169476.53807374]},{"type":"Feature","id":"StreetAxes.fid-6d0a8ac7_1a031465927_e14","geometry":{"type":"LineString","coordinates":[[155878.12464092,169003.85279655],[155887.29798005,169015.49650192]]},"geometry_name":"GEOM","properties":{"INSPIRE_ID":"https://databrussels.be/id/streetaxe/82702","TYPE":"S","HIERARCHY":"IDR","LVL":0,"STARTSN_ID":"https://databrussels.be/id/streetnode/13452","ENDSN_ID":"https://databrussels.be/id/streetnode/13455","STRNAMEFRE":"Avenue Orban","STRNAMEDUT":"Orbanlaan","SLOPE":1.08,"LENGTH":14.8231584279022},"bbox":[155878.12464092,169003.85279655,155887.29798005,169015.49650192]},{"type":"Feature","id":"StreetAxes.fid-6d0a8ac7_1a031465927_e2a","geometry":{"type":"LineString","coordinates":[[155380.408,169316.298],[155387.334,169311.876],[155523.686,169215.447],[155533.17431172,169208.82166333]]},"geometry_name":"GEOM","properties":{"INSPIRE_ID":"https://databrussels.be/id/streetaxe/83930","TYPE":"S","HIERARCHY":"DC","LVL":0,"STARTSN_ID":"https://databrussels.be/id/streetnode/2904","ENDSN_ID":"https://databrussels.be/id/streetnode/11079","STRNAMEFRE":"Rue au Bois","STRNAMEDUT":"Bosstraat","SLOPE":3.47,"LENGTH":186.794040137629},"bbox":[155380.408,169208.82166333,155533.17431172,169316.298]},{"type":"Feature","id":"StreetAxes.fid-6d0a8ac7_1a031465927_e40","geometry":{"type":"LineString","coordinates":[[155450.398,169121.408],[155526.038,169201.152],[155533.17431172,169208.82166333]]},"geometry_name":"GEOM","properties":{"INSPIRE_ID":"https://databrussels.be/id/streetaxe/83931","TYPE":"S","HIERARCHY":"IDR","LVL":0,"STARTSN_ID":"https://databrussels.be/id/streetnode/15506","ENDSN_ID":"https://databrussels.be/id/streetnode/11079","STRNAMEFRE":"Avenue Edmond Parmentier","STRNAMEDUT":"Edmond Parmentierlaan","SLOPE":2.05,"LENGTH":120.387592649893},"bbox":[155450.398,169121.408,155533.17431172,169208.82166333]},{"type":"Feature","id":"StreetAxes.fid-6d0a8ac7_1a031465927_e32","geometry":{"type":"LineString","coordinates":[[155633.0549623,169318.99434331],[155627.92266462,169313.59583042],[155624.94860751,169310.42297853],[155621.71608389,169302.02782216]]},"geometry_name":"GEOM","properties":{"INSPIRE_ID":"https://databrussels.be/id/streetaxe/84389","TYPE":"S","HIERARCHY":"IDR","LVL":0,"STARTSN_ID":"https://databrussels.be/id/streetnode/11068","ENDSN_ID":"https://databrussels.be/id/streetnode/11067","STRNAMEFRE":"Avenue Grandchamp","STRNAMEDUT":"Grootveldlaan","SLOPE":0.48,"LENGTH":20.7935713279604},"bbox":[155621.71608389,169302.02782216,155633.0549623,169318.99434331]},{"type":"Feature","id":"StreetAxes.fid-6d0a8ac7_1a031465927_e36","geometry":{"type":"LineString","coordinates":[[155633.0549623,169318.99434331],[155623.5630439,169326.47457974],[155414.766,169482.308],[155404.381,169488.974]]},"geometry_name":"GEOM","properties":{"INSPIRE_ID":"https://databrussels.be/id/streetaxe/84390","TYPE":"S","HIERARCHY":"DR","LVL":0,"STARTSN_ID":"https://databrussels.be/id/streetnode/11068","ENDSN_ID":"https://databrussels.be/id/streetnode/149","STRNAMEFRE":"Avenue Montgolfier","STRNAMEDUT":"Montgolfierlaan","SLOPE":0.95,"LENGTH":284.963869854698},"bbox":[155404.381,169318.99434331,155633.0549623,169488.974]},{"type":"Feature","id":"StreetAxes.fid-6d0a8ac7_1a031465927_e2c","geometry":{"type":"LineString","coordinates":[[155638.37186262,169314.76887679],[155644.43,169309.938],[155759.24,169212.504],[155763.07328403,169209.24219484]]},"geometry_name":"GEOM","properties":{"INSPIRE_ID":"https://databrussels.be/id/streetaxe/84392","TYPE":"S","HIERARCHY":"DR","LVL":0,"STARTSN_ID":"https://databrussels.be/id/streetnode/11069","ENDSN_ID":"https://databrussels.be/id/streetnode/13175","STRNAMEFRE":"Avenue du Monoplan","STRNAMEDUT":"Eendekkerlaan","SLOPE":1.97,"LENGTH":163.36295368331},"bbox":[155638.37186262,169209.24219484,155763.07328403,169314.76887679]},{"type":"Feature","id":"StreetAxes.fid-6d0a8ac7_1a031465927_e33","geometry":{"type":"LineString","coordinates":[[155621.71608389,169302.02782216],[155629.54775805,169305.90833831],[155634.14014032,169310.29906917],[155638.37186262,169314.76887679]]},"geometry_name":"GEOM","properties":{"INSPIRE_ID":"https://databrussels.be/id/streetaxe/85149","TYPE":"S","HIERARCHY":"IDR","LVL":0,"STARTSN_ID":"https://databrussels.be/id/streetnode/11067","ENDSN_ID":"https://databrussels.be/id/streetnode/11069","STRNAMEFRE":"Avenue Grandchamp","STRNAMEDUT":"Grootveldlaan","SLOPE":0.56,"LENGTH":21.2491729617869},"bbox":[155621.71608389,169302.02782216,155638.37186262,169314.76887679]},{"type":"Feature","id":"StreetAxes.fid-6d0a8ac7_1a031465927_e31","geometry":{"type":"LineString","coordinates":[[155820.25317771,169289.24775937],[155822.644,169293.787],[155823.638,169295.522],[155874.135,169382.115],[155880,169388.948]]},"geometry_name":"GEOM","properties":{"INSPIRE_ID":"https://databrussels.be/id/streetaxe/85579","TYPE":"S","HIERARCHY":"DR","LVL":0,"STARTSN_ID":"https://databrussels.be/id/streetnode/13176","ENDSN_ID":"https://databrussels.be/id/streetnode/1007","STRNAMEFRE":"Avenue du Football","STRNAMEDUT":"Voetballaan","SLOPE":1.66,"LENGTH":116.376015480567},"bbox":[155820.25317771,169289.24775937,155880,169388.948]},{"type":"Feature","id":"StreetAxes.fid-6d0a8ac7_1a031465927_e25","geometry":{"type":"LineString","coordinates":[[155784.44528035,169191.05611993],[155781.034,169188.4635],[155776.0505,169186.9555],[155771.5845,169186.9305],[155768.786,169187.4485],[155765.27377455,169189.44291906]]},"geometry_name":"GEOM","properties":{"INSPIRE_ID":"https://databrussels.be/id/streetaxe/85580","TYPE":"S","HIERARCHY":"DR","LVL":0,"STARTSN_ID":"https://databrussels.be/id/streetnode/13177","ENDSN_ID":"https://databrussels.be/id/streetnode/13181","STRNAMEFRE":"Avenue Joseph Van Genegen","STRNAMEDUT":"Joseph Van Genegenlaan","SLOPE":0.91,"LENGTH":20.8424423242875},"bbox":[155765.27377455,169186.9305,155784.44528035,169191.05611993]},{"type":"Feature","id":"StreetAxes.fid-6d0a8ac7_1a031465927_e1d","geometry":{"type":"LineString","coordinates":[[155854.0085027,169259.84197956],[155858.439,169265.1],[155859.988,169266.365],[155932.746,169326.048],[155939.488,169331.692]]},"geometry_name":"GEOM","properties":{"INSPIRE_ID":"https://databrussels.be/id/streetaxe/86102","TYPE":"S","HIERARCHY":"DR","LVL":0,"STARTSN_ID":"https://databrussels.be/id/streetnode/13178","ENDSN_ID":"https://databrussels.be/id/streetnode/4684","STRNAMEFRE":"Avenue de l'Hélice","STRNAMEDUT":"Schroeflaan","SLOPE":1.47,"LENGTH":111.773429359091},"bbox":[155854.0085027,169259.84197956,155939.488,169331.692]},{"type":"Feature","id":"StreetAxes.fid-6d0a8ac7_1a031465927_e1a","geometry":{"type":"LineString","coordinates":[[155958.4408012,169108.1565534],[155961.55653406,169112.66662928],[155964.18520455,169116.3939513],[155977.73460975,169135.83452814],[155999.05098471,169166.3854565],[156023.87528059,169202.0736253],[156035.32261683,169218.65394071],[156056.48666973,169246.7935957],[156064.67517506,169256.49183772],[156076.22547479,169269.05718277],[156083.11279118,169276.17980263],[156092.88345924,169285.5054631],[156102.86770184,169294.51010152],[156113.36664855,169303.23535481],[156141.11044956,169325.44532843],[156150.29241199,169332.29659683],[156160.2644013,169338.9167326],[156172.93565823,169348.45639404],[156181.17711264,169354.9498877],[156202.39851421,169371.84893505]]},"geometry_name":"GEOM","properties":{"INSPIRE_ID":"https://databrussels.be/id/streetaxe/86249","TYPE":"S","HIERARCHY":null,"LVL":0,"STARTSN_ID":"https://databrussels.be/id/streetnode/13454","ENDSN_ID":"https://databrussels.be/id/streetnode/9042","STRNAMEFRE":"Avenue Orban","STRNAMEDUT":"Orbanlaan","SLOPE":1.34,"LENGTH":362.539655087569},"bbox":[155958.4408012,169108.1565534,156202.39851421,169371.84893505]},{"type":"Feature","id":"StreetAxes.fid-6d0a8ac7_1a031465927_e18","geometry":{"type":"LineString","coordinates":[[155958.4408012,169108.1565534],[155963.668,169104.572],[155983.588,169090.756],[155994.682,169080.816],[156005.065,169067.375]]},"geometry_name":"GEOM","properties":{"INSPIRE_ID":"https://databrussels.be/id/streetaxe/86250","TYPE":"S","HIERARCHY":"DR","LVL":0,"STARTSN_ID":"https://databrussels.be/id/streetnode/13454","ENDSN_ID":"https://databrussels.be/id/streetnode/1489","STRNAMEFRE":"Clos des Malouinières","STRNAMEDUT":"Malouinièresgaarde","SLOPE":1.81,"LENGTH":62.4604435356095},"bbox":[155958.4408012,169067.375,156005.065,169108.1565534]},{"type":"Feature","id":"StreetAxes.fid-6d0a8ac7_1a031465927_e24","geometry":{"type":"LineString","coordinates":[[155763.07328403,169209.24219484],[155765.891,169211.9715],[155771.0495,169213.5445],[155775.9005,169213.5995],[155779.8721474,169212.6086383],[155782.90673747,169211.15577074]]},"geometry_name":"GEOM","properties":{"INSPIRE_ID":"https://databrussels.be/id/streetaxe/86778","TYPE":"S","HIERARCHY":"DR","LVL":0,"STARTSN_ID":"https://databrussels.be/id/streetnode/13175","ENDSN_ID":"https://databrussels.be/id/streetnode/13182","STRNAMEFRE":"Avenue Joseph Van Genegen","STRNAMEDUT":"Joseph Van Genegenlaan","SLOPE":0.83,"LENGTH":21.6249856376348},"bbox":[155763.07328403,169209.24219484,155782.90673747,169213.5995]},{"type":"Feature","id":"StreetAxes.fid-6d0a8ac7_1a031465927_e48","geometry":{"type":"LineString","coordinates":[[155786.7978028,169476.53807374],[155792.5543133,169482.66458925],[155836.19601352,169528.88009847],[155845.10116192,169537.66634058]]},"geometry_name":"GEOM","properties":{"INSPIRE_ID":"https://databrussels.be/id/streetaxe/86809","TYPE":"S","HIERARCHY":"IDR","LVL":0,"STARTSN_ID":"https://databrussels.be/id/streetnode/11077","ENDSN_ID":"https://databrussels.be/id/streetnode/11078","STRNAMEFRE":"Avenue Grandchamp","STRNAMEDUT":"Grootveldlaan","SLOPE":1.3,"LENGTH":84.4813269158671},"bbox":[155786.7978028,169476.53807374,155845.10116192,169537.66634058]},{"type":"Feature","id":"StreetAxes.fid-6d0a8ac7_1a031465927_e2e","geometry":{"type":"LineString","coordinates":[[155836.78,169274.85],[155854.0085027,169259.84197956]]},"geometry_name":"GEOM","properties":{"INSPIRE_ID":"https://databrussels.be/id/streetaxe/86917","TYPE":"I","HIERARCHY":"DR","LVL":0,"STARTSN_ID":"https://databrussels.be/id/streetnode/2914","ENDSN_ID":"https://databrussels.be/id/streetnode/13178","STRNAMEFRE":"Avenue du Polo","STRNAMEDUT":"Pololaan","SLOPE":0.26,"LENGTH":22.8486757354414},"bbox":[155836.78,169259.84197956,155854.0085027,169274.85]},{"type":"Feature","id":"StreetAxes.fid-6d0a8ac7_1a031465927_e2f","geometry":{"type":"LineString","coordinates":[[155820.25317771,169289.24775937],[155836.78,169274.85]]},"geometry_name":"GEOM","properties":{"INSPIRE_ID":"https://databrussels.be/id/streetaxe/86918","TYPE":"I","HIERARCHY":"DR","LVL":0,"STARTSN_ID":"https://databrussels.be/id/streetnode/13176","ENDSN_ID":"https://databrussels.be/id/streetnode/2914","STRNAMEFRE":"Avenue du Polo","STRNAMEDUT":"Pololaan","SLOPE":1.05,"LENGTH":21.9187438029255},"bbox":[155820.25317771,169274.85,155836.78,169289.24775937]},{"type":"Feature","id":"StreetAxes.fid-6d0a8ac7_1a031465927_e3b","geometry":{"type":"LineString","coordinates":[[155699.81605123,169389.59963606],[155705.35347923,169385.67876913]]},"geometry_name":"GEOM","properties":{"INSPIRE_ID":"https://databrussels.be/id/streetaxe/86919","TYPE":"I","HIERARCHY":"IDR","LVL":0,"STARTSN_ID":"https://databrussels.be/id/streetnode/11071","ENDSN_ID":"https://databrussels.be/id/streetnode/11074","STRNAMEFRE":"Avenue Grandchamp","STRNAMEDUT":"Grootveldlaan","SLOPE":1.18,"LENGTH":6.78500598824994},"bbox":[155699.81605123,169385.67876913,155705.35347923,169389.59963606]},{"type":"Feature","id":"StreetAxes.fid-6d0a8ac7_1a031465927_e34","geometry":{"type":"LineString","coordinates":[[155633.0549623,169318.99434331],[155638.37186262,169314.76887679]]},"geometry_name":"GEOM","properties":{"INSPIRE_ID":"https://databrussels.be/id/streetaxe/86920","TYPE":"I","HIERARCHY":"IDR","LVL":0,"STARTSN_ID":"https://databrussels.be/id/streetnode/11068","ENDSN_ID":"https://databrussels.be/id/streetnode/11069","STRNAMEFRE":"Avenue Grandchamp","STRNAMEDUT":"Grootveldlaan","SLOPE":0.29,"LENGTH":6.79146496594182},"bbox":[155633.0549623,169314.76887679,155638.37186262,169318.99434331]},{"type":"Feature","id":"StreetAxes.fid-6d0a8ac7_1a031465927_e29","geometry":{"type":"LineString","coordinates":[[155878.12464092,169003.85279655],[155868.50376863,168992.32294125],[155861.31269785,168984.07226424],[155856.92294366,168978.89861763]]},"geometry_name":"GEOM","properties":{"INSPIRE_ID":"https://databrussels.be/id/streetaxe/87945","TYPE":"S","HIERARCHY":"IDR","LVL":0,"STARTSN_ID":"https://databrussels.be/id/streetnode/13452","ENDSN_ID":"https://databrussels.be/id/streetnode/13916","STRNAMEFRE":"Avenue Orban","STRNAMEDUT":"Orbanlaan","SLOPE":0.49,"LENGTH":32.746281614678},"bbox":[155856.92294366,168978.89861763,155878.12464092,169003.85279655]},{"type":"Feature","id":"StreetAxes.fid-6d0a8ac7_1a031465927_e15","geometry":{"type":"LineString","coordinates":[[155882.72113529,169019.41699882],[155887.29798005,169015.49650192]]},"geometry_name":"GEOM","properties":{"INSPIRE_ID":"https://databrussels.be/id/streetaxe/87946","TYPE":"S","HIERARCHY":"IDR","LVL":0,"STARTSN_ID":"https://databrussels.be/id/streetnode/13453","ENDSN_ID":"https://databrussels.be/id/streetnode/13455","STRNAMEFRE":"Avenue Orban","STRNAMEDUT":"Orbanlaan","SLOPE":1.82,"LENGTH":6.02642546819074},"bbox":[155882.72113529,169015.49650192,155887.29798005,169019.41699882]},{"type":"Feature","id":"StreetAxes.fid-6d0a8ac7_1a031465927_e2b","geometry":{"type":"LineString","coordinates":[[155533.17431172,169208.82166333],[155538.76858721,169214.83404217],[155616.48682072,169296.55305024],[155621.71608389,169302.02782216]]},"geometry_name":"GEOM","properties":{"INSPIRE_ID":"https://databrussels.be/id/streetaxe/88067","TYPE":"S","HIERARCHY":"IDR","LVL":0,"STARTSN_ID":"https://databrussels.be/id/streetnode/11079","ENDSN_ID":"https://databrussels.be/id/streetnode/11067","STRNAMEFRE":"Avenue Grandchamp","STRNAMEDUT":"Grootveldlaan","SLOPE":0.96,"LENGTH":128.557996588228},"bbox":[155533.17431172,169208.82166333,155621.71608389,169302.02782216]},{"type":"Feature","id":"StreetAxes.fid-6d0a8ac7_1a031465927_e17","geometry":{"type":"LineString","coordinates":[[155882.72113529,169019.41699882],[155897.28797593,169037.16093283],[155915.8881125,169059.83963164],[155929.12420106,169076.93572154],[155939.19606837,169090.58254881],[155948.1910268,169103.09103985],[155956.23422693,169114.50472936],[155962.59877179,169123.62720414],[155973.67973316,169139.61540948],[155987.72900315,169159.78520967],[156006.76639511,169187.07324973],[156022.27247554,169209.38272196],[156033.77728056,169225.84600375],[156044.27771526,169240.08190608],[156057.04284472,169255.77220687],[156064.75050547,169264.61400644],[156072.87905343,169273.38305433],[156080.28747469,169280.95318317],[156085.92531314,169286.4555443],[156093.5310258,169293.44086349],[156100.5556249,169299.63663253],[156114.70642409,169311.32865824],[156121.46066504,169316.72330329],[156127.79416237,169321.75378361],[156136.53535636,169328.80406484],[156143.92323173,169334.6847598],[156154.63323714,169343.21478913],[156162.45409343,169349.48820591],[156174.80966885,169359.13381985],[156184.28574591,169366.84322734],[156191.55080078,169372.60606917],[156197.7539503,169377.69974626]]},"geometry_name":"GEOM","properties":{"INSPIRE_ID":"https://databrussels.be/id/streetaxe/91025","TYPE":"C","HIERARCHY":"IDR","LVL":0,"STARTSN_ID":"https://databrussels.be/id/streetnode/13453","ENDSN_ID":"https://databrussels.be/id/streetnode/9043","STRNAMEFRE":"Avenue Orban","STRNAMEDUT":"Orbanlaan","SLOPE":1.4,"LENGTH":480.358945651333},"bbox":[155882.72113529,169019.41699882,156197.7539503,169377.69974626]},{"type":"Feature","id":"StreetAxes.fid-6d0a8ac7_1a031465927_e28","geometry":{"type":"LineString","coordinates":[[155851.28225556,168982.72107267],[155882.72113529,169019.41699882]]},"geometry_name":"GEOM","properties":{"INSPIRE_ID":"https://databrussels.be/id/streetaxe/91026","TYPE":"C","HIERARCHY":"IDR","LVL":0,"STARTSN_ID":"https://databrussels.be/id/streetnode/13913","ENDSN_ID":"https://databrussels.be/id/streetnode/13453","STRNAMEFRE":"Avenue Orban","STRNAMEDUT":"Orbanlaan","SLOPE":0.79,"LENGTH":48.3217772252006},"bbox":[155851.28225556,168982.72107267,155882.72113529,169019.41699882]},{"type":"Feature","id":"StreetAxes.fid-6d0a8ac7_1a031465927_e13","geometry":{"type":"LineString","coordinates":[[155846.61398983,168987.47862977],[155921.57239442,169074.91726608]]},"geometry_name":"GEOM","properties":{"INSPIRE_ID":"https://databrussels.be/id/streetaxe/99598","TYPE":"S","HIERARCHY":"DR","LVL":0,"STARTSN_ID":"https://databrussels.be/id/streetnode/","ENDSN_ID":"https://databrussels.be/id/streetnode/","STRNAMEFRE":"Avenue Orban","STRNAMEDUT":"Orbanlaan","SLOPE":null,"LENGTH":115.170645302645},"bbox":[155846.61398983,168987.47862977,155921.57239442,169074.91726608]},{"type":"Feature","id":"StreetAxes.fid-6d0a8ac7_1a031465927_e19","geometry":{"type":"LineString","coordinates":[[155921.57239442,169074.91726608],[155977.67663766,169153.98364132]]},"geometry_name":"GEOM","properties":{"INSPIRE_ID":"https://databrussels.be/id/streetaxe/99599","TYPE":"S","HIERARCHY":"DR","LVL":0,"STARTSN_ID":"https://databrussels.be/id/streetnode/","ENDSN_ID":"https://databrussels.be/id/streetnode/","STRNAMEFRE":"Avenue Orban","STRNAMEDUT":"Orbanlaan","SLOPE":null,"LENGTH":96.9493568960694},"bbox":[155921.57239442,169074.91726608,155977.67663766,169153.98364132]},{"type":"Feature","id":"StreetAxes.fid-6d0a8ac7_1a031465927_e1c","geometry":{"type":"LineString","coordinates":[[155977.67663766,169153.98364132],[156011.65513401,169203.57305778],[156020.45362301,169216.41388308],[156030.64862756,169231.29283243],[156043.1681092,169248.032369],[156053.74746515,169260.68998446],[156066.35265523,169274.78903655],[156077.24714094,169285.50972153],[156091.9682022,169299.29345935],[156107.27450444,169312.17629928],[156126.27232662,169327.53660843],[156139.11810909,169337.92280891],[156155.03792444,169350.7944572],[156194.43117098,169381.67655654]]},"geometry_name":"GEOM","properties":{"INSPIRE_ID":"https://databrussels.be/id/streetaxe/99600","TYPE":"S","HIERARCHY":"DR","LVL":0,"STARTSN_ID":"https://databrussels.be/id/streetnode/","ENDSN_ID":"https://databrussels.be/id/streetnode/","STRNAMEFRE":"Avenue Orban","STRNAMEDUT":"Orbanlaan","SLOPE":null,"LENGTH":316.963973745333},"bbox":[155977.67663766,169153.98364132,156194.43117098,169381.67655654]},{"type":"Feature","id":"StreetAxes.fid-6d0a8ac7_1a031465927_e22","geometry":{"type":"LineString","coordinates":[[155721.16,169075.018],[155725.295,169071.921],[155846.61398983,168987.47862977]]},"geometry_name":"GEOM","properties":{"INSPIRE_ID":"https://databrussels.be/id/streetaxe/99636","TYPE":"S","HIERARCHY":"DC","LVL":0,"STARTSN_ID":"https://databrussels.be/id/streetnode/","ENDSN_ID":"https://databrussels.be/id/streetnode/","STRNAMEFRE":"Rue au Bois","STRNAMEDUT":"Bosstraat","SLOPE":0.29,"LENGTH":152.979634823955},"bbox":[155721.16,168987.47862977,155846.61398983,169075.018]},{"type":"Feature","id":"StreetAxes.fid-6d0a8ac7_1a031465927_e1b","geometry":{"type":"LineString","coordinates":[[155854.0085027,169259.84197956],[155859.661,169254.918],[155977.67663766,169153.98364132]]},"geometry_name":"GEOM","properties":{"INSPIRE_ID":"https://databrussels.be/id/streetaxe/99655","TYPE":"S","HIERARCHY":"DR","LVL":0,"STARTSN_ID":"https://databrussels.be/id/streetnode/13178","ENDSN_ID":"https://databrussels.be/id/streetnode/17330","STRNAMEFRE":"Avenue du Polo","STRNAMEDUT":"Pololaan","SLOPE":0.27,"LENGTH":162.787872562893},"bbox":[155854.0085027,169153.98364132,155977.67663766,169259.84197956]},{"type":"Feature","id":"StreetAxes.fid-6d0a8ac7_1a031465927_e27","geometry":{"type":"LineString","coordinates":[[155784.44528035,169191.05611993],[155789.065,169187.125],[155921.57239442,169074.91726608]]},"geometry_name":"GEOM","properties":{"INSPIRE_ID":"https://databrussels.be/id/streetaxe/99656","TYPE":"S","HIERARCHY":"DR","LVL":0,"STARTSN_ID":"https://databrussels.be/id/streetnode/13177","ENDSN_ID":"https://databrussels.be/id/streetnode/17331","STRNAMEFRE":"Avenue du Monoplan","STRNAMEDUT":"Eendekkerlaan","SLOPE":0.59,"LENGTH":179.69998576726},"bbox":[155784.44528035,169074.91726608,155921.57239442,169191.05611993]}],"numberReturned":56,"grand_bruxelles_source":{"authority":"Paradigm / Brussels-Capital Region","service":"https://geoservices-urbis.irisnet.be/geoserver/urbisvector/wfs","layer":"urbisvector:StreetAxes","crs":"EPSG:31370","bbox":[155500.0,169000.0,156000.0,169500.0],"cell_id":"bxl-e155500-n169000-s500","ownership":"bbox_intersection_source_unclipped"}}
