{"type":"FeatureCollection","totalFeatures":30,"numberMatched":30,"timeStamp":"2026-08-24T01:18:41.586Z","crs":{"type":"name","properties":{"name":"urn:ogc:def:crs:EPSG::31370"}},"bbox":[149033.3077,167382.2353,150766.90347228,169126.61],"features":[{"type":"Feature","id":"TrainNetwork.fid--291372a6_1a0314667fc_-2806","geometry":{"type":"LineString","coordinates":[[150251.385144,168484.371521],[150251.021664,168488.654955],[150250.934297,168489.705659],[150250.805457,168491.205783],[150250.63343,168493.306335],[150250.362144,168498.252901],[150250.36307,168498.683118],[150250.362267,168499.915028],[150250.366548,168501.146953],[150250.375378,168501.620117],[150250.553624,168503.90276],[150250.904527,168506.412924],[150251.483213,168509.122477],[150251.733636,168510.034897],[150252.160437,168511.390123],[150253.189626,168514.042244],[150254.3243,168516.369379],[150255.183627,168517.868049],[150255.550611,168518.447179],[150257.27138,168520.92623],[150258.81345,168522.876956],[150260.778556,168525.074752],[150262.893099,168527.171265],[150263.418078,168527.656362],[150265.252818,168529.290099],[150265.636523,168529.620161],[150267.695966,168531.325195],[150269.907354,168533.066645],[150271.793852,168534.47696],[150272.011392,168534.635053],[150272.229485,168534.792374],[150272.639617,168535.092912],[150273.052507,168535.389726],[150275.820706,168537.24413],[150277.5043,168538.3407]]},"geometry_name":"GEOM","properties":{"INSPIRE_ID":"https://databrussels.be/id/rail/20970","TYPE":"TW","LVL":0,"SLOPE":null,"LENGTH":64.944176045166},"bbox":[150250.362144,168484.371521,150277.5043,168538.3407]},{"type":"Feature","id":"TrainNetwork.fid--291372a6_1a0314667fc_-27f2","geometry":{"type":"LineString","coordinates":[[150247.35229,168480.299318],[150246.747082,168485.596864],[150246.52736,168487.121977],[150246.387147,168487.987658],[150246.089116,168489.738964],[150245.67143,168492.01363],[150245.187945,168494.406457],[150244.904184,168495.706526],[150244.638596,168496.881614],[150243.981588,168499.585677],[150242.54658,168504.690308],[150241.781124,168507.215878],[150240.319039,168511.534931],[150239.472344,168513.843363],[150238.835506,168515.493817],[150238.672598,168515.890503],[150238.50775,168516.286371],[150237.974046,168517.602418],[150237.433406,168518.91569],[150236.258219,168521.596311],[150234.9332,168524.428536],[150233.717282,168526.889226],[150232.484661,168529.283298],[150231.244847,168531.613101],[150230.689806,168532.634086],[150230.132702,168533.65394],[150229.97453,168533.946264],[150229.815675,168534.23822],[150226.763323,168539.71703],[150226.022563,168541.031621],[150223.4065,168545.7265]]},"geometry_name":"GEOM","properties":{"INSPIRE_ID":"https://databrussels.be/id/rail/21043","TYPE":"TW","LVL":0,"SLOPE":null,"LENGTH":70.3000298183444},"bbox":[150223.4065,168480.299318,150247.35229,168545.7265]},{"type":"Feature","id":"TrainNetwork.fid--291372a6_1a0314667fc_-2801","geometry":{"type":"LineString","coordinates":[[150273.424658,168541.06414],[150277.6572,168543.7163]]},"geometry_name":"GEOM","properties":{"INSPIRE_ID":"https://databrussels.be/id/rail/21067","TYPE":"TW","LVL":0,"SLOPE":null,"LENGTH":4.99483377659702},"bbox":[150273.424658,168541.06414,150277.6572,168543.7163]},{"type":"Feature","id":"TrainNetwork.fid--291372a6_1a0314667fc_-2804","geometry":{"type":"LineString","coordinates":[[150277.5043,168538.3407],[150280.2969,168540.0893],[150284.4039,168542.6569],[150289.9249,168546.1175],[150292.9707,168548.0147],[150293.3325,168548.2401],[150297.5455,168550.9029],[150298.4833,168551.4955],[150299.2613,168551.9827],[150301.5089,168553.39],[150302.4705,168553.9921]]},"geometry_name":"GEOM","properties":{"INSPIRE_ID":"https://databrussels.be/id/rail/21081","TYPE":"TW","LVL":0,"SLOPE":null,"LENGTH":29.4666106481788},"bbox":[150277.5043,168538.3407,150302.4705,168553.9921]},{"type":"Feature","id":"TrainNetwork.fid--291372a6_1a0314667fc_-2802","geometry":{"type":"LineString","coordinates":[[150274.1867,168539.8453],[150278.416589,168542.494669]]},"geometry_name":"GEOM","properties":{"INSPIRE_ID":"https://databrussels.be/id/rail/21161","TYPE":"TW","LVL":0,"SLOPE":null,"LENGTH":4.9911037899746},"bbox":[150274.1867,168539.8453,150278.416589,168542.494669]},{"type":"Feature","id":"TrainNetwork.fid--291372a6_1a0314667fc_-2805","geometry":{"type":"LineString","coordinates":[[150228.4037,168549.2919],[150230.5095,168545.7055],[150231.1191,168544.7175],[150231.9589,168543.4131],[150232.1213,168543.1657],[150233.0045,168541.8525],[150233.6429,168540.9541],[150235.2185,168538.9817],[150235.3799,168538.8001],[150236.4651,168537.6861],[150237.3989,168536.8391],[150238.0937,168536.2675],[150240.0379,168534.8945],[150241.9587,168533.8271],[150244.0183,168532.9449],[150246.5263,168532.1861],[150248.9407,168531.7425],[150251.5801,168531.5727],[150254.4733,168531.7619],[150257.0419,168532.2697],[150258.6241,168532.7529],[150259.4037,168533.0365],[150261.2561,168533.8205],[150261.9559,168534.1541],[150264.7069,168535.6513],[150267.1647,168537.1375],[150267.6025,168537.4121],[150268.8721,168538.2085],[150273.424658,168541.06414]]},"geometry_name":"GEOM","properties":{"INSPIRE_ID":"https://databrussels.be/id/rail/21365","TYPE":"TW","LVL":0,"SLOPE":null,"LENGTH":55.0551442449484},"bbox":[150228.4037,168531.5727,150273.424658,168549.2919]},{"type":"Feature","id":"TrainNetwork.fid--291372a6_1a0314667fc_-27fa","geometry":{"type":"LineString","coordinates":[[149275.89,169097.1],[149289.43,169076.4],[149306.04,169050.67],[149328.56,169015],[149338.04,169000],[149343.13,168991.94],[149362.19,168962.07],[149380.84,168933.45],[149396.61,168909.18],[149418.21,168876.3],[149445.62,168834.98],[149475.7,168789.21],[149485.12,168774.55],[149504.39,168745.44],[149523.39,168716.13],[149540.34,168690.19],[149558.72,168661.98],[149574.82,168637.35],[149592.67,168609.92],[149608.84,168585.17],[149625.66,168559.29],[149638.8814508,168539.04881489],[149639.69112734,168537.80925254],[149640.77736777,168536.14628877],[149641.58671631,168534.90722856],[149646.51,168527.37],[149679.83,168476.32],[149699.03,168446.89],[149715.87,168421.16],[149735.46,168391.08],[149755.21,168360.62],[149773.84,168331.46],[149794.53,168299.51],[149813.71,168270.15],[149831.88,168242.43],[149851.43,168212.92],[149869,168186.29],[149887.67,168157.71],[149903.86,168132.87],[149915.74,168114.68],[149923.39,168103.05],[149937.3,168081.64],[149946.59,168067.35],[149961.42,168044.79],[149981.33,168014.2],[149990.6,168000],[149994.60999956,167993.84999971],[150000.0000005,167985.55999994],[150011.3501,167968.1201],[150034.8501,167932.0001],[150042.7201,167919.5801],[150046.9419,167912.4426],[150049.6238,167908.3621],[150052.4835,167903.6865],[150054.4087,167900.3033],[150060.6895,167889.2003],[150065.8001,167880.5601],[150067.9601,167876.8801],[150070.1201,167873.1901],[150072.2401,167869.4801],[150074.8601,167864.7801],[150077.4201,167860.0401],[150079.8401,167855.2301],[150082.1401,167850.2301],[150082.3077,167849.834],[150084.9036,167843.7503],[150087.5318,167836.849],[150089.236,167831.7019],[150091.7007,167823.9726],[150093.2433,167817.7211],[150104.4849,167766.1637],[150110.867,167738.2945],[150117.877,167708.0346],[150124.6967,167678.2457],[150130.2971,167653.904],[150144.047,167594.4747],[150151.3466,167562.6163],[150156.2966,167540.9864],[150158.3192,167532.1549],[150160.8059,167522.0476],[150163.1303,167513.4443],[150166.1259,167504.3269],[150171.2701,167489.3201],[150173.6301,167482.3101],[150175.0801,167477.7701],[150176.6901,167472.3901],[150177.9501,167468.0301],[150179.7401,167460.9801],[150195.9101,167390.6601],[150197.864,167382.2353]]},"geometry_name":"GEOM","properties":{"INSPIRE_ID":"https://databrussels.be/id/rail/21848","TYPE":"TW","LVL":0,"SLOPE":null,"LENGTH":1967.50017451946},"bbox":[149275.89,167382.2353,150197.864,169097.1]},{"type":"Feature","id":"TrainNetwork.fid--291372a6_1a0314667fc_-27f9","geometry":{"type":"LineString","coordinates":[[149277.13,169097.91],[149290.68,169077.21],[149307.28,169051.47],[149329.81,169015.79],[149339.79,169000],[149344.38,168992.73],[149363.43,168962.87],[149382.08,168934.26],[149397.85,168909.99],[149419.45,168877.12],[149446.86,168835.8],[149476.94,168790.02],[149486.37,168775.35],[149505.63,168746.25],[149524.63,168716.94],[149541.58,168691],[149559.96,168662.79],[149576.06,168638.16],[149593.91,168610.73],[149610.08,168585.97],[149626.9,168560.1],[149640.10284809,168539.88096213],[149640.91231066,168538.64133912],[149641.99895821,168536.97723091],[149642.80813313,168535.7380484],[149647.75,168528.17],[149681.07,168477.13],[149700.27,168447.7],[149717.11,168421.97],[149736.7,168391.89],[149756.46,168361.42],[149775.09,168332.26],[149795.77,168300.32],[149814.94,168270.96],[149833.11,168243.25],[149852.67,168213.73],[149870.24,168187.1],[149888.91,168158.52],[149905.1,168133.67],[149916.97,168115.49],[149924.63,168103.86],[149938.54,168082.45],[149947.83,168068.16],[149962.66,168045.6],[149982.57,168015.01],[149992.36,168000],[149995.84999964,167994.64999994],[149999.9999999,167988.26999969],[150012.59,167968.92],[150036.09,167932.81],[150036.0901,167932.8101],[150043.9801,167920.3501],[150048.1401,167913.3183],[150050.874,167909.1546],[150053.7582,167904.4388],[150055.6962,167901.0332],[150061.7624,167890.292],[150067.0701,167881.3201],[150069.2401,167877.6301],[150071.4001,167873.9301],[150073.5301,167870.2101],[150076.1601,167865.4901],[150078.7301,167860.7201],[150081.1701,167855.8701],[150083.4901,167850.8201],[150083.6413,167850.4641],[150086.2485,167844.2931],[150088.8983,167837.3351],[150090.615,167832.1501],[150093.0969,167824.367],[150094.66,167818.03],[150105.9,167766.48],[150112.28,167738.62],[150119.29,167708.36],[150126.11,167678.57],[150131.71,167654.23],[150145.46,167594.8],[150152.76,167562.94],[150157.71,167541.31],[150159.73,167532.49],[150162.21,167522.41],[150164.52,167513.86],[150167.5,167504.79],[150172.68,167489.8],[150172.6801,167489.8001],[150175.0401,167482.7701],[150176.4901,167478.2101],[150178.1101,167472.8001],[150179.3801,167468.4201],[150181.1801,167461.3201],[150197.0123,167392.4593],[150197.3501,167390.9901],[150199.3456,167382.3858]]},"geometry_name":"GEOM","properties":{"INSPIRE_ID":"https://databrussels.be/id/rail/21849","TYPE":"TW","LVL":0,"SLOPE":null,"LENGTH":1968.20547614427},"bbox":[149277.13,167382.3858,150199.3456,169097.91]},{"type":"Feature","id":"TrainNetwork.fid--291372a6_1a0314667fc_-27f7","geometry":{"type":"LineString","coordinates":[[149261.87,169126.61],[149273.21,169109.21],[149287.7,169087.16],[149302.33,169064.69],[149318.16,169039.88],[149334.74,169013.49],[149343.29,169000],[149352.91,168984.83],[149370.69,168957.14],[149386.58,168932.85],[149396.7,168917.11],[149409.37,168897.86],[149429.89,168866.51],[149446.89,168840.99],[149472.76,168801.6],[149488.28,168777.86],[149512.8,168740.45],[149529.1,168715.36],[149552.85,168679.16],[149568.2,168655.57],[149588.2,168624.55],[149591.668,168619.468],[149598.735,168608.632],[149606.548,168596.533],[149611.941,168588.289],[149618.028,168578.904],[149623.788,168570.111],[149628.235,168563.299],[149632.106,168557.35],[149635.452,168552.269],[149642.55212257,168541.54967141],[149642.948,168540.952],[149643.36546714,168540.31291319],[149643.36551198,168540.31294127],[149644.45369727,168538.64697721],[149645.26307638,168537.40792516],[149646.868,168534.951],[149657.156,168519.057],[149667.252,168503.782],[149678.168,168486.827],[149684.55,168477.06],[149693.53,168463.32],[149706.21,168443.89],[149724.29,168416.24],[149736.83,168397.02],[149755.97,168367.65],[149768.26,168348.33],[149781.71,168327.29],[149795.44,168306.24],[149810.85,168282.73],[149828.79,168255.19],[149842.72,168234.02],[149860.56,168207.24],[149877.03,168182.21],[149889.96,168162.39],[149909.46,168132.38],[149925.37,168107.99],[149933.67,168095.37],[149947.78,168073.52],[149962.67,168050.5],[149986.81,168013.68],[149995.75,168000],[149999.99999984,167993.48999953],[150012.7501,167973.9801],[150020.5601,167962.0001],[150028.4901,167950.1001],[150037.9101,167935.9501],[150047.2601,167922.4401],[150051.7427,167915.8325],[150055.6639,167910.3319],[150059.4523,167904.6721],[150061.6994,167900.7008],[150065.8601,167894.1201],[150070.2801,167886.5801],[150072.6901,167882.3201],[150075.6401,167876.6601],[150078.3601,167871.3101],[150080.7301,167866.1801],[150083.0901,167861.1301],[150085.6301,167855.1801],[150086.8447,167851.9776],[150087.8601,167849.3001],[150090.6701,167841.9501],[150092.7901,167836.0201],[150094.7901,167829.9201],[150099.5701,167812.9101],[150106.3401,167784.0301],[150114.3901,167749.2801],[150122.7501,167712.4001],[150135.7901,167656.1501],[150150.2001,167593.6801],[150163.8601,167534.2501],[150165.9801,167525.0401],[150167.2401,167519.7501],[150168.4101,167514.9201],[150169.8001,167509.7401],[150175.8001,167490.4801],[150175.7901,167490.4701],[150180.1801,167476.0301],[150183.1801,167464.6101],[150185.8001,167453.6301],[150191.1201,167430.9701],[150196.3601,167407.6001],[150196.9726,167404.9255]]},"geometry_name":"GEOM","properties":{"INSPIRE_ID":"https://databrussels.be/id/rail/21850","TYPE":"TW","LVL":0,"SLOPE":null,"LENGTH":1979.39174538931},"bbox":[149261.87,167404.9255,150196.9726,169126.61]},{"type":"Feature","id":"TrainNetwork.fid--291372a6_1a0314667fc_-27f8","geometry":{"type":"LineString","coordinates":[[149260.62990248,169125.79994175],[149269.70889994,169111.86941279],[149271.97,169108.4],[149286.46,169086.35],[149301.08,169063.89],[149316.91,169039.09],[149333.49,169012.7],[149341.54,169000],[149351.67,168984.03],[149369.45,168956.34],[149385.34,168932.04],[149395.46,168916.31],[149408.13,168897.04],[149428.66,168865.69],[149445.65,168840.17],[149471.53,168800.79],[149487.04,168777.05],[149511.56,168739.64],[149527.86,168714.56],[149551.61,168678.35],[149566.95,168654.77],[149586.96,168623.75],[149590.428,168618.66],[149597.494,168607.826],[149605.307,168595.727],[149610.701,168587.481],[149616.788,168578.095],[149622.55,168569.301],[149626.995,168562.49],[149630.868,168556.54],[149634.217,168551.453],[149641.32936742,168540.71659906],[149641.712,168540.139],[149642.14270787,168539.4797398],[149643.23039856,168537.81487309],[149644.03985772,168536.57587969],[149645.628,168534.145],[149655.918,168518.247],[149666.012,168502.974],[149676.923,168486.026],[149683.32,168476.24],[149692.29,168462.52],[149704.97,168443.08],[149723.05,168415.43],[149735.59,168396.21],[149754.73,168366.85],[149767.02,168347.54],[149780.47,168326.48],[149794.2,168305.43],[149809.61,168281.92],[149827.55,168254.38],[149841.49,168233.21],[149859.33,168206.42],[149875.79,168181.39],[149888.72,168161.59],[149908.22,168131.57],[149924.13,168107.18],[149932.43,168094.56],[149946.54,168072.72],[149961.43,168049.69],[149985.57,168012.87],[149993.98,168000],[150000,167990.79],[150011.5101,167973.1701],[150019.3201,167961.1801],[150027.2601,167949.2801],[150036.6901,167935.1201],[150046.0401,167921.6001],[150050.605,167914.878],[150054.4461,167909.4906],[150058.1916,167903.895],[150060.5086,167899.817],[150064.5901,167893.3501],[150069.0001,167885.8401],[150071.3901,167881.6101],[150074.3301,167875.9901],[150077.0201,167870.6601],[150079.3801,167865.5601],[150081.7401,167860.5201],[150084.2601,167854.6201],[150085.5034,167851.3438],[150086.505,167848.7841],[150089.3101,167841.4471],[150091.4183,167835.5501],[150093.4026,167829.4979],[150098.1656,167812.5483],[150104.9279,167783.701],[150112.9767,167748.9562],[150121.3368,167712.0761],[150134.3774,167655.8234],[150148.7871,167593.3547],[150162.447,167533.9251],[150164.5683,167524.7095],[150165.8302,167519.4114],[150167.005,167514.5615],[150168.4071,167509.3364],[150174.1498,167490.8804],[150174.2901,167490.3501],[150178.7601,167475.6201],[150181.7501,167464.2501],[150184.3601,167453.2901],[150189.6801,167430.6401],[150194.9201,167407.2701],[150195.5202,167404.6499]]},"geometry_name":"GEOM","properties":{"INSPIRE_ID":"https://databrussels.be/id/rail/21851","TYPE":"TW","LVL":0,"SLOPE":null,"LENGTH":1978.80705113448},"bbox":[149260.62990248,167404.6499,150195.5202,169125.79994175]},{"type":"Feature","id":"TrainNetwork.fid--291372a6_1a0314667fc_-27f6","geometry":{"type":"LineString","coordinates":[[149033.3077,168343.9316],[149036.6767,168342.2696],[149044.5001,168338.6801],[149059.9001,168331.3901],[149073.7401,168324.7601],[149082.2601,168320.6901],[149091.7101,168316.1401],[149102.2701,168311.1401],[149114.1201,168305.5201],[149125.7301,168300.0301],[149140.1601,168293.1101],[149150.2201,168288.3601],[149161.9201,168282.7501],[149175.1801,168276.4501],[149188.3601,168270.1101],[149200.4901,168264.2501],[149211.8001,168258.8101],[149216.6991,168256.4151],[149216.699,168256.415],[149222.56,168253.617],[149225.04359967,168252.43871791],[149227.60800813,168251.44855368],[149230.239,168250.652],[149232.9008493,168250.1499184],[149235.60182995,168249.94441627],[149238.309,168250.038],[149241.06210523,168250.58120394],[149243.74762825,168251.39522176],[149246.339,168252.472],[149249.02470567,168253.86417929],[149251.584,168255.477],[149268.362,168266.357],[149275.395,168270.935],[149281.487,168274.853],[149283.71510013,168276.30769037],[149285.83653101,168277.91395476],[149287.841,168279.664],[149289.60994717,168281.5764416],[149291.19766559,168283.64181256],[149292.591,168285.843],[149293.61337058,168287.91538579],[149294.4626053,168290.06453094],[149295.133,168292.276],[149295.827,168294.764],[149296.541,168297.312],[149297.41192596,168300.35728762],[149298.50354706,168303.33061104],[149299.81,168306.216],[149301.72997811,168309.41750765],[149303.94111273,168312.42530598],[149306.424,168315.213],[149309.22463699,168317.71484334],[149312.19918224,168320.00719326],[149315.332,168322.078],[149332.155,168333.086],[149346.244,168342.259],[149360.179,168351.332],[149377.03,168362.303],[149397.128,168375.392],[149418.277,168389.143],[149437.334,168401.555],[149439,168402.631],[149460.803,168416.821],[149482.636,168431.031],[149502.785,168444.163],[149514.688,168451.91],[149532.875,168463.71],[149550.292,168475.033],[149573.215,168489.838],[149593.83,168503.192],[149596.684,168505.08],[149603.424,168509.453],[149614.628,168516.75],[149625.841,168524.124],[149635.585,168530.702],[149637.864,168532.375],[149641.58671631,168534.90722856],[149642.80813313,168535.7380484],[149644.03985772,168536.57587969],[149645.26307638,168537.40792516],[149649.678,168540.411],[149662.811,168549.377],[149671.091,168554.995],[149674.718,168557.351],[149677.203,168558.81],[149679.649,168560.065],[149682.076,168561.289],[149687.831,168563.521],[149693.548,168565.238],[149698.473,168566.234],[149703.676,168566.942],[149710.706,168567.566],[149716.003,168567.929],[149723.441,168568.525],[149726.3501,168568.7001],[149755.2501,168570.3601],[149785.4201,168572.2201],[149816.8401,168574.1501],[149849.2601,168576.1201],[149883.3401,168578.1901],[149916.4501,168580.2601],[149916.45,168580.26],[149923.6,168580.69],[149930.75,168581.12],[149937.9,168581.55],[149947.4,168582.14],[149956.9,168582.73],[149966.39,168583.32],[149974.79,168583.81],[149983.18,168584.3],[149991.58,168584.8],[150000,168585.32],[150000.399,168585.343],[150009.213,168585.895],[150018.026,168586.444],[150025.964,168586.932],[150033.902,168587.418],[150041.84,168587.903],[150048.626,168588.318],[150055.412,168588.733],[150062.198,168589.148],[150071.133,168589.692],[150080.067,168590.236],[150089.002,168590.788],[150095.239,168591.181],[150101.475,168591.578],[150107.71,168591.975],[150117.98,168592.632],[150128.246,168593.289],[150138.514,168593.932],[150146.1,168594.393],[150153.687,168594.846],[150160.429153,168595.212675],[150165.4969,168595.5041],[150170.5487,168595.7939],[150174.5163,168595.9685],[150175.7423,168596.0027],[150179.3221,168596.0235],[150182.9991,168595.7809],[150183.2723,168595.7435],[150184.8342,168595.4982],[150184.8342,168595.4983],[150185.2961,168595.4257],[150187.8801,168594.7959],[150189.9119,168594.0927],[150191.4411,168593.4259],[150192.4603,168592.9053],[150194.3675,168591.7469],[150196.0671,168590.5023],[150197.5077,168589.2611],[150198.3045,168588.4817],[150199.1263,168587.5965],[150201.0929,168585.0685],[150202.8653,168582.3531],[150203.3699,168581.5021],[150205.4307,168577.8711],[150208.2775,168572.7955],[150211.0539,168567.8253],[150211.7021,168566.6711],[150213.8951,168562.7663],[150216.7747,168557.6137],[150219.5485,168552.6545],[150220.4885,168550.9673],[150222.3271,168547.6651],[150223.4065,168545.7265]]},"geometry_name":"GEOM","properties":{"INSPIRE_ID":"https://databrussels.be/id/rail/22041","TYPE":"TW","LVL":0,"SLOPE":null,"LENGTH":1343.60935930493},"bbox":[149033.3077,168249.94441627,150223.4065,168596.0235]},{"type":"Feature","id":"TrainNetwork.fid--291372a6_1a0314667fc_-27f5","geometry":{"type":"LineString","coordinates":[[149033.9011,168345.29],[149037.2379,168343.646],[149045.1301,168340.0201],[149060.5301,168332.7301],[149074.3801,168326.0901],[149082.9001,168322.0301],[149092.3501,168317.4801],[149102.9001,168312.4701],[149114.7501,168306.8501],[149126.3701,168301.3701],[149140.8001,168294.4501],[149150.8601,168289.7001],[149162.5601,168284.0901],[149175.8201,168277.7801],[149189.0101,168271.4401],[149201.1401,168265.5801],[149212.4401,168260.1401],[149212.44,168260.14],[149217.341,168257.77],[149223.114,168255.024],[149225.55064396,168253.86647232],[149228.06585622,168252.89137676],[149230.646,168252.104],[149233.10278947,168251.6385061],[149235.59589835,168251.44639381],[149238.095,168251.53],[149240.68509927,168252.03460749],[149243.21212804,168252.79445521],[149245.651,168253.802],[149248.27660051,168255.1626306],[149250.778,168256.74],[149267.559,168267.616],[149274.535,168272.146],[149280.685,168276.116],[149283.85031684,168278.26322537],[149286.776,168280.727],[149288.44741362,168282.52766215],[149289.94790344,168284.47305104],[149291.265,168286.547],[149292.23481946,168288.52189597],[149293.04191174,168290.56869003],[149293.681,168292.674],[149294.376,168295.165],[149295.116,168297.76],[149296.01782106,168300.89024122],[149297.14242917,168303.94751908],[149298.484,168306.916],[149300.49106495,168310.25812715],[149302.80181282,168313.3979628],[149305.396,168316.308],[149308.26385171,168318.86870662],[149311.30950964,168321.21514213],[149314.517,168323.335],[149331.371,168334.361],[149345.422,168343.508],[149359.348,168352.584],[149376.196,168363.545],[149396.256,168376.602],[149417.479,168390.401],[149436.504,168402.803],[149438.21,168403.897],[149460.037,168418.107],[149481.81,168432.282],[149501.941,168445.391],[149513.625,168452.994],[149531.811,168464.814],[149549.587,168476.358],[149572.398,168491.09],[149592.986,168504.432],[149595.9,168506.358],[149602.594,168510.703],[149613.789,168517.977],[149624.99,168525.36],[149634.778,168531.971],[149637.034,168533.6],[149640.77736777,168536.14628877],[149641.99895821,168536.97723091],[149643.23039856,168537.81487309],[149644.45369727,168538.64697721],[149648.845,168541.634],[149661.978,168550.601],[149670.26,168556.219],[149673.94,168558.61],[149676.49,168560.108],[149678.978,168561.384],[149681.474,168562.643],[149687.35,168564.922],[149693.188,168566.675],[149698.226,168567.694],[149703.511,168568.413],[149710.59,168569.042],[149715.893,168569.405],[149723.323,168570],[149726.26,168570.18],[149755.17,168571.84],[149785.33,168573.7],[149816.75,168575.63],[149849.17,168577.6],[149883.25,168579.67],[149916.37,168581.73],[149923.51,168582.16],[149930.66,168582.59],[149937.81,168583.03],[149947.31,168583.61],[149956.81,168584.21],[149966.3,168584.79],[149974.7,168585.29],[149983.1,168585.78],[149991.49,168586.28],[150000,168586.801],[150000.307,168586.82],[150009.121,168587.372],[150017.935,168587.921],[150025.873,168588.409],[150033.812,168588.895],[150041.75,168589.38],[150048.536,168589.795],[150055.322,168590.21],[150062.108,168590.625],[150071.042,168591.169],[150079.976,168591.713],[150088.91,168592.265],[150095.145,168592.658],[150101.381,168593.055],[150107.616,168593.452],[150117.885,168594.109],[150128.153,168594.766],[150138.423,168595.409],[150146.011,168595.87],[150153.599,168596.323],[150160.359152,168596.649324],[150160.3591,168596.6495],[150165.4305,168596.9411],[150170.4797,168597.2315],[150174.4695,168597.4043],[150175.6943,168597.4375],[150179.3767,168597.4575],[150183.0393,168597.2249],[150183.4759,168597.1691],[150184.8081,168596.9585],[150184.8081,168596.9586],[150185.5815,168596.8363],[150188.2231,168596.1943],[150190.4075,168595.4449],[150192.0859,168594.7139],[150193.1001,168594.1967],[150195.1285,168592.9695],[150196.8907,168591.6871],[150198.4611,168590.3403],[150200.2181,168588.5329],[150202.2097,168585.9817],[150203.9401,168583.3495],[150204.6173,168582.2215],[150206.6899,168578.5673],[150209.1535,168574.1763],[150212.2957,168568.5461],[150215.1363,168563.4895],[150217.9497,168558.4597],[150220.8057,168553.3539],[150221.7435,168551.6681],[150223.5399,168548.4389],[150224.6581,168546.4291]]},"geometry_name":"GEOM","properties":{"INSPIRE_ID":"https://databrussels.be/id/rail/22042","TYPE":"TW","LVL":0,"SLOPE":null,"LENGTH":1344.49119962613},"bbox":[149033.9011,168251.44639381,150224.6581,168597.4575]},{"type":"Feature","id":"TrainNetwork.fid--291372a6_1a0314667fc_-27f4","geometry":{"type":"LineString","coordinates":[[149034.1312,168346.7568],[149035.6018,168346.0712],[149040.1348,168343.8574],[149046.0793,168340.8592],[149054.8201,168336.5701],[149065.3901,168331.5801],[149075.6801,168326.6301],[149085.5601,168321.8801],[149099.4701,168315.3201],[149110.5301,168310.0801],[149127.2601,168302.1101],[149143.2701,168294.4701],[149157.3101,168287.8101],[149169.8401,168281.8501],[149171.9801,168280.8401],[149174.1301,168279.8301],[149176.3001,168278.8701],[149178.5301,168277.9201],[149180.7901,168277.0301],[149183.0901,168276.2801],[149185.0201,168275.7901],[149186.9701,168275.4101],[149188.9401,168275.1701],[149190.8001,168275.0901],[149192.6701,168275.1401],[149194.5101,168275.3501],[149196.5701,168275.8001],[149198.6001,168276.4501],[149200.5701,168277.2301],[149202.4601,168278.1701],[149204.3001,168279.2401],[149206.1901,168280.3401],[149206.19,168280.34],[149241.19,168302.79],[149251.793,168309.721],[149254.275,168311.296],[149255.83558892,168312.31158948],[149257.453,168313.234],[149260.22614822,168314.5374389],[149263.105255,168315.5862707],[149266.067,168316.372],[149269.60093836,168316.75349773],[149273.15528982,168316.78259339],[149276.695,168316.459],[149281.823,168315.845],[149285.64096953,168315.48040301],[149289.47621024,168315.45299889],[149293.299,168315.763],[149296.99520339,168316.54420385],[149300.60767158,168317.64976817],[149304.108,168319.071],[149307.18620622,168320.63680966],[149310.17481442,168322.3675131],[149313.065,168324.258],[149330.657,168335.628],[149345.237,168345.117],[149357.996,168353.422],[149375.442,168364.769],[149395.511,168377.841],[149416.661,168391.606],[149435.756,168404.053],[149437.424,168405.124],[149459.212,168419.306],[149481.028,168433.5],[149501.167,168446.605],[149512.842,168454.215],[149531.317,168466.223],[149548.628,168477.46],[149571.567,168492.318],[149592.215,168505.662],[149595.131,168507.593],[149601.824,168511.948],[149607.38160101,168515.60123141],[149612.909,168519.3],[149618.4685599,168523.08859598],[149624.007,168526.908],[149633.713,168533.611],[149633.7131,168533.6111],[149638.9321,168537.2921],[149639.69112826,168537.80925112],[149640.91231066,168538.64133912],[149640.9124,168538.6414],[149642.14270903,168539.47973801],[149642.1428,168539.4798],[149643.36546882,168540.31291062],[149643.3656,168540.313],[149646.8511,168542.6881],[149656.3791,168549.1731],[149664.6351,168554.8101],[149669.2621,168557.9311],[149669.2941,168557.9521],[149670.0531,168558.4351],[149670.805,168558.9145],[149670.8451,168558.9401],[149674.458,168561.1103],[149677.2761,168562.744],[149679.9287,168564.0554],[149683.0499,168565.4594],[149689.0635,168567.5726],[149690.941,168568.1015],[149692.5234,168568.4643],[149694.1186,168568.7835],[149695.7166,168569.0474],[149696.762,168569.183],[149697.8311,168569.2967],[149698.911,168569.4035],[149700.5528,168569.5501],[149702.2035,168569.6785],[149703.864,168569.8066],[149706.0303,168569.9808],[149708.1927,168570.1537],[149710.359,168570.293],[149715.55,168570.61],[149741.26,168572.2],[149772.13,168574.09],[149805.57,168576.14],[149841.61,168578.35],[149872.1,168580.23],[149906.33,168582.26],[149922.33,168583.25],[149929.85,168583.7],[149937.38,168584.16],[149944.91,168584.61],[149954.65,168585.22],[149964.38,168585.84],[149974.11,168586.45],[149982.02,168586.92],[149989.94,168587.38],[149997.85,168587.85],[150000,168587.987],[150006.312,168588.379],[150014.768,168588.913],[150023.221,168589.44],[150032.053,168589.971],[150040.887,168590.494],[150049.722,168591.023],[150057.29,168591.486],[150064.855,168591.954],[150072.42,168592.422],[150080.793,168592.935],[150089.169,168593.448],[150097.545,168593.967],[150107.485,168594.602],[150117.422,168595.247],[150127.358,168595.879],[150135.366,168596.375],[150143.374,168596.863],[150151.383,168597.333],[150156.538,168597.621],[150160.346335,168597.851996],[150165.377419,168598.16144],[150170.408292,168598.47087],[150170.973598,168598.504956],[150175.600972,168598.783975],[150179.423494,168599.000336],[150183.146504,168599.081273],[150184.7716,168599.0033],[150186.0345,168598.9427],[150187.344335,168598.790064],[150188.709389,168598.551516],[150191.195085,168597.926882],[150194.26804,168596.781239],[150195.421857,168596.236544],[150196.615117,168595.574101],[150198.641505,168594.250655],[150200.525213,168592.754761],[150202.634242,168590.68048],[150203.82201683,168589.26091076],[150204.930314,168587.778459],[150206.695957,168585.051952],[150207.253089,168584.111127],[150209.511061,168580.136338],[150211.684039,168576.297557],[150212.276452,168575.236407],[150215.111148,168570.15581],[150215.442669,168569.562331],[150217.930947,168565.107897],[150220.74509,168560.063464],[150223.599145,168554.95065],[150224.19256,168553.870082],[150226.354609,168550.012211],[150227.1509,168548.5887]]},"geometry_name":"GEOM","properties":{"INSPIRE_ID":"https://databrussels.be/id/rail/22043","TYPE":"TW","LVL":0,"SLOPE":null,"LENGTH":1322.22104683609},"bbox":[149034.1312,168275.0901,150227.1509,168599.081273]},{"type":"Feature","id":"TrainNetwork.fid--291372a6_1a0314667fc_-27f3","geometry":{"type":"LineString","coordinates":[[149034.7444,168348.1039],[149036.2393,168347.407],[149040.7933,168345.1829],[149046.564,168342.2666],[149055.4701,168337.9001],[149066.0301,168332.9101],[149076.3201,168327.9601],[149086.1901,168323.2101],[149100.1001,168316.6601],[149111.1601,168311.4201],[149127.9001,168303.4401],[149143.9101,168295.8101],[149157.9501,168289.1401],[149170.4701,168283.1901],[149172.6101,168282.1801],[149174.7401,168281.1701],[149176.8801,168280.2301],[149179.0901,168279.2901],[149181.2901,168278.4201],[149183.5001,168277.7001],[149185.3501,168277.2401],[149187.2101,168276.8701],[149189.0601,168276.6401],[149190.8101,168276.5701],[149192.5601,168276.6201],[149194.2701,168276.8101],[149196.1901,168277.2301],[149198.1001,168277.8501],[149199.9701,168278.5901],[149201.7601,168279.4801],[149203.6001,168280.5501],[149205.3901,168281.5901],[149240.3801,168304.0301],[149252.5051,168311.9691],[149252.505,168311.969],[149253.433,168312.559],[149255.05288714,168313.60773595],[149256.733,168314.557],[149259.65493999,168315.92176046],[149262.68700338,168317.02034868],[149265.805,168317.844],[149269.47594676,168318.24352371],[149273.16841896,168318.27696698],[149276.846,168317.944],[149281.996,168317.325],[149285.69260099,168316.97214142],[149289.40591797,168316.94674208],[149293.107,168317.249],[149296.64183018,168317.99794333],[149300.09652988,168319.0567117],[149303.444,168320.417],[149306.47651238,168321.95807896],[149309.42074911,168323.66175901],[149312.268,168325.523],[149329.845,168336.888],[149344.418,168346.36],[149357.186,168354.685],[149374.599,168366.014],[149394.722,168379.122],[149415.637,168392.744],[149434.941,168405.305],[149436.613,168406.376],[149458.418,168420.581],[149480.213,168434.748],[149500.373,168447.883],[149512.007,168455.443],[149530.473,168467.457],[149547.862,168478.737],[149569.509,168492.751],[149591.424,168506.936],[149594.244,168508.797],[149601.005,168513.206],[149606.55903498,168516.85657218],[149612.086,168520.548],[149617.63103758,168524.31517636],[149623.151,168528.119],[149632.942,168534.902],[149638.095,168538.513],[149638.8814508,168539.04881489],[149640.10284809,168539.88096213],[149641.32936742,168540.71659906],[149642.55212257,168541.54967141],[149646.018,168543.911],[149655.545,168550.396],[149663.804,168556.035],[149668.467,168559.18],[149668.4671,168559.1801],[149669.2581,168559.6831],[149670.0481,168560.1871],[149673.7056,168562.3849],[149676.5762,168564.049],[149679.2969,168565.3941],[149682.4997,168566.8348],[149688.5647,168568.9686],[149690.5921,168569.5091],[149692.2191,168569.8821],[149693.8581,168570.2101],[149695.5051,168570.4821],[149696.5921,168570.6231],[149697.6831,168570.7391],[149698.7751,168570.8471],[149700.4321,168570.9951],[149702.0911,168571.1241],[149703.7501,168571.2521],[149705.9141,168571.4261],[149708.0771,168571.5991],[149710.2411,168571.7721],[149710.241,168571.772],[149715.46,168572.09],[149741.17,168573.68],[149772.04,168575.57],[149805.48,168577.62],[149841.52,168579.83],[149872.01,168581.7],[149906.24,168583.73],[149922.24,168584.73],[149929.77,168585.18],[149937.29,168585.63],[149944.82,168586.09],[149954.55,168586.7],[149964.29,168587.32],[149974.02,168587.92],[149981.93,168588.4],[149989.85,168588.86],[149997.76,168589.33],[150000,168589.47],[150006.22,168589.856],[150014.675,168590.39],[150023.131,168590.917],[150031.965,168591.448],[150040.799,168591.971],[150049.633,168592.5],[150057.199,168592.963],[150064.764,168593.431],[150072.329,168593.899],[150080.703,168594.412],[150089.078,168594.925],[150097.452,168595.444],[150107.39,168596.079],[150117.327,168596.724],[150127.265,168597.356],[150135.275,168597.852],[150143.286,168598.34],[150151.298,168598.811],[150156.457,168599.099],[150160.275318,168599.286166],[150160.2753,168599.2863],[150165.2985,168599.5971],[150170.3379,168599.9067],[150170.8985,168599.9407],[150175.5329,168600.2223],[150179.3483,168600.4385],[150183.1889,168600.5203],[150184.7458,168600.4449],[150186.1573,168600.3765],[150189.0233,168599.9561],[150191.6887,168599.2803],[150194.8383,168598.1025],[150196.0961,168597.5079],[150197.3697,168596.7985],[150199.4297,168595.4551],[150201.5051,168593.8043],[150203.6429,168591.7097],[150204.8763,168590.2425],[150206.0281,168588.7101],[150207.9031,168585.8301],[150208.5037,168584.8163],[150210.7103,168580.9295],[150212.9377,168576.9985],[150213.4623,168576.0615],[150216.3641,168570.8611],[150216.6987,168570.2617],[150219.2801,168565.6423],[150221.9955,168560.7749],[150224.9035,168555.5581],[150225.4607,168554.5489],[150227.6111,168550.7085],[150228.4037,168549.2919]]},"geometry_name":"GEOM","properties":{"INSPIRE_ID":"https://databrussels.be/id/rail/22044","TYPE":"TW","LVL":0,"SLOPE":null,"LENGTH":1323.10209048192},"bbox":[149034.7444,168276.5701,150228.4037,168600.5203]},{"type":"Feature","id":"TrainNetwork.fid--291372a6_1a0314667fc_-2800","geometry":{"type":"LineString","coordinates":[[150302.4705,168553.9921],[150301.499686,168553.404568],[150299.170672,168552.09777],[150298.373762,168551.681469],[150297.116704,168551.057225],[150292.703198,168549.164563],[150292.020883,168548.879575],[150291.00197864,168548.45505127],[150289.674205,168547.901838],[150287.991535,168547.194613],[150287.563361,168547.017205],[150283.031192,168545.036213],[150282.528191,168544.801702],[150281.722138,168544.393385],[150279.131178,168542.924158],[150278.416589,168542.494669]]},"geometry_name":"GEOM","properties":{"INSPIRE_ID":"https://databrussels.be/id/rail/22090","TYPE":"TW","LVL":0,"SLOPE":null,"LENGTH":26.6975705131788},"bbox":[150278.416589,168542.494669,150302.4705,168553.9921]},{"type":"Feature","id":"TrainNetwork.fid--291372a6_1a0314667fc_-27fd","geometry":{"type":"LineString","coordinates":[[150301.733585,168555.225228],[150300.893402,168554.711732],[150298.408905,168553.320075],[150297.615253,168552.906427],[150296.45201,168552.335953],[150292.169757,168550.500415],[150290.446901,168549.779875],[150289.31929129,168549.31188224],[150288.485914,168548.966005],[150287.438432,168548.522526],[150286.911528,168548.304219],[150282.366463,168546.311967],[150281.760969,168546.027342],[150280.950732,168545.609806],[150278.309232,168544.113543],[150277.657227,168543.71631]]},"geometry_name":"GEOM","properties":{"INSPIRE_ID":"https://databrussels.be/id/rail/22091","TYPE":"TW","LVL":0,"SLOPE":null,"LENGTH":26.7228875937243},"bbox":[150277.657227,168543.71631,150301.733585,168555.225228]},{"type":"Feature","id":"TrainNetwork.fid--291372a6_1a0314667fc_-2808","geometry":{"type":"LineString","coordinates":[[150247.35229,168480.299318],[150246.891613,168485.612797],[150246.75899,168487.150003],[150246.672869,168488.167193],[150246.473754,168490.449482],[150246.276743,168492.731961],[150246.148057,168494.363019],[150246.019558,168495.994092],[150245.965851,168496.616284],[150245.938151,168496.916136],[150245.911437,168497.216083],[150245.85702816,168497.9607277],[150245.801839,168498.716052],[150245.770185,168499.218559],[150245.714887,168500.229595],[150245.611469,168503.114546],[150245.604139,168504.06834],[150245.694852,168506.490283],[150245.74117623,168507.05940194],[150245.793099,168507.697302],[150245.93613,168508.898921],[150246.134849,168510.257546],[150246.21449974,168510.67554815],[150246.300257,168511.125597],[150246.533782,168512.151965],[150246.881849,168513.443846],[150248.026722,168516.669314],[150249.125669,168519.038192],[150250.540393,168521.576901],[150252.386972,168524.254395],[150253.16946,168525.249281],[150253.959541,168526.133939],[150254.1917268,168526.37958577],[150254.394125,168526.593718],[150255.73116,168527.929918],[150256.03508751,168528.21126955],[150256.320815,168528.475773],[150256.798671,168528.903749],[150259.33614,168531.02466],[150259.636103,168531.264399],[150260.53223593,168531.95383273],[150261.157701,168532.43503],[150261.680626,168532.830279],[150263.239789,168533.96235],[150264.804948,168535.086019],[150267.211905,168536.825542],[150267.730512,168537.204253],[150268.944274,168538.081334],[150273.424658,168541.06414]]},"geometry_name":"GEOM","properties":{"INSPIRE_ID":"https://databrussels.be/id/rail/22092","TYPE":"TW","LVL":0,"SLOPE":null,"LENGTH":72.5552046757201},"bbox":[150245.604139,168480.299318,150273.424658,168541.06414]},{"type":"Feature","id":"TrainNetwork.fid--291372a6_1a0314667fc_-2809","geometry":{"type":"LineString","coordinates":[[150274.1867,168539.8453],[150269.7419,168536.8861],[150268.4941,168535.9855],[150267.9209,168535.5669],[150265.5889,168533.8793],[150262.5329,168531.6707],[150260.1797,168529.8615],[150259.61040245,168529.39860103],[150259.0443,168528.9383],[150257.8105,168527.8813],[150257.0335,168527.1809],[150256.70617347,168526.87172809],[150256.4313,168526.6121],[150255.4883,168525.6623],[150254.2613,168524.3135],[150253.5291,168523.3799],[150251.7773,168520.8481],[150250.3949,168518.3621],[150249.3363,168516.0807],[150248.2663,168513.0631],[150247.9301,168511.8019],[150247.5897,168510.2483],[150247.2541,168507.8183],[150247.1989,168507.2009],[150247.1423,168506.6311],[150247.0425,168504.2853],[150247.0523,168502.7821],[150247.0605,168502.3589],[150247.0863,168501.7239],[150247.1319,168500.6025],[150247.2921,168497.9803],[150247.3739,168497.0161],[150247.4597,168496.0521],[150247.5813,168494.5079],[150247.7025,168492.9639],[150247.9005,168490.6457],[150248.1027,168488.3279],[150248.1945,168487.2641],[150248.3239,168485.7657],[150248.785118,168480.418333]]},"geometry_name":"GEOM","properties":{"INSPIRE_ID":"https://databrussels.be/id/rail/22093","TYPE":"TW","LVL":0,"SLOPE":null,"LENGTH":70.9825868224607},"bbox":[150247.0425,168480.418333,150274.1867,168539.8453]},{"type":"Feature","id":"TrainNetwork.fid--291372a6_1a0314667fc_-2807","geometry":{"type":"LineString","coordinates":[[150249.95627846,168484.23189034],[150249.59251,168488.484885],[150249.502059,168489.542391],[150249.370769,168491.077363],[150249.20149,168493.148861],[150248.923679,168498.193477],[150248.922678,168498.434747],[150248.924547,168498.675965],[150248.922615,168498.92231],[150248.920876,168499.168656],[150248.92302217,168500.08792503],[150248.923099,168500.120836],[150248.930254,168501.072986],[150248.938338,168501.68233],[150249.127316,168504.071112],[150249.480786,168506.625104],[150250.046574,168509.310402],[150250.352199,168510.439293],[150250.771113,168511.776578],[150251.82786,168514.520159],[150253.01696,168516.975312],[150253.970336,168518.642597],[150254.333564,168519.21605],[150256.113075,168521.781765],[150257.6903,168523.773904],[150259.737354,168526.061959],[150261.891555,168528.199871],[150262.172141,168528.46104],[150262.454748,168528.719976],[150262.677928,168528.929251],[150262.902406,168529.137157],[150263.50358983,168529.66546956],[150264.337434,168530.398241],[150264.712545,168530.721686],[150266.723232,168532.388693],[150268.966188,168534.154271],[150271.046476,168535.709908],[150271.359178,168535.937987],[150272.267538,168536.59447],[150275.033891,168538.44823],[150276.7441,168539.5603]]},"geometry_name":"GEOM","properties":{"INSPIRE_ID":"https://databrussels.be/id/rail/22094","TYPE":"TW","LVL":0,"SLOPE":null,"LENGTH":66.5417366217933},"bbox":[150248.920876,168484.23189034,150276.7441,168539.5603]},{"type":"Feature","id":"TrainNetwork.fid--291372a6_1a0314667fc_-2803","geometry":{"type":"LineString","coordinates":[[150276.7441,168539.5603],[150279.5875,168541.3423],[150283.6889,168543.9025],[150287.8905,168546.5371],[150289.1697,168547.3387],[150289.7927,168547.7093],[150291.002,168548.455],[150291.00225695,168548.45516723],[150291.9339,168549.0615],[150292.5707,168549.4585],[150296.6617,168552.0441],[150297.7331,168552.7213],[150298.4959,168553.1989],[150300.8989,168554.7029],[150301.7337,168555.2253]]},"geometry_name":"GEOM","properties":{"INSPIRE_ID":"https://databrussels.be/id/rail/22095","TYPE":"TW","LVL":0,"SLOPE":null,"LENGTH":29.4940485897658},"bbox":[150276.7441,168539.5603,150301.7337,168555.2253]},{"type":"Feature","id":"TrainNetwork.fid--291372a6_1a0314667fc_-27ec","geometry":{"type":"LineString","coordinates":[[150274.1867,168539.8453],[150269.6627,168537.0085],[150268.3619,168536.1943],[150267.7983,168535.8383],[150265.3327,168534.3475],[150262.6157,168532.8761],[150261.8651,168532.5137],[150261.2487,168532.2373],[150260.5324,168531.9539],[150259.6719,168531.6011],[150259.0843,168531.3939],[150257.3591,168530.8679],[150254.4909,168530.3161],[150251.6233,168530.1369],[150248.7795,168530.3135],[150246.1709,168530.7923],[150243.4901,168531.6063],[150241.3859,168532.5053],[150239.2173,168533.7095],[150237.1087,168535.2101],[150236.4603,168535.7467],[150235.3427,168536.7805],[150234.8405,168537.2755],[150234.3113,168537.8387],[150234.1413,168538.0319],[150232.6131,168539.9303],[150231.0197,168542.2241],[150230.7065,168542.7061],[150229.8809,168543.9841],[150229.2593,168544.9963],[150227.1509,168548.5887]]},"geometry_name":"GEOM","properties":{"INSPIRE_ID":"https://databrussels.be/id/rail/22096","TYPE":"TW","LVL":0,"SLOPE":null,"LENGTH":57.3809959715467},"bbox":[150227.1509,168530.1369,150274.1867,168548.5887]},{"type":"Feature","id":"TrainNetwork.fid--291372a6_1a0314667fc_-27ed","geometry":{"type":"LineString","coordinates":[[150276.7441,168539.5603],[150272.1999,168536.7139],[150271.2645,168536.1279],[150270.9267,168535.9163],[150268.6183,168534.4709],[150266.1869,168532.9471],[150264.1521,168531.7071],[150263.5185,168531.3443],[150260.6821,168529.8593],[150260.3021,168529.6873],[150259.6104,168529.3986],[150258.9545,168529.1231],[150257.8267,168528.7167],[150256.4613,168528.3087],[150256.0352,168528.2113],[150255.6303,168528.1017],[150254.6819,168527.9029],[150252.5457,168527.5975],[150251.6211,168527.5259],[150248.4651,168527.5429],[150245.5095,168527.9203],[150242.5249,168528.6887],[150241.5249,168529.0409],[150239.8653,168529.7259],[150238.8783,168530.2053],[150238.6482,168530.3454],[150238.4429,168530.4357],[150237.5635,168530.9333],[150236.7367,168531.4557],[150236.3737,168531.7208],[150236.0315,168531.9281],[150235.4669,168532.3389],[150232.7489,168534.7043],[150231.8363,168535.6735],[150231.5401,168536.0167],[150229.7897,168538.2509],[150228.2299,168540.5331],[150227.3889,168541.8343],[150226.3771,168543.4767],[150224.6581,168546.4291]]},"geometry_name":"GEOM","properties":{"INSPIRE_ID":"https://databrussels.be/id/rail/22097","TYPE":"TW","LVL":0,"SLOPE":null,"LENGTH":63.270236359894},"bbox":[150224.6581,168527.5259,150276.7441,168546.4291]},{"type":"Feature","id":"TrainNetwork.fid--291372a6_1a0314667fc_-27ee","geometry":{"type":"LineString","coordinates":[[150277.5043,168538.3407],[150272.9785,168535.5033],[150271.9563,168534.8623],[150271.6557,168534.6739],[150269.2153,168533.1495],[150268.0505,168532.4167],[150266.8829,168531.6881],[150264.8807,168530.4699],[150264.4571,168530.2233],[150263.50358983,168529.66546956],[150262.7851,168529.3097],[150261.2803,168528.5529],[150258.1889,168527.3253],[150257.1177,168526.9941],[150256.7062,168526.8717],[150256.3417,168526.7945],[150254.8607,168526.4765],[150254.4781,168526.4119],[150254.1918,168526.3796],[150253.8713,168526.3173],[150252.6769,168526.1669],[150251.6103,168526.0869],[150248.1169,168526.1279],[150245.1263,168526.5317],[150242.1033,168527.3117],[150241.0203,168527.6963],[150239.8997,168528.1437],[150239.6248,168528.2685],[150239.3683,168528.3717],[150237.8853,168529.1023],[150237.5589,168529.2871],[150237.2603,168529.4479],[150236.9103,168529.6525],[150234.5817,168531.2051],[150232.3009,168533.1449],[150231.7472,168533.6962],[150231.2443,168534.1817],[150230.7585,168534.7155],[150230.3365,168535.2113],[150228.5833,168537.4637],[150226.9703,168539.8313],[150226.1509,168541.1003],[150225.1175,168542.7813],[150223.4065,168545.7265]]},"geometry_name":"GEOM","properties":{"INSPIRE_ID":"https://databrussels.be/id/rail/22098","TYPE":"TW","LVL":0,"SLOPE":null,"LENGTH":65.5932864685137},"bbox":[150223.4065,168526.0869,150277.5043,168545.7265]},{"type":"Feature","id":"TrainNetwork.fid--291372a6_1a0314667fc_-27f1","geometry":{"type":"LineString","coordinates":[[150224.6581,168546.4291],[150227.269992,168541.749151],[150228.02247,168540.411282],[150231.075715,168534.928957],[150231.245167,168534.617783],[150231.41397,168534.30626],[150231.74713241,168533.6961631],[150232.124806,168533.004556],[150232.318113,168532.65192],[150232.510426,168532.298737],[150233.749181,168529.968115],[150234.986706,168527.563495],[150236.227356,168525.057997],[150237.512148,168522.317233],[150238.738646,168519.5253],[150239.301104,168518.157933],[150239.856463,168516.787733],[150240.013725,168516.41116],[150240.169218,168516.033838],[150240.828125,168514.32916],[150241.660874,168512.058108],[150242.459333,168509.762615],[150243.165847,168507.597032],[150245.376797,168499.925814],[150245.568198,168499.169316],[150245.681424,168498.700297],[150245.85702816,168497.9607277],[150246.030589,168497.229764],[150246.172335,168496.627345],[150246.306247,168496.021207],[150246.587029,168494.728811],[150247.067924,168492.350199],[150247.515373,168489.922513],[150247.804062,168488.245525],[150247.96061,168487.259517],[150248.176369,168485.760031],[150248.785118,168480.418333]]},"geometry_name":"GEOM","properties":{"INSPIRE_ID":"https://databrussels.be/id/rail/22099","TYPE":"TW","LVL":0,"SLOPE":null,"LENGTH":70.9161631289054},"bbox":[150224.6581,168480.418333,150248.785118,168546.4291]},{"type":"Feature","id":"TrainNetwork.fid--291372a6_1a0314667fc_-27f0","geometry":{"type":"LineString","coordinates":[[150249.95627846,168484.23189034],[150249.5075,168488.4801],[150249.3683,168489.5237],[150249.2669,168490.2079],[150249.1395,168491.0557],[150248.8965,168492.5779],[150248.4617,168495.0851],[150247.9471,168497.7581],[150247.8097,168498.4239],[150247.3307,168500.6407],[150247.0863,168501.7239],[150246.9449,168502.3507],[150246.8933,168502.5593],[150246.8413,168502.7677],[150246.6737,168503.4859],[150246.5039,168504.2037],[150246.0063,168506.1163],[150245.9519,168506.3113],[150245.8969,168506.5059],[150245.7412,168507.0594],[150245.5841,168507.6625],[150245.3973,168508.3397],[150244.7631,168510.5119],[150244.4097,168511.6809],[150244.0527,168512.8155],[150243.2933,168515.1313],[150242.3459,168517.8303],[150241.3167,168520.5725],[150240.2233,168523.2865],[150238.9407,168526.2901],[150237.7163,168528.9597],[150237.55891139,168529.28709355],[150237.4169,168529.5825],[150236.5825,168531.3123],[150236.37369574,168531.72079783],[150236.1883,168532.0835],[150233.9965,168536.2541],[150233.3809,168537.3933],[150231.4343,168540.9159],[150230.9677,168541.7447],[150230.5031,168542.5745],[150229.7709,168543.9057],[150227.1509,168548.5887]]},"geometry_name":"GEOM","properties":{"INSPIRE_ID":"https://databrussels.be/id/rail/22100","TYPE":"TW","LVL":0,"SLOPE":null,"LENGTH":68.8943297634945},"bbox":[150227.1509,168484.23189034,150249.95627846,168548.5887]},{"type":"Feature","id":"TrainNetwork.fid--291372a6_1a0314667fc_-27ef","geometry":{"type":"LineString","coordinates":[[150228.4037,168549.2919],[150231.005531,168544.644276],[150231.760436,168543.295815],[150232.754999,168541.509702],[150234.644842,168538.075517],[150235.013294,168537.396544],[150235.34277225,168536.78043316],[150235.667411,168536.173372],[150236.980612,168533.679668],[150237.801279,168532.087514],[150238.550401,168530.548656],[150238.64818154,168530.34539112],[150238.772355,168530.087261],[150239.149965,168529.293662],[150239.512407,168528.51258],[150239.62477568,168528.26848881],[150239.7617,168527.971057],[150240.259274,168526.865157],[150241.525621,168523.904092],[150242.600681,168521.231448],[150243.644361,168518.46121],[150244.683248,168515.500603],[150245.363868,168513.425568],[150245.778494,168512.11549],[150246.09549,168511.077799],[150246.21449974,168510.67554815],[150246.33833,168510.257004],[150246.757781,168508.802792],[150246.877172,168508.373555],[150247.036726,168507.798579],[150247.19892133,168507.20090579],[150247.347863,168506.652071],[150248.17833,168503.350126],[150248.714622,168501.044597],[150248.92302217,168500.08792503],[150249.118447,168499.190817],[150249.223783,168498.691023],[150249.365442,168497.995799],[150249.871261,168495.363283],[150250.308851,168492.833871],[150250.570583,168491.183761],[150250.689891,168490.387042],[150250.791977,168489.697586],[150250.933753,168488.67888],[150251.385144,168484.371521]]},"geometry_name":"GEOM","properties":{"INSPIRE_ID":"https://databrussels.be/id/rail/22101","TYPE":"TW","LVL":0,"SLOPE":null,"LENGTH":69.488976066203},"bbox":[150228.4037,168484.371521,150251.385144,168549.2919]},{"type":"Feature","id":"TrainNetwork.fid--291372a6_1a0314667fc_-27ff","geometry":{"type":"LineString","coordinates":[[150278.416589,168542.494669],[150281.648168,168544.512996],[150282.409088,168544.983074],[150282.844221,168545.251888],[150287.038025,168547.882667],[150287.576693,168548.219435],[150288.53058,168548.817597],[150289.31929129,168549.31188224],[150290.35913,168549.963549],[150290.974463,168550.349257],[150291.54213,168550.705088],[150295.824007,168553.396376],[150300.037552,168556.041824],[150300.525671,168556.346652],[150304.555723,168558.863394],[150308.094191,168561.081007],[150308.724318,168561.475646],[150313.086226,168564.190964],[150317.517152,168566.951309],[150319.822863,168568.335106],[150321.751241,168569.444019],[150322.574838,168569.894488],[150323.401008,168570.340149],[150323.936484,168570.633136],[150324.473148,168570.923966],[150326.52742,168571.997266],[150328.931539,168573.186681],[150331.10573,168574.217225],[150333.812962,168575.408827],[150336.403131,168576.481765],[150338.937007,168577.463685],[150339.577842,168577.703276],[150341.553294,168578.435425],[150346.571507,168580.171754],[150351.248608,168581.761123],[150352.50461,168582.187147],[150353.958049,168582.665421],[150355.412357,168583.141015],[150359.238024,168584.512511],[150362.012893,168585.469915],[150364.787448,168586.428228],[150366.738827,168587.09282],[150368.686027,168587.769829],[150369.945824,168588.238288],[150371.203872,168588.711293],[150373.778372,168589.638474],[150376.352418,168590.566943],[150384.139014,168593.496217],[150385.566748,168594.048892],[150387.210603,168594.687943],[150388.854432,168595.327062],[150395.895758,168598.06717],[150398.680198,168599.170959],[150401.466409,168600.270325],[150401.891982,168600.436873],[150402.317637,168600.60321],[150404.8796,168601.614465],[150407.437794,168602.6351],[150410.319545,168603.770751],[150413.201257,168604.906502],[150415.269808,168605.724902],[150417.338241,168606.543602],[150418.191682,168606.883516],[150419.045551,168607.222358],[150421.239838,168608.078366],[150423.434401,168608.933659],[150426.418435,168610.114748],[150429.401957,168611.29712],[150431.947675,168612.292621],[150434.491923,168613.291908],[150435.136638,168613.551675],[150435.78134,168613.811472],[150438.067211,168614.709948],[150440.354516,168615.604734],[150445.280869,168617.547594],[150450.257726,168619.509899],[150451.392179,168619.958039],[150452.527109,168620.404978],[150453.941987,168620.960821],[150455.356167,168621.518429],[150459.204845,168623.034696],[150464.611644,168625.169112],[150466.936084,168626.091706],[150469.26454,168627.00426],[150471.158696,168627.742456],[150473.052031,168628.48273],[150477.830835,168630.367273],[150482.613802,168632.268294],[150483.884233,168632.761833],[150487.812725,168634.307678],[150494.576597,168637.008422],[150498.376073,168638.6754],[150502.15302834,168640.55221593],[150505.854474,168642.573881],[150508.20905093,168644.01292874],[150510.504846,168645.544012],[150513.07562811,168647.38788706],[150515.573861,168649.328925],[150517.99901593,168651.38473768],[150520.340277,168653.535607],[150524.294317,168657.557879],[150528.301387,168662.240444],[150532.207174,168667.135916],[150535.636868,168671.506972],[150539.113691,168675.965118],[150542.78691,168680.660217],[150545.892081,168684.616073],[150546.317859,168685.150269],[150546.743369,168685.68468],[150549.906502,168689.731138],[150551.793805,168692.151026],[150553.681948,168694.570259],[150555.446782,168696.818347],[150557.208575,168699.068832],[150557.485592,168699.427671],[150557.762397,168699.786672],[150561.460165,168704.526571],[150563.474272,168707.088049],[150565.488318,168709.649576],[150568.844617,168713.94229],[150568.989413,168714.127344],[150569.13407,168714.3125],[150573.028722,168719.293768],[150574.645946,168721.3495],[150576.264254,168723.404373],[150578.101793,168725.762997],[150579.938204,168728.122494],[150583.370014,168732.499624],[150585.112292,168734.712028],[150586.855335,168736.923829],[150589.92213,168740.824262],[150591.573369,168742.957152],[150593.224823,168745.089877],[150597.00455,168749.893056],[150601.01586,168754.74453],[150601.967607,168755.837132],[150605.573603,168759.650155],[150608.108972,168762.084436],[150609.362356,168763.249015],[150612.0131715,168765.52867316],[150614.732048,168767.726712],[150619.248492,168770.999707],[150624.41248,168774.261235],[150629.695672,168777.152547],[150634.758817,168779.541196],[150639.886826,168781.594225],[150644.865737,168783.384786],[150647.751081,168784.394064],[150650.635947,168785.404728],[150651.611771,168785.757778],[150656.375384,168787.416089],[150661.933948,168789.363469],[150667.082447,168791.170437],[150668.341208,168791.618818],[150673.287016,168793.33795],[150679.926344,168795.670691],[150685.297518,168797.545152],[150686.180179,168797.840653],[150692.50567,168800.087214],[150695.60373387,168801.20498132],[150698.734668,168802.227065],[150701.49584449,168803.04378297],[150704.284808,168803.759888],[150710.139183,168804.860883],[150710.866007,168804.960172],[150715.4301,168805.581678],[150720.4669,168806.232162],[150724.02091549,168806.66131592],[150724.26167967,168806.70236571],[150727.963,168807.638],[150731.8430162,168808.96390659],[150735.61155521,168810.57966268],[150739.247,168812.476],[150741.95178496,168814.20526297],[150744.452,168816.219],[150757.078,168826.873],[150762.65946358,168831.59547144]]},"geometry_name":"GEOM","properties":{"INSPIRE_ID":"https://databrussels.be/id/rail/22102","TYPE":"TW","LVL":0,"SLOPE":null,"LENGTH":579.375611765258},"bbox":[150278.416589,168542.494669,150762.65946358,168831.59547144]},{"type":"Feature","id":"TrainNetwork.fid--291372a6_1a0314667fc_-27fe","geometry":{"type":"LineString","coordinates":[[150277.6572,168543.7163],[150278.3048,168544.1206],[150280.8825,168545.7301],[150281.6605,168546.2073],[150282.0507,168546.4501],[150286.2461,168549.0837],[150286.8203,168549.4433],[150290.2139,168551.5699],[150290.7913,168551.9323],[150295.1227,168554.6509],[150299.3047,168557.2799],[150299.7589,168557.5655],[150304.0031,168560.2133],[150307.3333,168562.2995],[150307.9397,168562.6795],[150312.2891,168565.3873],[150316.8869,168568.2499],[150319.0969,168569.5787],[150321.0485,168570.6995],[150322.7245,168571.6133],[150323.7521,168572.1679],[150325.8957,168573.2915],[150328.2793,168574.4681],[150330.4975,168575.5213],[150333.2261,168576.7231],[150335.8641,168577.8135],[150338.4695,168578.8245],[150339.0783,168579.0525],[150340.9847,168579.7595],[150346.1495,168581.5469],[150350.7879,168583.1235],[150352.0361,168583.5467],[150354.9109,168584.4917],[150358.6757,168585.8395],[150358.675588,168585.839452],[150361.46075,168586.78735],[150364.243782,168587.741535],[150368.193612,168589.1331],[150369.410787,168589.574285],[150370.626944,168590.018243],[150373.280218,168590.977443],[150375.931657,168591.941744],[150383.537053,168594.798141],[150384.283228,168595.077276],[150385.027946,168595.360365],[150388.292474,168596.646495],[150395.443709,168599.447276],[150398.177098,168600.505356],[150400.903985,168601.580402],[150401.341818,168601.752779],[150401.779455,168601.925668],[150406.887136,168603.963747],[150412.64304,168606.234943],[150414.646614,168607.030178],[150416.650691,168607.824148],[150417.575679,168608.186238],[150418.500534,168608.548671],[150420.703549,168609.411854],[150422.906208,168610.275952],[150428.977724,168612.674826],[150431.447741,168613.655287],[150433.920552,168614.628783],[150434.585207,168614.881545],[150435.249731,168615.134659],[150437.738934,168616.112154],[150440.225715,168617.095733],[150442.439778,168617.963171],[150444.653748,168618.830846],[150447.218862,168619.842647],[150449.783704,168620.855133],[150450.893571,168621.29151],[150452.003513,168621.727697],[150453.349106,168622.25783],[150454.694853,168622.787572],[150458.765054,168624.397998],[150463.971673,168626.457596],[150468.729648,168628.326385],[150470.624237,168629.067339],[150472.518033,168629.810308],[150477.331448,168631.713925],[150482.09693,168633.604539],[150483.344083,168634.098403],[150487.356588,168635.684304],[150494.089665,168638.374531],[150499.371788,168640.735145],[150499.816717,168640.962054],[150505.096836,168643.810274],[150507.44915188,168645.24294846],[150509.74735,168646.760918],[150512.24930273,168648.55238233],[150514.677621,168650.442457],[150517.0711607,168652.48393614],[150519.384598,168654.615761],[150523.216067,168658.520968],[150527.272997,168663.252629],[150531.034493,168667.984517],[150534.512919,168672.405911],[150537.956261,168676.823332],[150541.638657,168681.532528],[150544.853047,168685.630507],[150545.226687,168686.103294],[150545.599919,168686.576406],[150548.72332,168690.560017],[150550.629959,168693.002181],[150552.537546,168695.443607],[150556.124859,168700.03508],[150556.371659,168700.355974],[150556.618528,168700.676815],[150560.379539,168705.482101],[150562.357862,168708.004574],[150564.335645,168710.527472],[150566.029501,168712.679246],[150567.716265,168714.836635],[150567.93731,168715.118345],[150568.158461,168715.399972],[150571.890013,168720.173591],[150575.205768,168724.399464],[150577.009783,168726.69986],[150578.814072,168729.000043],[150582.216202,168733.33744],[150585.7856,168737.901189],[150587.286658,168739.807737],[150588.789438,168741.712913],[150590.486611,168743.909213],[150592.189141,168746.101414],[150595.841576,168750.733531],[150599.940141,168755.719205],[150600.8952,168756.799095],[150604.718334,168760.823154],[150607.205838,168763.218917],[150608.55173,168764.451349],[150613.855604,168768.854315],[150618.516661,168772.251219],[150623.648041,168775.475325],[150629.070592,168778.439459],[150634.26625,168780.899489],[150639.418799,168782.952835],[150644.418377,168784.753686],[150647.234529,168785.739464],[150650.051142,168786.723905],[150651.158085,168787.120256],[150655.959637,168788.798812],[150661.396818,168790.69885],[150666.733714,168792.570236],[150667.877793,168792.970863],[150672.874621,168794.715517],[150679.576067,168797.070492],[150684.831458,168798.910477],[150685.647846,168799.196455],[150692.084684,168801.452322],[150695.18188339,168802.57997085],[150698.313992,168803.60668],[150701.11039349,168804.43169003],[150703.935732,168805.151388],[150709.885248,168806.253208],[150710.651696,168806.375353],[150715.038305,168806.964029],[150720.135968,168807.64782],[150723.28089762,168808.05875631],[150723.89037547,168808.16331572],[150727.508,168809.078],[150731.29564674,168810.36219426],[150734.97444203,168811.93123469],[150738.523,168813.776],[150741.08995414,168815.42650356],[150743.456,168817.354],[150756.095,168827.997],[150761.69565515,168832.7307135]]},"geometry_name":"GEOM","properties":{"INSPIRE_ID":"https://databrussels.be/id/rail/22103","TYPE":"TW","LVL":0,"SLOPE":null,"LENGTH":579.125351194992},"bbox":[150277.6572,168543.7163,150761.69565515,168832.7307135]},{"type":"Feature","id":"TrainNetwork.fid--291372a6_1a0314667fc_-27fc","geometry":{"type":"LineString","coordinates":[[150302.4705,168553.9921],[150306.1289,168556.2747],[150310.2495,168558.8453],[150314.7565,168561.6595],[150317.7225,168563.5069],[150318.9693,168564.2535],[150321.3771,168565.6783],[150323.5389,168566.8995],[150325.8921,168568.1807],[150327.9343,168569.2315],[150330.2941,168570.4003],[150332.4155,168571.3839],[150333.4523,168571.8395],[150335.0549,168572.5431],[150337.6229,168573.5953],[150340.0315,168574.5231],[150341.7137,168575.1503],[150342.7167,168575.5137],[150347.6223,168577.2297],[150349.8979,168577.9997],[150352.1753,168578.7645],[150352.9779,168579.0373],[150353.7805,168579.3099],[150356.6261,168580.2731],[150359.9947,168581.4625],[150363.02722,168582.492903],[150366.059058,168583.525493],[150369.919675,168584.882991],[150371.049402,168585.299323],[150372.178245,168585.718002],[150374.779007,168586.653897],[150377.37787,168587.595148],[150380.767298,168588.873418],[150384.152292,168590.163229],[150385.047089,168590.498436],[150385.940774,168590.836636],[150387.83127,168591.581137],[150389.720938,168592.327698],[150393.284572,168593.703479],[150396.849396,168595.076164],[150402.740739,168597.386535],[150405.823188,168598.599223],[150408.903968,168599.816175],[150411.652518,168600.907202],[150414.401306,168601.997625],[150416.332351,168602.761206],[150418.264449,168603.522106],[150418.880027,168603.76193],[150419.49623,168604.000126],[150422.058411,168605.007826],[150424.619485,168606.018309],[150430.544545,168608.349494],[150433.014818,168609.317604],[150435.481312,168610.295427],[150435.88045,168610.45638],[150436.279553,168610.617422],[150441.402987,168612.650331],[150444.097284,168613.696869],[150446.790676,168614.74576],[150449.083618,168615.662689],[150451.377626,168616.576991],[150452.214523,168616.898025],[150453.051392,168617.219135],[150454.783772,168617.911006],[150456.515818,168618.603696],[150458.460757,168619.361271],[150460.405661,168620.118937],[150465.877525,168622.277609],[150469.787895,168623.820206],[150469.976671,168623.895085],[150470.165497,168623.969854],[150474.094687,168625.510544],[150478.936214,168627.418871],[150482.757194,168628.926134],[150486.578506,168630.43255],[150487.746129,168630.894903],[150488.913748,168631.357265],[150495.999754,168634.17567],[150501.45424,168636.584711],[150503.114939,168637.396576],[150507.379716,168639.699059],[150509.8412366,168641.18910064],[150512.244933,168642.77073],[150515.24043897,168644.93412023],[150518.148954,168647.213123],[150520.36153626,168649.09093088],[150522.497369,168651.055594],[150524.67855427,168653.24233985],[150526.778914,168655.50683],[150530.744218,168660.197016],[150534.672145,168665.185488],[150536.363588,168667.355622],[150538.054008,168669.52655],[150542.162392,168674.76445],[150545.048419,168678.45818],[150546.637153,168680.471919],[150548.223465,168682.487582],[150548.580963,168682.950437],[150548.93809,168683.413576],[150552.328283,168687.744411],[150554.24173,168690.187734],[150556.15472,168692.631416],[150557.977254,168694.963935],[150559.800477,168697.295917],[150561.858867,168699.918597],[150563.917404,168702.541162],[150565.769422,168704.910446],[150567.622256,168707.279094],[150570.880102,168711.454457],[150571.233357,168711.909691],[150571.586534,168712.364986],[150575.411321,168717.23109],[150578.768187,168721.503816],[150580.36426,168723.562989],[150581.959389,168725.622889],[150583.816242,168727.990886],[150585.676926,168730.355856],[150587.315509,168732.442554],[150588.952193,168734.530747],[150590.727566,168736.780921],[150592.504646,168739.029734],[150594.093953,168741.078358],[150595.683,168743.127182],[150599.387679,168747.817339],[150603.255823,168752.50455],[150604.329675,168753.712557],[150607.785119,168757.377376],[150610.556187,168760.025627],[150611.578619,168760.956202],[150616.780889,168765.270782],[150620.965649,168768.305664],[150626.235283,168771.636848],[150631.018871,168774.25228],[150636.491529,168776.815985],[150640.874417,168778.583832],[150646.00813,168780.457045],[150651.732624,168782.467161],[150653.27699,168782.999541],[150657.470053,168784.478496],[150662.973526,168786.392414],[150668.160516,168788.224318],[150670.069875,168788.889893],[150674.249901,168790.347346],[150680.84163,168792.67847],[150687.049179,168794.847803],[150687.478603,168795.010397],[150693.605986,168797.1328],[150696.68364899,168798.1843713],[150699.800908,168799.112007],[150702.45373474,168799.7926809],[150705.133868,168800.356323],[150710.492446,168801.110701],[150712.715629,168801.283961],[150716.246755,168801.46463],[150720.899777,168801.622462],[150726.10307627,168801.7239183],[150728.629,168802.068],[150732.80085937,168802.90266534],[150736.87808494,168804.11811112],[150740.826,168805.704],[150744.41716569,168807.77688032],[150747.81225723,168810.15735449],[150750.985,168812.827],[150753.921,168815.373],[150761.18,168821.645],[150766.90347228,168826.59657642]]},"geometry_name":"GEOM","properties":{"INSPIRE_ID":"https://databrussels.be/id/rail/22104","TYPE":"TW","LVL":0,"SLOPE":null,"LENGTH":555.189763272165},"bbox":[150302.4705,168553.9921,150766.90347228,168826.59657642]},{"type":"Feature","id":"TrainNetwork.fid--291372a6_1a0314667fc_-27fb","geometry":{"type":"LineString","coordinates":[[150301.7337,168555.2253],[150305.4179,168557.5241],[150309.6003,168560.1333],[150313.9781,168562.8647],[150317.0115,168564.7353],[150317.6751,168565.1477],[150318.3407,168565.5569],[150320.6751,168566.9333],[150322.6161,168568.0327],[150325.2391,168569.4599],[150327.2759,168570.5111],[150329.6451,168571.6823],[150331.8169,168572.6885],[150332.8773,168573.1641],[150334.4793,168573.8619],[150337.1189,168574.9445],[150339.5535,168575.8793],[150341.2651,168576.5169],[150342.1907,168576.8543],[150347.1365,168578.5811],[150349.4349,168579.3603],[150351.7353,168580.1341],[150353.3297,168580.6739],[150355.9687,168581.5679],[150359.8091,168582.9019],[150365.507555,168584.860804],[150368.948947,168586.051299],[150371.655581,168587.037989],[150376.876193,168588.949883],[150384.514083,168591.82226],[150385.409434,168592.159619],[150387.310968,168592.91044],[150389.210597,168593.665986],[150392.830417,168595.059042],[150396.450847,168596.450482],[150399.316938,168597.581821],[150402.182268,168598.715068],[150405.158711,168599.889846],[150408.134834,168601.06543],[150410.939375,168602.173796],[150413.743375,168603.283524],[150415.830412,168604.105169],[150417.917681,168604.926226],[150418.962065,168605.337902],[150421.51862,168606.342804],[150424.074629,168607.349103],[150430.009265,168609.687264],[150435.091343,168611.685528],[150435.403668,168611.811856],[150435.716074,168611.937977],[150440.786988,168613.940963],[150446.218394,168616.059846],[150450.876194,168617.919236],[150451.67929,168618.234702],[150452.482725,168618.549288],[150454.243529,168619.23849],[150456.005521,168619.924616],[150457.919349,168620.680476],[150459.833154,168621.436392],[150462.594452,168622.513927],[150465.355163,168623.592974],[150467.309451,168624.370353],[150469.264124,168625.146772],[150469.571697,168625.2756],[150469.879539,168625.403824],[150473.631069,168626.867618],[150478.445776,168628.774148],[150486.004417,168631.764968],[150488.339678,168632.674477],[150494.183676,168634.993204],[150500.75167,168637.840363],[150502.463755,168638.67211],[150506.668371,168640.942736],[150509.21482598,168642.49297337],[150511.700529,168644.138862],[150514.5048031,168646.17226832],[150517.226268,168648.315239],[150519.41695869,168650.17780744],[150521.53204,168652.125811],[150523.65379636,168654.25878419],[150525.697884,168656.466301],[150529.633071,168661.108051],[150531.581964,168663.568975],[150533.507757,168666.047658],[150535.220378,168668.225662],[150536.931836,168670.404581],[150541.032776,168675.655697],[150543.885211,168679.300142],[150545.542949,168681.420558],[150547.204837,168683.537738],[150547.503812,168683.912458],[150547.802574,168684.287349],[150549.536462,168686.50622],[150551.265562,168688.728799],[150555.000711,168693.496531],[150556.838854,168695.833954],[150558.674737,168698.17316],[150560.734329,168700.806607],[150562.794286,168703.439769],[150564.70934,168705.892814],[150566.625688,168708.344851],[150569.753956,168712.352469],[150570.108753,168712.814872],[150570.46384,168713.277055],[150574.352381,168718.211882],[150575.9703,168720.256545],[150577.584781,168722.303934],[150579.217143,168724.408794],[150580.844955,168726.517145],[150582.699148,168728.888394],[150584.556863,168731.256872],[150587.854708,168735.456862],[150591.317408,168739.862982],[150592.944508,168741.961607],[150594.572047,168744.059896],[150598.31824,168748.787834],[150602.222049,168753.503119],[150603.263905,168754.682508],[150606.717209,168758.330486],[150609.592398,168761.088285],[150610.506106,168761.9226],[150615.871137,168766.387326],[150620.158677,168769.503886],[150622.78600584,168771.22218932],[150625.467288,168772.855024],[150630.42066,168775.559477],[150635.901157,168778.136208],[150640.353081,168779.93518],[150645.427617,168781.770541],[150648.246671,168782.761424],[150651.065017,168783.75435],[150651.921084,168784.052428],[150652.775471,168784.355475],[150656.943479,168785.817211],[150662.445367,168787.73902],[150667.586565,168789.532298],[150669.605294,168790.248377],[150673.768587,168791.713894],[150680.416066,168794.045332],[150686.583871,168796.215818],[150686.967137,168796.352609],[150693.137609,168798.507566],[150696.19917495,168799.55316173],[150699.300897,168800.472823],[150702.15198396,168801.1964535],[150705.03167,168801.796242],[150707.78830451,168802.23419806],[150710.559777,168802.565528],[150712.611907,168802.701167],[150716.14707,168802.895559],[150720.821164,168803.058059],[150725.84926391,168803.2086859],[150728.462,168803.567],[150732.4559821,168804.36647809],[150736.35964956,168805.52942201],[150740.14,168807.046],[150743.62728386,168809.05907191],[150746.92474103,168811.36999887],[150750.007,168813.961],[150753.731,168817.184],[150760.146,168822.734],[150765.93380069,168827.73872453]]},"geometry_name":"GEOM","properties":{"INSPIRE_ID":"https://databrussels.be/id/rail/22105","TYPE":"TW","LVL":0,"SLOPE":null,"LENGTH":554.910263034214},"bbox":[150301.7337,168555.2253,150765.93380069,168827.73872453]}],"numberReturned":30,"grand_bruxelles_source":{"authority":"Paradigm / Brussels-Capital Region","service":"https://geoservices-urbis.irisnet.be/geoserver/urbisvector/wfs","layer":"urbisvector:TrainNetwork","crs":"EPSG:31370","bbox":[150000.0,168500.0,150500.0,169000.0],"cell_id":"bxl-e150000-n168500-s500","ownership":"bbox_intersection_source_unclipped"}}
