{"type":"FeatureCollection","totalFeatures":4,"numberMatched":4,"timeStamp":"2026-08-24T01:19:15.562Z","crs":{"type":"name","properties":{"name":"urn:ogc:def:crs:EPSG::31370"}},"bbox":[150475.71237627,165088.00924961,151499.67320087,165334.05788827],"features":[{"type":"Feature","id":"TrainNetwork.fid-1007f30f_1a03149ce47_-4f61","geometry":{"type":"LineString","coordinates":[[150476.20036227,165089.50264147],[151132.08226866,165171.96718587],[151148.24092379,165174.19119353],[151164.35572248,165176.7946246],[151180.40520952,165179.77431512],[151196.380601,165183.1286343],[151212.27315353,165186.85574631],[151228.07416909,165190.9536113],[151243.77499973,165195.41998649],[151259.36705234,165200.25242742],[151274.84179335,165205.44828928],[151290.19075341,165211.00472837],[151305.40553197,165216.91870363],[151320.47780195,165223.18697832],[151335.39931425,165229.80612181],[151350.1619023,165236.77251142],[151364.75748649,165244.08233442],[151379.17807861,165251.73159013],[151393.41578624,165259.71609209],[151407.46659763,165268.03370835],[151442.97766684,165290.31802416],[151465.84991693,165306.39621194],[151478.03306476,165315.33741578],[151490.16156989,165324.57086655],[151498.69407053,165331.4185421]]},"geometry_name":"GEOM","properties":{"INSPIRE_ID":"https://databrussels.be/id/rail/28106","TYPE":"RW","LVL":-1,"SLOPE":null,"LENGTH":1066.04259669537},"bbox":[150476.20036227,165089.50264147,151498.69407053,165331.4185421]},{"type":"Feature","id":"TrainNetwork.fid-1007f30f_1a03149ce47_-4f63","geometry":{"type":"LineString","coordinates":[[150475.71237627,165092.94011195],[151131.62905155,165175.40902786],[151147.72735423,165177.62472887],[151163.7619731,165180.21520647],[151179.7316053,165183.18007142],[151195.62751059,165186.51770105],[151211.4409891,165190.22626868],[151227.16338609,165194.30374457],[151242.78609663,165198.74789714],[151258.30057037,165203.55629407],[151273.69831621,165208.72630372],[151288.97090691,165214.25509653],[151304.10998374,165220.13964657],[151319.10726105,165226.37673322],[151333.95453079,165232.9629429],[151348.643667,165239.89467096],[151363.16663029,165247.16812365],[151377.51547219,165254.77932019],[151391.68233954,165262.72409495],[151405.65947879,165270.99809972],[151441.05553352,165293.21024033],[151463.82453262,165309.21584719],[151475.95452104,165318.11803738],[151488.02370157,165327.30632424],[151496.4401919,165334.05788827]]},"geometry_name":"GEOM","properties":{"INSPIRE_ID":"https://databrussels.be/id/rail/28571","TYPE":"RW","LVL":-1,"SLOPE":null,"LENGTH":1064.07846808829},"bbox":[150475.71237627,165092.94011195,151496.4401919,165334.05788827]},{"type":"Feature","id":"TrainNetwork.fid-1007f30f_1a03149ce47_-4f60","geometry":{"type":"LineString","coordinates":[[150476.41236535,165088.00924961],[151132.27916656,165170.47189482],[151148.46404152,165172.69951127],[151164.61367392,165175.30856991],[151180.69785351,165178.29470132],[151196.70777736,165181.65627119],[151212.63468321,165185.39143972],[151228.46985421,165189.49816265],[151244.20462373,165193.97419234],[151259.8303801,165198.81707907],[151275.33857128,165204.0241723],[151290.72070962,165209.59262218],[151305.96837641,165215.51938107],[151321.07322659,165221.80120526],[151336.02699321,165228.43465668],[151350.82149203,165235.41610482],[151365.44862601,165242.74172872],[151379.90038965,165250.40751904],[151394.16887348,165258.40928029],[151408.25169138,165266.74584334],[151443.81272805,165289.0615153],[151466.72983501,165305.1712355],[151478.93607768,165314.12938863],[151491.09035609,165323.38246064],[151499.67320087,165330.27195688]]},"geometry_name":"GEOM","properties":{"INSPIRE_ID":"https://databrussels.be/id/rail/29005","TYPE":"RW","LVL":-1,"SLOPE":null,"LENGTH":1066.89590008572},"bbox":[150476.41236535,165088.00924961,151499.67320087,165330.27195688]},{"type":"Feature","id":"TrainNetwork.fid-1007f30f_1a03149ce47_-4f62","geometry":{"type":"LineString","coordinates":[[150475.92323045,165091.45481313],[151131.82488242,165173.92184015],[151147.94926283,165176.14113038],[151164.01852665,165178.73720505],[151180.02266338,165181.708476],[151195.95291391,165185.05331703],[151211.80055957,165188.76989751],[151227.5569269,165192.85618334],[151243.2133924,165197.30993809],[151258.76138725,165202.12872421],[151274.19240198,165207.30990436],[151289.49799116,165212.85064286],[151304.669778,165218.74790727],[151319.69945894,165224.99846998],[151334.5788082,165231.59891005],[151349.29968226,165238.54561504],[151363.85402436,165245.834783],[151378.23386886,165253.46242455],[151392.43134563,165261.42436506],[151406.44031793,165269.71721395],[151441.88606934,165291.96054079],[151464.69968222,165307.99750919],[151476.85264033,165316.91655681],[151488.94745446,165326.12435857],[151497.41434003,165332.91713734]]},"geometry_name":"GEOM","properties":{"INSPIRE_ID":"https://databrussels.be/id/rail/29064","TYPE":"RW","LVL":-1,"SLOPE":null,"LENGTH":1064.92716226988},"bbox":[150475.92323045,165091.45481313,151497.41434003,165332.91713734]}],"numberReturned":4,"grand_bruxelles_source":{"authority":"Paradigm / Brussels-Capital Region","service":"https://geoservices-urbis.irisnet.be/geoserver/urbisvector/wfs","layer":"urbisvector:TrainNetwork","crs":"EPSG:31370","bbox":[150500.0,165000.0,151000.0,165500.0],"cell_id":"bxl-e150500-n165000-s500","ownership":"bbox_intersection_source_unclipped"}}
