{"type":"FeatureCollection","totalFeatures":36,"numberMatched":36,"timeStamp":"2026-08-23T02:53:22.935Z","crs":{"type":"name","properties":{"name":"urn:ogc:def:crs:EPSG::31370"}},"bbox":[147703.71909251,175585.72691716,148326.39527388,176342.00637427],"features":[{"type":"Feature","id":"TramNetwork.fid--291372a6_1a02c497e3d_-6816","geometry":{"type":"LineString","coordinates":[[147875.11964948,176208.25853923],[147876.58031978,176206.20585327],[147881.3880097,176198.9526241],[147884.63853822,176194.14380306]]},"geometry_name":"GEOM","properties":{"INSPIRE_ID":"https://databrussels.be/id/rail/21241","TYPE":"TW","LVL":0,"SLOPE":null,"LENGTH":17.0256180598218},"bbox":[147875.11964948,176194.14380306,147884.63853822,176208.25853923]},{"type":"Feature","id":"TramNetwork.fid--291372a6_1a02c497e3d_-6830","geometry":{"type":"LineString","coordinates":[[147750.72630041,176292.92888579],[147746.49851608,176297.42106363],[147739.35803338,176305.33861993],[147732.5263938,176312.70725374],[147722.00839362,176323.90586985],[147713.48166892,176332.86158261],[147707.47513206,176339.25877828],[147704.78502895,176342.00637427]]},"geometry_name":"GEOM","properties":{"INSPIRE_ID":"https://databrussels.be/id/rail/21242","TYPE":"TW","LVL":0,"SLOPE":null,"LENGTH":67.2284134432464},"bbox":[147704.78502895,176292.92888579,147750.72630041,176342.00637427]},{"type":"Feature","id":"TramNetwork.fid--291372a6_1a02c497e3d_-6814","geometry":{"type":"LineString","coordinates":[[147898.03173796,176174.36355759],[147895.6920128,176177.78605042],[147887.42019068,176190.0854586],[147884.63853822,176194.14380306]]},"geometry_name":"GEOM","properties":{"INSPIRE_ID":"https://databrussels.be/id/rail/21243","TYPE":"TW","LVL":0,"SLOPE":null,"LENGTH":23.8881802269546},"bbox":[147884.63853822,176174.36355759,147898.03173796,176194.14380306]},{"type":"Feature","id":"TramNetwork.fid--291372a6_1a02c497e3d_-682a","geometry":{"type":"LineString","coordinates":[[147915.55628846,176154.16969199],[147912.83574491,176158.08884434],[147907.86112417,176165.52043546],[147901.8165015,176174.56216674],[147896.83870601,176181.66390219],[147890.8375419,176190.76294428],[147885.37430502,176198.80509999],[147880.14101028,176207.15127898],[147874.83545688,176215.28355222],[147871.74374625,176220.23352443],[147869.12533157,176224.4086229],[147868.70393213,176225.02811699],[147867.80782417,176226.34317056],[147866.74435158,176227.75161463],[147865.28225776,176229.50889839],[147863.64019713,176231.32218763],[147861.38162252,176233.59607652],[147859.02848192,176235.69344815],[147857.05353397,176237.22240525],[147855.48950666,176238.41804732],[147852.20040131,176240.56951496],[147849.96100537,176241.74454747],[147843.35860383,176245.15479632],[147836.97141073,176248.40407759],[147829.18177005,176252.26300509],[147789.81880766,176272.27932477],[147782.75640061,176275.55377894],[147776.40978084,176278.31132835],[147773.14074364,176279.62718875],[147769.05242364,176281.24901514],[147765.98936883,176282.55273383],[147763.42957303,176283.75174039],[147760.78589564,176285.1586562],[147758.86575847,176286.24298981],[147757.6004403,176287.09253337],[147755.37415289,176288.75968865],[147753.38406009,176290.35308545],[147750.72630041,176292.92888579]]},"geometry_name":"GEOM","properties":{"INSPIRE_ID":"https://databrussels.be/id/rail/21244","TYPE":"TW","LVL":0,"SLOPE":null,"LENGTH":222.3188115955},"bbox":[147750.72630041,176154.16969199,147915.55628846,176292.92888579]},{"type":"Feature","id":"TramNetwork.fid--291372a6_1a02c497e3d_-682d","geometry":{"type":"LineString","coordinates":[[147760.72389093,176280.02491115],[147757.79613477,176283.0253479],[147753.02190013,176288.04326996],[147751.03424578,176290.31480116],[147749.66124782,176291.88389073]]},"geometry_name":"GEOM","properties":{"INSPIRE_ID":"https://databrussels.be/id/rail/21245","TYPE":"TW","LVL":0,"SLOPE":null,"LENGTH":16.2217913205946},"bbox":[147749.66124782,176280.02491115,147760.72389093,176291.88389073]},{"type":"Feature","id":"TramNetwork.fid--291372a6_1a02c497e3d_-6824","geometry":{"type":"LineString","coordinates":[[147883.42461259,176193.27626052],[147881.97802376,176195.21868409],[147879.90297811,176198.02743525],[147876.68913666,176201.90557359],[147874.26546687,176204.50416386],[147872.23252616,176206.49806],[147869.20316786,176209.34657499],[147865.76508323,176212.14803259],[147861.88891856,176214.94107209],[147858.80280374,176216.91715061],[147856.1654393,176218.60034542],[147852.45533474,176220.67677798],[147848.44762349,176222.80770893],[147843.67419887,176225.26049928],[147814.59877564,176239.98229098],[147807.04028941,176243.72494995],[147797.03917325,176248.81781625],[147792.19822847,176251.3886664],[147789.42957168,176252.98364149],[147786.64503677,176254.74104416],[147784.65828181,176256.16173696],[147782.76747759,176257.52650671],[147781.10790568,176258.76413414],[147779.09226494,176260.45544245],[147777.09729957,176262.1575269],[147775.90069037,176263.28828921],[147774.70184429,176264.47381553],[147772.68746806,176266.66403505],[147770.69367465,176268.71297657],[147769.00781863,176270.55490914],[147767.65027436,176272.08035634],[147764.69040411,176275.48673111],[147760.72389093,176280.02491115]]},"geometry_name":"GEOM","properties":{"INSPIRE_ID":"https://databrussels.be/id/rail/21246","TYPE":"TW","LVL":0,"SLOPE":null,"LENGTH":152.23412613627},"bbox":[147760.72389093,176193.27626052,147883.42461259,176280.02491115]},{"type":"Feature","id":"TramNetwork.fid--291372a6_1a02c497e3d_-6831","geometry":{"type":"LineString","coordinates":[[147749.66124782,176291.88389073],[147745.40132638,176296.41021543],[147738.25710357,176304.33191888],[147731.43572251,176311.6894878],[147720.92449572,176322.88089221],[147712.39769165,176331.83668834],[147706.39828288,176338.2262923],[147703.71909251,176340.96274234]]},"geometry_name":"GEOM","properties":{"INSPIRE_ID":"https://databrussels.be/id/rail/21247","TYPE":"TW","LVL":0,"SLOPE":null,"LENGTH":67.2300096187692},"bbox":[147703.71909251,176291.88389073,147749.66124782,176340.96274234]},{"type":"Feature","id":"TramNetwork.fid--291372a6_1a02c497e3d_-6815","geometry":{"type":"LineString","coordinates":[[147896.8810415,176173.40346],[147894.45731032,176176.94883478],[147886.18599379,176189.2474912],[147883.42461259,176193.27626052]]},"geometry_name":"GEOM","properties":{"INSPIRE_ID":"https://databrussels.be/id/rail/21248","TYPE":"TW","LVL":0,"SLOPE":null,"LENGTH":24.0002710392797},"bbox":[147883.42461259,176173.40346,147896.8810415,176193.27626052]},{"type":"Feature","id":"TramNetwork.fid--291372a6_1a02c497e3d_-6835","geometry":{"type":"LineString","coordinates":[[147915.55628846,176154.16969199],[147913.2816,176157.2153],[147911.4767,176159.6843],[147910.0324,176161.3812],[147908.6025,176163.0172],[147907.0525,176164.6803],[147905.9329,176165.9458],[147905.3135,176166.6349],[147903.9957,176168.1009],[147903.0715,176169.0664],[147902.6221,176169.513],[147901.0068,176171.1182],[147899.0308,176173.2738],[147898.03173796,176174.36355759]]},"geometry_name":"GEOM","properties":{"INSPIRE_ID":"https://databrussels.be/id/rail/22659","TYPE":"TW","LVL":0,"SLOPE":null,"LENGTH":26.7717088502573},"bbox":[147898.03173796,176154.16969199,147915.55628846,176174.36355759]},{"type":"Feature","id":"TramNetwork.fid--291372a6_1a02c497e3d_-6813","geometry":{"type":"LineString","coordinates":[[147896.8810415,176173.40346],[147897.701,176172.5159],[147899.9392,176170.0927],[147901.2831,176168.7572],[147902.0151,176168.0297],[147902.9105,176167.0943],[147903.2896,176166.6725],[147904.8283,176164.9607],[147905.9567,176163.6853],[147907.5037,176162.0254],[147908.9117,176160.4145],[147910.3142,176158.7667],[147912.0913,176156.3358],[147914.3906,176153.221]]},"geometry_name":"GEOM","properties":{"INSPIRE_ID":"https://databrussels.be/id/rail/22660","TYPE":"TW","LVL":0,"SLOPE":null,"LENGTH":26.755451504257},"bbox":[147896.8810415,176153.221,147914.3906,176173.40346]},{"type":"Feature","id":"TramNetwork.fid--291372a6_1a02c497e3d_-6817","geometry":{"type":"LineString","coordinates":[[147883.42461259,176193.27626052],[147880.9103,176197.1034],[147878.736,176200.3033],[147876.1969,176204.1091],[147875.0479,176205.8264],[147873.9793,176207.4235],[147873.59120351,176207.98327686]]},"geometry_name":"GEOM","properties":{"INSPIRE_ID":"https://databrussels.be/id/rail/22661","TYPE":"TW","LVL":0,"SLOPE":null,"LENGTH":17.6919448486389},"bbox":[147873.59120351,176193.27626052,147883.42461259,176207.98327686]},{"type":"Feature","id":"TramNetwork.fid--291372a6_1a02c497e3d_-6822","geometry":{"type":"LineString","coordinates":[[147884.63853822,176194.14380306],[147883.17617143,176196.10741266],[147881.07812573,176198.94729635],[147877.80986887,176202.8910977],[147875.0479,176205.8264],[147873.26587657,176207.5740813],[147870.18651869,176210.46961106],[147866.67309532,176213.33245698],[147862.72781339,176216.17530015],[147859.6062912,176218.17405047],[147856.93163289,176219.88104663],[147853.16986842,176221.98639167],[147849.1387267,176224.12978079],[147844.35203922,176226.58938616],[147815.26670576,176241.31619571],[147807.70975996,176245.05809194],[147797.72753449,176250.14133852],[147792.92061258,176252.69412037],[147790.20030975,176254.26123958],[147787.477685,176255.97956891],[147785.52868293,176257.3732653],[147783.64997463,176258.7293043],[147782.03401565,176259.93440733],[147780.05584782,176261.59427242],[147778.09435889,176263.26779511],[147776.93758555,176264.36091364],[147775.77591344,176265.509679],[147773.77124873,176267.68933925],[147771.77871228,176269.73698905],[147770.11528414,176271.55441736],[147768.87494722,176272.94816086],[147768.77053752,176273.06548409],[147766.77776855,176275.3588677],[147765.81504271,176276.46682337],[147761.8201696,176281.03745066]]},"geometry_name":"GEOM","properties":{"INSPIRE_ID":"https://databrussels.be/id/rail/22662","TYPE":"TW","LVL":0,"SLOPE":null,"LENGTH":152.420657375563},"bbox":[147761.8201696,176194.14380306,147884.63853822,176281.03745066]},{"type":"Feature","id":"TramNetwork.fid--291372a6_1a02c497e3d_-682c","geometry":{"type":"LineString","coordinates":[[147914.3906,176153.221],[147911.5975,176157.2447],[147906.6155,176164.6873],[147905.3135,176166.6349],[147903.1792,176169.8274],[147900.5799,176173.7155],[147900.359,176174.0307],[147895.5995,176180.8211],[147889.5923,176189.9293],[147884.1193,176197.9857],[147878.8785,176206.3437],[147873.5723,176214.4771],[147870.4735,176219.4385],[147867.8705,176223.5889],[147867.4651,176224.1849],[147866.5899,176225.4693],[147865.5697,176226.8203],[147864.1503,176228.5263],[147862.5527,176230.2907],[147860.3505,176232.5077],[147858.0701,176234.5403],[147856.1399,176236.0347],[147854.6231,176237.1941],[147851.4403,176239.2759],[147849.2691,176240.4153],[147842.6751,176243.8213],[147836.2991,176247.0649],[147828.5095,176250.9237],[147789.1639,176270.9313],[147782.1425,176274.1865],[147775.8313,176276.9287],[147772.5847,176278.2355],[147768.4827,176279.8629],[147765.3779,176281.1843],[147762.7593,176282.4109],[147760.0653,176283.8445],[147758.0785,176284.9667],[147757.8842,176285.0972],[147756.7331,176285.8699],[147754.4565,176287.5747],[147752.8181196,176288.88650437],[147749.66124782,176291.88389073]]},"geometry_name":"GEOM","properties":{"INSPIRE_ID":"https://databrussels.be/id/rail/22663","TYPE":"TW","LVL":0,"SLOPE":null,"LENGTH":222.177546918628},"bbox":[147749.66124782,176153.221,147914.3906,176291.88389073]},{"type":"Feature","id":"TramNetwork.fid--291372a6_1a02c497e3d_-6829","geometry":{"type":"LineString","coordinates":[[147761.8201696,176281.03745066],[147758.87040495,176284.06044226],[147754.12408728,176289.04902239],[147752.04447846,176291.42564101],[147750.72630041,176292.92888579]]},"geometry_name":"GEOM","properties":{"INSPIRE_ID":"https://databrussels.be/id/rail/22664","TYPE":"TW","LVL":0,"SLOPE":null,"LENGTH":16.2667915420624},"bbox":[147750.72630041,176281.03745066,147761.8201696,176292.92888579]},{"type":"Feature","id":"TramNetwork.fid--291372a6_1a02c497e3d_-6821","geometry":{"type":"LineString","coordinates":[[147875.11964948,176208.25853923],[147869.10401073,176217.08709371],[147866.47393535,176220.79204022],[147865.19550455,176222.27151479],[147863.68194358,176223.98200834],[147860.14603872,176227.47987184],[147857.90385018,176229.35958263],[147854.69735577,176231.57074694],[147851.2445431,176233.72192538],[147849.21871815,176234.88147131],[147847.25666014,176235.88937457],[147819.40997342,176250.07719592],[147812.63512487,176253.49947332],[147802.42650151,176258.70746168],[147793.71005785,176263.12076168],[147785.6576085,176267.04057591],[147778.38543175,176270.78358156],[147772.38362979,176273.79284832],[147769.47858212,176275.4410446],[147766.66635256,176277.19424643],[147761.8201696,176281.03745066]]},"geometry_name":"GEOM","properties":{"INSPIRE_ID":"https://databrussels.be/id/rail/22665","TYPE":"TW","LVL":0,"SLOPE":null,"LENGTH":136.629817760992},"bbox":[147761.8201696,176208.25853923,147875.11964948,176281.03745066]},{"type":"Feature","id":"TramNetwork.fid--291372a6_1a02c497e3d_-6823","geometry":{"type":"LineString","coordinates":[[147873.59120351,176207.98327686],[147870.5673,176212.0716],[147868.8809,176214.2229],[147867.2214,176216.1565],[147865.3834,176218.0707],[147863.3848,176219.9658],[147861.5295,176221.6015],[147859.7848,176223.0341],[147858.0416,176224.2882],[147855.8134,176225.8598],[147853.8188,176227.0874],[147851.3592,176228.5499],[147847.9899,176230.3784],[147844.079,176232.3649],[147817.927,176245.7493],[147804.0031,176252.6993],[147796.8078,176256.3298],[147787.9554,176260.8586],[147782.8593,176263.3983],[147779.3939,176265.3446],[147776.9692,176266.9146],[147773.9689,176268.9622],[147771.2673,176270.965],[147768.87494722,176272.94816086],[147767.7044,176273.9185],[147765.4694,176275.8599],[147760.72389093,176280.02491115]]},"geometry_name":"GEOM","properties":{"INSPIRE_ID":"https://databrussels.be/id/rail/22688","TYPE":"TW","LVL":0,"SLOPE":null,"LENGTH":135.201237162146},"bbox":[147760.72389093,176207.98327686,147873.59120351,176280.02491115]},{"type":"Feature","id":"TramNetwork.fid--291372a6_1a02c497e3d_-6820","geometry":{"type":"LineString","coordinates":[[147875.11964948,176208.25853923],[147872.41292859,176212.0623052],[147868.03019433,176217.3677952],[147863.84824401,176221.53270773],[147863.45949336,176221.91987456],[147859.61846677,176224.96621795],[147855.58071096,176227.73892645],[147851.55904135,176230.15062755],[147847.34626483,176232.34294135],[147839.11516773,176236.47473924],[147828.12611439,176241.99588302],[147815.67428868,176248.41767668],[147805.08337493,176253.85935115],[147793.89852169,176259.41848795],[147784.50530309,176264.12802886],[147779.82915472,176266.73972381],[147776.30164332,176269.06322542],[147773.44063783,176271.0878013],[147771.72234169,176272.44803827],[147770.32425715,176273.55478945],[147767.62515932,176275.93729904],[147761.8201696,176281.03745066]]},"geometry_name":"GEOM","properties":{"INSPIRE_ID":"https://databrussels.be/id/rail/22689","TYPE":"TW","LVL":0,"SLOPE":null,"LENGTH":136.050119552788},"bbox":[147761.8201696,176208.25853923,147875.11964948,176281.03745066]},{"type":"Feature","id":"TramNetwork.fid--291372a6_1a02c497e3d_-6825","geometry":{"type":"LineString","coordinates":[[147760.72389093,176280.02491115],[147765.80162434,176275.96741611],[147766.77776855,176275.3588677],[147768.71211437,176274.15295667],[147771.677586,176272.4704785],[147771.72234169,176272.44803827],[147777.70667686,176269.44752925],[147784.98667682,176265.70049698],[147793.0436068,176261.77850164],[147801.74753693,176257.37153748],[147811.95678449,176252.16323068],[147818.7319824,176248.74077681],[147846.57413576,176234.55526519],[147848.50376557,176233.5640202],[147850.47584877,176232.43523508],[147853.87533503,176230.31728017],[147856.99511083,176228.16591609],[147859.13601052,176226.37111955],[147862.59265748,176222.95166124],[147863.84824401,176221.53270773],[147864.06738886,176221.28504948],[147865.29333367,176219.86631476],[147867.87371277,176216.23137463],[147873.59120351,176207.98327686]]},"geometry_name":"GEOM","properties":{"INSPIRE_ID":"https://databrussels.be/id/rail/22690","TYPE":"TW","LVL":0,"SLOPE":null,"LENGTH":135.773812323715},"bbox":[147760.72389093,176207.98327686,147873.59120351,176280.02491115]},{"type":"Feature","id":"TramNetwork.fid--291372a6_1a02c497e3d_-6834","geometry":{"type":"LineString","coordinates":[[147898.03173796,176174.36355759],[147903.2895932,176166.67249535],[147905.30209121,176163.72866242],[147910.30318442,176156.48444632],[147915.50112481,176148.79636618],[147917.37113913,176145.92824956],[147920.90833534,176140.54630172],[147923.80003563,176135.9483727],[147926.26966988,176131.80185973],[147928.71149579,176127.40887063],[147932.23199093,176120.61775779],[147936.10051741,176112.20367309],[147939.77754685,176103.6070913],[147943.86788267,176093.85304362],[147947.0166676,176086.7956046],[147950.26226372,176080.17508812],[147953.77388666,176073.78672356],[147955.92153979,176070.1010744],[147959.94460529,176063.83826344],[147964.31708707,176057.50005279],[147968.40883903,176051.69244898],[147973.55861509,176044.44116804],[147977.245295,176039.24065487],[147981.96044385,176032.67668447],[147987.92869633,176024.30699083],[147992.53181721,176017.81093828],[147997.44746521,176010.93032575],[148000,176007.33112721],[148005.25571645,176000],[148005.66271051,175999.49194941],[148024.91189792,175972.71219859],[148038.827,175953.168],[148099.728,175867.519],[148112.51430334,175849.58357451],[148133.30582397,175820.47647561],[148146.304,175802.125],[148153.627,175791.97],[148160.116,175782.763],[148165.391,175775.237],[148169.648,175769.083],[148172.207,175765.22],[148174.75,175761.191],[148176.976,175757.284],[148179.114,175753.391],[148180.992,175749.899],[148183.587,175744.697],[148187.383,175736.551],[148189.073,175732.604],[148190.902,175727.94],[148192.338,175724.023],[148193.897,175719.875],[148196.542,175711.524],[148197.733,175707.447],[148199.459,175700.911],[148203.834,175683.705],[148208.943,175663.184],[148211.503,175653.152],[148212.461,175649.551],[148213.258,175647.394],[148214.361,175645.255],[148215.423,175643.628],[148216.821,175641.572],[148218.318,175639.961],[148219.857,175638.592],[148221.351,175637.478],[148223.185,175636.216],[148225.215,175635.142],[148227.967,175633.837],[148231.151,175632.522],[148236.486,175630.399],[148265.007,175618.534],[148276.863,175613.753],[148288.565,175608.899],[148298.436,175604.911],[148302.326,175603.175],[148305.971,175601.303],[148312.526,175597.205],[148312.5261,175597.2051],[148315.2067,175595.1419],[148320.7609,175590.9631],[148325.87625312,175586.81488688]]},"geometry_name":"GEOM","properties":{"INSPIRE_ID":"https://databrussels.be/id/rail/22691","TYPE":"TW","LVL":0,"SLOPE":null,"LENGTH":748.561809379347},"bbox":[147898.03173796,175586.81488688,148325.87625312,176174.36355759]},{"type":"Feature","id":"TramNetwork.fid--291372a6_1a02c497e3d_-6836","geometry":{"type":"LineString","coordinates":[[147896.8810415,176173.40346],[147904.07251087,176162.88395424],[147909.0714224,176155.64289836],[147914.25831498,176147.97115862],[147916.12300711,176145.11120487],[147919.6534961,176139.73946225],[147922.52761602,176135.16948679],[147924.97660476,176131.0576376],[147927.39707925,176126.70306097],[147930.89135313,176119.96252952],[147934.73679607,176111.59865176],[147938.40388869,176103.0253014],[147942.49868953,176093.26060618],[147945.6653248,176086.16315881],[147948.93815815,176079.48708258],[147952.47558367,176073.05177782],[147954.64892225,176069.32204911],[147958.70274305,176063.01136059],[147963.09334486,176056.64688372],[147967.19095771,176050.83096128],[147972.34198846,176043.57791363],[147976.03099621,176038.37411678],[147980.74735097,176031.80846762],[147986.71280973,176023.44269181],[147991.31631377,176016.94609853],[147996.23213276,176010.06524665],[148000,176004.75237009],[148003.40695025,176000],[148004.65477015,175998.34502797],[148023.77114771,175971.38205529],[148030.996,175961.562],[148037.607,175952.072],[148098.401,175866.845],[148110.92566024,175849.34447474],[148131.67901984,175820.27414046],[148138.365,175810.891],[148142.4,175805.022],[148147.777,175797.545],[148158.147,175783.071],[148167.223,175770.152],[148170.532,175764.936],[148173.3,175760.749],[148175.467,175757.034],[148177.407,175753.452],[148179.888,175748.889],[148181.481,175745.772],[148183.335,175741.758],[148186.212,175735.403],[148188.617,175729.644],[148190.759,175724.107],[148192.616,175718.92],[148194.428,175713.492],[148196.205,175707.529],[148198.48,175699.173],[148201.321,175687.937],[148204.544,175674.872],[148207.834,175661.945],[148209.659,175654.604],[148210.887,175649.864],[148211.835,175647.002],[148213.207,175644.323],[148214.75,175641.883],[148216.318,175640.015],[148217.969,175638.503],[148219.923,175636.831],[148222.197,175635.243],[148225.047,175633.757],[148228.745,175632.011],[148236.062,175628.993],[148253.085,175622.004],[148271.306,175614.365],[148288.813,175607.34],[148299.436,175602.724],[148303.98,175600.566],[148307.421,175598.673],[148310.828,175596.424],[148310.8281,175596.4241],[148314.3293,175593.9409],[148319.8453,175589.7911],[148324.8568546,175585.72691716]]},"geometry_name":"GEOM","properties":{"INSPIRE_ID":"https://databrussels.be/id/rail/22692","TYPE":"TW","LVL":0,"SLOPE":null,"LENGTH":748.653055962768},"bbox":[147896.8810415,175585.72691716,148324.8568546,176173.40346]},{"type":"Feature","id":"TramNetwork.fid--291372a6_1a02c497e3d_-6833","geometry":{"type":"LineString","coordinates":[[147914.3906,176153.221],[147915.8477,176151.1219],[147919.4381,176145.7451],[147923.6213,176139.4887],[147926.6705,176134.5275],[147928.1899,176131.9187],[147929.4601,176129.6303],[147931.2965,176126.1427],[147933.5661,176121.6945],[147937.4999,176112.9689],[147940.4667,176106.0981],[147944.1459,176097.1207],[147946.8099,176091.0193],[147948.9525,176086.3399],[147951.1655,176081.8045],[147952.7489,176078.7969],[147955.0261,176074.5671],[147957.2211,176070.7883],[147959.4425,176067.2405],[147962.9843,176061.9051],[147967.6347,176055.2185],[147971.6623,176049.5763],[147975.8411,176043.7505],[147979.9563,176037.9295],[147983.1669,176033.5167],[147985.3377,176030.4835],[147989.2831,176024.9237],[147996.9861,176014.0665],[148000.0001,176009.8705],[148000,176009.87042421],[148006.67846455,176000.64229668],[148025.81445971,175973.76460822],[148039.991,175954.011],[148101.053,175868.142],[148114.06773395,175849.81737459],[148134.91091918,175820.67611069],[148145.502,175805.79],[148153.837,175793.983],[148163.958,175779.794],[148168.949,175772.746],[148171.634,175768.829],[148174.019,175765.199],[148176.301,175761.52],[148178.481,175757.843],[148180.633,175753.988],[148182.821,175750.068],[148184.879,175746.024],[148186.762,175742.188],[148190.868,175732.991],[148192.675,175728.481],[148194.491,175723.83],[148195.938,175719.824],[148197.162,175716.153],[148198.476,175711.87],[148201.215,175701.885],[148205.204,175686.382],[148209.879,175667.667],[148212.802,175656.085],[148214.317,175650.421],[148215,175648.33],[148216,175646.143],[148216.96,175644.466],[148218.124,175642.836],[148219.469,175641.305],[148221.122,175639.843],[148222.768,175638.726],[148224.557,175637.696],[148230.175,175635.12],[148252.507,175625.957],[148267.174,175619.653],[148278.652,175615.084],[148289.483,175610.668],[148298.497,175607.131],[148303.438,175605.054],[148306.127,175603.788],[148309.298,175601.837],[148311.926,175600.113],[148317.90599561,175595.66961356],[148321.38812246,175592.98096728],[148324.81790942,175590.15324726],[148325.593404,175589.50150566]]},"geometry_name":"GEOM","properties":{"INSPIRE_ID":"https://databrussels.be/id/rail/22693","TYPE":"TW","LVL":0,"SLOPE":null,"LENGTH":719.492384682213},"bbox":[147914.3906,175589.50150566,148325.593404,176153.221]},{"type":"Feature","id":"TramNetwork.fid--291372a6_1a02c497e3d_-6832","geometry":{"type":"LineString","coordinates":[[147915.55628846,176154.16969199],[147917.08649255,176151.96531524],[147920.68411426,176146.57766521],[147924.88305688,176140.29784781],[147927.95651174,176135.29711817],[147929.4927751,176132.65940597],[147930.77831776,176130.34302178],[147932.62696213,176126.83243167],[147934.91742539,176122.34333991],[147938.87091499,176113.57398652],[147941.84800665,176106.67919713],[147945.52610539,176097.70475081],[147948.17793621,176091.63103362],[147950.30738435,176086.98041413],[147952.50224501,176082.48225987],[147954.07168505,176079.50106321],[147956.33415964,176075.29878194],[147958.50446785,176071.56242501],[147960.70198114,176068.05260192],[147964.22376718,176062.74738858],[147968.85966378,176056.08174666],[147972.88097769,176050.44829839],[147977.06187278,176044.61973326],[147981.17413285,176038.80284577],[147984.38212806,176034.39363551],[147986.55799232,176031.35316113],[147990.50514951,176025.79092705],[147994.58330477,176020.04282927],[147998.20580109,176014.93723282],[148000,176012.43928732],[148007.69836527,176001.80007328],[148026.75004099,175974.85551941],[148041.195,175954.891],[148102.641,175868.517],[148115.72693367,175850.06709353],[148136.59801358,175820.88594449],[148145.427,175808.34],[148150.766,175800.826],[148158.532,175789.897],[148168.975,175775.269],[148172.315,175770.357],[148175.17,175766.003],[148177.861,175761.742],[148180.605,175757.009],[148182.964,175752.729],[148187.78,175743.314],[148190.172,175738.192],[148192.326,175733.241],[148194.316,175728.332],[148197.285,175720.242],[148199.019,175714.739],[148201.216,175707.531],[148207.204,175684.455],[148215.135,175653.004],[148216.051,175649.837],[148217.039,175647.714],[148218.074,175645.96],[148219.697,175643.696],[148221.621,175641.796],[148223.624,175640.072],[148226.269,175638.54],[148229.614,175636.954],[148233.808,175635.16],[148261.874,175623.483],[148274.312,175618.487],[148284.624,175614.222],[148297.807,175608.866],[148304.401,175606.003],[148307.291,175604.631],[148310.063,175603.096],[148312.792,175601.294],[148317.0965,175598.1649],[148320.6894,175595.3062],[148324.0404,175592.6161],[148326.39527388,175590.64444645]]},"geometry_name":"GEOM","properties":{"INSPIRE_ID":"https://databrussels.be/id/rail/22720","TYPE":"TW","LVL":0,"SLOPE":null,"LENGTH":718.878803586877},"bbox":[147915.55628846,175590.64444645,148326.39527388,176154.16969199]},{"type":"Feature","id":"TramNetwork.fid--291372a6_1a02c497e3d_-681c","geometry":{"type":"LineString","coordinates":[[147777.80111486,176235.4811392],[147779.75200133,176234.48666525],[147782.14046096,176233.39124931],[147785.68345815,176231.85699409],[147793.17012639,176228.81002134],[147799.41123358,176226.36243585],[147805.77762377,176223.73129513],[147811.9835015,176220.91802265],[147818.290196,176217.72612764],[147825.32166173,176213.83073186],[147830.94315216,176210.7221879],[147838.91588101,176206.17280669],[147846.23840473,176201.97036825],[147851.3781051,176198.74876578],[147854.25572042,176196.9525802]]},"geometry_name":"GEOM","properties":{"INSPIRE_ID":"https://databrussels.be/id/rail/23802","TYPE":"TB","LVL":0,"SLOPE":null,"LENGTH":85.7783838816331},"bbox":[147777.80111486,176196.9525802,147854.25572042,176235.4811392]},{"type":"Feature","id":"TramNetwork.fid--291372a6_1a02c497e3d_-681d","geometry":{"type":"LineString","coordinates":[[147824.65922869,176208.09135456],[147818.84259216,176211.62361565],[147811.65495331,176216.1714938],[147805.34569202,176220.32066731],[147800.53093248,176223.29625702],[147795.56512035,176225.99524558],[147790.6298559,176228.66925284],[147784.12786546,176232.19959552],[147777.80111486,176235.4811392]]},"geometry_name":"GEOM","properties":{"INSPIRE_ID":"https://databrussels.be/id/rail/23803","TYPE":"TB","LVL":0,"SLOPE":null,"LENGTH":54.3128767424681},"bbox":[147777.80111486,176208.09135456,147824.65922869,176235.4811392]},{"type":"Feature","id":"TramNetwork.fid--291372a6_1a02c497e3d_-681e","geometry":{"type":"LineString","coordinates":[[147825.37427521,176209.43798672],[147819.57127253,176212.82264308],[147812.41546786,176217.35037858],[147806.10000355,176221.50363139],[147801.23519004,176224.51015518],[147796.23422771,176227.22824836],[147791.29870104,176229.9023977],[147784.78657297,176233.43824473],[147778.77554227,176236.56836385],[147774.9449395,176238.63677225]]},"geometry_name":"GEOM","properties":{"INSPIRE_ID":"https://databrussels.be/id/rail/23804","TYPE":"TB","LVL":0,"SLOPE":null,"LENGTH":58.3094933616255},"bbox":[147774.9449395,176209.43798672,147825.37427521,176238.63677225]},{"type":"Feature","id":"TramNetwork.fid--291372a6_1a02c497e3d_-6818","geometry":{"type":"LineString","coordinates":[[147855.12284128,176198.1556792],[147859.27701317,176195.16596905],[147863.36388674,176192.13368836],[147868.12731655,176188.52500314],[147873.15141177,176184.57079204],[147877.25553677,176181.21207534],[147882.10222609,176176.98914986],[147887.71741108,176171.75022149],[147892.25898331,176167.15167034],[147898.93115634,176159.93063617],[147903.62600016,176154.37931318],[147907.39718662,176149.5937319],[147911.66593757,176143.7511351],[147915.56079278,176137.95329545],[147918.80081434,176132.75040229],[147921.55981803,176128.04374627],[147924.38325423,176122.81468558],[147927.54506811,176116.42580588],[147930.23272666,176110.55610487],[147932.70759484,176104.39771487],[147935.77309569,176095.96973479],[147937.90843283,176089.08510114],[147939.81922315,176081.90790378],[147941.51503638,176074.43845833],[147942.24152043,176070.61724519],[147943.88837437,176062.41120485]]},"geometry_name":"GEOM","properties":{"INSPIRE_ID":"https://databrussels.be/id/rail/23805","TYPE":"TB","LVL":0,"SLOPE":null,"LENGTH":167.137829997307},"bbox":[147855.12284128,176062.41120485,147943.88837437,176198.1556792]},{"type":"Feature","id":"TramNetwork.fid--291372a6_1a02c497e3d_-682e","geometry":{"type":"LineString","coordinates":[[147825.37427521,176209.43798672],[147820.56262671,176211.85738702],[147810.73499333,176216.67929366],[147804.97381195,176219.57697991],[147797.679169,176223.30331767],[147790.79999323,176226.7599062],[147785.64989428,176229.41507897],[147778.8686788,176232.97549724],[147773.73321075,176235.73674107],[147767.46815218,176239.09525456],[147760.9195381,176242.62185192],[147756.4437228,176245.1121315],[147749.38009655,176248.89931985]]},"geometry_name":"GEOM","properties":{"INSPIRE_ID":"https://databrussels.be/id/rail/23806","TYPE":"TB","LVL":0,"SLOPE":null,"LENGTH":85.6386135557916},"bbox":[147749.38009655,176209.43798672,147825.37427521,176248.89931985]},{"type":"Feature","id":"TramNetwork.fid--291372a6_1a02c497e3d_-682f","geometry":{"type":"LineString","coordinates":[[147824.65922869,176208.09135456],[147819.88450528,176210.49218814],[147810.05679222,176215.31413386],[147804.28462275,176218.21734677],[147796.99024857,176221.94354723],[147790.10852544,176225.40141574],[147784.94632975,176228.06282508],[147778.15342657,176231.62937987],[147773.01218104,176234.39373014],[147766.74668246,176237.75247951],[147760.18756864,176241.28473124],[147755.71297936,176243.77432869],[147748.6503057,176247.5610063]]},"geometry_name":"GEOM","properties":{"INSPIRE_ID":"https://databrussels.be/id/rail/23807","TYPE":"TB","LVL":0,"SLOPE":null,"LENGTH":85.6555318263877},"bbox":[147748.6503057,176208.09135456,147824.65922869,176247.5610063]},{"type":"Feature","id":"TramNetwork.fid--291372a6_1a02c497e3d_-6819","geometry":{"type":"LineString","coordinates":[[147854.2557,176196.9527],[147858.4021,176193.9687],[147862.4743,176190.9471],[147867.2209,176187.3513],[147872.2231,176183.4143],[147876.2987,176180.0789],[147881.1089,176175.8877],[147886.6835,176170.6865],[147889.4953,176167.8395],[147891.1865,176166.1271],[147893.05,176164.1103],[147897.8199,176158.9481],[147902.4771,176153.4413],[147906.2157,176148.6971],[147910.4513,176142.8999],[147914.3155,176137.1477],[147917.5315,176131.9833],[147920.2673,176127.3163],[147923.0659,176122.1333],[147926.2061,176115.7881],[147928.8699,176109.9707],[147931.3223,176103.8677],[147934.3673,176095.4963],[147936.4831,176088.6745],[147938.3791,176081.5529],[147940.0631,176074.1357],[147940.7861,176070.3329],[147941.8163,176065.1995]]},"geometry_name":"GEOM","properties":{"INSPIRE_ID":"https://databrussels.be/id/rail/23964","TYPE":"TB","LVL":0,"SLOPE":null,"LENGTH":162.886704597626},"bbox":[147854.2557,176065.1995,147941.8163,176196.9527]},{"type":"Feature","id":"TramNetwork.fid--291372a6_1a02c497e3d_-681f","geometry":{"type":"LineString","coordinates":[[147774.9449,176238.6368],[147777.4969,176237.2739],[147778.4645,176236.7751],[147780.3857,176235.7959],[147782.7325,176234.7195],[147786.2465,176233.1979],[147793.7097,176230.1603],[147799.9545,176227.7115],[147806.3557,176225.0659],[147812.6123,176222.2297],[147818.9711,176219.0113],[147826.0259,176215.1031],[147831.6553,176211.9901],[147839.6381,176207.4349],[147842.2178,176205.9544],[147846.9869,176203.2175],[147852.1493,176199.9817],[147855.0571,176198.2049]]},"geometry_name":"GEOM","properties":{"INSPIRE_ID":"https://databrussels.be/id/rail/23965","TYPE":"TB","LVL":0,"SLOPE":null,"LENGTH":89.8995555682508},"bbox":[147774.9449,176198.2049,147855.0571,176238.6368]},{"type":"Feature","id":"TramNetwork.fid--291372a6_1a02c497e3d_-6828","geometry":{"type":"LineString","coordinates":[[147750.9322,176251.7589],[147774.9449,176238.6368]]},"geometry_name":"GEOM","properties":{"INSPIRE_ID":"https://databrussels.be/id/rail/24045","TYPE":"TB","LVL":0,"SLOPE":null,"LENGTH":27.3641968588557},"bbox":[147750.9322,176238.6368,147774.9449,176251.7589]},{"type":"Feature","id":"TramNetwork.fid--291372a6_1a02c497e3d_-682b","geometry":{"type":"LineString","coordinates":[[147750.23391796,176250.46508456],[147760.31798071,176244.97013199],[147772.48516926,176238.30193487],[147776.82123432,176235.9862315],[147777.80111486,176235.4811392]]},"geometry_name":"GEOM","properties":{"INSPIRE_ID":"https://databrussels.be/id/rail/24046","TYPE":"TB","LVL":0,"SLOPE":null,"LENGTH":31.3767363311529},"bbox":[147750.23391796,176235.4811392,147777.80111486,176250.46508456]},{"type":"Feature","id":"TramNetwork.fid--291372a6_1a02c497e3d_-681a","geometry":{"type":"LineString","coordinates":[[147939.07038639,176068.89412837],[147938.32081684,176073.26976804],[147937.61946953,176076.86656299],[147936.35755171,176082.11874115],[147935.29661937,176086.25552697],[147933.89207761,176090.95720837],[147932.31345161,176095.87432966],[147930.74126352,176100.20368094],[147928.62108289,176105.75852603],[147926.31045168,176111.14482245],[147923.73077179,176116.69384908],[147920.79701447,176122.47335586],[147918.60963162,176126.50337271],[147916.2071438,176130.67778968],[147913.51384271,176135.00850263],[147910.50295022,176139.61947541],[147907.67614036,176143.63072961],[147904.38533911,176148.08885857],[147900.7365071,176152.74249596],[147896.53294759,176157.70346935],[147894.52733383,176159.95370807],[147887.86557479,176166.92429214],[147882.40894085,176172.10452295],[147877.02767838,176176.89508504],[147872.2254937,176180.92549469],[147867.33661071,176184.74140976],[147859.64176096,176190.24732892],[147853.21708019,176194.41587628],[147846.98260185,176198.23136776],[147838.96451551,176202.55047227],[147833.85698713,176205.15272807],[147828.82156024,176207.7046177],[147825.37427521,176209.43798672]]},"geometry_name":"GEOM","properties":{"INSPIRE_ID":"https://databrussels.be/id/rail/24047","TYPE":"TB","LVL":0,"SLOPE":null,"LENGTH":188.363161775391},"bbox":[147825.37427521,176068.89412837,147939.07038639,176209.43798672]},{"type":"Feature","id":"TramNetwork.fid--291372a6_1a02c497e3d_-681b","geometry":{"type":"LineString","coordinates":[[147937.06059766,176071.59843289],[147936.8213284,176072.99517592],[147936.12962963,176076.54248924],[147934.878125,176081.75132709],[147933.82751202,176085.84787567],[147932.4359736,176090.50602857],[147930.87087203,176095.38102383],[147929.31272389,176099.67171315],[147927.20800954,176105.18603681],[147924.91857935,176110.52291167],[147922.35961868,176116.02737017],[147919.44729043,176121.76466164],[147917.27900008,176125.75950263],[147914.89898044,176129.89488024],[147912.22831803,176134.18919117],[147909.24139412,176138.76345773],[147906.43979102,176142.73894344],[147903.17210835,176147.16575309],[147899.55481634,176151.77916507],[147895.38231159,176156.70348816],[147893.40703022,176158.91969482],[147886.78919323,176165.84432071],[147881.37714907,176170.98222042],[147876.0307155,176175.74177678],[147871.26626842,176179.74051376],[147866.42375387,176183.52023692],[147858.78296224,176188.9874757],[147852.40424519,176193.12620028],[147846.22272705,176196.90928019],[147838.25697635,176201.20019305],[147833.16645369,176203.79378453],[147828.13463797,176206.34384406],[147824.65922869,176208.09135456]]},"geometry_name":"GEOM","properties":{"INSPIRE_ID":"https://databrussels.be/id/rail/24048","TYPE":"TB","LVL":0,"SLOPE":null,"LENGTH":183.966471986945},"bbox":[147824.65922869,176071.59843289,147937.06059766,176208.09135456]},{"type":"Feature","id":"TramNetwork.fid--291372a6_1a02c497e3d_-6826","geometry":{"type":"LineString","coordinates":[[147756.81101833,176264.07538653],[147765.56893807,176259.16730301],[147770.50031714,176256.34963807],[147777.15885136,176252.37790024],[147784.07749327,176248.15301934],[147791.10845368,176243.701591],[147794.72346659,176241.40421065],[147800.25402185,176237.76422753],[147805.37785603,176234.34004324],[147811.8508498,176229.80316454],[147819.26196516,176224.58496029],[147824.57565993,176220.76468857],[147830.43540393,176216.4634438],[147836.60062652,176211.94969987],[147842.68328525,176207.45798182],[147849.21392077,176202.57722009],[147855.12284128,176198.1556792]]},"geometry_name":"GEOM","properties":{"INSPIRE_ID":"https://databrussels.be/id/rail/24049","TYPE":"TB","LVL":0,"SLOPE":null,"LENGTH":118.484490751109},"bbox":[147756.81101833,176198.1556792,147855.12284128,176264.07538653]},{"type":"Feature","id":"TramNetwork.fid--291372a6_1a02c497e3d_-6827","geometry":{"type":"LineString","coordinates":[[147756.0861,176262.7817],[147764.8387,176257.8767],[147769.7525,176255.0689],[147776.3925,176251.1083],[147783.2945,176246.8937],[147790.3141,176242.4493],[147793.9181,176240.1589],[147799.4343,176236.5283],[147804.5403,176233.1161],[147810.9985,176228.5897],[147818.4023,176223.3767],[147823.7041,176219.5649],[147829.5587,176215.2675],[147835.7221,176210.7549],[147841.7989,176206.2675],[147848.3257,176201.3897],[147854.2557,176196.9527]]},"geometry_name":"GEOM","properties":{"INSPIRE_ID":"https://databrussels.be/id/rail/24050","TYPE":"TB","LVL":0,"SLOPE":null,"LENGTH":118.315706037218},"bbox":[147756.0861,176196.9527,147854.2557,176262.7817]}],"numberReturned":36,"grand_bruxelles_source":{"authority":"Paradigm / Brussels-Capital Region","service":"https://geoservices-urbis.irisnet.be/geoserver/urbisvector/wfs","layer":"urbisvector:TramNetwork","crs":"EPSG:31370","bbox":[147500.0,176000.0,148000.0,176500.0],"cell_id":"bxl-e147500-n176000-s500","ownership":"bbox_intersection_source_unclipped"}}
