{"type":"FeatureCollection","totalFeatures":16,"numberMatched":16,"timeStamp":"2026-08-23T01:01:57.926Z","crs":{"type":"name","properties":{"name":"urn:ogc:def:crs:EPSG::31370"}},"bbox":[143894.83226291,168281.83404777,146404.09165254,169585.23484644],"features":[{"type":"Feature","id":"TrainNetwork.fid-1007f30f_1a02c00cd1e_52b8","geometry":{"type":"LineString","coordinates":[[145346.406,169137.893],[145346.46764694,169140.08791802],[145346.439,169141.681],[145346.26808005,169144.12003316],[145345.919,169146.54],[145345.87183241,169146.7835828],[145345.819,169147.026],[145345.50982884,169148.28988358],[145345.149,169149.54],[145344.196321,169152.00776063],[145342.994,169154.364],[145341.15979603,169157.15763751],[145339.006,169159.713],[145337.44373038,169161.25988476],[145335.786,169162.704],[145334.34827672,169163.79009947],[145332.852,169164.794],[145330.68148131,169166.03708854],[145328.414,169167.093],[145326.36778892,169167.84695619],[145324.273,169168.453],[145322.28665056,169168.92936908],[145320.58963249,169169.24772601]]},"geometry_name":"GEOM","properties":{"INSPIRE_ID":"https://databrussels.be/id/rail/20972","TYPE":"TW","LVL":0,"SLOPE":null,"LENGTH":44.8861370816301},"bbox":[145320.58963249,169137.893,145346.46764694,169169.24772601]},{"type":"Feature","id":"TrainNetwork.fid-1007f30f_1a02c00cd1e_52af","geometry":{"type":"LineString","coordinates":[[145306.39529325,169106.84385535],[145305.9568,169106.9381],[145304.8694,169107.1807],[145303.7826,169107.4257],[145302.695,169107.667],[145301.4912,169107.9318],[145300.2879,169108.1987],[145299.0843,169108.4647],[145297.88,169108.727],[145296.2954,169109.0676],[145294.709,169109.4],[145292.2193,169109.9237],[145289.717,169110.384],[145287.1637,169110.7318],[145284.595,169110.937],[145282.087,169110.9542],[145279.584,169110.796],[145277.0933,169110.4738],[145274.64,169109.936],[145272.2557,169109.2315],[145269.917,169108.388],[145267.543,169107.3704],[145265.233,169106.215],[145264.3396,169105.7622],[145263.4648,169105.2746],[145260.5528,169103.4974],[145257.7132,169101.6069],[145249.8387,169096.5855],[145225.296745,169080.935593],[145220.11017038,169077.65980307],[145206.01353698,169068.65195435],[145197.43360355,169063.19199672],[145184.15376321,169054.69209891],[145162.19380596,169040.66212622],[145149.72372327,169032.67207324],[145132.53356997,169021.7119755],[145117.1334881,169011.88192325],[145105.28349484,169004.34192753],[145098.48242251,169000],[145092.12272664,168995.99855206],[145078.23408652,168987.1248035],[145062.07255455,168976.80069252],[145047.92218562,168967.78678006],[145031.53924409,168957.31750754],[145016.26367889,168947.62201538],[145000,168937.21226836],[144995.08033954,168934.07054866],[144976.34521302,168922.15119664],[144959.41933787,168911.38117796],[144944.74761705,168902.03792595],[144918.80525055,168885.43223473],[144904.41037201,168876.24753819],[144890.16386552,168867.0827725],[144879.87191527,168860.52367853],[144873.08987024,168856.03561118],[144860.24682641,168847.85717702],[144845.48251779,168838.3838412],[144833.02401286,168830.40756968],[144820.02298415,168822.04950849],[144805.08419015,168812.54878533],[144792.88186712,168804.71181317],[144783.13760074,168798.50334222],[144772.83301524,168791.89883842],[144760.19801408,168783.79041535],[144743.3582943,168773.04499448],[144730.2354084,168764.63475768],[144720.031,168758.12],[144712.49,168753.289],[144712.456,168753.27],[144704.054,168747.888],[144691.479,168739.834],[144678.824,168731.735],[144666.132,168723.607],[144649.344,168712.854],[144632.644,168702.175],[144615.673,168691.307],[144598.808,168680.513],[144586.204,168672.44],[144573.719,168664.439],[144560.894,168656.233],[144548.333,168648.197],[144531.367,168637.34],[144514.681,168626.66],[144497.817,168615.867],[144485.275,168607.833],[144472.575,168599.703],[144455.703,168588.904],[144438.778,168578.069],[144421.814,168567.205],[144408.877,168558.912],[144400.672,168553.663],[144387.81,168545.42],[144370.915,168534.629],[144354.208,168523.919],[144333.078,168510.395],[144316.313,168499.658],[144295.249,168486.18],[144274.183,168472.687],[144253.096,168459.167],[144236.343,168448.424],[144215.32,168434.948],[144198.466,168424.136],[144181.697,168413.385],[144178.275,168411.193],[144173.246,168407.974],[144152.141,168394.432],[144147.98,168391.757],[144143.809,168389.076],[144127.002,168378.311],[144110.165,168367.503],[144093.346,168356.712],[144071.65,168342.803],[144055.464,168332.465],[144047.04822455,168327.23421545],[144038.514,168322.199],[144034.18743924,168319.7796959],[144029.827,168317.422],[144025.43621031,168315.13779188],[144021.01,168312.923],[144016.5935366,168310.79956138],[144012.146,168308.742],[144007.64755756,168306.73717601],[144003.12,168304.799],[144000,168303.52036351],[143998.578854,168302.93795033],[143994.01,168301.146],[143989.38010223,168299.4116839],[143984.724,168297.749],[143982.39641691,168296.94693308],[143980.063,168296.162],[143976.25440331,168294.92157873],[143972.429,168293.734],[143971.47860995,168293.44924158],[143970.526,168293.172],[143965.7015066,168291.8575988],[143960.844,168290.671],[143956.6602755,168289.77157465],[143952.455,168288.979],[143951.6625243,168288.8433621],[143950.869,168288.714],[143943.66769066,168287.67196172],[143936.448,168286.766],[143932.542,168286.295],[143926.061,168285.518],[143917.445,168284.498],[143909.433,168283.543],[143895.12064358,168281.83404777]]},"geometry_name":"GEOM","properties":{"INSPIRE_ID":"https://databrussels.be/id/rail/21126","TYPE":"TW","LVL":0,"SLOPE":null,"LENGTH":1648.68396928536},"bbox":[143895.12064358,168281.83404777,145306.39529325,169110.9542]},{"type":"Feature","id":"TrainNetwork.fid-1007f30f_1a02c00cd1e_52b9","geometry":{"type":"LineString","coordinates":[[145320.58963249,169169.24772601],[145319.666,169169.392],[145318.87318438,169169.5078117]]},"geometry_name":"GEOM","properties":{"INSPIRE_ID":"https://databrussels.be/id/rail/21302","TYPE":"TW","LVL":0,"SLOPE":null,"LENGTH":1.73606224062239},"bbox":[145318.87318438,169169.24772601,145320.58963249,169169.5078117]},{"type":"Feature","id":"TrainNetwork.fid-1007f30f_1a02c00cd1e_52ba","geometry":{"type":"LineString","coordinates":[[145320.77476838,169170.67229622],[145319.894,169170.809],[145319.30221807,169170.90199067]]},"geometry_name":"GEOM","properties":{"INSPIRE_ID":"https://databrussels.be/id/rail/21313","TYPE":"TW","LVL":0,"SLOPE":null,"LENGTH":1.49035762141569},"bbox":[145319.30221807,169170.67229622,145320.77476838,169170.90199067]},{"type":"Feature","id":"TrainNetwork.fid-1007f30f_1a02c00cd1e_52ac","geometry":{"type":"LineString","coordinates":[[145320.77476838,169170.67229622],[145324.52,169170.091],[145326.74999326,169169.74357685],[145328.99,169169.468],[145330.2815911,169169.3519414],[145331.577,169169.292],[145333.68433966,169169.33724297],[145335.782,169169.544],[145337.89002624,169169.95140862],[145339.949,169170.56],[145342.32166236,169171.55206996],[145344.584,169172.775],[145346.66220524,169174.20028585],[145348.632,169175.772],[145349.73260348,169176.73628764],[145350.803,169177.734],[145352.369,169179.186],[145356.006,169182.544],[145359.681,169185.94],[145378.074,169202.932],[145396.458,169219.918],[145414.841,169236.897],[145433.2109,169253.8644],[145451.612,169270.851],[145467.2949,169285.3462],[145471.5491,169289.39],[145479.6983,169297.5127],[145487.3977,169305.9794],[145496.42,169316.4305],[145503.4315,169325.294],[145512.5067,169336.8563],[145516.9517,169342.5713],[145522.7196,169349.9268],[145527.0247,169354.5699],[145530.2101,169357.1346],[145533.6999,169359.2666],[145538.2654,169361.3254],[145543.0397,169362.8385],[145552.6705,169365.2462],[145572.9906,169370.5114],[145589.0508,169374.6389],[145603.3714,169378.3563],[145621.0985,169383.0196],[145632.8725,169385.7316],[145655.759,169391.0894],[145679.3731,169397.1418],[145698.0594,169402.0696],[145924.61509651,169460.72965461],[145974.9411326,169474.08317737],[146044.91017848,169491.77311135],[146124.92508417,169511.87018441],[146149.83824008,169518.35765163],[146170.77426189,169523.69456376],[146187.15212261,169527.95196412],[146205.03320666,169532.56111551],[146224.07807653,169537.69182876],[146248.32967562,169543.8682649],[146267.11996735,169548.72346873],[146286.16483721,169553.66011245],[146316.56150495,169561.43038175],[146332.75257415,169565.45426735],[146356.78,169571.45],[146374.72,169576.05],[146385.65,169578.92],[146391.07,169580.46],[146393.76,169581.29],[146397.95,169582.75],[146402.08,169584.36],[146404.09165254,169585.23484644]]},"geometry_name":"GEOM","properties":{"INSPIRE_ID":"https://databrussels.be/id/rail/21314","TYPE":"TW","LVL":0,"SLOPE":null,"LENGTH":1190.25368054742},"bbox":[145320.77476838,169169.292,146404.09165254,169585.23484644]},{"type":"Feature","id":"TrainNetwork.fid-1007f30f_1a02c00cd1e_52b5","geometry":{"type":"LineString","coordinates":[[145306.73907576,169108.23994321],[145307.348,169108.105],[145307.944,169107.9798],[145308.543,169107.87],[145309.7472,169107.6804],[145310.957,169107.531],[145312.3818,169107.416],[145313.81,169107.357],[145313.901,169107.356],[145316.4083,169107.4248],[145318.902,169107.694],[145321.461,169108.1779],[145323.972,169108.869],[145326.4358,169109.7789],[145328.818,169110.885],[145331.0761,169112.1518],[145333.225,169113.596],[145335.2751,169115.2438],[145337.19,169117.047],[145338.8884,169118.8913],[145340.441,169120.86],[145341.9047,169123.0416],[145343.179,169125.339],[145344.2125,169127.7168],[145345.043,169130.173],[145345.6714,169132.6749],[145346.132,169135.213],[145346.306,169136.5492],[145346.406,169137.893]]},"geometry_name":"GEOM","properties":{"INSPIRE_ID":"https://databrussels.be/id/rail/21438","TYPE":"TW","LVL":0,"SLOPE":null,"LENGTH":56.4548150627469},"bbox":[145306.73907576,169107.356,145346.406,169137.893]},{"type":"Feature","id":"TrainNetwork.fid-1007f30f_1a02c00cd1e_52ae","geometry":{"type":"LineString","coordinates":[[145347.837,169137.806],[145348.069,169142.736],[145348.273,169146.717],[145348.298,169147.219],[145348.448,169149.956],[145348.5863,169152.3335],[145348.769,169154.708],[145348.9941,169156.9854],[145349.302,169159.253],[145349.7246,169161.5038],[145350.27,169163.728],[145350.9341,169165.8439],[145351.732,169167.913],[145352.6992,169169.9858],[145353.798,169171.992],[145354.8364,169173.6313],[145355.969,169175.207],[145357.471,169177.0683],[145359.061,169178.855],[145360.8854,169180.7287],[145362.765,169182.547],[145381.184,169199.58],[145399.562,169216.559],[145417.949,169233.537],[145436.32,169250.505],[145454.714,169267.495],[145470.7871,169282.3511],[145475.7998,169287.0272],[145484.1227,169295.5006],[145492.2235,169304.2032],[145499.4746,169312.6586],[145506.8851,169321.8217],[145514.0821,169330.9179],[145521.2993,169340.033],[145526.6755,169346.8279],[145529.4446,169349.7101],[145532.5229,169352.2593],[145535.1944,169354.0973],[145538.0968,169355.5434],[145541.7041,169356.9733],[145545.42,169358.091],[145557.8081,169361.3129],[145577.5131,169366.3828],[145590.2778,169369.7301],[145608.5262,169374.5231],[145621.8817,169377.8932],[145643.7822,169383.4869],[145656.0965,169386.5842],[145675.9257,169391.7288],[145687.586,169394.6751],[145697.1283,169397.1231],[145925.87492134,169456.46863805],[145976.01323959,169469.94493748],[146045.95475143,169487.62791016],[146126.00236863,169507.73319926],[146150.9048794,169514.21789445],[146171.840019,169519.55458169],[146188.22341515,169523.81342098],[146206.12278406,169528.4272856],[146225.1616783,169533.55638901],[146249.3919517,169539.72739389],[146268.1910369,169544.58486985],[146287.23054997,169549.52012503],[146317.6064278,169557.28507983],[146334.11281889,169561.3873308],[146343.59,169563.82],[146357.94,169567.45],[146371.29,169570.91],[146392.21,169576.34],[146396.99,169577.57],[146401.78,169578.81],[146403.99298686,169579.50685544]]},"geometry_name":"GEOM","properties":{"INSPIRE_ID":"https://databrussels.be/id/rail/21439","TYPE":"TW","LVL":0,"SLOPE":null,"LENGTH":1190.41135478728},"bbox":[145347.837,169137.806,146403.99298686,169579.50685544]},{"type":"Feature","id":"TrainNetwork.fid-1007f30f_1a02c00cd1e_52b3","geometry":{"type":"LineString","coordinates":[[145306.39529325,169106.84385535],[145307.046,169106.704],[145307.6688,169106.575],[145308.294,169106.458],[145309.5375,169106.2602],[145310.787,169106.104],[145312.3318,169105.9673],[145313.882,169105.92],[145316.504,169105.9905],[145319.112,169106.271],[145321.7831,169106.7751],[145324.404,169107.496],[145326.9818,169108.4493],[145329.474,169109.608],[145331.8403,169110.9348],[145334.092,169112.448],[145336.2277,169114.1685],[145338.222,169116.051],[145339.9955,169117.9788],[145341.617,169120.036],[145343.1422,169122.3097],[145344.47,169124.704],[145345.5471,169127.1868],[145346.413,169129.751],[145347.0718,169132.3604],[145347.555,169135.008],[145347.7345,169136.4031],[145347.837,169137.806]]},"geometry_name":"GEOM","properties":{"INSPIRE_ID":"https://databrussels.be/id/rail/21440","TYPE":"TW","LVL":0,"SLOPE":null,"LENGTH":58.9710979340716},"bbox":[145306.39529325,169105.92,145347.837,169137.806]},{"type":"Feature","id":"TrainNetwork.fid-1007f30f_1a02c00cd1e_52b2","geometry":{"type":"LineString","coordinates":[[143930.71688988,168291.00710599],[143931.961,168291.154],[143935.951,168291.637],[143943.80602311,168292.64642308],[143951.637,168293.828],[143955.70937267,168294.5720386],[143959.758,168295.436],[143964.4766257,168296.5898177],[143969.162,168297.872],[143970.07699896,168298.1391246],[143970.99,168298.413],[143974.76947226,168299.58433149],[143978.532,168300.809],[143980.8248327,168301.58017814],[143983.112,168302.368],[143987.69566618,168304.00435182],[143992.254,168305.71],[143996.7634153,168307.47779474],[144000,168308.80461791],[144001.245,168309.315],[144004.18492289,168310.56597409],[144007.111,168311.849],[144008.62051875,168312.520607],[144010.127,168313.199],[144014.50754768,168315.2317197],[144018.859,168317.326],[144023.20829647,168319.50108044],[144027.523,168321.744],[144031.82226867,168324.0655744],[144036.087,168326.45],[144044.5281276,168331.43345867],[144052.851,168336.612],[144069.024,168346.938],[144090.705,168360.841],[144107.521,168371.625],[144124.358,168382.437],[144141.169,168393.209],[144149.49,168398.554],[144170.599,168412.091],[144175.891,168415.48],[144179.059,168417.509],[144195.831,168428.265],[144212.702,168439.085],[144233.7,168452.552],[144250.445,168463.285],[144271.548,168476.814],[144292.61,168490.303],[144313.669,168503.783],[144330.443,168514.525],[144334.764,168517.294],[144351.56,168528.056],[144368.272,168538.745],[144385.152,168549.561],[144398.016,168557.786],[144406.237,168563.045],[144419.169,168571.328],[144436.137,168582.193],[144453.068,168593.029],[144469.932,168603.822],[144482.638,168611.957],[144495.188,168619.995],[144512.044,168630.785],[144528.726,168641.457],[144545.696,168652.32],[144558.243,168660.349],[144571.074,168668.564],[144583.561,168676.56],[144596.177,168684.647],[144613.035,168695.436],[144630.014,168706.308],[144646.695,168716.98],[144663.499,168727.743],[144676.186,168735.861],[144688.847,168743.965],[144701.411,168752.011],[144709.82,168757.396],[144709.857,168757.42],[144717.361,168762.229],[144727.59499043,168768.76264361],[144740.71835425,168777.1731867],[144757.55681575,168787.91780466],[144770.18648716,168796.0228074],[144780.49900072,168802.63239252],[144790.2413293,168808.83962883],[144802.44536049,168816.67769806],[144817.38324079,168826.17784012],[144830.37804436,168834.53189932],[144842.83835968,168842.50932989],[144857.60769026,168851.98588799],[144870.45038934,168860.16410261],[144886.73688932,168870.6179695],[144901.41295003,168880.01090529],[144913.13222485,168887.4926839],[144930.812253,168898.77631808],[144944.83222562,168907.65458296],[144957.95845449,168915.9215706],[144974.93836367,168926.57954793],[144992.05041926,168937.5160912],[145000,168942.56129809],[145013.85842122,168951.40040531],[145029.13321786,168961.09540965],[145045.51306457,168971.56270448],[145059.66373833,168980.57681112],[145075.82270524,168990.89928352],[145089.72429383,168999.78130513],[145090.07187622,169000],[145092.20472056,169001.36823976],[145108.17474903,169011.58825798],[145127.48472134,169023.78824049],[145144.8846998,169035.0882265],[145165.97473494,169048.56824896],[145185.77474952,169061.18825825],[145203.43477642,169072.38827531],[145216.10478137,169080.34827843],[145223.03523,169084.720391],[145247.61430209,169100.40692646],[145265.99471,169112.137431],[145267.40310806,169113.0778318],[145268.772255,169114.074514],[145269.98406109,169115.03410609],[145271.156,169116.042],[145272.66957863,169117.477011],[145274.086,169119.008],[145275.64417417,169120.95322507],[145277.062,169123.003],[145278.17750187,169124.89812862],[145279.163,169126.864],[145280.04238795,169128.92596418],[145280.29714843,169129.68460489],[145280.756,169131.051],[145281.04825875,169132.1194773],[145281.09902876,169132.30508889],[145281.408,169133.568],[145281.76678541,169135.31933765],[145282.065,169137.082],[145282.22168047,169138.11524797],[145282.375,169139.149],[145282.480597,169139.94397333],[145282.576577,169140.740165],[145282.687673,169141.53581813],[145282.838,169142.325],[145283.04333679,169143.4097855],[145283.199638,169144.502714],[145283.35459847,169145.59565582],[145283.556,169146.681],[145284.17048701,169149.23642874],[145284.961,169151.743],[145286.01022834,169154.22211454],[145287.257,169156.608],[145287.33620938,169156.73524526],[145287.425,169156.856],[145288.64780319,169158.71932961],[145290.013,169160.481],[145291.72201411,169162.3677537],[145293.58,169164.108],[145295.6108074,169165.70166517],[145297.771,169167.115],[145300.02144846,169168.32147603],[145302.366,169169.333],[145304.76772184,169170.11860666],[145307.22252101,169170.71811204],[145308.58478752,169170.94204681],[145309.716,169171.128],[145312.14014433,169171.33416131],[145314.573,169171.348],[145316.93978162,169171.19214164],[145319.30221807,169170.90199067]]},"geometry_name":"GEOM","properties":{"INSPIRE_ID":"https://databrussels.be/id/rail/21492","TYPE":"TW","LVL":0,"SLOPE":null,"LENGTH":1659.85668009565},"bbox":[143930.71688988,168291.00710599,145319.30221807,169171.348]},{"type":"Feature","id":"TrainNetwork.fid-1007f30f_1a02c00cd1e_52b1","geometry":{"type":"LineString","coordinates":[[143930.98979141,168289.59722826],[143932.128,168289.732],[143936.121,168290.217],[143944.01589989,168291.23118229],[143951.887,168292.416],[143955.99710255,168293.16584555],[143960.083,168294.038],[143964.83586782,168295.20391929],[143969.556,168296.496],[143970.4915505,168296.76743021],[143971.425,168297.046],[143975.209134,168298.2193466],[143978.976,168299.447],[143981.28439405,168300.22451115],[143983.587,168301.019],[143988.18804151,168302.66066426],[143992.764,168304.371],[143997.29145399,168306.14773251],[144000,168307.2591114],[144000.0001,168307.2591],[144001.7911,168307.9941],[144004.7505,168309.2491],[144007.6961,168310.5371],[144009.1997,168311.2089],[144010.7001,168311.8881],[144015.1037,168313.9333],[144019.4801,168316.0361],[144023.8663,168318.2263],[144028.2161,168320.4881],[144032.5277,168322.8181],[144036.8061,168325.2091],[144045.2713,168330.2121],[144053.6221,168335.4041],[144069.7901,168345.7241],[144091.4711,168359.6281],[144108.2871,168370.4131],[144125.1231,168381.2271],[144141.9341,168391.9941],[144150.2621,168397.3411],[144171.3771,168410.8861],[144176.6481,168414.2591],[144179.8371,168416.3011],[144196.5941,168427.0501],[144213.4501,168437.8601],[144234.4681,168451.3391],[144251.2211,168462.0771],[144272.3351,168475.6151],[144293.3761,168489.0911],[144314.4441,168502.5751],[144331.2171,168513.3181],[144335.5301,168516.0821],[144352.3381,168526.8491],[144369.0481,168537.5411],[144385.9291,168548.3561],[144398.7921,168556.5761],[144407.0161,168561.8351],[144419.9471,168570.1211],[144436.9141,168580.9851],[144453.8441,168591.8231],[144470.7061,168602.6161],[144483.4101,168610.7481],[144495.9521,168618.7801],[144512.8221,168629.5801],[144529.5051,168640.2531],[144546.4671,168651.1121],[144559.0191,168659.1401],[144571.8561,168667.3631],[144584.3341,168675.3501],[144596.9431,168683.4371],[144613.8041,168694.2251],[144630.7791,168705.0951],[144647.4741,168715.7691],[144664.2691,168726.5321],[144676.9611,168734.6531],[144689.6121,168742.7521],[144702.1871,168750.8041],[144710.5871,168756.1851],[144710.6261,168756.2101],[144718.1281,168761.0191],[144718.128,168761.019],[144728.3669473,168767.5558082],[144741.4901714,168775.96626174],[144758.32900077,168786.71111445],[144770.96023039,168794.81711716],[144781.27042609,168801.4252167],[144791.01332122,168807.63281397],[144803.216853,168815.47056246],[144818.15500042,168824.97087441],[144831.15162398,168833.32610363],[144843.61141,168841.30319533],[144858.37927238,168850.77881138],[144871.22207225,168858.95709018],[144887.50995071,168869.41184187],[144902.18453215,168878.80383091],[144913.90303364,168886.28511581],[144931.58084397,168897.56733455],[144945.59718772,168906.44330142],[144958.72099788,168914.70876574],[144975.70493283,168925.36926997],[144992.81999642,168936.3077357],[145000,168940.86452991],[145014.64330293,168950.16744422],[145029.91835036,168959.86260775],[145046.29920697,168970.33054793],[145060.44978125,168979.34459121],[145076.60958519,168989.6675983],[145090.50694845,168998.54692026],[145092.81639876,169000],[145093.0062381,169000.11601293],[145108.96619423,169010.33598484],[145128.28617502,169022.5359727],[145145.68615807,169033.8359617],[145166.76618353,169047.31597798],[145186.56619474,169059.93598512],[145204.22621424,169071.13599749],[145216.89619928,169079.09598809],[145223.787,169083.506],[145248.33664308,169099.16598598],[145266.761797,169110.919218],[145268.14895028,169111.84250238],[145269.497843,169112.820836],[145270.83212257,169113.87300892],[145272.123,169114.978],[145273.69708725,169116.47105205],[145275.17,169118.064],[145276.79398867,169120.09162659],[145278.272,169122.228],[145279.43612715,169124.20339821],[145280.464,169126.253],[145281.05714941,169127.65025195],[145281.38067079,169128.41235485],[145281.81247948,169129.69718259],[145282.128,169130.636],[145282.48816167,169131.94414626],[145282.811,169133.262],[145283.17959739,169135.0552513],[145283.487,169136.86],[145283.64417361,169137.90067636],[145283.797,169138.942],[145283.90704602,169139.73161851],[145284.011864,169140.521948],[145284.12454267,169141.31159653],[145284.258,169142.098],[145284.43841214,169143.17166856],[145284.594887,169144.249086],[145284.75976144,169145.32602225],[145284.965,169146.396],[145285.55214867,169148.84024009],[145286.307,169151.238],[145287.30110986,169153.60258307],[145288.489,169155.876],[145288.56563852,169155.99735772],[145288.652,169156.112],[145289.81848765,169157.88858868],[145291.121,169159.568],[145292.75449438,169161.36891859],[145294.53,169163.03],[145296.45889879,169164.54433633],[145298.511,169165.887],[145300.6494674,169167.0295854],[145302.877,169167.987],[145305.16685677,169168.73485679],[145307.50706389,169169.30596485],[145309.884,169169.697],[145312.18416229,169169.89755794],[145314.493,169169.913],[145314.93129284,169169.89683022],[145315.369,169169.869],[145317.23358148,169169.70034094],[145318.87318438,169169.5078117]]},"geometry_name":"GEOM","properties":{"INSPIRE_ID":"https://databrussels.be/id/rail/21493","TYPE":"TW","LVL":0,"SLOPE":null,"LENGTH":1659.14812186852},"bbox":[143930.98979141,168289.59722826,145318.87318438,169169.913]},{"type":"Feature","id":"TrainNetwork.fid-1007f30f_1a02c00cd1e_52b0","geometry":{"type":"LineString","coordinates":[[143894.83226291,168283.24534979],[143909.287,168284.973],[143911.18695362,168285.19951921],[143917.272,168285.925],[143925.865,168286.942],[143932.371,168287.715],[143936.267,168288.183],[143944.25375593,168289.17935058],[143952.211,168290.389],[143956.37886481,168291.17470011],[143960.525,168292.068],[143965.34377178,168293.24760646],[143970.13,168294.553],[143971.07155512,168294.82591105],[143972.011,168295.106],[143975.82194754,168296.28740912],[143979.616,168297.522],[143981.94251813,168298.30362888],[143984.263,168299.103],[143988.89236047,168300.7573592],[143993.496,168302.482],[143998.0499594,168304.2671782],[144000,168305.06632654],[144002.576,168306.122],[144007.08188094,168308.05209527],[144011.559,168310.048],[144015.98703215,168312.09657393],[144020.384,168314.211],[144024.78197043,168316.41226639],[144029.145,168318.682],[144033.4919335,168321.03028641],[144037.804,168323.442],[144046.31391692,168328.4634235],[144054.705,168333.681],[144070.859,168343.999],[144092.568,168357.918],[144109.391,168368.708],[144126.229,168379.522],[144143.037,168390.287],[144147.207,168392.969],[144151.354,168395.631],[144172.471,168409.185],[144177.524,168412.417],[144180.925,168414.597],[144197.69,168425.344],[144214.543,168436.153],[144235.574,168449.635],[144252.314,168460.369],[144273.413,168473.897],[144294.481,168487.39],[144315.535,168500.864],[144332.307,168511.607],[144353.436,168525.129],[144370.142,168535.837],[144387.022,168546.638],[144399.888,168554.869],[144408.104,168560.123],[144421.039,168568.417],[144437.998,168579.277],[144454.94,168590.121],[144471.798,168600.913],[144484.502,168609.046],[144497.05,168617.08],[144513.916,168627.874],[144530.585,168638.546],[144547.556,168649.404],[144560.114,168657.437],[144572.943,168665.645],[144585.43,168673.649],[144598.032,168681.726],[144614.902,168692.518],[144631.884,168703.391],[144648.563,168714.059],[144665.365,168724.82],[144678.051,168732.941],[144690.704,168741.042],[144703.275,168749.093],[144711.689,168754.48],[144711.708,168754.493],[144719.25016779,168759.32166276],[144729.46322735,168765.84194356],[144742.58625302,168774.25226993],[144759.42560482,168784.997456],[144772.0591,168793.1049],[144782.3661,168799.7109],[144792.1097,168805.9191],[144804.3125,168813.7563],[144819.2511,168823.2569],[144832.2503,168831.6137],[144844.7093,168839.5903],[144859.4751,168849.0647],[144872.29913457,168857.23051413],[144879.09145501,168861.7253813],[144889.39122691,168868.28946005],[144903.63741225,168877.45401914],[144918.03365968,168886.63958911],[144943.97655504,168903.24561885],[144958.64990514,168912.58990842],[144975.57604565,168923.36009594],[144994.31018367,168935.27881908],[145000,168938.91236416],[145015.50236953,168948.81794696],[145030.77769147,168958.51328472],[145047.15965343,168968.98193126],[145061.31011884,168977.99590518],[145077.47083892,168988.31949753],[145091.36357748,168997.19586466],[145095.82032618,169000],[145104.51892629,169005.55209321],[145116.35892918,169013.09209505],[145131.75894265,169022.92210365],[145148.9491303,169033.87222318],[145161.41935308,169041.86236592],[145171.4991688,169048.312248],[145183.3892199,169055.90228062],[145196.65906608,169064.4021821],[145205.23894731,169069.86210652],[145219.33405321,169078.86897915],[145224.571,169082.178],[145249.1155,169097.8279],[145256.934,169102.813],[145259.7203,169104.6606],[145262.571,169106.4072],[145263.5444,169106.9567],[145264.537,169107.471],[145266.9226,169108.6554],[145269.365,169109.718],[145271.7881,169110.601],[145274.264,169111.323],[145276.8387,169111.8686],[145279.446,169112.227],[145282.053,169112.3905],[145284.665,169112.371],[145287.322,169112.1582],[145289.963,169111.798],[145292.4972,169111.3359],[145295.017,169110.801],[145296.45420428,169110.49642691],[145298.188,169110.129],[145302.998,169109.069],[145306.73907576,169108.23994321]]},"geometry_name":"GEOM","properties":{"INSPIRE_ID":"https://databrussels.be/id/rail/21509","TYPE":"TW","LVL":0,"SLOPE":null,"LENGTH":1649.32026925915},"bbox":[143894.83226291,168283.24534979,145306.73907576,169112.3905]},{"type":"Feature","id":"TrainNetwork.fid-1007f30f_1a02c00cd1e_52ad","geometry":{"type":"LineString","coordinates":[[146404.01986759,169581.06740404],[146401.37,169580.23],[146396.62,169579.01],[146391.84,169577.77],[146370.92,169572.34],[146357.57,169568.89],[146343.23,169565.25],[146333.64353163,169562.79043236],[146317.24592725,169558.71521761],[146286.86287685,169550.9484293],[146267.82151568,169546.01269507],[146249.02546424,169541.156003],[146224.78783344,169534.98312432],[146205.74687759,169529.85346551],[146187.853817,169525.24122697],[146171.47233058,169520.98288411],[146150.53688662,169515.64611928],[146125.63070325,169509.16046774],[146045.59437159,169489.05801319],[145975.64336045,169471.37263885],[145925.43920853,169457.89201501],[145696.7555,169398.5761],[145687.2159,169396.1287],[145675.5536,169393.182],[145655.7252,169388.0376],[145643.4137,169384.9409],[145621.5125,169379.347],[145608.1521,169375.9757],[145589.897,169371.1809],[145577.1359,169367.8346],[145557.4324,169362.7651],[145545.0459,169359.5436],[145541.2193,169358.3929],[145537.5041,169356.9215],[145534.4362,169355.3916],[145531.6106,169353.4503],[145528.4025,169350.7894],[145525.5172,169347.7815],[145520.1231,169340.9639],[145512.906,169331.8488],[145505.7138,169322.7587],[145498.3219,169313.6187],[145491.1047,169305.2029],[145483.0385,169296.5373],[145474.7476,169288.0965],[145469.6642,169283.262],[145453.744,169268.55],[145435.343,169251.553],[145416.966,169234.583],[145398.591,169217.613],[145380.217,169200.633],[145361.77,169183.583],[145359.863,169181.7371],[145358.012,169179.835],[145356.3662,169177.9894],[145354.812,169176.066],[145353.6394,169174.4301],[145352.565,169172.728],[145351.4184,169170.631],[145350.408,169168.465],[145349.5798,169166.3201],[145348.889,169164.127],[145348.3176,169161.8201],[145347.875,169159.485],[145347.5646,169157.1654],[145347.339,169154.836],[145347.193,169152.9726],[145347.08,169151.107],[145346.997,169149.643],[145346.93349792,169148.50862187],[145346.865,169147.285],[145346.836,169146.778],[145346.635,169142.784],[145346.406,169137.893]]},"geometry_name":"GEOM","properties":{"INSPIRE_ID":"https://databrussels.be/id/rail/21510","TYPE":"TW","LVL":0,"SLOPE":null,"LENGTH":1192.66670812154},"bbox":[145346.406,169137.893,146404.01986759,169581.06740404]},{"type":"Feature","id":"TrainNetwork.fid-1007f30f_1a02c00cd1e_52ab","geometry":{"type":"LineString","coordinates":[[146404.06362296,169583.60760227],[146402.65,169582.99],[146398.46,169581.36],[146394.22,169579.89],[146391.49,169579.04],[146388.77,169578.27],[146386.06,169577.5],[146375.09,169574.62],[146357.15,169570.02],[146333.22251666,169564.0492067],[146316.92250885,169559.99824714],[146286.53302369,169552.22981392],[146267.49000451,169547.29364991],[146248.69667479,169542.4376611],[146224.45244338,169536.26310137],[146205.40963799,169531.13294429],[146187.52223681,169526.52216456],[146171.14246369,169522.26426707],[146150.20674667,169516.92743264],[146125.29726849,169510.44092311],[146045.2710615,169490.34101154],[145975.31152818,169472.65348258],[145925.04370139,169459.29119214],[145698.4419,169400.6192],[145679.7506,169395.69],[145656.1162,169389.6325],[145633.2118,169384.2705],[145621.4578,169381.5631],[145603.7507,169376.905],[145589.4259,169373.1866],[145573.3654,169369.059],[145553.0406,169363.7925],[145543.4061,169361.3839],[145538.8,169359.9239],[145534.3952,169357.9375],[145531.0968,169355.9245],[145528.0834,169353.5055],[145523.8614,169348.952],[145518.1339,169341.6481],[145513.6887,169335.9328],[145504.6097,169324.3656],[145497.5765,169315.4746],[145488.5205,169304.9845],[145480.7833,169296.4763],[145472.5954,169288.315],[145468.3207,169284.2518],[145452.6298,169269.7491],[145434.2285,169252.7624],[145415.8587,169235.7951],[145397.4758,169218.8162],[145379.0919,169201.8302],[145360.699,169184.8383],[145357.0238,169181.4421],[145353.3877,169178.085],[145351.787,169176.691],[145350.69545616,169175.67100872],[145349.574,169174.684],[145347.51080401,169173.03707842],[145345.333,169171.545],[145342.93290076,169170.25049295],[145340.416,169169.201],[145338.23425431,169168.55772764],[145336.001,169168.126],[145333.78477093,169167.90334102],[145331.558,169167.851],[145330.19793166,169167.91246944],[145330.01408688,169167.92908282],[145328.842,169168.035],[145326.56650848,169168.31569194],[145324.301,169168.668],[145320.58963249,169169.24772601]]},"geometry_name":"GEOM","properties":{"INSPIRE_ID":"https://databrussels.be/id/rail/21511","TYPE":"TW","LVL":0,"SLOPE":null,"LENGTH":1190.33209958014},"bbox":[145320.58963249,169167.851,146404.06362296,169583.60760227]},{"type":"Feature","id":"TrainNetwork.fid-1007f30f_1a02c00cd1e_52b7","geometry":{"type":"LineString","coordinates":[[145347.837,169137.806],[145347.90472331,169140.05845017],[145347.875,169141.675],[145347.77343352,169143.44589326],[145347.598,169145.211],[145347.47530812,169146.02413995],[145347.327,169146.833],[145347.27942346,169147.0771063],[145347.226,169147.32],[145346.93349792,169148.50862187],[145346.8979178,169148.6532065],[145346.516,169149.972],[145345.50881706,169152.58649158],[145344.239,169155.084],[145342.99545193,169157.06381116],[145341.59711517,169158.93750225],[145340.053,169160.693],[145338.41033526,169162.31768949],[145336.668,169163.835],[145335.16504433,169164.96989353],[145333.601,169166.019],[145331.32011448,169167.31942886],[145330.01408688,169167.92908282],[145328.941,169168.43],[145326.80796899,169169.21829121],[145324.622,169169.845],[145322.57677351,169170.33401386],[145320.77476838,169170.67229622]]},"geometry_name":"GEOM","properties":{"INSPIRE_ID":"https://databrussels.be/id/rail/21512","TYPE":"TW","LVL":0,"SLOPE":null,"LENGTH":47.0463634510797},"bbox":[145320.77476838,169137.806,145347.90472331,169170.67229622]},{"type":"Feature","id":"TrainNetwork.fid-1007f30f_1a02c00cd1e_52b6","geometry":{"type":"LineString","coordinates":[[145306.73907576,169108.23994321],[145305.04826611,169108.68160044],[145303.35,169109.17],[145301.34373137,169109.86603455],[145299.377,169110.667],[145297.60926651,169111.49231006],[145295.913,169112.456],[145293.57848271,169114.00817244],[145291.353,169115.713],[145290.04176918,169116.8884696],[145288.808,169118.145],[145287.48198086,169119.64415139],[145286.243,169121.216],[145285.3396818,169122.51246039],[145284.508,169123.856],[145283.68874879,169125.33938339],[145282.947,169126.863],[145282.22574736,169128.5611732],[145281.81247948,169129.69718259],[145281.595,169130.295],[145281.09690555,169131.91916064],[145281.04825875,169132.1194773],[145280.696,169133.57],[145280.25473742,169136.10431698],[145279.989,169138.663],[145279.93801322,169139.76658068],[145279.928432,169140.871297],[145279.95764641,169141.97542287],[145280.023,169143.078],[145280.25847624,169145.25859469],[145280.648,169147.417],[145281.33317688,169150.07666471],[145282.226,169152.674],[145283.35638804,169155.21022125],[145284.684,169157.649],[145284.75686244,169157.76238319],[145284.838,169157.87],[145286.31468109,169160.03045174],[145287.924,169162.094],[145289.00754882,169163.31101703],[145290.16,169164.463],[145292.07052357,169166.08248755],[145294.13861626,169167.49522702],[145296.342,169168.686],[145298.61736096,169169.63579478],[145300.98,169170.341],[145303.46728214,169170.78388069],[145305.983,169171.016],[145307.85792323,169171.00449506],[145308.58478752,169170.94204681],[145309.726,169170.844],[145318.87318438,169169.5078117]]},"geometry_name":"GEOM","properties":{"INSPIRE_ID":"https://databrussels.be/id/rail/21513","TYPE":"TW","LVL":0,"SLOPE":null,"LENGTH":102.683035420448},"bbox":[145279.928432,169108.23994321,145318.87318438,169171.016]},{"type":"Feature","id":"TrainNetwork.fid-1007f30f_1a02c00cd1e_52b4","geometry":{"type":"LineString","coordinates":[[145306.39529325,169106.84385535],[145304.68061601,169107.29855407],[145302.93,169107.797],[145300.84233963,169108.51694331],[145298.798,169109.352],[145296.95015236,169110.21468139],[145296.45420428,169110.49642691],[145295.177,169111.222],[145292.74034321,169112.84356784],[145290.418,169114.625],[145289.04551162,169115.85615172],[145287.754,169117.172],[145286.37421428,169118.73218161],[145285.085,169120.368],[145284.14222674,169121.72201619],[145283.274,169123.125],[145282.42095781,169124.66641806],[145281.649,169126.25],[145281.05714941,169127.65025195],[145280.89413368,169128.03592883],[145280.29714843,169129.68460489],[145280.234,169129.859],[145279.71211047,169131.55157755],[145279.291,169133.272],[145278.83263943,169135.90778831],[145278.558,169138.569],[145278.50499276,169139.72308677],[145278.495235,169140.878349],[145278.5258713,169142.03297682],[145278.594,169143.186],[145278.83730292,169145.45598716],[145279.241,169147.703],[145279.95556308,169150.47771683],[145280.888,169153.187],[145282.07477041,169155.82966038],[145283.458,169158.375],[145283.55001157,169158.51752065],[145283.648,169158.656],[145285.19792672,169160.87463026],[145286.836,169163.029],[145287.96357233,169164.30367943],[145289.169,169165.505],[145291.17044402,169167.20527075],[145293.3364672,169168.69020927],[145295.644,169169.944],[145298.08722849,169170.96926239],[145300.625,169171.731],[145303.26878928,169172.20334807],[145305.943,169172.451],[145307.91555347,169172.43874203],[145309.881,169172.271],[145312.56780451,169171.95173595],[145315.242,169171.54],[145319.30221807,169170.90199067]]},"geometry_name":"GEOM","properties":{"INSPIRE_ID":"https://databrussels.be/id/rail/21514","TYPE":"TW","LVL":0,"SLOPE":null,"LENGTH":107.27281602504},"bbox":[145278.495235,169106.84385535,145319.30221807,169172.451]}],"numberReturned":16,"grand_bruxelles_source":{"authority":"Paradigm / Brussels-Capital Region","service":"https://geoservices-urbis.irisnet.be/geoserver/urbisvector/wfs","layer":"urbisvector:TrainNetwork","crs":"EPSG:31370","bbox":[145000.0,169000.0,145500.0,169500.0],"cell_id":"bxl-e145000-n169000-s500","ownership":"bbox_intersection_source_unclipped"}}
