{"type":"FeatureCollection","totalFeatures":37,"numberMatched":37,"timeStamp":"2026-08-24T01:58:53.714Z","crs":{"type":"name","properties":{"name":"urn:ogc:def:crs:EPSG::31370"}},"bbox":[153450.62217977,164257.44860888,154545.45116299,165097.22261669],"features":[{"type":"Feature","id":"StreetAxes.fid--24aa7d09_1a031580c5b_-5bf8","geometry":{"type":"LineString","coordinates":[[153650.165,164650.639],[153652.914,164645.834],[153675.768,164604.93],[153701.861,164561.851],[153737.313,164507.282],[153744.162,164497.102]]},"geometry_name":"GEOM","properties":{"INSPIRE_ID":"https://databrussels.be/id/streetaxe/70610","TYPE":"S","HIERARCHY":"DR","LVL":0,"STARTSN_ID":"https://databrussels.be/id/streetnode/2229","ENDSN_ID":"https://databrussels.be/id/streetnode/2659","STRNAMEFRE":"Chaussée de La Hulpe","STRNAMEDUT":"Terhulpsesteenweg","SLOPE":1.51,"LENGTH":180.099942101412},"bbox":[153650.165,164497.102,153744.162,164650.639]},{"type":"Feature","id":"StreetAxes.fid--24aa7d09_1a031580c5b_-5bf9","geometry":{"type":"LineString","coordinates":[[153615.194,164723.273],[153617.106,164718.168],[153647.416,164655.444],[153650.165,164650.639]]},"geometry_name":"GEOM","properties":{"INSPIRE_ID":"https://databrussels.be/id/streetaxe/71654","TYPE":"S","HIERARCHY":"DR","LVL":0,"STARTSN_ID":"https://databrussels.be/id/streetnode/265","ENDSN_ID":"https://databrussels.be/id/streetnode/2229","STRNAMEFRE":"Chaussée de La Hulpe","STRNAMEDUT":"Terhulpsesteenweg","SLOPE":3.6,"LENGTH":80.6505539723868},"bbox":[153615.194,164650.639,153650.165,164723.273]},{"type":"Feature","id":"StreetAxes.fid--24aa7d09_1a031580c5b_-5bfe","geometry":{"type":"LineString","coordinates":[[153650.165,164650.639],[153644.18,164647.43],[153625.183,164634.676],[153596.018,164623.006]]},"geometry_name":"GEOM","properties":{"INSPIRE_ID":"https://databrussels.be/id/streetaxe/71968","TYPE":"S","HIERARCHY":"DR","LVL":0,"STARTSN_ID":"https://databrussels.be/id/streetnode/2229","ENDSN_ID":"https://databrussels.be/id/streetnode/3458","STRNAMEFRE":"Kattenberg","STRNAMEDUT":"Kattenberg","SLOPE":0,"LENGTH":61.085395143277},"bbox":[153596.018,164623.006,153650.165,164650.639]},{"type":"Feature","id":"StreetAxes.fid--24aa7d09_1a031580c5b_-5c09","geometry":{"type":"LineString","coordinates":[[153787.658,164625.369],[153787.144,164630.782],[153786.643,164641.162],[153779.97,164705.708],[153779.552,164711.516]]},"geometry_name":"GEOM","properties":{"INSPIRE_ID":"https://databrussels.be/id/streetaxe/72598","TYPE":"S","HIERARCHY":"DR","LVL":0,"STARTSN_ID":"https://databrussels.be/id/streetnode/1974","ENDSN_ID":"https://databrussels.be/id/streetnode/88","STRNAMEFRE":"Rue Eigenhuis","STRNAMEDUT":"Eigenhuisstraat","SLOPE":12.84,"LENGTH":86.5424775835274},"bbox":[153779.552,164625.369,153787.658,164711.516]},{"type":"Feature","id":"StreetAxes.fid--24aa7d09_1a031580c5b_-5c01","geometry":{"type":"LineString","coordinates":[[153572.74433637,164637.85059603],[153580.66078958,164613.55394484],[153588.1350244,164592.86935185]]},"geometry_name":"GEOM","properties":{"INSPIRE_ID":"https://databrussels.be/id/streetaxe/74456","TYPE":"S","HIERARCHY":"MAR","LVL":0,"STARTSN_ID":"https://databrussels.be/id/streetnode/6528","ENDSN_ID":"https://databrussels.be/id/streetnode/6525","STRNAMEFRE":"Avenue de la Foresterie","STRNAMEDUT":"Vorsterielaan","SLOPE":3.49,"LENGTH":47.5473731245469},"bbox":[153572.74433637,164592.86935185,153588.1350244,164637.85059603]},{"type":"Feature","id":"StreetAxes.fid--24aa7d09_1a031580c5b_-5bf3","geometry":{"type":"LineString","coordinates":[[153510.69481486,164843.21480305],[153494.63389769,164826.96695509],[153493.08702815,164813.26681827]]},"geometry_name":"GEOM","properties":{"INSPIRE_ID":"https://databrussels.be/id/streetaxe/74730","TYPE":"S","HIERARCHY":"DR","LVL":0,"STARTSN_ID":"https://databrussels.be/id/streetnode/6309","ENDSN_ID":"https://databrussels.be/id/streetnode/6301","STRNAMEFRE":"Chaussée de La Hulpe","STRNAMEDUT":"Terhulpsesteenweg","SLOPE":2.07,"LENGTH":36.6333173478034},"bbox":[153493.08702815,164813.26681827,153510.69481486,164843.21480305]},{"type":"Feature","id":"StreetAxes.fid--24aa7d09_1a031580c5b_-5bf2","geometry":{"type":"LineString","coordinates":[[153510.69481486,164843.21480305],[153511.78458439,164839.42535356],[153513.13043384,164834.58751009]]},"geometry_name":"GEOM","properties":{"INSPIRE_ID":"https://databrussels.be/id/streetaxe/74731","TYPE":"S","HIERARCHY":"DR","LVL":0,"STARTSN_ID":"https://databrussels.be/id/streetnode/6309","ENDSN_ID":"https://databrussels.be/id/streetnode/6286","STRNAMEFRE":"Chaussée de La Hulpe","STRNAMEDUT":"Terhulpsesteenweg","SLOPE":6.25,"LENGTH":8.96459256028261},"bbox":[153510.69481486,164834.58751009,153513.13043384,164843.21480305]},{"type":"Feature","id":"StreetAxes.fid--24aa7d09_1a031580c5b_-5c07","geometry":{"type":"LineString","coordinates":[[153615.194,164723.273],[153622.362,164726.22],[153668.672,164737.738],[153679.55,164742.18],[153686.626,164748.264],[153697.609,164760.836],[153736.557,164809.075],[153738.364,164811.313],[153741.438,164815.122],[153805.675,164889.055],[153821.248,164900.487],[153826.591,164905.317],[153837.978,164918.722],[153908.83599897,165016.25982542]]},"geometry_name":"GEOM","properties":{"INSPIRE_ID":"https://databrussels.be/id/streetaxe/75244","TYPE":"S","HIERARCHY":null,"LVL":0,"STARTSN_ID":"https://databrussels.be/id/streetnode/265","ENDSN_ID":"https://databrussels.be/id/streetnode/5865","STRNAMEFRE":"Rue du Buis","STRNAMEDUT":"Buksboomstraat","SLOPE":5.31,"LENGTH":425.627376363272},"bbox":[153615.194,164723.273,153908.83599897,165016.25982542]},{"type":"Feature","id":"StreetAxes.fid--24aa7d09_1a031580c5b_-5bf5","geometry":{"type":"LineString","coordinates":[[153492.14013056,164804.88044424],[153503.06936121,164793.93399299],[153509.79926815,164784.61353051],[153521.59829744,164767.93437519]]},"geometry_name":"GEOM","properties":{"INSPIRE_ID":"https://databrussels.be/id/streetaxe/75652","TYPE":"S","HIERARCHY":"MAR","LVL":0,"STARTSN_ID":"https://databrussels.be/id/streetnode/6310","ENDSN_ID":"https://databrussels.be/id/streetnode/6524","STRNAMEFRE":"Avenue de la Foresterie","STRNAMEDUT":"Vorsterielaan","SLOPE":0.72,"LENGTH":47.3952965909715},"bbox":[153492.14013056,164767.93437519,153521.59829744,164804.88044424]},{"type":"Feature","id":"StreetAxes.fid--24aa7d09_1a031580c5b_-5bf6","geometry":{"type":"LineString","coordinates":[[153492.14013056,164804.88044424],[153501.86429114,164807.15058239],[153520.85729497,164826.38013802]]},"geometry_name":"GEOM","properties":{"INSPIRE_ID":"https://databrussels.be/id/streetaxe/75916","TYPE":"S","HIERARCHY":"DR","LVL":0,"STARTSN_ID":"https://databrussels.be/id/streetnode/6310","ENDSN_ID":"https://databrussels.be/id/streetnode/6306","STRNAMEFRE":"Chaussée de La Hulpe","STRNAMEDUT":"Terhulpsesteenweg","SLOPE":1.05,"LENGTH":37.013579559863},"bbox":[153492.14013056,164804.88044424,153520.85729497,164826.38013802]},{"type":"Feature","id":"StreetAxes.fid--24aa7d09_1a031580c5b_-5bff","geometry":{"type":"LineString","coordinates":[[153597.13690763,164570.76368015],[153594.68921595,164565.56250496],[153603.42105337,164540.5610014],[153607.02766224,164527.86360012],[153609.30319859,164519.547879],[153612.1901776,164506.66616709],[153613.5991508,164499.01774932],[153616.46379233,164480.4332895],[153619.15419202,164451.41047669],[153625.83103439,164446.99042601]]},"geometry_name":"GEOM","properties":{"INSPIRE_ID":"https://databrussels.be/id/streetaxe/76731","TYPE":"S","HIERARCHY":"DR","LVL":0,"STARTSN_ID":"https://databrussels.be/id/streetnode/6529","ENDSN_ID":"https://databrussels.be/id/streetnode/6527","STRNAMEFRE":"Avenue de la Foresterie","STRNAMEDUT":"Vorsterielaan","SLOPE":3.24,"LENGTH":130.988789366471},"bbox":[153594.68921595,164446.99042601,153625.83103439,164570.76368015]},{"type":"Feature","id":"StreetAxes.fid--24aa7d09_1a031580c5b_-5bfa","geometry":{"type":"LineString","coordinates":[[153613.77006575,164548.58440845],[153616.86924927,164539.52648681],[153621.82370222,164522.56066703],[153626.34079613,164503.18639622],[153629.52062209,164483.54829006],[153630.22315995,164474.82108742],[153634.4997424,164418.73362931],[153628.84129929,164406.75191711]]},"geometry_name":"GEOM","properties":{"INSPIRE_ID":"https://databrussels.be/id/streetaxe/76732","TYPE":"S","HIERARCHY":"MAR","LVL":0,"STARTSN_ID":"https://databrussels.be/id/streetnode/6530","ENDSN_ID":"https://databrussels.be/id/streetnode/6209","STRNAMEFRE":"Avenue de la Foresterie","STRNAMEDUT":"Vorsterielaan","SLOPE":2.11,"LENGTH":145.291979038339},"bbox":[153613.77006575,164406.75191711,153634.4997424,164548.58440845]},{"type":"Feature","id":"StreetAxes.fid--24aa7d09_1a031580c5b_-5bf1","geometry":{"type":"LineString","coordinates":[[153513.13043384,164834.58751009],[153520.85729497,164826.38013802]]},"geometry_name":"GEOM","properties":{"INSPIRE_ID":"https://databrussels.be/id/streetaxe/77374","TYPE":"S","HIERARCHY":"DR","LVL":0,"STARTSN_ID":"https://databrussels.be/id/streetnode/6286","ENDSN_ID":"https://databrussels.be/id/streetnode/6306","STRNAMEFRE":"Chaussée de La Hulpe","STRNAMEDUT":"Terhulpsesteenweg","SLOPE":3.37,"LENGTH":11.2723262480959},"bbox":[153513.13043384,164826.38013802,153520.85729497,164834.58751009]},{"type":"Feature","id":"StreetAxes.fid--24aa7d09_1a031580c5b_-5bf4","geometry":{"type":"LineString","coordinates":[[153513.13043384,164834.58751009],[153499.73574859,164820.351121],[153493.08702815,164813.26681827]]},"geometry_name":"GEOM","properties":{"INSPIRE_ID":"https://databrussels.be/id/streetaxe/77375","TYPE":"S","HIERARCHY":"DR","LVL":0,"STARTSN_ID":"https://databrussels.be/id/streetnode/6286","ENDSN_ID":"https://databrussels.be/id/streetnode/6301","STRNAMEFRE":"Chaussée de La Hulpe","STRNAMEDUT":"Terhulpsesteenweg","SLOPE":0.68,"LENGTH":29.2627802894365},"bbox":[153493.08702815,164813.26681827,153513.13043384,164834.58751009]},{"type":"Feature","id":"StreetAxes.fid--24aa7d09_1a031580c5b_-5c03","geometry":{"type":"LineString","coordinates":[[153520.85729497,164826.38013802],[153525.4732032,164821.70687173],[153573.127,164781.944],[153579.198,164775.84],[153590.548,164761.119],[153601.577,164745.235],[153613.282,164728.378],[153615.194,164723.273]]},"geometry_name":"GEOM","properties":{"INSPIRE_ID":"https://databrussels.be/id/streetaxe/77377","TYPE":"S","HIERARCHY":"DR","LVL":0,"STARTSN_ID":"https://databrussels.be/id/streetnode/6306","ENDSN_ID":"https://databrussels.be/id/streetnode/265","STRNAMEFRE":"Chaussée de La Hulpe","STRNAMEDUT":"Terhulpsesteenweg","SLOPE":3.55,"LENGTH":141.141471481214},"bbox":[153520.85729497,164723.273,153615.194,164826.38013802]},{"type":"Feature","id":"StreetAxes.fid--24aa7d09_1a031580c5b_-5c11","geometry":{"type":"LineString","coordinates":[[153733.89700767,164582.02735555],[153734.3909875,164573.11849766],[153736.82174571,164559.60733804],[153743.28756255,164524.26812243],[153745.728,164510.671],[153748.06421946,164501.29793604],[153744.162,164497.102]]},"geometry_name":"GEOM","properties":{"INSPIRE_ID":"https://databrussels.be/id/streetaxe/79409","TYPE":"S","HIERARCHY":"DR","LVL":0,"STARTSN_ID":"https://databrussels.be/id/streetnode/5212","ENDSN_ID":"https://databrussels.be/id/streetnode/2659","STRNAMEFRE":"Rue Auguste Beernaert","STRNAMEDUT":"Auguste Beernaertstraat","SLOPE":6.4,"LENGTH":87.7807162220069},"bbox":[153733.89700767,164497.102,153748.06421946,164582.02735555]},{"type":"Feature","id":"StreetAxes.fid--24aa7d09_1a031580c5b_-5c0a","geometry":{"type":"LineString","coordinates":[[153733.89700767,164582.02735555],[153730.18,164582.685],[153727.91756845,164593.82661551],[153725.08399888,164610.60100484],[153723.1949525,164622.0986823],[153722.62893309,164627.92042297],[153724.68466003,164635.08564226],[153734.23243732,164657.68113464],[153737.91868569,164666.46054033],[153742.06188826,164673.89214571],[153753.09008943,164685.64374013],[153760.4240342,164692.81689432],[153766.823,164699.93],[153775.151,164707.802],[153779.552,164711.516]]},"geometry_name":"GEOM","properties":{"INSPIRE_ID":"https://databrussels.be/id/streetaxe/79410","TYPE":"S","HIERARCHY":null,"LVL":0,"STARTSN_ID":"https://databrussels.be/id/streetnode/5212","ENDSN_ID":"https://databrussels.be/id/streetnode/88","STRNAMEFRE":"Rue de la Citadelle","STRNAMEDUT":"Citadelstraat","SLOPE":3.65,"LENGTH":152.83213469595},"bbox":[153722.62893309,164582.02735555,153779.552,164711.516]},{"type":"Feature","id":"StreetAxes.fid--24aa7d09_1a031580c5b_-5c0b","geometry":{"type":"LineString","coordinates":[[153733.89700767,164582.02735555],[153738.16,164595.268],[153745.306,164608.558],[153754.89,164618.594],[153764.196,164623.314],[153773.598,164625.522],[153781.616,164626.179],[153787.658,164625.369]]},"geometry_name":"GEOM","properties":{"INSPIRE_ID":"https://databrussels.be/id/streetaxe/79411","TYPE":"S","HIERARCHY":null,"LVL":0,"STARTSN_ID":"https://databrussels.be/id/streetnode/5212","ENDSN_ID":"https://databrussels.be/id/streetnode/1974","STRNAMEFRE":"Rue Auguste Beernaert","STRNAMEDUT":"Auguste Beernaertstraat","SLOPE":7.17,"LENGTH":77.1097583936971},"bbox":[153733.89700767,164582.02735555,153787.658,164626.179]},{"type":"Feature","id":"StreetAxes.fid--24aa7d09_1a031580c5b_-5c04","geometry":{"type":"LineString","coordinates":[[153450.62217977,165069.945],[153450.795,165059.194],[153451.482,165054.395],[153503.144,164869.596],[153507.561,164854.112],[153510.69481486,164843.21480305]]},"geometry_name":"GEOM","properties":{"INSPIRE_ID":"https://databrussels.be/id/streetaxe/79853","TYPE":"S","HIERARCHY":"DR","LVL":0,"STARTSN_ID":"https://databrussels.be/id/streetnode/14561","ENDSN_ID":"https://databrussels.be/id/streetnode/6309","STRNAMEFRE":"Rue Middelbourg","STRNAMEDUT":"Middelburgstraat","SLOPE":1.28,"LENGTH":234.925277725082},"bbox":[153450.62217977,164843.21480305,153510.69481486,165069.945]},{"type":"Feature","id":"StreetAxes.fid--24aa7d09_1a031580c5b_-5c05","geometry":{"type":"LineString","coordinates":[[153974.54734999,164982.80677169],[153975.23735309,164984.06295709],[153977.35675488,164985.8389351],[153984.57577763,164989.38988707],[154037.04726947,165018.75944677],[154059.04817623,165030.69155145],[154100.75515612,165054.0899875],[154167.10047626,165092.01940766],[154171.49737419,165094.96333603],[154173.79611511,165097.22261669]]},"geometry_name":"GEOM","properties":{"INSPIRE_ID":"https://databrussels.be/id/streetaxe/81927","TYPE":"S","HIERARCHY":"DR","LVL":0,"STARTSN_ID":"https://databrussels.be/id/streetnode/13621","ENDSN_ID":"https://databrussels.be/id/streetnode/13619","STRNAMEFRE":"Drève de Pinnebeek","STRNAMEDUT":"Pinnebeekdreef","SLOPE":0.47,"LENGTH":230.162357178618},"bbox":[153974.54734999,164982.80677169,154173.79611511,165097.22261669]},{"type":"Feature","id":"StreetAxes.fid--24aa7d09_1a031580c5b_-5bf0","geometry":{"type":"LineString","coordinates":[[153521.59829744,164767.93437519],[153520.68672524,164757.238405],[153529.57088167,164742.48180234],[153534.43225479,164733.06191908],[153541.36014245,164716.72538735],[153549.53852461,164695.11043964],[153558.10626375,164669.50768002],[153567.50029954,164641.75353498],[153572.74433637,164637.85059603]]},"geometry_name":"GEOM","properties":{"INSPIRE_ID":"https://databrussels.be/id/streetaxe/83906","TYPE":"S","HIERARCHY":"DR","LVL":0,"STARTSN_ID":"https://databrussels.be/id/streetnode/6524","ENDSN_ID":"https://databrussels.be/id/streetnode/6528","STRNAMEFRE":"Avenue de la Foresterie","STRNAMEDUT":"Vorsterielaan","SLOPE":0.87,"LENGTH":142.251056596047},"bbox":[153520.68672524,164637.85059603,153572.74433637,164767.93437519]},{"type":"Feature","id":"StreetAxes.fid--24aa7d09_1a031580c5b_-5c02","geometry":{"type":"LineString","coordinates":[[153521.59829744,164767.93437519],[153530.17820562,164766.90065075],[153535.80332409,164757.57380795],[153544.56200534,164741.94095868],[153549.58286767,164731.38957744],[153556.42456077,164715.14955206],[153561.22990742,164702.17079465],[153569.35371092,164678.46874529],[153578.97465091,164650.39864307],[153590.83274406,164615.80141171],[153594.67930888,164606.04194805],[153609.18434212,164563.03914903],[153613.77006575,164548.58440845]]},"geometry_name":"GEOM","properties":{"INSPIRE_ID":"https://databrussels.be/id/streetaxe/83907","TYPE":"S","HIERARCHY":"MAR","LVL":0,"STARTSN_ID":"https://databrussels.be/id/streetnode/6524","ENDSN_ID":"https://databrussels.be/id/streetnode/6530","STRNAMEFRE":"Avenue de la Foresterie","STRNAMEDUT":"Vorsterielaan","SLOPE":2.39,"LENGTH":242.940019435633},"bbox":[153521.59829744,164548.58440845,153613.77006575,164767.93437519]},{"type":"Feature","id":"StreetAxes.fid--24aa7d09_1a031580c5b_-5bef","geometry":{"type":"LineString","coordinates":[[153521.59829744,164767.93437519],[153526.27734788,164760.84926908],[153534.56842367,164746.63180954],[153540.30898128,164735.4306022],[153548.12787995,164717.61770682],[153553.909,164703.314],[153574.11706167,164643.98329952],[153572.74433637,164637.85059603]]},"geometry_name":"GEOM","properties":{"INSPIRE_ID":"https://databrussels.be/id/streetaxe/83908","TYPE":"S","HIERARCHY":"MAR","LVL":0,"STARTSN_ID":"https://databrussels.be/id/streetnode/6524","ENDSN_ID":"https://databrussels.be/id/streetnode/6528","STRNAMEFRE":"Avenue de la Foresterie","STRNAMEDUT":"Vorsterielaan","SLOPE":0.88,"LENGTH":141.379023321428},"bbox":[153521.59829744,164637.85059603,153574.11706167,164767.93437519]},{"type":"Feature","id":"StreetAxes.fid--24aa7d09_1a031580c5b_-5c00","geometry":{"type":"LineString","coordinates":[[153588.1350244,164592.86935185],[153594.20392965,164579.32735555],[153597.13690763,164570.76368015]]},"geometry_name":"GEOM","properties":{"INSPIRE_ID":"https://databrussels.be/id/streetaxe/83909","TYPE":"S","HIERARCHY":"MAR","LVL":0,"STARTSN_ID":"https://databrussels.be/id/streetnode/6525","ENDSN_ID":"https://databrussels.be/id/streetnode/6529","STRNAMEFRE":"Avenue de la Foresterie","STRNAMEDUT":"Vorsterielaan","SLOPE":5.4,"LENGTH":23.8917301096639},"bbox":[153588.1350244,164570.76368015,153597.13690763,164592.86935185]},{"type":"Feature","id":"StreetAxes.fid--24aa7d09_1a031580c5b_-5bfb","geometry":{"type":"LineString","coordinates":[[153607.75338641,164546.67563475],[153613.77006575,164548.58440845]]},"geometry_name":"GEOM","properties":{"INSPIRE_ID":"https://databrussels.be/id/streetaxe/83911","TYPE":"S","HIERARCHY":"MAR","LVL":0,"STARTSN_ID":"https://databrussels.be/id/streetnode/6526","ENDSN_ID":"https://databrussels.be/id/streetnode/6530","STRNAMEFRE":"Avenue de la Foresterie","STRNAMEDUT":"Vorsterielaan","SLOPE":3.49,"LENGTH":6.3121982977578},"bbox":[153607.75338641,164546.67563475,153613.77006575,164548.58440845]},{"type":"Feature","id":"StreetAxes.fid--24aa7d09_1a031580c5b_-5bfd","geometry":{"type":"LineString","coordinates":[[153607.75338641,164546.67563475],[153606.43104246,164550.6644493],[153602.90897067,164560.79104375],[153600.52440301,164567.48016007],[153597.13690763,164570.76368015]]},"geometry_name":"GEOM","properties":{"INSPIRE_ID":"https://databrussels.be/id/streetaxe/83912","TYPE":"S","HIERARCHY":"MAR","LVL":0,"STARTSN_ID":"https://databrussels.be/id/streetnode/6526","ENDSN_ID":"https://databrussels.be/id/streetnode/6529","STRNAMEFRE":"Avenue de la Foresterie","STRNAMEDUT":"Vorsterielaan","SLOPE":5.24,"LENGTH":26.7430309927597},"bbox":[153597.13690763,164546.67563475,153607.75338641,164570.76368015]},{"type":"Feature","id":"StreetAxes.fid--24aa7d09_1a031580c5b_-5bfc","geometry":{"type":"LineString","coordinates":[[153625.83103439,164446.99042601],[153625.24116399,164454.4360649],[153623.38887309,164476.5979261],[153621.12290418,164492.00358071],[153619.95587911,164499.29632954],[153617.18930313,164513.11277832],[153614.76582877,164522.29972094],[153610.62262587,164537.67938871],[153607.75338641,164546.67563475]]},"geometry_name":"GEOM","properties":{"INSPIRE_ID":"https://databrussels.be/id/streetaxe/83913","TYPE":"S","HIERARCHY":"MAR","LVL":0,"STARTSN_ID":"https://databrussels.be/id/streetnode/6527","ENDSN_ID":"https://databrussels.be/id/streetnode/6526","STRNAMEFRE":"Avenue de la Foresterie","STRNAMEDUT":"Vorsterielaan","SLOPE":2.8,"LENGTH":101.627672068905},"bbox":[153607.75338641,164446.99042601,153625.83103439,164546.67563475]},{"type":"Feature","id":"StreetAxes.fid--24aa7d09_1a031580c5b_-5c06","geometry":{"type":"LineString","coordinates":[[153908.83599897,165016.25982542],[153914.024,165014.927],[153969.15177525,164985.71696937],[153974.54734999,164982.80677169]]},"geometry_name":"GEOM","properties":{"INSPIRE_ID":"https://databrussels.be/id/streetaxe/94514","TYPE":"S","HIERARCHY":"DR","LVL":0,"STARTSN_ID":"https://databrussels.be/id/streetnode/5865","ENDSN_ID":"https://databrussels.be/id/streetnode/13621","STRNAMEFRE":"Drève de Bonne Odeur","STRNAMEDUT":"Willeriekendreef","SLOPE":0.62,"LENGTH":73.875124133952},"bbox":[153908.83599897,164982.80677169,153974.54734999,165016.25982542]},{"type":"Feature","id":"StreetAxes.fid--24aa7d09_1a031580c5b_-5bf7","geometry":{"type":"LineString","coordinates":[[153481.93472794,164257.44860888],[153491.974,164275.7805],[153496.50560144,164285.89359484],[153506.12565411,164304.71558694],[153509.77682921,164311.9841134],[153530.25515915,164353.02430864],[153552.5273273,164398.02410509],[153562.30612671,164417.96494242],[153576.0297827,164441.07187369],[153587.0864934,164459.23525477],[153595.58738153,164472.28844912],[153599.75448355,164480.00927471],[153601.92137661,164486.78582667],[153604.75500598,164498.61701985],[153603.58821741,164503.67166107],[153598.36544955,164520.39085894],[153577.145,164575.175],[153572.78300179,164587.38476816],[153588.1350244,164592.86935185]]},"geometry_name":"GEOM","properties":{"INSPIRE_ID":"https://databrussels.be/id/streetaxe/94872","TYPE":"S","HIERARCHY":null,"LVL":0,"STARTSN_ID":"https://databrussels.be/id/streetnode/5052","ENDSN_ID":"https://databrussels.be/id/streetnode/6525","STRNAMEFRE":"Avenue Van Kerm","STRNAMEDUT":"Van Kermlaan","SLOPE":4.86,"LENGTH":382.031932140724},"bbox":[153481.93472794,164257.44860888,153604.75500598,164592.86935185]},{"type":"Feature","id":"StreetAxes.fid--24aa7d09_1a031580c5b_-5c08","geometry":{"type":"LineString","coordinates":[[153974.54734999,164982.80677169],[154003.43093347,164966.94146871],[154023.65446497,164954.83304885],[154051.38492221,164940.062748],[154060.6048875,164934.88597837],[154087.74941213,164920.06720358],[154100.8566975,164913.00525992],[154116.69943703,164904.26234792],[154165.23471995,164878.59126342],[154192.45942994,164864.33667846],[154301.22032612,164806.36330134],[154319.18559613,164796.41219771],[154337.53443951,164786.2894309],[154351.85610392,164778.24930657],[154368.22018794,164768.88622851],[154376.29185982,164763.43252814],[154390.93595268,164753.14042078],[154395.63415902,164750.04673159],[154402.46178269,164746.51518332],[154415.17542757,164740.00153102],[154433.1384385,164727.07842353],[154453.55378731,164711.84076164],[154460.28549087,164706.35787062],[154466.94707327,164700.89733792],[154490.98940898,164680.27238821],[154500.29501902,164672.76145808],[154508.93536912,164666.20422156],[154524.90510638,164653.74673784],[154531.01846405,164647.77181734],[154544.3075,164633.0855],[154545.45116299,164631.93425358]]},"geometry_name":"GEOM","properties":{"INSPIRE_ID":"https://databrussels.be/id/streetaxe/94977","TYPE":"S","HIERARCHY":null,"LVL":0,"STARTSN_ID":"https://databrussels.be/id/streetnode/13621","ENDSN_ID":"https://databrussels.be/id/streetnode/5766","STRNAMEFRE":"Drève de Bonne Odeur","STRNAMEDUT":"Willeriekendreef","SLOPE":2.65,"LENGTH":672.932734434821},"bbox":[153974.54734999,164631.93425358,154545.45116299,164982.80677169]},{"type":"Feature","id":"StreetAxes.fid--24aa7d09_1a031580c5b_-5c12","geometry":{"type":"LineString","coordinates":[[153873.436,164462.235],[153877.27,164464.15],[153902.967,164476.445],[153904.795,164477.319],[153912.94454011,164481.40013145],[153931.3135227,164486.74837035],[153943.31477652,164489.80337329],[153979.94013072,164498.52748962],[154001.89381321,164503.17708789],[154012.08875587,164505.26174481],[154018.26060248,164506.66171832],[154027.82169208,164508.89260729],[154101.65055044,164526.66681557],[154121.28185311,164531.38308262],[154264.10633387,164566.38034816],[154291.99275069,164573.07641581],[154371.89813675,164591.851134],[154426.56110742,164604.80290821],[154461.18625264,164613.28140925],[154497.41225956,164622.30755428],[154525.06358592,164629.31930674],[154529.82400389,164630.45005458],[154535.28489188,164631.18008126],[154538.65032285,164631.370523],[154543.92,164630.55],[154545.45116299,164631.93425358]]},"geometry_name":"GEOM","properties":{"INSPIRE_ID":"https://databrussels.be/id/streetaxe/95114","TYPE":"S","HIERARCHY":null,"LVL":0,"STARTSN_ID":"https://databrussels.be/id/streetnode/1430","ENDSN_ID":"https://databrussels.be/id/streetnode/5766","STRNAMEFRE":"Rue du Rouge-Gorge","STRNAMEDUT":"Roodborstjestraat","SLOPE":3.79,"LENGTH":694.865358478658},"bbox":[153873.436,164462.235,154545.45116299,164631.93425358]},{"type":"Feature","id":"StreetAxes.fid--24aa7d09_1a031580c5b_-5c0e","geometry":{"type":"LineString","coordinates":[[153824.47172949,164550.23788756],[153819.1383103,164551.35112608],[153801.47821005,164578.2702],[153798.04614624,164579.85482732],[153794.05071423,164579.98725949]]},"geometry_name":"GEOM","properties":{"INSPIRE_ID":"https://databrussels.be/id/streetaxe/98493","TYPE":"S","HIERARCHY":"DR","LVL":0,"STARTSN_ID":"https://databrussels.be/id/streetnode/16991","ENDSN_ID":"https://databrussels.be/id/streetnode/16990","STRNAMEFRE":"Place Rik Wouters","STRNAMEDUT":"Rik Woutersplein","SLOPE":null,"LENGTH":45.4211785083852},"bbox":[153794.05071423,164550.23788756,153824.47172949,164579.98725949]},{"type":"Feature","id":"StreetAxes.fid--24aa7d09_1a031580c5b_-5c0f","geometry":{"type":"LineString","coordinates":[[153794.05071423,164579.98725949],[153791.66680809,164578.11246667],[153791.17884497,164575.10661534],[153792.02371826,164570.7856168],[153803.57868501,164551.86121304],[153809.8162479,164543.04606265],[153815.7052657,164540.32083191],[153820.64119919,164538.95551534]]},"geometry_name":"GEOM","properties":{"INSPIRE_ID":"https://databrussels.be/id/streetaxe/98494","TYPE":"S","HIERARCHY":"DR","LVL":0,"STARTSN_ID":"https://databrussels.be/id/streetnode/16990","ENDSN_ID":"https://databrussels.be/id/streetnode/4158","STRNAMEFRE":"Place Rik Wouters","STRNAMEDUT":"Rik Woutersplein","SLOPE":null,"LENGTH":55.0631126350621},"bbox":[153791.17884497,164538.95551534,153820.64119919,164579.98725949]},{"type":"Feature","id":"StreetAxes.fid--24aa7d09_1a031580c5b_-5c10","geometry":{"type":"LineString","coordinates":[[153820.64119919,164538.95551534],[153824.47172949,164550.23788756]]},"geometry_name":"GEOM","properties":{"INSPIRE_ID":"https://databrussels.be/id/streetaxe/98495","TYPE":"S","HIERARCHY":"DR","LVL":0,"STARTSN_ID":"https://databrussels.be/id/streetnode/16991","ENDSN_ID":"https://databrussels.be/id/streetnode/4158","STRNAMEFRE":"Place Rik Wouters","STRNAMEDUT":"Rik Woutersplein","SLOPE":null,"LENGTH":11.9149018177767},"bbox":[153820.64119919,164538.95551534,153824.47172949,164550.23788756]},{"type":"Feature","id":"StreetAxes.fid--24aa7d09_1a031580c5b_-5c0d","geometry":{"type":"LineString","coordinates":[[153787.658,164625.369],[153793.18,164624.628],[153806.716,164620.553],[153814.152,164616.531],[153826.064,164604.22],[153831.976,164589.018],[153833.868,164576.188],[153832.066,164564.754],[153828.95,164555.712],[153826.62,164551.035],[153824.47172949,164550.23788756]]},"geometry_name":"GEOM","properties":{"INSPIRE_ID":"https://databrussels.be/id/streetaxe/98498","TYPE":"S","HIERARCHY":"DR","LVL":0,"STARTSN_ID":"https://databrussels.be/id/streetnode/1974","ENDSN_ID":"https://databrussels.be/id/streetnode/16991","STRNAMEFRE":"Rue Auguste Beernaert","STRNAMEDUT":"Auguste Beernaertstraat","SLOPE":3.8,"LENGTH":103.227663341007},"bbox":[153787.658,164550.23788756,153833.868,164625.369]},{"type":"Feature","id":"StreetAxes.fid--24aa7d09_1a031580c5b_-5c13","geometry":{"type":"LineString","coordinates":[[153820.64119919,164538.95551534],[153823.504,164534.353],[153870.834,164465.964],[153873.436,164462.235]]},"geometry_name":"GEOM","properties":{"INSPIRE_ID":"https://databrussels.be/id/streetaxe/98500","TYPE":"S","HIERARCHY":"DR","LVL":0,"STARTSN_ID":"https://databrussels.be/id/streetnode/4158","ENDSN_ID":"https://databrussels.be/id/streetnode/1430","STRNAMEFRE":"Rue de la Sapinière","STRNAMEDUT":"Dennebosstraat","SLOPE":1.65,"LENGTH":93.1369002719862},"bbox":[153820.64119919,164462.235,153873.436,164538.95551534]},{"type":"Feature","id":"StreetAxes.fid--24aa7d09_1a031580c5b_-5c0c","geometry":{"type":"LineString","coordinates":[[153794.05071423,164579.98725949],[153792.14,164586.726],[153788.355,164618.04],[153787.658,164625.369]]},"geometry_name":"GEOM","properties":{"INSPIRE_ID":"https://databrussels.be/id/streetaxe/98502","TYPE":"S","HIERARCHY":"H","LVL":0,"STARTSN_ID":"https://databrussels.be/id/streetnode/16990","ENDSN_ID":"https://databrussels.be/id/streetnode/1974","STRNAMEFRE":"Rue Eigenhuis","STRNAMEDUT":"Eigenhuisstraat","SLOPE":5.47,"LENGTH":45.9083780594413},"bbox":[153787.658,164579.98725949,153794.05071423,164625.369]}],"numberReturned":37,"grand_bruxelles_source":{"authority":"Paradigm / Brussels-Capital Region","service":"https://geoservices-urbis.irisnet.be/geoserver/urbisvector/wfs","layer":"urbisvector:StreetAxes","crs":"EPSG:31370","bbox":[153500.0,164500.0,154000.0,165000.0],"cell_id":"bxl-e153500-n164500-s500","ownership":"bbox_intersection_source_unclipped"}}
