{"type":"FeatureCollection","totalFeatures":7,"numberMatched":7,"timeStamp":"2026-08-24T01:20:45.925Z","crs":{"type":"name","properties":{"name":"urn:ogc:def:crs:EPSG::31370"}},"bbox":[151325.07264781,163145.94788295,152132.954,164238.25373814],"features":[{"type":"Feature","id":"StreetAxes.fid-13d79f14_1a031586a2a_-70b8","geometry":{"type":"LineString","coordinates":[[151585.80186489,163145.94788295],[151590.757,163149.814],[151599.11875766,163157.54824993],[151623.26240858,163178.30797429],[151655.72762957,163206.1928904],[151680.38224823,163227.14471757],[151877.00117198,163392.27359759],[151915.15683149,163424.10011177],[151927.16766304,163434.41556563],[151934.83485182,163441.52515344],[151943.44654936,163450.68985648],[151950.55814475,163459.132492],[151964.70630563,163479.82808257],[152002.58289285,163536.94828447],[152022.57991431,163566.76741626],[152042.72414322,163596.6260981],[152063.58270649,163627.82576247],[152071.51975492,163638.7123188],[152087.17161441,163656.77194141],[152119.21843957,163688.32073733],[152131.707,163700.3505],[152132.954,163703.804]]},"geometry_name":"GEOM","properties":{"INSPIRE_ID":"https://databrussels.be/id/streetaxe/89468","TYPE":"S","HIERARCHY":null,"LVL":0,"STARTSN_ID":"https://databrussels.be/id/streetnode/12362","ENDSN_ID":"https://databrussels.be/id/streetnode/11417","STRNAMEFRE":"Chemin des Deux Montagnes","STRNAMEDUT":"Twee Bergenweg","SLOPE":1.94,"LENGTH":787.431757837053},"bbox":[151585.80186489,163145.94788295,152132.954,163703.804]},{"type":"Feature","id":"StreetAxes.fid-13d79f14_1a031586a2a_-70b9","geometry":{"type":"LineString","coordinates":[[151921.27825332,163749.65526172],[151923.905,163755.27],[151933.65634648,163776.89090615],[151940.45045994,163794.56965798],[151948.35179165,163815.62615832],[151953.79660687,163832.28925475],[151960.85264292,163855.78422072],[151966.96417021,163876.50200395],[151972.46454477,163897.38641815],[151977.63156329,163919.88159833],[151982.52078512,163938.09991709],[151985.02095538,163946.320378],[151990.13241457,163958.31780743],[151996.68841657,163969.87088762],[152007.35580965,163986.75615868],[152015.41191381,163998.47586983],[152021.13757298,164006.63122281],[152032.19501531,164021.46137863],[152041.2492033,164034.92873121],[152048.55128785,164045.9739837],[152052.3293229,164050.79834686],[152056.26609892,164055.33705694],[152068.68821925,164069.31565252]]},"geometry_name":"GEOM","properties":{"INSPIRE_ID":"https://databrussels.be/id/streetaxe/94472","TYPE":"S","HIERARCHY":null,"LVL":0,"STARTSN_ID":"https://databrussels.be/id/streetnode/12364","ENDSN_ID":"https://databrussels.be/id/streetnode/5964","STRNAMEFRE":"Chemin du Fer à Cheval","STRNAMEDUT":"Hoefijzerweg","SLOPE":1.17,"LENGTH":356.428489800162},"bbox":[151921.27825332,163749.65526172,152068.68821925,164069.31565252]},{"type":"Feature","id":"StreetAxes.fid-13d79f14_1a031586a2a_-70bb","geometry":{"type":"LineString","coordinates":[[151325.07264781,163995.19675476],[151326.54888534,163995.89043884],[151331.07513933,163997.53451387],[151346.06206919,164005.95620432],[151357.88928344,164011.77509805],[151360.16438465,164013.17471878],[151362.09010488,164014.35940363],[151365.32864446,164016.45093469],[151368.77616813,164018.37308994],[151373.38440885,164020.48998205],[151378.88676311,164022.59732746],[151381.64263786,164023.53989166],[151385.92833227,164025.44046694],[151402.155064,164033.80874721],[151411.6817269,164038.42747901],[151421.87709541,164043.37041373],[151428.63162616,164046.41273353],[151441.41170785,164051.76436551],[151450.48442231,164055.85642871],[151455.84887148,164058.52145995],[151460.92487817,164061.1863235],[151470.77300238,164066.44292144],[151490.47075412,164075.40089024],[151496.61185487,164078.49857862],[151545.85900783,164102.64039914],[151561.73505805,164110.11037698],[151591.13423822,164124.96732593],[151605.18238948,164131.63110234],[151607.30340818,164132.8453281],[151609.28333272,164134.10831755],[151611.14012531,164135.61232709],[151611.82,164136.4],[151616.06838622,164141.33390387]]},"geometry_name":"GEOM","properties":{"INSPIRE_ID":"https://databrussels.be/id/streetaxe/94607","TYPE":"S","HIERARCHY":null,"LVL":0,"STARTSN_ID":"https://databrussels.be/id/streetnode/12660","ENDSN_ID":"https://databrussels.be/id/streetnode/13103","STRNAMEFRE":"Drève des Deux Triages","STRNAMEDUT":"Tweekapbossendreef","SLOPE":4.09,"LENGTH":326.525935851707},"bbox":[151325.07264781,163995.19675476,151616.06838622,164141.33390387]},{"type":"Feature","id":"StreetAxes.fid-13d79f14_1a031586a2a_-70b6","geometry":{"type":"LineString","coordinates":[[152132.954,163703.804],[152129.712,163704.5665],[152114.67919019,163706.96214152],[152110.06294613,163707.71594826],[152098.03038072,163710.22334754],[152065.47161594,163717.93746852],[152025.28534762,163727.60082463],[151998.96609504,163734.13910628],[151993.43499814,163735.35669637],[151966.8800807,163740.09715511],[151946.78256789,163744.14242101],[151921.27825332,163749.65526172]]},"geometry_name":"GEOM","properties":{"INSPIRE_ID":"https://databrussels.be/id/streetaxe/94728","TYPE":"S","HIERARCHY":"DR","LVL":0,"STARTSN_ID":"https://databrussels.be/id/streetnode/11417","ENDSN_ID":"https://databrussels.be/id/streetnode/12364","STRNAMEFRE":"Inconnu (Promenade pour Cavaliers)","STRNAMEDUT":"Ongekend (Wandelpad voor ruiters)","SLOPE":4.81,"LENGTH":216.664694977722},"bbox":[151921.27825332,163703.804,152132.954,163749.65526172]},{"type":"Feature","id":"StreetAxes.fid-13d79f14_1a031586a2a_-70ba","geometry":{"type":"LineString","coordinates":[[151397.58102394,163867.26647474],[151401.22216397,163869.25095667],[151407.525,163874],[151418.082772,163881.84451671],[151422.86407681,163885.694672],[151425.8672104,163888.38966088],[151458.62124474,163917.45002294],[151472.38734706,163928.33948163],[151485.82229012,163937.39015403],[151499.249188,163945.28225769],[151506.96307909,163949.55026144],[151513.03700061,163953.64397231],[151520.09829253,163959.88516418],[151526.57046084,163967.4430976],[151539.54497387,163982.2734752],[151556.86774402,164002.39896448],[151568.27498175,164014.30225642],[151582.73504607,164029.88816559],[151603.63402101,164052.01420102],[151612.31559019,164058.8542079],[151622.90917987,164065.05543842],[151633.49139405,164070.13235889],[151662.14824778,164078.98585823],[151670.00526229,164081.41327309],[151678.26127791,164083.43546581],[151686.98324955,164083.86019135],[151691.61966633,164082.69064527],[151695.25982826,164080.77335661],[151697.44953834,164078.76245033],[151699.59531801,164076.38501239],[151702.33501883,164071.55344496],[151705.2815228,164064.60657826],[151711.75267026,164051.5372977],[151716.3453905,164045.68342596],[151721.94767755,164042.15044713],[151728.88793366,164040.33860934],[151732.84421492,164040.5063721],[151737.0213819,164041.96347521],[151740.35837882,164044.65759508],[151742.56163473,164048.01285024],[151744.41057426,164051.1305039],[151746.4655637,164059.81752271],[151747.3177003,164068.48246917],[151748.32353451,164083.31269698],[151748.83771487,164098.10570243],[151748.43538118,164110.08396335],[151747.48612514,164126.86390896],[151747.69761975,164137.72152964],[151748.12988898,164143.4218685],[151748.91060792,164149.13673681],[151751.80521348,164158.4816385],[151755.21168641,164165.44300657],[151758.09028815,164169.59753144],[151761.90856656,164173.93860679],[151769.02484366,164179.81869146],[151776.46814785,164184.91173288],[151788.74770728,164191.55146828],[151812.88533369,164202.56149843],[151820.08302611,164206.18848807],[151837.46788645,164215.58174209],[151856.41955437,164227.48480935],[151867.525,164234.31],[151874.13051934,164238.25373814]]},"geometry_name":"GEOM","properties":{"INSPIRE_ID":"https://databrussels.be/id/streetaxe/94780","TYPE":"S","HIERARCHY":null,"LVL":0,"STARTSN_ID":"https://databrussels.be/id/streetnode/13523","ENDSN_ID":"https://databrussels.be/id/streetnode/12430","STRNAMEFRE":"Chemin du Fer à Cheval","STRNAMEDUT":"Hoefijzerweg","SLOPE":3.1,"LENGTH":709.725574184951},"bbox":[151397.58102394,163867.26647474,151874.13051934,164238.25373814]},{"type":"Feature","id":"StreetAxes.fid-13d79f14_1a031586a2a_-70b7","geometry":{"type":"LineString","coordinates":[[151422.05798739,163411.00350486],[151443.53340512,163410.07656833],[151461.75800286,163409.5477278],[151471.89109838,163409.97017325],[151475.18640287,163410.33925132],[151481.96229945,163411.09815989],[151490.35007404,163413.1573614],[151498.66130315,163415.59778527],[151510.06075763,163419.80286365],[151519.04000538,163423.50412131],[151529.7018481,163429.30871274],[151534.92116836,163432.58648411],[151550.26642666,163443.26458366],[151613.45115932,163488.80748691],[151654.7045922,163518.78795678],[151720.07542981,163566.82590509],[151736.1017217,163579.07258643],[151757.91844552,163596.64064253],[151802.37215857,163632.4372787],[151829.62018423,163654.37892527],[151861.6007433,163681.25163742],[151881.85221246,163698.77206088],[151894.21256042,163710.47145367],[151905.11338232,163722.51056604],[151911.19116072,163730.77867814],[151915.03518369,163736.77350055],[151917.68507639,163741.68082913],[151918.78,163744.32],[151921.27825332,163749.65526172]]},"geometry_name":"GEOM","properties":{"INSPIRE_ID":"https://databrussels.be/id/streetaxe/94887","TYPE":"S","HIERARCHY":null,"LVL":0,"STARTSN_ID":"https://databrussels.be/id/streetnode/12355","ENDSN_ID":"https://databrussels.be/id/streetnode/12364","STRNAMEFRE":"Chemin du Fer à Cheval","STRNAMEDUT":"Hoefijzerweg","SLOPE":3.7,"LENGTH":619.929312443991},"bbox":[151422.05798739,163409.5477278,151921.27825332,163749.65526172]},{"type":"Feature","id":"StreetAxes.fid-13d79f14_1a031586a2a_-70b5","geometry":{"type":"LineString","coordinates":[[151397.58102394,163867.26647474],[151409.053,163865.955],[151439.39339599,163860.03161176],[151452.66334076,163857.61853493],[151470.61140358,163853.54245694],[151503.31935122,163846.52158551],[151526.98031025,163841.7511691],[151570.23342683,163832.15850958],[151621.4223013,163819.51119636],[151662.00980753,163810.44152225],[151681.03858285,163805.64360567],[151693.0184875,163803.79821533],[151703.42284918,163801.59242996],[151741.56072998,163792.37386641],[151749.36898585,163790.26565399],[151773.01447195,163784.29929133],[151782.73753607,163781.27956168],[151796.21010169,163778.92271962],[151804.48308814,163776.80890886],[151818.01619839,163773.99671074],[151849.00895172,163767.20398543],[151871.95244935,163760.79492382],[151880.65136332,163758.70129556],[151900.20046981,163754.4604927],[151909.9981162,163751.98924456],[151913.14,163751.305],[151921.27825332,163749.65526172]]},"geometry_name":"GEOM","properties":{"INSPIRE_ID":"https://databrussels.be/id/streetaxe/94981","TYPE":"S","HIERARCHY":"DR","LVL":0,"STARTSN_ID":"https://databrussels.be/id/streetnode/13523","ENDSN_ID":"https://databrussels.be/id/streetnode/12364","STRNAMEFRE":"Inconnu (Promenade pour Cavaliers)","STRNAMEDUT":"Ongekend (Wandelpad voor ruiters)","SLOPE":2.27,"LENGTH":536.999644179775},"bbox":[151397.58102394,163749.65526172,151921.27825332,163867.26647474]}],"numberReturned":7,"grand_bruxelles_source":{"authority":"Paradigm / Brussels-Capital Region","service":"https://geoservices-urbis.irisnet.be/geoserver/urbisvector/wfs","layer":"urbisvector:StreetAxes","crs":"EPSG:31370","bbox":[151500.0,163500.0,152000.0,164000.0],"cell_id":"bxl-e151500-n163500-s500","ownership":"bbox_intersection_source_unclipped"}}
