{"type":"FeatureCollection","totalFeatures":18,"numberMatched":18,"timeStamp":"2026-08-23T07:04:05.387Z","crs":{"type":"name","properties":{"name":"urn:ogc:def:crs:EPSG::31370"}},"bbox":[149317.67714172,164910.088,150483.08,165695.612],"features":[{"type":"Feature","id":"StreetAxes.fid--578fcb21_1a02d6d07e8_891","geometry":{"type":"LineString","coordinates":[[149665.21748268,165433.27715109],[149658.46901828,165430.42379357],[149581.14023749,165395.42317199],[149571.64433045,165391.37337292]]},"geometry_name":"GEOM","properties":{"INSPIRE_ID":"https://databrussels.be/id/streetaxe/70206","TYPE":"S","HIERARCHY":"DC","LVL":0,"STARTSN_ID":"https://databrussels.be/id/streetnode/4069","ENDSN_ID":"https://databrussels.be/id/streetnode/2723","STRNAMEFRE":"Avenue de l'Observatoire","STRNAMEDUT":"Sterrewachtlaan","SLOPE":3.05,"LENGTH":102.531321181297},"bbox":[149571.64433045,165391.37337292,149665.21748268,165433.27715109]},{"type":"Feature","id":"StreetAxes.fid--578fcb21_1a02d6d07e8_892","geometry":{"type":"LineString","coordinates":[[149779.048,165484.5],[149757.082,165474.755],[149672.232,165436.243],[149665.21748268,165433.27715109]]},"geometry_name":"GEOM","properties":{"INSPIRE_ID":"https://databrussels.be/id/streetaxe/70827","TYPE":"S","HIERARCHY":"DC","LVL":0,"STARTSN_ID":"https://databrussels.be/id/streetnode/2024","ENDSN_ID":"https://databrussels.be/id/streetnode/4069","STRNAMEFRE":"Avenue de l'Observatoire","STRNAMEDUT":"Sterrewachtlaan","SLOPE":3,"LENGTH":124.827352154917},"bbox":[149665.21748268,165433.27715109,149779.048,165484.5]},{"type":"Feature","id":"StreetAxes.fid--578fcb21_1a02d6d07e8_884","geometry":{"type":"LineString","coordinates":[[149833.851,165509.091],[149828.239,165506.535],[149801.013,165494.245],[149779.048,165484.5]]},"geometry_name":"GEOM","properties":{"INSPIRE_ID":"https://databrussels.be/id/streetaxe/73103","TYPE":"S","HIERARCHY":"DC","LVL":0,"STARTSN_ID":"https://databrussels.be/id/streetnode/793","ENDSN_ID":"https://databrussels.be/id/streetnode/2024","STRNAMEFRE":"Avenue du Vert Chasseur","STRNAMEDUT":"Groene Jagerslaan","SLOPE":2.26,"LENGTH":60.0677311124163},"bbox":[149779.048,165484.5,149833.851,165509.091]},{"type":"Feature","id":"StreetAxes.fid--578fcb21_1a02d6d07e8_890","geometry":{"type":"LineString","coordinates":[[149571.64433045,165391.37337292],[149564.52,165388.335],[149485.445,165352.365],[149477.315,165348.577]]},"geometry_name":"GEOM","properties":{"INSPIRE_ID":"https://databrussels.be/id/streetaxe/73427","TYPE":"S","HIERARCHY":"DC","LVL":0,"STARTSN_ID":"https://databrussels.be/id/streetnode/2723","ENDSN_ID":"https://databrussels.be/id/streetnode/9999","STRNAMEFRE":"Avenue de l'Observatoire","STRNAMEDUT":"Sterrewachtlaan","SLOPE":2.58,"LENGTH":103.586064045661},"bbox":[149477.315,165348.577,149571.64433045,165391.37337292]},{"type":"Feature","id":"StreetAxes.fid--578fcb21_1a02d6d07e8_881","geometry":{"type":"LineString","coordinates":[[149392.657,165694.214],[149400.75,165695.612],[149409.016,165686.692],[149445.795,165647],[149455.91,165634.01],[149461.715,165625.01],[149470.425,165607.54],[149526.945,165469.838],[149568.09150962,165396.9299739],[149571.64433045,165391.37337292]]},"geometry_name":"GEOM","properties":{"INSPIRE_ID":"https://databrussels.be/id/streetaxe/74100","TYPE":"S","HIERARCHY":null,"LVL":0,"STARTSN_ID":"https://databrussels.be/id/streetnode/10002","ENDSN_ID":"https://databrussels.be/id/streetnode/2723","STRNAMEFRE":"Rue Copernic","STRNAMEDUT":"Copernicusstraat","SLOPE":5.28,"LENGTH":360.34357091131},"bbox":[149392.657,165391.37337292,149571.64433045,165695.612]},{"type":"Feature","id":"StreetAxes.fid--578fcb21_1a02d6d07e8_88b","geometry":{"type":"LineString","coordinates":[[149515.448,165021.387],[149505.0485,165031.5585],[149450.775,165087.05],[149436.6,165100.95],[149427.624,165110.407]]},"geometry_name":"GEOM","properties":{"INSPIRE_ID":"https://databrussels.be/id/streetaxe/74105","TYPE":"S","HIERARCHY":"DR","LVL":0,"STARTSN_ID":"https://databrussels.be/id/streetnode/3741","ENDSN_ID":"https://databrussels.be/id/streetnode/9942","STRNAMEFRE":"Rue de l'Equateur","STRNAMEDUT":"Evenaarsstraat","SLOPE":8.77,"LENGTH":125.058652511786},"bbox":[149427.624,165021.387,149515.448,165110.407]},{"type":"Feature","id":"StreetAxes.fid--578fcb21_1a02d6d07e8_882","geometry":{"type":"LineString","coordinates":[[149665.21748268,165433.27715109],[149662.39701828,165439.05279357],[149613.525,165529.79],[149592.63,165570.935],[149580.095,165599.245],[149569.57,165630.107],[149558.126,165673.412],[149556.9,165679.938]]},"geometry_name":"GEOM","properties":{"INSPIRE_ID":"https://databrussels.be/id/streetaxe/75294","TYPE":"S","HIERARCHY":"DC","LVL":0,"STARTSN_ID":"https://databrussels.be/id/streetnode/4069","ENDSN_ID":"https://databrussels.be/id/streetnode/2972","STRNAMEFRE":"Avenue Hamoir","STRNAMEDUT":"Hamoirlaan","SLOPE":3.69,"LENGTH":270.635955903171},"bbox":[149556.9,165433.27715109,149665.21748268,165679.938]},{"type":"Feature","id":"StreetAxes.fid--578fcb21_1a02d6d07e8_883","geometry":{"type":"LineString","coordinates":[[149815.926,165542.628],[149808.906,165534.322],[149788.902,165507.624],[149776.269,165490.764],[149779.048,165484.5]]},"geometry_name":"GEOM","properties":{"INSPIRE_ID":"https://databrussels.be/id/streetaxe/75295","TYPE":"S","HIERARCHY":"DR","LVL":0,"STARTSN_ID":"https://databrussels.be/id/streetnode/1501","ENDSN_ID":"https://databrussels.be/id/streetnode/2024","STRNAMEFRE":"Avenue de l'Observatoire","STRNAMEDUT":"Sterrewachtlaan","SLOPE":4.52,"LENGTH":72.1565844982508},"bbox":[149776.269,165484.5,149815.926,165542.628]},{"type":"Feature","id":"StreetAxes.fid--578fcb21_1a02d6d07e8_88c","geometry":{"type":"LineString","coordinates":[[149659.77,165094.548],[149664.76590557,165097.05799612],[149866.738,165198.696],[149886.932,165214.526]]},"geometry_name":"GEOM","properties":{"INSPIRE_ID":"https://databrussels.be/id/streetaxe/75601","TYPE":"S","HIERARCHY":"DR","LVL":0,"STARTSN_ID":"https://databrussels.be/id/streetnode/2605","ENDSN_ID":"https://databrussels.be/id/streetnode/3846","STRNAMEFRE":"Avenue Albert Lancaster","STRNAMEDUT":"Albert Lancasterlaan","SLOPE":4.22,"LENGTH":257.35401468125},"bbox":[149659.77,165094.548,149886.932,165214.526]},{"type":"Feature","id":"StreetAxes.fid--578fcb21_1a02d6d07e8_889","geometry":{"type":"LineString","coordinates":[[149659.77,165094.548],[149662.545,165089.3765],[149713.405,164990.145],[149715.824,164983.585]]},"geometry_name":"GEOM","properties":{"INSPIRE_ID":"https://databrussels.be/id/streetaxe/75602","TYPE":"S","HIERARCHY":"DR","LVL":0,"STARTSN_ID":"https://databrussels.be/id/streetnode/2605","ENDSN_ID":"https://databrussels.be/id/streetnode/3465","STRNAMEFRE":"Rue Copernic","STRNAMEDUT":"Copernicusstraat","SLOPE":5.72,"LENGTH":124.366970890999},"bbox":[149659.77,164983.585,149715.824,165094.548]},{"type":"Feature","id":"StreetAxes.fid--578fcb21_1a02d6d07e8_88a","geometry":{"type":"LineString","coordinates":[[149515.448,165021.387],[149527.27,165027.215],[149654.432,165091.866],[149659.77,165094.548]]},"geometry_name":"GEOM","properties":{"INSPIRE_ID":"https://databrussels.be/id/streetaxe/75603","TYPE":"S","HIERARCHY":"DR","LVL":0,"STARTSN_ID":"https://databrussels.be/id/streetnode/3741","ENDSN_ID":"https://databrussels.be/id/streetnode/2605","STRNAMEFRE":"Avenue Albert Lancaster","STRNAMEDUT":"Albert Lancasterlaan","SLOPE":3.5,"LENGTH":161.807545643944},"bbox":[149515.448,165021.387,149659.77,165094.548]},{"type":"Feature","id":"StreetAxes.fid--578fcb21_1a02d6d07e8_88f","geometry":{"type":"LineString","coordinates":[[150483.08,165368.475],[150455.821,165358.466],[150440.205,165351.345],[150376.11,165319.83],[150358.965,165313.244],[150323.445,165301.545],[150304.188,165296.172],[150289.26,165292.33],[150269.405,165287.84],[150260.49,165286.265],[150245.495,165283.87],[150209.224,165281.363],[150152.85,165277.065],[150145,165275.982],[150108.27,165267.145],[150053.578,165254.59],[149986.66,165238.735],[149927.8,165225.29],[149909.826,165221.562],[149886.932,165214.526]]},"geometry_name":"GEOM","properties":{"INSPIRE_ID":"https://databrussels.be/id/streetaxe/75604","TYPE":"S","HIERARCHY":"DC","LVL":0,"STARTSN_ID":"https://databrussels.be/id/streetnode/740","ENDSN_ID":"https://databrussels.be/id/streetnode/3846","STRNAMEFRE":"Avenue Hamoir","STRNAMEDUT":"Hamoirlaan","SLOPE":0.46,"LENGTH":619.556418158079},"bbox":[149886.932,165214.526,150483.08,165368.475]},{"type":"Feature","id":"StreetAxes.fid--578fcb21_1a02d6d07e8_88e","geometry":{"type":"LineString","coordinates":[[149886.932,165214.526],[149863.593,165211.579],[149846.555,165211.765],[149831.19,165214.54],[149819.625,165218.38],[149811.38,165221.895],[149800.94,165227.31],[149789.81,165235.985],[149779.635,165246.445],[149763.255,165267.035],[149736.965,165304.395],[149718.29,165335.79],[149668.172,165427.227],[149665.21748268,165433.27715109]]},"geometry_name":"GEOM","properties":{"INSPIRE_ID":"https://databrussels.be/id/streetaxe/75605","TYPE":"S","HIERARCHY":null,"LVL":0,"STARTSN_ID":"https://databrussels.be/id/streetnode/3846","ENDSN_ID":"https://databrussels.be/id/streetnode/4069","STRNAMEFRE":"Avenue Hamoir","STRNAMEDUT":"Hamoirlaan","SLOPE":3.68,"LENGTH":337.318109316863},"bbox":[149665.21748268,165211.579,149886.932,165433.27715109]},{"type":"Feature","id":"StreetAxes.fid--578fcb21_1a02d6d07e8_88d","geometry":{"type":"LineString","coordinates":[[149571.64433045,165391.37337292],[149576.33,165384.045],[149594.225,165339.96],[149609.468,165294.842],[149616.516,165268.479],[149622.94,165230.435],[149636.873,165149.748],[149639.282,165139.782],[149642.223,165130.181],[149646.149,165121.154],[149657.04610475,165099.69037329],[149659.77,165094.548]]},"geometry_name":"GEOM","properties":{"INSPIRE_ID":"https://databrussels.be/id/streetaxe/75606","TYPE":"S","HIERARCHY":"DR","LVL":0,"STARTSN_ID":"https://databrussels.be/id/streetnode/2723","ENDSN_ID":"https://databrussels.be/id/streetnode/2605","STRNAMEFRE":"Rue Copernic","STRNAMEDUT":"Copernicusstraat","SLOPE":6.47,"LENGTH":311.68160013689},"bbox":[149571.64433045,165094.548,149659.77,165391.37337292]},{"type":"Feature","id":"StreetAxes.fid--578fcb21_1a02d6d07e8_886","geometry":{"type":"LineString","coordinates":[[149317.67714172,164922.75834913],[149321.80827126,164931.97170375],[149326.02272222,164937.72955039],[149338.15911771,164942.82370463],[149380.97853865,164958.23545288],[149415.02821866,164972.73518323],[149455.245,164990.975],[149504.477,165015.859],[149515.448,165021.387]]},"geometry_name":"GEOM","properties":{"INSPIRE_ID":"https://databrussels.be/id/streetaxe/76503","TYPE":"S","HIERARCHY":"DR","LVL":0,"STARTSN_ID":"https://databrussels.be/id/streetnode/9869","ENDSN_ID":"https://databrussels.be/id/streetnode/3741","STRNAMEFRE":"Avenue Albert Lancaster","STRNAMEDUT":"Albert Lancasterlaan","SLOPE":1.2,"LENGTH":224.519813523522},"bbox":[149317.67714172,164922.75834913,149515.448,165021.387]},{"type":"Feature","id":"StreetAxes.fid--578fcb21_1a02d6d07e8_887","geometry":{"type":"LineString","coordinates":[[149613.644,164928.902],[149608.449,164938.674],[149606.922,164940.018],[149524.9375,165012.15],[149515.448,165021.387]]},"geometry_name":"GEOM","properties":{"INSPIRE_ID":"https://databrussels.be/id/streetaxe/76883","TYPE":"S","HIERARCHY":"DR","LVL":0,"STARTSN_ID":"https://databrussels.be/id/streetnode/9647","ENDSN_ID":"https://databrussels.be/id/streetnode/3741","STRNAMEFRE":"Rue de l'Equateur","STRNAMEDUT":"Evenaarsstraat","SLOPE":8.01,"LENGTH":135.543415077291},"bbox":[149515.448,164928.902,149613.644,165021.387]},{"type":"Feature","id":"StreetAxes.fid--578fcb21_1a02d6d07e8_885","geometry":{"type":"LineString","coordinates":[[150167.89229086,165016.04629447],[150159.788,165013.208],[149854.501,164911.214],[149850.181,164910.088]]},"geometry_name":"GEOM","properties":{"INSPIRE_ID":"https://databrussels.be/id/streetaxe/80690","TYPE":"S","HIERARCHY":"IDR","LVL":0,"STARTSN_ID":"https://databrussels.be/id/streetnode/9672","ENDSN_ID":"https://databrussels.be/id/streetnode/474","STRNAMEFRE":"Avenue du Prince de Ligne","STRNAMEDUT":"Prins de Lignelaan","SLOPE":2.07,"LENGTH":334.925356180019},"bbox":[149850.181,164910.088,150167.89229086,165016.04629447]},{"type":"Feature","id":"StreetAxes.fid--578fcb21_1a02d6d07e8_888","geometry":{"type":"LineString","coordinates":[[150381.8400132,165090.81234966],[150360.582,165092.665],[150340.882,165094.464],[150303.015,165096.76],[150282.22,165097.675],[150234.98,165096.76],[150204.495,165094.445],[150179.93,165091.744],[150163.179,165089.552],[150000,165065.44],[149938.725,165055.635],[149910.385,165050.755],[149891.015,165046.145],[149870.444,165041.533],[149846.525,165035.05],[149836.72,165032.355],[149815.79,165025.79],[149787.54,165015.965],[149757.44,165003.395],[149721.892,164986.521],[149715.824,164983.585]]},"geometry_name":"GEOM","properties":{"INSPIRE_ID":"https://databrussels.be/id/streetaxe/94268","TYPE":"S","HIERARCHY":"H","LVL":0,"STARTSN_ID":"https://databrussels.be/id/streetnode/733","ENDSN_ID":"https://databrussels.be/id/streetnode/3465","STRNAMEFRE":"Avenue Latérale","STRNAMEDUT":"Zijlaan","SLOPE":0.26,"LENGTH":681.561510437199},"bbox":[149715.824,164983.585,150381.8400132,165097.675]}],"numberReturned":18,"grand_bruxelles_source":{"authority":"Paradigm / Brussels-Capital Region","service":"https://geoservices-urbis.irisnet.be/geoserver/urbisvector/wfs","layer":"urbisvector:StreetAxes","crs":"EPSG:31370","bbox":[149500.0,165000.0,150000.0,165500.0],"cell_id":"bxl-e149500-n165000-s500","ownership":"bbox_intersection_source_unclipped"}}
