{"type":"FeatureCollection","totalFeatures":4,"numberMatched":4,"timeStamp":"2026-08-23T07:04:06.232Z","crs":{"type":"name","properties":{"name":"urn:ogc:def:crs:EPSG::31370"}},"bbox":[149087.13966186,164615.69697842,150476.41236535,165092.94011195],"features":[{"type":"Feature","id":"TrainNetwork.fid--63af041f_1a02d6d19f0_-6149","geometry":{"type":"LineString","coordinates":[[149087.13966186,164620.1455146],[149106.44998621,164630.52984881],[149425.8255311,164802.86137249],[149574.13873461,164883.76282876],[149628.42359102,164912.4827999],[149652.03978714,164925.05358842],[149680.46082572,164939.63933551],[149712.39734376,164954.95272371],[149748.7369936,164970.57339934],[149772.46065981,164979.65057467],[149795.81834407,164987.6876356],[149820.26148726,164995.12694992],[149844.18175619,165001.51128787],[149866.72538047,165006.80629736],[149894.56785845,165012.40398818],[149915.26976609,165016.05717544],[149944.75062895,165020.75780576],[149970.52098642,165024.55308308],[150003.0146069,165029.09508422],[150305.54534444,165070.37497259],[150359.60525056,165077.96341614],[150396.82155548,165082.4034049],[150475.71237627,165092.94011195]]},"geometry_name":"GEOM","properties":{"INSPIRE_ID":"https://databrussels.be/id/rail/24260","TYPE":"RW","LVL":0,"SLOPE":null,"LENGTH":1487.55330908107},"bbox":[149087.13966186,164620.1455146,150475.71237627,165092.94011195]},{"type":"Feature","id":"TrainNetwork.fid--63af041f_1a02d6d19f0_-6147","geometry":{"type":"LineString","coordinates":[[149088.81532387,164617.02951542],[149108.38373297,164627.5584909],[149427.39059283,164799.70933022],[149531.75751907,164856.20958443],[149562.86646176,164873.27286215],[149575.90270631,164880.50804124],[149630.15992136,164909.21338844],[149630.16039176,164909.21364219],[149653.75470256,164921.77278125],[149682.10650964,164936.32299856],[149713.92922269,164951.58181788],[149750.12996787,164967.14278505],[149773.72469745,164976.1706265],[149796.95986935,164984.1655326],[149821.27802788,164991.56680762],[149845.08249582,164997.9202382],[149867.51364117,165003.18882882],[149895.25444088,165008.76607737],[149915.88291037,165012.40630527],[149945.3117772,165017.09864499],[149971.04691262,165020.88873506],[150003.52108227,165025.42801733],[150306.05288045,165066.70805042],[150360.08538691,165074.29264786],[150476.20036227,165089.50264147]]},"geometry_name":"GEOM","properties":{"INSPIRE_ID":"https://databrussels.be/id/rail/24690","TYPE":"RW","LVL":0,"SLOPE":null,"LENGTH":1486.24353052322},"bbox":[149088.81532387,164617.02951542,150476.20036227,165089.50264147]},{"type":"Feature","id":"TrainNetwork.fid--63af041f_1a02d6d19f0_-6148","geometry":{"type":"LineString","coordinates":[[149087.86810899,164618.79092123],[149107.15706417,164629.20694443],[149426.5406556,164801.54280992],[149574.85347596,164882.44402573],[149629.12576613,164911.15734857],[149652.73465144,164923.72424252],[149681.1276382,164938.29559334],[149713.01804375,164953.58687085],[149749.30141099,164969.18335329],[149772.97283354,164978.2405391],[149796.28087718,164986.26051936],[149820.67337801,164993.68442059],[149844.54672568,165000.05623522],[149867.04477477,165005.34054008],[149894.84605387,165010.92994793],[149915.51820521,165014.5778842],[149944.97799986,165019.27515527],[149970.73408576,165023.06833077],[150003.21982498,165027.60923025],[150305.75099228,165068.88917727],[150359.79979637,165076.47606241],[150396.68881992,165080.94218681],[150475.92323045,165091.45481313]]},"geometry_name":"GEOM","properties":{"INSPIRE_ID":"https://databrussels.be/id/rail/24691","TYPE":"RW","LVL":0,"SLOPE":null,"LENGTH":1487.02388979702},"bbox":[149087.86810899,164618.79092123,150475.92323045,165091.45481313]},{"type":"Feature","id":"TrainNetwork.fid--63af041f_1a02d6d19f0_-6146","geometry":{"type":"LineString","coordinates":[[149089.53190995,164615.69697842],[149109.09185552,164626.23614992],[149428.10383083,164798.38974978],[149532.47526324,164854.89244345],[149563.58782556,164871.95770655],[149576.61745936,164879.18921663],[149630.86673061,164907.89036108],[149630.86944461,164907.8918251],[149654.44957823,164920.4434136],[149682.77333302,164934.97923441],[149714.54993283,164950.21594268],[149750.6943945,164965.75271626],[149774.23687956,164974.76056786],[149797.42241002,164982.73839301],[149821.68992536,164990.12425468],[149845.44747128,164996.46516174],[149867.8330407,165001.72304756],[149895.53264085,165007.292013],[149916.13135356,165010.92698983],[149945.53915182,165015.61597024],[149971.26001544,165019.40395845],[150003.72630372,165023.94213906],[150306.25853166,165065.22223079],[150360.2799359,165072.8052698],[150392.88504236,165076.96727629],[150476.41236535,165088.00924961]]},"geometry_name":"GEOM","properties":{"INSPIRE_ID":"https://databrussels.be/id/rail/25007","TYPE":"RW","LVL":0,"SLOPE":null,"LENGTH":1485.7152543409},"bbox":[149089.53190995,164615.69697842,150476.41236535,165088.00924961]}],"numberReturned":4,"grand_bruxelles_source":{"authority":"Paradigm / Brussels-Capital Region","service":"https://geoservices-urbis.irisnet.be/geoserver/urbisvector/wfs","layer":"urbisvector:TrainNetwork","crs":"EPSG:31370","bbox":[149500.0,165000.0,150000.0,165500.0],"cell_id":"bxl-e149500-n165000-s500","ownership":"bbox_intersection_source_unclipped"}}
