{"type":"FeatureCollection","totalFeatures":76,"numberMatched":76,"timeStamp":"2026-08-23T00:57:40.257Z","crs":{"type":"name","properties":{"name":"urn:ogc:def:crs:EPSG::31370"}},"bbox":[145791.60888637,175168.89318697,146610.97629889,176015.08810974],"features":[{"type":"Feature","id":"StreetAxes.fid--2dded296_1a02c03a58e_27d0","geometry":{"type":"LineString","coordinates":[[146031.02489292,175807.8964433],[146031.53709494,175815.83109055]]},"geometry_name":"GEOM","properties":{"INSPIRE_ID":"https://databrussels.be/id/streetaxe/69508","TYPE":"I","HIERARCHY":"DR","LVL":0,"STARTSN_ID":"https://databrussels.be/id/streetnode/","ENDSN_ID":"https://databrussels.be/id/streetnode/","STRNAMEFRE":"Avenue de l'Arbre Ballon","STRNAMEDUT":"Dikke-Beuklaan","SLOPE":null,"LENGTH":7.95116204579106},"bbox":[146031.02489292,175807.8964433,146031.53709494,175815.83109055]},{"type":"Feature","id":"StreetAxes.fid--2dded296_1a02c03a58e_27ba","geometry":{"type":"LineString","coordinates":[[146031.53709494,175815.83109055],[146032.21398634,175826.31698134]]},"geometry_name":"GEOM","properties":{"INSPIRE_ID":"https://databrussels.be/id/streetaxe/69563","TYPE":"I","HIERARCHY":"MAR","LVL":0,"STARTSN_ID":"https://databrussels.be/id/streetnode/","ENDSN_ID":"https://databrussels.be/id/streetnode/","STRNAMEFRE":"Avenue de l'Arbre Ballon","STRNAMEDUT":"Dikke-Beuklaan","SLOPE":null,"LENGTH":10.5077156235472},"bbox":[146031.53709494,175815.83109055,146032.21398634,175826.31698134]},{"type":"Feature","id":"StreetAxes.fid--2dded296_1a02c03a58e_27c0","geometry":{"type":"LineString","coordinates":[[146135.51145236,175867.99459371],[146132.82578734,175880.29268932]]},"geometry_name":"GEOM","properties":{"INSPIRE_ID":"https://databrussels.be/id/streetaxe/69566","TYPE":"I","HIERARCHY":"MER","LVL":0,"STARTSN_ID":"https://databrussels.be/id/streetnode/","ENDSN_ID":"https://databrussels.be/id/streetnode/","STRNAMEFRE":"Avenue de l'Exposition","STRNAMEDUT":"Tentoonstellingslaan","SLOPE":null,"LENGTH":12.5879288354376},"bbox":[146132.82578734,175867.99459371,146135.51145236,175880.29268932]},{"type":"Feature","id":"StreetAxes.fid--2dded296_1a02c03a58e_27c1","geometry":{"type":"LineString","coordinates":[[146135.51145236,175867.99459371],[146141.0262983,175868.90037332],[146146.68244947,175868.55108438]]},"geometry_name":"GEOM","properties":{"INSPIRE_ID":"https://databrussels.be/id/streetaxe/69567","TYPE":"IC","HIERARCHY":"DR","LVL":0,"STARTSN_ID":"https://databrussels.be/id/streetnode/","ENDSN_ID":"https://databrussels.be/id/streetnode/","STRNAMEFRE":"Avenue de l'Exposition","STRNAMEDUT":"Tentoonstellingslaan","SLOPE":null,"LENGTH":11.2556611869625},"bbox":[146135.51145236,175867.99459371,146146.68244947,175868.90037332]},{"type":"Feature","id":"StreetAxes.fid--2dded296_1a02c03a58e_27c2","geometry":{"type":"LineString","coordinates":[[146146.68244947,175868.55108438],[146144.64819633,175877.6673015]]},"geometry_name":"GEOM","properties":{"INSPIRE_ID":"https://databrussels.be/id/streetaxe/69568","TYPE":"I","HIERARCHY":"DR","LVL":0,"STARTSN_ID":"https://databrussels.be/id/streetnode/","ENDSN_ID":"https://databrussels.be/id/streetnode/","STRNAMEFRE":"Avenue de l'Exposition","STRNAMEDUT":"Tentoonstellingslaan","SLOPE":null,"LENGTH":9.34042827429529},"bbox":[146144.64819633,175868.55108438,146146.68244947,175877.6673015]},{"type":"Feature","id":"StreetAxes.fid--2dded296_1a02c03a58e_27be","geometry":{"type":"LineString","coordinates":[[146146.68244947,175868.55108438],[146158.84323924,175867.56127723],[146226.81297081,175853.57317378],[146245.64629133,175850.74947914],[146261.2927051,175849.12819079],[146274.09361717,175848.25940251],[146291.35174815,175847.583354],[146307.98609126,175847.94738012],[146324.6374082,175848.79323673],[146342.99459399,175850.48521528],[146356.30206848,175852.44649886],[146370.26303502,175855.03182721],[146384.19429738,175858.15205109],[146397.08591329,175861.62887199],[146421.79464359,175868.86484494]]},"geometry_name":"GEOM","properties":{"INSPIRE_ID":"https://databrussels.be/id/streetaxe/69569","TYPE":"C","HIERARCHY":"DR","LVL":0,"STARTSN_ID":"https://databrussels.be/id/streetnode/","ENDSN_ID":"https://databrussels.be/id/streetnode/","STRNAMEFRE":"Avenue de l'Arbre Ballon","STRNAMEDUT":"Dikke-Beuklaan","SLOPE":null,"LENGTH":279.241690851455},"bbox":[146146.68244947,175847.583354,146421.79464359,175868.86484494]},{"type":"Feature","id":"StreetAxes.fid--2dded296_1a02c03a58e_27a0","geometry":{"type":"LineString","coordinates":[[146421.79464359,175868.86484494],[146422.06508748,175876.36075723]]},"geometry_name":"GEOM","properties":{"INSPIRE_ID":"https://databrussels.be/id/streetaxe/69570","TYPE":"I","HIERARCHY":"DR","LVL":0,"STARTSN_ID":"https://databrussels.be/id/streetnode/","ENDSN_ID":"https://databrussels.be/id/streetnode/","STRNAMEFRE":"Avenue de l'Arbre Ballon","STRNAMEDUT":"Dikkebeuklaan","SLOPE":null,"LENGTH":7.50078935530966},"bbox":[146421.79464359,175868.86484494,146422.06508748,175876.36075723]},{"type":"Feature","id":"StreetAxes.fid--2dded296_1a02c03a58e_27a1","geometry":{"type":"LineString","coordinates":[[146421.79464359,175868.86484494],[146458.83750219,175879.58009003],[146486.8290311,175886.77811895],[146492.39083083,175888.44039248]]},"geometry_name":"GEOM","properties":{"INSPIRE_ID":"https://databrussels.be/id/streetaxe/69571","TYPE":"C","HIERARCHY":"DR","LVL":0,"STARTSN_ID":"https://databrussels.be/id/streetnode/","ENDSN_ID":"https://databrussels.be/id/streetnode/","STRNAMEFRE":"Avenue de l'Arbre Ballon","STRNAMEDUT":"Dikke-Beuklaan","SLOPE":null,"LENGTH":73.2686017545665},"bbox":[146421.79464359,175868.86484494,146492.39083083,175888.44039248]},{"type":"Feature","id":"StreetAxes.fid--2dded296_1a02c03a58e_27a5","geometry":{"type":"LineString","coordinates":[[146492.39083083,175888.44039248],[146489.09237293,175897.40975038]]},"geometry_name":"GEOM","properties":{"INSPIRE_ID":"https://databrussels.be/id/streetaxe/69572","TYPE":"I","HIERARCHY":"IDR","LVL":0,"STARTSN_ID":"https://databrussels.be/id/streetnode/","ENDSN_ID":"https://databrussels.be/id/streetnode/","STRNAMEFRE":"Rue Profonde","STRNAMEDUT":"Diepestraat","SLOPE":null,"LENGTH":9.55663150890459},"bbox":[146489.09237293,175888.44039248,146492.39083083,175897.40975038]},{"type":"Feature","id":"StreetAxes.fid--2dded296_1a02c03a58e_27a7","geometry":{"type":"LineString","coordinates":[[146492.39083083,175888.44039248],[146529.50269537,175899.37016305],[146557.72909635,175908.2628011],[146578.22710512,175914.41728351],[146585.65542444,175916.87601386],[146590.4856885,175918.67112809],[146595.42264515,175920.8931884],[146610.97629889,175929.03523508]]},"geometry_name":"GEOM","properties":{"INSPIRE_ID":"https://databrussels.be/id/streetaxe/69573","TYPE":"C","HIERARCHY":"DR","LVL":0,"STARTSN_ID":"https://databrussels.be/id/streetnode/","ENDSN_ID":"https://databrussels.be/id/streetnode/","STRNAMEFRE":"Avenue de l'Arbre Ballon","STRNAMEDUT":"Dikke-Beuklaan","SLOPE":null,"LENGTH":125.63149467011},"bbox":[146492.39083083,175888.44039248,146610.97629889,175929.03523508]},{"type":"Feature","id":"StreetAxes.fid--2dded296_1a02c03a58e_27b3","geometry":{"type":"LineString","coordinates":[[146078.428,175640.797],[146083.974,175639.818],[146090.804,175639.118],[146101.493,175640.268],[146116.789,175640.58],[146130.154,175638.856],[146140.443,175636.017],[146178.476,175619.323],[146187.926,175613.376],[146190.047,175611.815]]},"geometry_name":"GEOM","properties":{"INSPIRE_ID":"https://databrussels.be/id/streetaxe/71559","TYPE":"S","HIERARCHY":"DR","LVL":0,"STARTSN_ID":"https://databrussels.be/id/streetnode/4050","ENDSN_ID":"https://databrussels.be/id/streetnode/4355","STRNAMEFRE":"Avenue du Bourgmestre Etienne Demunter","STRNAMEDUT":"Burgemeester Etienne Demunterlaan","SLOPE":3.47,"LENGTH":118.031175849647},"bbox":[146078.428,175611.815,146190.047,175640.797]},{"type":"Feature","id":"StreetAxes.fid--2dded296_1a02c03a58e_27ce","geometry":{"type":"LineString","coordinates":[[145997.138,175750.352],[146005.216,175737.056],[146009.621,175735.713]]},"geometry_name":"GEOM","properties":{"INSPIRE_ID":"https://databrussels.be/id/streetaxe/72636","TYPE":"S","HIERARCHY":"DR","LVL":0,"STARTSN_ID":"https://databrussels.be/id/streetnode/155","ENDSN_ID":"https://databrussels.be/id/streetnode/1971","STRNAMEFRE":"Clos Laurence Olivier","STRNAMEDUT":"Laurence Oliviergaarde","SLOPE":10.47,"LENGTH":20.1627399038696},"bbox":[145997.138,175735.713,146009.621,175750.352]},{"type":"Feature","id":"StreetAxes.fid--2dded296_1a02c03a58e_27b6","geometry":{"type":"LineString","coordinates":[[146059.348,175663.944],[146051.263,175663.81],[146045.828,175661.234],[146033.4685,175647.6235],[146024.3485,175638.6585],[146024.0665,175634.924],[146024.93125,175633.184]]},"geometry_name":"GEOM","properties":{"INSPIRE_ID":"https://databrussels.be/id/streetaxe/74580","TYPE":"S","HIERARCHY":"DR","LVL":0,"STARTSN_ID":"https://databrussels.be/id/streetnode/425","ENDSN_ID":"https://databrussels.be/id/streetnode/3031","STRNAMEFRE":"Square James Dean","STRNAMEDUT":"James Deanplein","SLOPE":2.2,"LENGTH":50.9621974892192},"bbox":[146024.0665,175633.184,146059.348,175663.944]},{"type":"Feature","id":"StreetAxes.fid--2dded296_1a02c03a58e_27b1","geometry":{"type":"LineString","coordinates":[[146048.866,175615.166],[146044.18569217,175609.97648134],[146035.99236226,175603.09833208],[146029.081,175587.569]]},"geometry_name":"GEOM","properties":{"INSPIRE_ID":"https://databrussels.be/id/streetaxe/74581","TYPE":"S","HIERARCHY":"DR","LVL":0,"STARTSN_ID":"https://databrussels.be/id/streetnode/412","ENDSN_ID":"https://databrussels.be/id/streetnode/2645","STRNAMEFRE":"Petite rue Anna Magnani","STRNAMEDUT":"Kleine Anna Magnanistraat","SLOPE":2.74,"LENGTH":34.6838029515245},"bbox":[146029.081,175587.569,146048.866,175615.166]},{"type":"Feature","id":"StreetAxes.fid--2dded296_1a02c03a58e_27cb","geometry":{"type":"LineString","coordinates":[[145965.791,175605.637],[145973.970155,175604.1595455],[145980.51,175603.236],[145988.846,175603.248],[145999.88,175601.394],[146007.43,175598.896],[146014.924,175595.288],[146029.081,175587.569]]},"geometry_name":"GEOM","properties":{"INSPIRE_ID":"https://databrussels.be/id/streetaxe/75714","TYPE":"S","HIERARCHY":"DR","LVL":0,"STARTSN_ID":"https://databrussels.be/id/streetnode/2489","ENDSN_ID":"https://databrussels.be/id/streetnode/2645","STRNAMEFRE":"Rue Audrey Hepburn","STRNAMEDUT":"Audrey Hepburnstraat","SLOPE":6.97,"LENGTH":66.8353998363798},"bbox":[145965.791,175587.569,146029.081,175605.637]},{"type":"Feature","id":"StreetAxes.fid--2dded296_1a02c03a58e_27a9","geometry":{"type":"LineString","coordinates":[[146248.94076996,175525.21947287],[146245.84692484,175535.58583589],[146231.24530081,175579.55855473]]},"geometry_name":"GEOM","properties":{"INSPIRE_ID":"https://databrussels.be/id/streetaxe/76319","TYPE":"S","HIERARCHY":"MER","LVL":0,"STARTSN_ID":"https://databrussels.be/id/streetnode/12210","ENDSN_ID":"https://databrussels.be/id/streetnode/12208","STRNAMEFRE":"Avenue de l'Exposition","STRNAMEDUT":"Tentoonstellingslaan","SLOPE":3.5,"LENGTH":57.1518490584276},"bbox":[146231.24530081,175525.21947287,146248.94076996,175579.55855473]},{"type":"Feature","id":"StreetAxes.fid--2dded296_1a02c03a58e_27a6","geometry":{"type":"LineString","coordinates":[[146492.39083083,175888.44039248],[146494.90450855,175881.60505433],[146505.87930586,175860.54455299],[146510.48898252,175853.29832229],[146515.10811269,175847.46769293],[146522.7407308,175840.45356898],[146526.56511319,175837.65175103],[146530.53696735,175835.06505002],[146535.24597477,175832.5923468],[146539.80140664,175830.50504451],[146546.85773382,175828.1858582],[146551.84113046,175826.988915],[146556.40613245,175826.29900858],[146572.648,175826.432]]},"geometry_name":"GEOM","properties":{"INSPIRE_ID":"https://databrussels.be/id/streetaxe/76820","TYPE":"S","HIERARCHY":"IDR","LVL":0,"STARTSN_ID":"https://databrussels.be/id/streetnode/15355","ENDSN_ID":"https://databrussels.be/id/streetnode/12206","STRNAMEFRE":"Avenue Joseph De Heyn","STRNAMEDUT":"Joseph De Heynlaan","SLOPE":0.56,"LENGTH":110.646653434624},"bbox":[146492.39083083,175826.29900858,146572.648,175888.44039248]},{"type":"Feature","id":"StreetAxes.fid--2dded296_1a02c03a58e_27d6","geometry":{"type":"LineString","coordinates":[[146370.63270906,175500.63796464],[146372.97727555,175492.53999304]]},"geometry_name":"GEOM","properties":{"INSPIRE_ID":"https://databrussels.be/id/streetaxe/77685","TYPE":"S","HIERARCHY":"DR","LVL":0,"STARTSN_ID":"https://databrussels.be/id/streetnode/8622","ENDSN_ID":"https://databrussels.be/id/streetnode/8708","STRNAMEFRE":"Rue Jean Baptiste Moyens","STRNAMEDUT":"Jean Baptiste Moyensstraat","SLOPE":0.59,"LENGTH":8.43054778877181},"bbox":[146370.63270906,175492.53999304,146372.97727555,175500.63796464]},{"type":"Feature","id":"StreetAxes.fid--2dded296_1a02c03a58e_27a3","geometry":{"type":"LineString","coordinates":[[146489.09237293,175897.40975038],[146481.03579919,175910.16860615],[146472.88142198,175925.20966106],[146433.164,175997.979],[146423.91626592,176015.08810974]]},"geometry_name":"GEOM","properties":{"INSPIRE_ID":"https://databrussels.be/id/streetaxe/78227","TYPE":"S","HIERARCHY":"IDR","LVL":0,"STARTSN_ID":"https://databrussels.be/id/streetnode/8620","ENDSN_ID":"https://databrussels.be/id/streetnode/3216","STRNAMEFRE":"Rue Profonde","STRNAMEDUT":"Diepestraat","SLOPE":5.23,"LENGTH":134.550003216947},"bbox":[146423.91626592,175897.40975038,146489.09237293,176015.08810974]},{"type":"Feature","id":"StreetAxes.fid--2dded296_1a02c03a58e_27b4","geometry":{"type":"LineString","coordinates":[[146048.866,175615.166],[146053.063,175619.489],[146065.654,175627.552],[146076.108,175634.366],[146078.428,175640.797]]},"geometry_name":"GEOM","properties":{"INSPIRE_ID":"https://databrussels.be/id/streetaxe/78339","TYPE":"S","HIERARCHY":"DR","LVL":0,"STARTSN_ID":"https://databrussels.be/id/streetnode/412","ENDSN_ID":"https://databrussels.be/id/streetnode/4050","STRNAMEFRE":"Square James Dean","STRNAMEDUT":"James Deanplein","SLOPE":0.72,"LENGTH":40.291966117939},"bbox":[146048.866,175615.166,146078.428,175640.797]},{"type":"Feature","id":"StreetAxes.fid--2dded296_1a02c03a58e_27b7","geometry":{"type":"LineString","coordinates":[[146059.348,175663.944],[146061.336,175657.93],[146067.041,175649.096],[146073.273,175643.422],[146078.428,175640.797]]},"geometry_name":"GEOM","properties":{"INSPIRE_ID":"https://databrussels.be/id/streetaxe/78340","TYPE":"S","HIERARCHY":"DR","LVL":0,"STARTSN_ID":"https://databrussels.be/id/streetnode/425","ENDSN_ID":"https://databrussels.be/id/streetnode/4050","STRNAMEFRE":"Avenue du Bourgmestre Etienne Demunter","STRNAMEDUT":"Burgemeester Etienne Demunterlaan","SLOPE":9.95,"LENGTH":31.0629955535366},"bbox":[146059.348,175640.797,146078.428,175663.944]},{"type":"Feature","id":"StreetAxes.fid--2dded296_1a02c03a58e_27e9","geometry":{"type":"LineString","coordinates":[[146439.06598218,175516.11386185],[146454.113,175520.433],[146481.202,175528.49],[146499.014,175532.239],[146517.83,175531.976],[146534.86,175529.322],[146543.128,175526.306]]},"geometry_name":"GEOM","properties":{"INSPIRE_ID":"https://databrussels.be/id/streetaxe/78442","TYPE":"S","HIERARCHY":"DR","LVL":0,"STARTSN_ID":"https://databrussels.be/id/streetnode/8718","ENDSN_ID":"https://databrussels.be/id/streetnode/12205","STRNAMEFRE":"Avenue Swartenbrouck","STRNAMEDUT":"Swartenbroucklaan","SLOPE":2.36,"LENGTH":106.973011442115},"bbox":[146439.06598218,175516.11386185,146543.128,175532.239]},{"type":"Feature","id":"StreetAxes.fid--2dded296_1a02c03a58e_27d2","geometry":{"type":"LineString","coordinates":[[146265.72637247,175466.20470064],[146262.03834443,175480.8738874],[146254.75961726,175505.72260695],[146248.94076996,175525.21947287]]},"geometry_name":"GEOM","properties":{"INSPIRE_ID":"https://databrussels.be/id/streetaxe/78445","TYPE":"S","HIERARCHY":"MER","LVL":0,"STARTSN_ID":"https://databrussels.be/id/streetnode/8897","ENDSN_ID":"https://databrussels.be/id/streetnode/12210","STRNAMEFRE":"Avenue de l'Exposition","STRNAMEDUT":"Tentoonstellingslaan","SLOPE":3.67,"LENGTH":61.3651894579389},"bbox":[146248.94076996,175466.20470064,146265.72637247,175525.21947287]},{"type":"Feature","id":"StreetAxes.fid--2dded296_1a02c03a58e_279e","geometry":{"type":"LineString","coordinates":[[146424.58051679,175526.26385135],[146420.77,175539.396],[146407.418,175586.078],[146398.494,175613.842],[146390.041,175633.897],[146382.25,175649.499],[146361.005,175689.402],[146357.285,175699.348],[146347.868,175727.32],[146340.321,175753.305]]},"geometry_name":"GEOM","properties":{"INSPIRE_ID":"https://databrussels.be/id/streetaxe/78446","TYPE":"S","HIERARCHY":"DR","LVL":0,"STARTSN_ID":"https://databrussels.be/id/streetnode/8898","ENDSN_ID":"https://databrussels.be/id/streetnode/10338","STRNAMEFRE":"Avenue Henri Liebrecht","STRNAMEDUT":"Henri Liebrechtlaan","SLOPE":1.65,"LENGTH":242.991944454667},"bbox":[146340.321,175526.26385135,146424.58051679,175753.305]},{"type":"Feature","id":"StreetAxes.fid--2dded296_1a02c03a58e_27a4","geometry":{"type":"LineString","coordinates":[[146489.09237293,175897.40975038],[146497.5413105,175899.13434967],[146506.66321996,175901.48688496],[146517.45478096,175904.87389318]]},"geometry_name":"GEOM","properties":{"INSPIRE_ID":"https://databrussels.be/id/streetaxe/78450","TYPE":"S","HIERARCHY":"DR","LVL":0,"STARTSN_ID":"https://databrussels.be/id/streetnode/8620","ENDSN_ID":"https://databrussels.be/id/streetnode/8616","STRNAMEFRE":"Avenue de l'Arbre Ballon","STRNAMEDUT":"Dikkebeuklaan","SLOPE":1.6,"LENGTH":29.3541366736218},"bbox":[146489.09237293,175897.40975038,146517.45478096,175904.87389318]},{"type":"Feature","id":"StreetAxes.fid--2dded296_1a02c03a58e_27e2","geometry":{"type":"LineString","coordinates":[[146372.97727555,175492.53999304],[146411.00822856,175503.60623674],[146418.3814021,175505.75168219],[146420.9359099,175507.50511197]]},"geometry_name":"GEOM","properties":{"INSPIRE_ID":"https://databrussels.be/id/streetaxe/78456","TYPE":"S","HIERARCHY":"DR","LVL":0,"STARTSN_ID":"https://databrussels.be/id/streetnode/8708","ENDSN_ID":"https://databrussels.be/id/streetnode/8908","STRNAMEFRE":"Rue Jean Baptiste Moyens","STRNAMEDUT":"Jean Baptiste Moyensstraat","SLOPE":0.46,"LENGTH":50.3856348115567},"bbox":[146372.97727555,175492.53999304,146420.9359099,175507.50511197]},{"type":"Feature","id":"StreetAxes.fid--2dded296_1a02c03a58e_27de","geometry":{"type":"LineString","coordinates":[[146215.098,175572.896],[146217.116,175565.764],[146218.38,175559.158],[146219.172,175550.743],[146219.137,175543.023],[146217.89,175535.538],[146216.9315,175528.4095],[146217.43775,175525.59025]]},"geometry_name":"GEOM","properties":{"INSPIRE_ID":"https://databrussels.be/id/streetaxe/78654","TYPE":"S","HIERARCHY":"DR","LVL":0,"STARTSN_ID":"https://databrussels.be/id/streetnode/3044","ENDSN_ID":"https://databrussels.be/id/streetnode/3046","STRNAMEFRE":"Avenue du Bourgmestre Etienne Demunter","STRNAMEDUT":"Burgemeester Etienne Demunterlaan","SLOPE":2.88,"LENGTH":47.9552669279465},"bbox":[146215.098,175525.59025,146219.172,175572.896]},{"type":"Feature","id":"StreetAxes.fid--2dded296_1a02c03a58e_27d8","geometry":{"type":"LineString","coordinates":[[146038.43153743,175508.35828091],[146046.70171442,175510.23615723],[146079.705273,175511.011149],[146093.5374935,175506.413423],[146104.92783731,175506.78838034],[146112.77520294,175507.20172254]]},"geometry_name":"GEOM","properties":{"INSPIRE_ID":"https://databrussels.be/id/streetaxe/79786","TYPE":"S","HIERARCHY":"DR","LVL":0,"STARTSN_ID":"https://databrussels.be/id/streetnode/3041","ENDSN_ID":"https://databrussels.be/id/streetnode/3052","STRNAMEFRE":"Rue Marlène Dietrich","STRNAMEDUT":"Marlène Dietrichstraat","SLOPE":1.89,"LENGTH":75.3244431890774},"bbox":[146038.43153743,175506.413423,146112.77520294,175511.011149]},{"type":"Feature","id":"StreetAxes.fid--2dded296_1a02c03a58e_27b5","geometry":{"type":"LineString","coordinates":[[146024.93125,175633.184],[146025.796,175631.444],[146041.60704332,175621.57709779],[146048.866,175615.166]]},"geometry_name":"GEOM","properties":{"INSPIRE_ID":"https://databrussels.be/id/streetaxe/79792","TYPE":"S","HIERARCHY":"DR","LVL":0,"STARTSN_ID":"https://databrussels.be/id/streetnode/3031","ENDSN_ID":"https://databrussels.be/id/streetnode/412","STRNAMEFRE":"Square James Dean","STRNAMEDUT":"James Deanplein","SLOPE":7.47,"LENGTH":30.2649895327141},"bbox":[146024.93125,175615.166,146048.866,175633.184]},{"type":"Feature","id":"StreetAxes.fid--2dded296_1a02c03a58e_27d3","geometry":{"type":"LineString","coordinates":[[146217.43775,175525.59025],[146217.944,175522.771],[146210.124,175491.838],[146208.93,175484.376],[146212.47468286,175470.37832767]]},"geometry_name":"GEOM","properties":{"INSPIRE_ID":"https://databrussels.be/id/streetaxe/79795","TYPE":"S","HIERARCHY":"DR","LVL":0,"STARTSN_ID":"https://databrussels.be/id/streetnode/3046","ENDSN_ID":"https://databrussels.be/id/streetnode/3037","STRNAMEFRE":"Avenue du Bourgmestre Etienne Demunter","STRNAMEDUT":"Burgemeester Etienne Demunterlaan","SLOPE":2.54,"LENGTH":56.7669384612087},"bbox":[146208.93,175470.37832767,146217.944,175525.59025]},{"type":"Feature","id":"StreetAxes.fid--2dded296_1a02c03a58e_27cc","geometry":{"type":"LineString","coordinates":[[145966.88954369,175483.71701862],[145974.53538475,175486.48136915],[145988.33908149,175485.80661573],[146002.53306548,175488.61123048],[146020.06167338,175495.38565457],[146028.04740114,175501.89985434],[146035.4095089,175506.89922523],[146038.43153743,175508.35828091]]},"geometry_name":"GEOM","properties":{"INSPIRE_ID":"https://databrussels.be/id/streetaxe/80683","TYPE":"S","HIERARCHY":"DR","LVL":0,"STARTSN_ID":"https://databrussels.be/id/streetnode/3040","ENDSN_ID":"https://databrussels.be/id/streetnode/3041","STRNAMEFRE":"Rue Marlène Dietrich","STRNAMEDUT":"Marlène Dietrichstraat","SLOPE":6.48,"LENGTH":77.7715639183843},"bbox":[145966.88954369,175483.71701862,146038.43153743,175508.35828091]},{"type":"Feature","id":"StreetAxes.fid--2dded296_1a02c03a58e_27d1","geometry":{"type":"LineString","coordinates":[[146112.77520294,175507.20172254],[146113.03333651,175499.36163739],[146114.48928207,175455.1413625],[146114.992137,175440.3339015]]},"geometry_name":"GEOM","properties":{"INSPIRE_ID":"https://databrussels.be/id/streetaxe/81273","TYPE":"S","HIERARCHY":"DR","LVL":0,"STARTSN_ID":"https://databrussels.be/id/streetnode/3052","ENDSN_ID":"https://databrussels.be/id/streetnode/3035","STRNAMEFRE":"Clos des Frères Lumière","STRNAMEDUT":"Gebroeders Lumièregaarde","SLOPE":0.22,"LENGTH":66.9045671929718},"bbox":[146112.77520294,175440.3339015,146114.992137,175507.20172254]},{"type":"Feature","id":"StreetAxes.fid--2dded296_1a02c03a58e_27d7","geometry":{"type":"LineString","coordinates":[[146347.8924381,175493.95005343],[146370.63270906,175500.63796464]]},"geometry_name":"GEOM","properties":{"INSPIRE_ID":"https://databrussels.be/id/streetaxe/82593","TYPE":"S","HIERARCHY":"DR","LVL":0,"STARTSN_ID":"https://databrussels.be/id/streetnode/8617","ENDSN_ID":"https://databrussels.be/id/streetnode/8622","STRNAMEFRE":"Rue Jean Baptiste Moyens","STRNAMEDUT":"Jean Baptiste Moyensstraat","SLOPE":1.69,"LENGTH":23.7033347770473},"bbox":[146347.8924381,175493.95005343,146370.63270906,175500.63796464]},{"type":"Feature","id":"StreetAxes.fid--2dded296_1a02c03a58e_27e5","geometry":{"type":"LineString","coordinates":[[146370.63270906,175500.63796464],[146408.61389091,175511.8082261],[146416.17271652,175514.03127589],[146419.30760395,175513.94615016]]},"geometry_name":"GEOM","properties":{"INSPIRE_ID":"https://databrussels.be/id/streetaxe/83651","TYPE":"S","HIERARCHY":"DR","LVL":0,"STARTSN_ID":"https://databrussels.be/id/streetnode/8622","ENDSN_ID":"https://databrussels.be/id/streetnode/8615","STRNAMEFRE":"Rue Jean Baptiste Moyens","STRNAMEDUT":"Jean Baptiste Moyensstraat","SLOPE":0.14,"LENGTH":50.6046964879473},"bbox":[146370.63270906,175500.63796464,146419.30760395,175514.03127589]},{"type":"Feature","id":"StreetAxes.fid--2dded296_1a02c03a58e_27a2","geometry":{"type":"LineString","coordinates":[[146422.06508748,175876.36075723],[146425.8488034,175877.82555056],[146434.47185842,175880.38891282],[146449.93634555,175884.95140551],[146462.33644121,175888.69379893],[146474.62963949,175892.72162451],[146489.09237293,175897.40975038]]},"geometry_name":"GEOM","properties":{"INSPIRE_ID":"https://databrussels.be/id/streetaxe/85145","TYPE":"S","HIERARCHY":"DR","LVL":0,"STARTSN_ID":"https://databrussels.be/id/streetnode/","ENDSN_ID":"https://databrussels.be/id/streetnode/","STRNAMEFRE":"Avenue de l'Arbre Ballon","STRNAMEDUT":"Dikkebeuklaan","SLOPE":0.5,"LENGTH":70.2691786136327},"bbox":[146422.06508748,175876.36075723,146489.09237293,175897.40975038]},{"type":"Feature","id":"StreetAxes.fid--2dded296_1a02c03a58e_27b0","geometry":{"type":"LineString","coordinates":[[146029.081,175587.569],[146046.573,175584.665],[146069.6685,175585.3145],[146110.28571237,175597.56591535]]},"geometry_name":"GEOM","properties":{"INSPIRE_ID":"https://databrussels.be/id/streetaxe/86397","TYPE":"S","HIERARCHY":"DR","LVL":0,"STARTSN_ID":"https://databrussels.be/id/streetnode/2645","ENDSN_ID":"https://databrussels.be/id/streetnode/3051","STRNAMEFRE":"Rue Audrey Hepburn","STRNAMEDUT":"Audrey Hepburnstraat","SLOPE":2.27,"LENGTH":83.26075102414},"bbox":[146029.081,175584.665,146110.28571237,175597.56591535]},{"type":"Feature","id":"StreetAxes.fid--2dded296_1a02c03a58e_27ae","geometry":{"type":"LineString","coordinates":[[146190.047,175611.815],[146192.168,175610.254],[146201.962,175600.698],[146209.104,175590.837],[146214.377,175581.099],[146215.098,175572.896]]},"geometry_name":"GEOM","properties":{"INSPIRE_ID":"https://databrussels.be/id/streetaxe/86398","TYPE":"S","HIERARCHY":"DR","LVL":0,"STARTSN_ID":"https://databrussels.be/id/streetnode/4355","ENDSN_ID":"https://databrussels.be/id/streetnode/3044","STRNAMEFRE":"Avenue du Bourgmestre Etienne Demunter","STRNAMEDUT":"Burgemeester Etienne Demunterlaan","SLOPE":2.45,"LENGTH":47.8013624636867},"bbox":[146190.047,175572.896,146215.098,175611.815]},{"type":"Feature","id":"StreetAxes.fid--2dded296_1a02c03a58e_27c3","geometry":{"type":"LineString","coordinates":[[146144.64819633,175877.6673015],[146132.82578734,175880.29268932]]},"geometry_name":"GEOM","properties":{"INSPIRE_ID":"https://databrussels.be/id/streetaxe/90655","TYPE":"I","HIERARCHY":"MER","LVL":0,"STARTSN_ID":"https://databrussels.be/id/streetnode/8624","ENDSN_ID":"https://databrussels.be/id/streetnode/8710","STRNAMEFRE":"Avenue de l'Exposition","STRNAMEDUT":"Tentoonstellingslaan","SLOPE":2.07,"LENGTH":12.1104093884392},"bbox":[146132.82578734,175877.6673015,146144.64819633,175880.29268932]},{"type":"Feature","id":"StreetAxes.fid--2dded296_1a02c03a58e_27e7","geometry":{"type":"LineString","coordinates":[[146419.30760395,175513.94615016],[146419.89384803,175520.54282801],[146421.94793691,175524.07653046],[146424.58051679,175526.26385135]]},"geometry_name":"GEOM","properties":{"INSPIRE_ID":"https://databrussels.be/id/streetaxe/90656","TYPE":"I","HIERARCHY":"DR","LVL":0,"STARTSN_ID":"https://databrussels.be/id/streetnode/8615","ENDSN_ID":"https://databrussels.be/id/streetnode/8898","STRNAMEFRE":"Avenue Henri Liebrecht","STRNAMEDUT":"Henri Liebrechtlaan","SLOPE":3.04,"LENGTH":14.1327107539498},"bbox":[146419.30760395,175513.94615016,146424.58051679,175526.26385135]},{"type":"Feature","id":"StreetAxes.fid--2dded296_1a02c03a58e_27e4","geometry":{"type":"LineString","coordinates":[[146439.06598218,175516.11386185],[146439.52274586,175511.69797348],[146438.7863258,175506.971408],[146436.97288203,175503.12177809],[146432.10393976,175500.33558826]]},"geometry_name":"GEOM","properties":{"INSPIRE_ID":"https://databrussels.be/id/streetaxe/90845","TYPE":"I","HIERARCHY":"DR","LVL":0,"STARTSN_ID":"https://databrussels.be/id/streetnode/8718","ENDSN_ID":"https://databrussels.be/id/streetnode/8903","STRNAMEFRE":"Avenue Henri Liebrecht","STRNAMEDUT":"Henri Liebrechtlaan","SLOPE":2.04,"LENGTH":19.0881792673037},"bbox":[146432.10393976,175500.33558826,146439.52274586,175516.11386185]},{"type":"Feature","id":"StreetAxes.fid--2dded296_1a02c03a58e_27e6","geometry":{"type":"LineString","coordinates":[[146420.9359099,175507.50511197],[146419.30760395,175513.94615016]]},"geometry_name":"GEOM","properties":{"INSPIRE_ID":"https://databrussels.be/id/streetaxe/91593","TYPE":"I","HIERARCHY":"DR","LVL":0,"STARTSN_ID":"https://databrussels.be/id/streetnode/8908","ENDSN_ID":"https://databrussels.be/id/streetnode/8615","STRNAMEFRE":"Avenue Henri Liebrecht","STRNAMEDUT":"Henri Liebrechtlaan","SLOPE":3.16,"LENGTH":6.64367016279046},"bbox":[146419.30760395,175507.50511197,146420.9359099,175513.94615016]},{"type":"Feature","id":"StreetAxes.fid--2dded296_1a02c03a58e_27e8","geometry":{"type":"LineString","coordinates":[[146424.58051679,175526.26385135],[146429.23173221,175526.62921541],[146432.88215485,175524.92721773],[146434.92730447,175523.10716078],[146436.78701793,175520.65747616],[146439.06598218,175516.11386185]]},"geometry_name":"GEOM","properties":{"INSPIRE_ID":"https://databrussels.be/id/streetaxe/91596","TYPE":"I","HIERARCHY":"DR","LVL":0,"STARTSN_ID":"https://databrussels.be/id/streetnode/8898","ENDSN_ID":"https://databrussels.be/id/streetnode/8718","STRNAMEFRE":"Avenue Henri Liebrecht","STRNAMEDUT":"Henri Liebrechtlaan","SLOPE":2.81,"LENGTH":19.5897378330612},"bbox":[146424.58051679,175516.11386185,146439.06598218,175526.62921541]},{"type":"Feature","id":"StreetAxes.fid--2dded296_1a02c03a58e_27e3","geometry":{"type":"LineString","coordinates":[[146432.10393976,175500.33558826],[146428.46862641,175500.42332289],[146424.4896568,175503.00426061],[146422.69402798,175504.99849365],[146420.9359099,175507.50511197]]},"geometry_name":"GEOM","properties":{"INSPIRE_ID":"https://databrussels.be/id/streetaxe/91599","TYPE":"I","HIERARCHY":"DR","LVL":0,"STARTSN_ID":"https://databrussels.be/id/streetnode/8903","ENDSN_ID":"https://databrussels.be/id/streetnode/8908","STRNAMEFRE":"Avenue Henri Liebrecht","STRNAMEDUT":"Henri Liebrechtlaan","SLOPE":2.12,"LENGTH":14.1243284576286},"bbox":[146420.9359099,175500.33558826,146432.10393976,175507.50511197]},{"type":"Feature","id":"StreetAxes.fid--2dded296_1a02c03a58e_27bc","geometry":{"type":"LineString","coordinates":[[146031.53709494,175815.83109055],[146048.10551037,175827.73517478],[146110.05544289,175862.77268875],[146117.53161473,175866.28108334],[146121.77082615,175868.09803003],[146125.99730721,175869.46074005],[146130.10243963,175870.44353751],[146135.51145236,175867.99459371]]},"geometry_name":"GEOM","properties":{"INSPIRE_ID":"https://databrussels.be/id/streetaxe/93339","TYPE":"C","HIERARCHY":"DR","LVL":0,"STARTSN_ID":"https://databrussels.be/id/streetnode/","ENDSN_ID":"https://databrussels.be/id/streetnode/","STRNAMEFRE":"Avenue de l'Arbre Ballon","STRNAMEDUT":"Dikke-Beuklaan","SLOPE":null,"LENGTH":119.043307633729},"bbox":[146031.53709494,175815.83109055,146135.51145236,175870.44353751]},{"type":"Feature","id":"StreetAxes.fid--2dded296_1a02c03a58e_27bb","geometry":{"type":"LineString","coordinates":[[146031.53709494,175815.83109055],[146041.05238032,175817.40598816],[146051.00591178,175820.380892],[146063.32572214,175826.30931737],[146118.06310745,175856.83550765],[146127.00406688,175860.89179869],[146133.10631302,175862.89687763],[146135.51145236,175867.99459371]]},"geometry_name":"GEOM","properties":{"INSPIRE_ID":"https://databrussels.be/id/streetaxe/93365","TYPE":"C","HIERARCHY":"DR","LVL":0,"STARTSN_ID":"https://databrussels.be/id/streetnode/","ENDSN_ID":"https://databrussels.be/id/streetnode/","STRNAMEFRE":"Avenue de l'Arbre Ballon","STRNAMEDUT":"Dikke-Beuklaan","SLOPE":null,"LENGTH":118.257227620215},"bbox":[146031.53709494,175815.83109055,146135.51145236,175867.99459371]},{"type":"Feature","id":"StreetAxes.fid--2dded296_1a02c03a58e_279f","geometry":{"type":"LineString","coordinates":[[146421.79464359,175868.86484494],[146421.64508389,175864.7194881],[146432.118,175829.848],[146443.438,175807.56],[146456.88,175788.008],[146521.197,175717.304],[146534.933,175707.502],[146547.256,175702.334],[146562.52576594,175700.01168518]]},"geometry_name":"GEOM","properties":{"INSPIRE_ID":"https://databrussels.be/id/streetaxe/93445","TYPE":"S","HIERARCHY":"DR","LVL":0,"STARTSN_ID":"https://databrussels.be/id/streetnode/","ENDSN_ID":"https://databrussels.be/id/streetnode/","STRNAMEFRE":"Avenue du Heymbosch","STRNAMEDUT":"Heymboschlaan","SLOPE":1.29,"LENGTH":230.547070803962},"bbox":[146421.64508389,175700.01168518,146562.52576594,175868.86484494]},{"type":"Feature","id":"StreetAxes.fid--2dded296_1a02c03a58e_27c5","geometry":{"type":"LineString","coordinates":[[146131.55783433,175886.09885174],[146132.82578734,175880.29268932]]},"geometry_name":"GEOM","properties":{"INSPIRE_ID":"https://databrussels.be/id/streetaxe/93460","TYPE":"I","HIERARCHY":"MER","LVL":0,"STARTSN_ID":"https://databrussels.be/id/streetnode/","ENDSN_ID":"https://databrussels.be/id/streetnode/","STRNAMEFRE":"Avenue de l'Exposition","STRNAMEDUT":"Tentoonstellingslaan","SLOPE":null,"LENGTH":5.94299814076572},"bbox":[146131.55783433,175880.29268932,146132.82578734,175886.09885174]},{"type":"Feature","id":"StreetAxes.fid--2dded296_1a02c03a58e_27c7","geometry":{"type":"LineString","coordinates":[[145935.85124419,175168.89318697],[145930.17702629,175177.79020704],[145922.99011568,175193.80735628],[145881.31931289,175311.50294391],[145841.18800765,175426.95393483],[145801.7454392,175538.66722753],[145795.92341911,175557.3885708],[145793.06439139,175572.52165661],[145791.60888637,175588.69481705],[145791.86879798,175602.37179839],[145793.42826765,175616.93284316],[145795.00635562,175625.84655468],[145796.1313484,175630.08978718],[145797.73186607,175636.61518885],[145799.76907082,175643.12678164],[145802.54330986,175650.71079578],[145805.43618408,175657.33974239],[145809.09747128,175664.73586162],[145812.55776223,175671.06872745],[145818.17185303,175679.96136551],[145821.35785693,175684.36993092],[145826.54100691,175691.09016401],[145833.45465577,175698.89072371],[145838.15419586,175703.63890698],[145843.93776082,175708.8834726],[145847.87238797,175712.20446332],[145855.91101897,175718.39212295],[145862.63525614,175722.91059188],[145867.45109451,175725.82865653],[145880.44461974,175733.22804306],[145979.30664168,175788.79419705],[146031.53709494,175815.83109055]]},"geometry_name":"GEOM","properties":{"INSPIRE_ID":"https://databrussels.be/id/streetaxe/93463","TYPE":"C","HIERARCHY":"DR","LVL":0,"STARTSN_ID":"https://databrussels.be/id/streetnode/","ENDSN_ID":"https://databrussels.be/id/streetnode/","STRNAMEFRE":"Avenue de l'Arbre Ballon","STRNAMEDUT":"Dikke-Beuklaan","SLOPE":null,"LENGTH":796.544994445021},"bbox":[145791.60888637,175168.89318697,146031.53709494,175815.83109055]},{"type":"Feature","id":"StreetAxes.fid--2dded296_1a02c03a58e_27b2","geometry":{"type":"LineString","coordinates":[[146190.047,175611.815],[146185.524,175605.962],[146180.045,175600.284],[146173.776,175592.022],[146169.524,175589.652],[146165.725,175588.739],[146154.696,175588.352],[146136.928,175591.271],[146110.28571237,175597.56591535]]},"geometry_name":"GEOM","properties":{"INSPIRE_ID":"https://databrussels.be/id/streetaxe/93465","TYPE":"S","HIERARCHY":"DR","LVL":0,"STARTSN_ID":"https://databrussels.be/id/streetnode/4355","ENDSN_ID":"https://databrussels.be/id/streetnode/3051","STRNAMEFRE":"Avenue du Bourgmestre Etienne Demunter","STRNAMEDUT":"Burgemeester Etienne Demunterlaan","SLOPE":1.07,"LENGTH":90.8514590256974},"bbox":[146110.28571237,175588.352,146190.047,175611.815]},{"type":"Feature","id":"StreetAxes.fid--2dded296_1a02c03a58e_27c9","geometry":{"type":"LineString","coordinates":[[145947.143,175670.648],[145948.2210578,175674.94822697],[145957.14989169,175678.71147439],[145964.285,175682.062],[145974.722,175687.658],[145986.206,175697.592],[145992.72,175704.8],[145996.509,175710.158],[146001.69,175719.716],[146005.806,175730.257],[146009.621,175735.713]]},"geometry_name":"GEOM","properties":{"INSPIRE_ID":"https://databrussels.be/id/streetaxe/93484","TYPE":"S","HIERARCHY":"DC","LVL":0,"STARTSN_ID":"https://databrussels.be/id/streetnode/1392","ENDSN_ID":"https://databrussels.be/id/streetnode/1971","STRNAMEFRE":"Clos Laurence Olivier","STRNAMEDUT":"Laurence Oliviergaarde","SLOPE":2.66,"LENGTH":94.1555655806206},"bbox":[145947.143,175670.648,146009.621,175735.713]},{"type":"Feature","id":"StreetAxes.fid--2dded296_1a02c03a58e_27bf","geometry":{"type":"LineString","coordinates":[[146144.64819633,175877.6673015],[146152.60779048,175875.89972422],[146179.11078448,175870.01423695],[146183.80926712,175868.54978478],[146219.21335827,175861.12771211],[146245.00857817,175856.26399761],[146258.62369423,175855.10871289],[146270.80379806,175857.03425061],[146289.59895829,175856.33405508],[146314.34416923,175856.8945622],[146329.77930081,175857.62976752],[146346.39514559,175859.54308518],[146371.14035653,175863.88421219],[146401.34561403,175871.26980593],[146422.06508748,175876.36075723]]},"geometry_name":"GEOM","properties":{"INSPIRE_ID":"https://databrussels.be/id/streetaxe/93509","TYPE":"S","HIERARCHY":"DR","LVL":0,"STARTSN_ID":"https://databrussels.be/id/streetnode/","ENDSN_ID":"https://databrussels.be/id/streetnode/","STRNAMEFRE":"Avenue de l'Arbre Ballon","STRNAMEDUT":"Dikkebeuklaan","SLOPE":0.02,"LENGTH":281.934378245914},"bbox":[146144.64819633,175855.10871289,146422.06508748,175877.6673015]},{"type":"Feature","id":"StreetAxes.fid--2dded296_1a02c03a58e_27b8","geometry":{"type":"LineString","coordinates":[[146047.768,175732.448],[146052.446,175731.188],[146064.896,175728.325],[146070.462,175724.674],[146073.886,175718.252],[146073.458,175710.548],[146062.186,175683.226],[146060.554,175678.4],[146059.398,175670.428],[146059.348,175663.944]]},"geometry_name":"GEOM","properties":{"INSPIRE_ID":"https://databrussels.be/id/streetaxe/93550","TYPE":"S","HIERARCHY":"DR","LVL":0,"STARTSN_ID":"https://databrussels.be/id/streetnode/688","ENDSN_ID":"https://databrussels.be/id/streetnode/425","STRNAMEFRE":"Avenue du Bourgmestre Etienne Demunter","STRNAMEDUT":"Burgemeester Etienne Demunterlaan","SLOPE":7.4,"LENGTH":88.4598182078831},"bbox":[146047.768,175663.944,146073.886,175732.448]},{"type":"Feature","id":"StreetAxes.fid--2dded296_1a02c03a58e_27e1","geometry":{"type":"LineString","coordinates":[[146432.10393976,175500.33558826],[146434.36014664,175492.55982319],[146465.844,175386.415],[146472.256,175366.583],[146483.538,175344.182],[146494.885,175326.868],[146523.772,175293.616],[146530.599,175286.144]]},"geometry_name":"GEOM","properties":{"INSPIRE_ID":"https://databrussels.be/id/streetaxe/93568","TYPE":"S","HIERARCHY":"DR","LVL":0,"STARTSN_ID":"https://databrussels.be/id/streetnode/8903","ENDSN_ID":"https://databrussels.be/id/streetnode/12204","STRNAMEFRE":"Avenue Henri Liebrecht","STRNAMEDUT":"Henri Liebrechtlaan","SLOPE":3.81,"LENGTH":239.605886957007},"bbox":[146432.10393976,175286.144,146530.599,175500.33558826]},{"type":"Feature","id":"StreetAxes.fid--2dded296_1a02c03a58e_27e0","geometry":{"type":"LineString","coordinates":[[146111.95713094,175547.01718565],[146131.524,175547.607],[146195.475,175549.351],[146204.368,175549.67725]]},"geometry_name":"GEOM","properties":{"INSPIRE_ID":"https://databrussels.be/id/streetaxe/94458","TYPE":"S","HIERARCHY":"DR","LVL":0,"STARTSN_ID":"https://databrussels.be/id/streetnode/3033","ENDSN_ID":"https://databrussels.be/id/streetnode/3049","STRNAMEFRE":"Promenade Jacques Ledoux","STRNAMEDUT":"Jacques Ledouxwandeling","SLOPE":1.88,"LENGTH":92.449514783899},"bbox":[146111.95713094,175547.01718565,146204.368,175549.67725]},{"type":"Feature","id":"StreetAxes.fid--2dded296_1a02c03a58e_27da","geometry":{"type":"LineString","coordinates":[[146111.95713094,175547.01718565],[146112.55513893,175535.65605012],[146113.5159495,175511.533336],[146112.77520294,175507.20172254]]},"geometry_name":"GEOM","properties":{"INSPIRE_ID":"https://databrussels.be/id/streetaxe/94630","TYPE":"S","HIERARCHY":"DR","LVL":0,"STARTSN_ID":"https://databrussels.be/id/streetnode/3033","ENDSN_ID":"https://databrussels.be/id/streetnode/3052","STRNAMEFRE":"Passage Oliver Hardy","STRNAMEDUT":"Oliver Hardydoorgang","SLOPE":0.85,"LENGTH":39.9131985937121},"bbox":[146111.95713094,175507.20172254,146113.5159495,175547.01718565]},{"type":"Feature","id":"StreetAxes.fid--2dded296_1a02c03a58e_27ca","geometry":{"type":"LineString","coordinates":[[145960.5644661,175635.18554186],[145971.20667126,175638.27879546],[145976.1275,175639.2415],[145990.1615,175639.4195],[145998.9865,175638.516],[146010.67782678,175635.30391766],[146021.0185,175631.783],[146024.93125,175633.184]]},"geometry_name":"GEOM","properties":{"INSPIRE_ID":"https://databrussels.be/id/streetaxe/94631","TYPE":"S","HIERARCHY":"DR","LVL":0,"STARTSN_ID":"https://databrussels.be/id/streetnode/3042","ENDSN_ID":"https://databrussels.be/id/streetnode/3031","STRNAMEFRE":"Chemin Luis Bunuel","STRNAMEDUT":"Luis Bunuelweg","SLOPE":5.78,"LENGTH":66.2072226916993},"bbox":[145960.5644661,175631.783,146024.93125,175639.4195]},{"type":"Feature","id":"StreetAxes.fid--2dded296_1a02c03a58e_27dd","geometry":{"type":"LineString","coordinates":[[146217.43775,175525.59025],[146212.1585,175529.7995],[146209.647,175532.3815],[146207.5185,175535.287],[146205.814,175538.4605],[146204.5655,175541.82],[146204.368,175549.67725]]},"geometry_name":"GEOM","properties":{"INSPIRE_ID":"https://databrussels.be/id/streetaxe/94632","TYPE":"S","HIERARCHY":"DR","LVL":0,"STARTSN_ID":"https://databrussels.be/id/streetnode/3046","ENDSN_ID":"https://databrussels.be/id/streetnode/3049","STRNAMEFRE":"Chemin Bourvil","STRNAMEDUT":"Bourvilweg","SLOPE":5.48,"LENGTH":29.0016325262056},"bbox":[146204.368,175525.59025,146217.43775,175549.67725]},{"type":"Feature","id":"StreetAxes.fid--2dded296_1a02c03a58e_27ab","geometry":{"type":"LineString","coordinates":[[146110.28571237,175597.56591535],[146110.54822078,175581.55608247],[146111.351826,175558.516951],[146111.95713094,175547.01718565]]},"geometry_name":"GEOM","properties":{"INSPIRE_ID":"https://databrussels.be/id/streetaxe/94718","TYPE":"S","HIERARCHY":"DR","LVL":0,"STARTSN_ID":"https://databrussels.be/id/streetnode/3051","ENDSN_ID":"https://databrussels.be/id/streetnode/3033","STRNAMEFRE":"Passage Stan Laurel","STRNAMEDUT":"Stan Laureldoorgang","SLOPE":0.38,"LENGTH":50.580811801683},"bbox":[146110.28571237,175547.01718565,146111.95713094,175597.56591535]},{"type":"Feature","id":"StreetAxes.fid--2dded296_1a02c03a58e_27dc","geometry":{"type":"LineString","coordinates":[[146248.94076996,175525.21947287],[146242.3275,175523.8725],[146238.5245,175522.562],[146233.884,175521.89],[146229.795,175521.883],[146225.4025,175522.469],[146217.43775,175525.59025]]},"geometry_name":"GEOM","properties":{"INSPIRE_ID":"https://databrussels.be/id/streetaxe/94808","TYPE":"S","HIERARCHY":"DR","LVL":0,"STARTSN_ID":"https://databrussels.be/id/streetnode/12210","ENDSN_ID":"https://databrussels.be/id/streetnode/3046","STRNAMEFRE":"Chemin Bourvil","STRNAMEDUT":"Bourvilweg","SLOPE":2.67,"LENGTH":32.5353396376206},"bbox":[146217.43775,175521.883,146248.94076996,175525.59025]},{"type":"Feature","id":"StreetAxes.fid--2dded296_1a02c03a58e_27ac","geometry":{"type":"LineString","coordinates":[[146204.368,175549.67725],[146204.1705,175557.5345],[146205.1135,175561.007],[146206.55,175564.3055],[146208.4495,175567.361],[146210.772,175570.1075],[146215.098,175572.896]]},"geometry_name":"GEOM","properties":{"INSPIRE_ID":"https://databrussels.be/id/streetaxe/94914","TYPE":"S","HIERARCHY":"DR","LVL":0,"STARTSN_ID":"https://databrussels.be/id/streetnode/3049","ENDSN_ID":"https://databrussels.be/id/streetnode/3044","STRNAMEFRE":"Chemin Bourvil","STRNAMEDUT":"Bourvilweg","SLOPE":0.77,"LENGTH":27.3972104179507},"bbox":[146204.1705,175549.67725,146215.098,175572.896]},{"type":"Feature","id":"StreetAxes.fid--2dded296_1a02c03a58e_27db","geometry":{"type":"LineString","coordinates":[[146034.38190064,175544.76878788],[146034.50122,175540.394444],[146035.0995163,175518.46041896],[146036.12865133,175511.77116055],[146038.43153743,175508.35828091]]},"geometry_name":"GEOM","properties":{"INSPIRE_ID":"https://databrussels.be/id/streetaxe/94916","TYPE":"S","HIERARCHY":"DR","LVL":0,"STARTSN_ID":"https://databrussels.be/id/streetnode/3039","ENDSN_ID":"https://databrussels.be/id/streetnode/3041","STRNAMEFRE":"Passage Yves Montand","STRNAMEDUT":"Yves Montanddoorgang","SLOPE":2.8,"LENGTH":37.2032784782472},"bbox":[146034.38190064,175508.35828091,146038.43153743,175544.76878788]},{"type":"Feature","id":"StreetAxes.fid--2dded296_1a02c03a58e_27cf","geometry":{"type":"LineString","coordinates":[[146009.621,175735.713],[146013.788,175734.443],[146031.068,175730.53],[146038.063,175729.632],[146047.768,175732.448]]},"geometry_name":"GEOM","properties":{"INSPIRE_ID":"https://databrussels.be/id/streetaxe/94952","TYPE":"S","HIERARCHY":"DR","LVL":0,"STARTSN_ID":"https://databrussels.be/id/streetnode/1971","ENDSN_ID":"https://databrussels.be/id/streetnode/688","STRNAMEFRE":"Chemin Alfred Hitchcock","STRNAMEDUT":"Alfred Hitchcockweg","SLOPE":6.19,"LENGTH":39.2314358934328},"bbox":[146009.621,175729.632,146047.768,175735.713]},{"type":"Feature","id":"StreetAxes.fid--2dded296_1a02c03a58e_27ad","geometry":{"type":"LineString","coordinates":[[146215.098,175572.896],[146219.2915,175576.2035],[146225.21998118,175578.28045686],[146231.24530081,175579.55855473]]},"geometry_name":"GEOM","properties":{"INSPIRE_ID":"https://databrussels.be/id/streetaxe/95014","TYPE":"S","HIERARCHY":"DR","LVL":0,"STARTSN_ID":"https://databrussels.be/id/streetnode/3044","ENDSN_ID":"https://databrussels.be/id/streetnode/12208","STRNAMEFRE":"Chemin Bourvil","STRNAMEDUT":"Bourvilweg","SLOPE":1.41,"LENGTH":17.7820342601137},"bbox":[146215.098,175572.896,146231.24530081,175579.55855473]},{"type":"Feature","id":"StreetAxes.fid--2dded296_1a02c03a58e_27df","geometry":{"type":"LineString","coordinates":[[146034.38190064,175544.76878788],[146090.65563587,175546.37508356],[146111.95713094,175547.01718565]]},"geometry_name":"GEOM","properties":{"INSPIRE_ID":"https://databrussels.be/id/streetaxe/95015","TYPE":"S","HIERARCHY":"DR","LVL":0,"STARTSN_ID":"https://databrussels.be/id/streetnode/3039","ENDSN_ID":"https://databrussels.be/id/streetnode/3033","STRNAMEFRE":"Promenade Jacques Ledoux","STRNAMEDUT":"Jacques Ledouxwandeling","SLOPE":0.93,"LENGTH":77.6078263554717},"bbox":[146034.38190064,175544.76878788,146111.95713094,175547.01718565]},{"type":"Feature","id":"StreetAxes.fid--2dded296_1a02c03a58e_27aa","geometry":{"type":"LineString","coordinates":[[146029.081,175587.569],[146033.5447625,175580.2413055],[146034.2575485,175549.0469555],[146034.38190064,175544.76878788]]},"geometry_name":"GEOM","properties":{"INSPIRE_ID":"https://databrussels.be/id/streetaxe/95016","TYPE":"S","HIERARCHY":"DR","LVL":0,"STARTSN_ID":"https://databrussels.be/id/streetnode/2645","ENDSN_ID":"https://databrussels.be/id/streetnode/3039","STRNAMEFRE":"Passage Simone Signoret","STRNAMEDUT":"Simone Signoretdoorgang","SLOPE":3.09,"LENGTH":44.062693193719},"bbox":[146029.081,175544.76878788,146034.38190064,175587.569]},{"type":"Feature","id":"StreetAxes.fid--2dded296_1a02c03a58e_27cd","geometry":{"type":"LineString","coordinates":[[145985.84875315,175542.29988864],[146011.3592265,175544.2161545],[146032.438839,175544.7133245],[146034.38190064,175544.76878788]]},"geometry_name":"GEOM","properties":{"INSPIRE_ID":"https://databrussels.be/id/streetaxe/95093","TYPE":"S","HIERARCHY":"DR","LVL":0,"STARTSN_ID":"https://databrussels.be/id/streetnode/3053","ENDSN_ID":"https://databrussels.be/id/streetnode/3039","STRNAMEFRE":"Place du Bourgmestre Jean-Louis Thys","STRNAMEDUT":"Burgemeester Jean-Louis Thysplein","SLOPE":7.18,"LENGTH":48.6116717252481},"bbox":[145985.84875315,175542.29988864,146034.38190064,175544.76878788]},{"type":"Feature","id":"StreetAxes.fid--2dded296_1a02c03a58e_27d5","geometry":{"type":"LineString","coordinates":[[146165.96363134,175481.8971345],[146167.00833986,175484.14996305],[146167.22685629,175485.79841309],[146166.50302061,175508.41263129],[146166.23260653,175510.89533565],[146165.40224409,175512.54378569],[146163.63954488,175513.75459413],[146161.41067729,175514.33811627],[146155.44982257,175514.18372284],[146153.25273055,175513.69624192],[146150.99472744,175512.10614409],[146150.44115248,175510.48687015],[146150.17682727,175508.7889005]]},"geometry_name":"GEOM","properties":{"INSPIRE_ID":"https://databrussels.be/id/streetaxe/98438","TYPE":"S","HIERARCHY":"DR","LVL":0,"STARTSN_ID":"https://databrussels.be/id/streetnode/16954","ENDSN_ID":"https://databrussels.be/id/streetnode/3028","STRNAMEFRE":"Place Jean Gabin","STRNAMEDUT":"Jean Gabinplein","SLOPE":null,"LENGTH":49.9623705072956},"bbox":[146150.17682727,175481.8971345,146167.22685629,175514.33811627]},{"type":"Feature","id":"StreetAxes.fid--2dded296_1a02c03a58e_27d4","geometry":{"type":"LineString","coordinates":[[146150.17682727,175508.7889005],[146151.52918221,175487.26268896],[146151.7278767,175484.09995446],[146152.65089988,175481.72287564],[146154.53742507,175480.49747915],[146159.15176369,175480.2932464],[146162.90660436,175480.54853734],[146164.60739057,175481.16123558],[146165.96363134,175481.8971345]]},"geometry_name":"GEOM","properties":{"INSPIRE_ID":"https://databrussels.be/id/streetaxe/98439","TYPE":"S","HIERARCHY":"DR","LVL":0,"STARTSN_ID":"https://databrussels.be/id/streetnode/3028","ENDSN_ID":"https://databrussels.be/id/streetnode/16954","STRNAMEFRE":"Place Jean Gabin","STRNAMEDUT":"Jean Gabinplein","SLOPE":null,"LENGTH":41.2703613176169},"bbox":[146150.17682727,175480.2932464,146165.96363134,175508.7889005]},{"type":"Feature","id":"StreetAxes.fid--2dded296_1a02c03a58e_27d9","geometry":{"type":"LineString","coordinates":[[146112.77520294,175507.20172254],[146118.62122549,175508.10770897],[146143.60356878,175508.86855665],[146150.17682727,175508.7889005]]},"geometry_name":"GEOM","properties":{"INSPIRE_ID":"https://databrussels.be/id/streetaxe/98465","TYPE":"S","HIERARCHY":"DR","LVL":0,"STARTSN_ID":"https://databrussels.be/id/streetnode/3052","ENDSN_ID":"https://databrussels.be/id/streetnode/3028","STRNAMEFRE":"Rue Marlène Dietrich","STRNAMEDUT":"Marlène Dietrichstraat","SLOPE":1.73,"LENGTH":37.4834762542545},"bbox":[146112.77520294,175507.20172254,146150.17682727,175508.86855665]},{"type":"Feature","id":"StreetAxes.fid--2dded296_1a02c03a58e_27c4","geometry":{"type":"LineString","coordinates":[[146144.64819633,175877.6673015],[146141.52818852,175891.64917426]]},"geometry_name":"GEOM","properties":{"INSPIRE_ID":"https://databrussels.be/id/streetaxe/99233","TYPE":"I","HIERARCHY":"MER","LVL":0,"STARTSN_ID":"https://databrussels.be/id/streetnode/","ENDSN_ID":"https://databrussels.be/id/streetnode/","STRNAMEFRE":"Chaussée Romaine","STRNAMEDUT":"Romeinsesteenweg","SLOPE":2.39,"LENGTH":14.3257535440531},"bbox":[146141.52818852,175877.6673015,146144.64819633,175891.64917426]},{"type":"Feature","id":"StreetAxes.fid--2dded296_1a02c03a58e_27bd","geometry":{"type":"LineString","coordinates":[[146032.21398634,175826.31698134],[146118.58196418,175878.03607236],[146132.82578734,175880.29268932]]},"geometry_name":"GEOM","properties":{"INSPIRE_ID":"https://databrussels.be/id/streetaxe/99303","TYPE":"S","HIERARCHY":"MAR","LVL":0,"STARTSN_ID":"https://databrussels.be/id/streetnode/","ENDSN_ID":"https://databrussels.be/id/streetnode/","STRNAMEFRE":"Avenue de l'Arbre Ballon","STRNAMEDUT":"Dikke-Beuklaan","SLOPE":4.57,"LENGTH":115.090691322646},"bbox":[146032.21398634,175826.31698134,146132.82578734,175880.29268932]},{"type":"Feature","id":"StreetAxes.fid--2dded296_1a02c03a58e_27c6","geometry":{"type":"LineString","coordinates":[[146423.91626592,176015.08810974],[146408.32646779,176008.72075322],[146331.8148517,175976.98636565],[146262.29033726,175948.05638938],[146190.79959159,175919.07895386]]},"geometry_name":"GEOM","properties":{"INSPIRE_ID":"https://databrussels.be/id/streetaxe/99319","TYPE":"S","HIERARCHY":"IDR","LVL":0,"STARTSN_ID":"https://databrussels.be/id/streetnode/","ENDSN_ID":"https://databrussels.be/id/streetnode/","STRNAMEFRE":"Chaussée Romaine","STRNAMEDUT":"Romeinsesteenweg","SLOPE":2.29,"LENGTH":252.115382155038},"bbox":[146190.79959159,175919.07895386,146423.91626592,176015.08810974]},{"type":"Feature","id":"StreetAxes.fid--2dded296_1a02c03a58e_27c8","geometry":{"type":"LineString","coordinates":[[145860.36229417,175714.99151527],[145871.2302538,175722.61890608],[145894.28943593,175734.95539839],[145999.81514165,175793.52248928],[146031.02489292,175807.8964433]]},"geometry_name":"GEOM","properties":{"INSPIRE_ID":"https://databrussels.be/id/streetaxe/99420","TYPE":"S","HIERARCHY":"DR","LVL":0,"STARTSN_ID":"https://databrussels.be/id/streetnode/","ENDSN_ID":"https://databrussels.be/id/streetnode/","STRNAMEFRE":"Avenue de l'Arbre Ballon","STRNAMEDUT":"Dikke-Beuklaan","SLOPE":1.45,"LENGTH":194.478666536132},"bbox":[145860.36229417,175714.99151527,146031.02489292,175807.8964433]},{"type":"Feature","id":"StreetAxes.fid--2dded296_1a02c03a58e_27af","geometry":{"type":"LineString","coordinates":[[146231.24530081,175579.55855473],[146203.32100016,175663.65244857],[146160.01558901,175789.22557688],[146143.71844405,175837.4711379],[146139.03939282,175851.83958232],[146135.51145236,175867.99459371]]},"geometry_name":"GEOM","properties":{"INSPIRE_ID":"https://databrussels.be/id/streetaxe/99421","TYPE":"S","HIERARCHY":"MER","LVL":0,"STARTSN_ID":"https://databrussels.be/id/streetnode/","ENDSN_ID":"https://databrussels.be/id/streetnode/","STRNAMEFRE":"Avenue de l'Exposition","STRNAMEDUT":"Tentoonstellingslaan","SLOPE":4.34,"LENGTH":304.010204656034},"bbox":[146135.51145236,175579.55855473,146231.24530081,175867.99459371]},{"type":"Feature","id":"StreetAxes.fid--2dded296_1a02c03a58e_27b9","geometry":{"type":"LineString","coordinates":[[146031.02489292,175807.8964433],[146036.053,175791.429],[146040.424,175777.289],[146041.87,175769.934],[146042.418,175764.033],[146043.193,175754.043],[146043.265,175741.085],[146044.824,175736.352],[146047.768,175732.448]]},"geometry_name":"GEOM","properties":{"INSPIRE_ID":"https://databrussels.be/id/streetaxe/99433","TYPE":"S","HIERARCHY":"DR","LVL":0,"STARTSN_ID":"https://databrussels.be/id/streetnode/","ENDSN_ID":"https://databrussels.be/id/streetnode/","STRNAMEFRE":"Avenue du Bourgmestre Etienne Demunter","STRNAMEDUT":"Burgemeester Etienne Demunterlaan","SLOPE":5.08,"LENGTH":78.2913158117409},"bbox":[146031.02489292,175732.448,146047.768,175807.8964433]},{"type":"Feature","id":"StreetAxes.fid--2dded296_1a02c03a58e_27a8","geometry":{"type":"LineString","coordinates":[[146146.68244947,175868.55108438],[146149.75448941,175854.78417285],[146152.29405428,175846.88880768],[146160.25132623,175822.90223767],[146164.15637206,175811.69995085],[146186.69904087,175746.00250746],[146237.93487074,175595.88147578],[146260.51779166,175524.24449781],[146270.39674576,175494.48301167]]},"geometry_name":"GEOM","properties":{"INSPIRE_ID":"https://databrussels.be/id/streetaxe/99442","TYPE":"S","HIERARCHY":"MER","LVL":0,"STARTSN_ID":"https://databrussels.be/id/streetnode/","ENDSN_ID":"https://databrussels.be/id/streetnode/","STRNAMEFRE":"Avenue de l'Exposition","STRNAMEDUT":"Tentoonstellingslaan","SLOPE":4.12,"LENGTH":394.086053356736},"bbox":[146146.68244947,175494.48301167,146270.39674576,175868.55108438]}],"numberReturned":76,"grand_bruxelles_source":{"authority":"Paradigm / Brussels-Capital Region","service":"https://geoservices-urbis.irisnet.be/geoserver/urbisvector/wfs","layer":"urbisvector:StreetAxes","crs":"EPSG:31370","bbox":[146000.0,175500.0,146500.0,176000.0],"cell_id":"bxl-e146000-n175500-s500","ownership":"bbox_intersection_source_unclipped"}}
