{"type":"FeatureCollection","totalFeatures":6,"numberMatched":6,"timeStamp":"2026-08-24T03:17:29.874Z","crs":{"type":"name","properties":{"name":"urn:ogc:def:crs:EPSG::31370"}},"bbox":[156472.51500001,170965.32999898,156531.56608837,171290.46408902],"features":[{"type":"Feature","id":"StreetSurfaces.fid--291372a6_1a0314667fc_1645","geometry":{"type":"Polygon","coordinates":[[[156504.33297067,171276.94001242],[156508.031,171274.84],[156507.88425603,171276.62247866],[156507.6004364,171280.06476022],[156507.24006,171279.95008033],[156506.6200525,171279.67008034],[156505.82005999,171279.03008035],[156505.12994001,171278.22000035],[156504.52999,171277.36000033],[156504.33297067,171276.94001242]]]},"geometry_name":"GEOM","properties":{"INSPIRE_ID":"https://databrussels.be/id/streetsurface/111127","TYPE":"SW","STREET_ID":"https://databrussels.be/id/streetname/3583","STRNAMEFRE":"Avenue Hippocrate","STRNAMEDUT":"Hippokrateslaan","MUNNISCODE":"21018","HIERARCHY":"DR","LVL":0,"ADMIN":"MUN_RBC","AREA":11},"bbox":[156504.33297067,171274.84,156508.031,171280.06476022]},{"type":"Feature","id":"StreetSurfaces.fid--291372a6_1a0314667fc_1647","geometry":{"type":"Polygon","coordinates":[[[156494.29857521,171288.59355179],[156491.74100001,171284.09000035],[156501.3590472,171278.6285555],[156501.39001501,171278.81008035],[156501.54994249,171279.76992033],[156501.6500525,171280.74000035],[156501.62999499,171281.98000034],[156501.510005,171283.23008035],[156501.380075,171284.48000034],[156497.89007001,171286.49008034],[156494.5599925,171288.44000035],[156494.29857521,171288.59355179]]]},"geometry_name":"GEOM","properties":{"INSPIRE_ID":"https://databrussels.be/id/streetsurface/111187","TYPE":"SW","STREET_ID":"https://databrussels.be/id/streetname/3583","STRNAMEFRE":"Avenue Hippocrate","STRNAMEDUT":"Hippokrateslaan","MUNNISCODE":"21018","HIERARCHY":"DR","LVL":0,"ADMIN":"MUN_RBC","AREA":50},"bbox":[156491.74100001,171278.6285555,156501.6500525,171288.59355179]},{"type":"Feature","id":"StreetSurfaces.fid--291372a6_1a0314667fc_1642","geometry":{"type":"Polygon","coordinates":[[[156528.14702911,171017.80254825],[156527.60999999,171017.32000035],[156515.5,171007.09000035],[156506.69000001,171000.00000034],[156490.03,170987.18000034],[156483.87,170982.75000034],[156482.82,170982.55000034],[156473.50999999,170975.80000034],[156472.51500001,170975.19000035],[156473.08013406,170973.34855229],[156473.44991751,170973.51008035],[156487.80008249,170984.25008033],[156494.29001501,170989.12000035],[156500.77000749,170993.98000034],[156507.18006499,170998.94000035],[156508.49001501,171000.00000035],[156515.97998249,171006.09008034],[156524.64003,171013.42000035],[156528.46604249,171016.75856033],[156528.14702911,171017.80254825]]]},"geometry_name":"GEOM","properties":{"INSPIRE_ID":"https://databrussels.be/id/streetsurface/155087","TYPE":"SW","STREET_ID":"https://databrussels.be/id/streetname/3766","STRNAMEFRE":"Avenue de Kraainem","STRNAMEDUT":"Kraainemse laan","MUNNISCODE":"21018","HIERARCHY":"DR","LVL":0,"ADMIN":"REGION_RBC","AREA":85},"bbox":[156472.51500001,170973.34855229,156528.46604249,171017.80254825]},{"type":"Feature","id":"StreetSurfaces.fid--291372a6_1a0314667fc_1644","geometry":{"type":"Polygon","coordinates":[[[156513.87003937,170996.73008112],[156508.55994937,170992.51008114],[156503.22003939,170988.34000114],[156497.87001188,170984.17008113],[156477.05991189,170968.82992116],[156474.96009424,170967.22082726],[156475.53999984,170965.32999898],[156490.5000006,170976.42999955],[156503.1000006,170985.97999955],[156515.25000062,170995.64999956],[156531.56608837,171009.31992661],[156531.11327755,171011.02912169],[156526.72991436,171007.32000111],[156520.32997437,171001.99008111],[156517.89005938,171000.00000113],[156513.87003937,170996.73008112]]]},"geometry_name":"GEOM","properties":{"INSPIRE_ID":"https://databrussels.be/id/streetsurface/155642","TYPE":"SW","STREET_ID":"https://databrussels.be/id/streetname/3766","STRNAMEFRE":"Avenue de Kraainem","STRNAMEDUT":"Kraainemse laan","MUNNISCODE":"21018","HIERARCHY":"DR","LVL":0,"ADMIN":"REGION_RBC","AREA":124},"bbox":[156474.96009424,170965.32999898,156531.56608837,171011.02912169]},{"type":"Feature","id":"StreetSurfaces.fid--291372a6_1a0314667fc_1646","geometry":{"type":"Polygon","coordinates":[[[156494.29857521,171288.59355179],[156494.5599925,171288.44000035],[156497.89007001,171286.49008034],[156501.380075,171284.48000034],[156501.510005,171283.23008035],[156501.62999499,171281.98000034],[156501.6500525,171280.74000035],[156501.54994249,171279.76992033],[156501.39001501,171278.81008035],[156501.3590472,171278.6285555],[156503.79794056,171277.24381386],[156504.33297067,171276.94001242],[156504.52999,171277.36000033],[156505.12994001,171278.22000035],[156505.82005999,171279.03008035],[156506.6200525,171279.67008034],[156507.24006,171279.95008033],[156507.6004364,171280.06476022],[156507.52263844,171281.00832625],[156507.40789924,171282.40004934],[156502.43954389,171285.74655372],[156498.10914035,171288.62988025],[156495.36085677,171290.46408902],[156494.29857521,171288.59355179]]]},"geometry_name":"GEOM","properties":{"INSPIRE_ID":"https://databrussels.be/id/streetsurface/28230","TYPE":"I","STREET_ID":"https://databrussels.be/id/streetname/3583","STRNAMEFRE":"Avenue Hippocrate","STRNAMEDUT":"Hippokrateslaan","MUNNISCODE":"21018","HIERARCHY":"DR","LVL":0,"ADMIN":"MUN_RBC","AREA":51},"bbox":[156494.29857521,171276.94001242,156507.6004364,171290.46408902]},{"type":"Feature","id":"StreetSurfaces.fid--291372a6_1a0314667fc_1643","geometry":{"type":"Polygon","coordinates":[[[156528.14702911,171017.80254825],[156528.46604249,171016.75856033],[156524.64003,171013.42000035],[156515.97998249,171006.09008034],[156508.49001501,171000.00000035],[156507.18006499,170998.94000035],[156500.77000749,170993.98000034],[156494.29001501,170989.12000035],[156487.80008249,170984.25008033],[156473.44991751,170973.51008035],[156473.08013406,170973.34855229],[156474.028,170970.26000034],[156474.96009545,170967.22082664],[156477.05991249,170968.82992035],[156497.8700125,170984.17008034],[156503.22004001,170988.34000035],[156508.55994999,170992.51008035],[156513.87004001,170996.73008035],[156517.89006,171000.00000034],[156520.32997501,171001.99008034],[156526.729915,171007.32000035],[156531.11327751,171011.02912034],[156529.41097662,171017.45443677],[156529.11073155,171018.58775292],[156528.14702911,171017.80254825]]]},"geometry_name":"GEOM","properties":{"INSPIRE_ID":"https://databrussels.be/id/streetsurface/28556","TYPE":"S","STREET_ID":"https://databrussels.be/id/streetname/3766","STRNAMEFRE":"Avenue de Kraainem","STRNAMEDUT":"Kraainemse laan","MUNNISCODE":"21018","HIERARCHY":"DR","LVL":0,"ADMIN":"REGION_RBC","AREA":429},"bbox":[156473.08013406,170967.22082664,156531.11327751,171018.58775292]}],"numberReturned":6,"grand_bruxelles_source":{"authority":"Paradigm / Brussels-Capital Region","service":"https://geoservices-urbis.irisnet.be/geoserver/urbisvector/wfs","layer":"urbisvector:StreetSurfaces","crs":"EPSG:31370","bbox":[156500.0,171000.0,157000.0,171500.0],"cell_id":"bxl-e156500-n171000-s500","ownership":"bbox_intersection_source_unclipped"}}
