{"type":"FeatureCollection","totalFeatures":27,"numberMatched":27,"timeStamp":"2026-08-21T17:56:52.249Z","crs":{"type":"name","properties":{"name":"urn:ogc:def:crs:EPSG::31370"}},"bbox":[146619.448,163330.72937103,147609.262,164098.286],"features":[{"type":"Feature","id":"StreetAxes.fid-43850477_1a0253bde25_71bd","geometry":{"type":"LineString","coordinates":[[147028.973,163944.701],[147027.946,163940.293],[147022.137,163930.119],[147015.875,163920.665],[147004.76,163908.502],[146998.935,163903.46],[146938.92,163851.2],[146927.498,163841.373]]},"geometry_name":"GEOM","properties":{"INSPIRE_ID":"https://databrussels.be/id/streetaxe/70308","TYPE":"S","HIERARCHY":"DC","LVL":0,"STARTSN_ID":"https://databrussels.be/id/streetnode/4115","ENDSN_ID":"https://databrussels.be/id/streetnode/4162","STRNAMEFRE":"Avenue de Beersel","STRNAMEDUT":"Beersellaan","SLOPE":0.59,"LENGTH":146.409326665944},"bbox":[146927.498,163841.373,147028.973,163944.701]},{"type":"Feature","id":"StreetAxes.fid-43850477_1a0253bde25_71b7","geometry":{"type":"LineString","coordinates":[[147099.111,163686.484],[147086.54405341,163695.54415659],[147077.04685963,163703.77191978],[147027.44036102,163746.74782749],[147020.534,163754.656]]},"geometry_name":"GEOM","properties":{"INSPIRE_ID":"https://databrussels.be/id/streetaxe/70805","TYPE":"S","HIERARCHY":"DC","LVL":0,"STARTSN_ID":"https://databrussels.be/id/streetnode/2383","ENDSN_ID":"https://databrussels.be/id/streetnode/1986","STRNAMEFRE":"Rue Molensteen","STRNAMEDUT":"Molensteenstraat","SLOPE":4.18,"LENGTH":104.19064995843},"bbox":[147020.534,163686.484,147099.111,163754.656]},{"type":"Feature","id":"StreetAxes.fid-43850477_1a0253bde25_71ba","geometry":{"type":"LineString","coordinates":[[147020.534,163754.656],[147014.662,163761.664],[146939.414,163830.31],[146927.498,163841.373]]},"geometry_name":"GEOM","properties":{"INSPIRE_ID":"https://databrussels.be/id/streetaxe/70940","TYPE":"S","HIERARCHY":"DC","LVL":0,"STARTSN_ID":"https://databrussels.be/id/streetnode/1986","ENDSN_ID":"https://databrussels.be/id/streetnode/4162","STRNAMEFRE":"Rue Molensteen","STRNAMEDUT":"Molensteenstraat","SLOPE":3.86,"LENGTH":127.258148819767},"bbox":[146927.498,163754.656,147020.534,163841.373]},{"type":"Feature","id":"StreetAxes.fid-43850477_1a0253bde25_71c2","geometry":{"type":"LineString","coordinates":[[147034.988,163996.052],[147041.89,163997.115],[147051.6,163998.61],[147055.596,163996.102],[147056.325,163980.815],[147053.464,163955.374],[147051.444,163946.386],[147048.51,163937.215],[147035.8,163942.085],[147028.973,163944.701]]},"geometry_name":"GEOM","properties":{"INSPIRE_ID":"https://databrussels.be/id/streetaxe/71191","TYPE":"S","HIERARCHY":null,"LVL":0,"STARTSN_ID":"https://databrussels.be/id/streetnode/741","ENDSN_ID":"https://databrussels.be/id/streetnode/4115","STRNAMEFRE":"Avenue de Beersel","STRNAMEDUT":"Beersellaan","SLOPE":1.6,"LENGTH":102.194571925434},"bbox":[147028.973,163937.215,147056.325,163998.61]},{"type":"Feature","id":"StreetAxes.fid-43850477_1a0253bde25_71c5","geometry":{"type":"LineString","coordinates":[[147024.002,164056.503],[147020.545,164045.975],[147030.73,164015.81],[147034.834,164000.502],[147034.988,163996.052]]},"geometry_name":"GEOM","properties":{"INSPIRE_ID":"https://databrussels.be/id/streetaxe/71192","TYPE":"S","HIERARCHY":"DC","LVL":0,"STARTSN_ID":"https://databrussels.be/id/streetnode/1079","ENDSN_ID":"https://databrussels.be/id/streetnode/741","STRNAMEFRE":"Avenue de Beersel","STRNAMEDUT":"Beersellaan","SLOPE":3.4,"LENGTH":63.2203486981279},"bbox":[147020.545,163996.052,147034.988,164056.503]},{"type":"Feature","id":"StreetAxes.fid-43850477_1a0253bde25_71c3","geometry":{"type":"LineString","coordinates":[[147034.988,163996.052],[147035.2,163989.955],[147035.338,163978.442],[147033.646,163961.574],[147030.378,163950.726],[147028.973,163944.701]]},"geometry_name":"GEOM","properties":{"INSPIRE_ID":"https://databrussels.be/id/streetaxe/71685","TYPE":"S","HIERARCHY":"DC","LVL":0,"STARTSN_ID":"https://databrussels.be/id/streetnode/741","ENDSN_ID":"https://databrussels.be/id/streetnode/4115","STRNAMEFRE":"Avenue de Beersel","STRNAMEDUT":"Beersellaan","SLOPE":3.13,"LENGTH":52.0833709484161},"bbox":[147028.973,163944.701,147035.338,163996.052]},{"type":"Feature","id":"StreetAxes.fid-43850477_1a0253bde25_71c1","geometry":{"type":"LineString","coordinates":[[147024.002,164056.503],[147010.805,164052.335],[147001.714,164049.448],[146904.642,164019.274],[146780.386,163979.551],[146647.786,163937.314],[146621.698,163929.279],[146619.448,163928.852]]},"geometry_name":"GEOM","properties":{"INSPIRE_ID":"https://databrussels.be/id/streetaxe/74181","TYPE":"S","HIERARCHY":"IDR","LVL":0,"STARTSN_ID":"https://databrussels.be/id/streetnode/1079","ENDSN_ID":"https://databrussels.be/id/streetnode/4243","STRNAMEFRE":"Chaussée de Drogenbos","STRNAMEDUT":"Drogenbossesteenweg","SLOPE":0.24,"LENGTH":424.234398251351},"bbox":[146619.448,163928.852,147024.002,164056.503]},{"type":"Feature","id":"StreetAxes.fid-43850477_1a0253bde25_71c4","geometry":{"type":"LineString","coordinates":[[147154.839,164098.286],[147155.71,164091.465],[147175.025,164049.335],[147184.395,164026.345],[147191.125,164006.12],[147193.812,163997.799],[147195.374,163992.96],[147195.604,163988.124]]},"geometry_name":"GEOM","properties":{"INSPIRE_ID":"https://databrussels.be/id/streetaxe/75499","TYPE":"S","HIERARCHY":"DR","LVL":0,"STARTSN_ID":"https://databrussels.be/id/streetnode/1209","ENDSN_ID":"https://databrussels.be/id/streetnode/1799","STRNAMEFRE":"Rue Zandbeek","STRNAMEDUT":"Zandbeekstraat","SLOPE":1.53,"LENGTH":118.034850702555},"bbox":[147154.839,163988.124,147195.604,164098.286]},{"type":"Feature","id":"StreetAxes.fid-43850477_1a0253bde25_71c0","geometry":{"type":"LineString","coordinates":[[147195.604,163988.124],[147191.046,163985.74],[147187.65,163982.284],[147169.624,163963.944],[147128.718,163922.792],[147114.109,163904.102],[147097.63501589,163879.26097766]]},"geometry_name":"GEOM","properties":{"INSPIRE_ID":"https://databrussels.be/id/streetaxe/75713","TYPE":"S","HIERARCHY":"DR","LVL":0,"STARTSN_ID":"https://databrussels.be/id/streetnode/1799","ENDSN_ID":"https://databrussels.be/id/streetnode/4239","STRNAMEFRE":"Rue Zandbeek","STRNAMEDUT":"Zandbeekstraat","SLOPE":1.04,"LENGTH":147.258037446722},"bbox":[147097.63501589,163879.26097766,147195.604,163988.124]},{"type":"Feature","id":"StreetAxes.fid-43850477_1a0253bde25_71c6","geometry":{"type":"LineString","coordinates":[[147155.96721914,163830.12070867],[147162.56554354,163827.50790185],[147187.867,163796.939],[147306.966,163649.438],[147318.58040838,163634.91345555]]},"geometry_name":"GEOM","properties":{"INSPIRE_ID":"https://databrussels.be/id/streetaxe/76421","TYPE":"S","HIERARCHY":"DR","LVL":0,"STARTSN_ID":"https://databrussels.be/id/streetnode/7232","ENDSN_ID":"https://databrussels.be/id/streetnode/4917","STRNAMEFRE":"Avenue du Silence","STRNAMEDUT":"Stillelaan","SLOPE":5.04,"LENGTH":254.956958271063},"bbox":[147155.96721914,163634.91345555,147318.58040838,163830.12070867]},{"type":"Feature","id":"StreetAxes.fid-43850477_1a0253bde25_71c8","geometry":{"type":"LineString","coordinates":[[147453.586,163765.211],[147464.1,163771.335],[147480.88,163768.424],[147526.2,163759.01],[147532.6,163757.143],[147536.85,163756.281],[147541.762,163755.284],[147549.865,163754.225],[147595.764,163744.388],[147609.262,163740.971]]},"geometry_name":"GEOM","properties":{"INSPIRE_ID":"https://databrussels.be/id/streetaxe/78257","TYPE":"S","HIERARCHY":"DC","LVL":0,"STARTSN_ID":"https://databrussels.be/id/streetnode/1963","ENDSN_ID":"https://databrussels.be/id/streetnode/4052","STRNAMEFRE":"Rue des Bigarreaux","STRNAMEDUT":"Vleeskersenstraat","SLOPE":3.3,"LENGTH":160.537979375088},"bbox":[147453.586,163740.971,147609.262,163771.335]},{"type":"Feature","id":"StreetAxes.fid-43850477_1a0253bde25_71c9","geometry":{"type":"LineString","coordinates":[[147323.143,164053.215],[147328.13619104,164045.89957186],[147345.7,164000],[147361.83222242,163962.40448756],[147365.915,163949.139],[147393.13650748,163886.21997592],[147414.472,163833.818],[147441.721,163785.584],[147453.586,163765.211]]},"geometry_name":"GEOM","properties":{"INSPIRE_ID":"https://databrussels.be/id/streetaxe/78713","TYPE":"S","HIERARCHY":"IDR","LVL":0,"STARTSN_ID":"https://databrussels.be/id/streetnode/7235","ENDSN_ID":"https://databrussels.be/id/streetnode/1963","STRNAMEFRE":"Rue du Bourdon","STRNAMEDUT":"Horzelstraat","SLOPE":4.41,"LENGTH":316.901495739289},"bbox":[147323.143,163765.211,147453.586,164053.215]},{"type":"Feature","id":"StreetAxes.fid-43850477_1a0253bde25_71c7","geometry":{"type":"LineString","coordinates":[[147208.1436391,163961.12159342],[147214.58627856,163958.54911536],[147221.252,163951.639],[147237.101,163912.547],[147276.251,163815.979],[147351.266,163680.134],[147355.7984834,163671.094893],[147352.98,163658.414]]},"geometry_name":"GEOM","properties":{"INSPIRE_ID":"https://databrussels.be/id/streetaxe/78734","TYPE":"S","HIERARCHY":"DR","LVL":0,"STARTSN_ID":"https://databrussels.be/id/streetnode/7228","ENDSN_ID":"https://databrussels.be/id/streetnode/4604","STRNAMEFRE":"Rue de Calevoet","STRNAMEDUT":"Calevoetstraat","SLOPE":4.51,"LENGTH":341.206276868894},"bbox":[147208.1436391,163658.414,147355.7984834,163961.12159342]},{"type":"Feature","id":"StreetAxes.fid-43850477_1a0253bde25_71cf","geometry":{"type":"LineString","coordinates":[[147020.534,163754.656],[147010.38903171,163749.08098357],[147006.18256495,163743.80662948],[146989.083,163722.531],[146986.4465,163717.9705],[146985.131,163714.375],[146985.009,163708.3955],[146986.6205,163673.268],[146985.1265,163666.2845],[146978.336,163655.464],[146971.379,163646.897],[146965.732,163621.699],[146962.8955,163605.6485],[146960.63012021,163592.73944471]]},"geometry_name":"GEOM","properties":{"INSPIRE_ID":"https://databrussels.be/id/streetaxe/79778","TYPE":"S","HIERARCHY":"DR","LVL":0,"STARTSN_ID":"https://databrussels.be/id/streetnode/1986","ENDSN_ID":"https://databrussels.be/id/streetnode/4475","STRNAMEFRE":"Rue Steenvelt","STRNAMEDUT":"Steenveltstraat","SLOPE":0.08,"LENGTH":182.040147747109},"bbox":[146960.63012021,163592.73944471,147020.534,163754.656]},{"type":"Feature","id":"StreetAxes.fid-43850477_1a0253bde25_71d0","geometry":{"type":"LineString","coordinates":[[147352.98,163658.414],[147356.87889743,163652.37300534],[147372.11699002,163632.12420702]]},"geometry_name":"GEOM","properties":{"INSPIRE_ID":"https://databrussels.be/id/streetaxe/79984","TYPE":"S","HIERARCHY":"DR","LVL":0,"STARTSN_ID":"https://databrussels.be/id/streetnode/4604","ENDSN_ID":"https://databrussels.be/id/streetnode/4603","STRNAMEFRE":"Rue de Calevoet","STRNAMEDUT":"Calevoetstraat","SLOPE":1.51,"LENGTH":32.5318524251275},"bbox":[147352.98,163632.12420702,147372.11699002,163658.414]},{"type":"Feature","id":"StreetAxes.fid-43850477_1a0253bde25_71bb","geometry":{"type":"LineString","coordinates":[[147097.63501589,163879.26097766],[147042.54993895,163790.54540682],[147026.8535735,163764.616382],[147020.534,163754.656]]},"geometry_name":"GEOM","properties":{"INSPIRE_ID":"https://databrussels.be/id/streetaxe/80449","TYPE":"S","HIERARCHY":"DR","LVL":0,"STARTSN_ID":"https://databrussels.be/id/streetnode/4239","ENDSN_ID":"https://databrussels.be/id/streetnode/1986","STRNAMEFRE":"Rue Zandbeek","STRNAMEDUT":"Zandbeekstraat","SLOPE":1.45,"LENGTH":146.532066078963},"bbox":[147020.534,163754.656,147097.63501589,163879.26097766]},{"type":"Feature","id":"StreetAxes.fid-43850477_1a0253bde25_71cd","geometry":{"type":"LineString","coordinates":[[147453.586,163765.211],[147465.452,163744.838],[147495.368,163692.194],[147499.183,163679.75],[147499.003,163663.068],[147475.312,163553.953],[147463.605,163500.213],[147451.216,163443.344],[147445.228,163415.859],[147438.12306293,163391.36319423],[147428.884,163356.068],[147424.52650757,163330.72937103]]},"geometry_name":"GEOM","properties":{"INSPIRE_ID":"https://databrussels.be/id/streetaxe/83779","TYPE":"S","HIERARCHY":null,"LVL":0,"STARTSN_ID":"https://databrussels.be/id/streetnode/1963","ENDSN_ID":"https://databrussels.be/id/streetnode/4476","STRNAMEFRE":"Rue du Bourdon","STRNAMEDUT":"Horzelstraat","SLOPE":3.92,"LENGTH":454.51636292067},"bbox":[147424.52650757,163330.72937103,147499.183,163765.211]},{"type":"Feature","id":"StreetAxes.fid-43850477_1a0253bde25_71cc","geometry":{"type":"LineString","coordinates":[[147195.604,163988.124],[147200.193,163986.2],[147215.78834919,163980.26737798]]},"geometry_name":"GEOM","properties":{"INSPIRE_ID":"https://databrussels.be/id/streetaxe/85076","TYPE":"S","HIERARCHY":"DR","LVL":0,"STARTSN_ID":"https://databrussels.be/id/streetnode/1799","ENDSN_ID":"https://databrussels.be/id/streetnode/6771","STRNAMEFRE":"Rue Zandbeek","STRNAMEDUT":"Zandbeekstraat","SLOPE":6.74,"LENGTH":21.6616622868438},"bbox":[147195.604,163980.26737798,147215.78834919,163988.124]},{"type":"Feature","id":"StreetAxes.fid-43850477_1a0253bde25_71bf","geometry":{"type":"LineString","coordinates":[[147208.1436391,163961.12159342],[147164.886,163852.644],[147161.95571948,163845.24393459]]},"geometry_name":"GEOM","properties":{"INSPIRE_ID":"https://databrussels.be/id/streetaxe/87002","TYPE":"SC","HIERARCHY":"IDR","LVL":0,"STARTSN_ID":"https://databrussels.be/id/streetnode/7228","ENDSN_ID":"https://databrussels.be/id/streetnode/4241","STRNAMEFRE":"Chaussée d'Alsemberg","STRNAMEDUT":"Alsembergsesteenweg","SLOPE":2.07,"LENGTH":124.743581522751},"bbox":[147161.95571948,163845.24393459,147208.1436391,163961.12159342]},{"type":"Feature","id":"StreetAxes.fid-43850477_1a0253bde25_71bc","geometry":{"type":"LineString","coordinates":[[147161.95571948,163845.24393459],[147155.96721914,163830.12070867]]},"geometry_name":"GEOM","properties":{"INSPIRE_ID":"https://databrussels.be/id/streetaxe/87005","TYPE":"IC","HIERARCHY":"IDR","LVL":0,"STARTSN_ID":"https://databrussels.be/id/streetnode/4241","ENDSN_ID":"https://databrussels.be/id/streetnode/7232","STRNAMEFRE":"Chaussée d'Alsemberg","STRNAMEDUT":"Alsembergsesteenweg","SLOPE":2.03,"LENGTH":16.2657338760227},"bbox":[147155.96721914,163830.12070867,147161.95571948,163845.24393459]},{"type":"Feature","id":"StreetAxes.fid-43850477_1a0253bde25_71b8","geometry":{"type":"LineString","coordinates":[[147155.96721914,163830.12070867],[147150.858,163817.218],[147103.719,163698.209],[147099.111,163686.484]]},"geometry_name":"GEOM","properties":{"INSPIRE_ID":"https://databrussels.be/id/streetaxe/87008","TYPE":"SC","HIERARCHY":"IDR","LVL":0,"STARTSN_ID":"https://databrussels.be/id/streetnode/7232","ENDSN_ID":"https://databrussels.be/id/streetnode/2383","STRNAMEFRE":"Chaussée d'Alsemberg","STRNAMEDUT":"Alsembergsesteenweg","SLOPE":2.16,"LENGTH":154.480246101676},"bbox":[147099.111,163686.484,147155.96721914,163830.12070867]},{"type":"Feature","id":"StreetAxes.fid-43850477_1a0253bde25_71d1","geometry":{"type":"LineString","coordinates":[[147352.98,163658.414],[147337.416,163650.032],[147318.58040838,163634.91345555]]},"geometry_name":"GEOM","properties":{"INSPIRE_ID":"https://databrussels.be/id/streetaxe/87192","TYPE":"I","HIERARCHY":"DR","LVL":0,"STARTSN_ID":"https://databrussels.be/id/streetnode/4604","ENDSN_ID":"https://databrussels.be/id/streetnode/4917","STRNAMEFRE":"Avenue du Silence","STRNAMEDUT":"Stillelaan","SLOPE":0.86,"LENGTH":41.8301944553718},"bbox":[147318.58040838,163634.91345555,147352.98,163658.414]},{"type":"Feature","id":"StreetAxes.fid-43850477_1a0253bde25_71cb","geometry":{"type":"LineString","coordinates":[[147250.98851524,164068.70423639],[147236.108,164032.394],[147215.78797308,163980.26640702]]},"geometry_name":"GEOM","properties":{"INSPIRE_ID":"https://databrussels.be/id/streetaxe/88567","TYPE":"SC","HIERARCHY":"IDR","LVL":0,"STARTSN_ID":"https://databrussels.be/id/streetnode/7238","ENDSN_ID":"https://databrussels.be/id/streetnode/6771","STRNAMEFRE":"Chaussée d'Alsemberg","STRNAMEDUT":"Alsembergsesteenweg","SLOPE":1.42,"LENGTH":95.1891841483286},"bbox":[147215.78797308,163980.26640702,147250.98851524,164068.70423639]},{"type":"Feature","id":"StreetAxes.fid-43850477_1a0253bde25_71ce","geometry":{"type":"LineString","coordinates":[[147099.111,163686.484],[147094.503,163674.76],[146991.88475874,163416.31101455]]},"geometry_name":"GEOM","properties":{"INSPIRE_ID":"https://databrussels.be/id/streetaxe/88568","TYPE":"SC","HIERARCHY":"IDR","LVL":0,"STARTSN_ID":"https://databrussels.be/id/streetnode/2383","ENDSN_ID":"https://databrussels.be/id/streetnode/7236","STRNAMEFRE":"Chaussée d'Alsemberg","STRNAMEDUT":"Alsembergsesteenweg","SLOPE":0.63,"LENGTH":290.673272107745},"bbox":[146991.88475874,163416.31101455,147099.111,163686.484]},{"type":"Feature","id":"StreetAxes.fid-43850477_1a0253bde25_71b9","geometry":{"type":"LineString","coordinates":[[147020.534,163754.656],[147007.9615,163753.37],[147002.802,163754.356],[146986.615,163756.67],[146976,163756.74],[146966.355,163756.085],[146955.74,163753.485],[146940.2,163746.995],[146928.275,163746.285],[146908.016,163745.198],[146892.82,163739.8]]},"geometry_name":"GEOM","properties":{"INSPIRE_ID":"https://databrussels.be/id/streetaxe/88599","TYPE":"S","HIERARCHY":null,"LVL":0,"STARTSN_ID":"https://databrussels.be/id/streetnode/1986","ENDSN_ID":"https://databrussels.be/id/streetnode/2225","STRNAMEFRE":"Rue Zandbeek","STRNAMEDUT":"Zandbeekstraat","SLOPE":3.22,"LENGTH":130.655066230269},"bbox":[146892.82,163739.8,147020.534,163756.74]},{"type":"Feature","id":"StreetAxes.fid-43850477_1a0253bde25_71be","geometry":{"type":"LineString","coordinates":[[147097.63501589,163879.26097766],[147109.63766695,163871.36946252],[147128.48665153,163858.83160455],[147161.95571948,163845.24393459]]},"geometry_name":"GEOM","properties":{"INSPIRE_ID":"https://databrussels.be/id/streetaxe/94833","TYPE":"S","HIERARCHY":null,"LVL":0,"STARTSN_ID":"https://databrussels.be/id/streetnode/4239","ENDSN_ID":"https://databrussels.be/id/streetnode/4241","STRNAMEFRE":"Rue Docteur Hubert Clerx","STRNAMEDUT":"Dokter Hubert Clerxstraat","SLOPE":3.84,"LENGTH":73.1246557313675},"bbox":[147097.63501589,163845.24393459,147161.95571948,163879.26097766]},{"type":"Feature","id":"StreetAxes.fid-43850477_1a0253bde25_71ca","geometry":{"type":"LineString","coordinates":[[147215.78797308,163980.26640702],[147208.1436391,163961.12159342]]},"geometry_name":"GEOM","properties":{"INSPIRE_ID":"https://databrussels.be/id/streetaxe/99607","TYPE":"S","HIERARCHY":"IDR","LVL":0,"STARTSN_ID":"https://databrussels.be/id/streetnode/","ENDSN_ID":"https://databrussels.be/id/streetnode/","STRNAMEFRE":"Chaussée d'Alsemberg","STRNAMEDUT":"Alsembergsesteenweg","SLOPE":null,"LENGTH":20.6145514050788},"bbox":[147208.1436391,163961.12159342,147215.78797308,163980.26640702]}],"numberReturned":27,"grand_bruxelles_source":{"authority":"Paradigm / Brussels-Capital Region","service":"https://geoservices-urbis.irisnet.be/geoserver/urbisvector/wfs","layer":"urbisvector:StreetAxes","crs":"EPSG:31370","bbox":[147000.0,163500.0,147500.0,164000.0],"cell_id":"bxl-e147000-n163500-s500","ownership":"bbox_intersection_source_unclipped"}}
