{"type":"FeatureCollection","totalFeatures":48,"numberMatched":48,"timeStamp":"2026-08-23T01:02:11.294Z","crs":{"type":"name","properties":{"name":"urn:ogc:def:crs:EPSG::31370"}},"bbox":[144831.79514267,170853.59005288,145672.19,171670.31461233],"features":[{"type":"Feature","id":"StreetAxes.fid--578fcb21_1a02c23451d_-7d82","geometry":{"type":"LineString","coordinates":[[145310.523,171016.757],[145326.126,171011.434],[145452.74,170968.464],[145468.766,170967.282]]},"geometry_name":"GEOM","properties":{"INSPIRE_ID":"https://databrussels.be/id/streetaxe/70147","TYPE":"S","HIERARCHY":"DR","LVL":0,"STARTSN_ID":"https://databrussels.be/id/streetnode/2907","ENDSN_ID":"https://databrussels.be/id/streetnode/2384","STRNAMEFRE":"Rue de la Belle au Bois Dormant","STRNAMEDUT":"Schoonslaapsterstraat","SLOPE":0.42,"LENGTH":166.262387901758},"bbox":[145310.523,170967.282,145468.766,171016.757]},{"type":"Feature","id":"StreetAxes.fid--578fcb21_1a02c23451d_-7d7c","geometry":{"type":"LineString","coordinates":[[145468.766,170967.282],[145469.548,170981.65],[145472.016,171031.488],[145472.476,171042.031]]},"geometry_name":"GEOM","properties":{"INSPIRE_ID":"https://databrussels.be/id/streetaxe/70751","TYPE":"S","HIERARCHY":"DR","LVL":0,"STARTSN_ID":"https://databrussels.be/id/streetnode/2384","ENDSN_ID":"https://databrussels.be/id/streetnode/1828","STRNAMEFRE":"Avenue du Scheutbosch","STRNAMEDUT":"Scheutboschlaan","SLOPE":0.28,"LENGTH":74.8413661624615},"bbox":[145468.766,170967.282,145472.476,171042.031]},{"type":"Feature","id":"StreetAxes.fid--578fcb21_1a02c23451d_-7d83","geometry":{"type":"LineString","coordinates":[[145322.428,170886.132],[145320.856,170899.308],[145320.315,170903.656],[145307.62,171002.453],[145310.523,171016.757]]},"geometry_name":"GEOM","properties":{"INSPIRE_ID":"https://databrussels.be/id/streetaxe/72780","TYPE":"S","HIERARCHY":"DR","LVL":0,"STARTSN_ID":"https://databrussels.be/id/streetnode/3182","ENDSN_ID":"https://databrussels.be/id/streetnode/2907","STRNAMEFRE":"Rue Van Wambeke","STRNAMEDUT":"Van Wambekestraat","SLOPE":0.08,"LENGTH":131.855869977271},"bbox":[145307.62,170886.132,145322.428,171016.757]},{"type":"Feature","id":"StreetAxes.fid--578fcb21_1a02c23451d_-7d89","geometry":{"type":"LineString","coordinates":[[145222.339,171046.915],[145235.306,171042.507],[145294.92,171022.08],[145310.523,171016.757]]},"geometry_name":"GEOM","properties":{"INSPIRE_ID":"https://databrussels.be/id/streetaxe/74306","TYPE":"S","HIERARCHY":"DR","LVL":0,"STARTSN_ID":"https://databrussels.be/id/streetnode/9918","ENDSN_ID":"https://databrussels.be/id/streetnode/2907","STRNAMEFRE":"Rue de la Belle au Bois Dormant","STRNAMEDUT":"Schoonslaapsterstraat","SLOPE":0.56,"LENGTH":93.1983372568863},"bbox":[145222.339,171016.757,145310.523,171046.915]},{"type":"Feature","id":"StreetAxes.fid--578fcb21_1a02c23451d_-7da6","geometry":{"type":"LineString","coordinates":[[145513.31506432,171345.81048266],[145471.57367469,171333.99566079]]},"geometry_name":"GEOM","properties":{"INSPIRE_ID":"https://databrussels.be/id/streetaxe/74502","TYPE":"S","HIERARCHY":"DR","LVL":0,"STARTSN_ID":"https://databrussels.be/id/streetnode/10170","ENDSN_ID":"https://databrussels.be/id/streetnode/10168","STRNAMEFRE":"Avenue du Condor","STRNAMEDUT":"Condorlaan","SLOPE":1.43,"LENGTH":43.3812589063899},"bbox":[145471.57367469,171333.99566079,145513.31506432,171345.81048266]},{"type":"Feature","id":"StreetAxes.fid--578fcb21_1a02c23451d_-7da1","geometry":{"type":"LineString","coordinates":[[145477.38119486,171145.01730288],[145478.11,171159.43],[145483.678,171273.079],[145484.001,171288.027]]},"geometry_name":"GEOM","properties":{"INSPIRE_ID":"https://databrussels.be/id/streetaxe/75595","TYPE":"S","HIERARCHY":"DR","LVL":0,"STARTSN_ID":"https://databrussels.be/id/streetnode/9925","ENDSN_ID":"https://databrussels.be/id/streetnode/10172","STRNAMEFRE":"Avenue du Scheutbosch","STRNAMEDUT":"Scheutboschlaan","SLOPE":3.85,"LENGTH":143.167916008215},"bbox":[145477.38119486,171145.01730288,145484.001,171288.027]},{"type":"Feature","id":"StreetAxes.fid--578fcb21_1a02c23451d_-7da2","geometry":{"type":"LineString","coordinates":[[145477.38119486,171145.01730288],[145494.75073855,171145.13877643],[145645.92599623,171171.08038424],[145661.5514945,171173.79245044]]},"geometry_name":"GEOM","properties":{"INSPIRE_ID":"https://databrussels.be/id/streetaxe/75596","TYPE":"S","HIERARCHY":"IDR","LVL":0,"STARTSN_ID":"https://databrussels.be/id/streetnode/9925","ENDSN_ID":"https://databrussels.be/id/streetnode/9407","STRNAMEFRE":"Boulevard Edmond Machtens","STRNAMEDUT":"Edmond Machtenslaan","SLOPE":0.78,"LENGTH":186.613976011661},"bbox":[145477.38119486,171145.01730288,145661.5514945,171173.79245044]},{"type":"Feature","id":"StreetAxes.fid--578fcb21_1a02c23451d_-7d7e","geometry":{"type":"LineString","coordinates":[[145359.83041497,171168.36541015],[145371.77743135,171164.96652306],[145403.90006412,171155.69731142],[145420.78295291,171150.95969591],[145436.77012757,171147.43933468],[145449.34128137,171145.68950165],[145458.89420646,171144.67603523],[145477.38119486,171145.01730288]]},"geometry_name":"GEOM","properties":{"INSPIRE_ID":"https://databrussels.be/id/streetaxe/75598","TYPE":"S","HIERARCHY":"IDR","LVL":0,"STARTSN_ID":"https://databrussels.be/id/streetnode/10167","ENDSN_ID":"https://databrussels.be/id/streetnode/9925","STRNAMEFRE":"Boulevard Edmond Machtens","STRNAMEDUT":"Edmond Machtenslaan","SLOPE":0.8,"LENGTH":120.548562628211},"bbox":[145359.83041497,171144.67603523,145477.38119486,171168.36541015]},{"type":"Feature","id":"StreetAxes.fid--578fcb21_1a02c23451d_-7d9d","geometry":{"type":"LineString","coordinates":[[145092.66371564,171052.23909396],[145080.50790356,171049.38244161],[145071.435,171047.71],[144985.362,171030.161],[144975.382,171028.806]]},"geometry_name":"GEOM","properties":{"INSPIRE_ID":"https://databrussels.be/id/streetaxe/75671","TYPE":"S","HIERARCHY":"DR","LVL":0,"STARTSN_ID":"https://databrussels.be/id/streetnode/9912","ENDSN_ID":"https://databrussels.be/id/streetnode/9913","STRNAMEFRE":"Rue de l'Idylle","STRNAMEDUT":"Idyllestraat","SLOPE":1.92,"LENGTH":119.628061726282},"bbox":[144975.382,171028.806,145092.66371564,171052.23909396]},{"type":"Feature","id":"StreetAxes.fid--578fcb21_1a02c23451d_-7da5","geometry":{"type":"LineString","coordinates":[[145472.476,171042.031],[145472.935,171052.574],[145475.916,171121.212],[145476.89853176,171136.55892497]]},"geometry_name":"GEOM","properties":{"INSPIRE_ID":"https://databrussels.be/id/streetaxe/76865","TYPE":"S","HIERARCHY":"DR","LVL":0,"STARTSN_ID":"https://databrussels.be/id/streetnode/1828","ENDSN_ID":"https://databrussels.be/id/streetnode/9110","STRNAMEFRE":"Avenue du Scheutbosch","STRNAMEDUT":"Scheutboschlaan","SLOPE":0.56,"LENGTH":94.634034161926},"bbox":[145472.476,171042.031,145476.89853176,171136.55892497]},{"type":"Feature","id":"StreetAxes.fid--578fcb21_1a02c23451d_-7da0","geometry":{"type":"LineString","coordinates":[[145665.443,171253.553],[145649.425,171254.9],[145501.306,171285.16],[145484.001,171288.027]]},"geometry_name":"GEOM","properties":{"INSPIRE_ID":"https://databrussels.be/id/streetaxe/77110","TYPE":"S","HIERARCHY":"DR","LVL":0,"STARTSN_ID":"https://databrussels.be/id/streetnode/2232","ENDSN_ID":"https://databrussels.be/id/streetnode/10172","STRNAMEFRE":"Rue du Serpolet","STRNAMEDUT":"Wilde Tijmstraat","SLOPE":2.67,"LENGTH":184.793814233895},"bbox":[145484.001,171253.553,145665.443,171288.027]},{"type":"Feature","id":"StreetAxes.fid--578fcb21_1a02c23451d_-7d9f","geometry":{"type":"LineString","coordinates":[[145484.001,171288.027],[145481.091,171297.584],[145475.07090022,171320.61587332],[145471.57367469,171333.99566079]]},"geometry_name":"GEOM","properties":{"INSPIRE_ID":"https://databrussels.be/id/streetaxe/77113","TYPE":"S","HIERARCHY":"DR","LVL":0,"STARTSN_ID":"https://databrussels.be/id/streetnode/10172","ENDSN_ID":"https://databrussels.be/id/streetnode/10168","STRNAMEFRE":"Avenue du Scheutbosch","STRNAMEDUT":"Scheutboschlaan","SLOPE":4.35,"LENGTH":47.625150185346},"bbox":[145471.57367469,171288.027,145484.001,171333.99566079]},{"type":"Feature","id":"StreetAxes.fid--578fcb21_1a02c23451d_-7d8a","geometry":{"type":"LineString","coordinates":[[145196.878,170869.413],[145195.696,170881.782],[145203.458,170935.002],[145217.814,171033.73],[145217.94,171034.098],[145222.339,171046.915]]},"geometry_name":"GEOM","properties":{"INSPIRE_ID":"https://databrussels.be/id/streetaxe/77404","TYPE":"S","HIERARCHY":"DR","LVL":0,"STARTSN_ID":"https://databrussels.be/id/streetnode/1671","ENDSN_ID":"https://databrussels.be/id/streetnode/9918","STRNAMEFRE":"Rue de la Cavatine","STRNAMEDUT":"Cavatinestraat","SLOPE":0.03,"LENGTH":179.914559944047},"bbox":[145195.696,170869.413,145222.339,171046.915]},{"type":"Feature","id":"StreetAxes.fid--578fcb21_1a02c23451d_-7d7b","geometry":{"type":"LineString","coordinates":[[145672.19,171086.526],[145661.826,171085.104],[145484.626,171041.666],[145472.476,171042.031]]},"geometry_name":"GEOM","properties":{"INSPIRE_ID":"https://databrussels.be/id/streetaxe/77472","TYPE":"S","HIERARCHY":"DR","LVL":0,"STARTSN_ID":"https://databrussels.be/id/streetnode/9917","ENDSN_ID":"https://databrussels.be/id/streetnode/1828","STRNAMEFRE":"Rue de Levallois-Perret","STRNAMEDUT":"Levallois-Perretstraat","SLOPE":0.28,"LENGTH":205.063009753065},"bbox":[145472.476,171041.666,145672.19,171086.526]},{"type":"Feature","id":"StreetAxes.fid--578fcb21_1a02c23451d_-7d8f","geometry":{"type":"LineString","coordinates":[[145168.88413209,171218.86402904],[145184.20575462,171214.3964064]]},"geometry_name":"GEOM","properties":{"INSPIRE_ID":"https://databrussels.be/id/streetaxe/79204","TYPE":"S","HIERARCHY":"MER","LVL":0,"STARTSN_ID":"https://databrussels.be/id/streetnode/10173","ENDSN_ID":"https://databrussels.be/id/streetnode/9342","STRNAMEFRE":"Square Docteur Decroly","STRNAMEDUT":"Dokter Decrolysquare","SLOPE":0.19,"LENGTH":15.9596920052759},"bbox":[145168.88413209,171214.3964064,145184.20575462,171218.86402904]},{"type":"Feature","id":"StreetAxes.fid--578fcb21_1a02c23451d_-7d80","geometry":{"type":"LineString","coordinates":[[145359.59585406,171160.00011864],[145369.53728178,171157.12216836],[145398.77127717,171148.76074505],[145416.65783943,171143.65102762],[145433.12765561,171139.80911838],[145453.28125338,171136.89465822],[145459.6956581,171136.62500282],[145476.89853176,171136.55892497]]},"geometry_name":"GEOM","properties":{"INSPIRE_ID":"https://databrussels.be/id/streetaxe/80420","TYPE":"S","HIERARCHY":"IDR","LVL":0,"STARTSN_ID":"https://databrussels.be/id/streetnode/9131","ENDSN_ID":"https://databrussels.be/id/streetnode/9110","STRNAMEFRE":"Boulevard Edmond Machtens","STRNAMEDUT":"Edmond Machtenslaan","SLOPE":0.78,"LENGTH":120.256263360924},"bbox":[145359.59585406,171136.55892497,145476.89853176,171160.00011864]},{"type":"Feature","id":"StreetAxes.fid--578fcb21_1a02c23451d_-7d9a","geometry":{"type":"LineString","coordinates":[[145108.26261557,171054.40617681],[145107.05522298,171048.03756871],[145105.21067927,171032.918312],[145103.2110609,171008.06509397],[145092.32329075,170855.63340249]]},"geometry_name":"GEOM","properties":{"INSPIRE_ID":"https://databrussels.be/id/streetaxe/80840","TYPE":"S","HIERARCHY":"MER","LVL":0,"STARTSN_ID":"https://databrussels.be/id/streetnode/9199","ENDSN_ID":"https://databrussels.be/id/streetnode/8592","STRNAMEFRE":"Boulevard Louis Mettewie","STRNAMEDUT":"Louis Mettewielaan","SLOPE":0.1,"LENGTH":199.466975800804},"bbox":[145092.32329075,170855.63340249,145108.26261557,171054.40617681]},{"type":"Feature","id":"StreetAxes.fid--578fcb21_1a02c23451d_-7d99","geometry":{"type":"LineString","coordinates":[[145108.26261557,171054.40617681],[145092.66371564,171052.23909396]]},"geometry_name":"GEOM","properties":{"INSPIRE_ID":"https://databrussels.be/id/streetaxe/80841","TYPE":"S","HIERARCHY":"MER","LVL":0,"STARTSN_ID":"https://databrussels.be/id/streetnode/9199","ENDSN_ID":"https://databrussels.be/id/streetnode/9912","STRNAMEFRE":"Boulevard Louis Mettewie","STRNAMEDUT":"Louis Mettewielaan","SLOPE":0.89,"LENGTH":15.7487119196497},"bbox":[145092.66371564,171052.23909396,145108.26261557,171054.40617681]},{"type":"Feature","id":"StreetAxes.fid--578fcb21_1a02c23451d_-7daa","geometry":{"type":"LineString","coordinates":[[145513.31506432,171345.81048266],[145510.30393459,171356.70381979],[145501.762,171387.609],[145500.388,171389.294],[145497.99,171389.886],[145357.978,171351.396],[145356.736,171350.277],[145356.33,171347.752],[145364.68852837,171313.68915634],[145364.63677991,171305.12241348]]},"geometry_name":"GEOM","properties":{"INSPIRE_ID":"https://databrussels.be/id/streetaxe/81737","TYPE":"S","HIERARCHY":null,"LVL":0,"STARTSN_ID":"https://databrussels.be/id/streetnode/10170","ENDSN_ID":"https://databrussels.be/id/streetnode/10171","STRNAMEFRE":"Avenue du Condor","STRNAMEDUT":"Condorlaan","SLOPE":0.86,"LENGTH":241.085604166486},"bbox":[145356.33,171305.12241348,145513.31506432,171389.886]},{"type":"Feature","id":"StreetAxes.fid--578fcb21_1a02c23451d_-7d7d","geometry":{"type":"LineString","coordinates":[[145471.57367469,171333.99566079],[145373.95031792,171306.36355318],[145364.6367799,171305.12241348]]},"geometry_name":"GEOM","properties":{"INSPIRE_ID":"https://databrussels.be/id/streetaxe/81738","TYPE":"S","HIERARCHY":"DR","LVL":0,"STARTSN_ID":"https://databrussels.be/id/streetnode/10168","ENDSN_ID":"https://databrussels.be/id/streetnode/10171","STRNAMEFRE":"Avenue du Condor","STRNAMEDUT":"Condorlaan","SLOPE":1.31,"LENGTH":110.854500210726},"bbox":[145364.6367799,171305.12241348,145471.57367469,171333.99566079]},{"type":"Feature","id":"StreetAxes.fid--578fcb21_1a02c23451d_-7d8c","geometry":{"type":"LineString","coordinates":[[145243.6557501,171318.23578859],[145235.88308194,171304.66016386],[145184.20575462,171214.3964064]]},"geometry_name":"GEOM","properties":{"INSPIRE_ID":"https://databrussels.be/id/streetaxe/81754","TYPE":"S","HIERARCHY":"MER","LVL":0,"STARTSN_ID":"https://databrussels.be/id/streetnode/9353","ENDSN_ID":"https://databrussels.be/id/streetnode/9342","STRNAMEFRE":"Boulevard Louis Mettewie","STRNAMEDUT":"Louis Mettewielaan","SLOPE":4.08,"LENGTH":119.653329478491},"bbox":[145184.20575462,171214.3964064,145243.6557501,171318.23578859]},{"type":"Feature","id":"StreetAxes.fid--578fcb21_1a02c23451d_-7d88","geometry":{"type":"LineString","coordinates":[[145243.6557501,171318.23578859],[145231.81916166,171328.71378331]]},"geometry_name":"GEOM","properties":{"INSPIRE_ID":"https://databrussels.be/id/streetaxe/81755","TYPE":"S","HIERARCHY":"MER","LVL":0,"STARTSN_ID":"https://databrussels.be/id/streetnode/9353","ENDSN_ID":"https://databrussels.be/id/streetnode/10166","STRNAMEFRE":"Boulevard Louis Mettewie","STRNAMEDUT":"Louis Mettewielaan","SLOPE":1.45,"LENGTH":15.8080106083665},"bbox":[145231.81916166,171318.23578859,145243.6557501,171328.71378331]},{"type":"Feature","id":"StreetAxes.fid--578fcb21_1a02c23451d_-7d92","geometry":{"type":"LineString","coordinates":[[145120.65133236,171054.78064722],[145154.62159248,171061.71402095],[145156.93192546,171068.92762441]]},"geometry_name":"GEOM","properties":{"INSPIRE_ID":"https://databrussels.be/id/streetaxe/81921","TYPE":"S","HIERARCHY":"DR","LVL":0,"STARTSN_ID":"https://databrussels.be/id/streetnode/9104","ENDSN_ID":"https://databrussels.be/id/streetnode/8876","STRNAMEFRE":"Rue de la Belle au Bois Dormant","STRNAMEDUT":"Schoonslaapsterstraat","SLOPE":0.28,"LENGTH":42.245140009606},"bbox":[145120.65133236,171054.78064722,145156.93192546,171068.92762441]},{"type":"Feature","id":"StreetAxes.fid--578fcb21_1a02c23451d_-7d8d","geometry":{"type":"LineString","coordinates":[[145184.20575462,171214.3964064],[145191.17827443,171218.01390913],[145205.31166276,171212.68859559],[145291.8831887,171187.83723294]]},"geometry_name":"GEOM","properties":{"INSPIRE_ID":"https://databrussels.be/id/streetaxe/82070","TYPE":"S","HIERARCHY":"IDR","LVL":0,"STARTSN_ID":"https://databrussels.be/id/streetnode/9342","ENDSN_ID":"https://databrussels.be/id/streetnode/8882","STRNAMEFRE":"Boulevard Edmond Machtens","STRNAMEDUT":"Edmond Machtenslaan","SLOPE":0.57,"LENGTH":113.026309312208},"bbox":[145184.20575462,171187.83723294,145291.8831887,171218.01390913]},{"type":"Feature","id":"StreetAxes.fid--578fcb21_1a02c23451d_-7d8b","geometry":{"type":"LineString","coordinates":[[145184.20575462,171214.3964064],[145186.62436498,171210.35586796],[145200.34526598,171205.78303448],[145289.64134919,171180.12585112]]},"geometry_name":"GEOM","properties":{"INSPIRE_ID":"https://databrussels.be/id/streetaxe/82071","TYPE":"S","HIERARCHY":"IDR","LVL":0,"STARTSN_ID":"https://databrussels.be/id/streetnode/9342","ENDSN_ID":"https://databrussels.be/id/streetnode/9322","STRNAMEFRE":"Boulevard Edmond Machtens","STRNAMEDUT":"Edmond Machtenslaan","SLOPE":0.62,"LENGTH":112.080942979059},"bbox":[145184.20575462,171180.12585112,145289.64134919,171214.3964064]},{"type":"Feature","id":"StreetAxes.fid--578fcb21_1a02c23451d_-7d93","geometry":{"type":"LineString","coordinates":[[145184.20575462,171214.3964064],[145134.99373738,171128.43875692],[145129.16477786,171117.40875214],[145123.92629461,171106.08638189],[145119.02628947,171094.61346926],[145115.58596996,171084.45432636],[145114.88858681,171082.00237434]]},"geometry_name":"GEOM","properties":{"INSPIRE_ID":"https://databrussels.be/id/streetaxe/82072","TYPE":"S","HIERARCHY":"MER","LVL":0,"STARTSN_ID":"https://databrussels.be/id/streetnode/9342","ENDSN_ID":"https://databrussels.be/id/streetnode/9453","STRNAMEFRE":"Boulevard Louis Mettewie","STRNAMEDUT":"Louis Mettewielaan","SLOPE":0.82,"LENGTH":149.749685789388},"bbox":[145114.88858681,171082.00237434,145184.20575462,171214.3964064]},{"type":"Feature","id":"StreetAxes.fid--578fcb21_1a02c23451d_-7d87","geometry":{"type":"LineString","coordinates":[[145364.6367799,171305.12241348],[145349.42761632,171303.09561156],[145330.29077323,171300.77514805],[145316.96534792,171300.36393817],[145298.79606875,171301.10897586],[145280.61523708,171303.72748077],[145262.87660351,171309.07291199],[145243.6557501,171318.23578859]]},"geometry_name":"GEOM","properties":{"INSPIRE_ID":"https://databrussels.be/id/streetaxe/82073","TYPE":"S","HIERARCHY":"DR","LVL":0,"STARTSN_ID":"https://databrussels.be/id/streetnode/10171","ENDSN_ID":"https://databrussels.be/id/streetnode/9353","STRNAMEFRE":"Avenue du Condor","STRNAMEDUT":"Condorlaan","SLOPE":0.76,"LENGTH":124.325100347932},"bbox":[145243.6557501,171300.36393817,145364.6367799,171318.23578859]},{"type":"Feature","id":"StreetAxes.fid--578fcb21_1a02c23451d_-7d84","geometry":{"type":"LineString","coordinates":[[145291.8831887,171187.83723294],[145346.88428633,171172.04852864],[145359.83041497,171168.36541015]]},"geometry_name":"GEOM","properties":{"INSPIRE_ID":"https://databrussels.be/id/streetaxe/82187","TYPE":"S","HIERARCHY":"IDR","LVL":0,"STARTSN_ID":"https://databrussels.be/id/streetnode/8882","ENDSN_ID":"https://databrussels.be/id/streetnode/10167","STRNAMEFRE":"Boulevard Edmond Machtens","STRNAMEDUT":"Edmond Machtenslaan","SLOPE":0.82,"LENGTH":70.6822592635156},"bbox":[145291.8831887,171168.36541015,145359.83041497,171187.83723294]},{"type":"Feature","id":"StreetAxes.fid--578fcb21_1a02c23451d_-7da9","geometry":{"type":"LineString","coordinates":[[145637.46600935,171652.13720196],[145626.80568399,171640.74886033],[145562.96543808,171573.90098487],[145528.08213547,171537.37426673],[145518.7684836,171528.57046218],[145507.25835003,171519.33672534],[145496.83129858,171512.23793473],[145486.38692909,171506.09778472],[145475.57098828,171500.63868951],[145463.87990724,171495.89299928],[145451.97776053,171491.70469944],[145405.65638632,171477.80741611],[145393.13433935,171473.83868586],[145381.18831507,171469.44233915],[145369.51787494,171464.35940815],[145358.55989279,171458.95983326],[145347.31475887,171452.56965972],[145337.29283416,171445.99295397],[145326.78344523,171437.90411505],[145317.32367748,171429.33535841],[145308.35465931,171420.25419608],[145299.87273627,171410.71649312],[145292.16165383,171400.54545563],[145284.88536268,171390.05896988],[145277.1738763,171377.08785746],[145257.18711069,171341.84641091],[145248.88012913,171327.3517115],[145243.6557501,171318.23578859]]},"geometry_name":"GEOM","properties":{"INSPIRE_ID":"https://databrussels.be/id/streetaxe/82341","TYPE":"S","HIERARCHY":"MER","LVL":0,"STARTSN_ID":"https://databrussels.be/id/streetnode/9109","ENDSN_ID":"https://databrussels.be/id/streetnode/9353","STRNAMEFRE":"Boulevard Louis Mettewie","STRNAMEDUT":"Louis Mettewielaan","SLOPE":1.17,"LENGTH":532.185754544235},"bbox":[145243.6557501,171318.23578859,145637.46600935,171652.13720196]},{"type":"Feature","id":"StreetAxes.fid--578fcb21_1a02c23451d_-7da3","geometry":{"type":"LineString","coordinates":[[145476.89853176,171136.55892497],[145492.75374876,171137.04143167],[145647.05577603,171163.32212759],[145662.35508466,171166.17486519]]},"geometry_name":"GEOM","properties":{"INSPIRE_ID":"https://databrussels.be/id/streetaxe/82343","TYPE":"S","HIERARCHY":"IDR","LVL":0,"STARTSN_ID":"https://databrussels.be/id/streetnode/9110","ENDSN_ID":"https://databrussels.be/id/streetnode/8877","STRNAMEFRE":"Boulevard Edmond Machtens","STRNAMEDUT":"Edmond Machtenslaan","SLOPE":0.78,"LENGTH":187.949646237697},"bbox":[145476.89853176,171136.55892497,145662.35508466,171166.17486519]},{"type":"Feature","id":"StreetAxes.fid--578fcb21_1a02c23451d_-7d7f","geometry":{"type":"LineString","coordinates":[[145364.6367799,171305.12241348],[145364.54998845,171290.75444971],[145360.26370201,171183.81799492],[145359.83041497,171168.36541015]]},"geometry_name":"GEOM","properties":{"INSPIRE_ID":"https://databrussels.be/id/streetaxe/82503","TYPE":"S","HIERARCHY":"DR","LVL":0,"STARTSN_ID":"https://databrussels.be/id/streetnode/10171","ENDSN_ID":"https://databrussels.be/id/streetnode/10167","STRNAMEFRE":"Rue des Bougainvillées","STRNAMEDUT":"Bougainville's straat","SLOPE":3.77,"LENGTH":136.849207087174},"bbox":[145359.83041497,171168.36541015,145364.6367799,171305.12241348]},{"type":"Feature","id":"StreetAxes.fid--578fcb21_1a02c23451d_-7da7","geometry":{"type":"LineString","coordinates":[[145633.65290318,171670.31461233],[145570.63021334,171604.25294455],[145559.61985077,171594.24551728],[145549.26463473,171586.4279586],[145538.31536977,171579.14166825],[145526.90367723,171572.60334251],[145515.35110397,171567.09833746],[145503.03797323,171562.00005253],[145490.97091392,171558.17035756],[145416.03211785,171535.59948445],[145402.93665574,171531.18967032],[145391.58815571,171526.5971866],[145379.88193397,171520.94988681],[145368.21369007,171514.45218882],[145357.37920171,171507.6256536],[145346.98374439,171500.14753966],[145336.61602064,171491.34463168],[145327.52289778,171482.47343569],[145318.51909846,171472.63398451],[145310.11811208,171462.27509319],[145302.84263346,171451.74189611],[145295.78213076,171440.3577515],[145231.81916166,171328.71378331]]},"geometry_name":"GEOM","properties":{"INSPIRE_ID":"https://databrussels.be/id/streetaxe/83190","TYPE":"S","HIERARCHY":"MER","LVL":0,"STARTSN_ID":"https://databrussels.be/id/streetnode/10164","ENDSN_ID":"https://databrussels.be/id/streetnode/10166","STRNAMEFRE":"Boulevard Louis Mettewie","STRNAMEDUT":"Louis Mettewielaan","SLOPE":1.08,"LENGTH":548.377553316693},"bbox":[145231.81916166,171328.71378331,145633.65290318,171670.31461233]},{"type":"Feature","id":"StreetAxes.fid--578fcb21_1a02c23451d_-7d8e","geometry":{"type":"LineString","coordinates":[[145231.81916166,171328.71378331],[145168.88413209,171218.86402904]]},"geometry_name":"GEOM","properties":{"INSPIRE_ID":"https://databrussels.be/id/streetaxe/83191","TYPE":"S","HIERARCHY":"MER","LVL":0,"STARTSN_ID":"https://databrussels.be/id/streetnode/10166","ENDSN_ID":"https://databrussels.be/id/streetnode/10173","STRNAMEFRE":"Boulevard Louis Mettewie","STRNAMEDUT":"Louis Mettewielaan","SLOPE":4.01,"LENGTH":126.60089439568},"bbox":[145168.88413209,171218.86402904,145231.81916166,171328.71378331]},{"type":"Feature","id":"StreetAxes.fid--578fcb21_1a02c23451d_-7d9b","geometry":{"type":"LineString","coordinates":[[145076.96080832,170853.59005288],[145078.83279991,170869.49673027],[145090.05198125,171032.04947392],[145090.69744915,171038.01851944],[145092.66371564,171052.23909396]]},"geometry_name":"GEOM","properties":{"INSPIRE_ID":"https://databrussels.be/id/streetaxe/84281","TYPE":"S","HIERARCHY":"MER","LVL":0,"STARTSN_ID":"https://databrussels.be/id/streetnode/13930","ENDSN_ID":"https://databrussels.be/id/streetnode/9912","STRNAMEFRE":"Boulevard Louis Mettewie","STRNAMEDUT":"Louis Mettewielaan","SLOPE":0.03,"LENGTH":199.315613637645},"bbox":[145076.96080832,170853.59005288,145092.66371564,171052.23909396]},{"type":"Feature","id":"StreetAxes.fid--578fcb21_1a02c23451d_-7d9c","geometry":{"type":"LineString","coordinates":[[145165.13489714,171212.3199384],[145153.88363757,171217.79136138],[145124.941,171231.866],[145108.692,171239.167],[145073.465,171254.995],[145051.905,171265.09],[145001.02,171283.196],[144985.08,171287.33]]},"geometry_name":"GEOM","properties":{"INSPIRE_ID":"https://databrussels.be/id/streetaxe/85459","TYPE":"S","HIERARCHY":"DR","LVL":0,"STARTSN_ID":"https://databrussels.be/id/streetnode/9190","ENDSN_ID":"https://databrussels.be/id/streetnode/10174","STRNAMEFRE":"Rue Scheutbosch","STRNAMEDUT":"Scheutboschstraat","SLOPE":1.66,"LENGTH":195.411886309314},"bbox":[144985.08,171212.3199384,145165.13489714,171287.33]},{"type":"Feature","id":"StreetAxes.fid--578fcb21_1a02c23451d_-7d97","geometry":{"type":"LineString","coordinates":[[145165.13489714,171212.3199384],[145134.51449639,171158.87365385],[145121.79381378,171136.26357077],[145111.21578102,171115.93440016],[145106.88390027,171106.19902366],[145101.39939965,171090.16241331],[145100.48929418,171087.14629082]]},"geometry_name":"GEOM","properties":{"INSPIRE_ID":"https://databrussels.be/id/streetaxe/85460","TYPE":"S","HIERARCHY":"MER","LVL":0,"STARTSN_ID":"https://databrussels.be/id/streetnode/9190","ENDSN_ID":"https://databrussels.be/id/streetnode/9115","STRNAMEFRE":"Boulevard Louis Mettewie","STRNAMEDUT":"Louis Mettewielaan","SLOPE":0.79,"LENGTH":141.210436615484},"bbox":[145100.48929418,171087.14629082,145165.13489714,171212.3199384]},{"type":"Feature","id":"StreetAxes.fid--578fcb21_1a02c23451d_-7d91","geometry":{"type":"LineString","coordinates":[[145156.93192546,171068.92762441],[145185.318,171059.094],[145208.642,171051.56],[145222.339,171046.915]]},"geometry_name":"GEOM","properties":{"INSPIRE_ID":"https://databrussels.be/id/streetaxe/85497","TYPE":"S","HIERARCHY":"DR","LVL":0,"STARTSN_ID":"https://databrussels.be/id/streetnode/8876","ENDSN_ID":"https://databrussels.be/id/streetnode/9918","STRNAMEFRE":"Rue de la Belle au Bois Dormant","STRNAMEDUT":"Schoonslaapsterstraat","SLOPE":0.58,"LENGTH":69.0149299932137},"bbox":[145156.93192546,171046.915,145222.339,171068.92762441]},{"type":"Feature","id":"StreetAxes.fid--578fcb21_1a02c23451d_-7d85","geometry":{"type":"LineString","coordinates":[[145289.64134919,171180.12585112],[145291.8831887,171187.83723294]]},"geometry_name":"GEOM","properties":{"INSPIRE_ID":"https://databrussels.be/id/streetaxe/86000","TYPE":"S","HIERARCHY":"IDR","LVL":0,"STARTSN_ID":"https://databrussels.be/id/streetnode/9322","ENDSN_ID":"https://databrussels.be/id/streetnode/8882","STRNAMEFRE":"Boulevard Edmond Machtens","STRNAMEDUT":"Edmond Machtenslaan","SLOPE":0.75,"LENGTH":8.03064467775566},"bbox":[145289.64134919,171180.12585112,145291.8831887,171187.83723294]},{"type":"Feature","id":"StreetAxes.fid--578fcb21_1a02c23451d_-7d86","geometry":{"type":"LineString","coordinates":[[145289.64134919,171180.12585112],[145347.62090654,171163.46675387],[145359.59585406,171160.00011864]]},"geometry_name":"GEOM","properties":{"INSPIRE_ID":"https://databrussels.be/id/streetaxe/86001","TYPE":"S","HIERARCHY":"IDR","LVL":0,"STARTSN_ID":"https://databrussels.be/id/streetnode/9322","ENDSN_ID":"https://databrussels.be/id/streetnode/9131","STRNAMEFRE":"Boulevard Edmond Machtens","STRNAMEDUT":"Edmond Machtenslaan","SLOPE":0.78,"LENGTH":72.792038431218},"bbox":[145289.64134919,171160.00011864,145359.59585406,171180.12585112]},{"type":"Feature","id":"StreetAxes.fid--578fcb21_1a02c23451d_-7da8","geometry":{"type":"LineString","coordinates":[[145179.955,171452.755],[145181.77433965,171438.1845704],[145186.22361562,171414.77792082],[145191.78268132,171394.4915468],[145197.40679616,171378.59986806],[145203.99147054,171364.65296529],[145207.46990034,171358.33683667],[145221.76516984,171337.61378637],[145231.81916166,171328.71378331]]},"geometry_name":"GEOM","properties":{"INSPIRE_ID":"https://databrussels.be/id/streetaxe/86538","TYPE":"S","HIERARCHY":"DR","LVL":0,"STARTSN_ID":"https://databrussels.be/id/streetnode/10169","ENDSN_ID":"https://databrussels.be/id/streetnode/10166","STRNAMEFRE":"Avenue Maurice Van Hemelrijck","STRNAMEDUT":"Maurice Van Hemelrijcklaan","SLOPE":5.99,"LENGTH":137.637603259476},"bbox":[145179.955,171328.71378331,145231.81916166,171452.755]},{"type":"Feature","id":"StreetAxes.fid--578fcb21_1a02c23451d_-7d98","geometry":{"type":"LineString","coordinates":[[145092.66371564,171052.23909396],[145097.73565499,171078.02063083],[145100.48929418,171087.14629082]]},"geometry_name":"GEOM","properties":{"INSPIRE_ID":"https://databrussels.be/id/streetaxe/87207","TYPE":"S","HIERARCHY":"MER","LVL":0,"STARTSN_ID":"https://databrussels.be/id/streetnode/9912","ENDSN_ID":"https://databrussels.be/id/streetnode/9115","STRNAMEFRE":"Boulevard Louis Mettewie","STRNAMEDUT":"Louis Mettewielaan","SLOPE":0.2,"LENGTH":35.8077578563859},"bbox":[145092.66371564,171052.23909396,145100.48929418,171087.14629082]},{"type":"Feature","id":"StreetAxes.fid--578fcb21_1a02c23451d_-7d94","geometry":{"type":"LineString","coordinates":[[145114.88858681,171082.00237434],[145129.41120266,171076.81440262],[145156.93192546,171068.92762441]]},"geometry_name":"GEOM","properties":{"INSPIRE_ID":"https://databrussels.be/id/streetaxe/88291","TYPE":"S","HIERARCHY":"DR","LVL":0,"STARTSN_ID":"https://databrussels.be/id/streetnode/9453","ENDSN_ID":"https://databrussels.be/id/streetnode/8876","STRNAMEFRE":"Rue de la Belle au Bois Dormant","STRNAMEDUT":"Schoonslaapsterstraat","SLOPE":0.25,"LENGTH":44.0499674895981},"bbox":[145114.88858681,171068.92762441,145156.93192546,171082.00237434]},{"type":"Feature","id":"StreetAxes.fid--578fcb21_1a02c23451d_-7d96","geometry":{"type":"LineString","coordinates":[[145114.88858681,171082.00237434],[145100.48929418,171087.14629082]]},"geometry_name":"GEOM","properties":{"INSPIRE_ID":"https://databrussels.be/id/streetaxe/88292","TYPE":"S","HIERARCHY":"MER","LVL":0,"STARTSN_ID":"https://databrussels.be/id/streetnode/9453","ENDSN_ID":"https://databrussels.be/id/streetnode/9115","STRNAMEFRE":"Boulevard Louis Mettewie","STRNAMEDUT":"Louis Mettewielaan","SLOPE":0.65,"LENGTH":15.2905037512162},"bbox":[145100.48929418,171082.00237434,145114.88858681,171087.14629082]},{"type":"Feature","id":"StreetAxes.fid--578fcb21_1a02c23451d_-7d9e","geometry":{"type":"LineString","coordinates":[[145100.48929418,171087.14629082],[145077.85,171094.35],[145041.995,171106.27],[145004.05959651,171118.91283202],[144989.9519158,171122.73660863],[144977.8575473,171124.04855747],[144964.66312159,171124.8698507],[144850.41518077,171131.73423423],[144833.89462792,171137.6603156],[144831.79514267,171151.75897056],[144836.89,171180.499],[144844.682,171215.126]]},"geometry_name":"GEOM","properties":{"INSPIRE_ID":"https://databrussels.be/id/streetaxe/88788","TYPE":"S","HIERARCHY":null,"LVL":0,"STARTSN_ID":"https://databrussels.be/id/streetnode/9115","ENDSN_ID":"https://databrussels.be/id/streetnode/9914","STRNAMEFRE":"Rue de la Flûte Enchantée","STRNAMEDUT":"Toverfluitstraat","SLOPE":2.83,"LENGTH":352.471291674044},"bbox":[144831.79514267,171087.14629082,145100.48929418,171215.126]},{"type":"Feature","id":"StreetAxes.fid--578fcb21_1a02c23451d_-7d81","geometry":{"type":"LineString","coordinates":[[145359.59585406,171160.00011864],[145359.83041497,171168.36541015]]},"geometry_name":"GEOM","properties":{"INSPIRE_ID":"https://databrussels.be/id/streetaxe/90737","TYPE":"I","HIERARCHY":"IDR","LVL":0,"STARTSN_ID":"https://databrussels.be/id/streetnode/9131","ENDSN_ID":"https://databrussels.be/id/streetnode/10167","STRNAMEFRE":"Boulevard Edmond Machtens","STRNAMEDUT":"Edmond Machtenslaan","SLOPE":0.6,"LENGTH":8.36857938580759},"bbox":[145359.59585406,171160.00011864,145359.83041497,171168.36541015]},{"type":"Feature","id":"StreetAxes.fid--578fcb21_1a02c23451d_-7da4","geometry":{"type":"LineString","coordinates":[[145476.89853176,171136.55892497],[145477.38119486,171145.01730288]]},"geometry_name":"GEOM","properties":{"INSPIRE_ID":"https://databrussels.be/id/streetaxe/91014","TYPE":"I","HIERARCHY":"IDR","LVL":0,"STARTSN_ID":"https://databrussels.be/id/streetnode/9110","ENDSN_ID":"https://databrussels.be/id/streetnode/9925","STRNAMEFRE":"Boulevard Edmond Machtens","STRNAMEDUT":"Edmond Machtenslaan","SLOPE":0.24,"LENGTH":8.47213789801936},"bbox":[145476.89853176,171136.55892497,145477.38119486,171145.01730288]},{"type":"Feature","id":"StreetAxes.fid--578fcb21_1a02c23451d_-7d95","geometry":{"type":"LineString","coordinates":[[145114.88858681,171082.00237434],[145112.17292706,171072.45429813],[145109.37908364,171060.2951872],[145108.26261557,171054.40617681]]},"geometry_name":"GEOM","properties":{"INSPIRE_ID":"https://databrussels.be/id/streetaxe/91652","TYPE":"I","HIERARCHY":"MER","LVL":0,"STARTSN_ID":"https://databrussels.be/id/streetnode/9453","ENDSN_ID":"https://databrussels.be/id/streetnode/9199","STRNAMEFRE":"Boulevard Louis Mettewie","STRNAMEDUT":"Louis Mettewielaan","SLOPE":0.11,"LENGTH":28.3966275635154},"bbox":[145108.26261557,171054.40617681,145114.88858681,171082.00237434]},{"type":"Feature","id":"StreetAxes.fid--578fcb21_1a02c23451d_-7d90","geometry":{"type":"LineString","coordinates":[[145165.13489714,171212.3199384],[145168.88413209,171218.86402904]]},"geometry_name":"GEOM","properties":{"INSPIRE_ID":"https://databrussels.be/id/streetaxe/92417","TYPE":"I","HIERARCHY":"MER","LVL":0,"STARTSN_ID":"https://databrussels.be/id/streetnode/9190","ENDSN_ID":"https://databrussels.be/id/streetnode/10173","STRNAMEFRE":"Boulevard Louis Mettewie","STRNAMEDUT":"Louis Mettewielaan","SLOPE":0.53,"LENGTH":7.54200801777516},"bbox":[145165.13489714,171212.3199384,145168.88413209,171218.86402904]}],"numberReturned":48,"grand_bruxelles_source":{"authority":"Paradigm / Brussels-Capital Region","service":"https://geoservices-urbis.irisnet.be/geoserver/urbisvector/wfs","layer":"urbisvector:StreetAxes","crs":"EPSG:31370","bbox":[145000.0,171000.0,145500.0,171500.0],"cell_id":"bxl-e145000-n171000-s500","ownership":"bbox_intersection_source_unclipped"}}
