{"type":"FeatureCollection","totalFeatures":75,"numberMatched":75,"timeStamp":"2026-08-23T02:04:23.789Z","crs":{"type":"name","properties":{"name":"urn:ogc:def:crs:EPSG::31370"}},"bbox":[145930.2173,167287.37084244,146592.42499081,168063.0065815],"features":[{"type":"Feature","id":"Buildings.fid-1cd8d64c_1a02c0ead07_5061","geometry":{"type":"Polygon","coordinates":[[[146238.84999994,167960.2999998],[146241.70999996,167957.17000043],[146246.1800002,167961.32999993],[146243.36,167964.43],[146238.84999994,167960.2999998]]]},"geometry_name":"GEOM","properties":{"INSPIRE_ID":"https://databrussels.be/id/building/1585980","BLOCK_ID":"https://databrussels.be/id/block/27740","AREA":26},"bbox":[146238.84999994,167957.17000043,146246.1800002,167964.43]},{"type":"Feature","id":"Buildings.fid-1cd8d64c_1a02c0ead07_505a","geometry":{"type":"Polygon","coordinates":[[[146105.47,167929.25],[146103.893,167929.051],[146102.416,167928.466],[146101.13,167927.532],[146100.117,167926.307],[146099.44,167924.869],[146099.143,167923.308],[146099.242,167921.722],[146099.733,167920.211],[146100.585,167918.869],[146101.743,167917.781],[146103.136,167917.015],[146104.675,167916.62],[146106.265,167916.62],[146107.804,167917.015],[146109.197,167917.781],[146110.355,167918.869],[146111.207,167920.211],[146111.698,167921.722],[146111.797,167923.308],[146111.5,167924.869],[146110.823,167926.307],[146109.81,167927.532],[146108.524,167928.466],[146107.047,167929.051],[146105.47,167929.25]]]},"geometry_name":"GEOM","properties":{"INSPIRE_ID":"https://databrussels.be/id/building/1585982","BLOCK_ID":"https://databrussels.be/id/block/27740","AREA":125},"bbox":[146099.143,167916.62,146111.797,167929.25]},{"type":"Feature","id":"Buildings.fid-1cd8d64c_1a02c0ead07_5072","geometry":{"type":"Polygon","coordinates":[[[146336.603,167981.526],[146344.46,167978.47],[146347.35,167985.95],[146350.4,167993.85],[146342.653,167996.919],[146336.603,167981.526]]]},"geometry_name":"GEOM","properties":{"INSPIRE_ID":"https://databrussels.be/id/building/1585984","BLOCK_ID":"https://databrussels.be/id/block/24162","AREA":138},"bbox":[146336.603,167978.47,146350.4,167996.919]},{"type":"Feature","id":"Buildings.fid-1cd8d64c_1a02c0ead07_5070","geometry":{"type":"Polygon","coordinates":[[[146320.21699992,167938.84799997],[146330.7,167934.91],[146337.91,167953.19],[146337.11,167953.53],[146328.42,167957.13],[146327.795,167957.391],[146320.21699992,167938.84799997]]]},"geometry_name":"GEOM","properties":{"INSPIRE_ID":"https://databrussels.be/id/building/1585985","BLOCK_ID":"https://databrussels.be/id/block/24162","AREA":220},"bbox":[146320.21699992,167934.91,146337.91,167957.391]},{"type":"Feature","id":"Buildings.fid-1cd8d64c_1a02c0ead07_507c","geometry":{"type":"Polygon","coordinates":[[[146017.242,167953.98],[146027.875,167960.615],[146019.68,167973.749],[146022.086,167975.25],[146019.671,167979.12],[146006.632,167970.984],[146017.242,167953.98]]]},"geometry_name":"GEOM","properties":{"INSPIRE_ID":"https://databrussels.be/id/building/1585986","BLOCK_ID":"https://databrussels.be/id/block/27740","AREA":264},"bbox":[146006.632,167953.98,146027.875,167979.12]},{"type":"Feature","id":"Buildings.fid-1cd8d64c_1a02c0ead07_505c","geometry":{"type":"Polygon","coordinates":[[[146152.57,167878.77],[146193.074,167894.571],[146196.038,167887.285],[146229.956,167900.666],[146219.226,167928.024],[146208.281,167923.725],[146199.7,167945.48],[146117.74,167913.43],[146116.49,167916.64],[146104.48,167911.94],[146106.71,167906.55],[146106.17,167906.37],[146110.63,167895],[146109.36,167894.6],[146118.33,167871.73],[146119.24,167872.03],[146121.71,167865.95],[146152.79,167878.11],[146152.57,167878.77]]]},"geometry_name":"GEOM","properties":{"INSPIRE_ID":"https://databrussels.be/id/building/1585990","BLOCK_ID":"https://databrussels.be/id/block/27740","AREA":5201},"bbox":[146104.48,167865.95,146229.956,167945.48]},{"type":"Feature","id":"Buildings.fid-1cd8d64c_1a02c0ead07_506e","geometry":{"type":"Polygon","coordinates":[[[146304.037,167968.537],[146305.73,167954.64],[146310.21,167955.19],[146316.474,167969.804],[146304.037,167968.537]]]},"geometry_name":"GEOM","properties":{"INSPIRE_ID":"https://databrussels.be/id/building/1587018","BLOCK_ID":"https://databrussels.be/id/block/27706","AREA":119},"bbox":[146304.037,167954.64,146316.474,167969.804]},{"type":"Feature","id":"Buildings.fid-1cd8d64c_1a02c0ead07_506d","geometry":{"type":"Polygon","coordinates":[[[146302.38999999,167988.98000011],[146301.56,167988.86],[146304.037,167968.537],[146316.474,167969.804],[146324.5,167988.53],[146319.26,167990.83],[146302.42,167988.76],[146302.38999999,167988.98000011]]]},"geometry_name":"GEOM","properties":{"INSPIRE_ID":"https://databrussels.be/id/building/1591087","BLOCK_ID":"https://databrussels.be/id/block/27706","AREA":368},"bbox":[146301.56,167968.537,146324.5,167990.83]},{"type":"Feature","id":"Buildings.fid-1cd8d64c_1a02c0ead07_5085","geometry":{"type":"Polygon","coordinates":[[[146007.05399987,167713.41399993],[146010.41999983,167699.71999986],[146017.25700002,167701.3259999],[146013.77900014,167715.11099994],[146007.05399987,167713.41399993]]]},"geometry_name":"GEOM","properties":{"INSPIRE_ID":"https://databrussels.be/id/building/1655286","BLOCK_ID":"https://databrussels.be/id/block/29463","AREA":99},"bbox":[146007.05399987,167699.71999986,146017.25700002,167715.11099994]},{"type":"Feature","id":"Buildings.fid-1cd8d64c_1a02c0ead07_509b","geometry":{"type":"Polygon","coordinates":[[[146479.09191992,167525.54430072],[146488.85699996,167544.53700016],[146498.669,167563.622],[146512.34847456,167562.18426984],[146503.3,167546.01],[146502.76,167544.92],[146499.49999958,167539.04999996],[146504.85195164,167536.28631905],[146494.92441895,167516.97765556],[146485.2073669,167522.22141753],[146479.09191992,167525.54430072]]]},"geometry_name":"GEOM","properties":{"INSPIRE_ID":"https://databrussels.be/id/building/1660993","BLOCK_ID":"https://databrussels.be/id/block/24832","AREA":683},"bbox":[146479.09191992,167516.97765556,146512.34847456,167563.622]},{"type":"Feature","id":"Buildings.fid-1cd8d64c_1a02c0ead07_5069","geometry":{"type":"Polygon","coordinates":[[[146274.46664617,167942.76111317],[146276.62240305,167940.36552267],[146277.92033048,167938.9231974],[146279.37269733,167940.44036229],[146279.83127256,167940.4940499],[146279.76766611,167941.29127389],[146283.12212709,167941.81867824],[146282.31200016,167949.58299987],[146276.32780829,167944.38458038],[146274.46664617,167942.76111317]]]},"geometry_name":"GEOM","properties":{"INSPIRE_ID":"https://databrussels.be/id/building/1661002","BLOCK_ID":"https://databrussels.be/id/block/27740","AREA":45},"bbox":[146274.46664617,167938.9231974,146283.12212709,167949.58299987]},{"type":"Feature","id":"Buildings.fid-1cd8d64c_1a02c0ead07_5077","geometry":{"type":"Polygon","coordinates":[[[146059.61642126,167784.79430583],[146060.07330427,167780.50819097],[146062.70950345,167780.71698797],[146062.27403489,167785.02225268],[146059.61642126,167784.79430583]]]},"geometry_name":"GEOM","properties":{"INSPIRE_ID":"https://databrussels.be/id/building/1662302","BLOCK_ID":"https://databrussels.be/id/block/29751","AREA":11},"bbox":[146059.61642126,167780.50819097,146062.70950345,167785.02225268]},{"type":"Feature","id":"Buildings.fid-1cd8d64c_1a02c0ead07_5062","geometry":{"type":"Polygon","coordinates":[[[146241.70999996,167957.17000043],[146245.31000007,167953.24999992],[146251.3200001,167958.89000013],[146256.46000019,167963.71000036],[146252.94762757,167967.49863567],[146247.80000029,167962.82000017],[146246.1800002,167961.32999993],[146241.70999996,167957.17000043]]]},"geometry_name":"GEOM","properties":{"INSPIRE_ID":"https://databrussels.be/id/building/1662337","BLOCK_ID":"https://databrussels.be/id/block/27740","AREA":80},"bbox":[146241.70999996,167953.24999992,146256.46000019,167967.49863567]},{"type":"Feature","id":"Buildings.fid-1cd8d64c_1a02c0ead07_5059","geometry":{"type":"Polygon","coordinates":[[[146252.16,167882.28],[146232.79,167871.63],[146207.63,167857.92],[146198.64,167853.06],[146178.3,167842.02],[146138.66,167820.28],[146132.22,167832.28],[146105.15,167817.53],[146095.78,167803.31],[146110.28,167776.48],[146145.73,167790.5],[146185.62,167812.28],[146218.39,167838.21],[146254.34,167878.37],[146252.16,167882.28]]]},"geometry_name":"GEOM","properties":{"INSPIRE_ID":"https://databrussels.be/id/building/1662366","BLOCK_ID":"https://databrussels.be/id/block/28267","AREA":4691},"bbox":[146095.78,167776.48,146254.34,167882.28]},{"type":"Feature","id":"Buildings.fid-1cd8d64c_1a02c0ead07_5088","geometry":{"type":"Polygon","coordinates":[[[146060.18265367,167780.28095415],[146060.48396799,167777.21615404],[146062.73828221,167777.40054432],[146062.37585655,167780.50659066],[146060.18265367,167780.28095415]]]},"geometry_name":"GEOM","properties":{"INSPIRE_ID":"https://databrussels.be/id/building/1663583","BLOCK_ID":"https://databrussels.be/id/block/29751","AREA":7},"bbox":[146060.18265367,167777.21615404,146062.73828221,167780.50659066]},{"type":"Feature","id":"Buildings.fid-1cd8d64c_1a02c0ead07_506b","geometry":{"type":"Polygon","coordinates":[[[146274.71687552,167938.51225663],[146276.5475381,167936.4964384],[146278.20456698,167938.16023743],[146277.92033048,167938.9231974],[146276.62240305,167940.36552267],[146275.07308532,167938.86049753],[146274.71687552,167938.51225663]]]},"geometry_name":"GEOM","properties":{"INSPIRE_ID":"https://databrussels.be/id/building/1663584","BLOCK_ID":"https://databrussels.be/id/block/27740","AREA":7},"bbox":[146274.71687552,167936.4964384,146278.20456698,167940.36552267]},{"type":"Feature","id":"Buildings.fid-1cd8d64c_1a02c0ead07_5065","geometry":{"type":"Polygon","coordinates":[[[146260.57999969,167936.59000011],[146263.84011711,167933.03304308],[146270.53740943,167939.16408819],[146272.99550113,167941.417951],[146274.46664617,167942.76111317],[146271.24466229,167946.34155123],[146267.24999998,167942.67999973],[146260.57999969,167936.59000011]]]},"geometry_name":"GEOM","properties":{"INSPIRE_ID":"https://databrussels.be/id/building/1663585","BLOCK_ID":"https://databrussels.be/id/block/27740","AREA":70},"bbox":[146260.57999969,167933.03304308,146274.46664617,167946.34155123]},{"type":"Feature","id":"Buildings.fid-1cd8d64c_1a02c0ead07_5066","geometry":{"type":"Polygon","coordinates":[[[146263.84011711,167933.03304308],[146266.94999957,167929.63999823],[146273.7009708,167935.65414822],[146272.78840257,167936.67378503],[146274.71687552,167938.51225663],[146275.07308532,167938.86049753],[146276.62240305,167940.36552267],[146274.46664617,167942.76111317],[146272.99550113,167941.417951],[146270.53740943,167939.16408819],[146263.84011711,167933.03304308]]]},"geometry_name":"GEOM","properties":{"INSPIRE_ID":"https://databrussels.be/id/building/1663642","BLOCK_ID":"https://databrussels.be/id/block/27740","AREA":60},"bbox":[146263.84011711,167929.63999823,146276.62240305,167942.76111317]},{"type":"Feature","id":"Buildings.fid-1cd8d64c_1a02c0ead07_5068","geometry":{"type":"Polygon","coordinates":[[[146271.24466229,167946.34155123],[146274.46664617,167942.76111317],[146276.32780829,167944.38458038],[146282.31200016,167949.58299987],[146281.59999988,167955.81400012],[146280.21049146,167954.57745782],[146273.87549342,167948.92990469],[146271.88127877,167946.92291313],[146271.24466229,167946.34155123]]]},"geometry_name":"GEOM","properties":{"INSPIRE_ID":"https://databrussels.be/id/building/1663705","BLOCK_ID":"https://databrussels.be/id/block/27740","AREA":62},"bbox":[146271.24466229,167942.76111317,146282.31200016,167955.81400012]},{"type":"Feature","id":"Buildings.fid-1cd8d64c_1a02c0ead07_5096","geometry":{"type":"Polygon","coordinates":[[[146413.78,167520.56],[146419.16946277,167530.8702766],[146422.2,167529.31],[146422.55,167530.21],[146445.42,167518.5],[146444.89,167517.41],[146446.34999995,167517.85000011],[146448.08000076,167512.33000025],[146446.59999859,167511.83000087],[146447.66000043,167511.39999999],[146435.9400006,167488.52999981],[146424.66,167494.3],[146429.45,167503.61],[146426.07,167514.24],[146413.78,167520.56]]]},"geometry_name":"GEOM","properties":{"INSPIRE_ID":"https://databrussels.be/id/building/1665038","BLOCK_ID":"https://databrussels.be/id/block/30601","AREA":682},"bbox":[146413.78,167488.52999981,146448.08000076,167530.8702766]},{"type":"Feature","id":"Buildings.fid-1cd8d64c_1a02c0ead07_5063","geometry":{"type":"Polygon","coordinates":[[[146250.66840869,167958.27795107],[146251.428,167958.991],[146256.28516091,167963.54603623],[146267.88609947,167950.88910091],[146271.01,167953.73],[146273.38599663,167953.94864905],[146271.76304831,167966.87276608],[146271.07487777,167972.3529138],[146275.18376431,167972.88074343],[146279.38897099,167973.42094639],[146280.08315789,167967.89288824],[146281.59995443,167955.81409579],[146280.21,167954.577],[146278.178,167952.765],[146276.134,167950.943],[146273.973,167949.017],[146271.881,167946.923],[146271.68522389,167946.74415421],[146271.24240314,167946.32864095],[146269.957,167945.162],[146267.25,167942.68],[146266.00614651,167941.54406747],[146263.873,167939.596],[146260.58000828,167936.5900113],[146245.31000989,167953.24998936],[146248.358,167956.11],[146250.66840869,167958.27795107]]]},"geometry_name":"GEOM","properties":{"INSPIRE_ID":"https://databrussels.be/id/building/1667571","BLOCK_ID":"https://databrussels.be/id/block/27740","AREA":541},"bbox":[146245.31000989,167936.5900113,146281.59995443,167973.42094639]},{"type":"Feature","id":"Buildings.fid-1cd8d64c_1a02c0ead07_506a","geometry":{"type":"Polygon","coordinates":[[[146274.59992065,167934.64972759],[146278.55823417,167930.08219415],[146283.15999941,167934.37999721],[146283.75900047,167935.94700092],[146283.12212709,167941.81867824],[146279.76766611,167941.29127389],[146279.83127256,167940.4940499],[146279.37269733,167940.44036229],[146277.92033048,167938.9231974],[146278.20456698,167938.16023743],[146276.5475381,167936.4964384],[146274.59992065,167934.64972759]]]},"geometry_name":"GEOM","properties":{"INSPIRE_ID":"https://databrussels.be/id/building/1667608","BLOCK_ID":"https://databrussels.be/id/block/27740","AREA":60},"bbox":[146274.59992065,167930.08219415,146283.75900047,167941.81867824]},{"type":"Feature","id":"Buildings.fid-1cd8d64c_1a02c0ead07_5067","geometry":{"type":"Polygon","coordinates":[[[146266.94999957,167929.63999823],[146271.20500254,167924.99800779],[146273.16999928,167925.04999726],[146278.55823417,167930.08219415],[146274.59992065,167934.64972759],[146273.7009708,167935.65414822],[146266.94999957,167929.63999823]]]},"geometry_name":"GEOM","properties":{"INSPIRE_ID":"https://databrussels.be/id/building/1667623","BLOCK_ID":"https://databrussels.be/id/block/27740","AREA":66},"bbox":[146266.94999957,167924.99800779,146278.55823417,167935.65414822]},{"type":"Feature","id":"Buildings.fid-1cd8d64c_1a02c0ead07_505d","geometry":{"type":"Polygon","coordinates":[[[146135.779,167937.945],[146138.455,167933.382],[146142.95,167936.057],[146140.299,167940.655],[146135.779,167937.945]]]},"geometry_name":"GEOM","properties":{"INSPIRE_ID":"https://databrussels.be/id/building/1668828","BLOCK_ID":"https://databrussels.be/id/block/27740","AREA":28},"bbox":[146135.779,167933.382,146142.95,167940.655]},{"type":"Feature","id":"Buildings.fid-1cd8d64c_1a02c0ead07_5073","geometry":{"type":"Polygon","coordinates":[[[146354.514,167768.009],[146359.268,167767.556],[146360.384,167781.403],[146356.544,167781.647],[146354.514,167768.009]]]},"geometry_name":"GEOM","properties":{"INSPIRE_ID":"https://databrussels.be/id/building/1673753","BLOCK_ID":"https://databrussels.be/id/block/30894","AREA":60},"bbox":[146354.514,167767.556,146360.384,167781.647]},{"type":"Feature","id":"Buildings.fid-1cd8d64c_1a02c0ead07_5086","geometry":{"type":"Polygon","coordinates":[[[146035.2263,167716.735],[146038.7466,167717.6231],[146042.299,167718.446],[146039.417,167729.851],[146035.8862,167728.9602],[146032.3659,167728.072],[146029.0752,167727.2417],[146025.7846,167726.4115],[146022.2063,167725.5087],[146018.8008,167724.6495],[146015.2225,167723.7467],[146011.817,167722.8874],[146013.779,167715.111],[146017.257,167701.326],[146020.6626,167702.1852],[146024.2408,167703.088],[146023.3522,167706.61],[146026.7577,167707.4692],[146030.336,167708.372],[146029.5315,167711.5607],[146032.8221,167712.391],[146036.1128,167713.2212],[146035.2263,167716.735]]]},"geometry_name":"GEOM","properties":{"INSPIRE_ID":"https://databrussels.be/id/building/1673754","BLOCK_ID":"https://databrussels.be/id/block/29463","AREA":483},"bbox":[146011.817,167701.326,146042.299,167729.851]},{"type":"Feature","id":"Buildings.fid-1cd8d64c_1a02c0ead07_507d","geometry":{"type":"Polygon","coordinates":[[[146018.50810001,167992.24004244],[146037.66260001,168004.12394244],[146027.95310001,168019.55794244],[146008.8388,168007.64844244],[145988.17360001,167994.77254244],[145997.75460001,167979.36384244],[145999.27880001,167976.91254244],[146006.388,167981.31184244],[146004.8635,167983.77444244],[146018.50810001,167992.24004244]]]},"geometry_name":"GEOM","properties":{"INSPIRE_ID":"https://databrussels.be/id/building/1717667","BLOCK_ID":"https://databrussels.be/id/block/27740","AREA":878},"bbox":[145988.17360001,167976.91254244,146037.66260001,168019.55794244]},{"type":"Feature","id":"Buildings.fid-1cd8d64c_1a02c0ead07_5097","geometry":{"type":"Polygon","coordinates":[[[146502.8102,167622.568],[146504.7308,167626.5804],[146490.842,167633.2286],[146491.9158,167635.4154],[146463.8408,167649.2019],[146462.1283,167645.7145],[146460.4903,167642.2925],[146460.1225,167642.4685],[146456.6672,167635.25],[146484.16,167621.59],[146486.1572,167625.8644],[146500.9895,167618.7645],[146502.8102,167622.568]]]},"geometry_name":"GEOM","properties":{"INSPIRE_ID":"https://databrussels.be/id/building/1747225","BLOCK_ID":"https://databrussels.be/id/block/30601","AREA":625},"bbox":[146456.6672,167618.7645,146504.7308,167649.2019]},{"type":"Feature","id":"Buildings.fid-1cd8d64c_1a02c0ead07_5095","geometry":{"type":"Polygon","coordinates":[[[146457.346,167534.209],[146489.426,167596.479],[146434.25,167624.6],[146402.37,167562.52],[146457.346,167534.209]]]},"geometry_name":"GEOM","properties":{"INSPIRE_ID":"https://databrussels.be/id/building/1748468","BLOCK_ID":"https://databrussels.be/id/block/30601","AREA":4327},"bbox":[146402.37,167534.209,146489.426,167624.6]},{"type":"Feature","id":"Buildings.fid-1cd8d64c_1a02c0ead07_5060","geometry":{"type":"Polygon","coordinates":[[[146236.1014,167962.5577],[146238.1859,167960.7777],[146241.6069,167964.7839],[146239.5225,167966.5639],[146236.1014,167962.5577]]]},"geometry_name":"GEOM","properties":{"INSPIRE_ID":"https://databrussels.be/id/building/1775045","BLOCK_ID":"https://databrussels.be/id/block/27740","AREA":14},"bbox":[146236.1014,167960.7777,146241.6069,167966.5639]},{"type":"Feature","id":"Buildings.fid-1cd8d64c_1a02c0ead07_5076","geometry":{"type":"Polygon","coordinates":[[[146076.2127,167780.4819],[146074.3127,167783.3823],[146072.0282,167781.8859],[146073.9281,167778.9854],[146076.2127,167780.4819]]]},"geometry_name":"GEOM","properties":{"INSPIRE_ID":"https://databrussels.be/id/building/1775046","BLOCK_ID":"https://databrussels.be/id/block/29751","AREA":9},"bbox":[146072.0282,167778.9854,146076.2127,167783.3823]},{"type":"Feature","id":"Buildings.fid-1cd8d64c_1a02c0ead07_507e","geometry":{"type":"Polygon","coordinates":[[[146075.6408,167988.7598],[146076.7855,167986.882],[146078.8124,167988.1177],[146077.6677,167989.9955],[146075.6408,167988.7598]]]},"geometry_name":"GEOM","properties":{"INSPIRE_ID":"https://databrussels.be/id/building/1775047","BLOCK_ID":"https://databrussels.be/id/block/27740","AREA":5},"bbox":[146075.6408,167986.882,146078.8124,167989.9955]},{"type":"Feature","id":"Buildings.fid-1cd8d64c_1a02c0ead07_5094","geometry":{"type":"Polygon","coordinates":[[[146413.78,167520.56],[146405.59,167504.65],[146369.39130206,167523.24947303],[146377.85,167539.53],[146381.29,167537.76],[146387.25,167549.33],[146403.16,167541.14],[146402.92,167540.67],[146419.76,167532],[146419.16946277,167530.8702766],[146413.78,167520.56]]]},"geometry_name":"GEOM","properties":{"INSPIRE_ID":"https://databrussels.be/id/building/1777244","BLOCK_ID":"https://databrussels.be/id/block/30601","AREA":1214},"bbox":[146369.39130206,167504.65,146419.76,167549.33]},{"type":"Feature","id":"Buildings.fid-1cd8d64c_1a02c0ead07_5064","geometry":{"type":"Polygon","coordinates":[[[146255.94992625,167970.41007368],[146269.55904252,167972.15809018],[146270.39856066,167964.55516044],[146263.89942573,167963.72038213],[146263.64467567,167966.02747557],[146258.31603036,167965.34304024],[146255.94992625,167970.41007368]]]},"geometry_name":"GEOM","properties":{"INSPIRE_ID":"https://databrussels.be/id/building/1782056","BLOCK_ID":"https://databrussels.be/id/block/27740","AREA":84},"bbox":[146255.94992625,167963.72038213,146270.39856066,167972.15809018]},{"type":"Feature","id":"Buildings.fid-1cd8d64c_1a02c0ead07_509a","geometry":{"type":"Polygon","coordinates":[[[146485.2073669,167522.22141753],[146482.0842,167516.2561],[146475.969,167519.431],[146479.09191992,167525.54430072],[146485.2073669,167522.22141753]]]},"geometry_name":"GEOM","properties":{"INSPIRE_ID":"https://databrussels.be/id/building/1782081","BLOCK_ID":"https://databrussels.be/id/block/24832","AREA":47},"bbox":[146475.969,167516.2561,146485.2073669,167525.54430072]},{"type":"Feature","id":"Buildings.fid-1cd8d64c_1a02c0ead07_505b","geometry":{"type":"Polygon","coordinates":[[[146146.1755,167962.964],[146145.9604,167963.3132],[146154.6238,167968.6494],[146154.4087,167968.9986],[146163.2824,167974.4644],[146155.2342,167987.5308],[146147.154,168000.649],[146103.0383,167973.4758],[146111.1185,167960.3576],[146120.0271,167945.8945],[146129.1046,167951.4858],[146128.8895,167951.8349],[146137.6364,167957.2226],[146137.4213,167957.5718],[146146.1755,167962.964]]]},"geometry_name":"GEOM","properties":{"INSPIRE_ID":"https://databrussels.be/id/building/1784448","BLOCK_ID":"https://databrussels.be/id/block/27740","AREA":1636},"bbox":[146103.0383,167945.8945,146163.2824,168000.649]},{"type":"Feature","id":"Buildings.fid-1cd8d64c_1a02c0ead07_505e","geometry":{"type":"Polygon","coordinates":[[[146179.7786,167947.565],[146171.8995,167960.3224],[146156.8649,167951.0368],[146164.744,167938.2794],[146179.7786,167947.565]]]},"geometry_name":"GEOM","properties":{"INSPIRE_ID":"https://databrussels.be/id/building/1784449","BLOCK_ID":"https://databrussels.be/id/block/27740","AREA":265},"bbox":[146156.8649,167938.2794,146179.7786,167960.3224]},{"type":"Feature","id":"Buildings.fid-1cd8d64c_1a02c0ead07_5087","geometry":{"type":"Polygon","coordinates":[[[146066.858,167723.7903],[146064.7171,167734.741],[146039.417,167729.851],[146042.299,167718.446],[146043.9386,167711.735],[146066.858,167723.7903]]]},"geometry_name":"GEOM","properties":{"INSPIRE_ID":"https://databrussels.be/id/building/1786432","BLOCK_ID":"https://databrussels.be/id/block/29463","AREA":378},"bbox":[146039.417,167711.735,146066.858,167734.741]},{"type":"Feature","id":"Buildings.fid-1cd8d64c_1a02c0ead07_507b","geometry":{"type":"Polygon","coordinates":[[[146016.5625,167935.7646],[146038.4846,167901.7578],[146069.3388,167920.6069],[146065.7091,167926.7262],[146075.5347,167932.7431],[146079.7679,167927.4467],[146104.9574,167943.177],[146082.3402,167979.2587],[146051.2669,167959.7097],[146054.858,167953.5897],[146045.2972,167947.8869],[146042.7448,167952.1702],[146016.5625,167935.7646]]]},"geometry_name":"GEOM","properties":{"INSPIRE_ID":"https://databrussels.be/id/building/1792510","BLOCK_ID":"https://databrussels.be/id/block/27740","AREA":3125},"bbox":[146016.5625,167901.7578,146104.9574,167979.2587]},{"type":"Feature","id":"Buildings.fid-1cd8d64c_1a02c0ead07_506f","geometry":{"type":"Polygon","coordinates":[[[146319.027,167934.558],[146321.09,167933.77],[146322.259,167936.83],[146320.196,167937.618],[146319.027,167934.558]]]},"geometry_name":"GEOM","properties":{"INSPIRE_ID":"https://databrussels.be/id/building/1797930","BLOCK_ID":"https://databrussels.be/id/block/29540","AREA":7},"bbox":[146319.027,167933.77,146322.259,167937.618]},{"type":"Feature","id":"Buildings.fid-1cd8d64c_1a02c0ead07_507a","geometry":{"type":"Polygon","coordinates":[[[146042.7147,167892.9033],[146049.2894,167882.1723],[146055.3529,167885.6196],[146064.4054,167871.2468],[146058.4741,167867.4654],[146065.2733,167856.7245],[146071.2611,167860.4789],[146073.9523,167855.9016],[146067.9767,167852.2456],[146074.8322,167841.4917],[146080.7935,167845.1615],[146083.5132,167840.5567],[146077.5926,167836.9578],[146084.4198,167826.2174],[146114.6518,167845.0785],[146104.6885,167860.9629],[146098.7985,167857.2243],[146095.9698,167861.6589],[146101.8852,167865.5381],[146085.6118,167891.4853],[146079.5786,167887.9124],[146076.9061,167892.2376],[146082.8661,167895.9774],[146072.8628,167911.7489],[146042.7147,167892.9033]]]},"geometry_name":"GEOM","properties":{"INSPIRE_ID":"https://databrussels.be/id/building/1801573","BLOCK_ID":"https://databrussels.be/id/block/27740","AREA":2541},"bbox":[146042.7147,167826.2174,146114.6518,167911.7489]},{"type":"Feature","id":"Buildings.fid-1cd8d64c_1a02c0ead07_509c","geometry":{"type":"Polygon","coordinates":[[[146491.7808,167656.0938],[146488.6046,167650.1007],[146496.7696,167645.7016],[146499.8674,167652.053],[146491.7808,167656.0938]]]},"geometry_name":"GEOM","properties":{"INSPIRE_ID":"https://databrussels.be/id/building/1828040","BLOCK_ID":"https://databrussels.be/id/block/30601","AREA":63},"bbox":[146488.6046,167645.7016,146499.8674,167656.0938]},{"type":"Feature","id":"Buildings.fid-1cd8d64c_1a02c0ead07_5074","geometry":{"type":"MultiPolygon","coordinates":[[[[146451.8372,167850.47180035],[146453.7373,167849.15810035],[146457.3032,167854.31590035],[146455.4031,167855.62950035],[146451.8372,167850.47180035]]]]},"geometry_name":"GEOM","properties":{"INSPIRE_ID":"https://databrussels.be/id/building/1830198","BLOCK_ID":"https://databrussels.be/id/block/30894","AREA":14},"bbox":[146451.8372,167849.15810035,146457.3032,167855.62950035]},{"type":"Feature","id":"Buildings.fid-1cd8d64c_1a02c0ead07_5057","geometry":{"type":"MultiPolygon","coordinates":[[[[146391.1188,167941.33560035],[146388.7301,167935.53430035],[146390.9356,167934.62620035],[146393.3244,167940.42750035],[146391.1188,167941.33560035]]]]},"geometry_name":"GEOM","properties":{"INSPIRE_ID":"https://databrussels.be/id/building/1830199","BLOCK_ID":"https://databrussels.be/id/block/30894","AREA":15},"bbox":[146388.7301,167934.62620035,146393.3244,167941.33560035]},{"type":"Feature","id":"Buildings.fid-1cd8d64c_1a02c0ead07_508b","geometry":{"type":"MultiPolygon","coordinates":[[[[146136.5329,167606.93100036],[146128.432,167603.07500035],[146129.7138,167600.38210035],[146137.8147,167604.23810035],[146136.5329,167606.93100036]]]]},"geometry_name":"GEOM","properties":{"INSPIRE_ID":"https://databrussels.be/id/building/1830200","BLOCK_ID":"https://databrussels.be/id/block/30894","AREA":27},"bbox":[146128.432,167600.38210035,146137.8147,167606.93100036]},{"type":"Feature","id":"Buildings.fid-1cd8d64c_1a02c0ead07_5083","geometry":{"type":"MultiPolygon","coordinates":[[[[146026.2932,167519.23630035],[146028.98,167517.74520035],[146033.3444,167525.60940035],[146030.6576,167527.10050035],[146026.2932,167519.23630035]]]]},"geometry_name":"GEOM","properties":{"INSPIRE_ID":"https://databrussels.be/id/building/1830201","BLOCK_ID":"https://databrussels.be/id/block/30894","AREA":28},"bbox":[146026.2932,167517.74520035,146033.3444,167527.10050035]},{"type":"Feature","id":"Buildings.fid-1cd8d64c_1a02c0ead07_508c","geometry":{"type":"Polygon","coordinates":[[[146135.0535,167538.249],[146133.586,167538.9806],[146131.8445,167535.6568],[146133.2324,167534.8881],[146135.0535,167538.249]]]},"geometry_name":"GEOM","properties":{"INSPIRE_ID":"https://databrussels.be/id/building/210975","BLOCK_ID":"https://databrussels.be/id/block/30894","AREA":6},"bbox":[146131.8445,167534.8881,146135.0535,167538.9806]},{"type":"Feature","id":"Buildings.fid-1cd8d64c_1a02c0ead07_5056","geometry":{"type":"Polygon","coordinates":[[[146459.4881,167966.2551],[146449.4089,167973.1172],[146421.2865,167930.5467],[146431.4678,167923.9757],[146459.4881,167966.2551]]]},"geometry_name":"GEOM","properties":{"INSPIRE_ID":"https://databrussels.be/id/building/224799","BLOCK_ID":"https://databrussels.be/id/block/30894","AREA":618},"bbox":[146421.2865,167923.9757,146459.4881,167973.1172]},{"type":"Feature","id":"Buildings.fid-1cd8d64c_1a02c0ead07_5078","geometry":{"type":"Polygon","coordinates":[[[146097.6289,167821.4765],[146095.4039,167824.9569],[146087.9568,167820.3347],[146090.1288,167816.7854],[146097.6289,167821.4765]]]},"geometry_name":"GEOM","properties":{"INSPIRE_ID":"https://databrussels.be/id/building/225191","BLOCK_ID":null,"AREA":37},"bbox":[146087.9568,167816.7854,146097.6289,167824.9569]},{"type":"Feature","id":"Buildings.fid-1cd8d64c_1a02c0ead07_5054","geometry":{"type":"Polygon","coordinates":[[[146404.7853,167907.8219],[146402.9377,167908.7594],[146401.5001,167906.0802],[146403.4057,167905.1732],[146404.7853,167907.8219]]]},"geometry_name":"GEOM","properties":{"INSPIRE_ID":"https://databrussels.be/id/building/225423","BLOCK_ID":"https://databrussels.be/id/block/30894","AREA":6},"bbox":[146401.5001,167905.1732,146404.7853,167908.7594]},{"type":"Feature","id":"Buildings.fid-1cd8d64c_1a02c0ead07_508d","geometry":{"type":"Polygon","coordinates":[[[146165.27907554,167574.82668611],[146163.81000919,167572.11495365],[146167.63305848,167570.10021311],[146168.99250801,167572.68367866],[146165.27907554,167574.82668611]]]},"geometry_name":"GEOM","properties":{"INSPIRE_ID":"https://databrussels.be/id/building/2266","BLOCK_ID":"https://databrussels.be/id/block/30894","AREA":13},"bbox":[146163.81000919,167570.10021311,146168.99250801,167574.82668611]},{"type":"Feature","id":"Buildings.fid-1cd8d64c_1a02c0ead07_5055","geometry":{"type":"Polygon","coordinates":[[[146414.929,167920.788],[146418.504,167918.347],[146422.623,167924.377],[146419.048,167926.819],[146414.929,167920.788]]]},"geometry_name":"GEOM","properties":{"INSPIRE_ID":"https://databrussels.be/id/building/244160","BLOCK_ID":"https://databrussels.be/id/block/30894","AREA":32},"bbox":[146414.929,167918.347,146422.623,167926.819]},{"type":"Feature","id":"Buildings.fid-1cd8d64c_1a02c0ead07_5091","geometry":{"type":"Polygon","coordinates":[[[146247.102,167528.117],[146249.217,167527.062],[146251.892,167532.425],[146249.777,167533.48],[146247.102,167528.117]]]},"geometry_name":"GEOM","properties":{"INSPIRE_ID":"https://databrussels.be/id/building/244991","BLOCK_ID":"https://databrussels.be/id/block/30894","AREA":14},"bbox":[146247.102,167527.062,146251.892,167533.48]},{"type":"Feature","id":"Buildings.fid-1cd8d64c_1a02c0ead07_508f","geometry":{"type":"Polygon","coordinates":[[[146186.848,167591.321],[146193.674,167587.789],[146201.316,167602.556],[146194.491,167606.088],[146186.848,167591.321]]]},"geometry_name":"GEOM","properties":{"INSPIRE_ID":"https://databrussels.be/id/building/246896","BLOCK_ID":"https://databrussels.be/id/block/30894","AREA":128},"bbox":[146186.848,167587.789,146201.316,167606.088]},{"type":"Feature","id":"Buildings.fid-1cd8d64c_1a02c0ead07_5081","geometry":{"type":"Polygon","coordinates":[[[146355.091,167758.145],[146352.874,167758.441],[146352.342,167755.438],[146354.539,167755.06],[146355.091,167758.145]]]},"geometry_name":"GEOM","properties":{"INSPIRE_ID":"https://databrussels.be/id/building/2770","BLOCK_ID":"https://databrussels.be/id/block/30894","AREA":7},"bbox":[146352.342,167755.06,146355.091,167758.441]},{"type":"Feature","id":"Buildings.fid-1cd8d64c_1a02c0ead07_5093","geometry":{"type":"Polygon","coordinates":[[[146310.708,167678.938],[146309.154,167679.684],[146307.361,167676.186],[146308.896,167675.384],[146310.708,167678.938]]]},"geometry_name":"GEOM","properties":{"INSPIRE_ID":"https://databrussels.be/id/building/3374","BLOCK_ID":"https://databrussels.be/id/block/30894","AREA":7},"bbox":[146307.361,167675.384,146310.708,167679.684]},{"type":"Feature","id":"Buildings.fid-1cd8d64c_1a02c0ead07_507f","geometry":{"type":"Polygon","coordinates":[[[146309.817,167681.001],[146311.339,167680.267],[146313.153,167683.787],[146311.595,167684.546],[146309.817,167681.001]]]},"geometry_name":"GEOM","properties":{"INSPIRE_ID":"https://databrussels.be/id/building/3375","BLOCK_ID":"https://databrussels.be/id/block/30894","AREA":7},"bbox":[146309.817,167680.267,146313.153,167684.546]},{"type":"Feature","id":"Buildings.fid-1cd8d64c_1a02c0ead07_508e","geometry":{"type":"Polygon","coordinates":[[[146175.44619783,167575.80661131],[146169.84430322,167565.21367083],[146173.45112623,167563.24745241],[146179.09533814,167573.79886893],[146175.44619783,167575.80661131]]]},"geometry_name":"GEOM","properties":{"INSPIRE_ID":"https://databrussels.be/id/building/3565","BLOCK_ID":"https://databrussels.be/id/block/30894","AREA":50},"bbox":[146169.84430322,167563.24745241,146179.09533814,167575.80661131]},{"type":"Feature","id":"Buildings.fid-1cd8d64c_1a02c0ead07_5090","geometry":{"type":"Polygon","coordinates":[[[146208.51243301,167620.08968429],[146212.58522612,167617.67160576],[146217.21880934,167625.46958752],[146213.04088342,167627.89879117],[146208.51243301,167620.08968429]]]},"geometry_name":"GEOM","properties":{"INSPIRE_ID":"https://databrussels.be/id/building/4473","BLOCK_ID":"https://databrussels.be/id/block/30894","AREA":43},"bbox":[146208.51243301,167617.67160576,146217.21880934,167627.89879117]},{"type":"Feature","id":"Buildings.fid-1cd8d64c_1a02c0ead07_5071","geometry":{"type":"Polygon","coordinates":[[[146323.93990219,167849.42776159],[146326.09966425,167848.38169116],[146328.76171609,167853.877878],[146326.60195403,167854.92394843],[146323.93990219,167849.42776159]]]},"geometry_name":"GEOM","properties":{"INSPIRE_ID":"https://databrussels.be/id/building/773168","BLOCK_ID":"https://databrussels.be/id/block/30894","AREA":15},"bbox":[146323.93990219,167848.38169116,146328.76171609,167854.92394843]},{"type":"Feature","id":"Buildings.fid-1cd8d64c_1a02c0ead07_5092","geometry":{"type":"Polygon","coordinates":[[[146270.3721,167577.3764],[146275.8444,167588.0168],[146267.8697,167592.1181],[146262.3974,167581.4778],[146270.3721,167577.3764]]]},"geometry_name":"GEOM","properties":{"INSPIRE_ID":"https://databrussels.be/id/building/779696","BLOCK_ID":"https://databrussels.be/id/block/30894","AREA":107},"bbox":[146262.3974,167577.3764,146275.8444,167592.1181]},{"type":"Feature","id":"Buildings.fid-1cd8d64c_1a02c0ead07_5082","geometry":{"type":"Polygon","coordinates":[[[146026.75000001,167514.38704244],[146026.013,167514.75584244],[146025.276,167515.12464244],[146022.99840001,167510.57314244],[146023.7354,167510.20434244],[146024.47240001,167509.83554244],[146026.75000001,167514.38704244]]]},"geometry_name":"GEOM","properties":{"INSPIRE_ID":"https://databrussels.be/id/building/783716","BLOCK_ID":"https://databrussels.be/id/block/30894","AREA":8},"bbox":[146022.99840001,167509.83554244,146026.75000001,167515.12464244]},{"type":"Feature","id":"Buildings.fid-1cd8d64c_1a02c0ead07_508a","geometry":{"type":"Polygon","coordinates":[[[146110.2754,167591.18974244],[146109.9334,167591.91384244],[146109.5915,167592.63794244],[146105.03570001,167590.48654244],[146105.3776,167589.76244244],[146105.7196,167589.03834244],[146110.2754,167591.18974244]]]},"geometry_name":"GEOM","properties":{"INSPIRE_ID":"https://databrussels.be/id/building/783724","BLOCK_ID":"https://databrussels.be/id/block/30894","AREA":8},"bbox":[146105.03570001,167589.03834244,146110.2754,167592.63794244]}],"numberReturned":63,"grand_bruxelles_source":{"authority":"Paradigm / Brussels-Capital Region","service":"https://geoservices-urbis.irisnet.be/geoserver/urbisvector/wfs","layer":"urbisvector:Buildings","crs":"EPSG:31370","bbox":[146000.0,167500.0,146500.0,168000.0],"cell_id":"bxl-e146000-n167500-s500","ownership":"polygon_or_multipolygon_centroid_global_500m_cell"}}
