{"type":"FeatureCollection","totalFeatures":68,"numberMatched":68,"timeStamp":"2026-08-23T02:49:54.283Z","crs":{"type":"name","properties":{"name":"urn:ogc:def:crs:EPSG::31370"}},"bbox":[146739.04,163236.98,147019.5307,163565.69695927],"features":[{"type":"Feature","id":"Buildings.fid-6d0a8ac7_1a02c00b059_3bf4","geometry":{"type":"Polygon","coordinates":[[[146807.4196,163449.0948],[146809.9787,163447.1213],[146813.6786,163451.919],[146811.1196,163453.8925],[146807.4196,163449.0948]]]},"geometry_name":"GEOM","properties":{"INSPIRE_ID":"https://databrussels.be/id/building/1039015","BLOCK_ID":null,"AREA":20},"bbox":[146807.4196,163447.1213,146813.6786,163453.8925]},{"type":"Feature","id":"Buildings.fid-6d0a8ac7_1a02c00b059_3c30","geometry":{"type":"Polygon","coordinates":[[[146963.43,163308.4],[146963.48,163308.39],[146966.05,163307.98],[146966.36,163309.81],[146963.75,163310.33],[146963.66,163310.34],[146963.43,163308.4]]]},"geometry_name":"GEOM","properties":{"INSPIRE_ID":"https://databrussels.be/id/building/1580853","BLOCK_ID":null,"AREA":5},"bbox":[146963.43,163307.98,146966.36,163310.34]},{"type":"Feature","id":"Buildings.fid-6d0a8ac7_1a02c00b059_3bf8","geometry":{"type":"Polygon","coordinates":[[[146888.329,163423.173],[146885.287,163424.515],[146883.444,163420.336],[146886.485,163418.994],[146888.329,163423.173]]]},"geometry_name":"GEOM","properties":{"INSPIRE_ID":"https://databrussels.be/id/building/1587062","BLOCK_ID":"https://databrussels.be/id/block/31044","AREA":15},"bbox":[146883.444,163418.994,146888.329,163424.515]},{"type":"Feature","id":"Buildings.fid-6d0a8ac7_1a02c00b059_3c2f","geometry":{"type":"Polygon","coordinates":[[[146932.4400001,163311.99999965],[146932.62,163310.09],[146935.69,163309.94],[146935.72,163306.79],[146949.42899993,163306.29299995],[146950.4590001,163311.71799997],[146932.4400001,163311.99999965]]]},"geometry_name":"GEOM","properties":{"INSPIRE_ID":"https://databrussels.be/id/building/1587280","BLOCK_ID":"https://databrussels.be/id/block/31057","AREA":82},"bbox":[146932.4400001,163306.29299995,146950.4590001,163311.99999965]},{"type":"Feature","id":"Buildings.fid-6d0a8ac7_1a02c00b059_3c0a","geometry":{"type":"Polygon","coordinates":[[[146927.15,163343.36],[146928.69,163332.29],[146934.11,163330.27],[146937.92999996,163339.13800018],[146927.15,163343.36]]]},"geometry_name":"GEOM","properties":{"INSPIRE_ID":"https://databrussels.be/id/building/1588305","BLOCK_ID":"https://databrussels.be/id/block/31057","AREA":84},"bbox":[146927.15,163330.27,146937.92999996,163343.36]},{"type":"Feature","id":"Buildings.fid-6d0a8ac7_1a02c00b059_3bfc","geometry":{"type":"Polygon","coordinates":[[[146945.27,163418.15],[146947.59,163417.56],[146948.32,163420.42],[146946,163421.01],[146945.27,163418.15]]]},"geometry_name":"GEOM","properties":{"INSPIRE_ID":"https://databrussels.be/id/building/1589095","BLOCK_ID":"https://databrussels.be/id/block/31044","AREA":7},"bbox":[146945.27,163417.56,146948.32,163421.01]},{"type":"Feature","id":"Buildings.fid-6d0a8ac7_1a02c00b059_3c1f","geometry":{"type":"Polygon","coordinates":[[[146914.81,163399.136],[146918.012,163398.838],[146918.956,163409.479],[146915.621,163409.695],[146914.81,163399.136]]]},"geometry_name":"GEOM","properties":{"INSPIRE_ID":"https://databrussels.be/id/building/1594208","BLOCK_ID":"https://databrussels.be/id/block/31044","AREA":35},"bbox":[146914.81,163398.838,146918.956,163409.695]},{"type":"Feature","id":"Buildings.fid-6d0a8ac7_1a02c00b059_3bfa","geometry":{"type":"Polygon","coordinates":[[[146966.8812,163441.5857],[146969.1969,163447.5604],[146957.0424,163457.4567],[146954.3612,163457.7345],[146947.483,163460.4004],[146945.9923,163456.5543],[146940.9242,163458.5187],[146937.5577,163449.833],[146934.3998,163441.6856],[146932.7956,163435.2246],[146931.07,163426.4453],[146930.2566,163422.3066],[146936.513,163421.6607],[146937.5771,163425.8218],[146939.3335,163432.6906],[146946.1873,163430.0341],[146948.4252,163435.808],[146962.5238,163430.3435],[146965.35,163437.62],[146965.8304,163438.8748],[146966.87,163441.59],[146966.8812,163441.5857]]]},"geometry_name":"GEOM","properties":{"INSPIRE_ID":"https://databrussels.be/id/building/1656647","BLOCK_ID":"https://databrussels.be/id/block/31044","AREA":810},"bbox":[146930.2566,163421.6607,146969.1969,163460.4004]},{"type":"Feature","id":"Buildings.fid-6d0a8ac7_1a02c00b059_3c13","geometry":{"type":"Polygon","coordinates":[[[146935.919,163368.644],[146939.847,163367.028],[146940.239,163367.896],[146942.459,163367.086],[146943.355,163369.415],[146937.218,163371.774],[146935.919,163368.644]]]},"geometry_name":"GEOM","properties":{"INSPIRE_ID":"https://databrussels.be/id/building/1658059","BLOCK_ID":"https://databrussels.be/id/block/31044","AREA":21},"bbox":[146935.919,163367.028,146943.355,163371.774]},{"type":"Feature","id":"Buildings.fid-6d0a8ac7_1a02c00b059_3c1b","geometry":{"type":"Polygon","coordinates":[[[146958.24,163391.35],[146960.05,163395.77],[146961.42628122,163395.20757045],[146973.76500003,163390.435],[146971.97899992,163385.89600022],[146960.28,163390.52],[146958.28,163391.34],[146958.24,163391.35]]]},"geometry_name":"GEOM","properties":{"INSPIRE_ID":"https://databrussels.be/id/building/1661035","BLOCK_ID":"https://databrussels.be/id/block/31044","AREA":71},"bbox":[146958.24,163385.89600022,146973.76500003,163395.77]},{"type":"Feature","id":"Buildings.fid-6d0a8ac7_1a02c00b059_3c05","geometry":{"type":"Polygon","coordinates":[[[146943.48000039,163324.69999952],[146952.288,163321.345],[146953.916,163329.92],[146952.12,163333.58],[146948.144,163335.137],[146943.48000039,163324.69999952]]]},"geometry_name":"GEOM","properties":{"INSPIRE_ID":"https://databrussels.be/id/building/1664927","BLOCK_ID":"https://databrussels.be/id/block/31057","AREA":89},"bbox":[146943.48000039,163321.345,146953.916,163335.137]},{"type":"Feature","id":"Buildings.fid-6d0a8ac7_1a02c00b059_3c31","geometry":{"type":"Polygon","coordinates":[[[146931.97000023,163316.7499998],[146932.4400001,163311.99999965],[146950.4590001,163311.71799997],[146951.46700011,163317.02400003],[146941.06499972,163316.78000038],[146936.79000015,163316.78999987],[146934.33999976,163316.77000023],[146932.06000023,163316.74999949],[146931.97000023,163316.7499998]]]},"geometry_name":"GEOM","properties":{"INSPIRE_ID":"https://databrussels.be/id/building/1664931","BLOCK_ID":"https://databrussels.be/id/block/31057","AREA":93},"bbox":[146931.97000023,163311.71799997,146951.46700011,163317.02400003]},{"type":"Feature","id":"Buildings.fid-6d0a8ac7_1a02c00b059_3bff","geometry":{"type":"Polygon","coordinates":[[[146977.742,163400.539],[146979.59,163405.237],[146970.8945,163408.8401],[146967.09,163410.301],[146966.91,163410.37],[146962.72,163411.89],[146962.6,163411.93],[146960.8106,163412.56],[146959.8596,163409.9582],[146961.6237,163409.2367],[146960.86,163407.13],[146960.88,163407.12],[146965.24,163405.46],[146977.742,163400.539]]]},"geometry_name":"GEOM","properties":{"INSPIRE_ID":"https://databrussels.be/id/building/1664932","BLOCK_ID":"https://databrussels.be/id/block/31044","AREA":99},"bbox":[146959.8596,163400.539,146979.59,163412.56]},{"type":"Feature","id":"Buildings.fid-6d0a8ac7_1a02c00b059_3c0c","geometry":{"type":"Polygon","coordinates":[[[146943.075,163347.716],[146947.715651,163345.8981749],[146950.85481838,163355.84186861],[146951.79000013,163355.47999983],[146954.93623792,163364.09814827],[146950.31,163365.98],[146946.82999994,163357.46999999],[146946.2154841,163355.53619526],[146943.075,163347.716]]]},"geometry_name":"GEOM","properties":{"INSPIRE_ID":"https://databrussels.be/id/building/1664960","BLOCK_ID":"https://databrussels.be/id/block/31044","AREA":95},"bbox":[146943.075,163345.8981749,146954.93623792,163365.98]},{"type":"Feature","id":"Buildings.fid-6d0a8ac7_1a02c00b059_3c0b","geometry":{"type":"Polygon","coordinates":[[[146947.715651,163345.8981749],[146955.487,163342.854],[146957.173,163343.921],[146958.232,163346.993],[146960.149,163352.552],[146951.79000013,163355.47999983],[146950.85481838,163355.84186861],[146947.715651,163345.8981749]]]},"geometry_name":"GEOM","properties":{"INSPIRE_ID":"https://databrussels.be/id/building/1665086","BLOCK_ID":"https://databrussels.be/id/block/31044","AREA":102},"bbox":[146947.715651,163342.854,146960.149,163355.84186861]},{"type":"Feature","id":"Buildings.fid-6d0a8ac7_1a02c00b059_3c16","geometry":{"type":"Polygon","coordinates":[[[146950.53,163380.69],[146953.83,163379.34],[146953.36,163378.06],[146967.27000009,163372.75399983],[146969.16299999,163378.03800005],[146956.23,163383.471],[146952.12,163384.97],[146952.08,163384.98],[146950.53,163380.69]]]},"geometry_name":"GEOM","properties":{"INSPIRE_ID":"https://databrussels.be/id/building/1665089","BLOCK_ID":"https://databrussels.be/id/block/31044","AREA":104},"bbox":[146950.53,163372.75399983,146969.16299999,163384.98]},{"type":"Feature","id":"Buildings.fid-6d0a8ac7_1a02c00b059_3c00","geometry":{"type":"Polygon","coordinates":[[[146963.03,163417.39],[146972.99,163413.77],[146972.84,163413.36],[146981.477,163410.032],[146983.40700008,163414.93600001],[146974.86754249,163418.37898285],[146964.77000334,163422.26000122],[146963.04,163417.42],[146963.03,163417.39]]]},"geometry_name":"GEOM","properties":{"INSPIRE_ID":"https://databrussels.be/id/building/1665090","BLOCK_ID":"https://databrussels.be/id/block/31044","AREA":104},"bbox":[146963.03,163410.032,146983.40700008,163422.26000122]},{"type":"Feature","id":"Buildings.fid-6d0a8ac7_1a02c00b059_3c19","geometry":{"type":"Polygon","coordinates":[[[146956.23,163383.471],[146957.41,163386.71],[146958.71,163386.18],[146960.28400257,163390.53805671],[146971.97899992,163385.89600022],[146969.16299999,163378.03800005],[146956.23,163383.471]]]},"geometry_name":"GEOM","properties":{"INSPIRE_ID":"https://databrussels.be/id/building/1665091","BLOCK_ID":"https://databrussels.be/id/block/31044","AREA":108},"bbox":[146956.23,163378.03800005,146971.97899992,163390.53805671]},{"type":"Feature","id":"Buildings.fid-6d0a8ac7_1a02c00b059_3c06","geometry":{"type":"Polygon","coordinates":[[[146946.045,163330.441],[146948.144,163335.137],[146942.691,163337.273],[146940.7573,163332.5009],[146940.727,163332.426],[146939.05,163328.288],[146938.6751,163326.3991],[146938.5486,163325.7623],[146938.044,163323.22],[146937.9839,163322.9128],[146940.6046,163322.1453],[146942.5293,163321.5816],[146942.727,163322.23],[146943.48,163324.7],[146944.0979,163326.083],[146945.9995,163330.3392],[146946.045,163330.441]]]},"geometry_name":"GEOM","properties":{"INSPIRE_ID":"https://databrussels.be/id/building/1665092","BLOCK_ID":"https://databrussels.be/id/block/31057","AREA":81},"bbox":[146937.9839,163321.5816,146948.144,163337.273]},{"type":"Feature","id":"Buildings.fid-6d0a8ac7_1a02c00b059_3c10","geometry":{"type":"Polygon","coordinates":[[[146947.32,163370.68],[146951.53,163368.95],[146950.31,163365.98],[146954.93623792,163364.09814827],[146960.56999992,163362.13000011],[146963.14299996,163361.23499993],[146965.17599987,163366.90899993],[146956.49069866,163370.59848354],[146948.42,163373.56],[146947.32,163370.68]]]},"geometry_name":"GEOM","properties":{"INSPIRE_ID":"https://databrussels.be/id/building/1666276","BLOCK_ID":"https://databrussels.be/id/block/31044","AREA":101},"bbox":[146947.32,163361.23499993,146965.17599987,163373.56]},{"type":"Feature","id":"Buildings.fid-6d0a8ac7_1a02c00b059_3c12","geometry":{"type":"Polygon","coordinates":[[[146945.81,163374.71],[146948.49,163373.74],[146948.42,163373.56],[146956.49069866,163370.59848354],[146965.17599987,163366.90899993],[146967.27000009,163372.75399983],[146953.36,163378.06],[146950.33,163379.31],[146949.84942994,163377.98846505],[146947.44,163378.98],[146945.85,163374.82],[146945.81,163374.71]]]},"geometry_name":"GEOM","properties":{"INSPIRE_ID":"https://databrussels.be/id/building/1666310","BLOCK_ID":"https://databrussels.be/id/block/31044","AREA":121},"bbox":[146945.81,163366.90899993,146967.27000009,163379.31]},{"type":"Feature","id":"Buildings.fid-6d0a8ac7_1a02c00b059_3c2d","geometry":{"type":"Polygon","coordinates":[[[146932.54,163306.89],[146933.23,163299.83],[146934.86676362,163299.56213695],[146947.76400006,163297.52600014],[146949.42899993,163306.29299995],[146935.72,163306.79],[146935.72,163306.74],[146932.54,163306.89]]]},"geometry_name":"GEOM","properties":{"INSPIRE_ID":"https://databrussels.be/id/building/1666311","BLOCK_ID":"https://databrussels.be/id/block/31057","AREA":125},"bbox":[146932.54,163297.52600014,146949.42899993,163306.89]},{"type":"Feature","id":"Buildings.fid-6d0a8ac7_1a02c00b059_3c01","geometry":{"type":"Polygon","coordinates":[[[146965.35,163437.62],[146969.61,163436],[146969.16,163434.32],[146971.64,163433.31],[146971.52,163433],[146988.03599997,163426.69899988],[146990.273,163432.383],[146981.73,163435.89],[146966.87,163441.59],[146965.35,163437.62]]]},"geometry_name":"GEOM","properties":{"INSPIRE_ID":"https://databrussels.be/id/building/1668888","BLOCK_ID":"https://databrussels.be/id/block/31044","AREA":148},"bbox":[146965.35,163426.69899988,146990.273,163441.59]},{"type":"Feature","id":"Buildings.fid-6d0a8ac7_1a02c00b059_3bfe","geometry":{"type":"Polygon","coordinates":[[[146983.407,163414.93684246],[146985.877,163421.21184245],[146981.5328,163422.96954245],[146981.401,163423.02284245],[146977.181,163424.73184245],[146970.87740001,163427.14564245],[146962.5238,163430.34434246],[146960.7914,163431.01574246],[146959.8977,163428.71204245],[146958.8999,163426.21244245],[146958.4338,163424.98514246],[146964.8308,163422.43204246],[146964.77000001,163422.26084246],[146970.91700001,163419.89784246],[146974.682,163418.45084245],[146974.868,163418.37984246],[146978.93900001,163416.73784246],[146979.021,163416.70474245],[146983.407,163414.93684246]]]},"geometry_name":"GEOM","properties":{"INSPIRE_ID":"https://databrussels.be/id/building/1668891","BLOCK_ID":"https://databrussels.be/id/block/31044","AREA":180},"bbox":[146958.4338,163414.93684246,146985.877,163431.01574246]},{"type":"Feature","id":"Buildings.fid-6d0a8ac7_1a02c00b059_3bfb","geometry":{"type":"Polygon","coordinates":[[[146943.05242567,163408.97040975],[146946.63869172,163407.60902205],[146948.20191646,163411.87979847],[146944.65460911,163413.22873728],[146943.05242567,163408.97040975]]]},"geometry_name":"GEOM","properties":{"INSPIRE_ID":"https://databrussels.be/id/building/1673078","BLOCK_ID":"https://databrussels.be/id/block/31044","AREA":17},"bbox":[146943.05242567,163407.60902205,146948.20191646,163413.22873728]},{"type":"Feature","id":"Buildings.fid-6d0a8ac7_1a02c00b059_3c2b","geometry":{"type":"Polygon","coordinates":[[[146990.27289053,163291.50661744],[146995.19026443,163291.38076566],[146995.32938968,163295.74956319],[146990.5804237,163295.96926866],[146990.27289053,163291.50661744]]]},"geometry_name":"GEOM","properties":{"INSPIRE_ID":"https://databrussels.be/id/building/1673080","BLOCK_ID":"https://databrussels.be/id/block/27885","AREA":21},"bbox":[146990.27289053,163291.38076566,146995.32938968,163295.96926866]},{"type":"Feature","id":"Buildings.fid-6d0a8ac7_1a02c00b059_3c0e","geometry":{"type":"Polygon","coordinates":[[[146933.69399995,163351.38999999],[146937.39199987,163349.94200006],[146941.10890594,163358.77297354],[146941.49000009,163359.64999994],[146941.4,163359.69],[146942.15,163362.51],[146938.64,163363.85],[146937.04068606,163360.28812667],[146933.69399995,163351.38999999]]]},"geometry_name":"GEOM","properties":{"INSPIRE_ID":"https://databrussels.be/id/building/1713263","BLOCK_ID":"https://databrussels.be/id/block/31044","AREA":55},"bbox":[146933.69399995,163349.94200006,146942.15,163363.85]},{"type":"Feature","id":"Buildings.fid-6d0a8ac7_1a02c00b059_3c1d","geometry":{"type":"Polygon","coordinates":[[[146963.3799999,163400.35000045],[146967.06442743,163399.05526562],[146975.79599984,163395.595],[146977.74200009,163400.53900014],[146965.24,163405.46],[146963.39000004,163400.38000001],[146963.3799999,163400.35000045]]]},"geometry_name":"GEOM","properties":{"INSPIRE_ID":"https://databrussels.be/id/building/1715521","BLOCK_ID":"https://databrussels.be/id/block/31044","AREA":71},"bbox":[146963.3799999,163395.595,146977.74200009,163405.46]},{"type":"Feature","id":"Buildings.fid-6d0a8ac7_1a02c00b059_3c0f","geometry":{"type":"Polygon","coordinates":[[[146929.378,163353.081],[146933.69399995,163351.38999999],[146937.04068606,163360.28812667],[146938.64,163363.85],[146938.49,163363.91],[146939.01,163365.27],[146939.03,163365.3],[146937.36,163365.91],[146936.65357278,163364.18870551],[146933.89,163365.19],[146932.65,163361.85],[146929.53,163353.45],[146929.378,163353.081]]]},"geometry_name":"GEOM","properties":{"INSPIRE_ID":"https://databrussels.be/id/building/1718029","BLOCK_ID":"https://databrussels.be/id/block/31044","AREA":64},"bbox":[146929.378,163351.38999999,146939.03,163365.91]},{"type":"Feature","id":"Buildings.fid-6d0a8ac7_1a02c00b059_3c24","geometry":{"type":"Polygon","coordinates":[[[146995.82,163254.23999996],[146999.99999987,163251.46999962],[147001.18,163250.69],[147002.37,163263.00399998],[147000,163263.37999975],[146997.16899998,163263.82999995],[146995.82,163254.23999996]]]},"geometry_name":"GEOM","properties":{"INSPIRE_ID":"https://databrussels.be/id/building/1719024","BLOCK_ID":"https://databrussels.be/id/block/30679","AREA":61},"bbox":[146995.82,163250.69,147002.37,163263.82999995]},{"type":"Feature","id":"Buildings.fid-6d0a8ac7_1a02c00b059_3c28","geometry":{"type":"Polygon","coordinates":[[[146991.01000009,163275.70999987],[146997.09,163270.87],[146999.1,163273.68],[147000,163274.93],[147002.86999989,163279.27400011],[147000,163281.60198063],[146998.36557427,163282.92773343],[146997.05101833,163283.99402613],[146994.79959088,163281.32195535],[146995.17255456,163281.03014603],[146992.82077589,163278.11532989],[146991.01000009,163275.70999987]]]},"geometry_name":"GEOM","properties":{"INSPIRE_ID":"https://databrussels.be/id/building/1722617","BLOCK_ID":"https://databrussels.be/id/block/27885","AREA":78},"bbox":[146991.01000009,163270.87,147002.86999989,163283.99402613]},{"type":"Feature","id":"Buildings.fid-6d0a8ac7_1a02c00b059_3c07","geometry":{"type":"Polygon","coordinates":[[[146942.691,163337.273],[146937.93,163339.138],[146934.11,163330.27],[146934.34,163327.457],[146934.549,163323.3616],[146938.0439,163323.2198],[146939.0504,163328.288],[146942.691,163337.273]]]},"geometry_name":"GEOM","properties":{"INSPIRE_ID":"https://databrussels.be/id/building/1723583","BLOCK_ID":"https://databrussels.be/id/block/31057","AREA":76},"bbox":[146934.11,163323.2198,146942.691,163339.138]},{"type":"Feature","id":"Buildings.fid-6d0a8ac7_1a02c00b059_3c0d","geometry":{"type":"Polygon","coordinates":[[[146937.39199987,163349.94200006],[146943.075,163347.716],[146946.2154841,163355.53619526],[146946.82999994,163357.46999999],[146941.49000009,163359.64999994],[146941.10890594,163358.77297354],[146937.39199987,163349.94200006]]]},"geometry_name":"GEOM","properties":{"INSPIRE_ID":"https://databrussels.be/id/building/1723588","BLOCK_ID":"https://databrussels.be/id/block/31044","AREA":63},"bbox":[146937.39199987,163347.716,146946.82999994,163359.64999994]},{"type":"Feature","id":"Buildings.fid-6d0a8ac7_1a02c00b059_3c2c","geometry":{"type":"MultiPolygon","coordinates":[[[[146933.23,163299.83000036],[146934.99,163294.04000036],[146938.2,163293.54000036],[146946.759,163292.23300036],[146947.764,163297.52600036],[146934.867,163299.56200036],[146933.23,163299.83000036]]]]},"geometry_name":"GEOM","properties":{"INSPIRE_ID":"https://databrussels.be/id/building/1724791","BLOCK_ID":"https://databrussels.be/id/block/31057","AREA":72},"bbox":[146933.23,163292.23300036,146947.764,163299.83000036]},{"type":"Feature","id":"Buildings.fid-6d0a8ac7_1a02c00b059_3c1c","geometry":{"type":"Polygon","coordinates":[[[146961.42628122,163395.20757045],[146973.76500003,163390.435],[146975.79599984,163395.595],[146967.06442743,163399.05526562],[146963.3799999,163400.35000045],[146961.42628122,163395.20757045]]]},"geometry_name":"GEOM","properties":{"INSPIRE_ID":"https://databrussels.be/id/building/1724796","BLOCK_ID":"https://databrussels.be/id/block/31044","AREA":74},"bbox":[146961.42628122,163390.435,146975.79599984,163400.35000045]},{"type":"Feature","id":"Buildings.fid-6d0a8ac7_1a02c00b059_3c27","geometry":{"type":"Polygon","coordinates":[[[146983.49,163262.39],[146985.07,163261.35],[146991.03,163257.41],[146993.18,163264.463],[146993.174,163264.464],[146984.55,163266.01],[146983.49,163262.39]]]},"geometry_name":"GEOM","properties":{"INSPIRE_ID":"https://databrussels.be/id/building/1727010","BLOCK_ID":"https://databrussels.be/id/block/30679","AREA":48},"bbox":[146983.49,163257.41,146993.18,163266.01]},{"type":"Feature","id":"Buildings.fid-6d0a8ac7_1a02c00b059_3c04","geometry":{"type":"Polygon","coordinates":[[[146941.06499972,163316.78000038],[146951.46700011,163317.02400003],[146952.288,163321.345],[146943.48000039,163324.69999952],[146941.06499972,163316.78000038]]]},"geometry_name":"GEOM","properties":{"INSPIRE_ID":"https://databrussels.be/id/building/1727028","BLOCK_ID":"https://databrussels.be/id/block/31057","AREA":61},"bbox":[146941.06499972,163316.78000038,146952.288,163324.69999952]},{"type":"Feature","id":"Buildings.fid-6d0a8ac7_1a02c00b059_3c02","geometry":{"type":"Polygon","coordinates":[[[146967.09,163410.301],[146970.89450546,163408.84005804],[146979.59,163405.23699991],[146981.477,163410.032],[146972.84,163413.36],[146972.37,163412.08],[146968.3,163413.64],[146967.09,163410.301]]]},"geometry_name":"GEOM","properties":{"INSPIRE_ID":"https://databrussels.be/id/building/1727030","BLOCK_ID":"https://databrussels.be/id/block/31044","AREA":62},"bbox":[146967.09,163405.23699991,146981.477,163413.64]},{"type":"Feature","id":"Buildings.fid-6d0a8ac7_1a02c00b059_3c26","geometry":{"type":"Polygon","coordinates":[[[146991.03,163257.41],[146995.82,163254.23999996],[146997.16899998,163263.82999995],[146993.18,163264.463],[146991.03,163257.41]]]},"geometry_name":"GEOM","properties":{"INSPIRE_ID":"https://databrussels.be/id/building/1727270","BLOCK_ID":"https://databrussels.be/id/block/30679","AREA":40},"bbox":[146991.03,163254.23999996,146997.16899998,163264.463]},{"type":"Feature","id":"Buildings.fid-6d0a8ac7_1a02c00b059_3bfd","geometry":{"type":"Polygon","coordinates":[[[147000.0001,163480.1977],[147004.3645,163492.5881],[147006.3453,163491.7677],[147011.0045,163503.4481],[147008.7985,163504.2123],[147019.5307,163530.3173],[147011.6897,163533.3989],[147002.3009,163509.9115],[147003.4901,163509.4271],[147002.4859,163507.0285],[147000.0001,163507.8863],[146965.9251,163521.2713],[146954.2011,163478.9011],[146993.6103,163463.4673],[147000.0001,163480.1977]],[[146991.8289,163495.3557],[146988.5591,163486.1665],[146975.0515,163491.6671],[146978.9631,163500.6851],[146991.8289,163495.3557]]]},"geometry_name":"GEOM","properties":{"INSPIRE_ID":"https://databrussels.be/id/building/1774416","BLOCK_ID":"https://databrussels.be/id/block/31044","AREA":2051},"bbox":[146954.2011,163463.4673,147019.5307,163533.3989]},{"type":"Feature","id":"Buildings.fid-6d0a8ac7_1a02c00b059_3c20","geometry":{"type":"Polygon","coordinates":[[[146944.88462906,163402.31175075],[146946.42222925,163406.47667425],[146944.37812401,163407.23131395],[146943.79778634,163405.65934357],[146943.50440134,163405.767655],[146942.54713881,163403.17470189],[146944.88462906,163402.31175075]]]},"geometry_name":"GEOM","properties":{"INSPIRE_ID":"https://databrussels.be/id/building/1783749","BLOCK_ID":"https://databrussels.be/id/block/31044","AREA":11},"bbox":[146942.54713881,163402.31175075,146946.42222925,163407.23131395]},{"type":"Feature","id":"Buildings.fid-6d0a8ac7_1a02c00b059_3c03","geometry":{"type":"Polygon","coordinates":[[[146970.37,163429.98],[146978.12,163427.03],[146977.181,163424.731],[146981.401,163423.022],[146981.5328,163422.9687],[146985.877,163421.211],[146988.036,163426.699],[146971.52,163433],[146970.37,163429.98]]]},"geometry_name":"GEOM","properties":{"INSPIRE_ID":"https://databrussels.be/id/building/1785420","BLOCK_ID":"https://databrussels.be/id/block/31044","AREA":81},"bbox":[146970.37,163421.211,146988.036,163433]},{"type":"Feature","id":"Buildings.fid-6d0a8ac7_1a02c00b059_3c08","geometry":{"type":"Polygon","coordinates":[[[146970.1611,163326.6403],[146972.3508,163326.399],[146972.6378,163329.0033],[146970.4481,163329.2445],[146970.1611,163326.6403]]]},"geometry_name":"GEOM","properties":{"INSPIRE_ID":"https://databrussels.be/id/building/1785542","BLOCK_ID":null,"AREA":6},"bbox":[146970.1611,163326.399,146972.6378,163329.2445]},{"type":"Feature","id":"Buildings.fid-6d0a8ac7_1a02c00b059_3c1e","geometry":{"type":"Polygon","coordinates":[[[146944.116,163398.416],[146945.17,163401.565],[146941.929,163402.65],[146940.875,163399.501],[146944.116,163398.416]]]},"geometry_name":"GEOM","properties":{"INSPIRE_ID":"https://databrussels.be/id/building/1797869","BLOCK_ID":"https://databrussels.be/id/block/31044","AREA":11},"bbox":[146940.875,163398.416,146945.17,163402.65]},{"type":"Feature","id":"Buildings.fid-6d0a8ac7_1a02c00b059_3c22","geometry":{"type":"Polygon","coordinates":[[[146954.652,163250.7638],[146954.452,163242.982],[146965.29,163243.55],[146965.3051,163246.3344],[146967.1564,163246.3244],[146967.1397,163243.2512],[146974.57,163242.051],[146975.896,163245.749],[146973.7556,163247.9136],[146970.866,163250.8348],[146970.403,163249.8188],[146966.068,163250.7438],[146965.294,163250.9098],[146963.7924,163250.9815],[146960.729,163251.1278],[146960.657,163249.2128],[146959.835,163249.4248],[146959.8208,163249.4285],[146957.0489,163250.1446],[146954.652,163250.7638]]]},"geometry_name":"GEOM","properties":{"INSPIRE_ID":"https://databrussels.be/id/building/20749","BLOCK_ID":null,"AREA":140},"bbox":[146954.452,163242.051,146975.896,163251.1278]},{"type":"Feature","id":"Buildings.fid-6d0a8ac7_1a02c00b059_3c25","geometry":{"type":"Polygon","coordinates":[[[146980.5287,163259.6233],[146979.8974,163260.0224],[146979.3038,163260.3968],[146977.4143,163261.5923],[146975.5457,163262.7736],[146971.6628,163265.2285],[146971.8393,163265.6866],[146969.6741,163266.6651],[146967.5076,163267.7236],[146967.5788,163267.9489],[146964.6507,163269.0703],[146964.5192,163269.1207],[146963.1398,163269.4956],[146958.9837,163270.6253],[146958.7851,163269.8398],[146957.7194,163265.6234],[146957.5125,163264.8046],[146961.6327,163263.7827],[146963.1352,163263.3253],[146965.715,163262.54],[146966.6743,163262.248],[146966.8103,163262.2066],[146966.7267,163261.8762],[146972.6186,163258.0109],[146975.8352,163256.1009],[146976.6989,163255.5881],[146977.3025,163255.2324],[146977.9439,163254.8519],[146981.1268,163252.9639],[146983.1331,163257.5816],[146983.2678,163257.8916],[146980.5287,163259.6233]]]},"geometry_name":"GEOM","properties":{"INSPIRE_ID":"https://databrussels.be/id/building/20750","BLOCK_ID":null,"AREA":153},"bbox":[146957.5125,163252.9639,146983.2678,163270.6253]},{"type":"Feature","id":"Buildings.fid-6d0a8ac7_1a02c00b059_3bf5","geometry":{"type":"Polygon","coordinates":[[[146814.9,163444.52],[146816.55,163443.25],[146817.79,163444.87],[146816.14,163446.14],[146814.9,163444.52]]]},"geometry_name":"GEOM","properties":{"INSPIRE_ID":"https://databrussels.be/id/building/20802","BLOCK_ID":null,"AREA":4},"bbox":[146814.9,163443.25,146817.79,163446.14]},{"type":"Feature","id":"Buildings.fid-6d0a8ac7_1a02c00b059_3bf0","geometry":{"type":"Polygon","coordinates":[[[146769.6,163505.04],[146773.1,163501.96],[146773.12,163501.83],[146777.69,163507.02],[146786.92,163499.42],[146788.91,163484.61],[146776.33,163492.57],[146772.69,163486.82],[146791.25,163475.06],[146791.5,163474.84],[146790.22,163472.81],[146792.39,163471.44],[146793.64,163473.41],[146794.28,163473.17],[146795.69,163473.51],[146791.58,163504.15],[146791.14,163504.52],[146778.39,163515.01],[146769.6,163505.04]]]},"geometry_name":"GEOM","properties":{"INSPIRE_ID":"https://databrussels.be/id/building/20813","BLOCK_ID":null,"AREA":417},"bbox":[146769.6,163471.44,146795.69,163515.01]},{"type":"Feature","id":"Buildings.fid-6d0a8ac7_1a02c00b059_3bf3","geometry":{"type":"Polygon","coordinates":[[[146803.69,163457.75],[146806.97,163455.41],[146804.49,163451.94],[146807.7,163449.64],[146811.29,163454.67],[146806.09,163461.12],[146803.69,163457.75]]]},"geometry_name":"GEOM","properties":{"INSPIRE_ID":"https://databrussels.be/id/building/20838","BLOCK_ID":null,"AREA":41},"bbox":[146803.69,163449.64,146811.29,163461.12]},{"type":"Feature","id":"Buildings.fid-6d0a8ac7_1a02c00b059_3bf7","geometry":{"type":"Polygon","coordinates":[[[146841.1,163415.24],[146844.22,163412.64],[146844.47,163413.04],[146847.52,163411.15],[146849.01,163413.55],[146843.99,163418.71],[146841.1,163415.24]]]},"geometry_name":"GEOM","properties":{"INSPIRE_ID":"https://databrussels.be/id/building/20842","BLOCK_ID":null,"AREA":28},"bbox":[146841.1,163411.15,146849.01,163418.71]},{"type":"Feature","id":"Buildings.fid-6d0a8ac7_1a02c00b059_3c09","geometry":{"type":"Polygon","coordinates":[[[146897.951,163352.113],[146904.332,163345.379],[146906.283,163343.32],[146905.831,163343.028],[146907.838,163339.92],[146908.888,163340.598],[146910.52,163338.875],[146913.779,163329.549],[146922.053,163332.324],[146918.821,163341.999],[146923.578,163343.577],[146923.375,163344.967],[146911.505,163349.772],[146906.699,163351.717],[146899.084,163354.799],[146897.951,163352.113]]]},"geometry_name":"GEOM","properties":{"INSPIRE_ID":"https://databrussels.be/id/building/20897","BLOCK_ID":null,"AREA":262},"bbox":[146897.951,163329.549,146923.578,163354.799]},{"type":"Feature","id":"Buildings.fid-6d0a8ac7_1a02c00b059_3bf6","geometry":{"type":"Polygon","coordinates":[[[146815.55,163419.86],[146821.39,163415.51],[146832.47,163430.38],[146827.33,163435.66],[146815.55,163419.86]]]},"geometry_name":"GEOM","properties":{"INSPIRE_ID":"https://databrussels.be/id/building/21076","BLOCK_ID":null,"AREA":139},"bbox":[146815.55,163415.51,146832.47,163435.66]},{"type":"Feature","id":"Buildings.fid-6d0a8ac7_1a02c00b059_3bf1","geometry":{"type":"Polygon","coordinates":[[[146795.283,163466.443],[146798.04,163464.464],[146800.503,163468.029],[146798.62,163470.324],[146797.406,163468.796],[146797.146,163469.011],[146795.283,163466.443]]]},"geometry_name":"GEOM","properties":{"INSPIRE_ID":"https://databrussels.be/id/building/21532","BLOCK_ID":null,"AREA":15},"bbox":[146795.283,163464.464,146800.503,163470.324]},{"type":"Feature","id":"Buildings.fid-6d0a8ac7_1a02c00b059_3bf2","geometry":{"type":"Polygon","coordinates":[[[146798.985,163465.15],[146801.675,163462.823],[146803.165,163464.81],[146800.53,163467.126],[146798.985,163465.15]]]},"geometry_name":"GEOM","properties":{"INSPIRE_ID":"https://databrussels.be/id/building/21533","BLOCK_ID":null,"AREA":9},"bbox":[146798.985,163462.823,146803.165,163467.126]},{"type":"Feature","id":"Buildings.fid-6d0a8ac7_1a02c00b059_3c1a","geometry":{"type":"Polygon","coordinates":[[[146854.8,163383.29],[146859.56,163381.28],[146859.58000004,163381.33999981],[146862.51,163389.18],[146862.85,163390.11],[146862.82,163390.15],[146861.34,163390.77],[146862.43,163393.4],[146863.68,163392.03],[146865.75,163393.93],[146865.8,163393.98],[146861.1,163399.12],[146857.8,163391.18],[146854.8,163383.29]]]},"geometry_name":"GEOM","properties":{"INSPIRE_ID":"https://databrussels.be/id/building/21584","BLOCK_ID":null,"AREA":79},"bbox":[146854.8,163381.28,146865.8,163399.12]},{"type":"Feature","id":"Buildings.fid-6d0a8ac7_1a02c00b059_3c11","geometry":{"type":"Polygon","coordinates":[[[146884.36,163371.42],[146896.89,163366.55],[146902.66,163380.76],[146899.67,163382.02],[146901.23,163386.19],[146893.62,163389.4],[146893.91,163390.17],[146892.67,163390.85],[146892.63,163390.87],[146889.48,163383.39],[146888.91,163382.314],[146884.36,163371.42]]]},"geometry_name":"GEOM","properties":{"INSPIRE_ID":"https://databrussels.be/id/building/234551","BLOCK_ID":null,"AREA":252},"bbox":[146884.36,163366.55,146902.66,163390.87]},{"type":"Feature","id":"Buildings.fid-6d0a8ac7_1a02c00b059_3c17","geometry":{"type":"Polygon","coordinates":[[[146869.395,163374.877],[146873.298,163373.2],[146878.52,163385.28],[146874.775,163386.856],[146869.395,163374.877]]]},"geometry_name":"GEOM","properties":{"INSPIRE_ID":"https://databrussels.be/id/building/234557","BLOCK_ID":null,"AREA":55},"bbox":[146869.395,163373.2,146878.52,163386.856]},{"type":"Feature","id":"Buildings.fid-6d0a8ac7_1a02c00b059_3c14","geometry":{"type":"Polygon","coordinates":[[[146887.54,163384.12],[146886.126,163380.75],[146881.921,163382.613],[146877.213,163371.517],[146883.077,163368.997],[146884.36,163371.42],[146888.91,163382.314],[146889.48,163383.39],[146887.54,163384.12]]]},"geometry_name":"GEOM","properties":{"INSPIRE_ID":"https://databrussels.be/id/building/234558","BLOCK_ID":null,"AREA":86},"bbox":[146877.213,163368.997,146889.48,163384.12]},{"type":"Feature","id":"Buildings.fid-6d0a8ac7_1a02c00b059_3c15","geometry":{"type":"Polygon","coordinates":[[[146873.298,163373.2],[146877.213,163371.517],[146881.921,163382.613],[146882.43,163383.82],[146882.37,163383.84],[146878.52,163385.28],[146873.298,163373.2]]]},"geometry_name":"GEOM","properties":{"INSPIRE_ID":"https://databrussels.be/id/building/234559","BLOCK_ID":null,"AREA":56},"bbox":[146873.298,163371.517,146882.43,163385.28]},{"type":"Feature","id":"Buildings.fid-6d0a8ac7_1a02c00b059_3c18","geometry":{"type":"Polygon","coordinates":[[[146865.22,163381.43],[146867.38,163380.55],[146867.42,163380.54],[146865.508,163376.548],[146869.395,163374.877],[146874.775,163386.856],[146875.61,163388.84],[146875.62,163388.87],[146870.22,163391.85],[146865.22,163381.43]]]},"geometry_name":"GEOM","properties":{"INSPIRE_ID":"https://databrussels.be/id/building/238282","BLOCK_ID":null,"AREA":90},"bbox":[146865.22,163374.877,146875.62,163391.85]},{"type":"Feature","id":"Buildings.fid-6d0a8ac7_1a02c00b059_3c2e","geometry":{"type":"Polygon","coordinates":[[[146930.132,163302.615],[146929.833,163304.05],[146928.321,163303.737],[146928.619,163302.301],[146930.132,163302.615]]]},"geometry_name":"GEOM","properties":{"INSPIRE_ID":"https://databrussels.be/id/building/238744","BLOCK_ID":null,"AREA":2},"bbox":[146928.321,163302.301,146930.132,163304.05]},{"type":"Feature","id":"Buildings.fid-6d0a8ac7_1a02c00b059_3bef","geometry":{"type":"Polygon","coordinates":[[[146754.207,163492.998],[146756.42,163496.43],[146749.579,163500.874],[146747.342,163497.333],[146754.207,163492.998]]]},"geometry_name":"GEOM","properties":{"INSPIRE_ID":"https://databrussels.be/id/building/246931","BLOCK_ID":null,"AREA":34},"bbox":[146747.342,163492.998,146756.42,163500.874]},{"type":"Feature","id":"Buildings.fid-6d0a8ac7_1a02c00b059_3c23","geometry":{"type":"Polygon","coordinates":[[[146975.8352,163256.1009],[146972.6186,163258.0109],[146966.7267,163261.8762],[146966.8103,163262.2066],[146966.6743,163262.248],[146965.715,163262.54],[146963.1352,163263.3253],[146961.6327,163263.7827],[146957.5125,163264.8046],[146956.85,163262.1837],[146955.9985,163258.815],[146955.143,163255.4301],[146954.908,163254.5006],[146954.652,163250.763],[146957.0489,163250.1438],[146959.8208,163249.4277],[146959.835,163249.424],[146960.657,163249.212],[146960.729,163251.127],[146963.7924,163250.9807],[146965.294,163250.909],[146966.068,163250.743],[146970.403,163249.818],[146970.866,163250.834],[146973.7556,163247.9128],[146975.8352,163256.1009]]]},"geometry_name":"GEOM","properties":{"INSPIRE_ID":"https://databrussels.be/id/building/781337","BLOCK_ID":null,"AREA":223},"bbox":[146954.652,163247.9128,146975.8352,163264.8046]}],"numberReturned":63,"grand_bruxelles_source":{"authority":"Paradigm / Brussels-Capital Region","service":"https://geoservices-urbis.irisnet.be/geoserver/urbisvector/wfs","layer":"urbisvector:Buildings","crs":"EPSG:31370","bbox":[146500.0,163000.0,147000.0,163500.0],"cell_id":"bxl-e146500-n163000-s500","ownership":"polygon_or_multipolygon_centroid_global_500m_cell"}}
