{"type":"FeatureCollection","totalFeatures":37,"numberMatched":37,"timeStamp":"2026-08-23T04:54:20.062Z","crs":{"type":"name","properties":{"name":"urn:ogc:def:crs:EPSG::31370"}},"bbox":[149190.36541806,173431.51138643,150278.22747276,174427.30849765],"features":[{"type":"Feature","id":"TramNetwork.fid--578fcb21_1a02c23451d_-3135","geometry":{"type":"LineString","coordinates":[[149371.92400839,173658.93621289],[149366.212,173671.075],[149362.549,173678.658],[149357.078,173690.105],[149353.489,173697.612],[149349.655,173705.916],[149346.712,173712.306],[149339.861,173727.489],[149324.933,173760.707],[149314.562,173783.509],[149310.817,173791.843],[149304.882,173804.965],[149297.774,173820.663],[149289.176,173839.713],[149282.33,173854.823],[149276.555,173867.558],[149271.728,173878.418],[149265.095,173893.002],[149259.372,173905.521],[149254.794,173915.688],[149254.7941,173915.6881],[149244.7841,173937.8121],[149236.3541,173956.5271],[149233.9495,173961.9069],[149233.1869,173963.7025],[149230.2301,173970.245],[149229.7202,173971.369],[149228.042,173975.0685],[149227.4412,173976.4871],[149225.1254,173981.9546],[149223.1403,173986.7747],[149220.7298,173992.1362],[149219.4417,173994.9531],[149218.3733,173997.0448],[149217.1532,173999.0444],[149215.9587,174000.5791],[149214.2995,174002.2673],[149212.883,174003.5349],[149211.4585,174004.6078],[149209.806,174005.6875],[149207.9042,174006.5793],[149206.92366024,174006.97297995]]},"geometry_name":"GEOM","properties":{"INSPIRE_ID":"https://databrussels.be/id/rail/22929","TYPE":"TW","LVL":0,"SLOPE":null,"LENGTH":386.830162368001},"bbox":[149206.92366024,173658.93621289,149371.92400839,174006.97297995]},{"type":"Feature","id":"TramNetwork.fid--578fcb21_1a02c23451d_-3134","geometry":{"type":"LineString","coordinates":[[149370.728782,173658.0001619],[149364.876,173670.438],[149361.215,173678.017],[149355.743,173689.467],[149352.149,173696.983],[149348.311,173705.296],[149345.365,173711.692],[149338.512,173726.881],[149323.584,173760.097],[149313.2121,173782.9031],[149309.4681,173791.2351],[149303.5341,173804.3551],[149296.4251,173820.0531],[149287.8271,173839.1031],[149280.9821,173854.2121],[149275.2051,173866.9521],[149270.3781,173877.8111],[149263.7481,173892.3881],[149258.0241,173904.9101],[149253.4461,173915.0781],[149243.4351,173937.2031],[149235.0041,173955.9211],[149232.6018,173961.2956],[149231.8313,173963.1084],[149228.8819,173969.6346],[149228.3718,173970.759],[149226.6865,173974.4741],[149226.0813,173975.903],[149223.7597,173981.3841],[149221.7807,173986.1893],[149219.3819,173991.525],[149218.1091,173994.3085],[149217.0807,173996.3217],[149215.9336,173998.2018],[149214.8433,173999.6026],[149213.2772,174001.1961],[149211.9426,174002.3903],[149210.6076,174003.3959],[149209.0835,174004.3917],[149207.77161385,174005.00686904]]},"geometry_name":"GEOM","properties":{"INSPIRE_ID":"https://databrussels.be/id/rail/22930","TYPE":"TW","LVL":0,"SLOPE":null,"LENGTH":384.538145974933},"bbox":[149207.77161385,173658.0001619,149370.728782,174005.00686904]},{"type":"Feature","id":"TramNetwork.fid--578fcb21_1a02c23451d_-3133","geometry":{"type":"LineString","coordinates":[[149369.65384628,173657.15831751],[149365.4201,173666.2031],[149360.9221,173675.6161],[149356.9541,173684.0131],[149352.7651,173692.9731],[149347.6311,173704.1121],[149343.5761,173713.2631],[149340.5721,173719.6301],[149337.0721,173727.6821],[149332.9591,173736.7341],[149329.2421,173745.0491],[149324.2181,173756.1741],[149320.1511,173765.2281],[149316.3391,173773.4701],[149313.0751,173780.6691],[149312.1081,173782.7421],[149312.108,173782.742],[149301.034,173807.372],[149297.715,173814.516],[149284.784,173843.249],[149276.934,173860.712],[149270.135,173875.623],[149263.742,173889.816],[149258.988,173900.267],[149258.9881,173900.2671],[149253.8571,173911.5571],[149243.0761,173935.3321],[149232.8321,173958.0181],[149231.5573,173960.8328],[149228.9329,173966.779],[149226.938,173971.1649],[149223.7006,173978.4002],[149221.9266,173982.3077],[149220.1301,173986.2502],[149219.1397,173988.4867],[149217.7798,173991.4284],[149216.8514,173993.2849],[149216.0618,173994.6774],[149215.3939,173995.7234],[149214.5986,173996.9407],[149213.6176,173998.1169],[149212.2554,173999.5368],[149211.1837,174000.4604],[149209.6871,174001.6235],[149209.07572901,174001.98307738]]},"geometry_name":"GEOM","properties":{"INSPIRE_ID":"https://databrussels.be/id/rail/22931","TYPE":"TW","LVL":0,"SLOPE":null,"LENGTH":381.05390429335},"bbox":[149209.07572901,173657.15831751,149369.65384628,174001.98307738]},{"type":"Feature","id":"TramNetwork.fid--578fcb21_1a02c23451d_-3132","geometry":{"type":"LineString","coordinates":[[149368.45824168,173656.22197033],[149364.082,173665.57],[149359.585,173674.981],[149355.615,173683.383],[149351.423,173692.35],[149346.282,173703.502],[149342.23,173712.647],[149339.224,173719.019],[149335.72,173727.081],[149331.61,173736.126],[149327.892,173744.442],[149322.869,173755.566],[149318.804,173764.614],[149314.993,173772.854],[149311.73,173780.051],[149310.758,173782.135],[149299.688,173806.757],[149296.369,173813.9],[149283.434,173842.642],[149275.586,173860.102],[149268.787,173875.012],[149262.394,173889.206],[149257.641,173899.654],[149257.6411,173899.6541],[149252.5091,173910.9451],[149241.7281,173934.7221],[149231.4831,173957.4081],[149230.1672,173960.3136],[149227.5822,173966.174],[149225.5889,173970.5563],[149222.3513,173977.7921],[149220.5794,173981.6949],[149218.78,173985.6437],[149217.7912,173987.8765],[149216.4459,173990.7868],[149215.545,173992.5885],[149214.7935,173993.9137],[149214.1507,173994.9204],[149213.4068,173996.059],[149212.514,173997.1294],[149211.236,173998.4615],[149210.21605447,173999.33799651]]},"geometry_name":"GEOM","properties":{"INSPIRE_ID":"https://databrussels.be/id/rail/22932","TYPE":"TW","LVL":0,"SLOPE":null,"LENGTH":378.165991168962},"bbox":[149210.21605447,173656.22197033,149368.45824168,173999.33799651]},{"type":"Feature","id":"TramNetwork.fid--578fcb21_1a02c23451d_-3148","geometry":{"type":"LineString","coordinates":[[149459.74486644,173431.51138643],[149458.3407,173436.09644242],[149457.6916,173438.36934242],[149457.06006291,173441.04863248],[149456.593,173443.03014242],[149455.709,173446.70954242],[149455.2573,173448.22224242],[149453.8056,173452.16644242],[149451.7487,173457.47234242],[149448.7359,173465.75954242],[149447.0721,173471.56884242],[149445.532,173478.13574242],[149444.3006,173484.88924242],[149443.3861,173492.36904242],[149443.0068,173497.97944242],[149442.9074,173504.56604242],[149443.2298,173511.79414242],[149443.7624,173517.92504242],[149444.9464,173525.60434242],[149446.02072321,173530.97555064],[149447.85042192,173537.80468166],[149449.691233,173544.629782],[149452.35939734,173554.75187507],[149455.19398,173564.828631],[149457.76039954,173572.72411785],[149460.550096,173580.543505],[149463.204007,173587.46799112],[149466.045412,173594.317675],[149470.67322959,173604.42076147],[149475.458544,173614.450209],[149480.30384614,173624.71484977],[149485.172416,173634.968475],[149490.80391008,173646.81748777],[149496.501528,173658.634847],[149502.88340628,173671.52662662],[149509.390006,173684.35591],[149517.68686535,173700.29135674],[149526.149539,173716.139369],[149531.06849009,173725.10074853],[149536.063416,173734.020004],[149542.84829175,173746.00618933],[149549.732489,173757.935607],[149556.73404477,173769.73803504],[149563.830875,173781.483421],[149566.37968091,173785.65408979],[149568.953847,173789.809154],[149575.40083562,173800.05674883],[149581.894486,173810.274839],[149584.62829461,173814.55560206],[149587.374993,173818.828106],[149589.37866606,173821.92560855],[149591.388394,173825.019186],[149593.40042547,173828.11125387],[149595.411022,173831.204255],[149597.14670924,173833.88600219],[149598.879365,173836.569709],[149600.61732406,173839.25005591],[149602.368818,173841.921578],[149607.56013769,173849.74727219],[149612.843467,173857.511145],[149619.79205011,173867.28368638],[149626.836728,173876.987185],[149627.97789639,173878.55137159],[149629.124963,173880.111238],[149630.27034155,173881.67238326],[149631.406386,173883.240334],[149641.37148831,173897.21205126],[149651.188723,173911.288061],[149658.63059444,173922.28669475],[149665.940949,173933.373178],[149669.06477401,173938.22077366],[149672.151502,173943.092075],[149675.22845287,173947.96932592],[149678.323263,173952.835264],[149686.3671439,173965.44750349],[149694.544309,173977.973739],[149700.20611161,173986.24373504],[149706.011222,173994.413774],[149710.13139969,174000.004],[149712.54237296,174003.27519033],[149719.207683,174012.036142],[149723.66622611,174017.74278832],[149728.201083,174023.388981],[149733.62006841,174029.96326671],[149739.132897,174036.459062],[149746.68824982,174045.08277826],[149754.379399,174053.585605],[149761.19986912,174060.87318055],[149768.131336,174068.055265],[149773.80294848,174073.77411592],[149779.559791,174079.407162],[149788.16637392,174087.57865726],[149796.9141,174095.598875],[149806.14926635,174103.72330864],[149815.532251,174111.676567],[149823.64106633,174118.30776361],[149831.858523,174124.803844],[149839.52185614,174130.67539273],[149847.274467,174136.428547],[149857.1809792,174143.52789971],[149867.172414,174150.507228],[149873.22017732,174154.65252482],[149879.292917,174158.761145],[149884.51415468,174162.27894485],[149889.743799,174165.784235],[149894.9739058,174169.28882464],[149900.196543,174172.804536],[149907.8559892,174177.98353732],[149915.492188,174183.196755],[149922.23475158,174187.88777321],[149928.96226,174192.600357],[149933.42346864,174195.71944426],[149937.883061,174198.840842],[149942.34524664,174201.95856367],[149946.814181,174205.066604],[149953.98824781,174210.02647009],[149961.182639,174214.956809],[149970.85392182,174221.49902492],[149980.545999,174228.010395],[149985.17218561,174231.11429],[149989.80148,174234.213548],[149994.43186315,174237.31117164],[149999.061323,174240.410175],[150000,174241.03895436],[150005.72590144,174244.87448952],[150012.38931,174249.34055],[150016.1474859,174251.86243641],[150019.904789,174254.385623],[150023.6622151,174256.90862801],[150027.420756,174259.429972],[150037.73405829,174266.33909893],[150048.051518,174273.242016],[150051.55878277,174275.58424595],[150055.067485,174277.924322],[150058.57562023,174280.26525224],[150062.081183,174282.610033],[150064.26764431,174284.07776755],[150066.452381,174285.548068],[150068.63694639,174287.01862144],[150070.822899,174288.487112],[150075.04159576,174291.31320034],[150079.262473,174294.136031],[150083.48387643,174296.95807177],[150087.704162,174299.781784],[150091.92420248,174302.60916171],[150096.143321,174305.437915],[150100.36263068,174308.26638359],[150104.42212477,174310.96181776],[150111.14693477,174315.48164383],[150119.34143089,174320.95379611],[150130.9720522,174328.75100987],[150131.27691922,174328.95539175],[150133.88865997,174330.70495401],[150134.19576711,174330.91068004],[150138.21548003,174333.60341975],[150148.77229163,174340.67551937],[150160.74080451,174348.69163862],[150170.55671017,174355.25167634],[150176.77161917,174359.397135],[150180.3016558,174361.73729218],[150180.60973716,174361.94152768],[150181.22267741,174362.34786242],[150184.33782439,174364.41943451],[150184.63634764,174364.6179524],[150185.00475156,174364.86294093],[150189.39701867,174367.72904102],[150194.63246901,174371.12481769],[150200.98240316,174375.22087362],[150206.43992338,174378.71434724],[150211.47999226,174381.89844298],[150216.12818084,174384.83586903],[150221.05641808,174387.93974572],[150226.01546733,174391.0764379],[150230.7291144,174394.05294696],[150235.57223987,174397.14148962],[150238.78742921,174399.21687515],[150241.75592379,174401.1330207],[150250.3530287,174406.76568533],[150262.20289,174414.588046],[150269.968417,174419.77101366],[150277.43078711,174424.78292137]]},"geometry_name":"GEOM","properties":{"INSPIRE_ID":"https://databrussels.be/id/rail/22963","TYPE":"TW","LVL":0,"SLOPE":null,"LENGTH":1355.01102518071},"bbox":[149442.9074,173431.51138643,150277.43078711,174424.78292137]},{"type":"Feature","id":"TramNetwork.fid--578fcb21_1a02c23451d_-3147","geometry":{"type":"LineString","coordinates":[[149461.15442593,173431.99051426],[149459.7596,173436.51764242],[149459.1242,173438.74254242],[149458.0328,173443.37284242],[149457.1386,173447.09444242],[149456.6622,173448.69004242],[149455.1901,173452.68954242],[149453.1343,173457.99274242],[149450.1445,173466.21664242],[149448.5048,173471.94174242],[149446.9814,173478.43764242],[149445.7644,173485.11194242],[149444.86,173492.50884242],[149444.486,173498.04054242],[149444.3879,173504.54424242],[149444.7069,173511.69704242],[149445.2326,173517.74804242],[149446.4051,173525.35284242],[149447.40683415,173530.6041761],[149449.23622384,173537.43215264],[149451.076413,173544.254946],[149453.73821545,173554.35427461],[149456.566062,173564.408374],[149459.11998785,173572.26504854],[149461.896093,173580.045994],[149464.5359635,173586.93402778],[149467.362341,173593.747655],[149471.98108211,173603.83021421],[149476.757,173613.839279],[149481.60091298,173624.10097519],[149486.468087,173634.351659],[149492.09611375,173646.19344103],[149497.790224,173658.003589],[149504.16592059,173670.88290135],[149510.666218,173683.699778],[149518.95616144,173699.6219443],[149527.411781,173715.456749],[149532.32488595,173724.4074275],[149537.313875,173733.316032],[149544.09286118,173745.29185669],[149550.971083,173757.210963],[149557.96673463,173769.00339248],[149565.05758,173780.738828],[149567.60182808,173784.90203883],[149570.171391,173789.049673],[149576.61490374,173799.29172388],[149583.105053,173809.504286],[149585.8365341,173813.78140405],[149588.580894,173818.05027],[149590.58398644,173821.14687248],[149592.593132,173824.239551],[149594.60458076,173827.33072001],[149596.614595,173830.422822],[149598.34874409,173833.10220733],[149600.079859,173835.783554],[149601.81627184,173838.46154324],[149603.566213,173841.130712],[149608.74811445,173848.94232761],[149614.02186,173856.692234],[149620.96230558,173866.45318794],[149627.998732,173876.14518],[149629.14082062,173877.71063854],[149630.288806,173879.271778],[149631.43510272,173880.8341968],[149632.572064,173882.403422],[149642.54592509,173896.38747593],[149652.371788,173910.475914],[149659.82324853,173921.48869615],[149667.143023,173932.589441],[149670.26840277,173937.43942185],[149673.356677,173942.313114],[149676.43516885,173947.19275916],[149679.531519,173952.061092],[149687.56712386,173964.66056426],[149695.735878,173977.174121],[149701.38356003,173985.42346689],[149707.174192,173993.573105],[149711.91400248,174000.004],[149713.69240926,174002.41691235],[149720.344519,174011.160454],[149724.79118677,174016.85189581],[149729.313965,174022.483045],[149734.71982729,174029.04144417],[149740.219306,174035.521543],[149747.75965553,174044.12815023],[149755.435532,174052.614108],[149762.24097364,174059.88559483],[149769.157167,174067.051823],[149774.81359691,174072.75538407],[149780.555029,174078.37337],[149789.1434394,174086.52767255],[149797.872696,174094.531017],[149807.08806605,174102.63800617],[149816.450937,174110.574187],[149824.54138115,174117.19032955],[149832.74022,174123.671662],[149840.38605909,174129.52980159],[149848.120972,174135.269817],[149858.01344527,174142.35904316],[149867.99072,174149.328415],[149874.03133418,174153.46878114],[149880.096895,174157.572514],[149885.31797481,174161.09020616],[149890.547461,174164.595389],[149895.77740919,174168.09987231],[149900.999888,174171.615477],[149908.66464579,174176.79808446],[149916.30614,174182.014932],[149923.05248428,174186.70856266],[149929.783765,174191.423771],[149934.24400147,174194.54218101],[149938.702622,174197.662901],[149943.16383537,174200.77994611],[149947.631796,174203.887312],[149954.80100968,174208.8438281],[149961.990534,174213.770837],[149971.6580334,174220.31048438],[149981.346319,174226.819298],[149985.97208625,174229.92291079],[149990.600961,174233.021887],[149995.23092411,174236.1192292],[149999.859964,174239.217951],[150000,174239.31175509],[150006.52485447,174243.68247448],[150013.188575,174248.148744],[150016.94669339,174250.67059192],[150020.703939,174253.19374],[150024.46130761,174255.7167065],[150028.219791,174258.238012],[150038.53237493,174265.14665771],[150048.849116,174272.049094],[150052.35667021,174274.39151754],[150055.865662,174276.731787],[150059.37408633,174279.07291108],[150062.879938,174281.417886],[150065.06653687,174282.88571247],[150067.251411,174284.356105],[150069.43611384,174285.82675051],[150071.622204,174287.295333],[150075.84067732,174290.12127175],[150080.061331,174292.943953],[150084.2825109,174295.76584382],[150088.502573,174298.589406],[150092.72253347,174301.41673022],[150096.941572,174304.24543],[150101.16080169,174307.07384507],[150105.18327759,174309.7453846],[150114.14916713,174315.75875367],[150124.04015281,174322.38336675],[150131.76320697,174327.54907351],[150132.07656269,174327.75866724],[150134.51499502,174329.38965753],[150134.69085584,174329.50749573],[150134.99598457,174329.71195182],[150144.31328146,174335.95514676],[150157.33259937,174344.66589542],[150165.64164959,174350.22844564],[150172.99433643,174355.15158392],[150179.84619036,174359.71479496],[150181.09417002,174360.53864717],[150181.40122846,174360.74135141],[150185.14175294,174363.21065394],[150185.44133627,174363.4084235],[150186.16018811,174363.88297263],[150191.90880568,174367.63334581],[150198.46884327,174371.89770054],[150204.33376687,174375.66341598],[150209.90528019,174379.21000854],[150216.12479129,174383.12473416],[150222.35532007,174387.06150077],[150228.67328698,174391.06501279],[150235.0485516,174395.11919257],[150239.54564605,174398.00788499],[150242.6939984,174400.03021778],[150251.13790029,174405.56435221],[150262.995437,174413.391762],[150270.76442383,174418.57702916],[150278.22747276,174423.58938342]]},"geometry_name":"GEOM","properties":{"INSPIRE_ID":"https://databrussels.be/id/rail/22964","TYPE":"TW","LVL":0,"SLOPE":null,"LENGTH":1353.10728086606},"bbox":[149444.3879,173431.99051426,150278.22747276,174423.58938342]},{"type":"Feature","id":"TramNetwork.fid--578fcb21_1a02c23451d_-3149","geometry":{"type":"LineString","coordinates":[[149439.0106,173475.1693],[149437.4657,173479.4985],[149436.8517,173481.7089],[149436.3409,173484.4637],[149435.8737,173487.6443],[149435.74912813,173489.74402588],[149435.7491,173489.7445],[149435.6443,173491.5115],[149435.6957,173494.0369],[149435.7611,173494.7723],[149435.79996198,173495.17360738],[149435.8,173495.174],[149436.0295,173497.5439],[149436.095,173498.0066],[149436.2575,173499.1551],[149436.7679,173501.6905],[149437.7599,173505.7523],[149439.0695,173510.7253],[149440.6194,173516.4501],[149441.0347,173517.9839],[149443.1729,173525.9429],[149444.5999,173531.3561],[149446.5782912,173538.79001333],[149448.574969,173546.220744],[149451.04088565,173555.522952],[149453.63584,173564.789992],[149456.18877975,173572.95933061],[149458.969189,173581.054077],[149461.60455584,173587.98277445],[149464.440143,173594.831968],[149469.06174419,173605.04571183],[149473.850887,173615.181977],[149478.72340822,173625.47076399],[149483.627719,173635.744436],[149489.33995286,173647.78117369],[149495.109993,173659.790308],[149501.38676885,173672.51973389],[149507.789458,173685.186295],[149516.61006845,173702.13376698],[149525.60908,173718.987187],[149529.92280394,173726.86485318],[149534.304068,173734.705157],[149541.22164082,173746.8978045],[149548.223663,173759.042151],[149551.75926293,173765.07544064],[149555.330686,173771.087594],[149559.89342744,173778.68881201],[149564.497482,173786.265078],[149567.04375319,173790.39638079],[149569.610443,173794.515029],[149571.69996665,173797.83318245],[149573.79709,173801.146538],[149577.02455703,173806.26428449],[149580.265728,173811.373363],[149583.56696178,173816.49525595],[149586.881849,173821.608323],[149593.61732173,173832.06042047],[149600.399156,173842.482496],[149606.08579538,173851.06074714],[149611.878602,173859.567665],[149618.49708614,173868.84661274],[149625.204249,173878.061664],[149626.35869771,173879.64592292],[149627.517679,173881.226869],[149628.67479766,173882.80921373],[149629.823609,173884.3976],[149639.49008076,173897.94439195],[149649.023142,173911.585396],[149656.63363385,173922.7880072],[149664.108948,173934.081269],[149667.49091063,173939.32342866],[149670.82949,173944.593324],[149674.15721673,173949.86979517],[149677.506991,173955.132297],[149685.24360016,173967.21895141],[149693.102175,173979.226663],[149698.68685097,173987.41060084],[149704.409384,173995.498744],[149707.7243555,174000.004],[149710.65800422,174003.99101422],[149717.039628,174012.383796],[149722.21352746,174019.00843095],[149727.482909,174025.557373],[149733.44691927,174032.74144037],[149739.515715,174039.837211],[149746.48799191,174047.76478005],[149753.580456,174055.585007],[149760.02373437,174062.45076372],[149766.570649,174069.217769],[149772.3084581,174074.9882864],[149778.12948,174080.674852],[149786.81706263,174088.92914195],[149795.642033,174097.036379],[149804.47308379,174104.82722399],[149813.444469,174112.456049],[149822.06083414,174119.52891388],[149830.799092,174126.45062],[149838.43860359,174132.28120884],[149846.167966,174137.992151],[149855.91067978,174144.98175684],[149865.736207,174151.854462],[149871.69717525,174155.92590478],[149877.681722,174159.96261],[149882.97842934,174163.5369968],[149888.279943,174167.104251],[149893.58100324,174170.67218494],[149898.876348,174174.248596],[149906.70268476,174179.55114123],[149914.509114,174184.882951],[149921.19606453,174189.52151666],[149927.868212,174194.18135],[149932.4557121,174197.38871391],[149937.039495,174200.601388],[149941.62536567,174203.81111641],[149946.21908,174207.009609],[149953.11113171,174211.77592908],[149960.023539,174216.51268],[149969.94305831,174223.21682037],[149979.88111,174229.893458],[149988.30101863,174235.56096294],[149996.728039,174241.217888],[150000,174243.40323825],[150004.081744,174246.122004],[150007.76087017,174248.57064385],[150011.437693,174251.022741],[150019.00632176,174256.08659704],[150026.571627,174261.155417],[150031.75659433,174264.63032388],[150036.940804,174268.106361],[150042.12498144,174271.58244595],[150047.309854,174275.057494],[150054.23580463,174279.69751051],[150061.163722,174284.33459],[150063.4066769,174285.83343292],[150065.650339,174287.331217],[150067.8939946,174288.82900935],[150070.136934,174290.327874],[150077.82298253,174295.47251817],[150085.506674,174300.620682],[150094.34094182,174306.54203256],[150103.38797839,174312.61453443],[150109.97530877,174317.02664764],[150118.64492485,174322.83944288],[150125.14761496,174327.19018678],[150129.90148406,174330.37743598],[150130.19515578,174330.57432928],[150132.80428434,174332.32362922],[150133.11394985,174332.53124561],[150133.90590415,174333.06221431],[150144.36552057,174340.06805288],[150155.67422574,174347.62755895],[150163.29582274,174352.73660107],[150169.8232475,174357.09826853],[150177.25972566,174362.05742733],[150179.2301956,174363.35783145],[150179.54061381,174363.56269076],[150182.81945635,174365.72655039],[150183.27161469,174366.02257891],[150183.57104394,174366.21861553],[150187.0401516,174368.4898438],[150192.76726058,174372.19695526],[150197.90904138,174375.49669749],[150203.16408473,174378.84916815],[150208.65028389,174382.2872609],[150213.89337901,174385.58081595],[150219.01867357,174388.75246217],[150224.02417047,174391.87625876],[150228.56983593,174394.71354059],[150233.14774294,174397.60911276],[150237.06892965,174400.10544534],[150237.897304,174400.63619552],[150240.66831402,174402.41161754],[150248.19282202,174407.29482111],[150258.76032,174414.24322],[150268.14199843,174420.48869737],[150276.54030021,174426.11557503]]},"geometry_name":"GEOM","properties":{"INSPIRE_ID":"https://databrussels.be/id/rail/22997","TYPE":"TW","LVL":0,"SLOPE":null,"LENGTH":1312.00694001567},"bbox":[149435.6443,173475.1693,150276.54030021,174426.11557503]},{"type":"Feature","id":"TramNetwork.fid--578fcb21_1a02c23451d_-314a","geometry":{"type":"LineString","coordinates":[[149437.634,173474.623],[149436.09485216,173479.07141925],[149435.45215061,173481.38540258],[149434.92492969,173484.22848017],[149434.49342082,173487.16628837],[149434.4933342,173487.1668781],[149434.44481207,173487.49722751],[149434.20842118,173491.48348286],[149434.26199195,173494.11510759],[149434.33213645,173494.90482864],[149434.33434695,173494.92765435],[149434.60415818,173497.71373781],[149434.84244942,173499.39747445],[149435.36695163,173502.00246964],[149436.36900872,173506.10520568],[149437.68306033,173511.09537652],[149439.64913699,173518.35759827],[149441.78614265,173526.31185622],[149443.212266,173531.721912],[149445.19200421,173539.1607349],[149447.189575,173546.594789],[149449.6608224,173555.91620947],[149452.261374,173565.202386],[149454.82638438,173573.41000138],[149457.61993,173581.542672],[149460.27006384,173588.51036924],[149463.121545,173595.398117],[149467.75264476,173605.63349099],[149472.551641,173615.791227],[149477.42605252,173626.08402892],[149482.332266,173636.36171],[149488.04748342,173648.4046699],[149493.820537,173660.420012],[149500.10362027,173673.16219298],[149506.512743,173685.841446],[149515.34033921,173702.80235723],[149524.346478,173719.669142],[149528.66610954,173727.55763327],[149533.053374,173735.408711],[149539.97585931,173747.61002165],[149546.982854,173759.762997],[149550.52276455,173765.80365553],[149554.098542,173771.823152],[149558.66530525,173779.43106551],[149563.273418,173787.014005],[149565.82341074,173791.15135704],[149568.393852,173795.276036],[149570.48512345,173798.59697646],[149572.584001,173801.913115],[149575.81352718,173807.03411025],[149579.056766,173812.146432],[149582.36006699,173817.27154822],[149585.67703,173822.387833],[149592.41597638,173832.84527321],[149599.201308,173843.272676],[149604.89785915,173851.8657518],[149610.700761,173860.38737],[149617.32715985,173869.67757445],[149624.042345,173878.903806],[149625.19579353,173880.4866838],[149626.353777,173882.066247],[149627.5098997,173883.64720854],[149628.657716,173885.234211],[149638.31603372,173898.76952118],[149647.841054,173912.398964],[149655.44185328,173923.58730992],[149662.907647,173934.866191],[149666.28801278,173940.10590687],[149669.625005,173945.373352],[149672.95114483,173950.64737303],[149676.299343,173955.907418],[149684.04386118,173968.00625826],[149691.910468,173980.026075],[149697.50885938,173988.23008897],[149703.245446,173996.338073],[149705.94281769,174000.004],[149709.50743344,174004.84857563],[149715.90271,174013.259377],[149721.08942036,174019.90039966],[149726.371849,174026.465542],[149732.34930608,174033.66581641],[149738.431785,174040.777595],[149745.41854233,174048.72159952],[149752.525736,174056.558039],[149758.9839292,174063.43971802],[149765.545999,174070.222417],[149771.29850956,174076.00771195],[149777.134446,174081.70884],[149785.83953278,174089.97969409],[149794.682283,174098.103199],[149803.53290856,174105.91133455],[149812.52418,174113.557091],[149821.15986296,174120.64581833],[149829.917712,174127.583048],[149837.57495992,174133.42722123],[149845.322268,174139.15147],[149855.07889291,174146.1510968],[149864.91845,174153.033656],[149870.88628954,174157.1098343],[149876.877735,174161.151235],[149882.17429091,174164.7255192],[149887.475653,174168.292671],[149892.77656166,174171.86050256],[149898.071755,174175.436811],[149905.89364959,174180.73633654],[149913.695648,174186.06511],[149920.37883838,174190.70107914],[149927.047234,174195.358304],[149931.63549441,174198.56619597],[149936.220037,174201.779399],[149940.80666652,174204.98965684],[149945.401141,174208.188677],[149952.29825225,174212.95849093],[149959.215734,174217.698714],[149969.13854222,174224.40508793],[149979.079889,174231.08395],[149987.5012935,174236.75245988],[149995.929811,174242.410388],[149999.60522043,174244.86520299],[150000,174245.12807874],[150003.284063,174247.31487],[150010.64056,174252.215973],[150018.20840509,174257.27930529],[150025.772927,174262.347601],[150030.95788333,174265.82250088],[150036.142082,174269.298531],[150041.32624894,174272.77460845],[150046.511111,174276.249649],[150053.43756606,174280.89000362],[150060.365988,174285.527421],[150062.6089384,174287.02626092],[150064.852596,174288.524042],[150067.0962481,174290.02183185],[150069.339184,174291.520694],[150077.02468494,174296.66497179],[150084.707829,174301.812769],[150093.54161076,174307.73379366],[150102.62107278,174313.8401614],[150113.95926766,174321.4339975],[150127.26777835,174330.34352684],[150129.11097903,174331.57838525],[150129.396456,174331.76964149],[150132.0047675,174333.51708843],[150132.31645078,174333.72590167],[150139.03959682,174338.23009565],[150150.76217452,174346.07019748],[150161.16427093,174353.03887343],[150169.06177712,174358.32671723],[150174.62760115,174362.03600985],[150178.43702205,174364.55747366],[150178.74857777,174364.76369305],[150179.62637973,174365.34471204],[150182.47785433,174367.21607067],[150182.77667868,174367.41218238],[150183.9730641,174368.19734322],[150189.9242026,174372.0728338],[150196.45316351,174376.27837696],[150202.79057341,174380.30148281],[150209.17101019,174384.3154464],[150214.99507252,174387.94890152],[150221.8618862,174392.21685738],[150227.30584626,174395.61957289],[150232.74704707,174399.04466631],[150236.80750913,174401.64696619],[150237.13286533,174401.85510648],[150239.72896941,174403.51591349],[150247.40985157,174408.49739438],[150257.96957,174415.440692],[150267.34769843,174421.68381764],[150275.74270468,174427.30849765]]},"geometry_name":"GEOM","properties":{"INSPIRE_ID":"https://databrussels.be/id/rail/22998","TYPE":"TW","LVL":0,"SLOPE":null,"LENGTH":1313.95961863284},"bbox":[149434.20842118,173474.623,150275.74270468,174427.30849765]},{"type":"Feature","id":"TramNetwork.fid--578fcb21_1a02c23451d_-313f","geometry":{"type":"LineString","coordinates":[[149461.15442593,173431.99051426],[149458.768,173437.094],[149457.06006291,173441.04863248],[149443.843,173471.652],[149440.726,173479.953],[149438.57,173485.359],[149436.686,173491.817],[149435.79986757,173495.17396503],[149435.486,173496.363],[149434.84244942,173499.39747445],[149434.401,173501.479],[149432.587,173511.447],[149431.603,173516.997],[149430.521,173522.298],[149429.285,173527.201],[149427.884,173532.069],[149427.007,173535.006],[149425.667,173538.93],[149423.798,173544.128],[149421.783,173548.857],[149419.997,173552.793],[149415.698,173562.446],[149411.433,173572.102],[149408.49,173578.387],[149403.61,173589.025],[149399.86805554,173597.28478646]]},"geometry_name":"GEOM","properties":{"INSPIRE_ID":"https://databrussels.be/id/rail/23027","TYPE":"TW","LVL":0,"SLOPE":null,"LENGTH":176.956091177905},"bbox":[149399.86805554,173431.99051426,149461.15442593,173597.28478646]},{"type":"Feature","id":"TramNetwork.fid--578fcb21_1a02c23451d_-3141","geometry":{"type":"LineString","coordinates":[[149439.0106,173475.1693],[149436.8351,173480.4391],[149435.2671,173484.4691],[149434.4935,173487.1663],[149434.4933342,173487.1668781],[149433.7791,173489.6571],[149432.9081,173492.8771],[149432.1311,173496.0261],[149431.4161,173499.1661],[149430.5621,173503.9201],[149429.7171,173508.7231],[149428.8571,173513.3121],[149428.0441,173519.2151],[149426.5651,173524.8951],[149425.9131,173527.7431],[149425.2381,173530.1831],[149423.9771,173534.5411],[149422.6911,173538.3641],[149421.0331,173543.0001],[149418.8941,173548.0581],[149415.9211,173555.0931],[149410.9181,173566.2371],[149404.5471,173580.1281],[149404.5441,173580.1351],[149399.5841,173591.1171],[149398.04300359,173594.5422212]]},"geometry_name":"GEOM","properties":{"INSPIRE_ID":"https://databrussels.be/id/rail/23028","TYPE":"TW","LVL":0,"SLOPE":null,"LENGTH":126.813778901806},"bbox":[149398.04300359,173475.1693,149439.0106,173594.5422212]},{"type":"Feature","id":"TramNetwork.fid--578fcb21_1a02c23451d_-3142","geometry":{"type":"LineString","coordinates":[[149397.06149173,173593.11720261],[149398.235,173590.509],[149403.199,173579.518],[149409.57,173565.626],[149414.564,173554.501],[149417.531,173547.482],[149419.653,173542.463],[149421.293,173537.879],[149422.565,173534.1],[149423.813,173529.781],[149424.478,173527.381],[149425.128,173524.543],[149426.589,173518.927],[149427.396,173513.074],[149428.261,173508.459],[149429.104,173503.661],[149429.965,173498.871],[149430.691,173495.685],[149431.475,173492.506],[149432.354,173489.26],[149433.863,173483.996],[149435.462,173479.889],[149437.634,173474.623]]},"geometry_name":"GEOM","properties":{"INSPIRE_ID":"https://databrussels.be/id/rail/23041","TYPE":"TW","LVL":0,"SLOPE":null,"LENGTH":125.850131483159},"bbox":[149397.06149173,173474.623,149437.634,173593.11720261]},{"type":"Feature","id":"TramNetwork.fid--578fcb21_1a02c23451d_-3140","geometry":{"type":"LineString","coordinates":[[149459.74486644,173431.51138643],[149457.418,173436.487],[149442.47,173471.098],[149439.346,173479.419],[149437.169,173484.876],[149435.74899848,173489.74447039],[149435.26,173491.421],[149434.33434695,173494.92765435],[149434.046,173496.02],[149432.948,173501.193],[149431.131,173511.185],[149430.149,173516.719],[149429.077,173521.969],[149427.856,173526.815],[149426.464,173531.653],[149425.597,173534.555],[149424.27,173538.441],[149422.42,173543.587],[149420.428,173548.261],[149418.647,173552.186],[149414.345,173561.846],[149410.086,173571.489],[149407.147,173577.764],[149401.975,173589.051],[149398.90539099,173595.82362315]]},"geometry_name":"GEOM","properties":{"INSPIRE_ID":"https://databrussels.be/id/rail/23042","TYPE":"TW","LVL":0,"SLOPE":null,"LENGTH":175.877246812236},"bbox":[149398.90539099,173431.51138643,149459.74486644,173595.82362315]},{"type":"Feature","id":"TramNetwork.fid--578fcb21_1a02c23451d_-313c","geometry":{"type":"LineString","coordinates":[[149210.21605447,173999.33799651],[149208.8544,174000.3963],[149207.0671,174001.4475],[149205.73,174002.1141],[149204.6112,174002.5837],[149202.9097,174003.1465],[149201.2356,174003.4736],[149199.1213,174003.7826],[149196.5111,174003.7711],[149194.6621,174003.7711],[149193.16619165,174003.6838656]]},"geometry_name":"GEOM","properties":{"INSPIRE_ID":"https://databrussels.be/id/rail/23111","TYPE":"TW","LVL":1,"SLOPE":null,"LENGTH":18.0978398351831},"bbox":[149193.16619165,173999.33799651,149210.21605447,174003.7826]},{"type":"Feature","id":"TramNetwork.fid--578fcb21_1a02c23451d_-313e","geometry":{"type":"LineString","coordinates":[[149190.36541806,174048.74570808],[149193.73862809,174046.94598992],[149194.66926168,174046.44841795],[149195.60935027,174045.94525541],[149196.54972423,174045.44139257],[149197.48108048,174044.94179106],[149198.39411615,174044.45141232],[149199.28228971,174043.97373761],[149200.15012594,174043.50631629],[149201.00491627,174043.04521466],[149201.85395162,174042.58649937],[149202.70452259,174042.12623726],[149203.56392014,174041.66049501],[149204.43943651,174041.18533864],[149205.33836668,174040.69683269],[149206.26587171,174040.19219913],[149207.21855187,174039.67330323],[149208.19086441,174039.14317256],[149209.17726535,174038.60483536],[149210.17220961,174038.06132049],[149211.17015219,174037.5156567],[149212.1655478,174036.97087295],[149213.15285106,174036.4299982],[149214.12793989,174035.89528194],[149215.09238999,174035.36585321],[149216.04920104,174034.84006121],[149217.00137266,174034.3162552],[149217.95190433,174033.79278448],[149218.90379549,174033.26799841],[149219.86004575,174032.74024625],[149220.82365466,174032.20787731],[149221.79704172,174031.66956158],[149222.78030334,174031.1252534],[149223.77295568,174030.57522788],[149224.77451475,174030.01976023],[149225.78449672,174029.45912558],[149226.80241759,174028.89359915],[149227.82779334,174028.32345613],[149228.86013965,174027.74897194],[149229.8988712,174027.17047921],[149230.94300101,174026.58853841],[149231.99144326,174026.00376605],[149233.04311197,174025.41677874],[149234.09692138,174024.82819295],[149235.15178529,174024.23862541],[149236.20661794,174023.6486926],[149237.26033352,174023.05901105],[149238.31232813,174022.46992595],[149239.36392059,174021.88070027],[149240.41690843,174021.29032741],[149241.47308927,174020.6978008],[149242.53426058,174020.1021139],[149243.60221979,174019.50226022],[149244.67876457,174018.89723312],[149245.76570056,174018.28602151],[149246.87960368,174017.65926528],[149248.09601428,174016.97427407],[149249.50517775,174016.18004532],[149251.1973516,174015.22556971],[149253.26281447,174014.05982599],[149255.79185742,174012.63178595],[149258.87477475,174010.8904195],[149262.6018696,174008.78469155],[149298.40987267,173988.54905636],[149302.70527786,173986.12232797],[149306.27975402,173984.10345978],[149309.18415931,173982.46374329],[149311.51711537,173981.14746463],[149313.37723904,173980.09891259],[149314.86315377,173979.26237213],[149316.0735157,173978.58210974],[149317.10704644,173978.00235521],[149318.06249957,173977.46732081],[149319.02151031,173976.93088868],[149319.99764365,173976.38539337],[149320.98752465,173975.83273909],[149321.98779908,173975.27481846],[149322.99511291,173974.71352396],[149324.00611188,173974.15074823],[149325.01744179,173973.58838383],[149326.02574897,173973.02832306],[149327.02842331,173972.47204122],[149328.02581151,173971.91935558],[149329.01899594,173971.36967083],[149330.00905829,173970.82239203],[149330.99708026,173970.27692425],[149331.98414339,173969.73267265],[149332.97132953,173969.18904223],[149333.9597222,173968.64543705],[149334.94932437,173968.10184679],[149335.93578741,173967.56061966],[149336.91366636,173967.0246981],[149337.87751465,173966.49702545],[149338.82188562,173965.98054507],[149339.7413326,173965.47820033],[149340.63040879,173964.99293465],[149341.48366563,173964.52769241],[149342.29779958,173964.08425182],[149343.07809765,173963.6597209],[149343.83200071,173963.25003668],[149344.56695197,173962.85113498],[149345.29039603,173962.45895087],[149346.00977727,173962.06941956],[149346.73253959,173961.67847655],[149347.4661215,173961.28206026],[149348.2173791,173960.87643475],[149348.99090457,173960.45913104],[149349.79073763,173960.02798962],[149350.62092132,173959.58084919],[149351.48549818,173959.1155487],[149352.38851025,173958.62992739],[149353.33399881,173958.12182492],[149354.32591585,173957.58912889],[149355.42825266,173956.99791013],[149356.94620183,173956.18641241],[149359.24542051,173954.96083682],[149362.69123824,173953.12756044],[149365.58601943,173951.58924225],[149375.00337848,173946.69436874]]},"geometry_name":"GEOM","properties":{"INSPIRE_ID":"https://databrussels.be/id/rail/24215","TYPE":"RW","LVL":0,"SLOPE":null,"LENGTH":210.974550578534},"bbox":[149190.36541806,173946.69436874,149375.00337848,174048.74570808]},{"type":"Feature","id":"TramNetwork.fid--578fcb21_1a02c23451d_-314b","geometry":{"type":"LineString","coordinates":[[149502.75103037,173876.87443269],[149502.35835076,173877.10882254],[149500.71045497,173878.08996879],[149499.06041106,173879.06783997],[149497.40907049,173880.04290608],[149495.75678937,173881.01593152],[149493.63063614,173882.26524383],[149491.50284349,173883.51222459],[149489.3727344,173884.75591708],[149487.23986747,173885.99522201],[149485.53493559,173886.98106063],[149483.82817881,173887.96358361],[149482.11957713,173888.94285855],[149480.40924273,173889.91887925],[149477.4327642,173891.61119961],[149474.45335037,173893.29889152],[149471.46959652,173894.97994323],[149468.48051624,173896.65210673],[149464.51396308,173898.85483784],[149460.54134632,173901.04622164],[149456.56319743,173903.22718887],[149452.57982236,173905.39879034],[149450.47635305,173906.53771062],[149448.36989463,173907.67021442],[149446.26230453,173908.79871268],[149444.15465022,173909.92603822],[149442.04050493,173911.05595184],[149439.9251722,173912.18422793],[149437.80842609,173913.31025673],[149435.69024663,173914.43331743],[149428.09651476,173918.45230305]]},"geometry_name":"GEOM","properties":{"INSPIRE_ID":"https://databrussels.be/id/rail/24399","TYPE":"RW","LVL":0,"SLOPE":null,"LENGTH":85.4629506917648},"bbox":[149428.09651476,173876.87443269,149502.75103037,173918.45230305]},{"type":"Feature","id":"TramNetwork.fid--578fcb21_1a02c23451d_-314d","geometry":{"type":"LineString","coordinates":[[149500.94928343,173873.88281894],[149500.42374092,173874.19601464],[149498.8261007,173875.14534019],[149497.22626637,173876.09109808],[149495.62551735,173877.03420008],[149494.02445772,173877.97595656],[149491.83804809,173879.26099283],[149489.65040018,173880.54478528],[149487.46022822,173881.82552903],[149485.26665763,173883.10117609],[149483.51739908,173884.11247525],[149481.76614085,173885.11980733],[149480.01321542,173886.1237494],[149478.25901305,173887.12484572],[149475.36725804,173888.77117641],[149472.47311697,173890.41436415],[149469.57421746,173892.05100516],[149466.66891893,173893.6772819],[149462.70879654,173895.87441402],[149458.74175971,173898.05844561],[149454.76835946,173900.23046181],[149450.78887834,173902.39169618],[149448.70322509,173903.51492097],[149446.61412134,173904.63029807],[149444.52441183,173905.74151903],[149442.43565984,173906.8529584],[149440.39796632,173907.93807957],[149438.35949149,173909.02241036],[149436.32035672,173910.10564423],[149434.28059167,173911.18752586],[149427.33212765,173914.86991683]]},"geometry_name":"GEOM","properties":{"INSPIRE_ID":"https://databrussels.be/id/rail/24794","TYPE":"RW","LVL":0,"SLOPE":null,"LENGTH":84.2695544507625},"bbox":[149427.33212765,173873.88281894,149500.94928343,173914.86991683]},{"type":"Feature","id":"TramNetwork.fid--578fcb21_1a02c23451d_-314c","geometry":{"type":"LineString","coordinates":[[149502.01905848,173875.65906937],[149501.63186503,173875.89018454],[149499.98588952,173876.87018747],[149498.3380689,173877.84674106],[149496.68841962,173878.8208085],[149495.03744392,173879.79306519],[149492.91258839,173881.04161498],[149490.78649518,173882.28759979],[149488.65866788,173883.52996002],[149486.52838517,173884.76776339],[149484.82593111,173885.75216927],[149483.12152168,173886.73334096],[149481.41523904,173887.71128676],[149479.70703268,173888.68609307],[149476.73251601,173890.37729798],[149473.75551577,173892.06362271],[149470.77505973,173893.74281643],[149467.78978736,173895.4128497],[149463.8269316,173897.61352754],[149459.85769064,173899.80304918],[149455.88262912,173901.9823238],[149451.9025142,173904.15214795],[149449.80267844,173905.28910084],[149447.69912799,173906.42004121],[149445.5928794,173907.54782117],[149443.48570688,173908.67488901],[149441.37228795,173909.80441443],[149439.25816966,173910.93204276],[149437.14297559,173912.05724593],[149435.0261223,173913.1796035],[149427.78877717,173917.00997129]]},"geometry_name":"GEOM","properties":{"INSPIRE_ID":"https://databrussels.be/id/rail/24906","TYPE":"RW","LVL":0,"SLOPE":null,"LENGTH":84.981782623367},"bbox":[149427.78877717,173875.65906937,149502.01905848,173917.00997129]},{"type":"Feature","id":"TramNetwork.fid--578fcb21_1a02c23451d_-314e","geometry":{"type":"LineString","coordinates":[[149500.22765336,173872.68462712],[149499.70847059,173872.99403276],[149498.11295885,173873.94209355],[149496.51537278,173874.88652236],[149494.91594342,173875.82884687],[149493.3155217,173876.77022813],[149491.12972681,173878.05490309],[149488.94341184,173879.33791332],[149486.75562444,173880.61726266],[149484.56505311,173881.89116553],[149482.81866837,173882.90080325],[149481.06987235,173883.90671906],[149479.31901211,173884.90947834],[149477.56636932,173885.90968463],[149474.67595521,173887.55525192],[149471.78399823,173889.19719962],[149468.88879625,173890.8317531],[149465.98803258,173892.4554914],[149462.03221907,173894.65023289],[149458.06902509,173896.83214882],[149454.09914435,173899.00224112],[149450.12350471,173901.1613892],[149448.04223916,173902.28225101],[149445.95639159,173903.39588962],[149443.86754545,173904.50665148],[149441.77842497,173905.61828692],[149439.74081545,173906.70336336],[149437.70296723,173907.78736084],[149435.66457288,173908.87020137],[149433.62541762,173909.95175958],[149427.02862153,173913.44778147]]},"geometry_name":"GEOM","properties":{"INSPIRE_ID":"https://databrussels.be/id/rail/24988","TYPE":"RW","LVL":0,"SLOPE":null,"LENGTH":83.7952026641214},"bbox":[149427.02862153,173872.68462712,149500.22765336,173913.44778147]},{"type":"Feature","id":"TramNetwork.fid--578fcb21_1a02c23451d_-3137","geometry":{"type":"LineString","coordinates":[[149203.6507,174019.4036],[149220.2293,174011.0078],[149232.4341,174004.8127],[149257.723,173992.2108],[149277.597,173982.1659],[149303.6015,173969.6249],[149323.5197,173960.7385],[149343.4817,173952.0836],[149361.5913,173944.6472],[149381.3853,173936.6688],[149391.55292912,173932.25063321]]},"geometry_name":"GEOM","properties":{"INSPIRE_ID":"https://databrussels.be/id/rail/25059","TYPE":"RW","LVL":0,"SLOPE":null,"LENGTH":207.236693065042},"bbox":[149203.6507,173932.25063321,149391.55292912,174019.4036]},{"type":"Feature","id":"TramNetwork.fid--578fcb21_1a02c23451d_-312e","geometry":{"type":"LineString","coordinates":[[149411.30564458,173923.36026062],[149410.68192824,173923.69051411],[149404.74760791,173926.82766882],[149392.20891679,173933.48596776]]},"geometry_name":"GEOM","properties":{"INSPIRE_ID":"https://databrussels.be/id/rail/25252","TYPE":"RW","LVL":0,"SLOPE":null,"LENGTH":21.6151636882806},"bbox":[149392.20891679,173923.36026062,149411.30564458,173933.48596776]},{"type":"Feature","id":"TramNetwork.fid--578fcb21_1a02c23451d_-312f","geometry":{"type":"LineString","coordinates":[[149410.89152655,173921.99685664],[149410.02782261,173922.45418191],[149404.0927653,173925.59172622],[149391.55292912,173932.25063321]]},"geometry_name":"GEOM","properties":{"INSPIRE_ID":"https://databrussels.be/id/rail/25253","TYPE":"RW","LVL":0,"SLOPE":null,"LENGTH":21.8888472642676},"bbox":[149391.55292912,173921.99685664,149410.89152655,173932.25063321]},{"type":"Feature","id":"TramNetwork.fid--578fcb21_1a02c23451d_-313d","geometry":{"type":"LineString","coordinates":[[149191.3258367,174046.63038652],[149193.07237583,174045.69855062],[149194.00218667,174045.20141854],[149194.94171718,174044.69855471],[149195.88151259,174044.19500187],[149196.81225192,174043.69573128],[149197.72461398,174043.20571432],[149198.61205367,174042.72843431],[149199.47911033,174042.26143286],[149200.33309424,174041.80076624],[149201.1813163,174041.34249036],[149202.0310877,174040.88266091],[149202.88971912,174040.41733386],[149203.76452017,174039.9425657],[149204.66279766,174039.45441444],[149205.58970876,174038.95010403],[149206.54183802,174038.43150818],[149207.51362924,174037.90166174],[149208.49952794,174037.36359865],[149209.4939801,174036.8203526],[149210.4914321,174036.27495706],[149211.48633057,174035.7304454],[149212.4731219,174035.1898511],[149213.44768011,174034.65542582],[149214.41158319,174034.12629737],[149215.36783558,174033.60081237],[149216.31944213,174033.07731721],[149217.26940747,174032.55415837],[149218.22073639,174032.02968228],[149219.17643371,174031.50223529],[149220.13950393,174030.97016396],[149221.11236972,174030.43213651],[149222.09512778,174029.88810708],[149223.08729332,174029.33835129],[149224.0883809,174028.78314514],[149225.09790587,174028.22276417],[149226.11538288,174027.65748432],[149227.14032724,174027.08758118],[149228.17225415,174026.51333037],[149229.21057962,174025.9350638],[149230.25431762,174025.35334137],[149231.30238156,174024.76878002],[149232.35368406,174024.1819971],[149233.40713791,174023.5936099],[149234.46165617,174023.00423555],[149235.51615148,174022.41449142],[149236.5695368,174021.82499467],[149237.6212044,174021.2360927],[149238.67247057,174020.64704983],[149239.72513418,174020.05685877],[149240.78099416,174019.46451216],[149241.84184965,174018.86900254],[149242.9094996,174018.26932257],[149243.98574309,174017.6644648],[149245.07237083,174017.05342652],[149246.18589968,174016.42688088],[149247.40186555,174015.74214011],[149248.8105954,174014.94815576],[149250.50240402,174013.99388615],[149252.56758527,174012.82830139],[149255.09642025,174011.40037878],[149258.17918746,174009.65909712],[149261.9061553,174007.55344093],[149297.71416693,173987.3178009],[149302.00971911,173984.89098947],[149305.58438072,173982.87201654],[149308.48906191,173981.23214428],[149310.82242044,173979.91563855],[149312.6831193,173978.86676227],[149314.16981453,173978.0297824],[149315.38112966,173977.34898428],[149316.41562307,173976.76868975],[149317.37182095,173976.23323831],[149318.3313707,173975.69650467],[149319.30800091,173975.1507317],[149320.2983832,173974.59779754],[149321.29916862,173974.03959189],[149322.30700765,173973.47800475],[149323.3185514,173972.91492576],[149324.33045081,173972.35224469],[149325.33935614,173971.79185167],[149326.34265157,173971.23522525],[149327.3406744,173970.68218795],[149328.33450337,173970.13214647],[149329.32521812,173969.58450704],[149330.3138982,173969.03867593],[149331.30162319,173968.49405939],[149332.28947266,173967.95006368],[149333.27852417,173967.40609615],[149334.26876188,173966.86215679],[149335.25582378,173966.32060109],[149336.23427019,173965.78436854],[149337.19866274,173965.25639792],[149338.1435634,173964.73962786],[149339.06353387,173964.23699711],[149339.95313635,173963.75144417],[149340.80693448,173963.28590679],[149341.62163939,173962.84215521],[149342.40254139,173962.41729571],[149343.15706943,173962.00727187],[149343.89264992,173961.60802865],[149344.61670806,173961.21551164],[149345.33666915,173960.82566635],[149346.05995907,173960.43443797],[149346.79400919,173960.03776866],[149347.54570124,173959.63190858],[149348.31965539,173959.21437361],[149349.11991218,173958.78300378],[149349.95050916,173958.33564074],[149350.81548424,173957.87012594],[149351.71887602,173957.38430043],[149352.66472352,173956.87600507],[149353.65715527,173956.34303261],[149354.76067123,173955.75118144],[149356.28021693,173954.93883022],[149357.5136712,173954.28134972],[149374.37952025,173945.42842067]]},"geometry_name":"GEOM","properties":{"INSPIRE_ID":"https://databrussels.be/id/rail/27580","TYPE":"RW","LVL":0,"SLOPE":null,"LENGTH":209.176763204205},"bbox":[149191.3258367,173945.42842067,149374.37952025,174046.63038652]},{"type":"Feature","id":"TramNetwork.fid--578fcb21_1a02c23451d_-313a","geometry":{"type":"LineString","coordinates":[[149391.55292912,173932.25063321],[149374.43827037,173941.33886364],[149362.13109681,173947.87501868],[149349.48553154,173954.67869686],[149341.52595172,173958.84423578],[149332.26248685,173963.69214537],[149270.84744475,173996.30211466],[149265.36358352,173999.21307706],[149263.16030665,174000.38200052],[149262.61987764,174000.66801468],[149262.39192757,174000.78825166],[149262.19928249,174000.88988303],[149262.0334917,174000.97736833],[149261.88566408,174001.05539937],[149261.7469154,174001.12866438],[149261.60836501,174001.20184963],[149261.46112912,174001.2796431],[149260.41987834,174001.82988399],[149260.16392208,174001.96511706],[149259.90104296,174002.10398826],[149259.63517099,174002.24441573],[149259.37022489,174002.38432359],[149259.10835599,174002.52256753],[149258.84461827,174002.6617443],[149258.57228217,174002.80539076],[149258.28461428,174002.95704578],[149257.97488401,174003.12024675],[149257.63636199,174003.2985304],[149257.26232259,174003.49543149],[149256.84604275,174003.71448341],[149256.38223732,174003.95846087],[149255.87133968,174004.22712116],[149255.31520824,174004.51946963],[149254.71569994,174004.83451242],[149254.0746721,174005.17125547],[149253.39398114,174005.52870518],[149252.67548445,174005.90586747],[149251.92103709,174006.30174944],[149251.13390889,174006.71461999],[149250.32304178,174007.13978817],[149249.49880103,174007.57182035],[149248.67155252,174008.00528254],[149247.85166288,174008.43474038],[149247.04949829,174008.85475974],[149246.27542641,174009.25990571],[149245.53981756,174009.64474201],[149244.84884593,174010.00602402],[149244.1918833,174010.34928308],[149243.55409004,174010.68225016],[149242.92062079,174011.01265921],[149242.2766278,174011.34824542],[149241.60726522,174011.69674294],[149240.89769043,174012.06588421],[149240.13306844,174012.46339771],[149239.30339984,174012.89449484],[149238.41799243,174013.3543369],[149237.49097428,174013.83557608],[149236.53647095,174014.33086591],[149235.56860799,174014.83285988],[149234.60150988,174015.33421207],[149233.64930388,174015.82757514],[149232.72611749,174016.30560159],[149231.84214945,174016.76297885],[149230.99188261,174017.20253419],[149230.16586897,174017.62913086],[149229.35465809,174018.04763333],[149228.5487976,174018.4629071],[149227.7388344,174018.87981796],[149226.91531577,174019.30323154],[149226.06879131,174019.73801221],[149225.19111399,174020.18835126],[149224.27932208,174020.65576194],[149223.33174647,174021.14108996],[149222.34671704,174021.64518151],[149221.32256368,174022.16888281],[149220.25761644,174022.71303997],[149219.1502052,174023.27849921],[149217.99865923,174023.86610705],[149216.80371522,174024.47548653],[149215.57575122,174025.10136081],[149214.32755973,174025.73722598],[149213.07193295,174026.3765783],[149211.82166329,174027.01291393],[149210.58954231,174027.63972943],[149209.38836246,174028.25052096],[149208.23091692,174028.83878429],[149207.12546619,174029.40031572],[149206.06212955,174029.94011905],[149205.02648555,174030.46550271],[149204.00411099,174030.98377599],[149202.98077196,174031.5021523],[149196.76902685,174034.64176305]]},"geometry_name":"GEOM","properties":{"INSPIRE_ID":"https://databrussels.be/id/rail/27622","TYPE":"RW","LVL":0,"SLOPE":null,"LENGTH":220.061251200586},"bbox":[149196.76902685,173932.25063321,149391.55292912,174034.64176305]},{"type":"Feature","id":"TramNetwork.fid--578fcb21_1a02c23451d_-313b","geometry":{"type":"LineString","coordinates":[[149392.20891679,173933.48596776],[149374.96711449,173942.70627556],[149362.66265412,173949.21184148],[149351.93251669,173954.89598622],[149341.8918328,173960.21490231],[149332.90791422,173964.91651512],[149271.49645264,173997.52458324],[149266.01238325,174000.43565614],[149263.80834831,174001.60498178],[149263.26645311,174001.89177189],[149263.03770048,174002.01243221],[149262.8451577,174002.11400961],[149262.67950767,174002.20142062],[149262.53185048,174002.2793617],[149262.39327856,174002.35253337],[149262.25488077,174002.42563802],[149262.10775065,174002.50337561],[149261.06649285,174003.05362021],[149260.81045336,174003.18889725],[149260.54749506,174003.32781028],[149260.28152288,174003.46829068],[149260.01645039,174003.60826528],[149259.7544127,174003.74659833],[149259.49045847,174003.88588935],[149259.21787258,174004.02966756],[149258.92994287,174004.18146061],[149258.61995632,174004.34479662],[149258.28119685,174004.52320533],[149257.90694641,174004.72021751],[149257.49048257,174004.93936626],[149257.02650745,174005.18343298],[149256.5154409,174005.45218208],[149255.9591379,174005.74462074],[149255.35945471,174006.05975544],[149254.71824687,174006.39659305],[149254.03737121,174006.75413976],[149253.31868386,174007.13140212],[149252.56404218,174007.52738606],[149251.77672487,174007.9403558],[149250.96567985,174008.36561727],[149250.14126738,174008.79773946],[149249.31384682,174009.2312918],[149248.49377744,174009.66084378],[149247.69141869,174010.0809648],[149246.91712829,174010.48622515],[149246.18126173,174010.87119628],[149245.48997265,174011.23264427],[149244.83262471,174011.57610465],[149244.19439398,174011.90930011],[149243.56046217,174012.23995043],[149242.91601277,174012.57577447],[149242.24622836,174012.92449161],[149241.53628722,174013.29382347],[149240.77136198,174013.69149463],[149239.94143911,174014.12272387],[149239.05580153,174014.58268547],[149238.12856164,174015.06403977],[149237.17383395,174015.55944601],[149236.20573393,174016.06156294],[149235.23837668,174016.56304948],[149234.28587579,174017.05656533],[149233.3623442,174017.53477053],[149232.47796933,174017.99235828],[149231.62723613,174018.43215471],[149230.80070643,174018.8590179],[149229.98894409,174019.27780487],[149229.18251473,174019.69337179],[149228.3719847,174020.11057442],[149227.5479202,174020.53426866],[149226.70088503,174020.96931163],[149225.82273091,174021.41989532],[149224.91048817,174021.88753711],[149223.96248522,174022.373084],[149222.97705145,174022.87738248],[149221.95251626,174023.40127903],[149220.88720886,174023.94562022],[149219.77945852,174024.51125261],[149218.62759535,174025.09902231],[149217.43236135,174025.70854967],[149216.20413507,174026.33455763],[149214.95570139,174026.97054619],[149213.69984428,174027.61001579],[149212.44934875,174028.24646637],[149211.21699956,174028.87339797],[149210.01558146,174029.48431065],[149208.85787759,174030.07270527],[149207.75213644,174030.63438423],[149206.68847354,174031.17435318],[149205.65247649,174031.69991595],[149204.62973482,174032.21837532],[149203.60565884,174032.73712495],[149195.82411104,174036.72293964]]},"geometry_name":"GEOM","properties":{"INSPIRE_ID":"https://databrussels.be/id/rail/27623","TYPE":"RW","LVL":0,"SLOPE":null,"LENGTH":221.871143434695},"bbox":[149195.82411104,173933.48596776,149392.20891679,174036.72293964]},{"type":"Feature","id":"TramNetwork.fid--578fcb21_1a02c23451d_-3136","geometry":{"type":"LineString","coordinates":[[149204.3201,174020.746],[149220.9076,174012.3456],[149233.1081,174006.1528],[149258.3958,173993.5514],[149278.2611,173983.511],[149304.233,173970.9857],[149324.1237,173962.1116],[149344.065,173953.4656],[149362.1566,173946.0366],[149381.9713,173938.0499],[149392.20891679,173933.48596776]]},"geometry_name":"GEOM","properties":{"INSPIRE_ID":"https://databrussels.be/id/rail/27624","TYPE":"RW","LVL":0,"SLOPE":null,"LENGTH":207.267524682407},"bbox":[149204.3201,173933.48596776,149392.20891679,174020.746]},{"type":"Feature","id":"TramNetwork.fid--578fcb21_1a02c23451d_-3139","geometry":{"type":"LineString","coordinates":[[149198.24467635,174031.39164579],[149209.21420116,174025.66041624],[149218.32237824,174020.81571619],[149231.86140099,174013.5735298],[149243.6814259,174007.2462953],[149251.21015857,174003.29375172],[149260.52270982,173998.33461129],[149276.54521612,173989.77675035],[149286.09839151,173984.68790337],[149294.31033364,173980.39597203],[149300.20295726,173977.39020916],[149306.33393604,173974.50569131],[149313.87916066,173971.2124386],[149322.1679345,173967.87578764],[149330.17435372,173964.80089585],[149341.8918328,173960.21490231],[149352.74758117,173956.09623263],[149357.5136712,173954.28134972],[149361.45725534,173952.77966942],[149369.28784069,173949.51098135],[149375.00337848,173946.69436874]]},"geometry_name":"GEOM","properties":{"INSPIRE_ID":"https://databrussels.be/id/rail/27625","TYPE":"RW","LVL":0,"SLOPE":null,"LENGTH":196.268522870032},"bbox":[149198.24467635,173946.69436874,149375.00337848,174031.39164579]},{"type":"Feature","id":"TramNetwork.fid--578fcb21_1a02c23451d_-3138","geometry":{"type":"LineString","coordinates":[[149199.27898136,174029.11358954],[149208.4959679,174024.29800577],[149217.597533,174019.45682268],[149231.13476345,174012.21559502],[149242.96004507,174005.88554661],[149250.49025045,174001.93222986],[149259.79796026,173996.97566761],[149275.82037964,173988.4178531],[149285.37964917,173983.32575985],[149293.60371708,173979.02749102],[149299.52504599,173976.0070859],[149305.69793461,173973.10285021],[149313.28342784,173969.79202152],[149321.6042495,173966.44246968],[149330.18769078,173963.14597067],[149341.52595172,173958.84423578],[149351.93251669,173954.89598622],[149352.24614553,173954.77699548],[149360.93417744,173951.46867345],[149368.70351356,173948.22555238],[149374.37952025,173945.42842067]]},"geometry_name":"GEOM","properties":{"INSPIRE_ID":"https://databrussels.be/id/rail/27626","TYPE":"RW","LVL":0,"SLOPE":null,"LENGTH":194.344788332713},"bbox":[149199.27898136,173945.42842067,149374.37952025,174029.11358954]},{"type":"Feature","id":"TramNetwork.fid--578fcb21_1a02c23451d_-3130","geometry":{"type":"LineString","coordinates":[[149412.34675824,173926.7857752],[149406.47017928,173929.89435314],[149395.23815198,173935.84955294],[149382.77929614,173942.65616084],[149375.00337848,173946.69436874]]},"geometry_name":"GEOM","properties":{"INSPIRE_ID":"https://databrussels.be/id/rail/27627","TYPE":"RW","LVL":0,"SLOPE":null,"LENGTH":42.3201131549422},"bbox":[149375.00337848,173926.7857752,149412.34675824,173946.69436874]},{"type":"Feature","id":"TramNetwork.fid--578fcb21_1a02c23451d_-3131","geometry":{"type":"LineString","coordinates":[[149374.37952025,173945.42842067],[149382.12727191,173941.40122623],[149394.56572745,173934.60023976],[149405.80618997,173928.64056762],[149411.92644215,173925.40309203]]},"geometry_name":"GEOM","properties":{"INSPIRE_ID":"https://databrussels.be/id/rail/27628","TYPE":"RW","LVL":0,"SLOPE":null,"LENGTH":42.5546570984451},"bbox":[149374.37952025,173925.40309203,149411.92644215,173945.42842067]},{"type":"Feature","id":"TramNetwork.fid--578fcb21_1a02c23451d_-314f","geometry":{"type":"LineString","coordinates":[[149428.09651476,173918.45230305],[149420.01494779,173922.72947559],[149412.34675824,173926.7857752]]},"geometry_name":"GEOM","properties":{"INSPIRE_ID":"https://databrussels.be/id/rail/28046","TYPE":"RW","LVL":1,"SLOPE":null,"LENGTH":17.8185743632603},"bbox":[149412.34675824,173918.45230305,149428.09651476,173926.7857752]},{"type":"Feature","id":"TramNetwork.fid--578fcb21_1a02c23451d_-312b","geometry":{"type":"LineString","coordinates":[[149427.78877717,173917.00997129],[149419.3514226,173921.47544457],[149411.92644215,173925.40309203]]},"geometry_name":"GEOM","properties":{"INSPIRE_ID":"https://databrussels.be/id/rail/28047","TYPE":"RW","LVL":1,"SLOPE":null,"LENGTH":17.945978709164},"bbox":[149411.92644215,173917.00997129,149427.78877717,173925.40309203]},{"type":"Feature","id":"TramNetwork.fid--578fcb21_1a02c23451d_-312c","geometry":{"type":"LineString","coordinates":[[149427.33212765,173914.86991683],[149417.79036607,173919.92664542],[149411.30564458,173923.36026062]]},"geometry_name":"GEOM","properties":{"INSPIRE_ID":"https://databrussels.be/id/rail/28221","TYPE":"RW","LVL":1,"SLOPE":null,"LENGTH":18.1365406759342},"bbox":[149411.30564458,173914.86991683,149427.33212765,173923.36026062]},{"type":"Feature","id":"TramNetwork.fid--578fcb21_1a02c23451d_-312d","geometry":{"type":"LineString","coordinates":[[149427.02862153,173913.44778147],[149417.13562724,173918.69064849],[149410.89152655,173921.99685664]]},"geometry_name":"GEOM","properties":{"INSPIRE_ID":"https://databrussels.be/id/rail/29041","TYPE":"RW","LVL":1,"SLOPE":null,"LENGTH":18.2617778697076},"bbox":[149410.89152655,173913.44778147,149427.02862153,173921.99685664]},{"type":"Feature","id":"TramNetwork.fid--578fcb21_1a02c23451d_-3144","geometry":{"type":"LineString","coordinates":[[149370.728782,173658.0001619],[149371.366,173656.646],[149379.553,173638.651],[149383.833,173629.212],[149389.522,173616.581],[149394.192,173606.223],[149398.90539099,173595.82362315]]},"geometry_name":"GEOM","properties":{"INSPIRE_ID":"https://databrussels.be/id/rail/29631","TYPE":"TW","LVL":1,"SLOPE":null,"LENGTH":68.2632780223698},"bbox":[149370.728782,173595.82362315,149398.90539099,173658.0001619]},{"type":"Feature","id":"TramNetwork.fid--578fcb21_1a02c23451d_-3143","geometry":{"type":"LineString","coordinates":[[149371.92400839,173658.93621289],[149372.709,173657.268],[149380.9,173639.263],[149385.182,173629.822],[149390.871,173617.189],[149395.541,173606.833],[149399.86805554,173597.28478646]]},"geometry_name":"GEOM","properties":{"INSPIRE_ID":"https://databrussels.be/id/rail/29632","TYPE":"TW","LVL":1,"SLOPE":null,"LENGTH":67.6890280696928},"bbox":[149371.92400839,173597.28478646,149399.86805554,173658.93621289]},{"type":"Feature","id":"TramNetwork.fid--578fcb21_1a02c23451d_-3146","geometry":{"type":"LineString","coordinates":[[149397.06149173,173593.11720261],[149393.423,173601.204],[149388.369,173612.312],[149381.136,173628.303],[149375.432,173640.989],[149368.998,173655.069],[149368.45824168,173656.22197033]]},"geometry_name":"GEOM","properties":{"INSPIRE_ID":"https://databrussels.be/id/rail/29633","TYPE":"TW","LVL":1,"SLOPE":null,"LENGTH":69.284896939743},"bbox":[149368.45824168,173593.11720261,149397.06149173,173656.22197033]},{"type":"Feature","id":"TramNetwork.fid--578fcb21_1a02c23451d_-3145","geometry":{"type":"LineString","coordinates":[[149398.04300359,173594.5422212],[149394.7711,173601.8141],[149389.7171,173612.9231],[149382.4851,173628.9111],[149376.7801,173641.6001],[149370.3411,173655.6901],[149369.65384628,173657.15831751]]},"geometry_name":"GEOM","properties":{"INSPIRE_ID":"https://databrussels.be/id/rail/29634","TYPE":"TW","LVL":1,"SLOPE":null,"LENGTH":68.7514502646941},"bbox":[149369.65384628,173594.5422212,149398.04300359,173657.15831751]}],"numberReturned":37,"grand_bruxelles_source":{"authority":"Paradigm / Brussels-Capital Region","service":"https://geoservices-urbis.irisnet.be/geoserver/urbisvector/wfs","layer":"urbisvector:TramNetwork","crs":"EPSG:31370","bbox":[149000.0,173500.0,149500.0,174000.0],"cell_id":"bxl-e149000-n173500-s500","ownership":"bbox_intersection_source_unclipped"}}
