{"type":"FeatureCollection","totalFeatures":20,"numberMatched":20,"timeStamp":"2026-08-24T01:21:33.283Z","crs":{"type":"name","properties":{"name":"urn:ogc:def:crs:EPSG::31370"}},"bbox":[150500.1365952,174629.34821497,152749.79208115,177717.0227527],"features":[{"type":"Feature","id":"TramNetwork.fid--6f55e203_1a031389953_-5db","geometry":{"type":"LineString","coordinates":[[152748.93409604,176366.45251215],[152745.16893109,176357.12099757],[152741.57071972,176347.77803734],[152735.3537084,176330.85624821],[152732.80274355,176323.32508115],[152730.27065566,176315.50801508],[152726.79980724,176304.4541281],[152721.02367143,176285.54424595],[152717.5764814,176274.01784461],[152590.49241148,175805.54764573],[152584.90546609,175785.74227199],[152581.00913667,175772.16271826],[152574.09872316,175749.4109775],[152566.2413699,175725.30934944],[152561.15242972,175710.40358842],[152553.96901508,175690.06425585],[152545.68806659,175667.78642922],[152541.97227083,175657.97910422],[152538.9793306,175650.33829851],[152531.9959281,175632.97211386],[152526.41168553,175619.4451918],[152515.27342907,175593.53016573],[152504.83146452,175570.56263463],[152501.0459143,175562.38377331],[152497.1172089,175554.18689632],[152491.39744601,175542.11974464],[152484.42408596,175528.22828695],[152477.02390935,175513.67129597],[152469.431529,175499.03959766],[152465.75863932,175492.30360095],[152461.73585379,175484.76653882],[152454.95983952,175472.23024126],[152446.78552634,175457.74597251],[152436.85509888,175440.69802273],[152427.23816689,175424.62586247],[152421.97339404,175415.94897678],[152415.83968087,175406.06793924],[152406.4250483,175391.10829914],[152398.28862358,175378.54960461],[152390.94735514,175367.46012068],[152379.68098898,175350.91650447],[152368.35088131,175334.56200393],[152356.77664097,175318.41258725],[152341.1238122,175297.50843563],[152333.03658038,175286.84601533],[152315.7498268,175265.09858376],[152310.75726927,175258.92115389],[152306.03401216,175253.24195064],[152295.54167572,175240.75057636],[152288.17408265,175232.08365639],[152279.00736765,175221.63086791],[152270.75055164,175212.39383546],[152262.13903517,175202.97024833],[152256.04800924,175196.40437636],[152248.94211565,175188.86376452],[152236.54144414,175176.00497379],[152222.96764244,175162.13477597],[152204.84769466,175144.62186604],[152195.99689604,175136.26610762],[152188.08193093,175128.91341176],[152176.43973275,175118.17456532],[152161.51036914,175104.78242684],[152136.03384218,175083.13758616],[152131.53523321,175079.36438618],[152127.1385885,175075.70855124],[152108.03561919,175060.39041779],[152098.542661,175053.03498082],[152091.85349193,175047.90217502],[152085.1690602,175042.8829047],[152078.38072238,175037.84667504],[152061.62971642,175025.62245995],[152045.23218038,175014.04880129],[152028.51489818,175002.65899408],[152012.68725826,174992.19345722],[152001.71526917,174985.11599491],[151986.04162859,174975.29613653],[151967.25417675,174963.95600068],[151958.49213581,174958.82548178],[151946.73330994,174952.03131274],[151931.21775018,174943.37889905],[151922.46721279,174938.59798648],[151906.34837089,174930.00473906],[151891.36361435,174922.29904943],[151875.65892701,174914.4020662],[151567.21968823,174765.49247419],[151472.70040817,174721.29634976],[151423.13556987,174698.61974901],[151337.05796774,174659.15884895],[151321.14715494,174651.97863736],[151298.8215758,174642.05358256],[151272.42776799,174630.78626555]]},"geometry_name":"GEOM","properties":{"INSPIRE_ID":"https://databrussels.be/id/rail/27357","TYPE":"RW","LVL":0,"SLOPE":null,"LENGTH":2427.40773455227},"bbox":[151272.42776799,174630.78626555,152748.93409604,176366.45251215]},{"type":"Feature","id":"TramNetwork.fid--6f55e203_1a031389953_-5da","geometry":{"type":"LineString","coordinates":[[152749.79208115,176364.56618396],[152746.58950485,176356.56323663],[152742.99912823,176347.24061977],[152736.79291333,176330.34821691],[152734.25145584,176322.84511822],[152731.72462261,176315.04427439],[152728.25761414,176304.00261679],[152722.48451941,176285.10269052],[152719.04422888,176273.59935912],[152591.96328667,175805.14068989],[152586.37333313,175785.32465244],[152582.47280971,175771.7304817],[152575.55447363,175748.95265678],[152567.68904955,175724.82627232],[152562.59410375,175709.90292053],[152555.40385698,175689.54424329],[152547.11688282,175667.25020609],[152543.39636949,175657.43042973],[152540.39781566,175649.77529282],[152533.4092381,175632.39623893],[152527.81812657,175618.85267792],[152516.66926569,175592.91297889],[152506.21859834,175569.92630561],[152502.42656118,175561.73342895],[152498.49484041,175553.53026069],[152492.76909871,175541.45049533],[152485.78626086,175527.54015715],[152478.38144544,175512.97404111],[152470.77891255,175498.32277725],[152467.10177919,175491.57899773],[152463.08031221,175484.04440604],[152456.2957601,175471.49231261],[152448.10947438,175456.98682943],[152438.16928647,175439.9221235],[152428.54533267,175423.83822816],[152423.27409627,175415.15068987],[152417.13380847,175405.259061],[152407.71131703,175390.28693332],[152399.56532634,175377.71347358],[152392.21437447,175366.60936218],[152380.93894613,175350.05243899],[152369.59841908,175333.68289854],[152358.00779318,175317.51061926],[152342.34258702,175296.5899378],[152334.24203322,175285.90995344],[152316.9406498,175264.14411695],[152311.93747112,175257.95354524],[152307.20498079,175252.26324005],[152296.70735258,175239.76556579],[152289.32923204,175231.08626175],[152280.14999788,175220.61919769],[152271.88277705,175211.37052522],[152263.2617509,175201.93653162],[152257.162772,175195.3620867],[152250.04674446,175187.81072093],[152237.63607637,175174.94156432],[152224.04350392,175161.05218588],[152205.90184831,175143.51829536],[152197.04007643,175135.15217742],[152189.11863857,175127.79346863],[152177.46667323,175117.04561289],[152162.51413573,175103.63268666],[152137.01827331,175081.97141859],[152132.51346557,175078.19301939],[152128.10388675,175074.52642967],[152108.98040617,175059.1918488],[152099.47455148,175051.82641924],[152092.77622053,175046.68658324],[152086.08189908,175041.65988683],[152079.28519681,175036.61745163],[152062.51959839,175024.38258755],[152046.1018989,175012.79469718],[152029.36544743,175001.39182958],[152013.52177266,174990.91569018],[152002.53405427,174983.82808171],[151986.84112903,174973.99614109],[151968.03409597,174962.64418598],[151959.25945642,174957.5062901],[151947.48674689,174950.70409918],[151931.9552662,174942.04280702],[151923.19206217,174937.25497395],[151907.05633874,174928.65272668],[151892.05538343,174920.93870707],[151876.3335229,174913.03308843],[151567.87467539,174764.11402963],[151473.34108994,174719.91121617],[151423.77102084,174697.23222225],[151321.82626073,174650.49727739],[151299.50068159,174640.57222259],[151272.93369913,174629.34821497]]},"geometry_name":"GEOM","properties":{"INSPIRE_ID":"https://databrussels.be/id/rail/27358","TYPE":"RW","LVL":0,"SLOPE":null,"LENGTH":2427.27763266296},"bbox":[151272.93369913,174629.34821497,152749.79208115,176364.56618396]},{"type":"Feature","id":"TramNetwork.fid--6f55e203_1a031389953_-5de","geometry":{"type":"LineString","coordinates":[[151437.64176314,177493.4907522],[151439.57132711,177496.80496009],[151441.18784369,177499.52468633],[151442.59640997,177501.82374021],[151444.03579731,177504.10376823],[151445.5056161,177506.36415326],[151449.43575537,177512.17178713],[151480.24263564,177557.12789781],[151483.32047704,177561.64384727],[151485.80187392,177565.38875316],[151487.00242669,177567.26251468],[151488.18172493,177569.14980966],[151489.33954186,177571.05027517],[151494.32724422,177579.66826138],[151500.02038489,177589.69902385],[151505.02574925,177598.44978043],[151507.20866201,177602.17089108],[151509.42341144,177605.87323365],[151511.66975375,177609.5564006],[151517.01294349,177618.10506929],[151567.0267318,177697.53160916],[151570.5122243,177702.89528231],[151573.21383344,177706.51074632],[151575.36524013,177708.93626947],[151576.76426355,177710.29888421],[151578.2519353,177711.57250603],[151579.83160776,177712.73922294],[151581.14604811,177713.57462222],[151582.52963054,177714.33533206],[151583.97608238,177715.01352499],[151585.47800927,177715.60207658],[151587.02699568,177716.09476002],[151588.61374529,177716.48642274],[151590.22825682,177716.77313563],[151591.86002921,177716.95230666],[151593.49828717,177717.0227527],[151595.13221737,177716.98472539],[151596.75120429,177716.83989013],[151598.34505502,177716.59125952],[151599.90420343,177716.24308595],[151601.41988541,177715.80071966],[151602.88427928,177715.2704405],[151605.0343019,177714.29950316],[151606.27877197,177713.63562437],[151607.88737783,177712.67349142],[151609.44323635,177711.64083989],[151610.95406965,177710.55537224],[151614.95695017,177707.42869474],[151675.76622061,177658.69577649],[151685.85410548,177650.66085141],[151690.3010581,177647.19465527],[151695.4292044,177643.2979716],[151701.4249472,177638.91025872],[151707.51903282,177634.63631368],[151713.70822509,177630.47936206],[151719.98914933,177626.44250646],[151726.35829822,177622.52871915],[151732.81203818,177618.7408351],[151739.34661608,177615.0815453],[151745.95816646,177611.55339065],[151752.64271908,177608.15875607],[151759.39620683,177604.89986527],[151766.21447397,177601.77877585],[151773.09328467,177598.79737502],[151780.02833175,177595.95737577],[151787.01524566,177593.26031363],[151794.04960364,177590.70754397],[151801.12693898,177588.30023985],[151808.24275041,177586.03939044],[151815.3925115,177583.9258001],[151822.57168006,177581.96008786],[151829.77570758,177580.14268767],[151836.83380618,177578.5034794],[151844.70640277,177576.79479079],[151854.17769301,177574.8258809],[152092.44045954,177525.71456353],[152109.14232948,177522.21224383],[152117.47546382,177520.35277808],[152127.43964779,177517.94735121],[152132.40063416,177516.65219069],[152137.34318288,177515.28342187],[152143.89798794,177513.32863659],[152150.34301946,177511.23109834],[152156.76258378,177508.9606734],[152163.1499086,177506.51729816],[152169.49816845,177503.90125556],[152175.80050651,177501.11318147],[152182.05005712,177498.15406938],[152188.23996889,177495.02527338],[152194.36342809,177491.72850938],[152200.41368246,177488.2658545],[152206.38406488,177484.63974463],[152212.26801714,177480.85297009],[152218.05911329,177476.9086694],[152223.75108267,177472.81032128],[152229.33783225,177468.56173475],[152234.81346823,177464.16703755],[152240.17231672,177459.63066282],[152245.40894331,177454.9573342],[152250.5181714,177450.1520495],[152255.49509925,177445.2200629],[152260.33511542,177440.16686599],[152265.03391282,177434.9981677],[152269.58750091,177429.71987326],[152273.99221629,177424.33806241],[152278.24473146,177418.85896698],[152282.3420618,177413.28894801],[152286.28157064,177407.6344726],[152290.06097261,177401.90209065],[152293.67833502,177396.09841163],[152297.13207763,177390.23008159],[152300.42097054,177384.30376052],[152302.49420549,177380.38020033],[152304.51004409,177376.42854978],[152309.82434321,177365.45661801],[152316.7852264,177350.37942621],[152329.73602886,177322.23225992],[152332.30981478,177316.67911698],[152334.89040173,177311.12913125],[152352.844492,177272.57762757],[152353.47071145,177271.23112089],[152354.4024179,177269.20311487],[152355.60749331,177266.47362085],[152356.46379247,177264.39968737],[152357.26199557,177262.29723875],[152357.9858591,177260.162662],[152358.61854597,177257.9940014],[152359.1426573,177255.79134834],[152359.54034031,177253.55724466],[152359.72628441,177252.05290711],[152359.84262082,177250.53931483],[152359.88230601,177249.33150822],[152359.87427638,177248.11634443],[152359.81780546,177246.89663048],[152359.71238655,177245.67524955],[152359.55774171,177244.45513942],[152359.35382814,177243.2392697],[152359.10084189,177242.03061825],[152358.79921865,177240.83214714],[152358.44963172,177239.64677861],[152358.05298702,177238.47737134],[152357.61041532,177237.32669754],[152357.1232618,177236.19742114],[152356.59307307,177235.09207755],[152356.02158211,177234.01305523],[152355.41069107,177232.96257931],[152354.76245268,177231.94269761],[152353.95670477,177230.78573219],[152353.10327682,177229.66612941],[152352.20709517,177228.58318667],[152350.79279237,177227.02489235],[152349.80955498,177226.02773695],[152347.76406802,177224.12422267],[152345.63704016,177222.32522072],[152342.9021882,177220.18888383],[152339.00853701,177217.32013149],[152162.71824621,177089.07417895],[152159.63659806,177086.83048218],[152155.02857333,177083.45066607],[152150.45434427,177080.03176962],[152146.6820671,177077.13537223],[152142.95810071,177074.18149252],[152139.29466249,177071.15714937],[152135.92647049,177068.24998713],[152132.6154252,177065.26345444],[152129.36428349,177062.19922997],[152126.17573647,177059.05911842],[152123.0524024,177055.84504726],[152119.99681971,177052.55906306],[152117.0114403,177049.20332726],[152114.09862313,177045.78011159],[152111.26062805,177042.29179297],[152108.49961001,177038.74084806],[152105.81761363,177035.1298474],[152103.21656812,177031.46144923],[152100.6982827,177027.73839297],[152098.2644424,177023.96349239],[152095.91660437,177020.13962859],[152093.65619461,177016.2697427],[152091.48450525,177012.35682844],[152089.40269234,177008.40392457],[152087.41177411,177004.41410716],[152085.51262974,177000.39048189],[152083.58101677,176996.05420365],[152081.37254643,176990.79941015],[152079.25768513,176985.50202129],[152076.87125733,176979.28475759],[152074.52878212,176973.04512799],[152012.80463443,176808.01628102],[152011.23429415,176803.80330498],[152009.69408898,176799.58439202],[152008.57588355,176796.4103374],[152007.50284381,176793.22362037],[152006.81863806,176791.09048555],[152005.84826121,176787.87579875],[152004.95618517,176784.64136143],[152004.41125393,176782.47348511],[152003.67807848,176779.20407397],[152003.25106039,176777.01302492],[152002.87797666,176774.81338607],[152002.38451055,176771.1382561],[152002.04900314,176767.41190463],[152001.87654076,176763.64430632],[152001.87138039,176759.84601208],[152002.03687433,176756.02806332],[152002.37540551,176752.2018949],[152002.88833545,176748.37922832],[152003.57596643,176744.57195725],[152004.43751918,176740.7920275],[152005.4711269,176737.05131394],[152006.6738462,176733.36149699],[152008.0416847,176729.73394136],[152009.56964494,176726.17957969],[152011.25178344,176722.70880355],[152013.08128359,176719.33136409],[152015.05054053,176716.05628423],[152017.15125585,176712.89178413],[152019.37454001,176709.84522084],[152021.71101971,176706.92304304],[152024.15094817,176704.13076113],[152025.5492675,176702.63393723],[152027.34234095,176700.8017871],[152029.54746225,176698.65022048],[152031.79585354,176696.53655591],[152035.59833731,176693.05687651],[152058.97154626,176671.80596126],[152062.82573752,176668.29132964],[152066.41545989,176664.96223809],[152071.42689468,176660.14255947],[152076.32705779,176655.20979329],[152079.93811479,176651.43759093],[152083.29037279,176647.87762846],[152106.14869691,176623.53986652],[152108.76611155,176620.73914525],[152110.06437834,176619.32363089],[152111.34845406,176617.89162992],[152113.23556109,176615.70271222],[152115.05793378,176613.45191313],[152116.22630744,176611.9106038],[152117.89201577,176609.52939328],[152118.93396963,176607.89205059],[152119.91211285,176606.21272488],[152120.81831123,176604.49050288],[152121.64407949,176602.72536804],[152122.38062369,176600.91831189],[152123.01891827,176599.07142294],[152123.44038735,176597.61598513],[152123.79911914,176596.12879084],[152124.09220872,176594.61380425],[152124.31708012,176593.07531056],[152124.47152823,176591.51788204],[152124.5537565,176589.94633787],[152124.56240933,176588.36569812],[152124.49659822,176586.781133],[152124.35592075,176585.19790808],[152124.14047185,176583.62132699],[152123.85084693,176582.05667252],[152123.48813661,176580.50914789],[152123.05391328,176578.98381912],[152122.55020968,176577.48556028],[152121.97949026,176576.01900243],[152121.34461593,176574.5884877],[152120.64880339,176573.19802918],[152119.89557987,176571.85127746],[152119.0887348,176570.55149425],[152118.23226935,176569.30153333],[152117.03471556,176567.73137028],[152115.75829202,176566.22989877],[152114.41504283,176564.7934125],[152113.01604759,176563.41690532],[152110.58767967,176561.23912734],[152108.07414575,176559.17772338],[152106.02667786,176557.58738688],[152103.44933007,176555.63966454],[152029.04424035,176499.71803],[152025.7002407,176497.19450018],[152023.65860569,176495.62717318],[152022.14070719,176494.43790572],[152021.13683561,176493.63647051],[152018.25174015,176491.25344997],[152015.42684159,176488.79847309],[152012.66480248,176486.27385377],[152011.73121642,176485.39154225],[152010.57264836,176484.27820065],[152008.73404425,176482.47757111],[152005.99574121,176479.74827458],[152002.52407029,176476.26978002]]},"geometry_name":"GEOM","properties":{"INSPIRE_ID":"https://databrussels.be/id/rail/29659","TYPE":"TW","LVL":0,"SLOPE":null,"LENGTH":2248.63728337082},"bbox":[151437.64176314,176476.26978002,152359.88230601,177717.0227527]},{"type":"Feature","id":"TramNetwork.fid--6f55e203_1a031389953_-5dd","geometry":{"type":"LineString","coordinates":[[151438.87630767,177492.75910228],[151440.92281707,177496.27252485],[151442.41646001,177498.78325061],[151443.81495596,177501.06586774],[151445.24405261,177503.32959504],[151446.70336315,177505.57381978],[151450.61948889,177511.36061516],[151481.42636916,177556.31672584],[151484.51034435,177560.84169966],[151487.00573733,177564.60776795],[151488.21505537,177566.49520987],[151489.40296371,177568.39628405],[151490.5692339,177570.31062493],[151495.57524323,177578.95993697],[151501.2683839,177588.99069944],[151506.26659126,177597.72899192],[151508.44328407,177601.43949969],[151510.65172282,177605.13129286],[151512.89166445,177608.80396505],[151518.2272567,177617.34043314],[151568.24104501,177696.76697301],[151572.05331334,177702.59625083],[151574.72443718,177706.08369493],[151576.39639566,177707.9382999],[151578.1958718,177709.65494618],[151579.63549302,177710.83097967],[151580.6391005,177711.55297657],[151581.87722966,177712.33987588],[151583.18048678,177713.05642191],[151584.54296337,177713.69524166],[151585.95769434,177714.24962427],[151587.41675274,177714.71370447],[151588.91138196,177715.08262881],[151590.43216136,177715.35269629],[151591.96919952,177715.52146536],[151593.51234672,177715.58782157],[151595.05141742,177715.55200198],[151596.57641238,177715.41557528],[151598.07773046,177715.18137918],[151599.5463609,177714.85341919],[151600.97404839,177714.43673492],[151602.35342536,177713.93724167],[151603.98704329,177713.21633072],[151605.57536477,177712.3848473],[151607.12007813,177711.4608595],[151608.62571754,177710.46148075],[151610.09911552,177709.40286262],[151614.05955305,177706.30891645],[151674.86882349,177657.5759982],[151685.60157708,177649.03425023],[151690.064553,177645.56564743],[151694.57014251,177642.14852057],[151700.58918425,177637.74375742],[151706.70695096,177633.45320419],[151712.9201939,177629.28009902],[151719.22552526,177625.22755654],[151725.61942412,177621.2985606],[151732.09824276,177617.49595715],[151738.65821347,177613.82244767],[151745.29545577,177610.28058291],[151752.00598398,177606.87275708],[151758.7857152,177603.6012025],[151765.63047754,177600.4679848],[151772.53601871,177597.4749985],[151779.49801478,177594.62396326],[151786.51207924,177591.91642057],[151793.57377212,177589.35373107],[151800.67860938,177586.93707237],[151807.82207225,177584.6674375],[151814.99961669,177582.54563392],[151822.20668288,177580.5722831],[151829.43870463,177578.74782065],[151834.94461471,177577.45861662],[151844.40959597,177575.39082116],[151853.88799728,177573.42042674],[152092.15076381,177524.30910937],[152102.16958087,177522.2311263],[152113.8306338,177519.70946196],[152122.12727357,177517.78282926],[152128.73594082,177516.13394295],[152133.67108483,177514.82058598],[152138.58411319,177513.43169087],[152143.47115265,177511.95858673],[152149.88173673,177509.8722594],[152156.26698973,177507.61396945],[152162.62017555,177505.18365357],[152168.93450519,177502.58159321],[152175.20315848,177499.80842083],[152181.41930646,177496.86512462],[152187.57613435,177493.75305143],[152193.66686486,177490.47390798],[152199.68478179,177487.02976032],[152205.62325369,177483.4230313],[152211.47575736,177479.65649633],[152217.23590124,177475.73327716],[152222.89744815,177471.65683391],[152228.45433764,177467.43095525],[152233.90070742,177463.05974685],[152239.23091391,177458.54761815],[152244.43955175,177453.89926757],[152249.52147201,177449.11966618],[152254.47179914,177444.21404009],[152259.28594638,177439.18785153],[152263.95962962,177434.04677892],[152268.48887967,177428.79669594],[152272.8700527,177423.44364982],[152277.09983901,177417.99383908],[152281.17526991,177412.45359078],[152285.09372285,177406.82933744],[152288.85292465,177401.12759395],[152292.45095296,177395.35493447],[152295.88623599,177389.51796951],[152299.15755041,177383.62332347],[152301.22041396,177379.71938254],[152303.72156816,177374.79691661],[152305.67032352,177370.83091875],[152309.46369097,177362.84355568],[152314.09693879,177352.79898835],[152322.40753496,177334.69487481],[152328.43370259,177321.62962297],[152331.00822776,177316.07488505],[152333.58955591,177310.52330525],[152351.54364618,177271.97180157],[152352.78890291,177269.28303301],[152353.99598881,177266.58698848],[152354.85546926,177264.55158875],[152355.65918501,177262.49910015],[152356.39196256,177260.42573858],[152357.03826899,177258.32926169],[152357.58222993,177256.20931258],[152358.00771575,177254.06777],[152358.29850849,177251.90909849],[152358.40959927,177250.46398727],[152358.44743052,177249.31260462],[152358.43977601,177248.15420846],[152358.38594318,177246.99147472],[152358.28544903,177245.82715187],[152358.13802858,177244.66404046],[152357.94364105,177243.50497136],[152357.70247332,177242.35278332],[152357.41494072,177241.21030004],[152357.08168511,177240.08030723],[152356.70357008,177238.96553004],[152356.28167358,177237.86861116],[152355.81727794,177236.79209008],[152355.31185753,177235.73838378],[152354.76706436,177234.70976911],[152354.18471174,177233.70836726],[152353.56675647,177232.7361304],[152352.79745051,177231.63151855],[152351.98010321,177230.55927331],[152351.1191575,177229.51893056],[152349.75519485,177228.01616244],[152348.31598374,177226.57844097],[152346.30104355,177224.75162364],[152344.20027397,177223.0106464],[152342.03708737,177221.33379673],[152338.16436067,177218.4805587],[152161.87406986,177090.23460616],[152156.48108286,177086.30123366],[152151.87721214,177082.89724218],[152148.06820999,177080.01878211],[152144.29638244,177077.08741632],[152141.31371164,177074.69512315],[152138.36894892,177072.25363439],[152134.97704627,177069.32600695],[152131.64269263,177066.31845034],[152128.36866426,177063.23265503],[152125.15767123,177060.07043843],[152122.01235021,177056.83374157],[152118.9352575,177053.52462543],[152115.92886229,177050.14526668],[152112.99554012,177046.69795302],[152110.13756676,177043.18507811],[152107.35711233,177039.60913605],[152104.65623583,177035.97271548],[152102.03688006,177032.27849334],[152099.50086698,177028.52922834],[152097.04989348,177024.72775407],[152094.68552766,177020.87697188],[152092.40920557,177016.97984363],[152090.22222844,177013.03938412],[152088.12576045,177009.05865348],[152086.120827,177005.04074945],[152084.20831346,177000.98879956],[152082.64558256,176997.5003939],[152080.40669552,176992.22546736],[152077.92116538,176986.02445786],[152075.52905158,176979.7924078],[152073.18471735,176973.54783557],[152011.46056966,176808.5189886],[152009.49860863,176803.24514686],[152007.58983471,176797.94383521],[152005.79092046,176792.59637068],[152004.78838911,176789.35922498],[152003.8591135,176786.09748736],[152003.01617184,176782.80959664],[152002.27287795,176779.49499749],[152001.46022784,176775.03522678],[152000.95845847,176771.29825749],[152000.61730566,176767.50920483],[152000.44194135,176763.67821129],[152000.43669416,176759.81600532],[152000.60497277,176755.93381412],[152000.94920021,176752.04326494],[152001.47076093,176748.15627652],[152002.1699623,176744.28494268],[152003.0460119,176740.44141021],[152004.09701155,176736.6377538],[152005.31996832,176732.8858504],[152006.71082266,176729.19725596],[152008.26449301,176725.58308707],[152009.97493589,176722.05391016],[152011.83522,176718.61964045],[152013.8376125,176715.28945269],[152015.97367537,176712.07170535],[152018.23436946,176708.97387927],[152020.61016377,176706.00253166],[152023.09114752,176703.16326562],[152024.15336538,176702.01986872],[152025.96170498,176700.15412037],[152028.18184814,176697.97144901],[152030.82027257,176695.48419343],[152034.6329886,176691.99512002],[152058.00619755,176670.74420476],[152061.6158316,176667.45377065],[152065.43260744,176663.91666357],[152070.42044199,176659.11968217],[152075.29752886,176654.21014577],[152079.11961499,176650.21471094],[152082.24438069,176646.89522045],[152105.10271957,176622.55744277],[152107.06326156,176620.4641941],[152110.27352725,176616.94096838],[152112.74148755,176614.05023015],[152114.50389396,176611.81857142],[152116.16718809,176609.51965432],[152117.20994727,176607.94526581],[152118.6572988,176605.5165448],[152119.53349851,176603.85137749],[152120.32969557,176602.14950355],[152121.03787662,176600.41209523],[152121.64986962,176598.64138714],[152122.0533932,176597.24791961],[152122.39685075,176595.82404774],[152122.67746103,176594.37356692],[152122.89275775,176592.90057989],[152123.0406297,176591.40946426],[152123.11935682,176589.90483399],[152123.12764123,176588.39149543],[152123.06463226,176586.87439862],[152122.92994461,176585.35858496],[152122.72366919,176583.84913223],[152122.44637605,176582.35109832],[152122.09910937,176580.86946487],[152121.68337459,176579.40908223],[152121.20111791,176577.97461692],[152120.65469883,176576.57050282],[152120.04685647,176575.20089719],[152119.38067054,176573.86964222],[152118.65951811,176572.5802331],[152117.88702725,176571.33579263],[152117.06702876,176570.1390531],[152116.31056892,176569.12799374],[152115.10640772,176567.66169056],[152113.82882671,176566.25333133],[152112.48828807,176564.89896799],[152111.09446844,176563.59348705],[152108.67698602,176561.50942078],[152106.17342322,176559.51114782],[152102.58716799,176556.78679207],[152028.18207828,176500.86515753],[152025.3461101,176498.72747287],[152022.26811745,176496.36340565],[152021.24981737,176495.56286809],[152020.23692197,176494.75422739],[152017.32409311,176492.34829971],[152014.47203979,176489.869724],[152011.68345018,176487.32083641],[152010.27326677,176485.98297349],[152007.72525913,176483.49814819],[152004.75223701,176480.53375226],[152001.50837017,176477.28347537]]},"geometry_name":"GEOM","properties":{"INSPIRE_ID":"https://databrussels.be/id/rail/29660","TYPE":"TW","LVL":0,"SLOPE":null,"LENGTH":2243.77130885277},"bbox":[151438.87630767,176477.28347537,152358.44743052,177715.58782157]},{"type":"Feature","id":"TramNetwork.fid--6f55e203_1a031389953_-5e0","geometry":{"type":"LineString","coordinates":[[151441.68681741,177494.61577415],[151444.10309441,177498.77055712],[151445.96355959,177501.88250176],[151447.10233121,177503.71528044],[151448.26722445,177505.53156847],[151452.1883376,177511.35025829],[151482.49186947,177555.5718387],[151485.936828,177560.63291084],[151488.06559014,177563.85251963],[151489.30363896,177565.78399517],[151490.51941027,177567.72965999],[151491.71266238,177569.68912728],[151496.71183495,177578.32882127],[151499.17986426,177582.67724988],[151504.1484356,177591.3637889],[151506.32142595,177595.06807529],[151508.52614822,177598.75365569],[151510.76235912,177602.42012342],[151516.06636666,177610.90600376],[151567.09797602,177691.94893797],[151570.53721584,177697.24998573],[151572.79267601,177700.33178539],[151574.85729219,177702.77439448],[151576.65898768,177704.605846],[151578.10777276,177705.88558785],[151579.64446866,177707.06679847],[151580.89776362,177707.90507011],[151582.21366996,177708.67702141],[151583.58697952,177709.37617224],[151585.01163036,177709.99658976],[151586.48078017,177710.53302506],[151587.98690551,177710.98103734],[151589.52192407,177711.33710028],[151591.0773362,177711.59868559],[151592.64438059,177711.7643198],[151594.21419814,177711.83361188],[151595.77799771,177711.8072504],[151597.3272171,177711.6869709],[151598.85367351,177711.47549544],[151600.3496978,177711.17644757],[151601.80824866,177710.79424736],[151604.24848242,177709.94822978],[151607.16946707,177708.60465309],[151610.48615951,177706.67098082],[151613.62561048,177704.49648378],[151616.14303907,177702.57511416],[151618.60964306,177700.61204083],[151675.81032858,177654.77106442],[151684.63284952,177647.73385187],[151689.70788646,177643.76229399],[151695.47331238,177639.37325953],[151701.46905517,177634.98554665],[151707.5631408,177630.71160161],[151713.75233307,177626.55464999],[151720.0332573,177622.51779439],[151726.4024062,177618.60400708],[151732.85614616,177614.81612303],[151739.39072406,177611.15683323],[151746.00227444,177607.62867858],[151752.68682705,177604.234044],[151759.4403148,177600.9751532],[151766.25858194,177597.85406378],[151773.13739264,177594.87266295],[151780.07243972,177592.0326637],[151787.05935363,177589.33560156],[151794.09371161,177586.7828319],[151801.17104695,177584.37552778],[151808.28685839,177582.11467838],[151815.43661947,177580.00108803],[151822.61578803,177578.03537579],[151829.81981555,177576.2179756],[151837.6639524,177574.40338275],[151843.96218712,177573.03709172],[151854.22180098,177570.90116883],[152041.69699806,177532.2583123],[152065.08463697,177527.49576593],[152088.49474667,177522.84493102],[152110.55679959,177518.47139806],[152118.13696961,177516.84814472],[152125.69236969,177515.09546139],[152130.70923057,177513.83422419],[152134.45818966,177512.83079187],[152141.08235095,177510.91452144],[152147.68676217,177508.8160468],[152154.26411092,177506.53498346],[152160.80700719,177504.07133003],[152167.30800807,177501.42547681],[152173.75964334,177498.59821242],[152180.15444181,177495.59072855],[152186.48495834,177492.40462251],[152192.74380108,177489.04189772],[152198.92365903,177485.50496198],[152205.01732952,177481.79662345],[152211.01774548,177477.92008451],[152216.91800224,177473.87893329],[152222.71138372,177469.67713308],[152228.3913877,177465.31900962],[152233.95175012,177460.80923634],[152239.38646804,177456.15281764],[152244.68982124,177451.35507048],[152249.85639223,177446.42160415],[152254.88108447,177441.35829865],[152259.75913881,177436.17128173],[152264.48614791,177430.86690472],[152269.0580686,177425.45171752],[152273.47123217,177419.93244274],[152277.72235245,177414.31594936],[152281.80853172,177408.60922607],[152285.72726445,177402.81935442],[152289.47643889,177396.95348215],[152293.0543365,177391.01879665],[152296.45962941,177385.022499],[152297.69718289,177382.75024568],[152298.30800386,177381.6100098],[152300.11066286,177378.17429217],[152301.87220889,177374.71844898],[152304.16510774,177370.08439498],[152305.84910908,177366.59272856],[152310.76961985,177356.06213569],[152316.89586309,177342.65173753],[152321.92085118,177331.68971],[152326.97227374,177320.73981932],[152332.0500867,177309.80216105],[152351.58480679,177267.85671366],[152352.80307866,177265.21139716],[152353.77484484,177262.97227959],[152354.49416221,177261.14706394],[152355.1377812,177259.28526527],[152355.68233033,177257.38375021],[152356.1033838,177255.44292509],[152356.37571717,177253.46763854],[152356.46175736,177252.1735447],[152356.4735939,177250.86571603],[152356.40946045,177249.55051801],[152356.26832189,177248.23456593],[152356.04991395,177246.92461891],[152355.75476435,177245.62746706],[152355.38419386,177244.34981541],[152354.94029717,177243.09816892],[152354.42590388,177241.87872251],[152353.8445213,177240.6972602],[152353.20026126,177239.55906648],[152352.49775411,177238.46885297],[152352.21091969,177238.06005733],[152351.91575061,177237.65786889],[152350.66019927,177236.1139805],[152349.30383761,177234.66882697],[152348.23433585,177233.64394873],[152346.75516011,177232.34600915],[152345.23186456,177231.11293177],[152341.332833,177228.20518687],[152158.52647126,177095.21860163],[152155.39775516,177092.94066792],[152150.719011,177089.50954378],[152145.30421487,177085.4556853],[152141.48120259,177082.50649821],[152138.45846868,177080.10466535],[152134.73488306,177077.03844709],[152131.21702042,177074.01066876],[152127.75899848,177070.89943089],[152124.36373545,177067.70650048],[152121.03408,177064.43377879],[152117.77280359,177061.08329795],[152114.58259304,177057.65721694],[152111.46604333,177054.1578172],[152108.42565071,177050.58749762],[152105.46380607,177046.94876917],[152102.58278879,177043.24424904],[152099.78476084,177039.47665438],[152097.07176139,177035.64879566],[152094.44570192,177031.76356968],[152091.90836167,177027.82395231],[152089.46138371,177023.83299086],[152087.10627149,177019.79379636],[152084.84438592,177015.70953556],[152082.67694299,177011.58342277],[152080.60501195,177007.41871166],[152078.62951408,177003.21868698],[152077.0563534,176999.69527086],[152074.79830049,176994.36250694],[152072.28568125,176988.08556368],[152069.86202302,176981.76812918],[152067.48217738,176975.42849855],[152005.48574978,176809.67182442],[152003.52178979,176804.38451185],[152001.6329908,176799.08030444],[152000.12871064,176794.50284756],[151998.99143561,176790.65775241],[151998.37206178,176788.33540766],[151997.80726075,176786.0010414],[151996.96602079,176781.90397013],[151996.30388148,176777.73355584],[151995.82791556,176773.5012826],[151995.54422766,176769.21943732],[151995.45784791,176764.90100824],[151995.57263829,176760.55956733],[151995.89121456,176756.20913827],[151996.41488637,176751.86405255],[151997.14361737,176747.53879669],[151998.076007,176743.2478538],[151999.20929467,176739.00554307],[152000.53938649,176734.82586093],[152002.06090418,176730.72232757],[152003.76725466,176726.70784231],[152005.65071884,176722.79455102],[152007.70255684,176718.99372848],[152009.91312716,176715.31567781],[152012.27201641,176711.7696488],[152014.76817645,176708.36377609],[152017.39006536,176705.10503765],[152019.49307042,176702.68962048],[152021.66949998,176700.33577026],[152024.47512103,176697.46822948],[152027.93790475,176694.11436482],[152031.47211307,176690.82523231],[152035.04422182,176687.56662489],[152064.46529093,176660.81699681],[152068.28133586,176657.33711669],[152071.83549348,176654.04079224],[152076.76913132,176649.29567344],[152081.59348514,176644.43948719],[152085.39093417,176640.47007016],[152088.48809729,176637.17993092],[152106.83834977,176617.64200063],[152109.91964776,176614.32374925],[152112.48667687,176611.38697463],[152114.51353826,176608.82856699],[152116.02490257,176606.68827493],[152117.40697675,176604.4531118],[152118.33963888,176602.71075239],[152118.90402632,176601.51739172],[152119.4830734,176600.13359756],[152119.99935221,176598.70680527],[152120.44877226,176597.24115014],[152120.82759707,176595.74124621],[152121.13251096,176594.21214911],[152121.36068124,176592.65930798],[152121.50981364,176591.08850727],[152121.57819928,176589.50579939],[152121.56475127,176587.91742992],[152121.46902972,176586.32975703],[152121.29125416,176584.74916736],[152121.03230279,176583.18199073],[152120.6936986,176581.63441584],[152120.27758271,176580.11240963],[152119.78667595,176578.62164211],[152119.22422991,176577.167419],[152118.59396921,176575.75462337],[152117.90002686,176574.38766786],[152117.14687479,176573.07045792],[152116.33925164,176571.8063667],[152115.18256984,176570.20031175],[152114.36125133,176569.17062683],[152113.06429107,176567.68533084],[152111.23362743,176565.80809942],[152109.79976165,176564.46961566],[152107.32492549,176562.34901281],[152104.78059817,176560.33198935],[152101.68877775,176557.9880029],[152027.33772725,176502.10698336],[152023.945989,176499.54761227],[152021.36035042,176497.55759285],[152020.33530946,176496.75198621],[152019.3169346,176495.93926818],[152016.36694226,176493.50334457],[152013.47864837,176490.99365109],[152010.65478976,176488.41256582],[152009.70366398,176487.51359313],[152008.28826905,176486.15113633],[152006.18414733,176484.08313381],[152003.39637227,176481.29898853],[151989.59757252,176467.47292707]]},"geometry_name":"GEOM","properties":{"INSPIRE_ID":"https://databrussels.be/id/rail/29661","TYPE":"TW","LVL":0,"SLOPE":null,"LENGTH":2252.0256753517},"bbox":[151441.68681741,176467.47292707,152356.4735939,177711.83361188]},{"type":"Feature","id":"TramNetwork.fid--6f55e203_1a031389953_-5df","geometry":{"type":"LineString","coordinates":[[151442.92822007,177493.89595164],[151445.45467915,177498.23817631],[151447.18782999,177501.13391176],[151448.31575923,177502.94924033],[151449.46956137,177504.74823526],[151453.37207111,177510.53908632],[151483.67560299,177554.76066674],[151486.9477715,177559.56460751],[151489.26923095,177563.0711914],[151490.51619475,177565.01657517],[151491.74072063,177566.97625039],[151492.94256514,177568.94982748],[151497.95983396,177577.62049686],[151500.58708826,177582.24946221],[151505.38928908,177590.64302012],[151507.55605189,177594.33669045],[151509.75445567,177598.01170839],[151511.98425785,177601.66766843],[151517.28067987,177610.14136761],[151568.31228923,177691.18430182],[151571.71950671,177696.43671255],[151574.30699898,177699.9298996],[151576.33613942,177702.2570662],[151577.64257785,177703.56096544],[151579.02194022,177704.77945818],[151580.47689214,177705.89791176],[151581.66025502,177706.68940903],[151582.90273565,177707.41828654],[151584.19941649,177708.07842575],[151585.54457383,177708.66422485],[151586.93174717,177709.17072782],[151588.35383286,177709.59374165],[151589.80319956,177709.92993679],[151591.2718219,177710.17692601],[151592.75142743,177710.33331807],[151594.2336514,177710.39874374],[151595.71019316,177710.37385319],[151597.17296832,177710.26028512],[151598.61425062,177710.06060969],[151600.02679888,177709.77824827],[151601.40396467,177709.41737429],[151604.28392429,177708.38185845],[151607.05241015,177707.04223204],[151610.22899235,177705.12540422],[151612.77438343,177703.34121866],[151614.7639133,177701.83161859],[151617.71224594,177699.49226254],[151674.91293147,177653.65128613],[151683.74318931,177646.60791683],[151688.82967127,177642.62740938],[151694.61425049,177638.2238085],[151700.63329222,177633.81904535],[151706.75105894,177629.52849212],[151712.96430187,177625.35538695],[151719.26963324,177621.30284448],[151725.6635321,177617.37384853],[151732.14235074,177613.57124508],[151738.70232145,177609.8977356],[151745.33956374,177606.35587084],[151752.05009195,177602.94804501],[151758.82982317,177599.67649044],[151765.67458551,177596.54327273],[151772.58012668,177593.55028643],[151779.54212275,177590.69925119],[151786.55618721,177587.9917085],[151793.6178801,177585.429019],[151800.72271736,177583.0123603],[151807.86618022,177580.74272543],[151815.04372466,177578.62092186],[151822.25079085,177576.64757103],[151829.4828126,177574.82310858],[151836.5643478,177573.17844553],[151843.66414652,177571.63338348],[151853.93210526,177569.49571467],[152041.40730234,177530.85285814],[152064.80165446,177526.08894473],[152088.21848382,177521.43677484],[152102.68341102,177518.60034259],[152114.04910879,177516.27003244],[152121.59457321,177514.5926772],[152127.85343562,177513.08342411],[152134.07736156,177511.44724752],[152140.66569971,177509.54134019],[152147.23439459,177507.454214],[152153.77617336,177505.18548654],[152160.28368596,177502.73515643],[152166.74952974,177500.10361185],[152173.16627488,177497.29163718],[152179.52649059,177494.30041763],[152185.82277199,177491.1315419],[152192.04776721,177487.78700257],[152198.19420479,177484.2691944],[152204.254921,177480.58091039],[152210.222887,177476.72533558],[152216.09123546,177472.70603871],[152221.85328661,177468.52696164],[152227.5025734,177464.1924067],[152233.03286565,177459.70702205],[152238.43819287,177455.07578505],[152243.7128658,177450.30398387],[152248.85149622,177445.39719748],[152253.84901517,177440.3612741],[152258.70068923,177435.20230831],[152263.40213489,177429.92661712],[152267.94933085,177424.54071499],[152272.33862825,177419.05128818],[152276.56675867,177413.46516853],[152280.63084008,177407.78930692],[152284.5283805,177402.03074662],[152288.25727958,177396.1965967],[152291.81582809,177390.29400569],[152295.20270534,177384.33013574],[152296.4337809,177382.06977495],[152297.6443979,177379.79787823],[152300.00959037,177375.22317948],[152302.30915299,177370.61310593],[152304.55423717,177365.97423706],[152309.46569828,177355.46295831],[152315.59066753,177342.05534039],[152320.617098,177331.09016631],[152325.66997053,177320.13713256],[152330.74924102,177309.19633473],[152350.28396112,177267.25088734],[152351.88485239,177263.74446342],[152352.80774154,177261.5371378],[152353.62349088,177259.301727],[152354.29129986,177257.031246],[152354.69086412,177255.1899169],[152354.94717933,177253.3316068],[152355.02778461,177252.11925719],[152355.03887346,177250.89404035],[152354.97879114,177249.66191966],[152354.8465679,177248.42909254],[152354.64195617,177247.20189115],[152354.36545033,177245.9866767],[152354.01828773,177244.78973068],[152353.60243074,177243.61714715],[152353.12053021,177242.47472971],[152352.57587192,177241.36789702],[152351.97230796,177240.30159977],[152351.31417619,177239.28025195],[152351.04517568,177238.89687625],[152350.76777519,177238.51890166],[152350.48234718,177238.14630965],[152350.18925635,177237.77906267],[152349.26753075,177236.70875036],[152347.9519472,177235.35126195],[152346.55541415,177234.06499886],[152344.72271292,177232.53911863],[152340.48865506,177229.36561292],[152157.68229332,177096.37902768],[152152.98833723,177092.95795707],[152146.75650211,177088.35013336],[152141.36075252,177084.23311375],[152137.55760408,177081.22165594],[152133.81078019,177078.13628993],[152130.26902474,177075.08794736],[152126.78751642,177071.95557841],[152123.36919326,177068.74096208],[152120.01692327,177065.44601255],[152116.73349674,177062.07277573],[152113.52161875,177058.62342528],[152110.38390189,177055.10025812],[152107.32285935,177051.50568945],[152104.34089831,177047.84224728],[152101.44031357,177044.11256659],[152098.62328182,177040.31938298],[152095.89185608,177036.465526],[152093.24796079,177032.55391214],[152090.6933873,177028.58753745],[152088.22978982,177024.56946997],[152085.85868202,177020.50284185],[152083.58143405,177016.39084135],[152081.39927016,177012.2367046],[152079.31326687,177008.04370738],[152077.3243517,177003.81515674],[152075.35466324,176999.37911119],[152073.47126393,176994.9085829],[152070.59733745,176987.70450171],[152066.13811277,176975.93120654],[152004.14168517,176810.17453241],[152001.07635997,176801.83731654],[151999.50133048,176797.24460233],[151998.28468025,176793.38010008],[151997.60897207,176791.0424855],[151996.98146874,176788.68963357],[151996.40840979,176786.32110546],[151995.55422872,176782.16100739],[151994.88190347,176777.92643804],[151994.39861559,176773.62905814],[151994.11056361,176769.28134361],[151994.02285505,176764.8964825],[151994.13941129,176760.48825557],[151994.46288834,176756.0709022],[151994.99461599,176751.65897439],[151995.73455734,176747.26718148],[151996.68129027,176742.9102294],[151997.83201173,176738.60265759],[151999.18256486,176734.35867782],[152000.72748863,176730.19201825],[152002.46008855,176726.11577665],[152004.37252677,176722.14228572],[152006.45592897,176718.28299369],[152008.70050532,176714.54836217],[152011.09568227,176710.94778325],[152013.63024168,176707.48951671],[152016.2924641,176704.18064787],[152018.42570538,176701.73047667],[152020.62908465,176699.3474581],[152023.46315591,176696.45080547],[152026.364974,176693.62905602],[152029.90703208,176690.31517131],[152034.0788731,176686.5048684],[152063.49994222,176659.75524031],[152067.54862996,176656.06180399],[152070.85258371,176652.99527161],[152075.76267862,176648.27279614],[152080.56401102,176643.43978322],[152083.90528584,176639.95210769],[152087.44210518,176636.1975229],[152105.79235766,176616.65959262],[152110.1375443,176611.92485473],[152112.19340035,176609.47987124],[152114.11169012,176606.94140907],[152116.16135938,176603.74060751],[152117.05530514,176602.070665],[152117.59417012,176600.93130151],[152118.14616641,176599.61215274],[152118.63832672,176598.25201454],[152119.06675164,176596.85482901],[152119.42787926,176595.42499465],[152119.71854878,176593.96733092],[152119.93605984,176592.48703238],[152120.07822537,176590.98961326],[152120.14341631,176589.48084323],[152120.13059653,176587.96667609],[152120.03934671,176586.45317299],[152119.86987612,176584.94642222],[152119.62302194,176583.45245787],[152119.300236,176581.97717956],[152118.9035594,176580.52627545],[152118.43558585,176579.10515069],[152117.89941506,176577.71886312],[152117.29859765,176576.37206771],[152116.63707354,176575.06897095],[152115.91910575,176573.81329585],[152115.14921156,176572.60825796],[152114.4230644,176571.57809539],[152113.65484835,176570.57638648],[152112.43194317,176569.12593528],[152110.68829134,176567.28385653],[152108.83926936,176565.53576741],[152106.908385,176563.86618455],[152104.91673592,176562.25675061],[152100.82661568,176559.13513042],[152026.4755932,176503.25413195],[152023.33815159,176500.88805761],[152021.25505126,176499.2929161],[152019.44459604,176497.87708825],[152018.417216,176497.05718206],[152015.4394042,176494.59828664],[152012.52387288,176492.06492545],[152009.6733847,176489.459499],[152007.99914101,176487.86803111],[152005.64141503,176485.56525806],[152002.3806483,176482.31265998],[151988.58187343,176468.48662345]]},"geometry_name":"GEOM","properties":{"INSPIRE_ID":"https://databrussels.be/id/rail/29662","TYPE":"TW","LVL":0,"SLOPE":null,"LENGTH":2247.14498718966},"bbox":[151442.92822007,176468.48662345,152355.03887346,177710.39874374]},{"type":"Feature","id":"TramNetwork.fid--6f55e203_1a031389953_-5e3","geometry":{"type":"LineString","coordinates":[[151988.81779842,176462.53640149],[151921.80761521,176395.39369341],[151919.98555579,176393.56701718],[151917.44188499,176391.0053272],[151914.19616953,176387.69220089],[151910.6429922,176383.96593009],[151906.86181127,176379.83462077],[151903.17393446,176375.61887311],[151899.58215396,176371.32187895],[151896.68071918,176367.70898521],[151893.50942118,176363.64724727],[151889.74060244,176358.73671128],[151884.90903935,176352.42186935],[151880.67293915,176346.94149542],[151876.34417887,176341.52348664],[151872.48612341,176336.92421325],[151868.51732652,176332.41670985],[151864.44110993,176328.00493634],[151860.26098218,176323.69269009],[151855.9806286,176319.48359508],[151853.72804872,176317.34645897],[151850.88168855,176314.71008075],[151846.27320033,176310.55686887],[151842.20477533,176306.96878871],[151838.12147213,176303.40297007],[151818.25056611,176286.07889851],[151814.84300976,176283.11263384],[151811.07577607,176279.86584314],[151807.61941742,176276.94598906],[151804.85415539,176274.66571881],[151802.06340824,176272.41635412],[151799.24769645,176270.19831933],[151796.40754988,176268.01202704],[151793.51549477,176265.83486995],[151789.14856443,176262.61440699],[151785.13142471,176259.68854468],[151732.9240626,176221.73691461],[151728.51904503,176218.56408797],[151725.90966153,176216.75456383],[151723.25191924,176215.00527798],[151721.3163357,176213.80673211],[151719.27654979,176212.62125571],[151717.20119979,176211.4949618],[151715.09288405,176210.42941176],[151712.95429006,176209.42601359],[151710.78818306,176208.48601568],[151708.59739414,176207.61050167],[151705.81624636,176206.60010037],[151702.60977378,176205.54628197],[151699.78943241,176204.6894101],[151696.15538343,176203.64199701],[151687.28296321,176201.18216611],[151678.38225614,176198.82436366],[151669.45502489,176196.56906747],[151660.50304264,176194.41671465],[151655.88099433,176193.34467328],[151647.14309137,176191.33679572],[151640.33516688,176189.74479971],[151637.13203426,176188.95071267],[151633.9378524,176188.12135448],[151631.10925121,176187.35748741],[151627.19461001,176186.27447354],[151468.80731351,176142.23191445],[151465.11619516,176141.19622872],[151462.09422284,176140.30890844],[151460.1407229,176139.7016175],[151458.19563718,176139.06758369],[151456.2595136,176138.40698562],[151453.08375118,176137.26522002],[151449.70273337,176136.00445127],[151386.11273882,176112.14188594],[151381.59218106,176110.43209539],[151377.44418786,176108.79432211],[151372.76147363,176106.84694813],[151368.3485761,176104.98398465],[151363.34577699,176102.88724109],[151357.93394746,176100.69156738],[151352.49216037,176098.5712289],[151346.87166121,176096.45667175],[151276.09284585,176070.02038674]]},"geometry_name":"GEOM","properties":{"INSPIRE_ID":"https://databrussels.be/id/rail/29663","TYPE":"TW","LVL":0,"SLOPE":null,"LENGTH":835.417535402114},"bbox":[151276.09284585,176070.02038674,151988.81779842,176462.53640149]},{"type":"Feature","id":"TramNetwork.fid--6f55e203_1a031389953_-5e1","geometry":{"type":"LineString","coordinates":[[151987.8020983,176463.55009684],[151920.79191509,176396.40738877],[151918.96901216,176394.57986664],[151916.05822521,176391.64650397],[151912.44691544,176387.9470585],[151909.59537936,176384.94660962],[151905.79243198,176380.79151833],[151902.08332583,176376.55150262],[151898.47086917,176372.22977273],[151896.84365306,176370.21804778],[151895.2346559,176368.19324325],[151892.68993499,176364.93335163],[151888.60083893,176359.60858522],[151884.41703537,176354.13954844],[151879.21517348,176347.40779283],[151875.23380253,176342.43249125],[151871.39782893,176337.85954214],[151867.45174774,176333.37783777],[151863.39886167,176328.99131536],[151859.24265919,176324.70375057],[151854.98680454,176320.51874662],[151853.30877458,176318.9221452],[151850.48212193,176316.29087986],[151846.47362548,176312.65839284],[151841.25911968,176308.04812202],[151837.17846092,176304.48461459],[151817.30755491,176287.16054303],[151813.56157052,176283.90072499],[151809.80069257,176280.66417631],[151806.70029092,176278.04800153],[151803.94740162,176275.77793398],[151801.16914122,176273.53863372],[151798.3660279,176271.33052318],[151795.53858911,176269.15401311],[151792.65780557,176266.9853456],[151788.66578544,176264.03922228],[151784.28765079,176260.84926453],[151732.08028869,176222.89763446],[151727.69056179,176219.73577074],[151725.47588165,176218.19505953],[151722.85870229,176216.45736883],[151720.57722323,176215.03674746],[151718.57370074,176213.87234652],[151716.53524643,176212.76607592],[151714.46441243,176211.71946929],[151712.36383848,176210.73390958],[151710.23624065,176209.81062301],[151708.08439969,176208.95067394],[151706.13340009,176208.23163564],[151703.76846159,176207.42492476],[151701.38302727,176206.66782374],[151698.58069422,176205.8303422],[151695.76405499,176205.02260813],[151686.90753541,176202.56718559],[151678.02277967,176200.21360866],[151669.1115473,176197.96235428],[151660.17560828,176195.81385879],[151654.45898034,176194.49004503],[151646.82177262,176192.73535901],[151639.9975538,176191.13951918],[151636.7790628,176190.34162465],[151633.56956548,176189.50828985],[151630.07616374,176188.56198567],[151626.8101676,176187.65701795],[151468.4228711,176143.61445886],[151464.9397613,176142.63813083],[151461.67762864,176141.68210699],[151459.70535039,176141.06897838],[151457.74156725,176140.42884983],[151455.7868324,176139.76190166],[151452.58794746,176138.61184679],[151449.19856899,176137.34797026],[151385.60857445,176113.48540494],[151380.8512037,176111.68457783],[151377.80360917,176110.48745499],[151373.31987208,176108.63887908],[151368.32537925,176106.53183939],[151362.79706737,176104.21319085],[151357.40369671,176102.02500622],[151351.98047069,176099.91189987],[151346.36956072,176097.80096342],[151275.59074536,176071.36467841]]},"geometry_name":"GEOM","properties":{"INSPIRE_ID":"https://databrussels.be/id/rail/29664","TYPE":"TW","LVL":0,"SLOPE":null,"LENGTH":834.802236071241},"bbox":[151275.59074536,176071.36467841,151987.8020983,176463.55009684]},{"type":"Feature","id":"TramNetwork.fid--6f55e203_1a031389953_-5e4","geometry":{"type":"LineString","coordinates":[[151975.89135763,176453.73963339],[151919.78850601,176397.52594173],[151917.57980828,176395.31111376],[151914.64594074,176392.3507864],[151911.73634482,176389.37088211],[151908.50816916,176385.98010143],[151904.67518093,176381.79239335],[151900.93694919,176377.51893015],[151897.29631491,176373.16295956],[151895.66104217,176371.14096419],[151892.43761923,176367.05478342],[151887.35357429,176360.44705076],[151882.25504934,176353.78364947],[151878.34851573,176348.73331138],[151874.02498248,176343.32387456],[151870.23290786,176338.80544249],[151866.33266653,176334.37669648],[151862.32748598,176330.04148222],[151858.2207741,176325.80348843],[151854.01610956,176321.6662364],[151852.33581633,176320.06637452],[151849.50720982,176317.43192467],[151844.92401519,176313.2849403],[151840.87478125,176309.70550039],[151836.22672979,176305.64441926],[151819.72771973,176291.26018191],[151815.97869578,176287.99780622],[151812.20856397,176284.75374337],[151809.09576331,176282.12798357],[151806.38405564,176279.89262815],[151803.64761024,176277.68728204],[151800.88692752,176275.51235312],[151798.10251679,176273.36823808],[151794.84799908,176270.9203294],[151790.11412322,176267.43657787],[151786.82689279,176265.04382536],[151730.06594832,176223.78180332],[151726.17444808,176220.97479688],[151723.3010793,176218.97715422],[151720.73723901,176217.29039382],[151718.86978785,176216.13484821],[151716.90204186,176214.99237241],[151714.89987801,176213.90721976],[151712.86582327,176212.8809075],[151710.80249156,176211.91480304],[151708.71257261,176211.01011795],[151706.59882026,176210.16790286],[151705.45523584,176209.74156483],[151703.53836555,176209.06759993],[151701.22443498,176208.31043526],[151698.5125975,176207.48232874],[151694.62904732,176206.36405091],[151685.96977021,176203.97075486],[151677.28353639,176201.67499195],[151668.57199619,176199.47720833],[151659.83680961,176197.37781285],[151654.54089565,176196.15062749],[151646.49603826,176194.30220655],[151639.62310604,176192.69502485],[151636.38552077,176191.89240819],[151633.15698802,176191.05411936],[151629.64270921,176190.10213854],[151626.34936319,176189.18958879],[151463.46982279,176143.89787701],[151459.99529905,176142.92396527],[151456.75673212,176141.974871],[151454.80323218,176141.36758006],[151452.85814646,176140.73354625],[151450.92202289,176140.07294817],[151448.16907526,176139.08646691],[151444.36524265,176137.67041382],[151384.95173743,176115.3751037],[151379.91571262,176113.46728099],[151377.04475598,176112.33784109],[151371.8462383,176110.18876639],[151367.5484244,176108.37475618],[151362.00861113,176106.05143058],[151356.66465946,176103.88348731],[151351.2912573,176101.78960418],[151345.66877487,176099.67416931],[151263.18107577,176068.86455047]]},"geometry_name":"GEOM","properties":{"INSPIRE_ID":"https://databrussels.be/id/rail/29665","TYPE":"TW","LVL":0,"SLOPE":null,"LENGTH":831.222705371363},"bbox":[151263.18107577,176068.86455047,151975.89135763,176453.73963339]},{"type":"Feature","id":"TramNetwork.fid--6f55e203_1a031389953_-5e2","geometry":{"type":"LineString","coordinates":[[151974.87565854,176454.75332977],[151918.77280691,176398.53963811],[151916.93107384,176396.69324329],[151914.72421197,176394.4721459],[151911.43167523,176391.11845684],[151907.46060102,176386.9608287],[151903.60580486,176382.74929451],[151899.84630433,176378.4515173],[151896.18495654,176374.07076327],[151893.56386562,176370.81213243],[151890.3448805,176366.69878399],[151886.8474998,176362.14730575],[151882.40847358,176356.3440749],[151877.21859303,176349.6179015],[151872.91488499,176344.23321968],[151869.14477167,176339.74095552],[151865.26711807,176335.33785801],[151861.285133,176331.02775058],[151857.20220461,176326.81430058],[151853.02189083,176322.7010089],[151850.22903421,176320.05699415],[151846.83108775,176316.93052066],[151841.0858239,176311.80164005],[151835.28372271,176306.72606738],[151818.78471265,176292.34183003],[151816.06107682,176289.9696478],[151812.3059014,176286.72490219],[151808.17687954,176283.23019844],[151805.47742475,176281.00494349],[151802.75334401,176278.80956227],[151800.00513546,176276.64446078],[151797.23330613,176274.51003396],[151793.62947978,176271.80259602],[151789.63267413,176268.86184308],[151785.98311606,176266.20454317],[151729.2221716,176224.94252113],[151725.69725456,176222.39647709],[151723.21153651,176220.65343559],[151720.69386382,176218.96849764],[151718.13113183,176217.36513771],[151716.19980559,176216.24380728],[151714.23469853,176215.17873903],[151712.23829082,176214.17142213],[151710.21314802,176213.22319869],[151708.16191005,176212.33525784],[151706.0872798,176211.50863078],[151703.45566207,176210.5558716],[151700.7921509,176209.67877567],[151697.71962995,176208.74448215],[151694.23898406,176207.74502001],[151685.59528466,176205.3560294],[151676.92467703,176203.06439648],[151668.22880856,176200.87056659],[151659.50933624,176198.77494784],[151654.43983874,176197.59985565],[151646.17471952,176195.70076984],[151639.28550231,176194.08974659],[151636.03254931,176193.28332017],[151632.78869179,176192.44105227],[151629.48210673,176191.54622952],[151625.96492078,176190.57213319],[151463.08538038,176145.28042142],[151459.81998555,176144.36600404],[151456.34013792,176143.34806955],[151454.36785967,176142.73494094],[151452.40407653,176142.09481239],[151450.44934168,176141.42786421],[151447.03807936,176140.19952408],[151443.86107827,176139.01393282],[151384.44757306,176116.71862269],[151380.31617832,176115.15838541],[151376.73806222,176113.76094908],[151371.0632924,176111.41607614],[151361.45998297,176107.37741405],[151356.13440872,176105.21692616],[151350.77948524,176103.13024372],[151345.16667438,176101.01846098],[151262.67897528,176070.20884214]]},"geometry_name":"GEOM","properties":{"INSPIRE_ID":"https://databrussels.be/id/rail/29666","TYPE":"TW","LVL":0,"SLOPE":null,"LENGTH":830.606923401718},"bbox":[151262.67897528,176070.20884214,151974.87565854,176454.75332977]},{"type":"Feature","id":"TramNetwork.fid--6f55e203_1a031389953_-5d6","geometry":{"type":"LineString","coordinates":[[151251.96249913,176061.00756673],[151240.25266235,176056.63387693],[151236.61588171,176055.28845204],[151233.55781279,176054.21317455],[151230.77308824,176053.31702714],[151229.167686,176052.84738355],[151227.55202617,176052.41088181],[151225.92713829,176052.0078464],[151224.29406511,176051.63855905],[151222.65386042,176051.30325806],[151221.00758675,176051.00213776],[151219.35631307,176050.7353482],[151216.87569661,176050.39723049],[151214.74737945,176050.15605409],[151211.91018347,176049.88434199],[151208.36903938,176049.58812222],[151188.96854282,176048.01186579],[151185.10645863,176047.70414808],[151180.97650444,176047.41617816],[151177.36330664,176047.22791532],[151173.7473024,176047.10481131],[151169.09093868,176047.03190701],[151165.73364259,176047.01112219],[151083.4771951,176046.59835323],[151080.12683417,176046.57471392],[151077.81275561,176046.53688674],[151075.50367802,176046.46602875],[151073.71954217,176046.38101216],[151071.93640844,176046.26808318],[151070.15493168,176046.12726276],[151068.37576597,176045.95859231],[151066.59956388,176045.76213371],[151064.82697563,176045.53796918],[151063.05864833,176045.28620121],[151059.00407162,176044.61475967],[151055.20231454,176043.91780658],[151016.34639541,176036.68559264],[151013.88236561,176036.21748191],[151010.64108834,176035.50399808],[151008.26332992,176034.8341785],[151005.95736025,176033.99494793],[151004.11540544,176033.13533524],[151003.09023947,176032.561831],[151002.08826901,176031.92513773],[151001.11516107,176031.22653451],[151000.17650188,176030.46796628],[150999.27769986,176029.65203921],[150998.42388886,176028.78199906],[150997.61983472,176027.86169276],[150996.86984892,176026.89551374],[150996.1777123,176025.88833271],[150995.54661171,176024.84541606],[150994.97909188,176023.77233484],[150994.47702394,176022.67486747],[150994.04159124,176021.55889979],[150993.67329251,176020.43032583],[150993.37196136,176019.2949528],[150993.2005355,176018.50130665],[150992.99603533,176017.29735147],[150992.84954078,176016.08090696],[150992.75493649,176014.8552877],[150992.69848715,176013.21103063],[150992.73140194,176010.73009096],[150992.83228002,176008.65250785],[150992.96607518,176006.56558913],[150997.39156643,175940.22086585],[150997.59567196,175936.92673583],[150997.66891451,175935.27052242],[150997.70367856,175933.88555901],[150997.70928635,175932.77471408],[150997.69127677,175931.66175047],[150997.54371541,175929.0504022],[150997.24706053,175926.45176602],[150997.15977569,175925.86866192],[150997.01600205,175924.99716562],[150996.80299532,175923.84101806],[150996.50814609,175922.40482507],[150995.9206759,175919.84164474],[150995.36733842,175917.5810262],[150985.61012743,175878.09880227],[150984.52498899,175873.71422665],[150983.19396683,175868.39139745],[150981.3296578,175861.12126433],[150979.41087572,175853.86531787],[150977.63648495,175847.32431528],[150975.65193584,175840.07459297],[150973.36864428,175831.67319651],[150971.30711055,175823.86829773],[150969.3086623,175816.0468722],[150967.37349517,175808.20968555],[150966.24269754,175803.5076733],[150965.04876146,175798.48735795],[150963.39751505,175791.53040423],[150962.49937485,175787.76289665],[150961.42064242,175783.36946553],[150960.4441427,175779.61206721],[150959.75496403,175777.11492298],[150959.02769199,175774.62665493],[150958.2559415,175772.14986088],[150957.57351295,175770.09239984],[150956.85557286,175768.0448993],[150956.10234063,175766.00827496],[150955.31406704,175763.983436],[150954.49103401,175761.97128372],[150953.63355429,175759.9727102],[150952.74197105,175757.98859702],[150951.81665746,175756.01981392],[150950.85801614,175754.06721755],[150949.86647858,175752.13165023],[150948.84250452,175750.21393876],[150947.78658122,175748.31489319],[150946.69922269,175746.43530576],[150945.58096889,175744.57594972],[150944.43238484,175742.73757835],[150943.0007146,175740.52459694],[150941.53557704,175738.33074862],[150940.03735666,175736.15678705],[150938.5064605,175734.00345553],[150936.9433177,175731.87148618],[150935.34837919,175729.76159908],[150933.72211722,175727.67450152],[150932.0650249,175725.61088717],[150930.37761574,175723.57143531],[150928.66042307,175721.55681013],[150926.91399952,175719.56765998],[150925.1389164,175717.60461666],[150923.3357631,175715.66829479],[150921.50514642,175713.75929114],[150919.6476899,175711.87818401],[150917.76403312,175710.02553271],[150915.85483098,175708.20187694],[150913.92075291,175706.40773632],[150911.96248217,175704.64360988],[150910.50304711,175703.36138317],[150908.66323641,175701.77858299],[150906.80959721,175700.21440455],[150903.44944732,175697.4332405],[150900.45078218,175694.9821578],[150850.02940677,175653.84592509],[150847.92249777,175652.1346126],[150845.1673942,175649.97039427],[150842.64153146,175648.12692322],[150840.3495424,175646.61440727],[150839.2383165,175645.94365969],[150838.10756582,175645.30245451],[150836.95847762,175644.69162383],[150835.79228549,175644.11193554],[150834.61026494,175643.5640902],[150833.41372878,175643.04871816],[150832.20402228,175642.56637721],[150830.9825181,175642.11755058],[150829.75061113,175641.70264527],[150828.50971322,175641.32199099],[150826.99545494,175640.90570275],[150824.70923317,175640.36241616],[150823.17895692,175640.0450067],[150820.87938634,175639.61984118],[150818.57945025,175639.23619086],[150816.66556787,175638.93225351],[150780.06660837,175633.16164866],[150775.28994656,175632.40341253],[150770.04651575,175631.53463138],[150765.29555709,175630.6811616],[150759.54699325,175629.52697093],[150753.82479579,175628.23733557],[150748.13374052,175626.81321442],[150742.47855414,175625.25579026],[150736.86390118,175623.56646656],[150734.10576036,175622.68461615],[150729.98081057,175621.3144767],[150724.95078927,175619.59007136],[150718.68841156,175617.41753312],[150711.84445022,175615.02004957],[150704.60614803,175612.33271452],[150701.73733365,175611.18929791],[150698.88401151,175610.0004671],[150696.04725488,175608.76653771],[150693.22812842,175607.48785903],[150690.42768681,175606.16481378],[150687.64697346,175604.79781768],[150684.88701924,175603.38731909],[150682.14884118,175601.93379848],[150679.43344126,175600.43776792],[150676.74180513,175598.89977045],[150674.074901,175597.32037945],[150671.43367839,175595.70019792],[150668.81906707,175594.0398577],[150666.23197596,175592.34001868],[150663.67329204,175590.60136791],[150661.14387942,175588.82461871],[150658.64457831,175587.0105097],[150656.59113593,175585.46929262],[150654.18560947,175583.56080577],[150652.44168058,175582.06788418],[150651.34893448,175581.06837361],[150650.28253927,175580.03885749],[150649.24371602,175578.98039366],[150648.23362826,175577.89410542],[150647.25337772,175576.7811776],[150646.30400026,175575.64285224],[150645.38646228,175574.48042398],[150644.62116801,175573.46061673],[150643.57984079,175572.00526743],[150642.421156,175570.31216009],[150640.85495341,175567.95240496],[150615.58811159,175529.63373651],[150614.3459486,175527.74876096],[150612.22731895,175524.5136844],[150610.13628492,175521.26497916],[150609.11634816,175519.64925983],[150608.10672692,175518.02702875],[150607.10748324,175516.39838489],[150606.1186779,175514.76342804],[150604.96548804,175512.82761382],[150602.84971406,175509.21350228],[150601.07266331,175506.14390076],[150585.10676995,175478.52056316],[150583.21494178,175475.25293582],[150581.09365526,175471.62919147],[150578.49476199,175467.30644076],[150577.48859697,175465.67957994],[150576.46997452,175464.06032546],[150575.43898143,175462.44882006],[150574.39570667,175460.84520517],[150573.34024136,175459.24962083],[150572.27267873,175457.6622057],[150571.19311411,175456.08309695],[150569.50981631,175453.6690901],[150566.82515817,175449.90820953],[150563.62043085,175445.49396768],[150558.7766756,175438.84345339],[150554.16270813,175432.56001396],[150549.49986229,175426.31261293],[150544.78856252,175420.10181899],[150541.20808597,175415.39090964],[150537.65553615,175410.65884003],[150534.1310999,175405.90585904],[150502.32037811,175362.74005299]]},"geometry_name":"GEOM","properties":{"INSPIRE_ID":"https://databrussels.be/id/rail/29667","TYPE":"TW","LVL":0,"SLOPE":null,"LENGTH":1163.71394967092},"bbox":[150502.32037811,175362.74005299,151251.96249913,176061.00756673]},{"type":"Feature","id":"TramNetwork.fid--6f55e203_1a031389953_-5d8","geometry":{"type":"LineString","coordinates":[[151251.46039865,176062.3518584],[151238.54234544,176057.52737033],[151234.00833666,176055.88440485],[151230.35593163,176054.69005495],[151228.77907032,176054.22876071],[151227.19213378,176053.80001912],[151225.59613324,176053.40414889],[151223.99209293,176053.04142675],[151222.38104789,176052.71208676],[151220.76404175,176052.4163198],[151219.1421245,176052.15427324],[151216.70066568,176051.82151599],[151213.89552025,176051.51151965],[151211.4312373,176051.2828259],[151208.25283107,176051.01840913],[151188.85233451,176049.44215269],[151184.48325251,176049.09598385],[151180.8889232,176048.84850302],[151177.30155742,176048.66158614],[151173.71140527,176048.53936225],[151169.59396225,176048.47154592],[151165.72644174,176048.44610412],[151083.46999426,176048.03333517],[151080.36955499,176048.01238704],[151077.52125669,176047.96547128],[151075.44657918,176047.89989231],[151073.64004064,176047.81380821],[151071.83451681,176047.69946122],[151070.03067075,176047.55687257],[151068.22916477,176047.3860842],[151066.43065961,176047.18715874],[151064.63581368,176046.96017947],[151062.84528219,176046.70525015],[151059.0078848,176046.07277598],[151054.93972918,176045.32857726],[151016.08381005,176038.09636333],[151012.36167752,176037.37117739],[151009.88060211,176036.79115135],[151007.42065707,176036.06907222],[151005.01001113,176035.15146519],[151003.44996852,176034.4067198],[151002.35502367,176033.79417946],[151001.28485315,176033.11414907],[151000.24550972,176032.36799477],[150999.24295981,176031.55779389],[150998.28298,176030.68632998],[150997.37105356,176029.75706974],[150996.51227072,176028.77412193],[150995.71123644,176027.74217904],[150994.9719889,176026.66644329],[150994.29793186,176025.55253955],[150993.69178327,176024.40641806],[150993.1555416,176023.23425055],[150992.69047077,176022.04232348],[150992.29710344,176020.83693209],[150991.97526191,176019.62427884],[150991.7925454,176018.77841475],[150991.64069632,176017.92827043],[150991.46630686,176016.64809039],[150991.3223081,176014.93775527],[150991.27123865,176013.6560609],[150991.27274283,176011.52718791],[150991.39976417,176008.568108],[150991.53425708,176006.47008042],[150995.95974832,175940.12535714],[150996.06714415,175938.48624984],[150996.14804265,175937.12367921],[150996.23478155,175935.22064614],[150996.26883186,175933.86458414],[150996.27430457,175932.781944],[150996.25683279,175931.70169373],[150996.11390315,175929.17231156],[150995.82655979,175926.65524245],[150995.69698775,175925.80734516],[150995.39433964,175924.11472262],[150995.10533387,175922.70705487],[150994.72528171,175921.01996219],[150993.97424802,175917.92529954],[150984.21703703,175878.44307561],[150983.20991405,175874.37290863],[150981.8026152,175868.74263191],[150979.94097954,175861.48292395],[150978.02494894,175854.23738231],[150976.42219241,175848.32478781],[150973.58706809,175837.96374333],[150971.98271749,175832.04526094],[150969.91822333,175824.22915409],[150967.91690526,175816.39649676],[150965.97895916,175808.54805568],[150964.92189853,175804.15480082],[150963.65255105,175798.81875119],[150962.00130463,175791.86179747],[150961.10414802,175788.09840682],[150960.02915456,175783.72015989],[150959.05834379,175779.98460766],[150958.37442433,175777.50650331],[150957.65375425,175775.04080476],[150956.89012411,175772.59005159],[150956.21536315,175770.55570764],[150955.50548965,175768.53121227],[150954.76072053,175766.5174709],[150953.98130378,175764.51538249],[150953.16751813,175762.52583822],[150952.31967282,175760.54972015],[150951.43810718,175758.58789994],[150950.52319016,175756.64123756],[150949.57531988,175754.71058005],[150948.59492297,175752.79676025],[150947.58245402,175750.90059568],[150946.53839479,175749.02288729],[150945.46325353,175747.1644184],[150944.35756414,175745.32595359],[150943.22188527,175743.50823767],[150941.80158331,175741.3128286],[150940.34807978,175739.13640068],[150938.86175613,175736.97970161],[150937.34301615,175734.84346877],[150935.79228559,175732.72842847],[150934.21001181,175730.63529508],[150932.59666328,175728.56477027],[150930.95272923,175726.51754219],[150929.27871906,175724.49428474],[150927.57516188,175722.49565684],[150925.84260592,175720.52230167],[150924.08161797,175718.57484604],[150922.29278274,175716.65389967],[150920.4767022,175714.76005459],[150918.63399494,175712.89388453],[150916.76529547,175711.05594434],[150914.87125348,175709.24676943],[150912.9525331,175707.46687531],[150911.00981215,175705.71675704],[150909.92462346,175704.7609435],[150908.10001665,175703.18433102],[150905.51809649,175701.00522119],[150902.53922378,175698.54261785],[150899.54364053,175696.09405664],[150849.12226512,175654.95782394],[150845.51512264,175652.05299563],[150843.06867901,175650.1946408],[150841.50740233,175649.08753402],[150839.59134185,175647.83274914],[150838.51353365,175647.18217284],[150837.41678784,175646.56025051],[150836.30225597,175645.96778923],[150835.17113453,175645.40553381],[150834.02466067,175644.87416372],[150832.86410774,175644.37429038],[150831.69078053,175643.90645479],[150830.50601043,175643.47112563],[150829.31115038,175643.0686977],[150828.10756978,175642.69949078],[150827.37368594,175642.49164732],[150825.89472526,175642.10865071],[150824.40312665,175641.76438756],[150822.52436437,175641.37939494],[150821.01222959,175641.10017629],[150818.73233871,175640.71459145],[150816.44207063,175640.34974213],[150779.84311112,175634.57913728],[150774.58385714,175633.74311431],[150769.32574794,175632.86649328],[150765.02964213,175632.09130849],[150759.24798655,175630.93047369],[150753.49284915,175629.63341452],[150747.7690332,175628.20109538],[150742.08129262,175626.63470588],[150736.43431879,175624.93565755],[150733.66184032,175624.04922599],[150729.06223806,175622.51845882],[150722.19501334,175620.15336353],[150714.56029529,175617.500509],[150708.62602801,175615.38277238],[150704.08519368,175613.66981271],[150701.19572145,175612.51816255],[150698.32185301,175611.32077117],[150695.46466938,175610.07795645],[150692.62524286,175608.79007023],[150689.80463573,175607.45749795],[150687.00389893,175606.08065834],[150684.22407074,175604.66000298],[150681.46617552,175603.19601581],[150678.73122245,175601.68921258],[150676.02020431,175600.14014025],[150673.33409624,175598.54937632],[150670.67385463,175596.91752813],[150668.04041593,175595.24523208],[150665.43469561,175593.5331528],[150662.85758703,175591.7819823],[150660.30996053,175589.99243902],[150657.79266237,175588.16526692],[150655.92457205,175586.76602137],[150653.47340159,175584.83303562],[150651.48750383,175583.13969187],[150650.36624699,175582.11410316],[150649.27202856,175581.05772603],[150648.20610146,175579.97164591],[150647.1696596,175578.85701543],[150646.16383343,175577.71505031],[150645.18968585,175576.54702501],[150644.24820847,175575.35426793],[150643.46456883,175574.31003025],[150642.40357542,175572.82723142],[150641.37521598,175571.32795508],[150639.65695154,175568.74235213],[150614.39010973,175530.42368368],[150611.90698042,175526.6485672],[150608.92528426,175522.03485084],[150607.90045711,175520.41138446],[150606.88599494,175518.7813751],[150605.88196008,175517.14492223],[150604.88841362,175515.50212608],[150602.5841894,175511.6083698],[150599.83025883,175506.86199275],[150583.86436547,175479.23865515],[150581.76356217,175475.6115096],[150579.64513381,175471.99914154],[150577.27144571,175468.05658892],[150576.27103954,175466.43903957],[150575.25824725,175464.82905301],[150574.23315513,175463.22677117],[150573.19585163,175461.63233469],[150572.14642735,175460.0458828],[150571.08497499,175458.46755335],[150570.01158935,175456.89748275],[150568.09557073,175454.15385548],[150565.41618717,175450.4080989],[150562.46047707,175446.33879442],[150557.61672181,175439.68828013],[150553.00937064,175433.41385096],[150548.35321119,175427.17540853],[150543.64866728,175420.97352068],[150540.06304906,175416.25584633],[150536.50539766,175411.51698133],[150532.97590022,175406.75717491],[150501.16517843,175363.59136885]]},"geometry_name":"GEOM","properties":{"INSPIRE_ID":"https://databrussels.be/id/rail/29668","TYPE":"TW","LVL":0,"SLOPE":null,"LENGTH":1164.54392775918},"bbox":[150501.16517843,175363.59136885,151251.46039865,176062.3518584]},{"type":"Feature","id":"TramNetwork.fid--6f55e203_1a031389953_-5d7","geometry":{"type":"LineString","coordinates":[[151239.05077025,176059.85174585],[151236.41898392,176058.86989622],[151233.46228423,176057.78943208],[151230.47815358,176056.76096694],[151227.79408056,176055.91986218],[151226.34989994,176055.50864526],[151224.89734309,176055.12530055],[151223.43721922,176054.77007553],[151221.97034699,176054.44318625],[151220.49755296,176054.14481689],[151219.01967006,176053.87511948],[151217.53753601,176053.63421354],[151215.7961044,176053.3875487],[151213.35540995,176053.09709513],[151209.86915721,176052.76124489],[151206.7367716,176052.50050428],[151188.71006079,176051.03586554],[151184.8602286,176050.72919771],[151180.74322994,176050.44270817],[151177.23270298,176050.26022339],[151173.71948617,176050.14019055],[151169.33543227,176050.06919702],[151165.7311581,176050.04614793],[151083.53245039,176049.63366872],[151078.290833,176049.58230993],[151075.41779168,176049.49980139],[151073.57630599,176049.41252248],[151071.73585103,176049.29627736],[151069.89711004,176049.15108766],[151068.06076549,176048.97699649],[151066.22749828,176048.77406838],[151064.39798682,176048.54238926],[151062.57290625,176048.28206628],[151058.18872453,176047.55203928],[151054.57764998,176046.88865292],[151016.10536152,176039.72825075],[151011.29181399,176038.77473398],[151008.71315021,176038.14068272],[151006.60593468,176037.50332669],[151004.55292806,176036.73795147],[151002.96327748,176036.01710391],[151001.9152105,176035.46614152],[151000.88574754,176034.85938578],[150999.87921237,176034.19764279],[150998.8998973,176033.48215742],[150997.95200807,176032.71461426],[150997.03960803,176031.8971302],[150996.16656317,176031.03223862],[150995.3364894,176030.12286519],[150994.55270359,176029.17229581],[150993.81817974,176028.18413731],[150993.13551144,176027.16227198],[150992.50688168,176026.11080698],[150991.93404068,176025.03402024],[150991.41829219,176023.93630406],[150990.96048845,176022.82210813],[150990.56103357,176021.69588332],[150990.21989488,176020.5620278],[150989.96123793,176019.53592349],[150989.64983345,176017.9757483],[150989.42296229,176016.3964689],[150989.27179437,176014.80359664],[150989.17194292,176012.66560298],[150989.16744256,176010.51719928],[150989.23500544,176008.36178684],[150989.35101326,176006.20038597],[150989.49161273,176004.03240987],[150993.89759442,175937.99216543],[150994.05377924,175935.56639632],[150994.13667098,175934.04434317],[150994.20720723,175932.21140622],[150994.22993651,175930.98563009],[150994.22814586,175929.75715634],[150994.19745654,175928.52657697],[150994.04490122,175926.14395286],[150993.76816867,175923.77254191],[150993.5370965,175922.31794368],[150993.26743978,175920.87378161],[150993.02921615,175919.72560791],[150992.57687759,175917.72989227],[150991.88836308,175914.90181978],[150982.95718864,175878.76358495],[150981.86803727,175874.36301343],[150980.53200944,175869.02078103],[150978.68350603,175861.81286945],[150976.78131068,175854.61894096],[150974.8221038,175847.40100739],[150972.50948861,175838.95238693],[150970.71821451,175832.34882255],[150968.65293393,175824.52879217],[150966.6508103,175816.69221823],[150964.71203928,175808.83986661],[150963.73115246,175804.76508947],[150962.38734747,175799.11751886],[150960.71351426,175792.06540354],[150959.37216101,175786.46987977],[150958.27921788,175782.12317354],[150957.62008482,175779.64558052],[150956.38253401,175775.32838716],[150955.61627783,175772.87634295],[150954.94905001,175770.87081713],[150954.24733269,175768.87500531],[150953.51133933,175766.88979361],[150952.74131364,175764.91606185],[150951.93752936,175762.95468217],[150951.10028994,175761.00651783],[150950.22992819,175759.0724219],[150949.32680582,175757.15323603],[150948.39131293,175755.24978923],[150947.42386749,175753.3628967],[150946.42491468,175751.4933586],[150945.39492622,175749.64195901],[150944.33439966,175747.80946478],[150943.24385756,175745.99662448],[150942.12384664,175744.20416741],[150940.71648923,175742.02877263],[150939.27629701,175739.8721539],[150937.80364668,175737.73504922],[150936.29893694,175735.61818644],[150934.76258812,175733.52228248],[150933.19504182,175731.4480425],[150931.5967605,175729.39615915],[150929.968227,175727.36731176],[150928.30994409,175725.36216562],[150926.62243392,175723.38137125],[150924.90623753,175721.42556369],[150923.16191419,175719.49536183],[150921.39004087,175717.59136777],[150919.59121156,175715.71416614],[150917.76603661,175713.86432358],[150915.91514207,175712.04238811],[150914.03916896,175710.24888864],[150912.13877255,175708.48433445],[150910.21462162,175706.74921472],[150908.02889709,175704.83654301],[150905.8198991,175702.95427651],[150902.47644996,175700.17305221],[150898.74133016,175697.11662301],[150848.74036084,175656.32310198],[150846.39916946,175654.42375384],[150843.71560753,175652.32686579],[150840.93934331,175650.32896776],[150839.34356101,175649.28523457],[150838.20507974,175648.59295003],[150837.04588393,175647.93171281],[150835.86725381,175647.30242993],[150834.67052147,175646.70593736],[150833.45706586,175646.14299637],[150832.22830755,175645.61429032],[150830.98570315,175645.12042192],[150829.73073958,175644.66191092],[150828.46492815,175644.23919232],[150827.18979853,175643.85261512],[150826.08621694,175643.548634],[150824.23699251,175643.09499017],[150821.63529636,175642.55138804],[150820.14549024,175642.27746393],[150818.28286732,175641.96102403],[150815.67864451,175641.54483575],[150779.71943273,175635.87587458],[150773.93140276,175634.95451366],[150769.11903391,175634.15004761],[150764.8013388,175633.37116825],[150758.98588183,175632.20380835],[150753.19710872,175630.89933855],[150747.43985711,175629.45872994],[150741.7189149,175627.88318057],[150736.03900697,175626.17411215],[150731.8633145,175624.82773312],[150727.70110943,175623.42872829],[150721.69933655,175621.35779275],[150713.07280495,175618.36275752],[150708.92088173,175616.90074821],[150705.24664474,175615.56674612],[150701.59524539,175614.18155331],[150697.92686131,175612.71134946],[150694.28442821,175611.16824893],[150690.67010921,175609.55295089],[150687.08604168,175607.86623976],[150683.53433305,175606.10898405],[150680.01705675,175604.28213482],[150676.53624813,175602.38672405],[150673.09390056,175600.42386262],[150669.6919616,175598.39473822],[150666.33232937,175596.3006129],[150663.016849,175594.1428205],[150659.74730932,175591.92276387],[150657.56904952,175590.3869706],[150655.00455752,175588.48789383],[150653.12932745,175587.00896712],[150651.74800232,175585.85599355],[150650.39395802,175584.66774935],[150649.06853093,175583.44521621],[150647.77300956,175582.18944267],[150646.50863041,175580.90154119],[150645.27657407,175579.58268487],[150644.0779615,175578.23410387],[150642.91385069,175576.85708162],[150641.78523352,175575.45295075],[150640.693033,175574.02308879],[150640.05938725,175573.15931051],[150639.28167027,175572.06686302],[150638.06328694,175570.29538545],[150635.97264982,175567.15135893],[150612.2994271,175531.24950862],[150610.80416225,175528.97751398],[150608.47018427,175525.36759635],[150607.49451797,175523.81402678],[150606.53315408,175522.25147507],[150605.58621574,175520.68013928],[150604.6538224,175519.10021972],[150602.98041433,175516.18631441],[150600.70211679,175512.12005564],[150587.39210597,175488.23840634],[150584.32304121,175482.74584159],[150581.21567314,175477.26946558],[150578.43724008,175472.50743401],[150575.1624643,175467.11927524],[150573.9628804,175465.2155455],[150572.74599625,175463.32266229],[150571.51196002,175461.44086076],[150570.26092413,175459.57037336],[150568.99304521,175457.71142971],[150566.81813298,175454.59977122],[150564.11806714,175450.83153413],[150561.3958207,175447.08515789],[150556.5658926,175440.45362839],[150551.96453529,175434.18736184],[150547.31443319,175427.9570352],[150542.61600958,175421.7632156],[150539.02573339,175417.03941267],[150535.46346037,175412.29439156],[150531.92937786,175407.52840183],[150501.29179488,175365.95449558]]},"geometry_name":"GEOM","properties":{"INSPIRE_ID":"https://databrussels.be/id/rail/29669","TYPE":"TW","LVL":0,"SLOPE":null,"LENGTH":1151.64221012623},"bbox":[150501.29179488,175365.95449558,151239.05077025,176059.85174585]},{"type":"Feature","id":"TramNetwork.fid--6f55e203_1a031389953_-5d9","geometry":{"type":"LineString","coordinates":[[151238.54866976,176061.19603752],[151235.26642557,176059.97321328],[151232.97953031,176059.14079201],[151230.02849498,176058.1236966],[151227.38775196,176057.29613325],[151225.97030077,176056.89252729],[151224.54462838,176056.51627767],[151223.11152902,176056.16762728],[151221.67180619,176055.84678818],[151220.22627118,176055.55394116],[151218.77574148,176055.2892354],[151217.32103931,176055.05278824],[151215.26602829,176054.76591463],[151213.20143402,176054.52381038],[151210.43719645,176054.25222701],[151206.62056328,176053.93079118],[151188.59385248,176052.46615244],[151184.49476846,176052.14052139],[151180.6559974,176051.87505432],[151177.17095376,176051.69389422],[151173.6832398,176051.57473271],[151169.32230684,176051.50413699],[151165.72395725,176051.48112987],[151083.52524954,176051.06865065],[151078.526605,176051.02196109],[151075.3611192,176050.93368187],[151073.4971089,176050.84533539],[151071.63414192,176050.72766839],[151069.77290988,176050.58070276],[151067.91410361,176050.40448214],[151066.0584123,176050.19907187],[151064.20652269,176049.9645589],[151062.35911816,176049.70105172],[151058.45470273,176049.05682228],[151054.31507905,176048.29942629],[151015.84279059,176041.13902412],[151011.86501179,176040.36668377],[151008.77423482,176039.64282633],[151006.58506354,176039.00655584],[151004.4286548,176038.23616628],[151002.32646061,176037.30306241],[151001.21696297,176036.7198063],[151000.12715979,176036.07748661],[150999.06162828,176035.37695668],[150998.02491232,176034.61953435],[150997.02146418,176033.80700296],[150996.05558537,176032.94160347],[150995.13136847,176032.02601774],[150994.25264134,176031.06334294],[150993.42291527,176030.05705755],[150992.64533856,176029.01097983],[150991.92265682,176027.9292196],[150991.25718099,176026.81612478],[150990.65076389,176025.67622402],[150990.10478568,176024.51416708],[150989.62014856,176023.33466445],[150989.19728031,176022.1424279],[150988.83614636,176020.94211336],[150988.56281771,176019.85786428],[150988.33391097,176018.76540675],[150988.06758918,176017.11634072],[150987.84058375,176014.90781359],[150987.75289766,176013.25009895],[150987.73263713,176010.49356963],[150987.85553741,176007.20427579],[150988.05979578,176003.93688389],[150992.46577747,175937.89663945],[150992.65619082,175934.87819525],[150992.75390067,175932.77265601],[150992.79152314,175931.27223283],[150992.79616521,175930.07433253],[150992.76348305,175928.58084512],[150992.6157162,175926.27300781],[150992.34766985,175923.97603171],[150992.21808982,175923.12813564],[150992.0222121,175921.99926534],[150991.74550296,175920.59065599],[150991.18028333,175918.05966411],[150990.49527592,175915.24610622],[150981.56410148,175879.10787139],[150980.39730796,175874.39461881],[150979.14067236,175869.37207313],[150977.29482692,175862.17452581],[150975.39536673,175854.99094147],[150973.69495484,175848.71992711],[150971.38321096,175840.27413993],[150969.3322754,175832.72084108],[150967.26403711,175824.88961155],[150965.25904622,175817.04181477],[150963.31749867,175809.17821771],[150962.18550909,175804.47108574],[150960.99113706,175799.44891211],[150959.31730385,175792.39679678],[150958.42895326,175788.67053944],[150957.20768411,175783.71801339],[150956.23563106,175780.02308918],[150955.19143308,175776.35239405],[150954.2508749,175773.31781758],[150953.59130793,175771.33531843],[150952.89764746,175769.36242173],[150952.17010448,175767.40000345],[150951.40891992,175765.4489333],[150950.61436438,175763.51007342],[150949.78673782,175761.58427713],[150948.92636922,175759.67238773],[150948.03361614,175757.7752372],[150947.10886421,175755.89364503],[150946.1525266,175754.02841706],[150945.16504337,175752.18034426],[150944.14688084,175750.35020172],[150943.09853083,175748.53874747],[150942.0205099,175746.74672148],[150940.91335851,175744.97484471],[150939.51734805,175742.81698925],[150938.08876751,175740.67775845],[150936.62799055,175738.55788436],[150935.13541267,175736.45808898],[150933.6114508,175734.37908343],[150932.05654299,175732.32156721],[150930.47114796,175730.28622735],[150928.85574466,175728.27373772],[150927.2108318,175726.28475825],[150925.53692734,175724.31993422],[150923.83456793,175722.37989554],[150922.10430836,175720.46525611],[150920.34672093,175718.57661317],[150918.56239484,175716.71454665],[150916.75193552,175714.8796186],[150914.91596399,175713.07237266],[150913.05511608,175711.29333344],[150911.1700418,175709.54300613],[150909.2614045,175707.82187595],[150907.45524732,175706.23752963],[150904.52705219,175703.74193503],[150901.93615802,175701.58723904],[150897.83418482,175698.22851884],[150847.83321551,175657.43499782],[150845.79329813,175655.77786615],[150843.14771895,175653.69733841],[150840.43896828,175651.72550068],[150838.58094447,175650.50081715],[150837.47670055,175649.82935156],[150836.35236503,175649.18799961],[150835.20917965,175648.57764105],[150834.04843642,175647.9990867],[150832.87147286,175647.45307493],[150831.67966678,175646.94026856],[150830.474431,175646.46125218],[150829.25720773,175646.0165299],[150828.02946282,175645.60652365],[150826.79267996,175645.23157191],[150825.00166319,175644.75232214],[150822.82695193,175644.25454235],[150820.63127314,175643.8230542],[150818.05043964,175643.37707571],[150815.45517703,175642.96232906],[150779.49596525,175637.29336789],[150774.18447753,175636.44916292],[150768.87419673,175635.5640065],[150764.53549555,175634.78132866],[150758.68692509,175633.60732175],[150752.86519042,175632.29542424],[150747.07515674,175630.84661273],[150741.3216392,175629.26209211],[150735.6093896,175627.54329217],[150733.27537561,175626.79918901],[150729.55542785,175625.57156785],[150725.84935703,175624.31150256],[150721.22888374,175622.71348414],[150712.13776191,175619.55637071],[150707.97667163,175618.08712277],[150703.82808337,175616.56979603],[150701.07444502,175615.51871148],[150697.38003727,175614.03807795],[150693.71176461,175612.4840306],[150690.07180549,175610.85727357],[150686.46231244,175609.15859685],[150682.88540785,175607.3888751],[150679.34317986,175605.54906613],[150675.83767825,175603.64020923],[150672.37091052,175601.66342319],[150668.94483807,175599.6199041],[150665.56137248,175597.51092297],[150662.22237197,175595.33782311],[150658.92963804,175593.10201731],[150656.73152304,175591.55220637],[150654.34670478,175589.79101748],[150652.22347083,175588.12191312],[150650.81491111,175586.9462072],[150649.4341701,175585.73453525],[150648.08261052,175584.4878983],[150646.76154629,175583.20736558],[150645.4722383,175581.89407148],[150644.21589038,175580.54921222],[150642.99364563,175579.17404222],[150641.80658289,175577.76987022],[150640.65571359,175576.33805511],[150639.54197895,175574.8800016],[150638.89665095,175574.00030356],[150638.10683619,175572.89087144],[150636.72268507,175570.87422756],[150634.77464795,175567.9413061],[150611.10142524,175532.03945579],[150609.3551676,175529.38425039],[150607.2584824,175526.13636392],[150606.27579049,175524.57160736],[150605.30750398,175522.99780397],[150604.35374689,175521.41515325],[150603.41463954,175519.82385696],[150601.73170554,175516.8933868],[150599.44864763,175512.81865429],[150586.13863681,175488.937005],[150584.2239257,175485.50496076],[150582.30132251,175482.07944342],[150579.97148323,175477.9844596],[150576.80203211,175472.56564464],[150573.94493201,175467.87877515],[150572.75228974,175465.98606172],[150571.54244732,175464.10413205],[150570.31555209,175462.23321994],[150569.07175557,175460.37355649],[150567.81121348,175458.52536998],[150565.88952272,175455.77193111],[150562.70886109,175451.33195976],[150560.23586692,175447.92998462],[150555.40593881,175441.29845512],[150550.81119779,175435.04119884],[150546.16778208,175428.8198308],[150541.47611434,175422.63491729],[150537.88069648,175417.90434935],[150534.31332189,175413.15253285],[150530.77417819,175408.37971769],[150500.1365952,175366.80581145]]},"geometry_name":"GEOM","properties":{"INSPIRE_ID":"https://databrussels.be/id/rail/29670","TYPE":"TW","LVL":0,"SLOPE":null,"LENGTH":1152.47145525239},"bbox":[150500.1365952,175366.80581145,151238.54866976,176061.19603752]},{"type":"Feature","id":"TramNetwork.fid--6f55e203_1a031389953_-5e5","geometry":{"type":"LineString","coordinates":[[151251.46039865,176062.3518584],[151258.07018125,176064.82064932],[151260.89459861,176065.87558507],[151269.15032358,176068.95914471],[151275.59074536,176071.36467841]]},"geometry_name":"GEOM","properties":{"INSPIRE_ID":"https://databrussels.be/id/rail/29689","TYPE":"TW","LVL":0,"SLOPE":null,"LENGTH":25.7585822030814},"bbox":[151251.46039865,176062.3518584,151275.59074536,176071.36467841]},{"type":"Feature","id":"TramNetwork.fid--6f55e203_1a031389953_-5e8","geometry":{"type":"LineString","coordinates":[[151251.96249913,176061.00756673],[151258.55822958,176063.47110909],[151261.3966991,176064.5312934],[151269.65242407,176067.61485304],[151276.09284585,176070.02038674]]},"geometry_name":"GEOM","properties":{"INSPIRE_ID":"https://databrussels.be/id/rail/29690","TYPE":"TW","LVL":0,"SLOPE":null,"LENGTH":25.7585822040356},"bbox":[151251.96249913,176061.00756673,151276.09284585,176070.02038674]},{"type":"Feature","id":"TramNetwork.fid--6f55e203_1a031389953_-5e7","geometry":{"type":"LineString","coordinates":[[151238.54866976,176061.19603752],[151244.98909153,176063.60157122],[151256.06919267,176067.74005122],[151262.67897528,176070.20884214]]},"geometry_name":"GEOM","properties":{"INSPIRE_ID":"https://databrussels.be/id/rail/29691","TYPE":"TW","LVL":0,"SLOPE":null,"LENGTH":25.7585382313791},"bbox":[151238.54866976,176061.19603752,151262.67897528,176070.20884214]},{"type":"Feature","id":"TramNetwork.fid--6f55e203_1a031389953_-5dc","geometry":{"type":"LineString","coordinates":[[151239.05077025,176059.85174585],[151245.49119211,176062.25727958],[151256.58534499,176066.40100799],[151263.18107577,176068.86455047]]},"geometry_name":"GEOM","properties":{"INSPIRE_ID":"https://databrussels.be/id/rail/29692","TYPE":"TW","LVL":0,"SLOPE":null,"LENGTH":25.7585382304249},"bbox":[151239.05077025,176059.85174585,151263.18107577,176068.86455047]},{"type":"Feature","id":"TramNetwork.fid--6f55e203_1a031389953_-5e6","geometry":{"type":"LineString","coordinates":[[151238.54866976,176061.19603752],[151241.79131537,176062.34447307],[151245.07128873,176063.3815019],[151246.4331526,176063.77622096],[151247.9643442,176064.19535739],[151249.87554804,176064.68238],[151251.38689974,176065.03946494],[151252.6591656,176065.32198575],[151253.70082407,176065.55007245],[151260.6337049,176067.06813038],[151261.79614315,176067.32266362],[151263.59760634,176067.72946824],[151265.19088479,176068.11837433],[151266.84005671,176068.55048436],[151268.67409764,176069.06684276],[151270.11839519,176069.50040088],[151272.34774701,176070.21702022],[151275.59074536,176071.36467841]]},"geometry_name":"GEOM","properties":{"INSPIRE_ID":"https://databrussels.be/id/rail/29693","TYPE":"TW","LVL":0,"SLOPE":null,"LENGTH":38.4542158549264},"bbox":[151238.54866976,176061.19603752,151275.59074536,176071.36467841]},{"type":"Feature","id":"TramNetwork.fid--6f55e203_1a031389953_-5e9","geometry":{"type":"LineString","coordinates":[[151239.05077025,176059.85174585],[151242.29376868,176060.99940407],[151245.57458011,176062.03402182],[151246.80162026,176062.3891545],[151248.06637551,176062.7373954],[151249.34173771,176063.07044914],[151251.06453654,176063.49180811],[151252.437521,176063.80438297],[151254.00776664,176064.14828386],[151260.94064747,176065.66634179],[151262.20043571,176065.94219126],[151263.85707899,176066.31635398],[151265.50791425,176066.71838005],[151267.03758933,176067.11739249],[151268.35607921,176067.48201331],[151269.57022706,176067.83492203],[151272.85020032,176068.87195122],[151276.09284585,176070.02038674]]},"geometry_name":"GEOM","properties":{"INSPIRE_ID":"https://databrussels.be/id/rail/29694","TYPE":"TW","LVL":0,"SLOPE":null,"LENGTH":38.4541478678072},"bbox":[151239.05077025,176059.85174585,151276.09284585,176070.02038674]}],"numberReturned":20,"grand_bruxelles_source":{"authority":"Paradigm / Brussels-Capital Region","service":"https://geoservices-urbis.irisnet.be/geoserver/urbisvector/wfs","layer":"urbisvector:TramNetwork","crs":"EPSG:31370","bbox":[151000.0,176000.0,151500.0,176500.0],"cell_id":"bxl-e151000-n176000-s500","ownership":"bbox_intersection_source_unclipped"}}
