{"type":"FeatureCollection","totalFeatures":7,"numberMatched":7,"timeStamp":"2026-08-24T01:58:53.141Z","crs":{"type":"name","properties":{"name":"urn:ogc:def:crs:EPSG::31370"}},"bbox":[152423.15301208,176146.46,153616.344,177084.492],"features":[{"type":"Feature","id":"StreetAxes.fid--1290087_1a0317dc62a_-7a70","geometry":{"type":"LineString","coordinates":[[153306.866,177019.668],[153309.993,177011.8],[153314.986,177002.972],[153336.846,176967.193]]},"geometry_name":"GEOM","properties":{"INSPIRE_ID":"https://databrussels.be/id/streetaxe/70485","TYPE":"S","HIERARCHY":"DR","LVL":0,"STARTSN_ID":"https://databrussels.be/id/streetnode/2212","ENDSN_ID":"https://databrussels.be/id/streetnode/1175","STRNAMEFRE":"Hamweg","STRNAMEDUT":"Hamweg","SLOPE":0.25,"LENGTH":60.5372531873598},"bbox":[153306.866,176967.193,153336.846,177019.668]},{"type":"Feature","id":"StreetAxes.fid--1290087_1a0317dc62a_-7a72","geometry":{"type":"LineString","coordinates":[[153389.545,176146.46],[153393.042,176156.201],[153422.855,176235.145],[153489.811,176412.651],[153502.672,176449.812],[153510.549,176478.525],[153516.883,176504.045]]},"geometry_name":"GEOM","properties":{"INSPIRE_ID":"https://databrussels.be/id/streetaxe/74763","TYPE":"S","HIERARCHY":"DR","LVL":0,"STARTSN_ID":"https://databrussels.be/id/streetnode/12529","ENDSN_ID":"https://databrussels.be/id/streetnode/12535","STRNAMEFRE":"Rue du Pré aux Oies","STRNAMEDUT":"Ganzenweidestraat","SLOPE":0.31,"LENGTH":379.84151721733},"bbox":[153389.545,176146.46,153516.883,176504.045]},{"type":"Feature","id":"StreetAxes.fid--1290087_1a0317dc62a_-7a6f","geometry":{"type":"LineString","coordinates":[[153306.866,177019.668],[153301.258,177018.339],[153269.054,177010.062],[153200.1253736,176995.4551289],[153191.29494312,176992.79052765]]},"geometry_name":"GEOM","properties":{"INSPIRE_ID":"https://databrussels.be/id/streetaxe/77161","TYPE":"S","HIERARCHY":"DR","LVL":0,"STARTSN_ID":"https://databrussels.be/id/streetnode/2212","ENDSN_ID":"https://databrussels.be/id/streetnode/2002","STRNAMEFRE":"Rue du Bruel","STRNAMEDUT":"Bruulstraat","SLOPE":0.19,"LENGTH":118.697004476145},"bbox":[153191.29494312,176992.79052765,153306.866,177019.668]},{"type":"Feature","id":"StreetAxes.fid--1290087_1a0317dc62a_-7a71","geometry":{"type":"LineString","coordinates":[[153616.344,176936.281],[153532.691,177007.141],[153523.344,177015.27],[153516.659,177021.085],[153476.523,177055.386],[153467.487,177064.311],[153459.215,177074.234],[153456.635,177077.735],[153452.669,177084.492]]},"geometry_name":"GEOM","properties":{"INSPIRE_ID":"https://databrussels.be/id/streetaxe/82112","TYPE":"S","HIERARCHY":"DR","LVL":0,"STARTSN_ID":"https://databrussels.be/id/streetnode/2027","ENDSN_ID":"https://databrussels.be/id/streetnode/11680","STRNAMEFRE":"Rue du Dobbelenberg","STRNAMEDUT":"Dobbelenbergstraat","SLOPE":0.06,"LENGTH":221.478143221402},"bbox":[153452.669,176936.281,153616.344,177084.492]},{"type":"Feature","id":"StreetAxes.fid--1290087_1a0317dc62a_-7a6c","geometry":{"type":"LineString","coordinates":[[153011.53141266,176959.91601961],[153025.10712314,176977.01805731],[153040.50957672,177004.51199461],[153049.18465993,177022.18355887],[153055.57714514,177035.02759172]]},"geometry_name":"GEOM","properties":{"INSPIRE_ID":"https://databrussels.be/id/streetaxe/82275","TYPE":"S","HIERARCHY":"MAR","LVL":0,"STARTSN_ID":"https://databrussels.be/id/streetnode/10994","ENDSN_ID":"https://databrussels.be/id/streetnode/8253","STRNAMEFRE":"Avenue de Vilvorde","STRNAMEDUT":"Vilvoordselaan","SLOPE":0.15,"LENGTH":87.3825506876083},"bbox":[153011.53141266,176959.91601961,153055.57714514,177035.02759172]},{"type":"Feature","id":"StreetAxes.fid--1290087_1a0317dc62a_-7a6e","geometry":{"type":"LineString","coordinates":[[152437.02492183,176154.20943986],[152450.86268783,176205.69719344],[152464.21315983,176251.76136748],[152483.41049931,176310.06143505],[152509.17200429,176377.1826276],[152525.53246389,176417.43247279],[152550.87083011,176469.10403117],[152564.61709214,176496.04056238],[152608.14881012,176580.37142829],[152631.85734173,176619.56357129],[152639.09542754,176630.16214293],[152661.39901723,176660.36463038],[152684.05912552,176688.06930428],[152701.67950906,176706.94753323],[152714.85179646,176720.07695333],[152739.8231378,176743.16506188],[152770.82484144,176768.38775469],[152804.10535486,176792.22125108],[152824.06178318,176804.03316971],[152845.30563032,176817.13360414],[152869.80618141,176829.87582772],[152895.5121245,176846.01250217],[152913.3060546,176858.915739],[152936.16493327,176876.17469573],[152962.65697965,176898.76751467],[152992.30682598,176927.3220201],[153010.73304012,176949.11218828],[153011.53141266,176959.91601961]]},"geometry_name":"GEOM","properties":{"INSPIRE_ID":"https://databrussels.be/id/streetaxe/93452","TYPE":"S","HIERARCHY":"MAR","LVL":0,"STARTSN_ID":"https://databrussels.be/id/streetnode/8249","ENDSN_ID":"https://databrussels.be/id/streetnode/10994","STRNAMEFRE":"Avenue de Vilvorde","STRNAMEDUT":"Vilvoordselaan","SLOPE":0.12,"LENGTH":1024.08924954706},"bbox":[152437.02492183,176154.20943986,153011.53141266,176959.91601961]},{"type":"Feature","id":"StreetAxes.fid--1290087_1a0317dc62a_-7a6d","geometry":{"type":"LineString","coordinates":[[152423.15301208,176157.66667184],[152431.70103259,176192.0566679],[152445.36696625,176241.41451643],[152467.60154361,176310.19618172],[152485.5936598,176358.86873621],[152505.26555529,176406.2274882],[152527.26400392,176455.25268674],[152575.61611259,176549.61397551],[152578.58122227,176556.38424971],[152601.08056106,176596.9265973],[152616.67302695,176623.50384275],[152629.64940904,176641.79633796],[152643.71151924,176661.49267187],[152665.65855362,176688.97733239],[152689.71597589,176715.64871056],[152711.47652522,176736.91704463],[152723.68808853,176748.22899555],[152744.3702676,176766.01173779],[152757.74121543,176776.39617726],[152781.43136169,176794.01167859],[152807.79471811,176811.464145],[152855.90667011,176838.02600985],[152875.79284417,176849.82252208],[152894.27099093,176861.67931811],[152912.29047444,176874.55228391],[152923.54242606,176883.2986187],[152940.1261497,176896.95207779],[152950.27911322,176905.76310577],[152969.40299176,176923.46762052],[152985.27779585,176939.84942929],[153000.27886776,176957.04981314],[153011.53141266,176959.91601961]]},"geometry_name":"GEOM","properties":{"INSPIRE_ID":"https://databrussels.be/id/streetaxe/93540","TYPE":"S","HIERARCHY":"MAR","LVL":0,"STARTSN_ID":"https://databrussels.be/id/streetnode/10991","ENDSN_ID":"https://databrussels.be/id/streetnode/10994","STRNAMEFRE":"Avenue de Vilvorde","STRNAMEDUT":"Vilvoordselaan","SLOPE":0.13,"LENGTH":1031.2448231099},"bbox":[152423.15301208,176157.66667184,153011.53141266,176959.91601961]}],"numberReturned":7,"grand_bruxelles_source":{"authority":"Paradigm / Brussels-Capital Region","service":"https://geoservices-urbis.irisnet.be/geoserver/urbisvector/wfs","layer":"urbisvector:StreetAxes","crs":"EPSG:31370","bbox":[153000.0,176500.0,153500.0,177000.0],"cell_id":"bxl-e153000-n176500-s500","ownership":"bbox_intersection_source_unclipped"}}
