{"type":"FeatureCollection","features":[{"type":"Feature","id":"StreetAxes.fid-5b06f2a0_19ff4ef556f_445b","geometry":{"type":"LineString","coordinates":[[150402.24043836,169492.45522677],[150402.97768765,169498.26233197],[150404.86512753,169500.93811533],[150411.007,169501.919],[150418.452,169503.108],[150491.262,169513.985],[150498.365,169516.865],[150501.131,169523.226],[150514.959,169589.111],[150521.311,169619.371],[150528.257,169652.47],[150531.838,169655.663],[150484.992,169708.206],[150473.142,169721.498],[150463.302,169734.375],[150459.45924357,169737.15059154]]},"geometry_name":"GEOM","properties":{"INSPIRE_ID":"https://databrussels.be/id/streetaxe/83261","TYPE":"S","HIERARCHY":null,"LVL":0,"STARTSN_ID":"https://databrussels.be/id/streetnode/11804","ENDSN_ID":"https://databrussels.be/id/streetnode/11799","STRNAMEFRE":"Rue Vautier","STRNAMEDUT":"Vautierstraat","SLOPE":1.23,"LENGTH":357.111857923976},"bbox":[150402.24043836,169492.45522677,150531.838,169737.15059154]},{"type":"Feature","id":"StreetAxes.fid-5b06f2a0_19ff4ef556f_445c","geometry":{"type":"LineString","coordinates":[[150449.77035054,169158.03085269],[150456.475,169162.4275],[150518.694,169211.603]]},"geometry_name":"GEOM","properties":{"INSPIRE_ID":"https://databrussels.be/id/streetaxe/80438","TYPE":"S","HIERARCHY":"IDR","LVL":0,"STARTSN_ID":"https://databrussels.be/id/streetnode/5221","ENDSN_ID":"https://databrussels.be/id/streetnode/1127","STRNAMEFRE":"Rue du Sceptre","STRNAMEDUT":"Scepterstraat","SLOPE":2.47,"LENGTH":87.3236078614565},"bbox":[150449.77035054,169158.03085269,150518.694,169211.603]},{"type":"Feature","id":"StreetAxes.fid-5b06f2a0_19ff4ef556f_445d","geometry":{"type":"LineString","coordinates":[[150499.93,169478.546],[150503.698,169478.022],[150522.36,169476.915],[150542.636,169477.461],[150567.434,169479.464],[150617.554,169488.738],[150622.41,169489.714]]},"geometry_name":"GEOM","properties":{"INSPIRE_ID":"https://databrussels.be/id/streetaxe/75017","TYPE":"S","HIERARCHY":"IDR","LVL":0,"STARTSN_ID":"https://databrussels.be/id/streetnode/3868","ENDSN_ID":"https://databrussels.be/id/streetnode/3884","STRNAMEFRE":"Chaussée de Wavre","STRNAMEDUT":"Waverse Steenweg","SLOPE":5.22,"LENGTH":123.585078844093},"bbox":[150499.93,169476.915,150622.41,169489.714]},{"type":"Feature","id":"StreetAxes.fid-5b06f2a0_19ff4ef556f_445e","geometry":{"type":"LineString","coordinates":[[150622.41,169489.714],[150627.267,169490.69],[150700.513,169500.998],[150703.714,169501.516]]},"geometry_name":"GEOM","properties":{"INSPIRE_ID":"https://databrussels.be/id/streetaxe/70067","TYPE":"S","HIERARCHY":"IDR","LVL":0,"STARTSN_ID":"https://databrussels.be/id/streetnode/3884","ENDSN_ID":"https://databrussels.be/id/streetnode/3629","STRNAMEFRE":"Chaussée de Wavre","STRNAMEDUT":"Waverse Steenweg","SLOPE":4.22,"LENGTH":82.1645059901769},"bbox":[150622.41,169489.714,150703.714,169501.516]},{"type":"Feature","id":"StreetAxes.fid-5b06f2a0_19ff4ef556f_445f","geometry":{"type":"LineString","coordinates":[[150703.714,169501.516],[150706.914,169502.034],[150737.8155,169506.1565],[150741.27714165,169504.53116662],[150753.35631086,169498.85967348]]},"geometry_name":"GEOM","properties":{"INSPIRE_ID":"https://databrussels.be/id/streetaxe/77601","TYPE":"S","HIERARCHY":"IDR","LVL":0,"STARTSN_ID":"https://databrussels.be/id/streetnode/3629","ENDSN_ID":"https://databrussels.be/id/streetnode/13664","STRNAMEFRE":"Chaussée de Wavre","STRNAMEDUT":"Waverse Steenweg","SLOPE":3.06,"LENGTH":51.5855184127569},"bbox":[150703.714,169498.85967348,150753.35631086,169506.1565]},{"type":"Feature","id":"StreetAxes.fid-5b06f2a0_19ff4ef556f_4460","geometry":{"type":"LineString","coordinates":[[150753.35631086,169498.85967348],[150762.499,169541.054]]},"geometry_name":"GEOM","properties":{"INSPIRE_ID":"https://databrussels.be/id/streetaxe/78869","TYPE":"S","HIERARCHY":"IDR","LVL":0,"STARTSN_ID":"https://databrussels.be/id/streetnode/13664","ENDSN_ID":"https://databrussels.be/id/streetnode/643","STRNAMEFRE":"Chaussée de Wavre","STRNAMEDUT":"Steenweg op Waver","SLOPE":2.71,"LENGTH":43.173486715534},"bbox":[150753.35631086,169498.85967348,150762.499,169541.054]},{"type":"Feature","id":"StreetAxes.fid-5b06f2a0_19ff4ef556f_4461","geometry":{"type":"LineString","coordinates":[[150753.35631086,169498.85967348],[150773.199,169489.543],[150809.48695026,169471.7931815],[150819.478,169467.763]]},"geometry_name":"GEOM","properties":{"INSPIRE_ID":"https://databrussels.be/id/streetaxe/80275","TYPE":"S","HIERARCHY":"IDR","LVL":0,"STARTSN_ID":"https://databrussels.be/id/streetnode/13664","ENDSN_ID":"https://databrussels.be/id/streetnode/13663","STRNAMEFRE":"Rue de l'Etang","STRNAMEDUT":"Vijverstraat","SLOPE":1.29,"LENGTH":73.090758666334},"bbox":[150753.35631086,169467.763,150819.478,169498.85967348]},{"type":"Feature","id":"StreetAxes.fid-5b06f2a0_19ff4ef556f_4462","geometry":{"type":"LineString","coordinates":[[150887.96622833,169572.94311843],[150878.22920274,169568.57659474],[150871.82480906,169563.81940029],[150865.24719761,169552.6107339],[150829.882,169485.972],[150819.478,169467.763]]},"geometry_name":"GEOM","properties":{"INSPIRE_ID":"https://databrussels.be/id/streetaxe/98936","TYPE":"S","HIERARCHY":"DC","LVL":0,"STARTSN_ID":"https://databrussels.be/id/streetnode/","ENDSN_ID":"https://databrussels.be/id/streetnode/","STRNAMEFRE":"Rue Gray","STRNAMEDUT":"Graystraat","SLOPE":0.1,"LENGTH":128.058473995306},"bbox":[150819.478,169467.763,150887.96622833,169572.94311843]},{"type":"Feature","id":"StreetAxes.fid-5b06f2a0_19ff4ef556f_4463","geometry":{"type":"LineString","coordinates":[[150901.3846538,169507.62300805],[150896.5285,169504.264],[150870.745,169455.1],[150866.636127,169447.28371046]]},"geometry_name":"GEOM","properties":{"INSPIRE_ID":"https://databrussels.be/id/streetaxe/95053","TYPE":"S","HIERARCHY":"DR","LVL":0,"STARTSN_ID":"https://databrussels.be/id/streetnode/5768","ENDSN_ID":"https://databrussels.be/id/streetnode/5767","STRNAMEFRE":"Clos des Etangs","STRNAMEDUT":"Vijversgaarde","SLOPE":0.87,"LENGTH":70.249896926534},"bbox":[150866.636127,169447.28371046,150901.3846538,169507.62300805]},{"type":"Feature","id":"StreetAxes.fid-5b06f2a0_19ff4ef556f_4464","geometry":{"type":"LineString","coordinates":[[150901.3846538,169507.62300805],[150906.206,169499.136],[150913.948,169488.28],[150977.598,169425.242],[150983.66806306,169420.85757793]]},"geometry_name":"GEOM","properties":{"INSPIRE_ID":"https://databrussels.be/id/streetaxe/86713","TYPE":"S","HIERARCHY":"DR","LVL":0,"STARTSN_ID":"https://databrussels.be/id/streetnode/5768","ENDSN_ID":"https://databrussels.be/id/streetnode/13666","STRNAMEFRE":"Chaussée de Wavre","STRNAMEDUT":"Steenweg op Waver","SLOPE":0.5,"LENGTH":120.165616511324},"bbox":[150901.3846538,169420.85757793,150983.66806306,169507.62300805]},{"type":"Feature","id":"StreetAxes.fid-5b06f2a0_19ff4ef556f_4465","geometry":{"type":"LineString","coordinates":[[151005.89851346,169256.7246736],[151001.05972833,169247.18767547],[150974.34188123,169194.52816474],[150964.96752545,169177.36795447]]},"geometry_name":"GEOM","properties":{"INSPIRE_ID":"https://databrussels.be/id/streetaxe/87037","TYPE":"S","HIERARCHY":"DR","LVL":0,"STARTSN_ID":"https://databrussels.be/id/streetnode/13668","ENDSN_ID":"https://databrussels.be/id/streetnode/11802","STRNAMEFRE":"Rue de Theux","STRNAMEDUT":"de Theuxstraat","SLOPE":0.52,"LENGTH":89.2978155775755},"bbox":[150964.96752545,169177.36795447,151005.89851346,169256.7246736]},{"type":"Feature","id":"StreetAxes.fid-5b06f2a0_19ff4ef556f_4466","geometry":{"type":"LineString","coordinates":[[150800.007,169188.985],[150807.444,169189.708],[150928.994,169180.202],[150952.464,169178.353],[150964.96752545,169177.36795447]]},"geometry_name":"GEOM","properties":{"INSPIRE_ID":"https://databrussels.be/id/streetaxe/84311","TYPE":"S","HIERARCHY":"DR","LVL":0,"STARTSN_ID":"https://databrussels.be/id/streetnode/2751","ENDSN_ID":"https://databrussels.be/id/streetnode/11802","STRNAMEFRE":"Rue du Brochet","STRNAMEDUT":"Snoekstraat","SLOPE":0.28,"LENGTH":165.478197843922},"bbox":[150800.007,169177.36795447,150964.96752545,169189.708]},{"type":"Feature","id":"StreetAxes.fid-5b06f2a0_19ff4ef556f_4467","geometry":{"type":"LineString","coordinates":[[150700.271,169242.985],[150697.242,169237.324],[150672.812,169191.209],[150665.949,169178.424]]},"geometry_name":"GEOM","properties":{"INSPIRE_ID":"https://databrussels.be/id/streetaxe/79973","TYPE":"S","HIERARCHY":"IDR","LVL":0,"STARTSN_ID":"https://databrussels.be/id/streetnode/13437","ENDSN_ID":"https://databrussels.be/id/streetnode/1126","STRNAMEFRE":"Rue Gray","STRNAMEDUT":"Graystraat","SLOPE":0.22,"LENGTH":73.1173784566937},"bbox":[150665.949,169178.424,150700.271,169242.985]},{"type":"Feature","id":"StreetAxes.fid-5b06f2a0_19ff4ef556f_4468","geometry":{"type":"LineString","coordinates":[[150652.365,169316.42],[150654.028,169300.348],[150657.73,169194.758],[150658.186,169182.592],[150665.949,169178.424]]},"geometry_name":"GEOM","properties":{"INSPIRE_ID":"https://databrussels.be/id/streetaxe/81151","TYPE":"S","HIERARCHY":"DR","LVL":0,"STARTSN_ID":"https://databrussels.be/id/streetnode/13435","ENDSN_ID":"https://databrussels.be/id/streetnode/1126","STRNAMEFRE":"Rue Wayenberg","STRNAMEDUT":"Waaienbergstraat","SLOPE":7.33,"LENGTH":142.798378599754},"bbox":[150652.365,169178.424,150665.949,169316.42]},{"type":"Feature","id":"StreetAxes.fid-5b06f2a0_19ff4ef556f_4469","geometry":{"type":"LineString","coordinates":[[150700.271,169242.985],[150706.9,169239.46],[150794.934,169192.622],[150800.007,169188.985]]},"geometry_name":"GEOM","properties":{"INSPIRE_ID":"https://databrussels.be/id/streetaxe/74704","TYPE":"S","HIERARCHY":"DR","LVL":0,"STARTSN_ID":"https://databrussels.be/id/streetnode/13437","ENDSN_ID":"https://databrussels.be/id/streetnode/2751","STRNAMEFRE":"Rue du Brochet","STRNAMEDUT":"Snoekstraat","SLOPE":3.08,"LENGTH":113.468510478542},"bbox":[150700.271,169188.985,150800.007,169242.985]},{"type":"Feature","id":"StreetAxes.fid-5b06f2a0_19ff4ef556f_446a","geometry":{"type":"LineString","coordinates":[[150518.694,169211.603],[150539.457,169227.96]]},"geometry_name":"GEOM","properties":{"INSPIRE_ID":"https://databrussels.be/id/streetaxe/90609","TYPE":"S","HIERARCHY":"IDR","LVL":1,"STARTSN_ID":"https://databrussels.be/id/streetnode/1127","ENDSN_ID":"https://databrussels.be/id/streetnode/1674","STRNAMEFRE":"Rue du Sceptre","STRNAMEDUT":"Scepterstraat","SLOPE":2.53,"LENGTH":26.4320566358334},"bbox":[150518.694,169211.603,150539.457,169227.96]},{"type":"Feature","id":"StreetAxes.fid-5b06f2a0_19ff4ef556f_446b","geometry":{"type":"LineString","coordinates":[[150539.457,169227.96],[150570.028,169252.117],[150575.348,169256.368]]},"geometry_name":"GEOM","properties":{"INSPIRE_ID":"https://databrussels.be/id/streetaxe/70309","TYPE":"S","HIERARCHY":"IDR","LVL":0,"STARTSN_ID":"https://databrussels.be/id/streetnode/1674","ENDSN_ID":"https://databrussels.be/id/streetnode/1510","STRNAMEFRE":"Rue du Sceptre","STRNAMEDUT":"Scepterstraat","SLOPE":3.91,"LENGTH":45.7732037631822},"bbox":[150539.457,169227.96,150575.348,169256.368]},{"type":"Feature","id":"StreetAxes.fid-5b06f2a0_19ff4ef556f_446c","geometry":{"type":"LineString","coordinates":[[150774.39573421,169388.3801052],[150771.40858581,169379.03117384],[150767.78660571,169371.99835399],[150736.002,169310.282],[150730.814,169300.435],[150725.216,169289.996],[150703.3,169248.646],[150700.271,169242.985]]},"geometry_name":"GEOM","properties":{"INSPIRE_ID":"https://databrussels.be/id/streetaxe/74614","TYPE":"S","HIERARCHY":"IDR","LVL":0,"STARTSN_ID":"https://databrussels.be/id/streetnode/13448","ENDSN_ID":"https://databrussels.be/id/streetnode/13437","STRNAMEFRE":"Rue Gray","STRNAMEDUT":"Graystraat","SLOPE":0.23,"LENGTH":163.340134853665},"bbox":[150700.271,169242.985,150774.39573421,169388.3801052]},{"type":"Feature","id":"StreetAxes.fid-5b06f2a0_19ff4ef556f_446d","geometry":{"type":"LineString","coordinates":[[150496.428,169374.024],[150501.796,169365.961],[150569.365,169264.135],[150575.348,169256.368]]},"geometry_name":"GEOM","properties":{"INSPIRE_ID":"https://databrussels.be/id/streetaxe/72215","TYPE":"S","HIERARCHY":"DR","LVL":0,"STARTSN_ID":"https://databrussels.be/id/streetnode/4149","ENDSN_ID":"https://databrussels.be/id/streetnode/1510","STRNAMEFRE":"Rue Vandenbroeck","STRNAMEDUT":"Vandenbroeckstraat","SLOPE":0.74,"LENGTH":141.695838247761},"bbox":[150496.428,169256.368,150575.348,169374.024]},{"type":"Feature","id":"StreetAxes.fid-5b06f2a0_19ff4ef556f_446e","geometry":{"type":"LineString","coordinates":[[150575.348,169256.368],[150580.669,169260.618],[150640.93,169308.168],[150652.365,169316.42]]},"geometry_name":"GEOM","properties":{"INSPIRE_ID":"https://databrussels.be/id/streetaxe/75442","TYPE":"S","HIERARCHY":"IDR","LVL":0,"STARTSN_ID":"https://databrussels.be/id/streetnode/1510","ENDSN_ID":"https://databrussels.be/id/streetnode/13435","STRNAMEFRE":"Rue du Sceptre","STRNAMEDUT":"Scepterstraat","SLOPE":5.96,"LENGTH":97.6734536620276},"bbox":[150575.348,169256.368,150652.365,169316.42]},{"type":"Feature","id":"StreetAxes.fid-5b06f2a0_19ff4ef556f_446f","geometry":{"type":"LineString","coordinates":[[150774.39573421,169388.3801052],[150782.71,169383.882],[151002.504,169268.96],[151006.57167492,169266.83316607]]},"geometry_name":"GEOM","properties":{"INSPIRE_ID":"https://databrussels.be/id/streetaxe/86284","TYPE":"S","HIERARCHY":"DR","LVL":0,"STARTSN_ID":"https://databrussels.be/id/streetnode/13448","ENDSN_ID":"https://databrussels.be/id/streetnode/11807","STRNAMEFRE":"Rue de l'Orient","STRNAMEDUT":"Morgenlandstraat","SLOPE":1.01,"LENGTH":262.068318723651},"bbox":[150774.39573421,169266.83316607,151006.57167492,169388.3801052]},{"type":"Feature","id":"StreetAxes.fid-5b06f2a0_19ff4ef556f_4470","geometry":{"type":"LineString","coordinates":[[150622.41,169489.714],[150623.48,169483.81],[150650.892,169330.848],[150652.365,169316.42]]},"geometry_name":"GEOM","properties":{"INSPIRE_ID":"https://databrussels.be/id/streetaxe/77555","TYPE":"S","HIERARCHY":"DR","LVL":0,"STARTSN_ID":"https://databrussels.be/id/streetnode/3884","ENDSN_ID":"https://databrussels.be/id/streetnode/13435","STRNAMEFRE":"Rue Wayenberg","STRNAMEDUT":"Waaienbergstraat","SLOPE":3.18,"LENGTH":175.901986362747},"bbox":[150622.41,169316.42,150652.365,169489.714]},{"type":"Feature","id":"StreetAxes.fid-5b06f2a0_19ff4ef556f_4471","geometry":{"type":"LineString","coordinates":[[150652.365,169316.42],[150662.788,169323.942],[150740.798,169374.454],[150754.496,169383.323],[150766.84769435,169389.46399867],[150774.39573421,169388.3801052]]},"geometry_name":"GEOM","properties":{"INSPIRE_ID":"https://databrussels.be/id/streetaxe/74837","TYPE":"S","HIERARCHY":"IDR","LVL":0,"STARTSN_ID":"https://databrussels.be/id/streetnode/13435","ENDSN_ID":"https://databrussels.be/id/streetnode/13448","STRNAMEFRE":"Rue du Sceptre","STRNAMEDUT":"Scepterstraat","SLOPE":7.67,"LENGTH":143.527410330769},"bbox":[150652.365,169316.42,150774.39573421,169389.46399867]},{"type":"Feature","id":"StreetAxes.fid-5b06f2a0_19ff4ef556f_4472","geometry":{"type":"LineString","coordinates":[[150968.8763387,169393.46625457],[150991.928,169380.988],[151055.4,169347.717],[151062.844,169341.506],[151067.347,169337.514]]},"geometry_name":"GEOM","properties":{"INSPIRE_ID":"https://databrussels.be/id/streetaxe/75425","TYPE":"S","HIERARCHY":"IDR","LVL":0,"STARTSN_ID":"https://databrussels.be/id/streetnode/13665","ENDSN_ID":"https://databrussels.be/id/streetnode/2378","STRNAMEFRE":"Chaussée de Wavre","STRNAMEDUT":"Steenweg op Waver","SLOPE":1.5,"LENGTH":113.588359135096},"bbox":[150968.8763387,169337.514,151067.347,169393.46625457]},{"type":"Feature","id":"StreetAxes.fid-5b06f2a0_19ff4ef556f_4473","geometry":{"type":"LineString","coordinates":[[150499.93,169478.546],[150499.065,169470.975],[150501.546,169385.794],[150501.78,169377.589],[150496.428,169374.024]]},"geometry_name":"GEOM","properties":{"INSPIRE_ID":"https://databrussels.be/id/streetaxe/70404","TYPE":"S","HIERARCHY":"DR","LVL":0,"STARTSN_ID":"https://databrussels.be/id/streetnode/3868","ENDSN_ID":"https://databrussels.be/id/streetnode/4149","STRNAMEFRE":"Rue Limauge","STRNAMEDUT":"Limaugestraat","SLOPE":3.64,"LENGTH":107.476353005666},"bbox":[150496.428,169374.024,150501.78,169478.546]},{"type":"Feature","id":"StreetAxes.fid-5b06f2a0_19ff4ef556f_4474","geometry":{"type":"LineString","coordinates":[[150753.35631086,169498.85967348],[150754.08299833,169478.14541539],[150756.81124094,169467.13231476],[150760.06457433,169456.14687491],[150764.64983518,169439.31740467],[150768.33851391,169421.9842883],[150769.87540875,169411.34117358],[150771.47367407,169400.44119254],[150774.39573421,169388.3801052]]},"geometry_name":"GEOM","properties":{"INSPIRE_ID":"https://databrussels.be/id/streetaxe/79976","TYPE":"S","HIERARCHY":"IDR","LVL":0,"STARTSN_ID":"https://databrussels.be/id/streetnode/13664","ENDSN_ID":"https://databrussels.be/id/streetnode/13448","STRNAMEFRE":"Avenue du Maelbeek","STRNAMEDUT":"Maelbeeklaan","SLOPE":0.33,"LENGTH":112.874295106769},"bbox":[150753.35631086,169388.3801052,150774.39573421,169498.85967348]},{"type":"Feature","id":"StreetAxes.fid-5b06f2a0_19ff4ef556f_4475","geometry":{"type":"LineString","coordinates":[[150819.478,169467.763],[150812.062,169454.784],[150787.13574013,169409.41839112],[150774.39573421,169388.3801052]]},"geometry_name":"GEOM","properties":{"INSPIRE_ID":"https://databrussels.be/id/streetaxe/77526","TYPE":"S","HIERARCHY":"DC","LVL":0,"STARTSN_ID":"https://databrussels.be/id/streetnode/13663","ENDSN_ID":"https://databrussels.be/id/streetnode/13448","STRNAMEFRE":"Rue Gray","STRNAMEDUT":"Graystraat","SLOPE":0.62,"LENGTH":91.3058639498335},"bbox":[150774.39573421,169388.3801052,150819.478,169467.763]},{"type":"Feature","id":"StreetAxes.fid-5b06f2a0_19ff4ef556f_4476","geometry":{"type":"LineString","coordinates":[[150866.636127,169447.28371046],[150964.288,169395.95],[150968.8763387,169393.46625457]]},"geometry_name":"GEOM","properties":{"INSPIRE_ID":"https://databrussels.be/id/streetaxe/84310","TYPE":"S","HIERARCHY":"IDR","LVL":0,"STARTSN_ID":"https://databrussels.be/id/streetnode/5767","ENDSN_ID":"https://databrussels.be/id/streetnode/13665","STRNAMEFRE":"Rue de l'Etang","STRNAMEDUT":"Vijverstraat","SLOPE":0.76,"LENGTH":115.539883687713},"bbox":[150866.636127,169393.46625457,150968.8763387,169447.28371046]},{"type":"Feature","id":"StreetAxes.fid-5b06f2a0_19ff4ef556f_4477","geometry":{"type":"LineString","coordinates":[[150968.8763387,169393.46625457],[150983.66806306,169420.85757793]]},"geometry_name":"GEOM","properties":{"INSPIRE_ID":"https://databrussels.be/id/streetaxe/84989","TYPE":"S","HIERARCHY":"DR","LVL":0,"STARTSN_ID":"https://databrussels.be/id/streetnode/13665","ENDSN_ID":"https://databrussels.be/id/streetnode/13666","STRNAMEFRE":"Chaussée de Wavre","STRNAMEDUT":"Steenweg op Waver","SLOPE":1.06,"LENGTH":31.1300450450234},"bbox":[150968.8763387,169393.46625457,150983.66806306,169420.85757793]},{"type":"Feature","id":"StreetAxes.fid-5b06f2a0_19ff4ef556f_4478","geometry":{"type":"LineString","coordinates":[[151059.516,169405.99],[150995.83870416,169420.49634558],[150987.32568924,169422.43569829],[150983.66806306,169420.85757793]]},"geometry_name":"GEOM","properties":{"INSPIRE_ID":"https://databrussels.be/id/streetaxe/84996","TYPE":"S","HIERARCHY":"DR","LVL":0,"STARTSN_ID":"https://databrussels.be/id/streetnode/13667","ENDSN_ID":"https://databrussels.be/id/streetnode/13666","STRNAMEFRE":"Rue Louis Hap","STRNAMEDUT":"Louis Hapstraat","SLOPE":2.33,"LENGTH":78.0234202043308},"bbox":[150983.66806306,169405.99,151059.516,169422.43569829]},{"type":"Feature","id":"StreetAxes.fid-5b06f2a0_19ff4ef556f_4479","geometry":{"type":"LineString","coordinates":[[150819.478,169467.763],[150837.15,169462.784],[150866.636127,169447.28371046]]},"geometry_name":"GEOM","properties":{"INSPIRE_ID":"https://databrussels.be/id/streetaxe/77262","TYPE":"S","HIERARCHY":"IDR","LVL":0,"STARTSN_ID":"https://databrussels.be/id/streetnode/13663","ENDSN_ID":"https://databrussels.be/id/streetnode/5767","STRNAMEFRE":"Rue de l'Etang","STRNAMEDUT":"Vijverstraat","SLOPE":0.66,"LENGTH":51.6720313487268},"bbox":[150819.478,169447.28371046,150866.636127,169467.763]},{"type":"Feature","id":"StreetAxes.fid-5b06f2a0_19ff4ef556f_447a","geometry":{"type":"LineString","coordinates":[[150976.86967488,169156.63796678],[150972.83290075,169150.49720844],[150971.432,169139.695],[150968.35,169115.93],[150967.54,169105.362],[150966.358,169078.374],[150966.314,169061.098],[150967.266,169036.603],[150969.022,169016.086],[150972.826,168986.342],[150978.711,168953.914],[150982.085,168939.5],[150984.249,168931.436]]},"geometry_name":"GEOM","properties":{"INSPIRE_ID":"https://databrussels.be/id/streetaxe/77927","TYPE":"S","HIERARCHY":"DR","LVL":0,"STARTSN_ID":"https://databrussels.be/id/streetnode/12565","ENDSN_ID":"https://databrussels.be/id/streetnode/12567","STRNAMEFRE":"Rue de Haerne","STRNAMEDUT":"de Haernestraat","SLOPE":4.68,"LENGTH":228.296753791227},"bbox":[150966.314,168931.436,150984.249,169156.63796678]},{"type":"Feature","id":"StreetAxes.fid-5b06f2a0_19ff4ef556f_447b","geometry":{"type":"LineString","coordinates":[[150964.96752545,169177.36795447],[150955.892,169160.5],[150937.55,169124.426],[150916.915,169084.055],[150899.788,169050.458],[150884.67,169020.692],[150870.214,168992.005],[150859.668,168971.266],[150856.817,168965.572]]},"geometry_name":"GEOM","properties":{"INSPIRE_ID":"https://databrussels.be/id/streetaxe/83260","TYPE":"S","HIERARCHY":"DR","LVL":0,"STARTSN_ID":"https://databrussels.be/id/streetnode/11802","ENDSN_ID":"https://databrussels.be/id/streetnode/12558","STRNAMEFRE":"Rue de Theux","STRNAMEDUT":"de Theuxstraat","SLOPE":4.86,"LENGTH":237.816245547086},"bbox":[150856.817,168965.572,150964.96752545,169177.36795447]},{"type":"Feature","id":"StreetAxes.fid-5b06f2a0_19ff4ef556f_447c","geometry":{"type":"LineString","coordinates":[[150976.86967488,169156.63796678],[150986.005,169142.42],[151073.96,168984.64],[151078.36199537,168980.51183567]]},"geometry_name":"GEOM","properties":{"INSPIRE_ID":"https://databrussels.be/id/streetaxe/79107","TYPE":"S","HIERARCHY":"DR","LVL":0,"STARTSN_ID":"https://databrussels.be/id/streetnode/12565","ENDSN_ID":"https://databrussels.be/id/streetnode/10789","STRNAMEFRE":"Rue Général Capiaumont","STRNAMEDUT":"Generaal Capiaumontstraat","SLOPE":5.04,"LENGTH":203.574134041591},"bbox":[150976.86967488,168980.51183567,151078.36199537,169156.63796678]},{"type":"Feature","id":"StreetAxes.fid-5b06f2a0_19ff4ef556f_447d","geometry":{"type":"LineString","coordinates":[[150783.503,168981.856],[150783.832,168986.76],[150785.741,169013.506],[150786.074,169018.009]]},"geometry_name":"GEOM","properties":{"INSPIRE_ID":"https://databrussels.be/id/streetaxe/79974","TYPE":"S","HIERARCHY":"DR","LVL":0,"STARTSN_ID":"https://databrussels.be/id/streetnode/716","ENDSN_ID":"https://databrussels.be/id/streetnode/13436","STRNAMEFRE":"Rue du Vivier","STRNAMEDUT":"Visvijverstraat","SLOPE":4.64,"LENGTH":36.2443606467026},"bbox":[150783.503,168981.856,150786.074,169018.009]},{"type":"Feature","id":"StreetAxes.fid-5b06f2a0_19ff4ef556f_447e","geometry":{"type":"LineString","coordinates":[[150786.074,169018.009],[150786.406,169022.512],[150788.79,169052.282],[150789.464,169060.328]]},"geometry_name":"GEOM","properties":{"INSPIRE_ID":"https://databrussels.be/id/streetaxe/79901","TYPE":"S","HIERARCHY":"DR","LVL":0,"STARTSN_ID":"https://databrussels.be/id/streetnode/13436","ENDSN_ID":"https://databrussels.be/id/streetnode/2438","STRNAMEFRE":"Rue du Vivier","STRNAMEDUT":"Visvijverstraat","SLOPE":4.69,"LENGTH":42.4547064898028},"bbox":[150786.074,169018.009,150789.464,169060.328]},{"type":"Feature","id":"StreetAxes.fid-5b06f2a0_19ff4ef556f_447f","geometry":{"type":"LineString","coordinates":[[150789.464,169060.328],[150790.138,169068.374],[150799.104,169182.78],[150800.007,169188.985]]},"geometry_name":"GEOM","properties":{"INSPIRE_ID":"https://databrussels.be/id/streetaxe/70770","TYPE":"S","HIERARCHY":"DR","LVL":0,"STARTSN_ID":"https://databrussels.be/id/streetnode/2438","ENDSN_ID":"https://databrussels.be/id/streetnode/2751","STRNAMEFRE":"Rue du Vivier","STRNAMEDUT":"Visvijverstraat","SLOPE":4.86,"LENGTH":129.101337101102},"bbox":[150789.464,169060.328,150800.007,169188.985]},{"type":"Feature","id":"StreetAxes.fid-5b06f2a0_19ff4ef556f_4480","geometry":{"type":"LineString","coordinates":[[150976.86967488,169156.63796678],[150987.112,169155.388],[150995.341,169153.266],[151092.066,169128.328],[151106.606,169124.579],[151108.40357234,169124.11551316]]},"geometry_name":"GEOM","properties":{"INSPIRE_ID":"https://databrussels.be/id/streetaxe/83830","TYPE":"S","HIERARCHY":"DR","LVL":0,"STARTSN_ID":"https://databrussels.be/id/streetnode/12565","ENDSN_ID":"https://databrussels.be/id/streetnode/10798","STRNAMEFRE":"Rue Ernest Havaux","STRNAMEDUT":"Ernest Havauxstraat","SLOPE":4.95,"LENGTH":135.576504977179},"bbox":[150976.86967488,169124.11551316,151108.40357234,169156.63796678]},{"type":"Feature","id":"StreetAxes.fid-5b06f2a0_19ff4ef556f_4481","geometry":{"type":"LineString","coordinates":[[150976.86967488,169156.63796678],[150964.96752545,169177.36795447]]},"geometry_name":"GEOM","properties":{"INSPIRE_ID":"https://databrussels.be/id/streetaxe/88845","TYPE":"I","HIERARCHY":"DR","LVL":0,"STARTSN_ID":"https://databrussels.be/id/streetnode/12565","ENDSN_ID":"https://databrussels.be/id/streetnode/11802","STRNAMEFRE":"Rue de Theux","STRNAMEDUT":"de Theuxstraat","SLOPE":2.43,"LENGTH":23.9038396661179},"bbox":[150964.96752545,169156.63796678,150976.86967488,169177.36795447]},{"type":"Feature","id":"StreetAxes.fid-5b06f2a0_19ff4ef556f_4482","geometry":{"type":"LineString","coordinates":[[150488.674,169108.577],[150504.60926848,169088.58788762],[150571.053,169004.412]]},"geometry_name":"GEOM","properties":{"INSPIRE_ID":"https://databrussels.be/id/streetaxe/82939","TYPE":"S","HIERARCHY":"MAR","LVL":0,"STARTSN_ID":"https://databrussels.be/id/streetnode/12549","ENDSN_ID":"https://databrussels.be/id/streetnode/11189","STRNAMEFRE":"Avenue de la Couronne","STRNAMEDUT":"Kroonlaan","SLOPE":14.98,"LENGTH":132.803277673264},"bbox":[150488.674,169004.412,150571.053,169108.577]},{"type":"Feature","id":"StreetAxes.fid-5b06f2a0_19ff4ef556f_4483","geometry":{"type":"LineString","coordinates":[[150564.06749893,168966.12659942],[150564.37149444,168975.17426586],[150571.29960435,168991.48540937],[150575.076,168999.278],[150578.87768864,169007.12093855],[150604.611,169059.941]]},"geometry_name":"GEOM","properties":{"INSPIRE_ID":"https://databrussels.be/id/streetaxe/77125","TYPE":"S","HIERARCHY":"IDR","LVL":0,"STARTSN_ID":"https://databrussels.be/id/streetnode/12550","ENDSN_ID":"https://databrussels.be/id/streetnode/4155","STRNAMEFRE":"Rue Gray","STRNAMEDUT":"Graystraat","SLOPE":0.71,"LENGTH":102.904578443786},"bbox":[150564.06749893,168966.12659942,150604.611,169059.941]},{"type":"Feature","id":"StreetAxes.fid-5b06f2a0_19ff4ef556f_4484","geometry":{"type":"LineString","coordinates":[[150579.098,168994.144],[150571.053,169004.412]]},"geometry_name":"GEOM","properties":{"INSPIRE_ID":"https://databrussels.be/id/streetaxe/84991","TYPE":"S","HIERARCHY":"MAR","LVL":1,"STARTSN_ID":"https://databrussels.be/id/streetnode/11190","ENDSN_ID":"https://databrussels.be/id/streetnode/11189","STRNAMEFRE":"Rue Gray","STRNAMEDUT":"Graystraat","SLOPE":100.23,"LENGTH":13.0443033160059},"bbox":[150571.053,168994.144,150579.098,169004.412]},{"type":"Feature","id":"StreetAxes.fid-5b06f2a0_19ff4ef556f_4485","geometry":{"type":"LineString","coordinates":[[150619.946,169090.905],[150604.611,169059.941]]},"geometry_name":"GEOM","properties":{"INSPIRE_ID":"https://databrussels.be/id/streetaxe/90608","TYPE":"S","HIERARCHY":"IDR","LVL":1,"STARTSN_ID":"https://databrussels.be/id/streetnode/725","ENDSN_ID":"https://databrussels.be/id/streetnode/4155","STRNAMEFRE":"Rue Gray","STRNAMEDUT":"Graystraat","SLOPE":0.98,"LENGTH":34.5533141825816},"bbox":[150604.611,169059.941,150619.946,169090.905]},{"type":"Feature","id":"StreetAxes.fid-5b06f2a0_19ff4ef556f_4486","geometry":{"type":"LineString","coordinates":[[150626.802,169104.258],[150623.86,169099.206],[150619.946,169090.905]]},"geometry_name":"GEOM","properties":{"INSPIRE_ID":"https://databrussels.be/id/streetaxe/70316","TYPE":"S","HIERARCHY":"IDR","LVL":0,"STARTSN_ID":"https://databrussels.be/id/streetnode/2136","ENDSN_ID":"https://databrussels.be/id/streetnode/725","STRNAMEFRE":"Rue Gray","STRNAMEDUT":"Graystraat","SLOPE":0.4,"LENGTH":15.023673415203},"bbox":[150619.946,169090.905,150626.802,169104.258]},{"type":"Feature","id":"StreetAxes.fid-5b06f2a0_19ff4ef556f_4487","geometry":{"type":"LineString","coordinates":[[150638.484,169126.08],[150634.746,169118.97],[150629.743,169109.311],[150626.802,169104.258]]},"geometry_name":"GEOM","properties":{"INSPIRE_ID":"https://databrussels.be/id/streetaxe/87302","TYPE":"S","HIERARCHY":"IDR","LVL":0,"STARTSN_ID":"https://databrussels.be/id/streetnode/553","ENDSN_ID":"https://databrussels.be/id/streetnode/2136","STRNAMEFRE":"Rue Gray","STRNAMEDUT":"Graystraat","SLOPE":0.53,"LENGTH":24.7570806241246},"bbox":[150626.802,169104.258,150638.484,169126.08]},{"type":"Feature","id":"StreetAxes.fid-5b06f2a0_19ff4ef556f_4488","geometry":{"type":"LineString","coordinates":[[150626.802,169104.258],[150631.54,169102.01],[150670.087,169025.49],[150672.71890746,169020.28668938]]},"geometry_name":"GEOM","properties":{"INSPIRE_ID":"https://databrussels.be/id/streetaxe/87064","TYPE":"S","HIERARCHY":"DR","LVL":0,"STARTSN_ID":"https://databrussels.be/id/streetnode/2136","ENDSN_ID":"https://databrussels.be/id/streetnode/12548","STRNAMEFRE":"Rue des Deux Ponts","STRNAMEDUT":"Tweebruggenstraat","SLOPE":5.52,"LENGTH":96.7560147803917},"bbox":[150626.802,169020.28668938,150672.71890746,169104.258]},{"type":"Feature","id":"StreetAxes.fid-5b06f2a0_19ff4ef556f_4489","geometry":{"type":"LineString","coordinates":[[150638.484,169126.08],[150645.525,169122.405],[150754.97,169065.055],[150757.16,169064.105],[150765.535,169062.275],[150781.35,169060.915],[150789.464,169060.328]]},"geometry_name":"GEOM","properties":{"INSPIRE_ID":"https://databrussels.be/id/streetaxe/88522","TYPE":"S","HIERARCHY":"DR","LVL":0,"STARTSN_ID":"https://databrussels.be/id/streetnode/553","ENDSN_ID":"https://databrussels.be/id/streetnode/2438","STRNAMEFRE":"Rue de la Natation","STRNAMEDUT":"Zwemkunststraat","SLOPE":5.67,"LENGTH":166.471360020476},"bbox":[150638.484,169060.328,150789.464,169126.08]},{"type":"Feature","id":"StreetAxes.fid-5b06f2a0_19ff4ef556f_448a","geometry":{"type":"LineString","coordinates":[[150665.949,169178.424],[150659.086,169165.638],[150642.222,169133.189],[150638.484,169126.08]]},"geometry_name":"GEOM","properties":{"INSPIRE_ID":"https://databrussels.be/id/streetaxe/73225","TYPE":"S","HIERARCHY":"IDR","LVL":0,"STARTSN_ID":"https://databrussels.be/id/streetnode/1126","ENDSN_ID":"https://databrussels.be/id/streetnode/553","STRNAMEFRE":"Rue Gray","STRNAMEDUT":"Graystraat","SLOPE":0.29,"LENGTH":59.1128591618459},"bbox":[150638.484,169126.08,150665.949,169178.424]},{"type":"Feature","id":"StreetAxes.fid-5b06f2a0_19ff4ef556f_448b","geometry":{"type":"LineString","coordinates":[[150682.03437216,169024.9621289],[150677.25187656,169022.5456806],[150672.71890746,169020.28668938]]},"geometry_name":"GEOM","properties":{"INSPIRE_ID":"https://databrussels.be/id/streetaxe/79829","TYPE":"S","HIERARCHY":"DR","LVL":0,"STARTSN_ID":"https://databrussels.be/id/streetnode/12469","ENDSN_ID":"https://databrussels.be/id/streetnode/12548","STRNAMEFRE":"Rue des Artisans","STRNAMEDUT":"Ambachtsliedenstraat","SLOPE":2.11,"LENGTH":10.4229768899919},"bbox":[150672.71890746,169020.28668938,150682.03437216,169024.9621289]},{"type":"Feature","id":"StreetAxes.fid-5b06f2a0_19ff4ef556f_448c","geometry":{"type":"LineString","coordinates":[[150672.71890746,169020.28668938],[150674.11,169017.537],[150686.958,168993.352],[150687.509,168993.286]]},"geometry_name":"GEOM","properties":{"INSPIRE_ID":"https://databrussels.be/id/streetaxe/74617","TYPE":"S","HIERARCHY":"DR","LVL":0,"STARTSN_ID":"https://databrussels.be/id/streetnode/12548","ENDSN_ID":"https://databrussels.be/id/streetnode/1675","STRNAMEFRE":"Rue des Deux Ponts","STRNAMEDUT":"Tweebruggenstraat","SLOPE":7.84,"LENGTH":31.0223454694195},"bbox":[150672.71890746,168993.286,150687.509,169020.28668938]},{"type":"Feature","id":"StreetAxes.fid-5b06f2a0_19ff4ef556f_448d","geometry":{"type":"LineString","coordinates":[[150682.03437216,169024.9621289],[150688.34571205,169023.64123489],[150719.69650144,169021.13003114],[150729.09507636,169022.54560516]]},"geometry_name":"GEOM","properties":{"INSPIRE_ID":"https://databrussels.be/id/streetaxe/79830","TYPE":"S","HIERARCHY":"DR","LVL":0,"STARTSN_ID":"https://databrussels.be/id/streetnode/12469","ENDSN_ID":"https://databrussels.be/id/streetnode/11793","STRNAMEFRE":"Rue des Artisans","STRNAMEDUT":"Ambachtsliedenstraat","SLOPE":6.14,"LENGTH":47.4038663566399},"bbox":[150682.03437216,169021.13003114,150729.09507636,169024.9621289]},{"type":"Feature","id":"StreetAxes.fid-5b06f2a0_19ff4ef556f_448e","geometry":{"type":"LineString","coordinates":[[150682.03437216,169024.9621289],[150688.68498486,169027.87959543],[150720.03618909,169025.36835845],[150729.09507636,169022.54560516]]},"geometry_name":"GEOM","properties":{"INSPIRE_ID":"https://databrussels.be/id/streetaxe/78744","TYPE":"S","HIERARCHY":"DR","LVL":0,"STARTSN_ID":"https://databrussels.be/id/streetnode/12469","ENDSN_ID":"https://databrussels.be/id/streetnode/11793","STRNAMEFRE":"Rue des Artisans","STRNAMEDUT":"Ambachtsliedenstraat","SLOPE":6.04,"LENGTH":48.2024917845621},"bbox":[150682.03437216,169022.54560516,150729.09507636,169027.87959543]},{"type":"Feature","id":"StreetAxes.fid-5b06f2a0_19ff4ef556f_448f","geometry":{"type":"LineString","coordinates":[[150772.94297874,169019.0437247],[150765.72551499,169017.44309905],[150738.14378556,169019.65240043],[150729.09507636,169022.54560516]]},"geometry_name":"GEOM","properties":{"INSPIRE_ID":"https://databrussels.be/id/streetaxe/83300","TYPE":"S","HIERARCHY":"DR","LVL":0,"STARTSN_ID":"https://databrussels.be/id/streetnode/11797","ENDSN_ID":"https://databrussels.be/id/streetnode/11793","STRNAMEFRE":"Rue des Artisans","STRNAMEDUT":"Ambachtsliedenstraat","SLOPE":5.39,"LENGTH":44.5628785215005},"bbox":[150729.09507636,169017.44309905,150772.94297874,169022.54560516]},{"type":"Feature","id":"StreetAxes.fid-5b06f2a0_19ff4ef556f_4490","geometry":{"type":"LineString","coordinates":[[150772.94297874,169019.0437247],[150766.06513766,169021.68143157],[150738.48336922,169023.89073608],[150729.09507636,169022.54560516]]},"geometry_name":"GEOM","properties":{"INSPIRE_ID":"https://databrussels.be/id/streetaxe/83298","TYPE":"S","HIERARCHY":"DR","LVL":0,"STARTSN_ID":"https://databrussels.be/id/streetnode/11797","ENDSN_ID":"https://databrussels.be/id/streetnode/11793","STRNAMEFRE":"Rue des Artisans","STRNAMEDUT":"Ambachtsliedenstraat","SLOPE":5.39,"LENGTH":44.520564384763},"bbox":[150729.09507636,169019.0437247,150772.94297874,169023.89073608]},{"type":"Feature","id":"StreetAxes.fid-5b06f2a0_19ff4ef556f_4491","geometry":{"type":"LineString","coordinates":[[150772.94297874,169019.0437247],[150779.986,169018.496],[150786.074,169018.009]]},"geometry_name":"GEOM","properties":{"INSPIRE_ID":"https://databrussels.be/id/streetaxe/83299","TYPE":"S","HIERARCHY":"DR","LVL":0,"STARTSN_ID":"https://databrussels.be/id/streetnode/11797","ENDSN_ID":"https://databrussels.be/id/streetnode/13436","STRNAMEFRE":"Rue des Artisans","STRNAMEDUT":"Ambachtsliedenstraat","SLOPE":3.26,"LENGTH":13.1717343356235},"bbox":[150772.94297874,169018.009,150786.074,169019.0437247]}],"totalFeatures":55,"numberMatched":55,"numberReturned":55,"timeStamp":"2026-08-12T07:49:45.783Z","crs":{"type":"name","properties":{"name":"urn:ogc:def:crs:EPSG::31370"}},"bbox":[150402.24043836,168931.436,151108.40357234,169737.15059154],"grand_bruxelles_source":{"authority":"Paradigm / Brussels-Capital Region","service":"UrbIS WFS","layer":"urbisvector:StreetAxes","crs":"EPSG:31370","bbox":[150500.0,169000.0,151000.0,169500.0],"cell_id":"bxl-e150500-n169000-s500"}}
