{"type":"FeatureCollection","totalFeatures":49,"numberMatched":49,"timeStamp":"2026-08-24T02:11:14.565Z","crs":{"type":"name","properties":{"name":"urn:ogc:def:crs:EPSG::31370"}},"bbox":[152864.477,173849.788,154405.1065,175157.87280713],"features":[{"type":"Feature","id":"TramNetwork.fid--1290087_1a0317dc62a_-683e","geometry":{"type":"LineString","coordinates":[[153186.64516828,174073.92506742],[153194.8931998,174074.430516]]},"geometry_name":"GEOM","properties":{"INSPIRE_ID":"https://databrussels.be/id/rail/21071","TYPE":"TW","LVL":0,"SLOPE":null,"LENGTH":8.26350423181221},"bbox":[153186.64516828,174073.92506742,153194.8931998,174074.430516]},{"type":"Feature","id":"TramNetwork.fid--1290087_1a0317dc62a_-6835","geometry":{"type":"LineString","coordinates":[[153183.03804396,174075.72104142],[153196.06240558,174076.73023143]]},"geometry_name":"GEOM","properties":{"INSPIRE_ID":"https://databrussels.be/id/rail/21072","TYPE":"TW","LVL":0,"SLOPE":null,"LENGTH":13.0634015580625},"bbox":[153183.03804396,174075.72104142,153196.06240558,174076.73023143]},{"type":"Feature","id":"TramNetwork.fid--1290087_1a0317dc62a_-6837","geometry":{"type":"LineString","coordinates":[[153186.10202932,174075.30150209],[153193.79839949,174075.85004082]]},"geometry_name":"GEOM","properties":{"INSPIRE_ID":"https://databrussels.be/id/rail/21073","TYPE":"TW","LVL":0,"SLOPE":null,"LENGTH":7.71589323837467},"bbox":[153186.10202932,174075.30150209,153193.79839949,174075.85004082]},{"type":"Feature","id":"TramNetwork.fid--1290087_1a0317dc62a_-685b","geometry":{"type":"LineString","coordinates":[[153363.6615,174091.4236],[153364.9007,174091.5179],[153372.8045,174092.289],[153384.3839,174093.4964],[153417.7906,174096.8263],[153435.2679,174098.605],[153453.0197,174100.3933],[153467.3598,174101.7814]]},"geometry_name":"GEOM","properties":{"INSPIRE_ID":"https://databrussels.be/id/rail/21219","TYPE":"TW","LVL":0,"SLOPE":null,"LENGTH":104.214887350356},"bbox":[153363.6615,174091.4236,153467.3598,174101.7814]},{"type":"Feature","id":"TramNetwork.fid--1290087_1a0317dc62a_-685a","geometry":{"type":"LineString","coordinates":[[153363.8312,174089.9522],[153365.0288,174090.0434],[153370.8674,174090.613],[153372.9531,174090.8165],[153384.5341,174092.024],[153417.9389,174095.3538],[153435.417,174097.1325],[153453.1652,174098.9205],[153467.5024,174100.3083]]},"geometry_name":"GEOM","properties":{"INSPIRE_ID":"https://databrussels.be/id/rail/21220","TYPE":"TW","LVL":0,"SLOPE":null,"LENGTH":104.187739113794},"bbox":[153363.8312,174089.9522,153467.5024,174100.3083]},{"type":"Feature","id":"TramNetwork.fid--1290087_1a0317dc62a_-6845","geometry":{"type":"LineString","coordinates":[[153042.80543737,174024.27440303],[153043.588,174024.69],[153048.278,174027.174],[153053.699,174030.009],[153062.775,174034.621],[153071.854,174038.935],[153081.2,174043.015],[153090.534,174046.78],[153100.053,174050.264],[153109.715,174053.469],[153114.765,174055.017],[153124.433,174057.739],[153131.506,174059.526],[153139.26,174061.304],[153144.378,174062.364],[153154.625,174064.232],[153164.689,174065.747],[153174.217,174066.908],[153183.839,174067.926],[153193.958,174068.931],[153199.219,174069.458],[153202.936,174069.835]]},"geometry_name":"GEOM","properties":{"INSPIRE_ID":"https://databrussels.be/id/rail/21265","TYPE":"TW","LVL":0,"SLOPE":null,"LENGTH":167.984489486053},"bbox":[153042.80543737,174024.27440303,153202.936,174069.835]},{"type":"Feature","id":"TramNetwork.fid--1290087_1a0317dc62a_-6844","geometry":{"type":"LineString","coordinates":[[153202.804,174071.264],[153199.061,174070.883],[153193.783,174070.353],[153183.691,174069.349],[153174.055,174068.33],[153164.5,174067.165],[153154.392,174065.645],[153144.105,174063.77],[153138.967,174062.705],[153131.184,174060.925],[153124.061,174059.125],[153114.358,174056.395],[153109.28,174054.837],[153099.585,174051.618],[153090.022,174048.119],[153080.653,174044.341],[153071.287,174040.255],[153062.175,174035.923],[153053.09,174031.307],[153047.611,174028.445],[153042.913,174025.955],[153042.24603291,174025.60093801]]},"geometry_name":"GEOM","properties":{"INSPIRE_ID":"https://databrussels.be/id/rail/21266","TYPE":"TW","LVL":0,"SLOPE":null,"LENGTH":168.424175186959},"bbox":[153042.24603291,174025.60093801,153202.804,174071.264]},{"type":"Feature","id":"TramNetwork.fid--1290087_1a0317dc62a_-683b","geometry":{"type":"LineString","coordinates":[[153189.66377395,174074.36560888],[153189.66300713,174074.36555011]]},"geometry_name":"GEOM","properties":{"INSPIRE_ID":"https://databrussels.be/id/rail/21271","TYPE":"TW","LVL":0,"SLOPE":null,"LENGTH":0.000769060683116278},"bbox":[153189.66300713,174074.36555011,153189.66377395,174074.36560888]},{"type":"Feature","id":"TramNetwork.fid--1290087_1a0317dc62a_-6833","geometry":{"type":"LineString","coordinates":[[153189.57360289,174075.79800869],[153189.5728,174075.798]]},"geometry_name":"GEOM","properties":{"INSPIRE_ID":"https://databrussels.be/id/rail/21327","TYPE":"TW","LVL":0,"SLOPE":null,"LENGTH":0.000802930999643769},"bbox":[153189.5728,174075.798,153189.57360289,174075.79800869]},{"type":"Feature","id":"TramNetwork.fid--1290087_1a0317dc62a_-683a","geometry":{"type":"LineString","coordinates":[[153189.66377395,174074.36560888],[153189.66300713,174074.36555011]]},"geometry_name":"GEOM","properties":{"INSPIRE_ID":"https://databrussels.be/id/rail/21329","TYPE":"TW","LVL":0,"SLOPE":null,"LENGTH":0.000769060683116278},"bbox":[153189.66300713,174074.36555011,153189.66377395,174074.36560888]},{"type":"Feature","id":"TramNetwork.fid--1290087_1a0317dc62a_-683d","geometry":{"type":"LineString","coordinates":[[153183.59210029,174074.29697479],[153195.87989265,174075.25875113]]},"geometry_name":"GEOM","properties":{"INSPIRE_ID":"https://databrussels.be/id/rail/21366","TYPE":"TW","LVL":0,"SLOPE":null,"LENGTH":12.3253744337863},"bbox":[153183.59210029,174074.29697479,153195.87989265,174075.25875113]},{"type":"Feature","id":"TramNetwork.fid--1290087_1a0317dc62a_-684d","geometry":{"type":"LineString","coordinates":[[152982.34916618,174343.70370656],[152986.93326206,174351.13378392],[152997.44141625,174368.58503655],[153025.12295924,174414.60499581],[153040.6611574,174440.39805172],[153056.08913606,174465.97791184],[153069.82504805,174488.69812521],[153082.83941801,174510.33950435],[153099.68365806,174538.44536581],[153114.17604032,174562.8475227]]},"geometry_name":"GEOM","properties":{"INSPIRE_ID":"https://databrussels.be/id/rail/21458","TYPE":"TW","LVL":0,"SLOPE":null,"LENGTH":255.739946390486},"bbox":[152982.34916618,174343.70370656,153114.17604032,174562.8475227]},{"type":"Feature","id":"TramNetwork.fid--1290087_1a0317dc62a_-684e","geometry":{"type":"LineString","coordinates":[[152916.03278585,174286.05578445],[152922.17493411,174289.12446989],[152927.7820367,174292.26906708],[152930.24348229,174293.87674259],[152932.556193,174295.47060697],[152934.6589818,174297.08966575],[152937.00503565,174299.11346943],[152939.54736127,174301.48915645],[152941.96969528,174303.93596226],[152943.94510906,174306.13831527],[152946.26715741,174309.08641929],[152948.31964869,174311.95101191],[152950.21940386,174314.9309248],[152952.29789489,174318.38231402],[152954.29995859,174321.88348017],[152956.21223073,174325.25460516],[152958.48553635,174329.23030384],[152960.74008212,174333.1873357],[152963.10048126,174337.33902447],[152965.663912,174341.90383486],[152969.26373062,174348.1940753],[152972.14580729,174353.19578886],[152975.35345556,174358.8366079],[152978.94109788,174365.22200956],[152982.39960352,174371.22914248],[152985.98486644,174377.62960012],[152988.923191,174382.75017739],[152992.60852951,174389.24707256],[152995.91365451,174395.02251683],[152998.20770525,174399.14819235],[153000,174402.30895949],[153012.10516716,174423.6147513],[153019.53837207,174436.82462508],[153025.06360083,174446.68676876],[153027.43118096,174450.91641553],[153029.34509228,174454.71388148],[153031.18006584,174458.61657976],[153032.93386909,174462.55798868],[153034.6053067,174466.53555446],[153036.19329059,174470.54667509],[153037.64897081,174474.48199404],[153038.7839037,174477.91254863],[153039.83925407,174481.36948027],[153040.81407791,174484.84987893],[153041.7075672,174488.35079406],[153042.54537671,174491.8468244],[153043.35619224,174495.3170041],[153044.08808568,174498.80537943],[153044.74037458,174502.30889961],[153045.31251608,174505.82448698],[153045.76803083,174509.02198809],[153046.12383339,174511.90062873],[153046.42142418,174514.78591367],[153046.66055925,174517.67565817],[153046.84108326,174520.56767086],[153047.05243132,174523.6106477],[153047.23912879,174526.73439337],[153047.35409145,174529.86246696],[153047.39721178,174532.99233918],[153047.3684985,174536.12147849],[153047.31671106,174539.25830807],[153047.21598762,174542.3965517],[153047.05780126,174545.53283678],[153046.84222946,174548.66557903],[153046.59783131,174551.46735017],[153046.56940763,174551.7931982],[153045.87090089,174557.82181355],[153045.09809463,174564.28111668],[153044.29359738,174571.38943445]]},"geometry_name":"GEOM","properties":{"INSPIRE_ID":"https://databrussels.be/id/rail/22535","TYPE":"TW","LVL":0,"SLOPE":null,"LENGTH":325.696761499709},"bbox":[152916.03278585,174286.05578445,153047.39721178,174571.38943445]},{"type":"Feature","id":"TramNetwork.fid--1290087_1a0317dc62a_-684f","geometry":{"type":"LineString","coordinates":[[153045.81409782,174570.80847196],[153047.02270079,174559.72041094],[153047.10795248,174558.93617911],[153047.91182531,174551.54133807],[153048.08777591,174549.92276523],[153048.42865724,174545.29597263],[153048.64595403,174541.22931323],[153048.73422615,174538.18035086],[153048.7761611,174535.13031541],[153048.77175394,174532.0802707],[153048.71772096,174528.99817107],[153048.60253703,174525.78480143],[153048.43837277,174522.57312478],[153048.22526739,174519.36433729],[153047.96329656,174516.15963341],[153047.65257232,174512.96020437],[153047.2822422,174509.76534777],[153046.84683489,174506.57348505],[153046.36292462,174503.38781495],[153045.83066571,174500.20946862],[153045.25024674,174497.03957226],[153044.6218904,174493.87924585],[153043.8178793,174490.33987799],[153042.84484363,174486.55940307],[153041.77970383,174482.80249115],[153040.62335284,174479.07254287],[153039.37684818,174475.37291155],[153038.04140871,174471.70689313],[153036.8892298,174468.62478109],[153035.74961272,174465.69997909],[153034.55884413,174462.79503227],[153033.31745604,174459.91127826],[153032.02602688,174457.05003533],[153030.68518065,174454.21260042],[153028.29635714,174449.67023495],[153019.8231295,174434.43624648],[153012.10645374,174420.76199698],[153000,174399.67875742],[152999.15559468,174398.17387508],[152997.17020974,174394.33816539],[152993.85145658,174388.53890699],[152990.165705,174382.04128363],[152987.22929549,174376.92404369],[152983.64353167,174370.52269183],[152980.18456635,174364.51476048],[152976.59879375,174358.13268661],[152973.38730827,174352.48511962],[152970.50425172,174347.48170554],[152966.90836639,174341.19833803],[152964.34592572,174336.63529071],[152961.98333227,174332.47974238],[152959.72791518,174328.52118123],[152957.45528206,174324.54665867],[152955.54300264,174321.17552083],[152953.53168646,174317.65817414],[152951.43544399,174314.17730821],[152949.50505116,174311.14933777],[152947.41105594,174308.2268195],[152945.04057114,174305.21721991],[152943.01107356,174302.95456985],[152940.54437999,174300.46295633],[152937.96095376,174298.04886268],[152935.56323507,174295.98049075],[152935.11954337,174295.63886684],[152933.39901868,174294.31413532],[152931.04061553,174292.68878081],[152928.52387549,174291.04499013],[152922.83273201,174287.8532608],[152916.72833566,174284.95015826]]},"geometry_name":"GEOM","properties":{"INSPIRE_ID":"https://databrussels.be/id/rail/22536","TYPE":"TW","LVL":0,"SLOPE":null,"LENGTH":326.558613784497},"bbox":[152916.72833566,174284.95015826,153048.7761611,174570.80847196]},{"type":"Feature","id":"TramNetwork.fid--1290087_1a0317dc62a_-6851","geometry":{"type":"LineString","coordinates":[[152921.96298118,174282.67256747],[152925.83015995,174284.34597691],[152928.06215255,174285.42545655],[152929.71020884,174286.33487002],[152932.51716859,174287.91243607],[152934.37111671,174289.09134493],[152936.96420485,174290.76185514],[152938.94942683,174292.20201457],[152940.6932844,174293.5999395],[152940.6982214,174293.60389714],[152942.8813169,174295.5468953],[152945.21373314,174297.91988327],[152947.23964506,174300.2995061],[152950.0476964,174304.12541674],[152951.25889007,174306.06324441],[152951.65334127,174306.69433957],[152954.17278363,174311.06032944],[152954.91417322,174312.34509766],[152956.98244586,174316.08880091],[152960.8987922,174322.97570484],[152964.08839015,174328.535265],[152966.95574731,174333.56560866],[152968.09960237,174335.62427902],[152970.29985072,174339.4402928],[152973.00148909,174344.26732399],[152976.42257349,174350.16837954],[152980.40055738,174357.28998687],[152984.20283267,174363.91967064],[152987.61226057,174369.90282033],[152991.44595964,174376.59457836],[152995.27465193,174383.33033809],[152997.99651433,174388.29011276],[153000,174391.79790567],[153010.18051701,174409.63593361],[153022.98107025,174432.04229487],[153030.15695118,174444.81653255],[153034.51552559,174453.1938517],[153035.80635956,174455.87749371],[153037.05601351,174458.58185486],[153038.26397182,174461.30587997],[153039.42975152,174464.04849784],[153040.55290292,174466.80862265],[153041.63578907,174469.56617945],[153042.67456808,174472.27019819],[153043.64944988,174474.9993561],[153044.559548,174477.75137792],[153045.40408448,174480.52394805],[153046.18239206,174483.31471706],[153046.98143349,174486.27817884],[153047.84187835,174489.49640403],[153048.63064985,174492.73428971],[153049.3471051,174495.98943131],[153049.9907089,174499.25939727],[153050.56103513,174502.54173514],[153051.08823251,174505.81624933],[153051.5627756,174509.09131452],[153051.96415131,174512.3775088],[153052.29200972,174515.67233863],[153052.54611263,174518.9732966],[153052.72633416,174522.27786777],[153052.88046065,174525.5555593],[153052.9893599,174528.83028891],[153053.04284318,174532.10788529],[153053.04086492,174535.38662653],[153052.98343781,174538.6647894],[153052.87063278,174541.94065237],[153052.45117536,174547.61359236],[153052.39720852,174548.17707216],[153052.1058852,174551.21884367],[153051.88941326,174553.47907525],[153051.19501078,174560.26986857],[153049.98571272,174570.98443408],[153048.89882862,174580.54143094],[153047.90723208,174589.58100687],[153047.15124709,174597.97146225],[153046.38091234,174606.91570239],[153045.79629132,174615.33839505],[153045.31677119,174623.93963201],[153045.1146117,174627.63640374],[153044.87622604,174631.9956218],[153044.46604715,174641.42591875],[153044.07197026,174653.0078646],[153043.95930909,174656.35280523]]},"geometry_name":"GEOM","properties":{"INSPIRE_ID":"https://databrussels.be/id/rail/22537","TYPE":"TW","LVL":0,"SLOPE":null,"LENGTH":413.661376681999},"bbox":[152921.96298118,174282.67256747,153053.04284318,174656.35280523]},{"type":"Feature","id":"TramNetwork.fid--1290087_1a0317dc62a_-6850","geometry":{"type":"LineString","coordinates":[[153042.54048882,174654.93514082],[153042.76272947,174648.99468477],[153043.12192152,174638.55597572],[153043.46424343,174629.48260172],[153043.54128476,174628.12862808],[153043.83640368,174622.9420191],[153044.59143834,174611.13413464],[153045.41001994,174600.99297423],[153046.49028767,174589.28188186],[153047.53341986,174579.57536624],[153048.66092839,174569.75299852],[153049.7141887,174561.08067078],[153050.42342561,174554.73453282],[153050.46155094,174554.27317669],[153050.76604925,174550.58843007],[153050.85413237,174549.52253266],[153051.12026301,174545.92218626],[153051.34151644,174543.0179765],[153051.46527786,174539.77459237],[153051.53982094,174536.52907539],[153051.56509587,174533.28255185],[153051.54108701,174530.03614922],[153051.46781298,174526.79099484],[153051.34383264,174523.62249134],[153051.16843509,174520.75337842],[153050.95010361,174517.88675187],[153050.68889466,174515.02358276],[153050.38489372,174512.16484015],[153050.03821522,174509.31148995],[153049.66286277,174506.47916128],[153049.25543278,174503.67553946],[153048.79082353,174500.87995937],[153048.26928911,174498.09416946],[153047.6911547,174495.31990668],[153047.05681589,174492.5588929],[153046.296428,174489.4214982],[153045.42333373,174486.03887326],[153044.4822264,174482.67368322],[153043.47364555,174479.32798418],[153042.39821292,174476.00380902],[153041.25663122,174472.70316331],[153040.06870121,174469.45083208],[153038.81404098,174466.22981335],[153037.48796937,174463.03657526],[153036.09143372,174459.87348753],[153034.62548546,174456.74287558],[153033.09127747,174453.64701486],[153031.74073933,174450.8958188],[153029.83594407,174447.4077951],[153022.03703621,174433.37688648],[153011.70461317,174415.36227837],[153000,174394.82640529],[152997.29563181,174390.10161364],[152993.9773138,174384.05497821],[152990.15535582,174377.33106605],[152986.32205442,174370.64000215],[152982.91279934,174364.65715576],[152979.10736724,174358.02196773],[152975.13107423,174350.9033875],[152971.71030494,174345.00287549],[152969.00780763,174340.17430963],[152966.80640952,174336.35630175],[152965.66076981,174334.29441944],[152962.79845827,174329.27292758],[152959.60848437,174323.71271211],[152955.68621309,174316.81538917],[152953.6202116,174313.07579683],[152950.37939065,174307.45971619],[152949.96945635,174306.80384913],[152948.81698791,174304.95997784],[152946.77330103,174302.17549763],[152946.0734408,174301.22195284],[152944.11673202,174298.92361557],[152941.85634234,174296.62390705],[152939.73891616,174294.73935587],[152938.04791724,174293.38380391],[152936.12491426,174291.98878063],[152933.57006227,174290.34290279],[152931.75391197,174289.18802921],[152928.98722235,174287.63309577],[152927.37921392,174286.74578109],[152925.21133721,174285.69731043],[152921.34598388,174284.02470014]]},"geometry_name":"GEOM","properties":{"INSPIRE_ID":"https://databrussels.be/id/rail/22538","TYPE":"TW","LVL":0,"SLOPE":null,"LENGTH":410.555055991125},"bbox":[152921.34598388,174284.02470014,153051.56509587,174654.93514082]},{"type":"Feature","id":"TramNetwork.fid--1290087_1a0317dc62a_-684c","geometry":{"type":"LineString","coordinates":[[152981.11475593,174344.45098821],[152985.67402645,174351.89834198],[152996.17921254,174369.34466538],[153023.86083204,174415.36475183],[153039.39948149,174441.15855687],[153054.82805973,174466.73941111],[153068.56347819,174489.45880815],[153081.57638423,174511.09775296],[153098.41857682,174539.20019808],[153105.02336687,174550.31888504],[153112.53597997,174562.96582654]]},"geometry_name":"GEOM","properties":{"INSPIRE_ID":"https://databrussels.be/id/rail/22539","TYPE":"TW","LVL":0,"SLOPE":null,"LENGTH":254.991556411865},"bbox":[152981.11475593,174344.45098821,153112.53597997,174562.96582654]},{"type":"Feature","id":"TramNetwork.fid--1290087_1a0317dc62a_-6859","geometry":{"type":"LineString","coordinates":[[152915.33425454,174227.26225883],[152956.56538953,174296.1493393],[152977.83303622,174331.41621758],[153011.91871804,174387.92220496],[153049.26676235,174450.06002038],[153058.84662261,174465.88605895],[153101.37988342,174536.44663449],[153119.22587611,174566.41538624],[153144.89985733,174610.90048924],[153148.61393985,174617.34007603],[153186.36439159,174683.59433798],[153189.69736819,174689.1684721],[153196.19626073,174700.68738396],[153202.29050394,174711.34746471],[153209.25301071,174723.60997014],[153217.05945769,174737.33271653],[153223.49450182,174748.55721935],[153230.08778474,174760.20396051],[153239.96891808,174777.48054635],[153251.20387218,174797.25537576],[153260.43446827,174813.45877246],[153267.59288973,174826.07816983],[153277.62723841,174843.695311],[153290.46891276,174866.25584537],[153303.89247797,174889.80727997],[153317.19386561,174913.20650141],[153329.51047132,174934.42134739],[153334.73549106,174943.19347478],[153343.36829616,174957.46161237],[153349.97916117,174968.07035093],[153357.17023508,174979.52356619],[153363.74593591,174990.22027106],[153373.61388269,175006.63038862],[153379.22256869,175016.1835313],[153384.19829954,175024.54033199],[153389.49050796,175033.56567673],[153407.77964686,175064.40729791],[153429.16064439,175100.49883042],[153437.10624232,175114.12513653],[153452.36885731,175141.07918861],[153461.71064445,175157.87280713]]},"geometry_name":"GEOM","properties":{"INSPIRE_ID":"https://databrussels.be/id/rail/22567","TYPE":"TW","LVL":0,"SLOPE":null,"LENGTH":1079.2293408627},"bbox":[152915.33425454,174227.26225883,153461.71064445,175157.87280713]},{"type":"Feature","id":"TramNetwork.fid--1290087_1a0317dc62a_-6858","geometry":{"type":"LineString","coordinates":[[152916.62132664,174226.49190475],[152957.85118335,174295.37684953],[152979.11749534,174330.64151456],[153013.20374496,174387.14844321],[153050.55119486,174449.28526968],[153060.13055936,174465.11048925],[153102.66661946,174535.67570868],[153120.51991483,174565.6567238],[153146.19912216,174610.15088205],[153149.91527866,174616.59406476],[153190.49015234,174687.80535325],[153197.07620192,174699.20427015],[153203.59381891,174710.60491843],[153210.55711344,174722.86881129],[153218.36201747,174736.58884537],[153224.79784142,174747.81470839],[153231.39150426,174759.46212068],[153241.2720632,174776.73770221],[153252.50765091,174796.51364686],[153261.73849652,174812.71748156],[153268.89694361,174825.33692411],[153278.93074394,174842.95310257],[153291.77230924,174865.51344534],[153305.19608641,174889.06525181],[153318.49452284,174912.45928163],[153330.80348219,174933.66095705],[153336.02155082,174942.42141445],[153344.64656632,174956.67667753],[153351.25087091,174967.2748883],[153358.44437039,174978.73196677],[153365.02763526,174989.44097608],[153374.90342997,175005.86414453],[153380.51377188,175015.42010766],[153385.48971162,175023.7772592],[153390.78259551,175032.80375587],[153409.07001995,175063.64248591],[153430.45293827,175100.18837185],[153438.20978997,175113.49098756],[153453.4787583,175140.45625975],[153462.82289221,175157.254097]]},"geometry_name":"GEOM","properties":{"INSPIRE_ID":"https://databrussels.be/id/rail/22568","TYPE":"TW","LVL":0,"SLOPE":null,"LENGTH":1079.27001272277},"bbox":[152916.62132664,174226.49190475,153462.82289221,175157.254097]},{"type":"Feature","id":"TramNetwork.fid--1290087_1a0317dc62a_-6840","geometry":{"type":"LineString","coordinates":[[153202.804,174071.264],[153207.20209316,174071.80993931],[153210.859,174072.412],[153217.587,174073.894],[153221.503,174074.842],[153224.664,174075.628],[153226.62118204,174076.1126689],[153228.577,174076.597],[153232.17247139,174077.44421927],[153235.793,174078.177],[153239.31328649,174078.74945101],[153243.6111,174079.2671]]},"geometry_name":"GEOM","properties":{"INSPIRE_ID":"https://databrussels.be/id/rail/22571","TYPE":"TW","LVL":0,"SLOPE":null,"LENGTH":41.6281210246671},"bbox":[153202.804,174071.264,153243.6111,174079.2671]},{"type":"Feature","id":"TramNetwork.fid--1290087_1a0317dc62a_-6841","geometry":{"type":"LineString","coordinates":[[153202.936,174069.835],[153207.40761136,174070.39289697],[153211.135,174071.006],[153214.55548762,174071.70284966],[153217.954,174072.5],[153219.89873724,174072.97469177],[153221.846,174073.45],[153222.538,174073.621],[153228.888,174075.199],[153232.44936732,174076.03919866],[153236.036,174076.764],[153239.50937314,174077.32713224],[153243.7461,174077.8391]]},"geometry_name":"GEOM","properties":{"INSPIRE_ID":"https://databrussels.be/id/rail/22572","TYPE":"TW","LVL":0,"SLOPE":null,"LENGTH":41.6320135342036},"bbox":[153202.936,174069.835,153243.7461,174077.8391]},{"type":"Feature","id":"TramNetwork.fid--1290087_1a0317dc62a_-685c","geometry":{"type":"LineString","coordinates":[[153328.78724396,174091.08521056],[153332.7037,174091.3936],[153336.9049,174091.5134],[153341.4947,174091.4505],[153345.3371,174091.2975],[153345.33794105,174091.29746648],[153347.9344,174091.194],[153354.2215,174090.9743],[153358.5905,174091.0378],[153363.6615,174091.4236]]},"geometry_name":"GEOM","properties":{"INSPIRE_ID":"https://databrussels.be/id/rail/22573","TYPE":"TW","LVL":0,"SLOPE":null,"LENGTH":34.9125774171628},"bbox":[153328.78724396,174090.9743,153363.6615,174091.5134]},{"type":"Feature","id":"TramNetwork.fid--1290087_1a0317dc62a_-685e","geometry":{"type":"LineString","coordinates":[[153328.73042344,174089.63912649],[153332.7829,174089.9153],[153336.9158,174090.0331],[153341.4551,174089.9709],[153347.5616,174089.7277],[153347.8791,174089.715],[153354.2064,174089.494],[153358.6574,174089.5586],[153363.8312,174089.9522]]},"geometry_name":"GEOM","properties":{"INSPIRE_ID":"https://databrussels.be/id/rail/22574","TYPE":"TW","LVL":0,"SLOPE":null,"LENGTH":35.1366528788396},"bbox":[153328.73042344,174089.494,153363.8312,174090.0331]},{"type":"Feature","id":"TramNetwork.fid--1290087_1a0317dc62a_-6831","geometry":{"type":"LineString","coordinates":[[153243.7461,174077.8391],[153248.2251,174078.2861],[153253.1791,174078.7861],[153263.1731,174079.7971],[153273.1191,174080.7931],[153283.0841,174081.7991],[153292.9691,174082.7891],[153302.9261,174083.8001],[153312.8811,174084.8051],[153338.8853,174087.3989],[153347.0673,174088.2349],[153351.2874,174088.6532],[153363.8312,174089.9522]]},"geometry_name":"GEOM","properties":{"INSPIRE_ID":"https://databrussels.be/id/rail/22737","TYPE":"TW","LVL":0,"SLOPE":null,"LENGTH":120.694568195019},"bbox":[153243.7461,174077.8391,153363.8312,174089.9522]},{"type":"Feature","id":"TramNetwork.fid--1290087_1a0317dc62a_-6856","geometry":{"type":"LineString","coordinates":[[153363.6615,174091.4236],[153351.2665,174090.092],[153347.5616,174089.7277],[153346.9357,174089.6661],[153338.7239,174088.8351],[153312.7441,174086.2301],[153302.7791,174085.2261],[153292.8401,174084.2181],[153282.9441,174083.2251],[153272.9791,174082.2211],[153263.0481,174081.2251],[153253.0511,174080.2121],[153248.1131,174079.7161],[153243.6111,174079.2671]]},"geometry_name":"GEOM","properties":{"INSPIRE_ID":"https://databrussels.be/id/rail/22738","TYPE":"TW","LVL":0,"SLOPE":null,"LENGTH":120.664604850466},"bbox":[153243.6111,174079.2671,153363.6615,174091.4236]},{"type":"Feature","id":"TramNetwork.fid--1290087_1a0317dc62a_-6848","geometry":{"type":"LineString","coordinates":[[153186.10202932,174075.30150209],[153183.147,174074.879],[153178.965,174074.287],[153178.67330906,174074.24583576],[153178.208,174074.18],[153176.665,174073.964],[153168.612,174072.807],[153158.564,174071.364],[153148.424,174069.782],[153142.775,174068.778],[153132.872,174066.755],[153122.72,174064.313],[153112.819,174061.576],[153107.651,174060.003],[153097.786,174056.712],[153088.091,174053.102],[153078.61,174049.24],[153069.098,174045.17],[153059.74,174041.149],[153050.336,174037.098],[153041.047,174033.092],[153036.165,174030.962],[153026.85,174026.706],[153022.488,174024.521],[153017.632,174022.014],[153014.685,174020.427],[153013.326,174019.664],[153012.014,174018.925],[153011.605,174018.693],[153010.682,174018.165],[153010.234,174017.908],[153010.030536,174017.78894],[153009.827,174017.67],[153009.280309,174017.35974],[153008.735,174017.047],[153004.612,174014.535],[153000.44,174011.982],[152999.37,174011.292],[152999.014,174011.062],[152997.618,174010.148],[152997.266,174009.917],[152994.662,174008.173],[152991.486,174005.976],[152988.165,174003.604],[152987.793,174003.333],[152986.767,174002.583],[152976.614,173994.924]]},"geometry_name":"GEOM","properties":{"INSPIRE_ID":"https://databrussels.be/id/rail/22739","TYPE":"TW","LVL":0,"SLOPE":null,"LENGTH":227.044178960681},"bbox":[152976.614,173994.924,153186.10202932,174075.30150209]},{"type":"Feature","id":"TramNetwork.fid--1290087_1a0317dc62a_-6838","geometry":{"type":"LineString","coordinates":[[153195.87989265,174075.25875113],[153198.769,174075.674],[153199.894,174075.836],[153200.872,174075.972],[153202.571,174076.215],[153209.325,174077.183],[153213.363,174077.742],[153217.909,174078.339],[153227.995,174079.502],[153237.99,174080.524],[153243.413,174081.067],[153247.937,174081.516],[153252.865,174082.007],[153262.864,174083.013],[153272.797,174084.01],[153282.759,174085.012],[153292.651,174086.008],[153302.61,174087.02],[153312.559,174088.022],[153328.73042344,174089.63912649]]},"geometry_name":"GEOM","properties":{"INSPIRE_ID":"https://databrussels.be/id/rail/22740","TYPE":"TW","LVL":0,"SLOPE":null,"LENGTH":133.640711332095},"bbox":[153195.87989265,174075.25875113,153328.73042344,174089.63912649]},{"type":"Feature","id":"TramNetwork.fid--1290087_1a0317dc62a_-6832","geometry":{"type":"LineString","coordinates":[[153193.79839949,174075.85004082],[153197.7951,174075.9001],[153199.6951,174075.9231],[153200.57935642,174075.93130519],[153200.8791,174075.9341],[153202.5831,174075.9511],[153209.2291,174076.1431],[153213.5111,174076.3911],[153218.0851,174076.7361],[153224.5131,174077.3411],[153228.1771,174077.7101],[153238.1711,174078.7221],[153242.7327,174079.1791],[153243.6111,174079.2671]]},"geometry_name":"GEOM","properties":{"INSPIRE_ID":"https://databrussels.be/id/rail/22741","TYPE":"TW","LVL":0,"SLOPE":null,"LENGTH":49.9615117983051},"bbox":[153193.79839949,174075.85004082,153243.6111,174079.2671]},{"type":"Feature","id":"TramNetwork.fid--1290087_1a0317dc62a_-6843","geometry":{"type":"LineString","coordinates":[[153183.59210029,174074.29697479],[153180.5031,174074.2621],[153179.3201,174074.2511],[153178.67330906,174074.24583576],[153178.2101,174074.2421],[153176.6641,174074.2291],[153173.0421,174074.1861],[153167.9781,174074.1291],[153162.8351,174074.0701],[153157.6901,174074.0191],[153152.4561,174073.9531],[153147.1651,174073.9001],[153141.9821,174073.8461],[153136.5611,174073.7811],[153130.9981,174073.7191],[153125.7541,174073.6551],[153120.2571,174073.5891],[153114.8991,174073.4201],[153109.4841,174073.0121],[153104.1151,174072.3231],[153098.7601,174071.3391],[153093.8221,174070.1601],[153088.7761,174068.6371],[153083.7611,174066.8481],[153073.7621,174062.7081],[153064.0241,174058.4691],[153054.3191,174054.2261],[153044.9711,174050.1411],[153039.7421,174047.8911],[153035.2189,174046.0783],[153030.5891,174044.5591],[153027.3017,174043.7143],[153023.9609,174043.1147],[153020.5851,174042.7641],[153017.9849,174042.6687],[153015.3831,174042.6901],[153012.7505,174042.8655],[153010.1301,174043.1721],[153005.4441,174044.0521],[153002.5595,174044.8031],[153000.00005,174045.6575127],[152999.732,174045.747],[152997.20500325,174046.7321724],[152994.737,174047.857],[152992.15307455,174049.2138723],[152989.649,174050.713],[152987.36965694,174052.24383236],[152985.185,174053.907],[152982.814,174055.933],[152980.542,174058.133],[152977.858,174061.142],[152975.41686366,174064.07526483],[152975.0716707,174064.53443864],[152974.15838302,174065.81584722],[152974.14858711,174065.82996792],[152972.95508542,174067.6386691]]},"geometry_name":"GEOM","properties":{"INSPIRE_ID":"https://databrussels.be/id/rail/22742","TYPE":"TW","LVL":0,"SLOPE":null,"LENGTH":224.941566674622},"bbox":[152972.95508542,174042.6687,153183.59210029,174074.29697479]},{"type":"Feature","id":"TramNetwork.fid--1290087_1a0317dc62a_-6836","geometry":{"type":"LineString","coordinates":[[153196.06240558,174076.73023143],[153190.083,174075.871],[153189.092,174075.729],[153186.10202932,174075.30150209]]},"geometry_name":"GEOM","properties":{"INSPIRE_ID":"https://databrussels.be/id/rail/22743","TYPE":"TW","LVL":0,"SLOPE":null,"LENGTH":10.0623244404178},"bbox":[153186.10202932,174075.30150209,153196.06240558,174076.73023143]},{"type":"Feature","id":"TramNetwork.fid--1290087_1a0317dc62a_-6857","geometry":{"type":"LineString","coordinates":[[153328.78724396,174091.08521056],[153312.42,174089.444],[153302.47,174088.444],[153292.502,174087.435],[153282.616,174086.439],[153272.663,174085.438],[153262.748,174084.437],[153252.736,174083.433],[153247.805,174082.942],[153243.29,174082.49],[153237.869,174081.947],[153227.853,174080.916],[153217.738,174079.751],[153213.172,174079.157],[153209.138,174078.597],[153202.392,174077.634],[153198.573,174077.091],[153196.06240558,174076.73023143]]},"geometry_name":"GEOM","properties":{"INSPIRE_ID":"https://databrussels.be/id/rail/22744","TYPE":"TW","LVL":0,"SLOPE":null,"LENGTH":133.512471005308},"bbox":[153196.06240558,174076.73023143,153328.78724396,174091.08521056]},{"type":"Feature","id":"TramNetwork.fid--1290087_1a0317dc62a_-683f","geometry":{"type":"LineString","coordinates":[[153186.64516828,174073.92506742],[153189.261,174074.308],[153189.66300713,174074.36555011],[153189.66377395,174074.36560888],[153190.086,174074.426],[153195.87989265,174075.25875113]]},"geometry_name":"GEOM","properties":{"INSPIRE_ID":"https://databrussels.be/id/rail/22745","TYPE":"TW","LVL":0,"SLOPE":null,"LENGTH":9.3305417084745},"bbox":[153186.64516828,174073.92506742,153195.87989265,174075.25875113]},{"type":"Feature","id":"TramNetwork.fid--1290087_1a0317dc62a_-6849","geometry":{"type":"LineString","coordinates":[[152977.471,173993.772],[152987.631,174001.443],[152987.98,174001.697],[152992.302,174004.796],[152995.464,174006.986],[152996.544,174007.722],[152996.874,174007.946],[152998.477,174009.009],[152998.804,174009.224],[153001.22,174010.782],[153005.361,174013.351],[153009.464,174015.808],[153011.879,174017.21],[153012.074358,174017.319756],[153012.27,174017.429],[153013.050095,174017.870833],[153013.83,174018.313],[153014.271,174018.561],[153015.393,174019.176],[153018.314,174020.755],[153023.143,174023.243],[153027.505,174025.43],[153036.688,174029.622],[153041.645,174031.783],[153050.952,174035.802],[153060.359,174039.85],[153069.663,174043.855],[153079.148,174047.909],[153086.453,174050.91],[153090.9,174052.655],[153098.255,174055.356],[153108.077,174058.632],[153113.219,174060.2],[153123.172,174062.949],[153133.205,174065.359],[153143.406,174067.438],[153148.649,174068.361],[153158.773,174069.943],[153168.814,174071.389],[153176.846,174072.543],[153178.375,174072.757],[153181.615,174073.212],[153183.277,174073.432],[153186.64516828,174073.92506742]]},"geometry_name":"GEOM","properties":{"INSPIRE_ID":"https://databrussels.be/id/rail/22746","TYPE":"TW","LVL":0,"SLOPE":null,"LENGTH":226.67445134323},"bbox":[152977.471,173993.772,153186.64516828,174073.92506742]},{"type":"Feature","id":"TramNetwork.fid--1290087_1a0317dc62a_-6839","geometry":{"type":"LineString","coordinates":[[153243.7461,174077.8391],[153238.2931,174077.2961],[153228.2951,174076.2821],[153227.2491,174076.1761],[153226.62118204,174076.1126689],[153226.3091,174076.0811],[153224.6521,174075.9141],[153218.2081,174075.3061],[153213.5821,174074.9581],[153209.2771,174074.7091],[153202.5921,174074.5171],[153197.8001,174074.4671],[153194.8931998,174074.430516]]},"geometry_name":"GEOM","properties":{"INSPIRE_ID":"https://databrussels.be/id/rail/22747","TYPE":"TW","LVL":0,"SLOPE":null,"LENGTH":49.0018303375805},"bbox":[153194.8931998,174074.430516,153243.7461,174077.8391]},{"type":"Feature","id":"TramNetwork.fid--1290087_1a0317dc62a_-683c","geometry":{"type":"LineString","coordinates":[[153194.8931998,174074.430516],[153191.2831,174074.3851],[153189.9681,174074.3691],[153189.66377395,174074.36560888],[153189.66300713,174074.36555011],[153189.2751,174074.3611],[153183.59210029,174074.29697479]]},"geometry_name":"GEOM","properties":{"INSPIRE_ID":"https://databrussels.be/id/rail/22748","TYPE":"TW","LVL":0,"SLOPE":null,"LENGTH":11.3018920817939},"bbox":[153183.59210029,174074.29697479,153194.8931998,174074.430516]},{"type":"Feature","id":"TramNetwork.fid--1290087_1a0317dc62a_-6834","geometry":{"type":"LineString","coordinates":[[153183.03804396,174075.72104142],[153189.3081,174075.7951],[153189.57360289,174075.79800869],[153190.0441,174075.8031],[153191.3281,174075.8191],[153193.79839949,174075.85004082]]},"geometry_name":"GEOM","properties":{"INSPIRE_ID":"https://databrussels.be/id/rail/22835","TYPE":"TW","LVL":0,"SLOPE":null,"LENGTH":10.7611298114732},"bbox":[153183.03804396,174075.72104142,153193.79839949,174075.85004082]},{"type":"Feature","id":"TramNetwork.fid--1290087_1a0317dc62a_-6842","geometry":{"type":"LineString","coordinates":[[152974.39554138,174068.1428921],[152975.37441936,174066.65944405],[152976.27691917,174065.39358606],[152976.43868607,174065.1786124],[152978.983,174062.032],[152981.591,174059.117],[152983.792,174056.982],[152986.078,174055.032],[152988.20823147,174053.41033013],[152990.433,174051.921],[152992.89041625,174050.45083017],[152995.426,174049.12],[152997.79375913,174048.04113722],[153000,174047.18099152],[153000.0001,174047.1811],[153000.2181,174047.0961],[153002.9521,174046.1825],[153005.7421,174045.4571],[153010.3221,174044.5931],[153012.8721,174044.2949],[153015.4341,174044.1251],[153017.9559,174044.1047],[153020.4761,174044.1981],[153023.7613,174044.5401],[153027.0121,174045.1239],[153030.2111,174045.9461],[153034.7457,174047.4117],[153039.1641,174049.1981],[153044.4161,174051.4631],[153053.7341,174055.5331],[153063.4551,174059.7831],[153073.1821,174064.0201],[153083.2491,174068.1861],[153088.3331,174070.0011],[153093.4491,174071.5461],[153098.4701,174072.7451],[153103.8961,174073.7401],[153109.3521,174074.4391],[153114.8281,174074.8481],[153120.2311,174075.0191],[153125.7461,174075.0881],[153130.9771,174075.1491],[153136.5431,174075.2151],[153141.9751,174075.2781],[153147.1441,174075.3341],[153152.4571,174075.3911],[153157.6791,174075.4521],[153162.8481,174075.5031],[153167.9691,174075.5611],[153173.0561,174075.6201],[153176.6611,174075.6591],[153180.5031,174075.6911],[153183.03804396,174075.72104142]]},"geometry_name":"GEOM","properties":{"INSPIRE_ID":"https://databrussels.be/id/rail/22836","TYPE":"TW","LVL":0,"SLOPE":null,"LENGTH":222.592349379962},"bbox":[152974.39554138,174044.1047,153183.03804396,174075.72104142]},{"type":"Feature","id":"TramNetwork.fid--1290087_1a0317dc62a_-6846","geometry":{"type":"LineString","coordinates":[[152984.286,174043.825],[152987.055,174039.293],[152988.841,174036.631],[152991.647,174032.802],[152995.274,174028.503],[152995.61649543,174028.14926643],[152995.914,174027.842],[152997.844,174026.014],[152998.16920229,174025.72985315],[152998.446,174025.488],[153000,174024.29209026],[153000.95,174023.561],[153003.28190607,174022.12996022],[153005.71,174020.869],[153007.34077324,174020.17766625],[153009.011,174019.588],[153011.556,174018.888],[153011.84088467,174018.82680255],[153012.096,174018.772],[153013.788,174018.477],[153014.05591648,174018.440046],[153014.339,174018.401],[153015.562,174018.275],[153018.0269529,174018.196099],[153020.492,174018.272],[153022.9134235,174018.56278835],[153025.314,174018.993],[153026.805,174019.343],[153029.616,174020.174],[153031.014,174020.653],[153034.412,174021.953],[153038.133,174023.575],[153039.438,174024.194],[153042.246,174025.601]]},"geometry_name":"GEOM","properties":{"INSPIRE_ID":"https://databrussels.be/id/rail/22990","TYPE":"TW","LVL":0,"SLOPE":null,"LENGTH":70.1684266541689},"bbox":[152984.286,174018.196099,153042.246,174043.825]},{"type":"Feature","id":"TramNetwork.fid--1290087_1a0317dc62a_-6847","geometry":{"type":"LineString","coordinates":[[153042.80543737,174024.27440303],[153040.043,174022.899],[153038.765,174022.287],[153034.957,174020.627],[153031.488,174019.295],[153030.061,174018.811],[153029.008,174018.476],[153028.63989809,174018.3668535],[153028.32,174018.272],[153027.174,174017.954],[153025.644,174017.592],[153023.14118197,174017.13721661],[153020.616,174016.83],[153018.01828348,174016.74226662],[153015.421,174016.842],[153012.307,174017.275],[153012.07517543,174017.32021244],[153011.784,174017.377],[153010.278,174017.724],[153010.03230858,174017.78997725],[153009.779,174017.858],[153008.578,174018.217],[153006.82913551,174018.83936278],[153005.118,174019.559],[153002.58166458,174020.88717362],[153000.138,174022.379],[153000,174022.48020969],[152999.189,174023.075],[152998.93552427,174023.26406796],[152998.701,174023.439],[152997.221,174024.655],[152996.95259986,174024.89157216],[152996.656,174025.153],[152994.24,174027.511],[152991.755,174030.352],[152991.44526454,174030.74201093],[152990.883,174031.45],[152990.509,174031.928],[152987.48,174036.075],[152985.833,174038.537],[152983.043,174043.106]]},"geometry_name":"GEOM","properties":{"INSPIRE_ID":"https://databrussels.be/id/rail/22991","TYPE":"TW","LVL":0,"SLOPE":null,"LENGTH":72.2458626104233},"bbox":[152983.043,174016.74226662,153042.80543737,174043.106]},{"type":"Feature","id":"TramNetwork.fid--1290087_1a0317dc62a_-684a","geometry":{"type":"LineString","coordinates":[[153042.24603291,174025.60093801],[153038.181,174023.443],[153036.839,174022.729],[153034.965,174021.748],[153030.551,174019.405],[153029.932,174019.071],[153028.983,174018.554],[153028.63989809,174018.3668535],[153028.4,174018.236],[153027.303,174017.64],[153021.738,174014.525],[153017.672,174012.155],[153013.379,174009.557],[153010.901,174008.022],[153009.322,174007.018],[153005.298,174004.388],[153000.956,174001.445],[153000,174000.77652734],[152998.88946821,174000],[152996.75,173998.504],[152992.585,173995.467],[152988.554,173992.462],[152983.579,173988.71],[152976.506,173983.273],[152972.551,173980.165],[152968.632,173977.009],[152964.765,173973.81],[152961.188,173970.77],[152957.535,173967.597],[152953.729,173964.194],[152949.844,173960.623],[152939.021,173950.155],[152935.559,173946.635],[152934.70443487,173945.74564525],[152931.763,173942.67],[152928.092,173938.732],[152926.432944,173936.901824],[152924.779,173935.067],[152921.467,173931.318],[152918.343,173927.695],[152915.062,173923.81],[152911.42,173919.426],[152908.425,173915.795],[152905.43,173912.148],[152902.334,173908.318],[152899.172,173904.307],[152896.034,173900.195],[152893.111,173896.252],[152889.914,173891.817],[152885.937,173886.084],[152885.62484805,173885.62260552],[152885.366,173885.24],[152883.987,173883.176],[152881.601,173879.517],[152878.933,173875.322],[152873.681,173866.649],[152868.912,173858.329],[152866.235,173853.608],[152864.477,173850.497]]},"geometry_name":"GEOM","properties":{"INSPIRE_ID":"https://databrussels.be/id/rail/22992","TYPE":"TW","LVL":0,"SLOPE":null,"LENGTH":253.267905996815},"bbox":[152864.477,173850.497,153042.24603291,174025.60093801]},{"type":"Feature","id":"TramNetwork.fid--1290087_1a0317dc62a_-684b","geometry":{"type":"LineString","coordinates":[[152865.72,173849.788],[152867.487,173852.909],[152870.156,173857.615],[152874.922,173865.928],[152880.152,173874.569],[152882.804,173878.741],[152885.183,173882.382],[152891.09,173890.999],[152894.254,173895.388],[152897.184,173899.336],[152900.305,173903.423],[152903.456,173907.422],[152906.542,173911.245],[152909.529,173914.881],[152912.53,173918.517],[152916.163,173922.892],[152919.431,173926.762],[152922.562,173930.391],[152925.848,173934.112],[152929.152,173937.764],[152932.81,173941.691],[152935.8521638,173944.87120067],[152936.596,173945.645],[152940.045,173949.153],[152950.82,173959.575],[152954.688,173963.13],[152958.479,173966.514],[152962.118,173969.678],[152965.69,173972.711],[152969.544,173975.905],[152973.444,173979.042],[152977.396,173982.146],[152984.449,173987.566],[152989.413,173991.312],[152993.426,173994.302],[152997.585,173997.333],[153000,173999.02801078],[153001.3848608,174000],[153001.761,174000.264],[153006.078,174003.182],[153010.087,174005.804],[153011.667,174006.808],[153014.117,174008.331],[153018.394,174010.912],[153022.429,174013.27],[153027.99,174016.38],[153030.619,174017.811],[153031.197,174018.124],[153035.601,174020.462],[153037.501,174021.46],[153038.824,174022.161],[153040.08,174022.827],[153042.80543737,174024.27440303]]},"geometry_name":"GEOM","properties":{"INSPIRE_ID":"https://databrussels.be/id/rail/22993","TYPE":"TW","LVL":0,"SLOPE":null,"LENGTH":252.330203893622},"bbox":[152865.72,173849.788,153042.80543737,174024.27440303]},{"type":"Feature","id":"TramNetwork.fid--1290087_1a0317dc62a_-6855","geometry":{"type":"LineString","coordinates":[[152935.24784205,174212.93893782],[153161.95131061,174610.91239156],[153198.24537142,174674.4709729]]},"geometry_name":"GEOM","properties":{"INSPIRE_ID":"https://databrussels.be/id/rail/24448","TYPE":"RW","LVL":0,"SLOPE":null,"LENGTH":531.205757363182},"bbox":[152935.24784205,174212.93893782,153198.24537142,174674.4709729]},{"type":"Feature","id":"TramNetwork.fid--1290087_1a0317dc62a_-6853","geometry":{"type":"LineString","coordinates":[[152937.73579107,174214.38867901],[153163.20583825,174610.19688592],[153199.08454422,174673.02809304]]},"geometry_name":"GEOM","properties":{"INSPIRE_ID":"https://databrussels.be/id/rail/24449","TYPE":"RW","LVL":0,"SLOPE":null,"LENGTH":527.876234603329},"bbox":[152937.73579107,174214.38867901,153199.08454422,174673.02809304]},{"type":"Feature","id":"TramNetwork.fid--1290087_1a0317dc62a_-6854","geometry":{"type":"LineString","coordinates":[[152933.44960941,174213.94230903],[152942.25929893,174229.3436846],[152952.59080164,174247.41065274],[152964.20853612,174267.73588106],[152973.12420913,174283.48850932],[152989.93359873,174312.97093108],[153002.61492237,174335.31980955],[153019.42593844,174364.87907003],[153026.74342686,174377.74432962],[153036.30626668,174394.47311172],[153054.56755661,174426.60122956],[153072.15676496,174457.46367547],[153092.73979628,174493.49753277],[153107.15418763,174519.02465058],[153122.55773243,174545.96041026],[153135.14999904,174568.04937792],[153151.50769475,174596.77281609],[153170.12510206,174629.43023147],[153180.84498714,174648.25539948],[153191.69408586,174667.22546903],[153197.02844012,174676.56337346]]},"geometry_name":"GEOM","properties":{"INSPIRE_ID":"https://databrussels.be/id/rail/25563","TYPE":"RW","LVL":0,"SLOPE":null,"LENGTH":532.440277043119},"bbox":[152933.44960941,174213.94230903,153197.02844012,174676.56337346]},{"type":"Feature","id":"TramNetwork.fid--1290087_1a0317dc62a_-6852","geometry":{"type":"LineString","coordinates":[[153196.14878675,174678.07585589],[153190.37961637,174667.97679628],[153179.53000328,174649.00582733],[153168.80960292,174630.17975444],[153150.19220838,174597.52236147],[153133.83450939,174568.79891753],[153121.24291381,174546.71112697],[153105.83783368,174519.77268248],[153091.42326033,174494.24524239],[153070.84172118,174458.21399735],[153053.25171374,174427.35014933],[153034.99090833,174395.22288394],[153025.42816787,174378.49427565],[153001.29847241,174336.06766154],[152988.61754655,174313.7194841],[152971.80774671,174284.23634281],[152962.89247931,174268.4844312],[152951.2764093,174248.16211486],[152940.9450242,174230.0953524],[152932.12738499,174214.68007894]]},"geometry_name":"GEOM","properties":{"INSPIRE_ID":"https://databrussels.be/id/rail/25564","TYPE":"RW","LVL":0,"SLOPE":null,"LENGTH":533.332492607581},"bbox":[152932.12738499,174214.68007894,153196.14878675,174678.07585589]},{"type":"Feature","id":"TramNetwork.fid--1290087_1a0317dc62a_-685f","geometry":{"type":"MultiLineString","coordinates":[[[154404.1127,174237.3925],[154403.7862,174237.2595],[154399.9127,174235.8372],[154388.5234,174231.3502],[154362.4344,174221.3562],[154352.3264,174217.7012],[154342.0824,174214.1742],[154331.3984,174210.6722],[154320.9674,174207.4552],[154310.6434,174204.4922],[154300.5754,174201.8722],[154281.4134,174197.0952],[154265.9954,174193.3782],[154252.8854,174190.3132],[154244.8414,174188.5222],[154234.7944,174186.3702],[154224.5344,174184.3262],[154214.3464,174182.4342],[154203.9964,174180.6292],[154193.4044,174178.8802],[154182.8574,174177.2082],[154173.0564,174175.7772],[154162.2284,174174.2282],[154142.9544,174171.7082],[154134.2114,174170.6462],[154124.2444,174169.4562],[154113.9164,174168.2272],[154104.0874,174167.0642],[154094.2514,174165.8952],[154084.3644,174164.7252],[154074.8564,174163.6082],[154064.9274,174162.4162],[154059.8784,174161.8202],[154048.4764,174160.4712],[154036.7064,174159.0902],[154025.2854,174157.7252],[154013.3324,174156.3032],[154001.7554,174154.9322],[154000,174154.7243],[153989.3034,174153.4572],[153976.3474,174151.9462],[153964.4674,174150.6122],[153951.5394,174149.1942],[153938.9214,174147.8462],[153927.4374,174146.6472],[153910.1134,174144.9252],[153880.1754,174142.0022],[153832.2114,174137.3252],[153810.1284,174135.1312],[153774.5954,174131.6902],[153751.3294,174129.4082],[153718.3394,174126.1922],[153697.1254,174124.1302],[153677.0734,174122.1592],[153653.5574,174119.8422],[153624.6264,174117.0182],[153594.5264,174114.0782],[153575.0504,174112.1662],[153562.1194,174110.9492],[153545.2944,174109.4882],[153528.5344,174108.1912],[153517.3444,174107.4062],[153511.3463,174106.9974],[153505.3484,174106.5852],[153493.3134,174105.7132],[153479.1534,174104.5402],[153463.7154,174103.1562],[153440.7844,174100.8792],[153417.9494,174098.5902],[153390.9014,174095.8832],[153366.3164,174093.4112],[153346.7404,174091.4372],[153345.3379,174091.2975],[153345.3371,174091.2975],[153345.3379,174091.2975],[153338.5714,174090.6232],[153328.7304,174089.6391]]]},"geometry_name":"GEOM","properties":{"INSPIRE_ID":"https://databrussels.be/id/rail/30038","TYPE":"TW","LVL":0,"SLOPE":null,"LENGTH":1088.56306072572},"bbox":[153328.7304,174089.6391,154404.1127,174237.3925]},{"type":"Feature","id":"TramNetwork.fid--1290087_1a0317dc62a_-6861","geometry":{"type":"MultiLineString","coordinates":[[[154405.0504,174235.0141],[154403.8435,174234.5907],[154401.6487,174233.6544],[154389.4597,174228.8794],[154363.2687,174218.8604],[154352.1917,174214.8574],[154342.9997,174211.7144],[154332.2437,174208.1864],[154321.7047,174204.9284],[154311.2947,174201.9554],[154301.3527,174199.3444],[154281.3647,174194.3634],[154266.4857,174190.8004],[154253.6127,174187.7824],[154245.4927,174185.9624],[154235.2977,174183.7864],[154225.0827,174181.7604],[154214.8547,174179.8324],[154204.4387,174178.0244],[154193.8607,174176.2944],[154183.3567,174174.6564],[154176.0997,174173.5424],[154163.1107,174171.6964],[154143.3177,174169.0794],[154134.5757,174168.0214],[154124.4707,174166.8204],[154114.2597,174165.6044],[154104.3707,174164.4444],[154094.4837,174163.2724],[154084.6327,174162.1014],[154075.2797,174160.9914],[154065.0907,174159.7904],[154060.2247,174159.2144],[154048.8877,174157.8564],[154037.1737,174156.4864],[154025.6317,174155.1314],[154013.8497,174153.7434],[154002.0757,174152.3334],[154000,174152.0864],[153989.4277,174150.8284],[153976.8087,174149.3704],[153964.7537,174148.0134],[153950.9377,174146.5014],[153939.3157,174145.2594],[153927.7557,174144.0684],[153910.2517,174142.3134],[153880.3697,174139.3984],[153832.4447,174134.7234],[153810.4517,174132.5574],[153774.8307,174129.0854],[153751.5657,174126.7934],[153718.6257,174123.5844],[153697.3337,174121.5014],[153677.3157,174119.5314],[153654.0927,174117.2594],[153625.1247,174114.4244],[153594.8957,174111.4734],[153575.1777,174109.5364],[153569.3469,174108.9722],[153563.5157,174108.4114],[153545.5107,174106.6304],[153528.8327,174104.9614],[153517.7547,174103.7944],[153505.8427,174102.4494],[153493.8267,174101.0224],[153478.5987,174099.2194],[153464.6417,174097.6654],[153441.1967,174095.2584],[153418.2587,174092.9274],[153391.0407,174090.1904],[153366.9927,174087.7684],[153347.2437,174085.7894],[153313.127,174082.36],[153303.176,174081.36],[153293.22,174080.359],[153283.325,174079.366],[153273.363,174078.363],[153263.434,174077.364],[153253.438,174076.358],[153248.494,174075.858],[153243.98,174075.407],[153238.559,174074.859],[153228.572,174073.845],[153221.911,174073.173],[153219.8987,174072.9747],[153218.532,174072.84],[153213.995,174072.39],[153209.652,174071.958],[153208.08,174071.797],[153202.804,174071.264]]]},"geometry_name":"GEOM","properties":{"INSPIRE_ID":"https://databrussels.be/id/rail/30039","TYPE":"TW","LVL":0,"SLOPE":null,"LENGTH":1216.40051215097},"bbox":[153202.804,174071.264,154405.0504,174235.0141]},{"type":"Feature","id":"TramNetwork.fid--1290087_1a0317dc62a_-6860","geometry":{"type":"MultiLineString","coordinates":[[[154405.1065,174233.4688],[154403.2739,174232.789],[154402.3353,174232.3886],[154390.0553,174227.5626],[154363.7713,174217.5126],[154353.7363,174213.8766],[154343.5383,174210.3776],[154332.7033,174206.8356],[154322.1213,174203.5496],[154311.6323,174200.5576],[154301.6343,174197.9306],[154281.7093,174192.9796],[154266.8783,174189.4096],[154253.8433,174186.3606],[154245.8253,174184.5746],[154235.6143,174182.3906],[154225.3783,174180.3596],[154215.0993,174178.4176],[154204.6843,174176.6176],[154194.1693,174174.8896],[154183.6123,174173.2426],[154173.5833,174171.7316],[154163.1643,174170.2556],[154143.4033,174167.6556],[154134.7963,174166.6056],[154124.6393,174165.3956],[154114.2113,174164.1576],[154104.6883,174163.0396],[154094.5993,174161.8426],[154084.7993,174160.6746],[154075.3233,174159.5556],[154065.2333,174158.3616],[154060.4333,174157.7966],[154048.9523,174156.4286],[154037.4133,174155.0676],[154025.6313,174153.6756],[154014.0283,174152.2876],[154002.4103,174150.9236],[154000,174150.6386],[153989.2033,174149.3616],[153977.0003,174147.9396],[153964.6503,174146.5406],[153951.7833,174145.1266],[153939.5603,174143.8146],[153927.8893,174142.6146],[153910.3623,174140.8686],[153880.4993,174137.9556],[153832.5483,174133.2786],[153810.6053,174131.1176],[153775.0303,174127.6466],[153751.6233,174125.3646],[153718.7793,174122.1586],[153697.4983,174120.0796],[153677.3863,174118.1116],[153654.3663,174115.8456],[153625.0913,174112.9786],[153594.9493,174110.0336],[153575.4783,174108.1366],[153569.2287,174107.5239],[153562.9793,174106.9096],[153545.6473,174105.1886],[153529.1863,174103.5486],[153517.9483,174102.3536],[153506.0263,174101.0166],[153493.9853,174099.5786],[153478.6433,174097.7686],[153464.9663,174096.2416],[153441.3503,174093.8146],[153418.2203,174091.4696],[153391.0333,174088.7426],[153367.2203,174086.3446],[153347.3603,174084.3486],[153313.277,174080.939],[153303.314,174079.936],[153293.354,174078.933],[153283.473,174077.941],[153273.507,174076.942],[153263.581,174075.94],[153253.572,174074.932],[153248.637,174074.435],[153244.143,174073.985],[153238.692,174073.436],[153228.714,174072.42],[153222.053,174071.746],[153218.684,174071.415],[153214.162,174070.965],[153209.776,174070.529],[153208.264,174070.378],[153202.936,174069.835]]]},"geometry_name":"GEOM","properties":{"INSPIRE_ID":"https://databrussels.be/id/rail/30109","TYPE":"TW","LVL":0,"SLOPE":null,"LENGTH":1216.29181211157},"bbox":[153202.936,174069.835,154405.1065,174233.4688]},{"type":"Feature","id":"TramNetwork.fid--1290087_1a0317dc62a_-685d","geometry":{"type":"MultiLineString","coordinates":[[[154403.3186,174238.5684],[154399.2863,174237.1167],[154387.9446,174232.6598],[154361.8556,174222.6628],[154351.8636,174219.0498],[154341.6616,174215.5428],[154330.9266,174212.0268],[154320.5666,174208.8338],[154310.3216,174205.9018],[154300.0226,174203.2098],[154281.1356,174198.4968],[154265.8916,174194.8308],[154252.6986,174191.7478],[154244.5136,174189.9218],[154234.4776,174187.7818],[154224.3026,174185.7418],[154214.1326,174183.8588],[154203.7586,174182.0408],[154193.0966,174180.2828],[154182.6306,174178.6488],[154172.8266,174177.1868],[154158.7066,174175.2108],[154142.8056,174173.1358],[154134.0326,174172.0648],[154124.0216,174170.8808],[154113.8386,174169.6698],[154103.9546,174168.4958],[154094.1016,174167.3288],[154084.1196,174166.1448],[154074.7746,174165.0428],[154064.7846,174163.8518],[154059.7326,174163.2518],[154048.3046,174161.9058],[154036.4786,174160.5148],[154025.1766,174159.1728],[154013.0206,174157.7238],[154001.4756,174156.3608],[154000,174156.1857],[153989.2746,174154.9128],[153976.1796,174153.3868],[153964.3516,174152.0578],[153950.6816,174150.5578],[153938.8236,174149.2868],[153927.2696,174148.0898],[153910.0096,174146.3678],[153880.0706,174143.4528],[153832.1166,174138.7718],[153809.8796,174136.5828],[153774.4896,174133.1338],[153751.2386,174130.8548],[153718.1926,174127.6248],[153697.0056,174125.5568],[153676.9936,174123.5788],[153653.3526,174121.2688],[153624.4846,174118.4498],[153594.4026,174115.4998],[153574.9056,174113.6158],[153561.9826,174112.4068],[153545.2036,174110.9498],[153528.3746,174109.6338],[153517.2526,174108.8578],[153511.227,174108.4432],[153505.2016,174108.0248],[153493.2306,174107.1588],[153479.0446,174105.9818],[153463.5216,174104.5918],[153440.6666,174102.3348],[153417.8726,174100.0488],[153390.8846,174097.3318],[153366.3376,174094.8528],[153346.6246,174092.8748],[153338.4166,174092.0508],[153328.7872,174091.0852]]]},"geometry_name":"GEOM","properties":{"INSPIRE_ID":"https://databrussels.be/id/rail/30110","TYPE":"TW","LVL":0,"SLOPE":null,"LENGTH":1087.65757213731},"bbox":[153328.7872,174091.0852,154403.3186,174238.5684]}],"numberReturned":49,"grand_bruxelles_source":{"authority":"Paradigm / Brussels-Capital Region","service":"https://geoservices-urbis.irisnet.be/geoserver/urbisvector/wfs","layer":"urbisvector:TramNetwork","crs":"EPSG:31370","bbox":[153000.0,174000.0,153500.0,174500.0],"cell_id":"bxl-e153000-n174000-s500","ownership":"bbox_intersection_source_unclipped"}}
