{"type":"FeatureCollection","totalFeatures":6,"numberMatched":6,"timeStamp":"2026-08-24T01:19:59.446Z","crs":{"type":"name","properties":{"name":"urn:ogc:def:crs:EPSG::31370"}},"bbox":[151837.02399381,162203.78580639,152768.64,163106.73000036],"features":[{"type":"Feature","id":"StreetSurfaces.fid--578fcb21_1a031383836_-104c","geometry":{"type":"Polygon","coordinates":[[[151843.76523652,162622.42886719],[151842.65308887,162620.70824802],[151857.6600425,162612.51008037],[151889.7300325,162595.08000037],[151910.8699275,162583.96000037],[151922.5600775,162577.58000037],[151945.1299125,162565.38000037],[151970.9700075,162551.54000037],[151999.999955,162536.24000037],[152004.130025,162534.06000036],[152043.549935,162512.72000037],[152078.2499425,162494.32000037],[152111.5500075,162476.64000037],[152160.5499475,162450.71008036],[152202.91435636,162428.3111096],[152218.2899875,162419.90000037],[152254.9199525,162400.60992037],[152299.4099725,162376.65008037],[152334.769925,162358.26000037],[152361.610055,162343.99008037],[152388.2100275,162330.19008037],[152402.7000625,162322.56000037],[152457.41,162293.72000037],[152508.06992,162266.90000037],[152553.49998,162242.57008037],[152585.1800025,162226.01008037],[152607.68008,162214.15008037],[152619.9600625,162207.54000037],[152621.15921675,162206.91801132],[152623.34391318,162207.93385525],[152622.85999823,162208.16084672],[152618.71,162210.37100037],[152613.90000408,162212.92084829],[152577.66,162232.19100037],[152536.71,162253.48100037],[152403.24,162324.91100037],[152379.88,162336.91100037],[152363.78,162345.48100037],[152345.83,162354.65100037],[152282.51,162387.95100037],[152255.89,162402.31100037],[152224.8,162418.60100037],[152203.35,162430.09100037],[152174.47,162445.24100037],[152133.25,162467.67100037],[152091.93,162489.68100037],[152047.62,162512.82100037],[152000,162538.41100037],[151964.27,162557.45100037],[151912.86,162585.28100037],[151859.87,162613.36100037],[151856.07697523,162615.49668174],[151843.76523652,162622.42886719]]]},"geometry_name":"GEOM","properties":{"INSPIRE_ID":"https://databrussels.be/id/streetsurface/132648","TYPE":"SW","STREET_ID":"https://databrussels.be/id/streetname/7063","STRNAMEFRE":"Drève du Haras","STRNAMEDUT":"Stoeterijdreef","MUNNISCODE":"21016","HIERARCHY":"IDR","LVL":0,"ADMIN":"REGION_RBC","AREA":1766},"bbox":[151842.65308887,162206.91801132,152623.34391318,162622.42886719]},{"type":"Feature","id":"StreetSurfaces.fid--578fcb21_1a031383836_-1049","geometry":{"type":"Polygon","coordinates":[[[152768.222,162933.97000036],[152768.64,162938.45000037],[152768.38,162938.47000037],[152748.31,162939.92000036],[152724.27,162943.08000036],[152691.17,162946.91000036],[152676.43,162948.02000037],[152665.47,162948.24000037],[152656.27,162948.03000036],[152615.3,162944.35000037],[152567.39,162938.99000036],[152533.75,162935.05000037],[152502.99,162931.62000036],[152468.07,162927.66000036],[152438.43,162924.60000037],[152413.27,162922.05000037],[152388.8,162919.11000037],[152358.35466318,162915.98798886],[152348.26137721,162914.55568765],[152343.08267649,162913.69034335],[152343.3566987,162911.48679581],[152343.63072092,162909.28324827],[152347.72,162910.10000037],[152357.03,162911.61000037],[152378.44,162914.40000037],[152408.35,162917.63000037],[152440.44,162920.95000036],[152486.27,162926.12000036],[152533.49,162930.97000036],[152599.86,162938.70000037],[152630.01,162942.03000036],[152649.7,162944.05000036],[152663.86,162944.61000037],[152674.88,162944.51000037],[152694.79,162943.07000037],[152721.31,162939.82000036],[152745.83,162936.81000036],[152762.12,162934.54000037],[152768.222,162933.97000036]]]},"geometry_name":"GEOM","properties":{"INSPIRE_ID":"https://databrussels.be/id/streetsurface/37778","TYPE":"S","STREET_ID":"https://databrussels.be/id/streetname/362","STRNAMEFRE":"Chemin du Pivert","STRNAMEDUT":"Spechtenweg","MUNNISCODE":"21016","HIERARCHY":"T","LVL":0,"ADMIN":"MUN_RBC","AREA":1614},"bbox":[152343.08267649,162909.28324827,152768.64,162948.24000037]},{"type":"Feature","id":"StreetSurfaces.fid--578fcb21_1a031383836_-1048","geometry":{"type":"Polygon","coordinates":[[[152653.8,163106.73000036],[152646.3,163102.27000037],[152605.42,163077.47000036],[152568.58,163056.14000037],[152502.14,163016.28000036],[152473.91,163000.00000036],[152437.55,162978.48000036],[152422.06,162968.94000037],[152395.81,162953.98000037],[152373.41,162940.99000037],[152352.93,162928.64000037],[152344.48217955,162923.70948806],[152345.15608978,162922.70974421],[152345.83,162921.71000036],[152371.91,162937.77000037],[152397.08,162952.08000037],[152428.84,162970.37000036],[152465.9,162993.11000037],[152477.64,163000.00000036],[152502.72,163014.71000036],[152522.06,163026.08000036],[152547.02,163040.96000037],[152579,163060.12000036],[152609.55,163077.29000037],[152644.75,163098.44000037],[152652.26,163102.67000036],[152655.52,163103.69000036],[152653.8,163106.73000036]]]},"geometry_name":"GEOM","properties":{"INSPIRE_ID":"https://databrussels.be/id/streetsurface/37798","TYPE":"S","STREET_ID":"https://databrussels.be/id/streetname/3266","STRNAMEFRE":"Drève Saint-Hubert","STRNAMEDUT":"Sint-Hubertusdreef","MUNNISCODE":"21016","HIERARCHY":"T","LVL":0,"ADMIN":"MUN_RBC","AREA":746},"bbox":[152344.48217955,162921.71000036,152655.52,163106.73000036]},{"type":"Feature","id":"StreetSurfaces.fid--578fcb21_1a031383836_-104a","geometry":{"type":"Polygon","coordinates":[[[152315.272,162901.38600036],[152317.34,162902.29000037],[152323.42,162904.50000037],[152331.93,162906.81000036],[152339.321,162908.42000037],[152339.69,162908.50000036],[152341.3,162908.81800037],[152343.63072092,162909.28324827],[152343.3566987,162911.48679581],[152343.08267649,162913.69034335],[152342.25889414,162914.42658402],[152341.92396174,162915.3409009],[152341.60442044,162916.42532115],[152342.12729956,162917.87837048],[152345.83,162921.71000036],[152345.15608978,162922.70974421],[152344.48217955,162923.70948806],[152336.79,162919.22000037],[152315.55764158,162906.14311036],[152313.61270193,162904.78259471],[152314.44235096,162903.08429754],[152315.272,162901.38600036]]]},"geometry_name":"GEOM","properties":{"INSPIRE_ID":"https://databrussels.be/id/streetsurface/37860","TYPE":"I","STREET_ID":"https://databrussels.be/id/streetname/3266","STRNAMEFRE":"Drève Saint-Hubert","STRNAMEDUT":"Sint-Hubertusdreef","MUNNISCODE":"21016","HIERARCHY":"T","LVL":0,"ADMIN":"MUN_RBC","AREA":249},"bbox":[152313.61270193,162901.38600036,152345.83,162923.70948806]},{"type":"Feature","id":"StreetSurfaces.fid--578fcb21_1a031383836_-104b","geometry":{"type":"Polygon","coordinates":[[[151843.765,162623.18330416],[151844.06733746,162624.03831306],[151844.52012384,162624.99419541],[151845.72755418,162626.35255455],[151847.58900929,162628.06308086],[151860.389,162635.98100036],[151875.82,162645.34000037],[151912.64,162667.14000036],[151944.53,162685.70000037],[151989.71,162711.89000037],[152000,162717.98000036],[152029.57,162735.48000037],[152078.6,162764.17000036],[152117.59,162787.21000037],[152160.99,162812.46000037],[152175.51949895,162820.94451024],[152206.78063593,162839.27612222],[152238.36327212,162857.59221223],[152268.78850262,162875.38841411],[152280.64,162882.63000037],[152299.34,162893.37000036],[152311.21,162899.61000036],[152315.272,162901.38600036],[152314.44235096,162903.08429754],[152313.61270193,162904.78259471],[152305.69476969,162900.71907261],[152299.48598394,162897.17597064],[152281.83331534,162887.12496041],[152274.34694766,162882.94882527],[152266.7928482,162878.51369757],[152247.48093866,162867.02858538],[152231.35358567,162857.71820383],[152222.17672376,162852.62943314],[152212.22247167,162846.98014873],[152201.82071772,162840.76490995],[152186.7520804,162831.74700969],[152164.83081748,162818.73615906],[152155.56137093,162813.47272777],[152147.950974,162808.87007433],[152122.40788569,162794.17267938],[152113.19432492,162788.61645014],[152084.98,162772.43000037],[152038.15,162744.68000036],[152000.81,162722.95000037],[151952.72,162694.77000037],[151894.38,162660.37000037],[151865.19736842,162643.5081273],[151849.90325077,162634.20085176],[151842.80959752,162629.97484557],[151837.02399381,162626.75503133],[151840.30682048,162625.01562317],[151843.765,162623.18330416]]]},"geometry_name":"GEOM","properties":{"INSPIRE_ID":"https://databrussels.be/id/streetsurface/37862","TYPE":"S","STREET_ID":"https://databrussels.be/id/streetname/3266","STRNAMEFRE":"Drève Saint-Hubert","STRNAMEDUT":"Sint-Hubertusdreef","MUNNISCODE":"21016","HIERARCHY":"T","LVL":0,"ADMIN":"MUN_RBC","AREA":2024},"bbox":[151837.02399381,162623.18330416,152315.272,162904.78259471]},{"type":"Feature","id":"StreetSurfaces.fid--578fcb21_1a031383836_-104d","geometry":{"type":"Polygon","coordinates":[[[152608.4630014,162206.93381109],[152609.19472293,162206.54759748],[152612.67135541,162204.71205986],[152613.71363479,162204.16180066],[152614.42536737,162203.78580639],[152621.15921675,162206.91801132],[152619.9600625,162207.54000037],[152607.68008,162214.15008037],[152585.1800025,162226.01008037],[152553.49998,162242.57008037],[152508.06992,162266.90000037],[152457.41,162293.72000037],[152402.7000625,162322.56000037],[152388.2100275,162330.19008037],[152361.610055,162343.99008037],[152334.769925,162358.26000037],[152299.4099725,162376.65008037],[152254.9199525,162400.60992037],[152218.2899875,162419.90000037],[152202.91435636,162428.3111096],[152160.5499475,162450.71008036],[152111.5500075,162476.64000037],[152078.2499425,162494.32000037],[152043.549935,162512.72000037],[152004.130025,162534.06000036],[151999.999955,162536.24000037],[151970.9700075,162551.54000037],[151945.1299125,162565.38000037],[151922.5600775,162577.58000037],[151910.8699275,162583.96000037],[151889.7300325,162595.08000037],[151857.6600425,162612.51008037],[151842.65308887,162620.70824802],[151841.58774544,162619.06004031],[151839.41,162615.69100037],[151846.08000156,162612.01083705],[151880.98999575,162593.1708431],[151929.82000301,162566.97083699],[151983.73999396,162538.03083784],[151999.99999994,162529.37083908],[152004.12223527,162527.17679506],[152004.97197174,162526.72452607],[152037.54745231,162509.38514373],[152039.97749679,162508.09167178],[152172.56000371,162437.52083651],[152172.98595867,162437.29587587],[152202.98495543,162421.45243262],[152230.13168332,162407.11536507],[152230.5,162406.92100037],[152256.13,162393.11100037],[152256.7363055,162392.79150854],[152283.55004904,162378.66204418],[152297.6302734,162371.2424898],[152376.73,162329.56100037],[152403.83,162315.08100037],[152404.15621157,162314.90906524],[152429.99767035,162301.28890276],[152475.50178091,162277.30521885],[152475.59618519,162277.25546153],[152476.06,162277.01100037],[152608.4630014,162206.93381109]]]},"geometry_name":"GEOM","properties":{"INSPIRE_ID":"https://databrussels.be/id/streetsurface/44622","TYPE":"S","STREET_ID":"https://databrussels.be/id/streetname/7063","STRNAMEFRE":"Drève du Haras","STRNAMEDUT":"Stoeterijdreef","MUNNISCODE":"21016","HIERARCHY":"IDR","LVL":0,"ADMIN":"REGION_RBC","AREA":5203},"bbox":[151839.41,162203.78580639,152621.15921675,162620.70824802]}],"numberReturned":6,"grand_bruxelles_source":{"authority":"Paradigm / Brussels-Capital Region","service":"https://geoservices-urbis.irisnet.be/geoserver/urbisvector/wfs","layer":"urbisvector:StreetSurfaces","crs":"EPSG:31370","bbox":[152000.0,162500.0,152500.0,163000.0],"cell_id":"bxl-e152000-n162500-s500","ownership":"bbox_intersection_source_unclipped"}}
