{"type":"FeatureCollection","totalFeatures":38,"numberMatched":38,"timeStamp":"2026-08-23T01:01:36.354Z","crs":{"type":"name","properties":{"name":"urn:ogc:def:crs:EPSG::31370"}},"bbox":[145095.892,165859.55275383,145606.44800115,166956.57925724],"features":[{"type":"Feature","id":"StreetSurfaces.fid--590544ac_1a02c121f93_-ba8","geometry":{"type":"Polygon","coordinates":[[[145380.4968925,166257.90528035],[145377.74210438,166240.46391019],[145377.34151523,166234.79065298],[145379.366,166237.35500035],[145381.248,166239.37600036],[145383.352,166241.16400036],[145385.649,166242.69600036],[145387.83121377,166243.80839713],[145386.38226,166246.59328036],[145380.4968925,166257.90528035]]]},"geometry_name":"GEOM","properties":{"INSPIRE_ID":"https://databrussels.be/id/streetsurface/131593","TYPE":"I","STREET_ID":"https://databrussels.be/id/streetname/1002","STRNAMEFRE":"Rue de la Soierie","STRNAMEDUT":"Zijdeweverijstraat","MUNNISCODE":"21007","HIERARCHY":"DR","LVL":0,"ADMIN":"REGION_VL","AREA":103},"bbox":[145377.34151523,166234.79065298,145387.83121377,166257.90528035]},{"type":"Feature","id":"StreetSurfaces.fid--590544ac_1a02c121f93_-b9d","geometry":{"type":"Polygon","coordinates":[[[145325.86089554,166031.11384531],[145324.296665,166028.37440036],[145325.00702,166027.30752036],[145325.813225,166026.45968036],[145325.09222,166019.18400036],[145324.471,166018.75500036],[145325.357,166019.10500036],[145326.388,166030.43400036],[145325.86089554,166031.11384531]]]},"geometry_name":"GEOM","properties":{"INSPIRE_ID":"https://databrussels.be/id/streetsurface/143374","TYPE":"SW","STREET_ID":"https://databrussels.be/id/streetname/2734","STRNAMEFRE":"Boulevard de l'Humanité","STRNAMEDUT":"Humaniteitslaan","MUNNISCODE":"21007","HIERARCHY":"IDR","LVL":0,"ADMIN":"REGION_VL","AREA":7},"bbox":[145324.296665,166018.75500036,145326.388,166031.11384531]},{"type":"Feature","id":"StreetSurfaces.fid--590544ac_1a02c121f93_-ba6","geometry":{"type":"Polygon","coordinates":[[[145398.52,166262.91000036],[145393.915,166266.86000036],[145389.31,166270.81000036],[145382.89154185,166273.07716219],[145381.60496266,166264.92879033],[145382.47371,166263.17024035],[145384.2073525,166260.90528035],[145385.742905,166259.57648036],[145388.0733025,166258.15184036],[145390.4037,166256.72720036],[145392.345905,166256.30640036],[145395.161765,166256.88912036],[145399.91073251,166258.23851558],[145398.52,166262.91000036]]]},"geometry_name":"GEOM","properties":{"INSPIRE_ID":"https://databrussels.be/id/streetsurface/143375","TYPE":"SW","STREET_ID":"https://databrussels.be/id/streetname/1002","STRNAMEFRE":"Rue de la Soierie","STRNAMEDUT":"Zijdeweverijstraat","MUNNISCODE":"21007","HIERARCHY":"DR","LVL":0,"ADMIN":"REGION_VL","AREA":181},"bbox":[145381.60496266,166256.30640036,145399.91073251,166273.07716219]},{"type":"Feature","id":"StreetSurfaces.fid--590544ac_1a02c121f93_-bc0","geometry":{"type":"Polygon","coordinates":[[[145382.89154185,166273.07716219],[145389.31,166270.81000036],[145393.74,166291.83000036],[145400.13,166313.37000036],[145419.99,166363.77000036],[145423.43,166372.93000036],[145462.29,166472.31000035],[145484.12169225,166528.33321062],[145483.8714725,166528.33936035],[145481.89288,166528.38800035],[145471.6708325,166502.61904036],[145469.3757575,166503.52944036],[145468.976915,166503.57072036],[145451.699065,166459.41344036],[145413.8196775,166362.08272036],[145384.601225,166283.89888036],[145382.89154185,166273.07716219]]]},"geometry_name":"GEOM","properties":{"INSPIRE_ID":"https://databrussels.be/id/streetsurface/143376","TYPE":"SW","STREET_ID":"https://databrussels.be/id/streetname/2734","STRNAMEFRE":"Boulevard de l'Humanité","STRNAMEDUT":"Humaniteitslaan","MUNNISCODE":"21007","HIERARCHY":"IDR","LVL":0,"ADMIN":"REGION_VL","AREA":1332},"bbox":[145382.89154185,166270.81000036,145484.12169225,166528.38800035]},{"type":"Feature","id":"StreetSurfaces.fid--590544ac_1a02c121f93_-bbe","geometry":{"type":"Polygon","coordinates":[[[145459.08148182,166281.19818361],[145456.96,166280.53000036],[145398.52,166262.91000036],[145399.91073251,166258.23851558],[145403.9403825,166259.38352036],[145403.4419625,166260.97008036],[145421.49105,166266.39376036],[145432.31003,166269.64496036],[145432.884065,166267.95296036],[145434.7959175,166268.56208036],[145434.2960775,166270.25104036],[145441.3531225,166272.36144036],[145453.8249825,166276.09104036],[145454.370085,166274.41600036],[145456.732965,166275.15408035],[145457.310195,166275.36656036],[145457.841275,166275.67680036],[145458.3100525,166276.07504036],[145458.6465925,166276.47120036],[145458.9210075,166276.91264036],[145459.127085,166277.39008036],[145459.295,166277.80800036],[145459.389075,166278.22496036],[145459.445165,166278.64880036],[145459.462915,166279.07600036],[145459.448715,166279.42800036],[145459.408245,166279.77792036],[145459.3420375,166280.12400036],[145459.124955,166281.02592036],[145459.08148182,166281.19818361]]]},"geometry_name":"GEOM","properties":{"INSPIRE_ID":"https://databrussels.be/id/streetsurface/143377","TYPE":"SW","STREET_ID":"https://databrussels.be/id/streetname/1002","STRNAMEFRE":"Rue de la Soierie","STRNAMEDUT":"Zijdeweverijstraat","MUNNISCODE":"21007","HIERARCHY":"DR","LVL":0,"ADMIN":"MUN_RBC","AREA":227},"bbox":[145398.52,166258.23851558,145459.462915,166281.19818361]},{"type":"Feature","id":"StreetSurfaces.fid--590544ac_1a02c121f93_-ba3","geometry":{"type":"Polygon","coordinates":[[[145318.16176352,165902.26518689],[145318.637,165904.54500036],[145320.268,165910.50400036],[145320.785,165915.34600036],[145320.772,165934.90800036],[145320.536,165943.51300036],[145320.146,165948.08400036],[145319.484,165953.83200036],[145319.279,165959.41100036],[145320.277,165977.12600036],[145322.047,166005.67100036],[145320.48032189,166005.76119493],[145320.089915,166000.00000036],[145319.849935,165996.35008036],[145318.8500775,165977.76992036],[145318.2000725,165952.88000036],[145317.64006,165922.06000036],[145317.590005,165919.19008036],[145318.16176352,165902.26518689]]]},"geometry_name":"GEOM","properties":{"INSPIRE_ID":"https://databrussels.be/id/streetsurface/143549","TYPE":"SW","STREET_ID":"https://databrussels.be/id/streetname/2734","STRNAMEFRE":"Boulevard de l'Humanité","STRNAMEDUT":"Humaniteitslaan","MUNNISCODE":"21007","HIERARCHY":"IDR","LVL":0,"ADMIN":"REGION_VL","AREA":197},"bbox":[145317.590005,165902.26518689,145322.047,166005.76119493]},{"type":"Feature","id":"StreetSurfaces.fid--590544ac_1a02c121f93_-bbb","geometry":{"type":"Polygon","coordinates":[[[145467.645866,166283.89562744],[145467.886,166283.35504036],[145467.96197,166282.88496036],[145468.153315,166282.43712036],[145468.396135,166282.01472035],[145468.6870575,166281.62400036],[145468.915145,166281.37392036],[145469.1631125,166281.14352036],[145469.514385,166280.87376036],[145469.59994,166280.80800036],[145470.0342825,166280.54368036],[145470.493475,166280.32592036],[145470.97308,166280.15696036],[145471.7734275,166279.99232036],[145472.5899275,166279.96336036],[145473.4000375,166280.07104036],[145476.1200475,166280.92608036],[145475.645945,166282.64608036],[145478.538485,166283.51424036],[145496.26896,166288.83600036],[145502.0439225,166290.37600036],[145502.52406,166288.66000036],[145504.4369775,166289.22304035],[145504.0290825,166290.89296036],[145509.761445,166292.31648036],[145515.50925,166293.67584036],[145524.1881125,166295.60080036],[145530.0310575,166296.81104036],[145530.4389525,166295.08000036],[145532.4052975,166295.50208036],[145532.7500025,166295.57600036],[145541.337985,166298.92304036],[145550.3299575,166300.25104036],[145556.8782875,166301.14368036],[145563.4376225,166301.95040036],[145570.007075,166302.67104036],[145576.5534525,166303.21616036],[145589.6650225,166304.04992036],[145593.81657,166304.24256036],[145597.969715,166304.40096036],[145602.123925,166304.52496036],[145605.4820475,166304.59504036],[145606.13834535,166304.01431516],[145605.46,166307.81000036],[145570.35,166306.06000036],[145544.2,166302.52000036],[145517.91,166297.62000036],[145495.82,166292.04000036],[145469.66,166284.53000036],[145467.645866,166283.89562744]]]},"geometry_name":"GEOM","properties":{"INSPIRE_ID":"https://databrussels.be/id/streetsurface/143638","TYPE":"SW","STREET_ID":"https://databrussels.be/id/streetname/1002","STRNAMEFRE":"Rue de la Soierie","STRNAMEDUT":"Zijdeweverijstraat","MUNNISCODE":"21007","HIERARCHY":"DR","LVL":0,"ADMIN":"MUN_RBC","AREA":469},"bbox":[145467.645866,166279.96336036,145606.13834535,166307.81000036]},{"type":"Feature","id":"StreetSurfaces.fid--590544ac_1a02c121f93_-b9f","geometry":{"type":"Polygon","coordinates":[[[145320.48032189,166005.76119493],[145322.047,166005.67100036],[145322.95047343,166017.35477242],[145322.7028925,166016.90496036],[145322.4572325,166016.16304036],[145321.619965,166013.75008036],[145321.31005,166012.45008036],[145320.5100575,166006.20000036],[145320.48032189,166005.76119493]]]},"geometry_name":"GEOM","properties":{"INSPIRE_ID":"https://databrussels.be/id/streetsurface/143698","TYPE":"SW","STREET_ID":"https://databrussels.be/id/streetname/2734","STRNAMEFRE":"Boulevard de l'Humanité","STRNAMEDUT":"Humaniteitslaan","MUNNISCODE":"21007","HIERARCHY":"IDR","LVL":0,"ADMIN":"REGION_VL","AREA":13},"bbox":[145320.48032189,166005.67100036,145322.95047343,166017.35477242]},{"type":"Feature","id":"StreetSurfaces.fid--590544ac_1a02c121f93_-ba5","geometry":{"type":"Polygon","coordinates":[[[145401.9543097,166251.37614441],[145386.38226,166246.59328036],[145387.83121377,166243.80839713],[145388.109,166243.95000036],[145390.517,166244.86100036],[145402.805,166248.52000036],[145401.9543097,166251.37614441]]]},"geometry_name":"GEOM","properties":{"INSPIRE_ID":"https://databrussels.be/id/streetsurface/143699","TYPE":"SW","STREET_ID":"https://databrussels.be/id/streetname/1002","STRNAMEFRE":"Rue de la Soierie","STRNAMEDUT":"Zijdeweverijstraat","MUNNISCODE":"21007","HIERARCHY":"DR","LVL":0,"ADMIN":"REGION_VL","AREA":47},"bbox":[145386.38226,166243.80839713,145402.805,166251.37614441]},{"type":"Feature","id":"StreetSurfaces.fid--590544ac_1a02c121f93_-bbc","geometry":{"type":"Polygon","coordinates":[[[145401.9543097,166251.37614441],[145402.805,166248.52000036],[145469.57,166268.40000036],[145507.38,166279.40000036],[145538.17,166286.54000035],[145548.5679915,166288.25237371],[145548.0029325,166292.90304036],[145546.352005,166292.69696036],[145545.73821,166292.64544036],[145545.1292075,166292.55264036],[145544.528015,166292.41904036],[145544.0155725,166292.27072036],[145543.512715,166292.09296036],[145543.02104,166291.88608036],[145532.8799325,166288.54000036],[145519.6700275,166285.65104036],[145517.22532,166285.06560036],[145512.33697,166283.89008036],[145507.77735,166282.78736036],[145505.4980725,166282.23408035],[145504.089965,166281.86736036],[145501.279075,166281.11504035],[145500.0683475,166280.78240036],[145497.650975,166280.10304036],[145483.65581,166275.90240036],[145477.5293975,166274.06352036],[145468.3895675,166271.32032036],[145457.252685,166267.97760036],[145445.22493,166264.36752036],[145436.115985,166261.63344036],[145431.35863,166260.20560036],[145424.12941,166258.03568036],[145418.37557,166256.30864036],[145412.6002525,166254.57520036],[145402.4909175,166251.54096036],[145401.9543097,166251.37614441]]]},"geometry_name":"GEOM","properties":{"INSPIRE_ID":"https://databrussels.be/id/streetsurface/143846","TYPE":"SW","STREET_ID":"https://databrussels.be/id/streetname/1002","STRNAMEFRE":"Rue de la Soierie","STRNAMEDUT":"Zijdeweverijstraat","MUNNISCODE":"21007","HIERARCHY":"DR","LVL":0,"ADMIN":"MUN_RBC","AREA":492},"bbox":[145401.9543097,166248.52000036,145548.5679915,166292.90304036]},{"type":"Feature","id":"StreetSurfaces.fid--590544ac_1a02c121f93_-ba4","geometry":{"type":"Polygon","coordinates":[[[145318.16176352,165902.26518689],[145317.590005,165919.19008036],[145317.64006,165922.06000036],[145318.2000725,165952.88000036],[145318.8500775,165977.76992036],[145319.849935,165996.35008036],[145320.089915,166000.00000036],[145320.48032189,166005.76119493],[145312.09252804,166006.2440851],[145301.7998951,165983.7859501],[145302.0699375,165983.62208036],[145303.4299425,165982.07600036],[145304.2879775,165981.17904036],[145304.1300025,165978.68000036],[145303.1200275,165931.25008036],[145302.4700225,165928.76992036],[145301.1600725,165926.14000036],[145299.65008,165924.18000036],[145299.45341,165924.01264036],[145300.84736278,165915.18189121],[145301.7000275,165914.37008036],[145302.50996,165913.25008036],[145303.0199175,165912.06000036],[145303.21996,165910.26992036],[145303.35999681,165904.23677876],[145305.47295706,165895.85139621],[145309.35338291,165882.38486563],[145314.73483776,165869.04816246],[145319.26611763,165859.55275383],[145317.407,165892.92400036],[145317.4,165897.24700036],[145317.774,165900.40500036],[145318.16176352,165902.26518689]]]},"geometry_name":"GEOM","properties":{"INSPIRE_ID":"https://databrussels.be/id/streetsurface/26329","TYPE":"S","STREET_ID":"https://databrussels.be/id/streetname/2734","STRNAMEFRE":"Boulevard de l'Humanité","STRNAMEDUT":"Humaniteitslaan","MUNNISCODE":"21007","HIERARCHY":"IDR","LVL":0,"ADMIN":"REGION_VL","AREA":1848},"bbox":[145299.45341,165859.55275383,145320.48032189,166006.2440851]},{"type":"Feature","id":"StreetSurfaces.fid--590544ac_1a02c121f93_-bbf","geometry":{"type":"Polygon","coordinates":[[[145384.601225,166283.89888036],[145413.8196775,166362.08272036],[145451.699065,166459.41344036],[145468.976915,166503.57072036],[145469.3757575,166503.52944036],[145471.6708325,166502.61904036],[145481.89288,166528.38800035],[145477.53979123,166528.49599098],[145471.88768053,166527.99564382],[145466.71923869,166524.71821478],[145459.96789009,166514.05090156],[145446.92688283,166473.56004368],[145435.97691236,166424.94386624],[145396.07628421,166323.36355622],[145392.41062467,166318.17593333],[145387.83191528,166304.36633596],[145384.601225,166283.89888036]]]},"geometry_name":"GEOM","properties":{"INSPIRE_ID":"https://databrussels.be/id/streetsurface/26330","TYPE":"S","STREET_ID":"https://databrussels.be/id/streetname/2734","STRNAMEFRE":"Boulevard de l'Humanité","STRNAMEDUT":"Humaniteitslaan","MUNNISCODE":"21007","HIERARCHY":"IDR","LVL":0,"ADMIN":"REGION_VL","AREA":1412},"bbox":[145384.601225,166283.89888036,145481.89288,166528.49599098]},{"type":"Feature","id":"StreetSurfaces.fid--590544ac_1a02c121f93_-b9e","geometry":{"type":"Polygon","coordinates":[[[145323.81052279,166018.40067376],[145324.06361579,166018.53645071],[145324.471,166018.75500036],[145325.09222,166019.18400036],[145325.813225,166026.45968036],[145325.00702,166027.30752036],[145324.296665,166028.37440036],[145313.85669425,166010.09314936],[145312.09252804,166006.2440851],[145320.48032189,166005.76119493],[145320.5100575,166006.20000036],[145321.31005,166012.45008036],[145321.619965,166013.75008036],[145322.4572325,166016.16304036],[145322.7028925,166016.90496036],[145322.95047343,166017.35477242],[145322.989,166017.85300036],[145323.540994,166018.24254043],[145323.81052279,166018.40067376]]]},"geometry_name":"GEOM","properties":{"INSPIRE_ID":"https://databrussels.be/id/streetsurface/26368","TYPE":"I","STREET_ID":"https://databrussels.be/id/streetname/2734","STRNAMEFRE":"Boulevard de l'Humanité","STRNAMEDUT":"Humaniteitslaan","MUNNISCODE":"21007","HIERARCHY":"IDR","LVL":0,"ADMIN":"REGION_VL","AREA":118},"bbox":[145312.09252804,166005.76119493,145325.813225,166028.37440036]},{"type":"Feature","id":"StreetSurfaces.fid--590544ac_1a02c121f93_-ba0","geometry":{"type":"Polygon","coordinates":[[[145501.825065,166027.29040036],[145491.669935,166046.50000036],[145472.609985,166082.59008036],[145467.9699575,166091.37008036],[145418.94996,166184.21008036],[145409.98266,166201.23120036],[145387.83121377,166243.80839713],[145385.649,166242.69600036],[145383.352,166241.16400036],[145381.248,166239.37600036],[145379.366,166237.35500035],[145377.34151523,166234.79065298],[145376.38086136,166221.18743437],[145504.02262595,165977.84215319],[145514.77091556,166000.4814875],[145515.60245839,166002.23265185],[145501.825065,166027.29040036]]]},"geometry_name":"GEOM","properties":{"INSPIRE_ID":"https://databrussels.be/id/streetsurface/26819","TYPE":"S","STREET_ID":"https://databrussels.be/id/streetname/4711","STRNAMEFRE":"Ring 0","STRNAMEDUT":"Ring 0","MUNNISCODE":"21007","HIERARCHY":"H","LVL":1,"ADMIN":"REGION_RBC","AREA":5774},"bbox":[145376.38086136,165977.84215319,145515.60245839,166243.80839713]},{"type":"Feature","id":"StreetSurfaces.fid--590544ac_1a02c121f93_-ba2","geometry":{"type":"Polygon","coordinates":[[[145461.2299275,166000.00000036],[145488.2880275,165944.70000036],[145489.15005719,165946.51576841],[145500.96990614,165971.41214927],[145375.4255101,166207.65269258],[145372.6643973,166168.53519702],[145372.66435,166168.53520036],[145372.47052,166165.78848036],[145376.6099975,166158.84000036],[145412.32992,166093.48000036],[145437.5400675,166046.97008036],[145461.22791006,166000.00400036],[145461.2299275,166000.00000036]]]},"geometry_name":"GEOM","properties":{"INSPIRE_ID":"https://databrussels.be/id/streetsurface/26820","TYPE":"S","STREET_ID":"https://databrussels.be/id/streetname/4711","STRNAMEFRE":"Ring 0","STRNAMEDUT":"Ring 0","MUNNISCODE":"21007","HIERARCHY":"H","LVL":1,"ADMIN":"REGION_RBC","AREA":5567},"bbox":[145372.47052,165944.70000036,145500.96990614,166207.65269258]},{"type":"Feature","id":"StreetSurfaces.fid--590544ac_1a02c121f93_-bbd","geometry":{"type":"Polygon","coordinates":[[[145467.645866,166283.89562744],[145459.08148182,166281.19818361],[145459.124955,166281.02592036],[145459.3420375,166280.12400036],[145459.408245,166279.77792036],[145459.448715,166279.42800036],[145459.462915,166279.07600036],[145459.445165,166278.64880036],[145459.389075,166278.22496036],[145459.295,166277.80800036],[145459.127085,166277.39008036],[145458.9210075,166276.91264036],[145458.6465925,166276.47120036],[145458.3100525,166276.07504036],[145457.841275,166275.67680036],[145457.310195,166275.36656036],[145456.732965,166275.15408035],[145454.370085,166274.41600036],[145453.8249825,166276.09104036],[145441.3531225,166272.36144036],[145434.2960775,166270.25104036],[145434.7959175,166268.56208036],[145432.884065,166267.95296036],[145432.31003,166269.64496036],[145421.49105,166266.39376036],[145403.4419625,166260.97008036],[145403.9403825,166259.38352036],[145399.91073251,166258.23851558],[145400.662,166255.71500036],[145401.9543097,166251.37614441],[145402.4909175,166251.54096036],[145412.6002525,166254.57520036],[145418.37557,166256.30864036],[145424.12941,166258.03568036],[145431.35863,166260.20560036],[145436.115985,166261.63344036],[145445.22493,166264.36752036],[145457.252685,166267.97760036],[145468.3895675,166271.32032036],[145477.5293975,166274.06352036],[145483.65581,166275.90240036],[145497.650975,166280.10304036],[145500.0683475,166280.78240036],[145501.279075,166281.11504035],[145504.089965,166281.86736036],[145505.4980725,166282.23408035],[145507.77735,166282.78736036],[145512.33697,166283.89008036],[145517.22532,166285.06560036],[145519.6700275,166285.65104036],[145532.8799325,166288.54000036],[145543.02104,166291.88608036],[145543.512715,166292.09296036],[145544.0155725,166292.27072036],[145544.528015,166292.41904036],[145545.1292075,166292.55264036],[145545.73821,166292.64544036],[145546.352005,166292.69696036],[145548.0029325,166292.90304036],[145548.5679915,166288.25237371],[145549.009,166288.32500036],[145559.892,166289.81400036],[145570.811,166291.00600036],[145578.39963,166291.62560036],[145577.915055,166296.28304036],[145579.379075,166296.46496036],[145583.36892,166296.72896036],[145588.347085,166296.99504036],[145600.9426625,166297.52064036],[145606.44800115,166297.72894016],[145606.41918652,166299.17498415],[145606.36097139,166302.0964748],[145606.35,166302.83000036],[145606.13834535,166304.01431516],[145605.4820475,166304.59504036],[145602.123925,166304.52496036],[145597.969715,166304.40096036],[145593.81657,166304.24256036],[145589.6650225,166304.04992036],[145576.5534525,166303.21616036],[145570.007075,166302.67104036],[145563.4376225,166301.95040036],[145556.8782875,166301.14368036],[145550.3299575,166300.25104036],[145541.337985,166298.92304036],[145532.7500025,166295.57600036],[145532.4052975,166295.50208036],[145530.4389525,166295.08000036],[145530.0310575,166296.81104036],[145524.1881125,166295.60080036],[145515.50925,166293.67584036],[145509.761445,166292.31648036],[145504.0290825,166290.89296036],[145504.4369775,166289.22304035],[145502.52406,166288.66000036],[145502.0439225,166290.37600036],[145496.26896,166288.83600036],[145478.538485,166283.51424036],[145475.645945,166282.64608036],[145476.1200475,166280.92608036],[145473.4000375,166280.07104036],[145472.5899275,166279.96336036],[145471.7734275,166279.99232036],[145470.97308,166280.15696036],[145470.493475,166280.32592036],[145470.0342825,166280.54368036],[145469.59994,166280.80800036],[145469.514385,166280.87376036],[145469.1631125,166281.14352036],[145468.915145,166281.37392036],[145468.6870575,166281.62400036],[145468.396135,166282.01472035],[145468.153315,166282.43712036],[145467.96197,166282.88496036],[145467.886,166283.35504036],[145467.645866,166283.89562744]]]},"geometry_name":"GEOM","properties":{"INSPIRE_ID":"https://databrussels.be/id/streetsurface/32234","TYPE":"S","STREET_ID":"https://databrussels.be/id/streetname/1002","STRNAMEFRE":"Rue de la Soierie","STRNAMEDUT":"Zijdeweverijstraat","MUNNISCODE":"21007","HIERARCHY":"DR","LVL":0,"ADMIN":"MUN_RBC","AREA":1858},"bbox":[145399.91073251,166251.37614441,145606.44800115,166304.59504036]},{"type":"Feature","id":"StreetSurfaces.fid--590544ac_1a02c121f93_-ba7","geometry":{"type":"Polygon","coordinates":[[[145401.9543097,166251.37614441],[145400.662,166255.71500036],[145399.91073251,166258.23851558],[145395.161765,166256.88912036],[145392.345905,166256.30640036],[145390.4037,166256.72720036],[145388.0733025,166258.15184036],[145385.742905,166259.57648036],[145384.2073525,166260.90528035],[145382.47371,166263.17024035],[145381.60496266,166264.92879033],[145380.62150431,166258.70019254],[145380.4968925,166257.90528035],[145386.38226,166246.59328036],[145401.9543097,166251.37614441]]]},"geometry_name":"GEOM","properties":{"INSPIRE_ID":"https://databrussels.be/id/streetsurface/38125","TYPE":"I","STREET_ID":"https://databrussels.be/id/streetname/1002","STRNAMEFRE":"Rue de la Soierie","STRNAMEDUT":"Zijdeweverijstraat","MUNNISCODE":"21007","HIERARCHY":"DR","LVL":0,"ADMIN":"REGION_VL","AREA":179},"bbox":[145380.4968925,166246.59328036,145401.9543097,166264.92879033]},{"type":"Feature","id":"StreetSurfaces.fid--590544ac_1a02c121f93_-ba1","geometry":{"type":"Polygon","coordinates":[[[145492.40018273,166000.00000036],[145376.38179019,166221.18566358],[145375.42625,166207.65264036],[145485.77553576,166000.00400036],[145485.77544957,166000.00400036],[145500,165973.23726023],[145500.96990614,165971.41214927],[145504.02262595,165977.84215319],[145500,165985.51117159],[145500,165985.51123226],[145492.40027468,166000.00000036],[145492.40018273,166000.00000036]]]},"geometry_name":"GEOM","properties":{"INSPIRE_ID":"https://databrussels.be/id/streetsurface/39225","TYPE":"M","STREET_ID":"https://databrussels.be/id/streetname/4711","STRNAMEFRE":"Ring 0","STRNAMEDUT":"Ring 0","MUNNISCODE":"21007","HIERARCHY":"H","LVL":1,"ADMIN":"REGION_RBC","AREA":1744},"bbox":[145375.42625,165971.41214927,145504.02262595,166221.18566358]},{"type":"Feature","id":"StreetSurfaces.fid--590544ac_1a02c121f93_-bb3","geometry":{"type":"Polygon","coordinates":[[[145317.449,166319.883],[145282.317,166387.242],[145244.614,166454.345],[145212.376,166503.744],[145211.255,166513.328],[145230.192,166485.358],[145247.293,166458.207],[145263.151,166431.193],[145287.398,166389.888],[145322.732,166322.471],[145317.449,166319.883]]]},"geometry_name":"GEOM","properties":{"INSPIRE_ID":"https://databrussels.be/id/streetsurface/45398","TYPE":"M","STREET_ID":"https://databrussels.be/id/streetname/3474","STRNAMEFRE":"Ring 0","STRNAMEDUT":"Ring 0","MUNNISCODE":"21001","HIERARCHY":"H","LVL":0,"ADMIN":"MUN_RBC","AREA":1119},"bbox":[145211.255,166319.883,145322.732,166513.328]},{"type":"Feature","id":"StreetSurfaces.fid--590544ac_1a02c121f93_-bb9","geometry":{"type":"Polygon","coordinates":[[[145105.576,166608.422],[145107.047,166609.951],[145115.508,166601.02],[145124.717,166591.191],[145135.194,166579.239],[145157.912,166551.683],[145169.931,166536.571],[145187.139,166513.511],[145191.614,166507.016],[145197.193,166476.758],[145204.978,166448.198],[145211.725,166427.954],[145220.709,166406.511],[145226.413,166392.429],[145234.198,166376.777],[145242.873,166360.827],[145252.066,166345.249],[145260.741,166332.266],[145281.569,166302.307],[145281.141,166300.868],[145300.43,166273.037],[145293.834,166274.166],[145285.307,166276.582],[145275.023,166281.669],[145262.864,166291.419],[145255.873,166300.278],[145249.688,166310.076],[145241.807,166330.673],[145218.104,166392.621],[145206.921,166422.337],[145197.513,166445.843],[145176.761,166490.288],[145161.207,166521.673],[145150.688,166540.678],[145134.782,166566.889],[145128.451,166576.123],[145119.869,166588.709],[145112.722,166598.565],[145105.576,166608.422]]]},"geometry_name":"GEOM","properties":{"INSPIRE_ID":"https://databrussels.be/id/streetsurface/45399","TYPE":"M","STREET_ID":"https://databrussels.be/id/streetname/3474","STRNAMEFRE":"Ring 0","STRNAMEDUT":"Ring 0","MUNNISCODE":"21001","HIERARCHY":"H","LVL":0,"ADMIN":"MUN_RBC","AREA":4712},"bbox":[145105.576,166273.037,145300.43,166609.951]},{"type":"Feature","id":"StreetSurfaces.fid--590544ac_1a02c121f93_-bb4","geometry":{"type":"Polygon","coordinates":[[[145210.208,166476.758],[145217.993,166448.198],[145224.74,166427.954],[145233.724,166406.511],[145242.241,166388.939],[145253.596,166367.913],[145268.551,166343.581],[145281.219,166325.098],[145293.053,166307.932],[145324.351,166265.674],[145326.761,166266.827],[145303.092,166312.85],[145266.677,166382.547],[145248.898,166414.936],[145233.553,166441.501],[145224.743,166456.502],[145216.351,166469.75300036],[145209.507,166480.56],[145210.208,166476.758]]]},"geometry_name":"GEOM","properties":{"INSPIRE_ID":"https://databrussels.be/id/streetsurface/45400","TYPE":"M","STREET_ID":"https://databrussels.be/id/streetname/3474","STRNAMEFRE":"Ring 0","STRNAMEDUT":"Ring 0","MUNNISCODE":"21001","HIERARCHY":"H","LVL":0,"ADMIN":"MUN_RBC","AREA":3032},"bbox":[145209.507,166265.674,145326.761,166480.56]},{"type":"Feature","id":"StreetSurfaces.fid--590544ac_1a02c121f93_-bb0","geometry":{"type":"Polygon","coordinates":[[[145357.232,166303.726],[145342.138,166331.978],[145333.796,166347.591],[145313.089,166387.153],[145304.478,166406.44],[145296.249,166425.877],[145290.341,166442.691],[145278.103,166479.456],[145272.592,166499.861],[145268.722,166516.124],[145266.069,166527.457],[145261.19,166552.772],[145257.481,166579.717],[145255.163,166601.974],[145253.632,166634.31],[145253.401,166657.719],[145254.629,166676.287],[145255.846,166690.703],[145259.822,166731.997],[145262.665,166749.755],[145267.071,166773.11],[145270.366,166788.668],[145272.274,166788.167],[145269.65,166760.477],[145268.71,166729.402],[145268.586,166710.763],[145272.428,166648.825],[145274.284,166623.311],[145280.991,166579.65],[145285.439,166556.282],[145290.926,166531.06],[145295.003,166513.849],[145300.712,166494.042],[145306.421,166476.46],[145313.465,166457.321],[145324.216,166433.731],[145336.968,166407.173],[145346.088,166388.849],[145352.686,166375.793],[145358.618,166362.885],[145361.287,166353.983],[145363.363,166345.452],[145364.104,166337.143],[145364.252,166330.318],[145363.808,166324.309],[145362.563,166316.997],[145359.825,166308.806],[145357.232,166303.726]]]},"geometry_name":"GEOM","properties":{"INSPIRE_ID":"https://databrussels.be/id/streetsurface/45402","TYPE":"M","STREET_ID":"https://databrussels.be/id/streetname/3474","STRNAMEFRE":"Ring 0","STRNAMEDUT":"Ring 0","MUNNISCODE":"21001","HIERARCHY":"H","LVL":0,"ADMIN":"MUN_RBC","AREA":10344},"bbox":[145253.401,166303.726,145364.252,166788.668]},{"type":"Feature","id":"StreetSurfaces.fid--590544ac_1a02c121f93_-bb6","geometry":{"type":"Polygon","coordinates":[[[145295.12807676,166956.57925724],[145280.283,166904.404],[145219.015,166689.078],[145212.341,166661.938],[145208.02,166641.548],[145204.897,166621.951],[145203.251,166608.901],[145202.404,166596.989],[145201.88,166586.836],[145200.847,166562.189],[145201.107,166555.247],[145207.302,166547.122],[145218.621,166531.877],[145239.827,166500.736],[145251.594,166482.487],[145263.256,166463.273],[145278.14,166438.793],[145265.688,166477.778],[145259.46,166499.185],[145255.83,166514.387],[145253.643,166525.859],[145248.901,166551.224],[145245.13,166578.151],[145242.829,166600.426],[145241.402,166632.802],[145241.571,166656.236],[145241.813,166666.409],[145243.438,166689.739],[145246.005,166711.685],[145248.378,166730.464],[145251.089,166748.226],[145255.241,166771.626],[145259.484,166791.659],[145268.721,166824.664],[145279.106,166860.73],[145288.266,166892.234],[145297.936,166926.495],[145305.82628255,166954.31467693],[145295.12807676,166956.57925724]]]},"geometry_name":"GEOM","properties":{"INSPIRE_ID":"https://databrussels.be/id/streetsurface/45403","TYPE":"M","STREET_ID":"https://databrussels.be/id/streetname/3474","STRNAMEFRE":"Ring 0","STRNAMEDUT":"Ring 0","MUNNISCODE":"21001","HIERARCHY":"H","LVL":0,"ADMIN":"MUN_RBC","AREA":10776},"bbox":[145200.847,166438.793,145305.82628255,166956.57925724]},{"type":"Feature","id":"StreetSurfaces.fid--590544ac_1a02c121f93_-bac","geometry":{"type":"Polygon","coordinates":[[[145303.494,166260.543],[145308.802,166260.164],[145309.723,166260.177],[145316.023,166251.437],[145306.957,166257.33],[145302.974,166258.983],[145303.494,166260.543]]]},"geometry_name":"GEOM","properties":{"INSPIRE_ID":"https://databrussels.be/id/streetsurface/45404","TYPE":"M","STREET_ID":"https://databrussels.be/id/streetname/3474","STRNAMEFRE":"Ring 0","STRNAMEDUT":"Ring 0","MUNNISCODE":"21001","HIERARCHY":"H","LVL":0,"ADMIN":"MUN_RBC","AREA":34},"bbox":[145302.974,166251.437,145316.023,166260.543]},{"type":"Feature","id":"StreetSurfaces.fid--590544ac_1a02c121f93_-baa","geometry":{"type":"Polygon","coordinates":[[[145336.73836301,166282.89922062],[145341.238,166274.27200036],[145343.96484005,166269.04360657],[145343.96450207,166269.04338645],[145375.49160375,166208.59476012],[145376.31382326,166220.24085147],[145322.732,166322.47100036],[145317.449,166319.88300036],[145336.73805661,166282.89904328],[145336.73836301,166282.89922062]]]},"geometry_name":"GEOM","properties":{"INSPIRE_ID":"https://databrussels.be/id/streetsurface/45407","TYPE":"M","STREET_ID":"https://databrussels.be/id/streetname/3474","STRNAMEFRE":"Ring 0","STRNAMEDUT":"Ring 0","MUNNISCODE":"21001","HIERARCHY":"H","LVL":1,"ADMIN":"MUN_RBC","AREA":723},"bbox":[145317.449,166208.59476012,145376.31382326,166322.47100036]},{"type":"Feature","id":"StreetSurfaces.fid--590544ac_1a02c121f93_-b9b","geometry":{"type":"Polygon","coordinates":[[[145302.974,166258.98300036],[145298.575,166249.83600036],[145304.803,166245.26900036],[145321.767,166235.98900036],[145330.114,166231.96200036],[145316.023,166251.43700036],[145306.957,166257.33000036],[145302.974,166258.98300036]]]},"geometry_name":"GEOM","properties":{"INSPIRE_ID":"https://databrussels.be/id/streetsurface/45408","TYPE":"S","STREET_ID":"https://databrussels.be/id/streetname/3474","STRNAMEFRE":"Ring 0","STRNAMEDUT":"Ring 0","MUNNISCODE":"21001","HIERARCHY":"H","LVL":0,"ADMIN":"MUN_RBC","AREA":283},"bbox":[145298.575,166231.96200036,145330.114,166258.98300036]},{"type":"Feature","id":"StreetSurfaces.fid--590544ac_1a02c121f93_-bba","geometry":{"type":"Polygon","coordinates":[[[145095.892,166600.15600036],[145098.689,166596.48500036],[145104.98,166587.72600035],[145114.642,166573.38500035],[145132.059,166547.31700036],[145144.413,166525.43000036],[145162.267,166492.25100036],[145177.629,166457.22500036],[145192.425,166420.65200036],[145208.448,166381.29000036],[145217.983,166355.31600036],[145227.335,166330.88200036],[145232.097,166318.62500036],[145238.109,166305.78400036],[145245.556,166293.23200036],[145252.97,166283.82100036],[145263.014,166273.15200036],[145284.854,166259.89800036],[145298.575,166249.83600036],[145302.974,166258.98300036],[145303.494,166260.54300036],[145300.43,166273.03700035],[145293.834,166274.16600036],[145285.307,166276.58200036],[145275.023,166281.66900036],[145269.642,166285.35700036],[145262.864,166291.41900036],[145255.873,166300.27800036],[145249.688,166310.07600036],[145241.807,166330.67300036],[145218.104,166392.62100036],[145206.921,166422.33700036],[145197.513,166445.84300036],[145176.761,166490.28800036],[145161.207,166521.67300036],[145150.688,166540.67800036],[145134.782,166566.88900035],[145128.451,166576.12300035],[145119.869,166588.70900036],[145112.722,166598.56500035],[145105.576,166608.42200035],[145095.892,166600.15600036]]]},"geometry_name":"GEOM","properties":{"INSPIRE_ID":"https://databrussels.be/id/streetsurface/45409","TYPE":"S","STREET_ID":"https://databrussels.be/id/streetname/3474","STRNAMEFRE":"Ring 0","STRNAMEDUT":"Ring 0","MUNNISCODE":"21001","HIERARCHY":"H","LVL":0,"ADMIN":"MUN_RBC","AREA":5444},"bbox":[145095.892,166249.83600036,145303.494,166608.42200035]},{"type":"Feature","id":"StreetSurfaces.fid--590544ac_1a02c121f93_-bae","geometry":{"type":"Polygon","coordinates":[[[145303.494,166260.54300036],[145308.802,166260.16400036],[145315.605,166260.26100036],[145320.741,166260.82500036],[145325.58,166261.69000036],[145330.325,166262.97400036],[145336.668,166265.30000036],[145343.187,166268.53700035],[145347.807,166271.54600036],[145352.113,166274.98900036],[145356.089,166278.80900036],[145359.153,166282.46000036],[145361.943,166286.32500036],[145364.321,166290.45600036],[145371.164,166303.01600036],[145374.214,166311.66400036],[145375.754,166318.37100036],[145376.545,166324.72000036],[145377.095,166334.13100036],[145376.51,166344.21400035],[145374.942,166354.60000036],[145370.221,166368.26300036],[145362.521,166386.36800036],[145356.385,166398.19000036],[145340.651,166429.07200036],[145328.595,166455.47600035],[145320.803,166474.55700036],[145316.547,166486.85600036],[145309.853,166507.92200036],[145306.403,166521.98400035],[145299.137,166552.84400036],[145293.205,166584.59500036],[145288.804,166614.10000035],[145282.308,166670.04000036],[145281.437,166713.40100035],[145282.326,166745.37500036],[145283.661,166778.60900036],[145284.656,166786.83100035],[145272.274,166788.16700036],[145269.65,166760.47700035],[145268.71,166729.40200036],[145268.586,166710.76300036],[145272.428,166648.82500036],[145274.284,166623.31100036],[145278.135,166598.70500036],[145280.991,166579.65000036],[145285.439,166556.28200036],[145290.926,166531.06000036],[145295.003,166513.84900036],[145300.712,166494.04200036],[145306.421,166476.46000036],[145313.465,166457.32100036],[145324.216,166433.73100036],[145336.968,166407.17300035],[145346.088,166388.84900036],[145352.686,166375.79300036],[145358.618,166362.88500036],[145361.287,166353.98300035],[145363.363,166345.45200036],[145364.104,166337.14300036],[145364.252,166330.31800036],[145363.808,166324.30900036],[145362.563,166316.99700036],[145359.825,166308.80600036],[145357.232,166303.72600036],[145352.57,166297.00100036],[145347.565,166291.55100036],[145342.63,166287.05400036],[145337.747,166283.48300036],[145331.743,166280.00800036],[145326.956,166277.79400036],[145321.229,166275.71700036],[145314.893,166274.20900036],[145310.009,166273.39200036],[145305.001,166273.03700036],[145300.43,166273.03700035],[145303.494,166260.54300036]]]},"geometry_name":"GEOM","properties":{"INSPIRE_ID":"https://databrussels.be/id/streetsurface/45410","TYPE":"S","STREET_ID":"https://databrussels.be/id/streetname/3474","STRNAMEFRE":"Ring 0","STRNAMEDUT":"Ring 0","MUNNISCODE":"21001","HIERARCHY":"H","LVL":0,"ADMIN":"MUN_RBC","AREA":7526},"bbox":[145268.586,166260.16400036,145377.095,166788.16700036]},{"type":"Feature","id":"StreetSurfaces.fid--590544ac_1a02c121f93_-bb1","geometry":{"type":"Polygon","coordinates":[[[145270.366,166788.66800035],[145259.484,166791.65900036],[145255.241,166771.62600036],[145251.089,166748.22600036],[145248.378,166730.46400035],[145246.005,166711.68500035],[145243.438,166689.73900036],[145241.813,166666.40900036],[145241.571,166656.23600035],[145241.402,166632.80200036],[145242.829,166600.42600035],[145245.13,166578.15100036],[145248.901,166551.22400036],[145253.643,166525.85900035],[145255.83,166514.38700036],[145259.46,166499.18500036],[145265.688,166477.77800035],[145278.14,166438.79300036],[145290.341,166442.69100036],[145278.103,166479.45600036],[145272.592,166499.86100036],[145268.722,166516.12400035],[145266.069,166527.45700036],[145261.19,166552.77200035],[145257.481,166579.71700036],[145255.163,166601.97400035],[145253.632,166634.31000035],[145253.401,166657.71900035],[145254.629,166676.28700035],[145255.846,166690.70300036],[145259.822,166731.99700036],[145262.665,166749.75500035],[145267.071,166773.11000036],[145270.366,166788.66800035]]]},"geometry_name":"GEOM","properties":{"INSPIRE_ID":"https://databrussels.be/id/streetsurface/45412","TYPE":"S","STREET_ID":"https://databrussels.be/id/streetname/3474","STRNAMEFRE":"Ring 0","STRNAMEDUT":"Ring 0","MUNNISCODE":"21001","HIERARCHY":"H","LVL":0,"ADMIN":"MUN_RBC","AREA":4311},"bbox":[145241.402,166438.79300036,145290.341,166791.65900036]},{"type":"Feature","id":"StreetSurfaces.fid--590544ac_1a02c121f93_-baf","geometry":{"type":"Polygon","coordinates":[[[145263.151,166431.19300036],[145287.398,166389.88800036],[145322.732,166322.47100036],[145342.138,166331.97800036],[145333.796,166347.59100036],[145313.089,166387.15300036],[145304.478,166406.44000036],[145296.249,166425.87700035],[145290.341,166442.69100036],[145278.14,166438.79300036],[145263.151,166431.19300036]]]},"geometry_name":"GEOM","properties":{"INSPIRE_ID":"https://databrussels.be/id/streetsurface/45413","TYPE":"S","STREET_ID":"https://databrussels.be/id/streetname/3474","STRNAMEFRE":"Ring 0","STRNAMEDUT":"Ring 0","MUNNISCODE":"21001","HIERARCHY":"H","LVL":0,"ADMIN":"MUN_RBC","AREA":2857},"bbox":[145263.151,166322.47100036,145342.138,166442.69100036]},{"type":"Feature","id":"StreetSurfaces.fid--590544ac_1a02c121f93_-bb5","geometry":{"type":"Polygon","coordinates":[[[145263.151,166431.19300036],[145278.14,166438.79300036],[145263.256,166463.27300036],[145251.594,166482.48700036],[145239.827,166500.73600035],[145218.621,166531.87700036],[145207.302,166547.12200036],[145211.255,166513.32800035],[145230.192,166485.35800036],[145247.293,166458.20700036],[145263.151,166431.19300036]]]},"geometry_name":"GEOM","properties":{"INSPIRE_ID":"https://databrussels.be/id/streetsurface/45419","TYPE":"S","STREET_ID":"https://databrussels.be/id/streetname/3474","STRNAMEFRE":"Ring 0","STRNAMEDUT":"Ring 0","MUNNISCODE":"21001","HIERARCHY":"H","LVL":0,"ADMIN":"MUN_RBC","AREA":1876},"bbox":[145207.302,166431.19300036,145278.14,166547.12200036]},{"type":"Feature","id":"StreetSurfaces.fid--590544ac_1a02c121f93_-bb2","geometry":{"type":"Polygon","coordinates":[[[145216.351,166469.75300036],[145224.743,166456.50200035],[145233.553,166441.50100036],[145248.898,166414.93600036],[145266.677,166382.54700036],[145303.092,166312.85000036],[145317.449,166319.88300036],[145282.317,166387.24200036],[145244.614,166454.34500036],[145212.376,166503.74400035],[145216.351,166469.75300036]]]},"geometry_name":"GEOM","properties":{"INSPIRE_ID":"https://databrussels.be/id/streetsurface/45420","TYPE":"S","STREET_ID":"https://databrussels.be/id/streetname/3474","STRNAMEFRE":"Ring 0","STRNAMEDUT":"Ring 0","MUNNISCODE":"21001","HIERARCHY":"H","LVL":0,"ADMIN":"MUN_RBC","AREA":3089},"bbox":[145212.376,166312.85000036,145317.449,166503.74400035]},{"type":"Feature","id":"StreetSurfaces.fid--590544ac_1a02c121f93_-bb7","geometry":{"type":"Polygon","coordinates":[[[145280.283,166904.40400035],[145268.815,166907.42100036],[145206,166689.07800035],[145199.326,166661.93800036],[145195.005,166641.54800036],[145190.236,166608.90100036],[145189.389,166596.98900036],[145188.865,166586.83600035],[145187.832,166562.18900035],[145188.889,166533.88900036],[145191.614,166507.01600036],[145197.193,166476.75800036],[145204.978,166448.19800036],[145211.725,166427.95400036],[145220.709,166406.51100036],[145226.413,166392.42900036],[145234.198,166376.77700036],[145242.873,166360.82700035],[145252.066,166345.24900036],[145260.741,166332.26600036],[145281.569,166302.30700036],[145281.141,166300.86800036],[145293.053,166307.93200036],[145281.219,166325.09800036],[145268.551,166343.58100036],[145253.596,166367.91300036],[145242.241,166388.93900036],[145233.724,166406.51100036],[145224.74,166427.95400036],[145217.993,166448.19800036],[145210.208,166476.75800036],[145204.629,166507.01600036],[145201.904,166533.88900036],[145200.847,166562.18900036],[145201.88,166586.83600036],[145202.404,166596.98900036],[145203.251,166608.90100036],[145204.897,166621.95100036],[145208.02,166641.54800036],[145212.341,166661.93800036],[145219.015,166689.07800035],[145280.283,166904.40400035]]]},"geometry_name":"GEOM","properties":{"INSPIRE_ID":"https://databrussels.be/id/streetsurface/45421","TYPE":"S","STREET_ID":"https://databrussels.be/id/streetname/3474","STRNAMEFRE":"Ring 0","STRNAMEDUT":"Ring 0","MUNNISCODE":"21001","HIERARCHY":"H","LVL":0,"ADMIN":"MUN_RBC","AREA":7936},"bbox":[145187.832,166300.86800036,145293.053,166907.42100036]},{"type":"Feature","id":"StreetSurfaces.fid--590544ac_1a02c121f93_-bb8","geometry":{"type":"Polygon","coordinates":[[[145209.507,166480.56000035],[145216.351,166469.75300036],[145212.376,166503.74400035],[145197.195,166525.77500036],[145185.835,166540.88000036],[145187.139,166513.51100036],[145191.614,166507.01600036],[145208.135,166482.72600036],[145209.507,166480.56000035]]]},"geometry_name":"GEOM","properties":{"INSPIRE_ID":"https://databrussels.be/id/streetsurface/45423","TYPE":"S","STREET_ID":"https://databrussels.be/id/streetname/3474","STRNAMEFRE":"Ring 0","STRNAMEDUT":"Ring 0","MUNNISCODE":"21001","HIERARCHY":"H","LVL":1,"ADMIN":"MUN_RBC","AREA":749},"bbox":[145185.835,166469.75300036,145216.351,166540.88000036]},{"type":"Feature","id":"StreetSurfaces.fid--590544ac_1a02c121f93_-ba9","geometry":{"type":"Polygon","coordinates":[[[145378.4169,166244.74790036],[145380.496223,166257.9067406],[145380.62150431,166258.70019254],[145364.321,166290.45600036],[145357.232,166303.72600036],[145342.138,166331.97800036],[145322.732,166322.47100036],[145376.31382326,166220.24085147],[145377.341,166234.79000036],[145377.34151523,166234.79065298],[145377.74210438,166240.46391019],[145378.4169,166244.74790036]]]},"geometry_name":"GEOM","properties":{"INSPIRE_ID":"https://databrussels.be/id/streetsurface/45426","TYPE":"S","STREET_ID":"https://databrussels.be/id/streetname/3474","STRNAMEFRE":"Ring 0","STRNAMEDUT":"Ring 0","MUNNISCODE":"21001","HIERARCHY":"H","LVL":1,"ADMIN":"MUN_RBC","AREA":2142},"bbox":[145322.732,166220.24085147,145380.62150431,166331.97800036]},{"type":"Feature","id":"StreetSurfaces.fid--590544ac_1a02c121f93_-bab","geometry":{"type":"Polygon","coordinates":[[[145336.73836301,166282.89922062],[145317.449,166319.88300036],[145303.092,166312.85000036],[145326.761,166266.82700036],[145341.2376121,166274.27180087],[145336.73836301,166282.89922062]]]},"geometry_name":"GEOM","properties":{"INSPIRE_ID":"https://databrussels.be/id/streetsurface/45427","TYPE":"S","STREET_ID":"https://databrussels.be/id/streetname/3474","STRNAMEFRE":"Ring 0","STRNAMEDUT":"Ring 0","MUNNISCODE":"21001","HIERARCHY":"H","LVL":1,"ADMIN":"MUN_RBC","AREA":832},"bbox":[145303.092,166266.82700036,145341.2376121,166319.88300036]},{"type":"Feature","id":"StreetSurfaces.fid--590544ac_1a02c121f93_-bad","geometry":{"type":"Polygon","coordinates":[[[145324.351,166265.67400036],[145293.053,166307.93200036],[145281.141,166300.86800036],[145300.43,166273.03700035],[145309.723,166260.17700036],[145324.351,166265.67400036]]]},"geometry_name":"GEOM","properties":{"INSPIRE_ID":"https://databrussels.be/id/streetsurface/45428","TYPE":"S","STREET_ID":"https://databrussels.be/id/streetname/3474","STRNAMEFRE":"Ring 0","STRNAMEDUT":"Ring 0","MUNNISCODE":"21001","HIERARCHY":"H","LVL":1,"ADMIN":"MUN_RBC","AREA":744},"bbox":[145281.141,166260.17700036,145324.351,166307.93200036]},{"type":"Feature","id":"StreetSurfaces.fid--590544ac_1a02c121f93_-b9c","geometry":{"type":"Polygon","coordinates":[[[145341.2376121,166274.27180087],[145326.761,166266.82700036],[145324.351,166265.67400036],[145309.723,166260.17700036],[145330.114,166231.96200036],[145353.598,166196.54600036],[145372.46939134,166165.79025183],[145373.89481684,166185.97753225],[145375.49160375,166208.59476012],[145353.89692823,166250.00000036],[145343.96450207,166269.04338645],[145341.2376121,166274.27180087]]]},"geometry_name":"GEOM","properties":{"INSPIRE_ID":"https://databrussels.be/id/streetsurface/45429","TYPE":"S","STREET_ID":"https://databrussels.be/id/streetname/3474","STRNAMEFRE":"Ring 0","STRNAMEDUT":"Ring 0","MUNNISCODE":"21001","HIERARCHY":"H","LVL":1,"ADMIN":"MUN_RBC","AREA":2641},"bbox":[145309.723,166165.79025183,145375.49160375,166274.27180087]}],"numberReturned":38,"grand_bruxelles_source":{"authority":"Paradigm / Brussels-Capital Region","service":"https://geoservices-urbis.irisnet.be/geoserver/urbisvector/wfs","layer":"urbisvector:StreetSurfaces","crs":"EPSG:31370","bbox":[145000.0,166000.0,145500.0,166500.0],"cell_id":"bxl-e145000-n166000-s500","ownership":"bbox_intersection_source_unclipped"}}
