{"type":"FeatureCollection","totalFeatures":2,"numberMatched":2,"timeStamp":"2026-08-23T01:01:29.005Z","crs":{"type":"name","properties":{"name":"urn:ogc:def:crs:EPSG::31370"}},"bbox":[145457.758,165406.98290774,145504.1586814,165514.847],"features":[{"type":"Feature","id":"Buildings.fid--15fe153e_1a02c0ea1d5_-17f","geometry":{"type":"Polygon","coordinates":[[[145474.312,165467.91],[145484.76166993,165431.47512376],[145486.12598754,165431.8454908],[145490.20534121,165417.92062514],[145492.33536028,165418.52450101],[145495.75601439,165406.98290774],[145499.54681918,165407.9237674],[145501.83855023,165418.55109375],[145503.2658003,165428.56956749],[145504.1586814,165436.97530861],[145504.14638207,165456.57897269],[145502.408,165475.8],[145474.312,165467.91]]]},"geometry_name":"GEOM","properties":{"INSPIRE_ID":"https://databrussels.be/id/building/1656986","BLOCK_ID":"https://databrussels.be/id/block/30601","AREA":1267},"bbox":[145474.312,165406.98290774,145504.1586814,165475.8]},{"type":"Feature","id":"Buildings.fid--15fe153e_1a02c0ea1d5_-180","geometry":{"type":"Polygon","coordinates":[[[145457.758,165509.309],[145467.49,165480.942],[145470.293,165481.524],[145474.312,165467.91],[145502.408,165475.8],[145496.414,165505.851],[145480.746,165501.276],[145476.968,165514.847],[145457.764,165509.311],[145457.758,165509.309]]]},"geometry_name":"GEOM","properties":{"INSPIRE_ID":"https://databrussels.be/id/building/1671576","BLOCK_ID":"https://databrussels.be/id/block/30601","AREA":1256},"bbox":[145457.758,165467.91,145502.408,165514.847]}],"numberReturned":2,"grand_bruxelles_source":{"authority":"Paradigm / Brussels-Capital Region","service":"https://geoservices-urbis.irisnet.be/geoserver/urbisvector/wfs","layer":"urbisvector:Buildings","crs":"EPSG:31370","bbox":[145000.0,165000.0,145500.0,165500.0],"cell_id":"bxl-e145000-n165000-s500","ownership":"polygon_or_multipolygon_centroid_global_500m_cell"}}
