{"type":"FeatureCollection","totalFeatures":4,"numberMatched":4,"timeStamp":"2026-08-23T04:54:52.735Z","crs":{"type":"name","properties":{"name":"urn:ogc:def:crs:EPSG::31370"}},"bbox":[148573.9653,176088.40245586,149025.60213065,176589.7976],"features":[{"type":"Feature","id":"TrainNetwork.fid-1cd8d64c_1a02c0ead07_7eb5","geometry":{"type":"LineString","coordinates":[[148575.2175,176589.7976],[148575.6693,176588.7621],[148575.9385,176588.1993],[148576.6294,176586.755],[148578.1113,176583.6574],[148581.9761,176575.1651],[148581.976,176575.165],[148584.07239706,176570.01336423],[148586.98928387,176563.50504796],[148587.47083234,176562.43059085],[148589.34853103,176558.253872],[148593.92311711,176548.19375443],[148598.14059892,176538.64381072],[148602.70770456,176528.80608789],[148606.59858994,176520.65080423],[148609.95922221,176513.82396781],[148614.56222702,176504.66160355],[148618.47394774,176496.97187522],[148622.31399043,176489.65006181],[148625.77878427,176483.2036969],[148630.73392204,176473.97155671],[148640.4447975,176456.93292593],[148646.77604176,176446.23956365],[148656.76754105,176429.94905566],[148666.51932516,176414.74872888],[148676.66689783,176399.6959376],[148680.20325872,176394.54472089],[148689.26982164,176381.71677166],[148697.09598463,176371.01758416],[148703.5096539,176362.49841966],[148711.64492848,176351.94588232],[148714.42983997,176348.41632191],[148719.62706462,176341.85622922],[148728.26558858,176331.27885975],[148736.7711515,176321.28605776],[148745.54580922,176311.12101094],[148754.50899624,176301.13600458],[148762.44864645,176292.46880254],[148767.43398804,176286.84835931],[148771.36930935,176282.01021321],[148775.11090576,176277.14713597],[148778.37413576,176272.43511817],[148781.74771466,176267.06076248],[148785.08665805,176261.19737597],[148790.63590185,176250.37635018],[148796.19777595,176238.98136353],[148800.25906846,176230.72703384],[148803.77860802,176223.69378208],[148806.49488498,176218.53101584],[148809.88142347,176212.54391368],[148813.0200892,176207.42742994],[148815.200519,176204.16071108],[148818.24773415,176199.76490965],[148821.76684303,176195.06671845],[148825.4663621,176190.59116549],[148828.54475527,176187.09164394],[148832.24324645,176183.19402997],[148835.59934034,176179.87919093],[148840.35356714,176175.43981709],[148843.7999449,176172.45545254],[148849.55596413,176167.88889347],[148855.66768115,176163.4572595],[148858.34344451,176161.69589292],[148865.55371761,176157.16117497],[148877.58760604,176150.0650377],[148889.15669908,176143.34892785],[148899.77474169,176137.17935271],[148913.01980007,176129.50787632],[148922.93580332,176123.79387492],[148931.872224,176118.78907548],[148942.71478151,176113.12955056],[148950.20366312,176109.5863225],[148960.50124778,176105.07027107],[148970.36742839,176101.11295968],[148979.18250208,176098.06593799],[148991.57667433,176094.21947702],[148997.60292402,176092.5449698],[148999.93509755,176091.96370994],[149000,176091.95055766],[149002.38059179,176091.43607954],[149005.59691149,176090.87030542],[149009.72701042,176090.37533029],[149010.18796306,176090.32008704],[149014.86788968,176089.92316566],[149020.75028524,176089.8635131],[149025.31968338,176090.01436825]]},"geometry_name":"GEOM","properties":{"INSPIRE_ID":"https://databrussels.be/id/rail/22651","TYPE":"TW","LVL":0,"SLOPE":null,"LENGTH":701.536657496945},"bbox":[148575.2175,176089.8635131,149025.31968338,176589.7976]},{"type":"Feature","id":"TrainNetwork.fid-1cd8d64c_1a02c0ead07_7eb4","geometry":{"type":"LineString","coordinates":[[149025.60213065,176088.56932807],[149020.54757612,176088.40245586],[149014.66518056,176088.46210843],[149009.98525394,176088.8590298],[149005.39420236,176089.40924819],[149002.17788267,176089.97502231],[149000,176090.41199527],[148999.60285668,176090.49247514],[148997.21866743,176091.08669916],[148991.15125453,176092.77264434],[148978.71259807,176096.63291074],[148969.84012865,176099.69977186],[148959.91761424,176103.67967866],[148949.57827346,176108.21404242],[148942.04319602,176111.77912719],[148931.15478291,176117.46258752],[148922.1909332,176122.48274844],[148912.26548454,176128.20219268],[148899.01807713,176135.87502961],[148888.39938745,176142.04498073],[148876.82610177,176148.7635245],[148864.76919398,176155.87323582],[148857.52741092,176160.42777115],[148854.81010311,176162.21648506],[148848.64435232,176166.68729917],[148842.83735189,176171.29430437],[148839.34509205,176174.31840016],[148834.55474682,176178.79150045],[148831.16622881,176182.13836504],[148827.43134417,176186.07433185],[148824.31886833,176189.61259863],[148820.58159667,176194.13382339],[148817.0242424,176198.88307416],[148813.95369021,176203.31254075],[148811.74985619,176206.61432379],[148808.58209761,176211.77823313],[148805.17108976,176217.80859496],[148802.43698104,176223.00525362],[148798.90830166,176230.0567699],[148794.84371457,176238.31779562],[148789.28733327,176249.70152879],[148783.75996536,176260.4798966],[148780.45337417,176266.28647071],[148777.11509084,176271.60459799],[148773.89275227,176276.25756965],[148770.18663509,176281.07453335],[148766.2845216,176285.87185323],[148761.32858178,176291.45914908],[148753.39195497,176300.12305069],[148744.41391128,176310.12460739],[148735.62627105,176320.30469387],[148727.10737743,176330.3131575],[148718.45207721,176340.91106853],[148713.24604515,176347.48227818],[148710.45587949,176351.01849766],[148702.31016024,176361.58458314],[148695.88505198,176370.11894184],[148688.04550791,176380.83642269],[148678.96592328,176393.68279586],[148675.42012757,176398.84775574],[148665.25940452,176413.92005415],[148655.49011835,176429.14766178],[148645.48448981,176445.46120662],[148639.14089685,176456.17542564],[148629.41435051,176473.24155244],[148624.45035624,176482.49019357],[148620.98214737,176488.94291225],[148617.13418986,176496.27981685],[148613.2164946,176503.98129004],[148608.60904371,176513.15250429],[148605.24162142,176519.99313406],[148601.34333162,176528.16393738],[148596.76692564,176538.02169348],[148592.5470497,176547.57705838],[148587.97453099,176557.63262955],[148586.09515111,176561.81308801],[148582.68514365,176569.42168187],[148580.651,176574.442],[148580.6511,176574.4421],[148576.6251,176583.4963],[148574.3231,176588.1467],[148573.9653,176588.9668]]},"geometry_name":"GEOM","properties":{"INSPIRE_ID":"https://databrussels.be/id/rail/22652","TYPE":"TW","LVL":0,"SLOPE":null,"LENGTH":703.301406700677},"bbox":[148573.9653,176088.40245586,149025.60213065,176588.9668]},{"type":"Feature","id":"TrainNetwork.fid-1cd8d64c_1a02c0ead07_7eb7","geometry":{"type":"LineString","coordinates":[[148597.7795,176547.2618],[148598.5207,176545.6641],[148604.7673,176531.9863],[148610.0567,176520.8101],[148615.7801,176509.2383],[148620.6433,176499.6985],[148626.7621,176488.0571],[148632.6485,176477.1719],[148639.2245,176465.4065],[148646.4129,176453.0403],[148653.2409,176441.6939],[148660.2745,176430.3397],[148664.2813,176424.1005],[148670.0205,176415.2787],[148679.3209,176401.4549],[148687.5829,176389.6047],[148694.2559,176380.2287],[148702.1189,176369.6507],[148708.0053,176361.8763],[148712.7679,176355.7419],[148723.79695748,176341.82597885],[148737.44613529,176325.38789445],[148753.09740458,176307.50074277],[148767.05993229,176292.07383983],[148769.50760578,176289.30977921],[148773.03400345,176285.12365783],[148776.53605088,176280.60762628],[148780.22131455,176275.52685161],[148783.09294577,176271.25367038],[148784.83625618,176268.30515431],[148787.53520117,176263.81327978],[148790.94794099,176257.48118474],[148794.3382075,176250.59810146],[148798.54543935,176242.05798638],[148803.53456583,176231.87993355],[148806.77741123,176225.45717096],[148809.61596169,176220.05496292],[148812.22800733,176215.29082552],[148814.82827881,176210.99980635],[148817.2105268,176207.26159586],[148819.20941973,176204.36181344],[148822.13685684,176200.36838663],[148826.08141683,176195.35577162],[148828.93005949,176191.96289128],[148831.60087908,176188.95637338],[148834.12934144,176186.27058112],[148837.31343349,176183.11330253],[148841.49626985,176179.27413788],[148844.94327324,176176.21608065],[148847.90795881,176173.77451035],[148851.66773362,176170.88204158],[148857.29937194,176166.8031523],[148862.38942905,176163.46824459],[148867.12305686,176160.54144371],[148874.04638346,176156.45421573],[148880.7704603,176152.53595153],[148889.17832523,176147.65463006],[148899.76530733,176141.48866792],[148911.0613942,176134.94864825],[148921.91740522,176128.61819842],[148931.97704281,176122.889911],[148941.91305683,176117.56008645],[148952.02773585,176112.65846395],[148960.68328047,176108.75673112],[148968.23789104,176105.69504232],[148979.79777571,176101.43416206],[148989.3075199,176098.34266106],[148996.63673812,176096.24487535],[148998.06797233,176095.86746763],[149000,176095.35782094],[149003.7147732,176094.51142704],[149004.28883087,176094.38063066],[149006.86635807,176093.92871512],[149011.67733793,176093.3810347],[149011.88340833,176093.35757571],[149016.70554077,176093.05239746],[149023.40042586,176093.17187541],[149024.23597688,176093.18723351]]},"geometry_name":"GEOM","properties":{"INSPIRE_ID":"https://databrussels.be/id/rail/22653","TYPE":"TW","LVL":0,"SLOPE":null,"LENGTH":648.46444279932},"bbox":[148597.7795,176093.05239746,149024.23597688,176547.2618]},{"type":"Feature","id":"TrainNetwork.fid-1cd8d64c_1a02c0ead07_7eb6","geometry":{"type":"LineString","coordinates":[[149024.44255417,176091.78930436],[149023.37581992,176091.76969693],[149016.68093483,176091.65021898],[149011.8588024,176091.95539722],[149009.07418768,176092.27239688],[149006.84175214,176092.52653664],[149004.26422494,176092.97845217],[149002.90614876,176093.2492291],[149000,176093.82866495],[148996.24472057,176094.8191133],[148988.87538731,176096.92838083],[148979.31334805,176100.03688232],[148967.70439198,176104.3158499],[148960.10156784,176107.39707841],[148951.40139369,176111.31892927],[148941.24090276,176116.24275245],[148931.26163559,176121.59577862],[148921.17914653,176127.33707842],[148910.31855802,176133.67019752],[148899.02281442,176140.21001845],[148888.43506596,176146.37642693],[148880.02705225,176151.25783477],[148873.29831827,176155.17881279],[148866.35834398,176159.27586883],[148861.59534286,176162.22083122],[148856.46009363,176165.58534794],[148850.78309821,176169.6970885],[148846.98693209,176172.61755384],[148843.98233685,176175.09199179],[148840.50566316,176178.17637143],[148836.29259989,176182.04327948],[148833.07019205,176185.23855121],[148830.50965473,176187.95841424],[148827.81093875,176190.99633487],[148824.93395256,176194.42297381],[148820.95928478,176199.47384879],[148818.00422452,176203.50495738],[148815.9779721,176206.44443005],[148813.57239171,176210.21925363],[148810.94688442,176214.55191743],[148808.31315164,176219.3556102],[148805.46292388,176224.780042],[148802.21073875,176231.2213028],[148797.21841877,176241.40587053],[148793.01180966,176249.94472153],[148789.63349438,176256.80354082],[148786.25000262,176263.08136818],[148783.56615192,176267.54812117],[148781.84190517,176270.46439427],[148779.00886499,176274.68014943],[148775.35308186,176279.72028008],[148771.88390141,176284.19392832],[148768.38854407,176288.3432023],[148765.9582933,176291.08758814],[148751.99282084,176306.51774466],[148736.32079008,176324.42862373],[148722.64863324,176340.89438242],[148711.59997932,176354.83514966],[148711.6001,176354.8351],[148706.8319,176360.9765],[148700.9361,176368.7633],[148693.0601,176379.3589],[148686.3741,176388.7533],[148678.1009,176400.6191],[148668.7873,176414.4629],[148663.0395,176423.2977],[148659.0237,176429.5509],[148651.9789,176440.9233],[148645.1401,176452.2875],[148637.9399,176464.6741],[148631.3527,176476.4595],[148625.4573,176487.3615],[148619.3301,176499.0187],[148614.4587,176508.5747],[148608.7255,176520.1659],[148603.4263,176531.3629],[148597.1811,176545.0377],[148596.4576,176546.6011]]},"geometry_name":"GEOM","properties":{"INSPIRE_ID":"https://databrussels.be/id/rail/22654","TYPE":"TW","LVL":0,"SLOPE":null,"LENGTH":650.291361655361},"bbox":[148596.4576,176091.65021898,149024.44255417,176546.6011]}],"numberReturned":4,"grand_bruxelles_source":{"authority":"Paradigm / Brussels-Capital Region","service":"https://geoservices-urbis.irisnet.be/geoserver/urbisvector/wfs","layer":"urbisvector:TrainNetwork","crs":"EPSG:31370","bbox":[149000.0,176500.0,149500.0,177000.0],"cell_id":"bxl-e149000-n176500-s500","ownership":"bbox_intersection_source_unclipped"}}
