{"type":"FeatureCollection","totalFeatures":5,"numberMatched":5,"timeStamp":"2026-08-24T03:42:44.495Z","crs":{"type":"name","properties":{"name":"urn:ogc:def:crs:EPSG::31370"}},"bbox":[155884.23729173,163664.99376132,156664.72657461,165893.55694457],"features":[{"type":"Feature","id":"StreetAxes.fid-6b1d3889_1a0317e3809_-5e50","geometry":{"type":"LineString","coordinates":[[156664.72657461,165310.87380829],[156555.12220124,165048.54935069],[156514.45588234,164948.70280794],[156497.52451025,164903.93893198],[156428.16792768,164736.29796472],[156389.75203463,164645.50070356],[156334.32105983,164511.47315894],[156242.2856757,164287.72981071],[156189.9804496,164161.63202835],[156121.40938409,164000.10663768],[156076.26914551,163892.617237],[156046.62707675,163821.01331166],[156010.547693,163735.83853378]]},"geometry_name":"GEOM","properties":{"INSPIRE_ID":"https://databrussels.be/id/streetaxe/76379","TYPE":"S","HIERARCHY":"H","LVL":0,"STARTSN_ID":"https://databrussels.be/id/streetnode/4429","ENDSN_ID":"https://databrussels.be/id/streetnode/4434","STRNAMEFRE":"Route de Mont Saint-Jean","STRNAMEDUT":"Steenweg op Sint-Jansberg","SLOPE":0.92,"LENGTH":1705.52731979767},"bbox":[156010.547693,163735.83853378,156664.72657461,165310.87380829]},{"type":"Feature","id":"StreetAxes.fid-6b1d3889_1a0317e3809_-5e4f","geometry":{"type":"LineString","coordinates":[[155908.90494339,165391.76326258],[155908.51,165386.495],[155908.91396187,165383.95318631],[155909.12969175,165353.70561893],[155908.20336131,165332.97026917],[155907.48553445,165321.53751597],[155906.31786764,165308.15142065],[155903.39565051,165286.99617821],[155902.28924359,165278.98640154],[155897.9240503,165257.47700942],[155889.22246889,165214.60016202],[155884.87301404,165189.86248992],[155884.32900132,165186.76839913],[155884.23729173,165183.76739544],[155884.53347517,165180.72922583],[155885.68933102,165177.02414093],[155935.753,165050.186],[155957.94,164992.938],[155978.422,164938.89],[156025.346,164817.708],[156066.845,164712.181],[156099.08,164627.564],[156103.9809,164614.6992]]},"geometry_name":"GEOM","properties":{"INSPIRE_ID":"https://databrussels.be/id/streetaxe/88763","TYPE":"S","HIERARCHY":null,"LVL":0,"STARTSN_ID":"https://databrussels.be/id/streetnode/10548","ENDSN_ID":"https://databrussels.be/id/streetnode/11105","STRNAMEFRE":"Chemin de Blankedelle","STRNAMEDUT":"Blankedelleweg","SLOPE":4.28,"LENGTH":820.304701874413},"bbox":[155884.23729173,164614.6992,156103.9809,165391.76326258]},{"type":"Feature","id":"StreetAxes.fid-6b1d3889_1a0317e3809_-5e53","geometry":{"type":"LineString","coordinates":[[156636.5,165693.8],[156634.71447633,165690.48569801],[156633.61532976,165686.41429643],[156632.68988506,165681.89835207],[156633.53682694,165677.60027127],[156637.92407598,165659.760206],[156641.03737303,165644.95106364],[156643.17678734,165634.09438276],[156644.48422699,165624.19139676],[156644.9072785,165615.35319772],[156645.1884556,165610.71626155],[156644.47134663,165596.93533503],[156642.44174435,165581.85002388],[156639.62802644,165562.82341469],[156636.19185081,165549.02941095],[156628.98807514,165530.0666928],[156627.6724433,165527.67053509],[156622.58005692,165518.27018324],[156613.01359383,165502.06869063],[156607.80149114,165495.97117024],[156598.56125691,165486.71271082],[156585.12104367,165475.65082211],[156574.979574,165467.99749435],[156543.28144421,165447.55258539],[156525.36263134,165434.56459431],[156506.6813493,165422.84226463],[156501.32300979,165424.21723394],[156494.6299923,165428.44035399],[156489.5207676,165432.24108328],[156478.09577765,165441.50085165],[156469.68851955,165449.38381818],[156451.81171937,165465.34598572],[156446.29810473,165469.07205071],[156439.29945721,165472.92036133],[156414.36942287,165484.537092],[156395.43718405,165492.8430291],[156378.61351211,165501.86731751],[156354.25774204,165517.10808071],[156336.76112323,165525.54870868],[156331.42241133,165527.56907175],[156320.7881109,165529.53859926],[156312.06695059,165530.74152357],[156293.81901863,165531.70994605],[156280.0464086,165531.528133],[156268.39244188,165531.88953387],[156254.20848418,165531.65262225],[156229.58732642,165529.51360293],[156210.90183478,165527.3922217],[156192.84718793,165524.92331139],[156168.98000534,165519.93974913],[156155.10505804,165516.0693227],[156138.22250325,165510.61584563],[156129.37805858,165506.61360259],[156111.48812145,165498.41193014],[156093.1656549,165488.90477037],[156087.01588751,165486.01880942],[156070.14008508,165478.94897032],[156059.69596098,165475.01773776],[156039.66772065,165467.91883075],[156012.50309836,165458.49046972],[155979.21465948,165447.56928487],[155965.22693514,165442.89991915]]},"geometry_name":"GEOM","properties":{"INSPIRE_ID":"https://databrussels.be/id/streetaxe/94540","TYPE":"S","HIERARCHY":null,"LVL":0,"STARTSN_ID":"https://databrussels.be/id/streetnode/11624","ENDSN_ID":"https://databrussels.be/id/streetnode/10512","STRNAMEFRE":"Chemin des Faisans","STRNAMEDUT":"Fazantenweg","SLOPE":2.79,"LENGTH":920.771993439926},"bbox":[155965.22693514,165422.84226463,156645.1884556,165693.8]},{"type":"Feature","id":"StreetAxes.fid-6b1d3889_1a0317e3809_-5e52","geometry":{"type":"LineString","coordinates":[[156333.41835589,165893.55694457],[156331.48142081,165891.39659509],[156326.13191448,165886.08214885],[156241.06401873,165806.75954766],[156138.45661883,165712.715154],[156090.37441421,165669.02718886],[156084.09357669,165662.4850608],[156077.7792921,165654.9668749],[156058.1041173,165626.02217046],[156044.43185101,165606.51306813],[156025.77013033,165579.10600618],[155999.70477352,165539.1616443],[155992.88557849,165522.99873968],[155990.72306852,165516.16234215],[155988.07614414,165505.47686632],[155986.41373002,165497.29442091],[155983.26670039,165485.13169551],[155981.44481848,165478.09043691],[155979.13196828,165471.95306416],[155977.17538668,165468.04702888],[155965.30370124,165452.8589983],[155963.91294436,165450.21007782],[155963.64376561,165448.2346117],[155963.95780749,165446.6632182],[155964.75,165444.28],[155965.22693514,165442.89991915]]},"geometry_name":"GEOM","properties":{"INSPIRE_ID":"https://databrussels.be/id/streetaxe/95074","TYPE":"S","HIERARCHY":null,"LVL":0,"STARTSN_ID":"https://databrussels.be/id/streetnode/12497","ENDSN_ID":"https://databrussels.be/id/streetnode/10512","STRNAMEFRE":"Chemin de Diependelle","STRNAMEDUT":"Diependelleweg","SLOPE":3.39,"LENGTH":594.140085751277},"bbox":[155963.64376561,165442.89991915,156333.41835589,165893.55694457]},{"type":"Feature","id":"StreetAxes.fid-6b1d3889_1a0317e3809_-5e51","geometry":{"type":"LineString","coordinates":[[156652.03407461,165316.39430829],[156626.565,165250.89],[156597.065,165177.475],[156584.325,165146.165],[156545.45120124,165054.43535069],[156504.55588234,164957.49780794],[156473.42477701,164882.56149859],[156330.4518202,164536.3785609],[156265.16682045,164382.25640898],[156208.03432317,164245.46786417],[156173.30308843,164162.05105986],[156102.67537791,163991.17155143],[156031.9335,163821.9715],[155966.28052803,163664.99376132]]},"geometry_name":"GEOM","properties":{"INSPIRE_ID":"https://databrussels.be/id/streetaxe/99314","TYPE":"S","HIERARCHY":"H","LVL":0,"STARTSN_ID":"https://databrussels.be/id/streetnode/4432","ENDSN_ID":"https://databrussels.be/id/streetnode/14388","STRNAMEFRE":"Route de Mont Saint-Jean","STRNAMEDUT":"Steenweg op Sint-Jansberg","SLOPE":0.79,"LENGTH":1788.15758377353},"bbox":[155966.28052803,163664.99376132,156652.03407461,165316.39430829]}],"numberReturned":5,"grand_bruxelles_source":{"authority":"Paradigm / Brussels-Capital Region","service":"https://geoservices-urbis.irisnet.be/geoserver/urbisvector/wfs","layer":"urbisvector:StreetAxes","crs":"EPSG:31370","bbox":[156000.0,165000.0,156500.0,165500.0],"cell_id":"bxl-e156000-n165000-s500","ownership":"bbox_intersection_source_unclipped"}}
