{"type":"FeatureCollection","totalFeatures":4,"numberMatched":4,"timeStamp":"2026-08-23T03:16:06.670Z","crs":{"type":"name","properties":{"name":"urn:ogc:def:crs:EPSG::31370"}},"bbox":[147508.63883187,168495.99,148293.65,169082.36469526],"features":[{"type":"Feature","id":"TramNetwork.fid--2dded296_1a02c23f8dc_-3bab","geometry":{"type":"LineString","coordinates":[[148293.65,168514.204],[148292.0901,168513.9201],[148291.6901,168513.8501],[148290.6101,168513.6901],[148289.0301,168513.5501],[148287.4435,168513.491],[148287.4201,168513.4901],[148285.8001,168513.5501],[148284.4801,168513.7101],[148283.1701,168513.9501],[148281.8701,168514.2801],[148280.4901,168514.7401],[148279.1601,168515.3001],[148277.8701,168515.9201],[148276.6301,168516.6001],[148275.9408,168517.0265],[148275.4501,168517.3301],[148274.8682,168517.7027],[148272.5394,168519.3795],[148269.0779,168521.8719],[148259.8498,168528.4615],[148250.6734,168534.9845],[148241.4537,168541.5314],[148231.357,168548.7657],[148222.849,168554.8644],[148213.4835,168561.5252],[148205.8092,168567.0258],[148194.1431,168575.2812],[148186.9534,168580.4255],[148175.4656,168588.6104],[148165.1711,168595.9816],[148155.9124,168602.599],[148147.4729,168608.6077],[148138.0797,168615.3075],[148132.4613,168619.3237],[148130.3912,168620.8035],[148122.3889,168626.6003],[148113.1294,168633.1184],[148112.4805,168633.5752],[148103.5294,168639.9836],[148093.8915,168646.8562],[148085.1551,168653.1859],[148075.0674,168660.2769],[148074.8057,168660.4608],[148066.707,168666.3236],[148057.582,168672.7599],[148056.9899,168673.1848],[148048.2098,168679.4853],[148040.1262,168685.2689],[148031.727,168691.329],[148025.8172,168695.4791],[148018.6525,168700.6085],[148010.7151,168706.2398],[148002.5854,168712.0653],[147994.4124,168717.904],[147986.4024,168723.6166],[147979.2549,168728.7677],[147971.9611,168733.9783],[147964.0113,168739.6259],[147957.6259,168744.194],[147953.6136,168747.0523],[147946.4174,168752.1487],[147936.9407,168758.9217],[147931.3101,168762.9535],[147922.1774,168769.4298],[147915.7315,168774.032],[147908.1339,168779.4037],[147900.4221,168785.0399],[147894.3612,168789.3807],[147887.6971,168794.1183],[147880.5537,168799.1929],[147873.8223,168804.0307],[147866.2783,168809.4258],[147859.7901,168814.0358],[147852.2741,168819.3967],[147846.0859,168823.8267],[147838.4862,168829.2565],[147830.688,168834.7909],[147821.9635,168841.0186],[147813.7091,168846.9634],[147805.9661,168852.3727],[147799.6306,168856.8972],[147791.8322,168862.5817],[147783.3611,168868.6071],[147776.0589,168873.8449],[147766.9056,168880.3342],[147759.0218,168885.9097],[147751.5442,168891.2561],[147745.8192,168895.2706],[147737.1184,168901.455],[147727.1732,168908.5233],[147711.6648,168919.5406],[147707.21399819,168922.78076112],[147692.46443797,168933.30222393],[147678.9025588,168942.94809006],[147670.15106155,168949.12961485],[147653.3521,168960.9251],[147638.9314,168971.1046],[147610.6536,168991.1337],[147603.9205,168995.9822],[147595.164,169002.1208],[147594.1183,169002.8821],[147585.1551,169009.3269],[147577.134,169015.071],[147551.862,169032.703],[147540.085,169040.293],[147528.42,169047.255],[147519.735,169052.564],[147516.71757199,169054.51677452],[147516.54875489,169054.64941951],[147516.3812153,169054.78367447],[147516.21496858,169054.91952711],[147516.05002998,169055.05696497],[147515.8864146,169055.19597546],[147515.72413744,169055.33654584],[147515.56321336,169055.47866323],[147515.40365713,169055.6223146],[147515.24548335,169055.76748679],[147515.08870653,169055.9141665],[147514.93334103,169056.06234028],[147514.77940109,169056.21199456],[147514.62690081,169056.36311562],[147514.47585418,169056.51568962],[147514.32627503,169056.66970256],[147514.17817707,169056.82514034],[147514.03157387,169056.98198871],[147513.88647887,169057.1402333],[147513.74290537,169057.29985961],[147513.60086651,169057.460853],[147513.46037533,169057.62319873],[147513.32144468,169057.78688192],[147513.18408732,169057.95188756],[147513.04831581,169058.11820054],[147512.91414261,169058.28580562],[147512.78158001,169058.45468743],[147512.65064016,169058.6248305],[147512.52133505,169058.79621923],[147512.39367654,169058.96883793],[147512.26767633,169059.14267077],[147512.14334596,169059.31770182],[147512.02069683,169059.49391504],[147511.89974017,169059.67129428],[147511.78048708,169059.84982329],[147511.66294847,169060.02948571],[147511.54713513,169060.21026508],[147511.43305765,169060.39214482],[147511.32072651,169060.57510826],[147511.21015199,169060.75913865],[147511.10134422,169060.94421912],[147510.99431318,169061.1303327],[147510.88906868,169061.31746234],[147510.78562035,169061.5055909],[147510.68397769,169061.69470112],[147510.58415,169061.88477569],[147510.48614643,169062.07579718],[147510.38997596,169062.26774809],[147510.29564741,169062.46061082],[147510.20316943,169062.65436771],[147510.11255048,169062.84900099],[147510.02379887,169063.04449283],[147509.93692273,169063.24082532],[147509.85193003,169063.43798046],[147509.78377407,169063.61904981],[147509.71752683,169063.80082617],[147509.65319565,169063.98328942],[147509.59078764,169064.16641938],[147509.53030972,169064.35019578],[147509.47176858,169064.53459826],[147509.41517069,169064.71960642],[147509.36052232,169064.90519979],[147509.30782953,169065.09135782],[147509.25709814,169065.2780599],[147509.20833377,169065.46528537],[147509.16154181,169065.65301351],[147509.11672745,169065.84122354],[147509.07389564,169066.02989462],[147509.03305113,169066.21900588],[147508.99419844,169066.40853638],[147508.95734186,169066.59846514],[147508.92248548,169066.78877114],[147508.88963316,169066.97943332],[147508.85878852,169067.17043057],[147508.829955,169067.36174176],[147508.80313577,169067.5533457],[147508.7783338,169067.74522119],[147508.75555185,169067.93734699],[147508.73479243,169068.12970184],[147508.71605783,169068.32226445],[147508.69935014,169068.51501349],[147508.68467121,169068.70792764],[147508.67202265,169068.90098555],[147508.66140587,169069.09416584],[147508.65282204,169069.28744714],[147508.64627211,169069.48080805],[147508.64175681,169069.67422716],[147508.63927664,169069.86768307],[147508.63883187,169070.06115437],[147508.64042256,169070.25461964],[147508.64404852,169070.44805747],[147508.64970935,169070.64144645],[147508.65740443,169070.83476517],[147508.65851261,169070.85677595],[147508.71,169072.625],[147509.05,169074.857],[147509.509,169076.25],[147510.299,169078.254],[147511.035,169079.818],[147512.59919862,169082.36469526]]},"geometry_name":"GEOM","properties":{"INSPIRE_ID":"https://databrussels.be/id/rail/22060","TYPE":"TW","LVL":0,"SLOPE":null,"LENGTH":980.087459432805},"bbox":[147508.63883187,168513.4901,148293.65,169082.36469526]},{"type":"Feature","id":"TramNetwork.fid--2dded296_1a02c23f8dc_-3baa","geometry":{"type":"LineString","coordinates":[[148293.4801,168515.6801],[148292.4601,168515.4901],[148291.4501,168515.3101],[148290.4301,168515.1601],[148288.9301,168515.0201],[148287.4201,168514.9701],[148285.9201,168515.0301],[148284.7001,168515.1701],[148283.4801,168515.4001],[148282.2901,168515.7001],[148281.0101,168516.1301],[148279.7701,168516.6501],[148278.5501,168517.2301],[148278.1989,168517.4252],[148277.3801,168517.8801],[148276.2401,168518.5801],[148275.5979,168518.9893],[148271.423,168522.0042],[148269.9687,168523.0544],[148260.7085,168529.6668],[148251.5306,168536.191],[148242.3131,168542.7363],[148232.2192,168549.9687],[148223.709,168556.0689],[148214.3435,168562.7297],[148206.6678,168568.2313],[148195.0012,168576.4871],[148187.8134,168581.63],[148176.3258,168589.8148],[148166.0322,168597.1853],[148156.7719,168603.8039],[148148.3318,168609.813],[148138.9398,168616.512],[148133.4025,168620.4702],[148131.2556,168622.0048],[148123.249,168627.8047],[148114.144,168634.2142],[148113.3373,168634.7821],[148104.3899,168641.1878],[148094.7553,168648.0579],[148086.0148,168654.3906],[148075.9108,168661.4931],[148075.6652,168661.6657],[148067.5674,168667.5278],[148058.44,168673.9658],[148057.8919,168674.3591],[148049.0719,168680.6884],[148040.9897,168686.4708],[148032.5853,168692.5347],[148026.6733,168696.6865],[148019.5114,168701.8137],[148018.7916,168702.3244],[148011.5743,168707.4449],[148008.1322,168709.9114],[148003.4466,168713.2689],[147995.2723,168719.1086],[147987.2647,168724.8194],[147980.1177,168729.9702],[147972.8199,168735.1837],[147964.8704,168740.831],[147958.4859,168745.3985],[147954.4706,168748.2589],[147947.2754,168753.3547],[147937.8018,168760.1254],[147932.169,168764.1588],[147923.0354,168770.6357],[147916.5887,168775.2385],[147908.9978,168780.6055],[147901.2896,168786.239],[147895.8378,168790.1436],[147895.2209,168790.5854],[147893.1307,168792.0714],[147888.5545,168795.3247],[147881.4141,168800.3971],[147874.6846,168805.2336],[147867.1374,168810.6309],[147860.6484,168815.2415],[147853.1345,168820.6009],[147846.9468,168825.0306],[147839.3446,168830.4621],[147832.0432,168835.644],[147831.5462,168835.9967],[147822.8259,168842.2214],[147815.5549,168847.458],[147814.5654,168848.1706],[147806.8199,168853.5816],[147800.4966,168858.0975],[147792.6971,168863.7827],[147784.2214,168869.8114],[147776.9182,168875.0499],[147767.7609,168881.5421],[147759.8795,168887.1159],[147752.3994,168892.464],[147746.6728,168896.4796],[147737.9758,168902.6614],[147728.0305,168909.7298],[147712.5214,168920.7476],[147707.89930105,168924.01902327],[147693.14974083,168934.54048608],[147679.58786165,168944.18635221],[147670.8363644,168950.36787701],[147654.2064,168962.1336],[147639.7859,168972.313],[147611.5137,168992.3381],[147604.7778,168997.1886],[147595.8807,169003.3687],[147594.9513,169004.0389],[147586.3433,169010.2283],[147577.745,169016.417],[147547.099,169037.6],[147539.985,169042.042],[147521.602,169053.023],[147520.31517361,169053.93515184],[147517.57067582,169055.71129541],[147517.46022205,169055.79808246],[147517.30363663,169055.92355949],[147517.14825956,169056.05052973],[147516.99410507,169056.17898155],[147516.84118729,169056.30890317],[147516.68952023,169056.44028269],[147516.53911779,169056.57310808],[147516.38999376,169056.70736715],[147516.24216179,169056.84304761],[147516.09563544,169056.98013702],[147515.95042814,169057.11862282],[147515.80655319,169057.25849231],[147515.66402378,169057.39973268],[147515.52285297,169057.54233099],[147515.38305369,169057.68627417],[147515.24463876,169057.83154902],[147515.10762086,169057.97814224],[147514.97201255,169058.12604039],[147514.83782625,169058.27522991],[147514.70507427,169058.42569714],[147514.57376876,169058.57742829],[147514.44392176,169058.73040944],[147514.31554518,169058.88462659],[147514.18865077,169059.0400656],[147514.06325016,169059.19671222],[147513.93935484,169059.35455209],[147513.81697618,169059.51357077],[147513.69612538,169059.67375366],[147513.57681351,169059.8350861],[147513.45905152,169059.9975533],[147513.34285019,169060.16114036],[147513.22822018,169060.32583231],[147513.11517198,169060.49161404],[147513.00371596,169060.65847036],[147512.89386234,169060.82638598],[147512.78562117,169060.99534552],[147512.67900238,169061.16533349],[147512.57401574,169061.33633431],[147512.47067086,169061.50833232],[147512.36897723,169061.68131174],[147512.26894416,169061.85525674],[147512.17058081,169062.03015136],[147512.07389621,169062.20597958],[147511.9788992,169062.38272529],[147511.8855985,169062.56037229],[147511.79400266,169062.73890429],[147511.70412007,169062.91830495],[147511.61595897,169063.09855782],[147511.52952744,169063.27964638],[147511.44483339,169063.46155403],[147511.36188459,169063.64426411],[147511.28068864,169063.82775987],[147511.21212361,169063.98680821],[147511.15883093,169064.12839039],[147511.09786615,169064.29567219],[147511.03866463,169064.46358612],[147510.98123294,169064.63211358],[147510.92557743,169064.80123594],[147510.87170427,169064.97093446],[147510.8196194,169065.14119037],[147510.76932861,169065.31198482],[147510.72083746,169065.4832989],[147510.67415131,169065.65511365],[147510.62927533,169065.82741006],[147510.58621449,169066.00016906],[147510.54497355,169066.17337152],[147510.50555709,169066.34699827],[147510.46796945,169066.52103009],[147510.43221481,169066.69544773],[147510.39829712,169066.87023187],[147510.36622013,169067.04536318],[147510.3359874,169067.22082226],[147510.30760227,169067.39658969],[147510.28106788,169067.57264602],[147510.25638718,169067.74897177],[147510.23356288,169067.92554741],[147510.21259752,169068.10235341],[147510.19349342,169068.27937019],[147510.1762527,169068.45657816],[147510.16087725,169068.6339577],[147510.14736879,169068.81148918],[147510.13572881,169068.98915296],[147510.12595859,169069.16692937],[147510.11805923,169069.34479872],[147510.11203158,169069.52274133],[147510.10787632,169069.70073751],[147510.10559392,169069.87876756],[147510.10518462,169070.05681176],[147510.10664846,169070.23485042],[147510.10998529,169070.41286383],[147510.11519474,169070.59083227],[147510.12227622,169070.76873606],[147510.13122896,169070.94655551],[147510.14252086,169071.13197023],[147510.208,169072.033],[147510.386,169073.703],[147510.82,169075.558],[147511.381,169076.933],[147512.063,169078.528],[147513.225,169080.922]]},"geometry_name":"GEOM","properties":{"INSPIRE_ID":"https://databrussels.be/id/rail/22061","TYPE":"TW","LVL":0,"SLOPE":null,"LENGTH":975.888252919454},"bbox":[147510.10518462,168514.9701,148293.4801,169080.922]},{"type":"Feature","id":"TramNetwork.fid--2dded296_1a02c23f8dc_-3bad","geometry":{"type":"LineString","coordinates":[[148277.59,168495.99],[148277.53,168496.96],[148277.47,168497.94],[148277.39,168498.9],[148277.22,168500.19],[148277,168501.46],[148276.73,168502.73],[148276.41,168503.96],[148276.33631603,168504.20295797],[148276.04,168505.18],[148275.86955787,168505.67885501],[148275.63,168506.38],[148275.05,168507.96],[148274.4,168509.51],[148273.67,168511.02],[148272.83,168512.52],[148271.89,168513.98],[148270.87,168515.37],[148269.8,168516.63],[148268.64,168517.83],[148267.44,168518.99],[148265.91,168520.32],[148264.31,168521.59],[148262.71,168522.85],[148228.77,168546.98],[148195.9,168570.39],[148161.47,168594.99],[148119.74,168624.74],[148064.01,168664.52],[148014.34,168699.97],[148005.04,168706.41],[148000,168710.01],[147974.58,168728.17],[147948,168746.99],[147918.96,168767.75],[147888.02,168790.02],[147857.58,168811.64],[147833.45,168828.88],[147832.317123,168829.852431],[147803.630123,168850.309431],[147800.77,168852.21],[147791.77,168858.62],[147782.77,168865.03],[147773.78,168871.44],[147766.15,168876.89],[147758.53,168882.34],[147750.91,168887.79],[147743.04,168893.41],[147735.16,168899.03],[147727.28,168904.64],[147720.38,168909.56],[147713.48,168914.48],[147705.28980402,168920.2579343],[147690.5402438,168930.7793971],[147676.97836462,168940.42526323],[147668.22686737,168946.60678803],[147657.31,168954.49],[147650.68,168959.24],[147641.81,168965.58],[147632.94,168971.92],[147624.07,168978.24],[147617.43,168982.96],[147610.78,168987.67],[147606.2,168990.914],[147593.336,169000],[147577.676,169011.075],[147556.764,169025.89],[147538.536,169037.636],[147525.192,169045.717]]},"geometry_name":"GEOM","properties":{"INSPIRE_ID":"https://databrussels.be/id/rail/22062","TYPE":"TW","LVL":0,"SLOPE":null,"LENGTH":936.071967536111},"bbox":[147525.192,168495.99,148277.59,169045.717]},{"type":"Feature","id":"TramNetwork.fid--2dded296_1a02c23f8dc_-3bac","geometry":{"type":"LineString","coordinates":[[148279.06624055,168496.14620454],[148279.01,168497.05],[148278.95,168498.05],[148278.86,168499.07],[148278.68,168500.41],[148278.46,168501.74],[148278.29260472,168502.5077094],[148278.17,168503.07],[148277.83,168504.36],[148277.60926055,168505.0788182],[148277.44,168505.63],[148277.12888028,168506.54854393],[148277.02,168506.87],[148276.42,168508.5],[148275.75,168510.12],[148274.99,168511.7],[148274.1,168513.29],[148273.11,168514.82],[148272.03,168516.29],[148270.89,168517.62],[148269.69,168518.88],[148268.44,168520.08],[148266.85,168521.46],[148265.22,168522.75],[148263.56,168524.06],[148229.63,168548.18],[148196.76,168571.59],[148162.33,168596.19],[148120.59,168625.94],[148064.87,168665.72],[148015.19,168701.18],[148005.9,168707.61],[148000,168711.829],[147975.438,168729.376],[147948.858,168748.196],[147919.823,168768.953],[147888.881,168791.224],[147858.439,168812.845],[147834.31,168830.084],[147833.159,168831.033],[147804.472,168851.49],[147801.629,168853.415],[147783.629,168866.235],[147774.64,168872.645],[147767.011,168878.094],[147751.771,168888.994],[147743.9,168894.615],[147736.019,168900.235],[147728.139,168905.845],[147714.339,168915.685],[147706.25437626,168921.32498562],[147691.50481604,168931.84644842],[147677.94293687,168941.49231455],[147669.19143962,168947.67383935],[147658.172,168955.693],[147651.541,168960.444],[147642.671,168966.784],[147633.8,168973.125],[147624.928,168979.446],[147618.286,168984.167],[147607.007,168992.156],[147595.636,169000],[147576.328,169013.816],[147557.554,169027.175],[147537.124,169040.442],[147527.307,169046.126]]},"geometry_name":"GEOM","properties":{"INSPIRE_ID":"https://databrussels.be/id/rail/22063","TYPE":"TW","LVL":0,"SLOPE":null,"LENGTH":935.843593967681},"bbox":[147527.307,168496.14620454,148279.06624055,169046.126]}],"numberReturned":4,"grand_bruxelles_source":{"authority":"Paradigm / Brussels-Capital Region","service":"https://geoservices-urbis.irisnet.be/geoserver/urbisvector/wfs","layer":"urbisvector:TramNetwork","crs":"EPSG:31370","bbox":[148000.0,169000.0,148500.0,169500.0],"cell_id":"bxl-e148000-n169000-s500","ownership":"bbox_intersection_source_unclipped"}}
