{"type":"FeatureCollection","totalFeatures":82,"numberMatched":82,"timeStamp":"2026-08-24T01:58:54.171Z","crs":{"type":"name","properties":{"name":"urn:ogc:def:crs:EPSG::31370"}},"bbox":[152875.254,169791.322,153610.01732245,170576.85],"features":[{"type":"Feature","id":"StreetAxes.fid-13d79f14_1a031586a2a_-5469","geometry":{"type":"LineString","coordinates":[[153042.143,170576.85],[153034.57,170573.125],[152881.955,170501.16],[152875.254,170498.037]]},"geometry_name":"GEOM","properties":{"INSPIRE_ID":"https://databrussels.be/id/streetaxe/70159","TYPE":"S","HIERARCHY":"DR","LVL":0,"STARTSN_ID":"https://databrussels.be/id/streetnode/2247","ENDSN_ID":"https://databrussels.be/id/streetnode/2929","STRNAMEFRE":"Avenue Marie-José","STRNAMEDUT":"Marie-Josélaan","SLOPE":0.99,"LENGTH":184.563994298282},"bbox":[152875.254,170498.037,153042.143,170576.85]},{"type":"Feature","id":"StreetAxes.fid-13d79f14_1a031586a2a_-5458","geometry":{"type":"LineString","coordinates":[[153171.126,170261.571],[153174.77,170252.616],[153201.35,170187.736],[153203.127,170175.327]]},"geometry_name":"GEOM","properties":{"INSPIRE_ID":"https://databrussels.be/id/streetaxe/70287","TYPE":"S","HIERARCHY":"DR","LVL":0,"STARTSN_ID":"https://databrussels.be/id/streetnode/2343","ENDSN_ID":"https://databrussels.be/id/streetnode/19","STRNAMEFRE":"Rue du Pont-Levis","STRNAMEDUT":"Ophaalbrugstraat","SLOPE":2.63,"LENGTH":92.317173970618},"bbox":[153171.126,170175.327,153203.127,170261.571]},{"type":"Feature","id":"StreetAxes.fid-13d79f14_1a031586a2a_-5459","geometry":{"type":"LineString","coordinates":[[153117.326,170393.951],[153119.955,170388.45],[153167.452,170270.599],[153171.126,170261.571]]},"geometry_name":"GEOM","properties":{"INSPIRE_ID":"https://databrussels.be/id/streetaxe/70288","TYPE":"S","HIERARCHY":"DR","LVL":0,"STARTSN_ID":"https://databrussels.be/id/streetnode/340","ENDSN_ID":"https://databrussels.be/id/streetnode/2343","STRNAMEFRE":"Rue du Pont-Levis","STRNAMEDUT":"Ophaalbrugstraat","SLOPE":4.54,"LENGTH":142.906169249216},"bbox":[153117.326,170261.571,153171.126,170393.951]},{"type":"Feature","id":"StreetAxes.fid-13d79f14_1a031586a2a_-543a","geometry":{"type":"LineString","coordinates":[[153355.395,170103.163],[153352.91,170092.204],[153348.185,170066.81]]},"geometry_name":"GEOM","properties":{"INSPIRE_ID":"https://databrussels.be/id/streetaxe/70877","TYPE":"S","HIERARCHY":"DR","LVL":0,"STARTSN_ID":"https://databrussels.be/id/streetnode/233","ENDSN_ID":"https://databrussels.be/id/streetnode/3422","STRNAMEFRE":"Clos Victor Gilsoul","STRNAMEDUT":"Victor Gilsoulgaarde","SLOPE":3.32,"LENGTH":37.0670551608254},"bbox":[153348.185,170066.81,153355.395,170103.163]},{"type":"Feature","id":"StreetAxes.fid-13d79f14_1a031586a2a_-545a","geometry":{"type":"LineString","coordinates":[[153270.155,170452.562],[153254.492,170446.62],[153123.775,170396.414],[153117.326,170393.951]]},"geometry_name":"GEOM","properties":{"INSPIRE_ID":"https://databrussels.be/id/streetaxe/71071","TYPE":"S","HIERARCHY":"IDR","LVL":0,"STARTSN_ID":"https://databrussels.be/id/streetnode/2622","ENDSN_ID":"https://databrussels.be/id/streetnode/340","STRNAMEFRE":"Avenue Georges Henri","STRNAMEDUT":"Georges Henrilaan","SLOPE":0.4,"LENGTH":163.682608492352},"bbox":[153117.326,170393.951,153270.155,170452.562]},{"type":"Feature","id":"StreetAxes.fid-13d79f14_1a031586a2a_-545d","geometry":{"type":"LineString","coordinates":[[153171.126,170261.571],[153163.391,170259.336],[153083.904,170238.897],[153074.316,170236.453]]},"geometry_name":"GEOM","properties":{"INSPIRE_ID":"https://databrussels.be/id/streetaxe/71072","TYPE":"S","HIERARCHY":"DR","LVL":0,"STARTSN_ID":"https://databrussels.be/id/streetnode/2343","ENDSN_ID":"https://databrussels.be/id/streetnode/4384","STRNAMEFRE":"Avenue du Couronnement","STRNAMEDUT":"Kroninglaan","SLOPE":3.15,"LENGTH":100.018761307113},"bbox":[153074.316,170236.453,153171.126,170261.571]},{"type":"Feature","id":"StreetAxes.fid-13d79f14_1a031586a2a_-5466","geometry":{"type":"LineString","coordinates":[[153012.523,170102.759],[153010.17,170109.68],[152978.638,170201.345],[152975.759,170209.908]]},"geometry_name":"GEOM","properties":{"INSPIRE_ID":"https://databrussels.be/id/streetaxe/71073","TYPE":"S","HIERARCHY":"DR","LVL":0,"STARTSN_ID":"https://databrussels.be/id/streetnode/1084","ENDSN_ID":"https://databrussels.be/id/streetnode/2988","STRNAMEFRE":"Avenue du Prince Héritier","STRNAMEDUT":"Erfprinslaan","SLOPE":1.24,"LENGTH":113.280856077125},"bbox":[152975.759,170102.759,153012.523,170209.908]},{"type":"Feature","id":"StreetAxes.fid-13d79f14_1a031586a2a_-5428","geometry":{"type":"LineString","coordinates":[[153270.155,170452.562],[153271.205,170461.825],[153252.168,170527.327],[153249.938,170535.18]]},"geometry_name":"GEOM","properties":{"INSPIRE_ID":"https://databrussels.be/id/streetaxe/71198","TYPE":"S","HIERARCHY":"DR","LVL":0,"STARTSN_ID":"https://databrussels.be/id/streetnode/2622","ENDSN_ID":"https://databrussels.be/id/streetnode/4161","STRNAMEFRE":"Rue Jean-Baptiste Timmermans","STRNAMEDUT":"Jean-Baptiste Timmermansstraat","SLOPE":1.17,"LENGTH":85.6981183431986},"bbox":[153249.938,170452.562,153271.205,170535.18]},{"type":"Feature","id":"StreetAxes.fid-13d79f14_1a031586a2a_-545c","geometry":{"type":"LineString","coordinates":[[153117.326,170393.951],[153114.3,170400.284],[153082.411,170478.138],[153079.395,170485.407]]},"geometry_name":"GEOM","properties":{"INSPIRE_ID":"https://databrussels.be/id/streetaxe/71931","TYPE":"S","HIERARCHY":"DR","LVL":0,"STARTSN_ID":"https://databrussels.be/id/streetnode/340","ENDSN_ID":"https://databrussels.be/id/streetnode/4704","STRNAMEFRE":"Rue du Bois de Linthout","STRNAMEDUT":"Linthoutbosstraat","SLOPE":2.76,"LENGTH":99.0204193215618},"bbox":[153079.395,170393.951,153117.326,170485.407]},{"type":"Feature","id":"StreetAxes.fid-13d79f14_1a031586a2a_-5457","geometry":{"type":"LineString","coordinates":[[153281.05,170287.209],[153267.977,170284.368],[153179.332,170263.942],[153171.126,170261.571]]},"geometry_name":"GEOM","properties":{"INSPIRE_ID":"https://databrussels.be/id/streetaxe/71964","TYPE":"S","HIERARCHY":"DR","LVL":0,"STARTSN_ID":"https://databrussels.be/id/streetnode/1253","ENDSN_ID":"https://databrussels.be/id/streetnode/2343","STRNAMEFRE":"Avenue du Couronnement","STRNAMEDUT":"Kroninglaan","SLOPE":1.08,"LENGTH":112.887699059703},"bbox":[153171.126,170261.571,153281.05,170287.209]},{"type":"Feature","id":"StreetAxes.fid-13d79f14_1a031586a2a_-541e","geometry":{"type":"LineString","coordinates":[[153487.171,169791.322],[153487.725,169801.975],[153498.665,169998.39],[153507.657,170012.197]]},"geometry_name":"GEOM","properties":{"INSPIRE_ID":"https://databrussels.be/id/streetaxe/72369","TYPE":"S","HIERARCHY":"DR","LVL":0,"STARTSN_ID":"https://databrussels.be/id/streetnode/3967","ENDSN_ID":"https://databrussels.be/id/streetnode/1868","STRNAMEFRE":"Avenue J.G. Van Goolen","STRNAMEDUT":"J.G. Van Goolenlaan","SLOPE":4.39,"LENGTH":223.863762456358},"bbox":[153487.171,169791.322,153507.657,170012.197]},{"type":"Feature","id":"StreetAxes.fid-13d79f14_1a031586a2a_-5439","geometry":{"type":"LineString","coordinates":[[153452.845,170110.443],[153437.9,170109.019],[153361.326,170102.237],[153355.395,170103.163]]},"geometry_name":"GEOM","properties":{"INSPIRE_ID":"https://databrussels.be/id/streetaxe/72913","TYPE":"S","HIERARCHY":"DR","LVL":0,"STARTSN_ID":"https://databrussels.be/id/streetnode/2989","ENDSN_ID":"https://databrussels.be/id/streetnode/233","STRNAMEFRE":"Avenue Victor Gilsoul","STRNAMEDUT":"Victor Gilsoullaan","SLOPE":0.73,"LENGTH":97.8892875500789},"bbox":[153355.395,170102.237,153452.845,170110.443]},{"type":"Feature","id":"StreetAxes.fid-13d79f14_1a031586a2a_-545b","geometry":{"type":"LineString","coordinates":[[153249.938,170535.18],[153242.101,170532.91],[153087.301,170488.65],[153079.395,170485.407]]},"geometry_name":"GEOM","properties":{"INSPIRE_ID":"https://databrussels.be/id/streetaxe/72955","TYPE":"S","HIERARCHY":"DR","LVL":0,"STARTSN_ID":"https://databrussels.be/id/streetnode/4161","ENDSN_ID":"https://databrussels.be/id/streetnode/4704","STRNAMEFRE":"Rue Albert et Marie-Louise Servais-Kinet","STRNAMEDUT":"Albert en Marie-Louise Servais-Kinetstraat","SLOPE":0.61,"LENGTH":177.707485507585},"bbox":[153079.395,170485.407,153249.938,170535.18]},{"type":"Feature","id":"StreetAxes.fid-13d79f14_1a031586a2a_-541d","geometry":{"type":"LineString","coordinates":[[153052.01181717,169983.32955066],[153048.17,169997.435],[153014.876,170095.838],[153012.523,170102.759]]},"geometry_name":"GEOM","properties":{"INSPIRE_ID":"https://databrussels.be/id/streetaxe/73193","TYPE":"S","HIERARCHY":"DR","LVL":0,"STARTSN_ID":"https://databrussels.be/id/streetnode/826","ENDSN_ID":"https://databrussels.be/id/streetnode/1084","STRNAMEFRE":"Avenue du Prince Héritier","STRNAMEDUT":"Erfprinslaan","SLOPE":2.35,"LENGTH":125.812150975033},"bbox":[153012.523,169983.32955066,153052.01181717,170102.759]},{"type":"Feature","id":"StreetAxes.fid-13d79f14_1a031586a2a_-545f","geometry":{"type":"LineString","coordinates":[[153079.395,170485.407],[153076.78,170491.71],[153045.675,170568.12],[153042.143,170576.85]]},"geometry_name":"GEOM","properties":{"INSPIRE_ID":"https://databrussels.be/id/streetaxe/73213","TYPE":"S","HIERARCHY":"DR","LVL":0,"STARTSN_ID":"https://databrussels.be/id/streetnode/4704","ENDSN_ID":"https://databrussels.be/id/streetnode/2247","STRNAMEFRE":"Rue du Bois de Linthout","STRNAMEDUT":"Linthoutbosstraat","SLOPE":2.56,"LENGTH":98.7398977295423},"bbox":[153042.143,170485.407,153079.395,170576.85]},{"type":"Feature","id":"StreetAxes.fid-13d79f14_1a031586a2a_-541f","geometry":{"type":"LineString","coordinates":[[153507.657,170012.197],[153486.002,170010.363],[153427.84613868,170005.36812527]]},"geometry_name":"GEOM","properties":{"INSPIRE_ID":"https://databrussels.be/id/streetaxe/73352","TYPE":"S","HIERARCHY":"DR","LVL":0,"STARTSN_ID":"https://databrussels.be/id/streetnode/1868","ENDSN_ID":"https://databrussels.be/id/streetnode/13684","STRNAMEFRE":"Avenue A.J. Slegers","STRNAMEDUT":"A.J. Slegerslaan","SLOPE":1.36,"LENGTH":80.1024899930651},"bbox":[153427.84613868,170005.36812527,153507.657,170012.197]},{"type":"Feature","id":"StreetAxes.fid-13d79f14_1a031586a2a_-5445","geometry":{"type":"LineString","coordinates":[[153327.66301195,170299.49316931],[153318.08433575,170297.21780876],[153292.695,170289.74],[153281.05,170287.209]]},"geometry_name":"GEOM","properties":{"INSPIRE_ID":"https://databrussels.be/id/streetaxe/74408","TYPE":"S","HIERARCHY":"DR","LVL":0,"STARTSN_ID":"https://databrussels.be/id/streetnode/3244","ENDSN_ID":"https://databrussels.be/id/streetnode/1253","STRNAMEFRE":"Avenue du Couronnement","STRNAMEDUT":"Kroninglaan","SLOPE":0.73,"LENGTH":48.2297359857932},"bbox":[153281.05,170287.209,153327.66301195,170299.49316931]},{"type":"Feature","id":"StreetAxes.fid-13d79f14_1a031586a2a_-5419","geometry":{"type":"LineString","coordinates":[[153234.54632858,170062.87598788],[153198.83458442,170018.03420263]]},"geometry_name":"GEOM","properties":{"INSPIRE_ID":"https://databrussels.be/id/streetaxe/74905","TYPE":"S","HIERARCHY":"MAR","LVL":0,"STARTSN_ID":"https://databrussels.be/id/streetnode/7401","ENDSN_ID":"https://databrussels.be/id/streetnode/7380","STRNAMEFRE":"Avenue de Broqueville","STRNAMEDUT":"de Broquevillelaan","SLOPE":2.23,"LENGTH":57.3246402113014},"bbox":[153198.83458442,170018.03420263,153234.54632858,170062.87598788]},{"type":"Feature","id":"StreetAxes.fid-13d79f14_1a031586a2a_-5449","geometry":{"type":"LineString","coordinates":[[153571.097,170464.468],[153560.114,170470.285],[153494.03802594,170504.13114301],[153452.68436256,170530.78666195]]},"geometry_name":"GEOM","properties":{"INSPIRE_ID":"https://databrussels.be/id/streetaxe/75033","TYPE":"S","HIERARCHY":"IDR","LVL":0,"STARTSN_ID":"https://databrussels.be/id/streetnode/4169","ENDSN_ID":"https://databrussels.be/id/streetnode/7033","STRNAMEFRE":"Rue Montagne des Cerisiers","STRNAMEDUT":"Kerselarenbergstraat","SLOPE":5.46,"LENGTH":135.868489955392},"bbox":[153452.68436256,170464.468,153571.097,170530.78666195]},{"type":"Feature","id":"StreetAxes.fid-13d79f14_1a031586a2a_-5462","geometry":{"type":"LineString","coordinates":[[153203.127,170175.327],[153196.132,170170.91],[153019.46,170105.415],[153012.523,170102.759]]},"geometry_name":"GEOM","properties":{"INSPIRE_ID":"https://databrussels.be/id/streetaxe/75139","TYPE":"S","HIERARCHY":"DR","LVL":0,"STARTSN_ID":"https://databrussels.be/id/streetnode/19","ENDSN_ID":"https://databrussels.be/id/streetnode/1084","STRNAMEFRE":"Avenue du Castel","STRNAMEDUT":"Slotlaan","SLOPE":2.94,"LENGTH":204.122228862838},"bbox":[153012.523,170102.759,153203.127,170175.327]},{"type":"Feature","id":"StreetAxes.fid-13d79f14_1a031586a2a_-5465","geometry":{"type":"LineString","coordinates":[[153074.316,170236.453],[153065.126,170234.11],[152984.28,170213.24],[152975.759,170209.908]]},"geometry_name":"GEOM","properties":{"INSPIRE_ID":"https://databrussels.be/id/streetaxe/75142","TYPE":"S","HIERARCHY":"DR","LVL":0,"STARTSN_ID":"https://databrussels.be/id/streetnode/4384","ENDSN_ID":"https://databrussels.be/id/streetnode/2988","STRNAMEFRE":"Avenue du Couronnement","STRNAMEDUT":"Kroninglaan","SLOPE":3.8,"LENGTH":102.129574885712},"bbox":[152975.759,170209.908,153074.316,170236.453]},{"type":"Feature","id":"StreetAxes.fid-13d79f14_1a031586a2a_-543b","geometry":{"type":"LineString","coordinates":[[153413.72731203,170205.83704172],[153405.51653718,170202.39954162],[153388.08254913,170194.34965577],[153372.68500982,170186.39915122],[153360.32662193,170179.43935407],[153337.02446603,170163.86843779]]},"geometry_name":"GEOM","properties":{"INSPIRE_ID":"https://databrussels.be/id/streetaxe/75526","TYPE":"S","HIERARCHY":"MAR","LVL":0,"STARTSN_ID":"https://databrussels.be/id/streetnode/7403","ENDSN_ID":"https://databrussels.be/id/streetnode/7404","STRNAMEFRE":"Avenue de Broqueville","STRNAMEDUT":"de Broquevillelaan","SLOPE":1.83,"LENGTH":87.6422044463182},"bbox":[153337.02446603,170163.86843779,153413.72731203,170205.83704172]},{"type":"Feature","id":"StreetAxes.fid-13d79f14_1a031586a2a_-5440","geometry":{"type":"LineString","coordinates":[[153337.02446603,170163.86843779],[153329.35343421,170158.84060431],[153318.11144297,170150.53104002],[153306.45946704,170141.07877747],[153295.49003985,170131.21579741]]},"geometry_name":"GEOM","properties":{"INSPIRE_ID":"https://databrussels.be/id/streetaxe/75527","TYPE":"S","HIERARCHY":"MAR","LVL":0,"STARTSN_ID":"https://databrussels.be/id/streetnode/7404","ENDSN_ID":"https://databrussels.be/id/streetnode/7402","STRNAMEFRE":"Avenue de Broqueville","STRNAMEDUT":"de Broquevillelaan","SLOPE":2.19,"LENGTH":52.9068684543035},"bbox":[153295.49003985,170131.21579741,153337.02446603,170163.86843779]},{"type":"Feature","id":"StreetAxes.fid-13d79f14_1a031586a2a_-5438","geometry":{"type":"LineString","coordinates":[[153409.39366655,170217.11928124],[153413.72731203,170205.83704172]]},"geometry_name":"GEOM","properties":{"INSPIRE_ID":"https://databrussels.be/id/streetaxe/75859","TYPE":"S","HIERARCHY":"MAR","LVL":0,"STARTSN_ID":"https://databrussels.be/id/streetnode/7105","ENDSN_ID":"https://databrussels.be/id/streetnode/7403","STRNAMEFRE":"Avenue de Broqueville","STRNAMEDUT":"de Broquevillelaan","SLOPE":0.5,"LENGTH":12.0859179108718},"bbox":[153409.39366655,170205.83704172,153413.72731203,170217.11928124]},{"type":"Feature","id":"StreetAxes.fid-13d79f14_1a031586a2a_-543c","geometry":{"type":"LineString","coordinates":[[153409.39366655,170217.11928124],[153401.7781326,170213.61099531],[153387.18570124,170206.88862731],[153377.68843401,170202.1040597],[153361.5316612,170193.34430737],[153343.20540282,170182.91528666],[153330.49914132,170174.11013727]]},"geometry_name":"GEOM","properties":{"INSPIRE_ID":"https://databrussels.be/id/streetaxe/75861","TYPE":"S","HIERARCHY":"MAR","LVL":0,"STARTSN_ID":"https://databrussels.be/id/streetnode/7105","ENDSN_ID":"https://databrussels.be/id/streetnode/7106","STRNAMEFRE":"Avenue de Broqueville","STRNAMEDUT":"de Broquevillelaan","SLOPE":1.78,"LENGTH":90.0091007105539},"bbox":[153330.49914132,170174.11013727,153409.39366655,170217.11928124]},{"type":"Feature","id":"StreetAxes.fid-13d79f14_1a031586a2a_-5442","geometry":{"type":"LineString","coordinates":[[153330.49914132,170174.11013727],[153322.60848244,170168.8768327],[153307.08171371,170157.27965189],[153294.55099323,170147.35450082],[153283.67245105,170137.05893451]]},"geometry_name":"GEOM","properties":{"INSPIRE_ID":"https://databrussels.be/id/streetaxe/75862","TYPE":"S","HIERARCHY":"MAR","LVL":0,"STARTSN_ID":"https://databrussels.be/id/streetnode/7106","ENDSN_ID":"https://databrussels.be/id/streetnode/7378","STRNAMEFRE":"Avenue de Broqueville","STRNAMEDUT":"de Broquevillelaan","SLOPE":1.89,"LENGTH":59.8113878554143},"bbox":[153283.67245105,170137.05893451,153330.49914132,170174.11013727]},{"type":"Feature","id":"StreetAxes.fid-13d79f14_1a031586a2a_-5444","geometry":{"type":"LineString","coordinates":[[153330.49914132,170174.11013727],[153323.072,170190.078],[153283.642,170276.47],[153283.558,170276.654],[153281.05,170287.209]]},"geometry_name":"GEOM","properties":{"INSPIRE_ID":"https://databrussels.be/id/streetaxe/75863","TYPE":"S","HIERARCHY":"DR","LVL":0,"STARTSN_ID":"https://databrussels.be/id/streetnode/7106","ENDSN_ID":"https://databrussels.be/id/streetnode/1253","STRNAMEFRE":"Avenue Léon Tombu","STRNAMEDUT":"Léon Tombulaan","SLOPE":3.6,"LENGTH":123.626538078495},"bbox":[153281.05,170174.11013727,153330.49914132,170287.209]},{"type":"Feature","id":"StreetAxes.fid-13d79f14_1a031586a2a_-542e","geometry":{"type":"LineString","coordinates":[[153452.845,170110.443],[153456.02,170124.845],[153465.152,170202.493],[153466.65146778,170215.02288913]]},"geometry_name":"GEOM","properties":{"INSPIRE_ID":"https://databrussels.be/id/streetaxe/75964","TYPE":"S","HIERARCHY":"IDR","LVL":0,"STARTSN_ID":"https://databrussels.be/id/streetnode/2989","ENDSN_ID":"https://databrussels.be/id/streetnode/7414","STRNAMEFRE":"Avenue Louis Gribaumont","STRNAMEDUT":"Louis Gribaumontlaan","SLOPE":2.26,"LENGTH":105.55026540449},"bbox":[153452.845,170110.443,153466.65146778,170215.02288913]},{"type":"Feature","id":"StreetAxes.fid-13d79f14_1a031586a2a_-5441","geometry":{"type":"LineString","coordinates":[[153355.395,170103.163],[153350.07,170103.995],[153312.328,170122.89],[153295.49003985,170131.21579741]]},"geometry_name":"GEOM","properties":{"INSPIRE_ID":"https://databrussels.be/id/streetaxe/75965","TYPE":"S","HIERARCHY":"DR","LVL":0,"STARTSN_ID":"https://databrussels.be/id/streetnode/233","ENDSN_ID":"https://databrussels.be/id/streetnode/7402","STRNAMEFRE":"Avenue Victor Gilsoul","STRNAMEDUT":"Victor Gilsoullaan","SLOPE":0.71,"LENGTH":66.38110713392},"bbox":[153295.49003985,170103.163,153355.395,170131.21579741]},{"type":"Feature","id":"StreetAxes.fid-13d79f14_1a031586a2a_-5447","geometry":{"type":"LineString","coordinates":[[153283.67245105,170137.05893451],[153273.19151192,170127.0633727],[153259.86860907,170113.56510353],[153242.25767349,170092.86584071],[153224.74605605,170070.55920114]]},"geometry_name":"GEOM","properties":{"INSPIRE_ID":"https://databrussels.be/id/streetaxe/76365","TYPE":"S","HIERARCHY":"MAR","LVL":0,"STARTSN_ID":"https://databrussels.be/id/streetnode/7378","ENDSN_ID":"https://databrussels.be/id/streetnode/7383","STRNAMEFRE":"Avenue de Broqueville","STRNAMEDUT":"de Broquevillelaan","SLOPE":2.19,"LENGTH":88.9854345074501},"bbox":[153224.74605605,170070.55920114,153283.67245105,170137.05893451]},{"type":"Feature","id":"StreetAxes.fid-13d79f14_1a031586a2a_-5456","geometry":{"type":"LineString","coordinates":[[153283.67245105,170137.05893451],[153267.15,170145.228],[153214.958,170171.536],[153203.127,170175.327]]},"geometry_name":"GEOM","properties":{"INSPIRE_ID":"https://databrussels.be/id/streetaxe/76366","TYPE":"S","HIERARCHY":"DR","LVL":0,"STARTSN_ID":"https://databrussels.be/id/streetnode/7378","ENDSN_ID":"https://databrussels.be/id/streetnode/19","STRNAMEFRE":"Avenue Victor Gilsoul","STRNAMEDUT":"Victor Gilsoullaan","SLOPE":2.16,"LENGTH":89.3027135750052},"bbox":[153203.127,170137.05893451,153283.67245105,170175.327]},{"type":"Feature","id":"StreetAxes.fid-13d79f14_1a031586a2a_-545e","geometry":{"type":"LineString","coordinates":[[153117.326,170393.951],[153110.003,170391.153],[153053.954,170369.76],[153048.62713464,170367.72590032]]},"geometry_name":"GEOM","properties":{"INSPIRE_ID":"https://databrussels.be/id/streetaxe/76954","TYPE":"S","HIERARCHY":"IDR","LVL":0,"STARTSN_ID":"https://databrussels.be/id/streetnode/340","ENDSN_ID":"https://databrussels.be/id/streetnode/11090","STRNAMEFRE":"Avenue Georges Henri","STRNAMEDUT":"Georges Henrilaan","SLOPE":1.74,"LENGTH":73.5342778677438},"bbox":[153048.62713464,170367.72590032,153117.326,170393.951]},{"type":"Feature","id":"StreetAxes.fid-13d79f14_1a031586a2a_-544a","geometry":{"type":"LineString","coordinates":[[153443.88154482,170481.85177075],[153450.45389743,170478.71999196],[153452.53634996,170474.69850473],[153458.07304195,170420.9873333]]},"geometry_name":"GEOM","properties":{"INSPIRE_ID":"https://databrussels.be/id/streetaxe/78235","TYPE":"S","HIERARCHY":"IDR","LVL":0,"STARTSN_ID":"https://databrussels.be/id/streetnode/7561","ENDSN_ID":"https://databrussels.be/id/streetnode/7563","STRNAMEFRE":"Avenue du Roi Chevalier","STRNAMEDUT":"Ridder Koninglaan","SLOPE":3.02,"LENGTH":65.8048435121185},"bbox":[153443.88154482,170420.9873333,153458.07304195,170481.85177075]},{"type":"Feature","id":"StreetAxes.fid-13d79f14_1a031586a2a_-5431","geometry":{"type":"LineString","coordinates":[[153441.86193287,170416.35936258],[153444.27982777,170401.55974255],[153449.57321412,170345.60523407]]},"geometry_name":"GEOM","properties":{"INSPIRE_ID":"https://databrussels.be/id/streetaxe/78302","TYPE":"S","HIERARCHY":"IDR","LVL":0,"STARTSN_ID":"https://databrussels.be/id/streetnode/7562","ENDSN_ID":"https://databrussels.be/id/streetnode/7557","STRNAMEFRE":"Avenue du Roi Chevalier","STRNAMEDUT":"Ridder Koninglaan","SLOPE":5.14,"LENGTH":71.200163920555},"bbox":[153441.86193287,170345.60523407,153449.57321412,170416.35936258]},{"type":"Feature","id":"StreetAxes.fid-13d79f14_1a031586a2a_-542a","geometry":{"type":"LineString","coordinates":[[153458.07304195,170420.9873333],[153459.34033604,170403.29481027],[153464.03016707,170352.09966236]]},"geometry_name":"GEOM","properties":{"INSPIRE_ID":"https://databrussels.be/id/streetaxe/78303","TYPE":"S","HIERARCHY":"IDR","LVL":0,"STARTSN_ID":"https://databrussels.be/id/streetnode/7563","ENDSN_ID":"https://databrussels.be/id/streetnode/7556","STRNAMEFRE":"Avenue du Roi Chevalier","STRNAMEDUT":"Ridder Koninglaan","SLOPE":4.79,"LENGTH":69.1473620007402},"bbox":[153458.07304195,170352.09966236,153464.03016707,170420.9873333]},{"type":"Feature","id":"StreetAxes.fid-13d79f14_1a031586a2a_-541c","geometry":{"type":"LineString","coordinates":[[153224.74605605,170070.55920114],[153173.26478397,170006.52230164],[153164.20001515,169994.52878435]]},"geometry_name":"GEOM","properties":{"INSPIRE_ID":"https://databrussels.be/id/streetaxe/78469","TYPE":"S","HIERARCHY":"MAR","LVL":0,"STARTSN_ID":"https://databrussels.be/id/streetnode/7383","ENDSN_ID":"https://databrussels.be/id/streetnode/7406","STRNAMEFRE":"Avenue de Broqueville","STRNAMEDUT":"de Broquevillelaan","SLOPE":2.51,"LENGTH":97.1985266816983},"bbox":[153164.20001515,169994.52878435,153224.74605605,170070.55920114]},{"type":"Feature","id":"StreetAxes.fid-13d79f14_1a031586a2a_-5437","geometry":{"type":"LineString","coordinates":[[153454.78380088,170232.97287536],[153447.16988702,170230.54989728],[153430.78161663,170225.3346531],[153409.39366655,170217.11928124]]},"geometry_name":"GEOM","properties":{"INSPIRE_ID":"https://databrussels.be/id/streetaxe/78481","TYPE":"S","HIERARCHY":"MAR","LVL":0,"STARTSN_ID":"https://databrussels.be/id/streetnode/7379","ENDSN_ID":"https://databrussels.be/id/streetnode/7105","STRNAMEFRE":"Avenue de Broqueville","STRNAMEDUT":"de Broquevillelaan","SLOPE":1.93,"LENGTH":48.0997351506001},"bbox":[153409.39366655,170217.11928124,153454.78380088,170232.97287536]},{"type":"Feature","id":"StreetAxes.fid-13d79f14_1a031586a2a_-5436","geometry":{"type":"LineString","coordinates":[[153457.91758044,170220.37582626],[153449.67890305,170218.33759189],[153440.88094824,170215.58422753],[153423.6243512,170209.69943443],[153413.72731203,170205.83704172]]},"geometry_name":"GEOM","properties":{"INSPIRE_ID":"https://databrussels.be/id/streetaxe/78482","TYPE":"S","HIERARCHY":"MAR","LVL":0,"STARTSN_ID":"https://databrussels.be/id/streetnode/7381","ENDSN_ID":"https://databrussels.be/id/streetnode/7403","STRNAMEFRE":"Avenue de Broqueville","STRNAMEDUT":"de Broquevillelaan","SLOPE":1.48,"LENGTH":46.5622115841997},"bbox":[153413.72731203,170205.83704172,153457.91758044,170220.37582626]},{"type":"Feature","id":"StreetAxes.fid-13d79f14_1a031586a2a_-5418","geometry":{"type":"LineString","coordinates":[[153224.74605605,170070.55920114],[153234.54632858,170062.87598788]]},"geometry_name":"GEOM","properties":{"INSPIRE_ID":"https://databrussels.be/id/streetaxe/78533","TYPE":"S","HIERARCHY":"MAR","LVL":0,"STARTSN_ID":"https://databrussels.be/id/streetnode/7383","ENDSN_ID":"https://databrussels.be/id/streetnode/7401","STRNAMEFRE":"Avenue de Broqueville","STRNAMEDUT":"de Broquevillelaan","SLOPE":0.08,"LENGTH":12.4529959363151},"bbox":[153224.74605605,170062.87598788,153234.54632858,170070.55920114]},{"type":"Feature","id":"StreetAxes.fid-13d79f14_1a031586a2a_-5448","geometry":{"type":"LineString","coordinates":[[153571.097,170464.468],[153568.53,170458.554],[153558.778,170454.97],[153478.7115,170429.103],[153458.07304195,170420.9873333]]},"geometry_name":"GEOM","properties":{"INSPIRE_ID":"https://databrussels.be/id/streetaxe/78583","TYPE":"S","HIERARCHY":"DR","LVL":0,"STARTSN_ID":"https://databrussels.be/id/streetnode/4169","ENDSN_ID":"https://databrussels.be/id/streetnode/7563","STRNAMEFRE":"Rue du Menuisier","STRNAMEDUT":"Schrijnwerkerstraat","SLOPE":3.92,"LENGTH":123.154833621282},"bbox":[153458.07304195,170420.9873333,153571.097,170464.468]},{"type":"Feature","id":"StreetAxes.fid-13d79f14_1a031586a2a_-5451","geometry":{"type":"LineString","coordinates":[[153545.881,170389.077],[153535.446,170384.347],[153477.374,170358.094],[153464.03016707,170352.09966236]]},"geometry_name":"GEOM","properties":{"INSPIRE_ID":"https://databrussels.be/id/streetaxe/78584","TYPE":"S","HIERARCHY":"DR","LVL":0,"STARTSN_ID":"https://databrussels.be/id/streetnode/1925","ENDSN_ID":"https://databrussels.be/id/streetnode/7556","STRNAMEFRE":"Rue de la Roche Fatale","STRNAMEDUT":"Noodlottige Rotsstraat","SLOPE":3.53,"LENGTH":89.8158685282853},"bbox":[153464.03016707,170352.09966236,153545.881,170389.077]},{"type":"Feature","id":"StreetAxes.fid-13d79f14_1a031586a2a_-544b","geometry":{"type":"LineString","coordinates":[[153441.14063657,170523.59195585],[153442.76029519,170493.24426167],[153443.88154482,170481.85177075]]},"geometry_name":"GEOM","properties":{"INSPIRE_ID":"https://databrussels.be/id/streetaxe/79558","TYPE":"S","HIERARCHY":"IDR","LVL":0,"STARTSN_ID":"https://databrussels.be/id/streetnode/6821","ENDSN_ID":"https://databrussels.be/id/streetnode/7561","STRNAMEFRE":"Square de Meudon","STRNAMEDUT":"Meudonsquare","SLOPE":2.49,"LENGTH":41.838418773779},"bbox":[153441.14063657,170481.85177075,153443.88154482,170523.59195585]},{"type":"Feature","id":"StreetAxes.fid-13d79f14_1a031586a2a_-5460","geometry":{"type":"LineString","coordinates":[[153038.43300168,170332.72070602],[153043.50447506,170336.39900476],[153047.09827258,170339.93276271],[153049.42141449,170343.49109627],[153050.11022065,170345.19376317],[153051.57377681,170349.25513152],[153051.88438519,170350.71426854],[153052.21820473,170354.14426438],[153051.94229041,170357.32539425],[153050.96560191,170361.60196234],[153048.62713464,170367.72590032]]},"geometry_name":"GEOM","properties":{"INSPIRE_ID":"https://databrussels.be/id/streetaxe/80244","TYPE":"S","HIERARCHY":"DR","LVL":0,"STARTSN_ID":"https://databrussels.be/id/streetnode/11089","ENDSN_ID":"https://databrussels.be/id/streetnode/11090","STRNAMEFRE":"Place Jean-Baptiste Degrooff","STRNAMEDUT":"Jean-Baptiste Degrooffplein","SLOPE":1.99,"LENGTH":40.7813950721248},"bbox":[153038.43300168,170332.72070602,153052.21820473,170367.72590032]},{"type":"Feature","id":"StreetAxes.fid-13d79f14_1a031586a2a_-5464","geometry":{"type":"LineString","coordinates":[[153038.43300168,170332.72070602],[153032.01574738,170332.59383123],[153027.01624208,170332.90826553],[153022.66134665,170334.28262417],[153018.3938719,170336.19024294],[153014.65388321,170339.25251555],[153013.11800052,170340.75828289],[153011.30058791,170343.31330648],[153009.98334788,170346.24050655],[153007.74086817,170352.11267435]]},"geometry_name":"GEOM","properties":{"INSPIRE_ID":"https://databrussels.be/id/streetaxe/81522","TYPE":"S","HIERARCHY":"DR","LVL":0,"STARTSN_ID":"https://databrussels.be/id/streetnode/11089","ENDSN_ID":"https://databrussels.be/id/streetnode/11091","STRNAMEFRE":"Place Jean-Baptiste Degrooff","STRNAMEDUT":"Jean-Baptiste Degrooffplein","SLOPE":0.15,"LENGTH":40.2847309377186},"bbox":[153007.74086817,170332.59383123,153038.43300168,170352.11267435]},{"type":"Feature","id":"StreetAxes.fid-13d79f14_1a031586a2a_-5461","geometry":{"type":"LineString","coordinates":[[153038.43300168,170332.72070602],[153039.445,170330.075],[153071.73,170246.585],[153074.316,170236.453]]},"geometry_name":"GEOM","properties":{"INSPIRE_ID":"https://databrussels.be/id/streetaxe/81523","TYPE":"S","HIERARCHY":"DR","LVL":0,"STARTSN_ID":"https://databrussels.be/id/streetnode/11089","ENDSN_ID":"https://databrussels.be/id/streetnode/4384","STRNAMEFRE":"Rue Abbé de l'Epée","STRNAMEDUT":"Priester de l'Epéestraat","SLOPE":1.22,"LENGTH":102.804267103157},"bbox":[153038.43300168,170236.453,153074.316,170332.72070602]},{"type":"Feature","id":"StreetAxes.fid-13d79f14_1a031586a2a_-5463","geometry":{"type":"LineString","coordinates":[[153048.62713464,170367.72590032],[153007.74086817,170352.11267435]]},"geometry_name":"GEOM","properties":{"INSPIRE_ID":"https://databrussels.be/id/streetaxe/81524","TYPE":"S","HIERARCHY":"IDR","LVL":0,"STARTSN_ID":"https://databrussels.be/id/streetnode/11090","ENDSN_ID":"https://databrussels.be/id/streetnode/11091","STRNAMEFRE":"Avenue Georges Henri","STRNAMEDUT":"Georges Henrilaan","SLOPE":1.71,"LENGTH":43.7659640719986},"bbox":[153007.74086817,170352.11267435,153048.62713464,170367.72590032]},{"type":"Feature","id":"StreetAxes.fid-13d79f14_1a031586a2a_-5467","geometry":{"type":"LineString","coordinates":[[153007.74086817,170352.11267435],[153002.151,170349.978],[152942.742,170327.396],[152935.74,170324.773]]},"geometry_name":"GEOM","properties":{"INSPIRE_ID":"https://databrussels.be/id/streetaxe/81525","TYPE":"S","HIERARCHY":"IDR","LVL":0,"STARTSN_ID":"https://databrussels.be/id/streetnode/11091","ENDSN_ID":"https://databrussels.be/id/streetnode/4659","STRNAMEFRE":"Avenue Georges Henri","STRNAMEDUT":"Georges Henrilaan","SLOPE":3.23,"LENGTH":77.0168589530063},"bbox":[152935.74,170324.773,153007.74086817,170352.11267435]},{"type":"Feature","id":"StreetAxes.fid-13d79f14_1a031586a2a_-5424","geometry":{"type":"LineString","coordinates":[[153412.36448516,170003.86636963],[153404.095,170003.25],[153330.64,169997.775],[153290.335,169996.205],[153216.387,169995.385],[153211.23444587,169995.30047107]]},"geometry_name":"GEOM","properties":{"INSPIRE_ID":"https://databrussels.be/id/streetaxe/83219","TYPE":"S","HIERARCHY":"DR","LVL":0,"STARTSN_ID":"https://databrussels.be/id/streetnode/13682","ENDSN_ID":"https://databrussels.be/id/streetnode/6226","STRNAMEFRE":"Avenue A.J. Slegers","STRNAMEDUT":"A.J. Slegerslaan","SLOPE":1.22,"LENGTH":201.392542404705},"bbox":[153211.23444587,169995.30047107,153412.36448516,170003.86636963]},{"type":"Feature","id":"StreetAxes.fid-13d79f14_1a031586a2a_-5426","geometry":{"type":"LineString","coordinates":[[153427.78885904,170528.89953877],[153423.34559479,170526.65364149],[153382.41889192,170495.7523236],[153365.1,170488.932],[153280.47,170456.475],[153270.155,170452.562]]},"geometry_name":"GEOM","properties":{"INSPIRE_ID":"https://databrussels.be/id/streetaxe/83649","TYPE":"S","HIERARCHY":"IDR","LVL":0,"STARTSN_ID":"https://databrussels.be/id/streetnode/7597","ENDSN_ID":"https://databrussels.be/id/streetnode/2622","STRNAMEFRE":"Avenue Georges Henri","STRNAMEDUT":"Georges Henrilaan","SLOPE":1.54,"LENGTH":176.547222084629},"bbox":[153270.155,170452.562,153427.78885904,170528.89953877]},{"type":"Feature","id":"StreetAxes.fid-13d79f14_1a031586a2a_-541a","geometry":{"type":"LineString","coordinates":[[153198.83458442,170018.03420263],[153199.91437501,170010.72847051],[153200.95627303,170006.11581059],[153202.71599181,170003.04918741],[153204.72051017,170001.10770259],[153211.23444587,169995.30047107]]},"geometry_name":"GEOM","properties":{"INSPIRE_ID":"https://databrussels.be/id/streetaxe/84401","TYPE":"S","HIERARCHY":"DR","LVL":0,"STARTSN_ID":"https://databrussels.be/id/streetnode/7380","ENDSN_ID":"https://databrussels.be/id/streetnode/6226","STRNAMEFRE":"Avenue A.J. Slegers","STRNAMEDUT":"A.J. Slegerslaan","SLOPE":1.03,"LENGTH":27.1669118908232},"bbox":[153198.83458442,169995.30047107,153211.23444587,170018.03420263]},{"type":"Feature","id":"StreetAxes.fid-13d79f14_1a031586a2a_-541b","geometry":{"type":"LineString","coordinates":[[153180.32574558,169994.79340618],[153198.83458442,170018.03420263]]},"geometry_name":"GEOM","properties":{"INSPIRE_ID":"https://databrussels.be/id/streetaxe/84404","TYPE":"S","HIERARCHY":"MAR","LVL":0,"STARTSN_ID":"https://databrussels.be/id/streetnode/7411","ENDSN_ID":"https://databrussels.be/id/streetnode/7380","STRNAMEFRE":"Avenue de Broqueville","STRNAMEDUT":"de Broquevillelaan","SLOPE":2.49,"LENGTH":29.7104650705039},"bbox":[153180.32574558,169994.79340618,153198.83458442,170018.03420263]},{"type":"Feature","id":"StreetAxes.fid-13d79f14_1a031586a2a_-5455","geometry":{"type":"LineString","coordinates":[[153481.54017888,170224.87478838],[153486.68541246,170225.76637482],[153563.25016413,170239.03381803]]},"geometry_name":"GEOM","properties":{"INSPIRE_ID":"https://databrussels.be/id/streetaxe/86058","TYPE":"S","HIERARCHY":"MAR","LVL":0,"STARTSN_ID":"https://databrussels.be/id/streetnode/7382","ENDSN_ID":"https://databrussels.be/id/streetnode/6126","STRNAMEFRE":"Avenue de Broqueville","STRNAMEDUT":"de Broquevillelaan","SLOPE":2.21,"LENGTH":82.9276781880354},"bbox":[153481.54017888,170224.87478838,153563.25016413,170239.03381803]},{"type":"Feature","id":"StreetAxes.fid-13d79f14_1a031586a2a_-5454","geometry":{"type":"LineString","coordinates":[[153479.72535651,170236.97382348],[153561.28915615,170251.57045032]]},"geometry_name":"GEOM","properties":{"INSPIRE_ID":"https://databrussels.be/id/streetaxe/86059","TYPE":"S","HIERARCHY":"MAR","LVL":0,"STARTSN_ID":"https://databrussels.be/id/streetnode/7405","ENDSN_ID":"https://databrussels.be/id/streetnode/6131","STRNAMEFRE":"Avenue de Broqueville","STRNAMEDUT":"de Broquevillelaan","SLOPE":2.03,"LENGTH":82.8596097438975},"bbox":[153479.72535651,170236.97382348,153561.28915615,170251.57045032]},{"type":"Feature","id":"StreetAxes.fid-13d79f14_1a031586a2a_-5430","geometry":{"type":"LineString","coordinates":[[153449.57321412,170345.60523407],[153449.32858801,170332.44062324],[153459.82762151,170248.90361551],[153460.81262126,170241.06632919]]},"geometry_name":"GEOM","properties":{"INSPIRE_ID":"https://databrussels.be/id/streetaxe/86155","TYPE":"S","HIERARCHY":"IDR","LVL":0,"STARTSN_ID":"https://databrussels.be/id/streetnode/7557","ENDSN_ID":"https://databrussels.be/id/streetnode/7107","STRNAMEFRE":"Avenue du Roi Chevalier","STRNAMEDUT":"Ridder Koninglaan","SLOPE":2.71,"LENGTH":105.260013677164},"bbox":[153449.32858801,170241.06632919,153460.81262126,170345.60523407]},{"type":"Feature","id":"StreetAxes.fid-13d79f14_1a031586a2a_-543e","geometry":{"type":"LineString","coordinates":[[153449.57321412,170345.60523407],[153436.261,170339.625],[153395.58,170321.83],[153366.885,170311.658],[153337.24168815,170301.76852985],[153327.66301195,170299.49316931]]},"geometry_name":"GEOM","properties":{"INSPIRE_ID":"https://databrussels.be/id/streetaxe/86156","TYPE":"S","HIERARCHY":"DR","LVL":0,"STARTSN_ID":"https://databrussels.be/id/streetnode/7557","ENDSN_ID":"https://databrussels.be/id/streetnode/3244","STRNAMEFRE":"Avenue du Couronnement","STRNAMEDUT":"Kroninglaan","SLOPE":0.61,"LENGTH":130.535782713195},"bbox":[153327.66301195,170299.49316931,153449.57321412,170345.60523407]},{"type":"Feature","id":"StreetAxes.fid-13d79f14_1a031586a2a_-5425","geometry":{"type":"LineString","coordinates":[[153431.69298172,170413.45631579],[153427.77016511,170417.13855213],[153423.67913485,170420.97868583],[153422.01206245,170422.98730591],[153421.35570633,170424.89029407],[153421.27055865,170427.13347214],[153425.21638611,170461.29240013],[153426.40425436,170464.13792429],[153428.78838948,170466.37400369],[153435.76398196,170468.15263168]]},"geometry_name":"GEOM","properties":{"INSPIRE_ID":"https://databrussels.be/id/streetaxe/86157","TYPE":"S","HIERARCHY":"IDR","LVL":0,"STARTSN_ID":"https://databrussels.be/id/streetnode/7558","ENDSN_ID":"https://databrussels.be/id/streetnode/7559","STRNAMEFRE":"Avenue du Roi Chevalier","STRNAMEDUT":"Ridder Koninglaan","SLOPE":1.63,"LENGTH":65.7963791134211},"bbox":[153421.27055865,170413.45631579,153435.76398196,170468.15263168]},{"type":"Feature","id":"StreetAxes.fid-13d79f14_1a031586a2a_-544c","geometry":{"type":"LineString","coordinates":[[153435.76398196,170468.15263168],[153436.5148632,170461.89521105],[153440.18365131,170426.63190568],[153441.86193287,170416.35936258]]},"geometry_name":"GEOM","properties":{"INSPIRE_ID":"https://databrussels.be/id/streetaxe/86158","TYPE":"S","HIERARCHY":"IDR","LVL":0,"STARTSN_ID":"https://databrussels.be/id/streetnode/7559","ENDSN_ID":"https://databrussels.be/id/streetnode/7562","STRNAMEFRE":"Avenue du Roi Chevalier","STRNAMEDUT":"Ridder Koninglaan","SLOPE":3.03,"LENGTH":52.1646889566663},"bbox":[153435.76398196,170416.35936258,153441.86193287,170468.15263168]},{"type":"Feature","id":"StreetAxes.fid-13d79f14_1a031586a2a_-543f","geometry":{"type":"LineString","coordinates":[[153419.28824605,170409.4336872],[153407.60856283,170399.32854845],[153379.53137362,170375.40090679],[153371.91090943,170370.81567639],[153344.855,170347.475],[153327.48149501,170314.60016093],[153325.1341974,170310.15851079],[153327.66301195,170299.49316931]]},"geometry_name":"GEOM","properties":{"INSPIRE_ID":"https://databrussels.be/id/streetaxe/86159","TYPE":"S","HIERARCHY":null,"LVL":0,"STARTSN_ID":"https://databrussels.be/id/streetnode/7560","ENDSN_ID":"https://databrussels.be/id/streetnode/3244","STRNAMEFRE":"Rue Lieutenant Freddy Wampach","STRNAMEDUT":"Luitenant Freddy Wampachstraat","SLOPE":2.54,"LENGTH":150.128310744817},"bbox":[153325.1341974,170299.49316931,153419.28824605,170409.4336872]},{"type":"Feature","id":"StreetAxes.fid-13d79f14_1a031586a2a_-5427","geometry":{"type":"LineString","coordinates":[[153419.28824605,170409.4336872],[153416.16540389,170410.80714527],[153403.3629669,170413.93331764],[153280.481,170441.77],[153269.215,170444.275],[153270.155,170452.562]]},"geometry_name":"GEOM","properties":{"INSPIRE_ID":"https://databrussels.be/id/streetaxe/86160","TYPE":"S","HIERARCHY":"DR","LVL":0,"STARTSN_ID":"https://databrussels.be/id/streetnode/7560","ENDSN_ID":"https://databrussels.be/id/streetnode/2622","STRNAMEFRE":"Rue du Menuisier","STRNAMEDUT":"Schrijnwerkerstraat","SLOPE":3.02,"LENGTH":162.466870448},"bbox":[153269.215,170409.4336872,153419.28824605,170452.562]},{"type":"Feature","id":"StreetAxes.fid-13d79f14_1a031586a2a_-5452","geometry":{"type":"LineString","coordinates":[[153464.03016707,170352.09966236],[153466.1657555,170343.62935319],[153473.19157889,170249.9637466],[153473.7764438,170242.1665499]]},"geometry_name":"GEOM","properties":{"INSPIRE_ID":"https://databrussels.be/id/streetaxe/86740","TYPE":"S","HIERARCHY":"IDR","LVL":0,"STARTSN_ID":"https://databrussels.be/id/streetnode/7556","ENDSN_ID":"https://databrussels.be/id/streetnode/7400","STRNAMEFRE":"Avenue du Roi Chevalier","STRNAMEDUT":"Ridder Koninglaan","SLOPE":2.52,"LENGTH":110.483221077826},"bbox":[153464.03016707,170242.1665499,153473.7764438,170352.09966236]},{"type":"Feature","id":"StreetAxes.fid-13d79f14_1a031586a2a_-5468","geometry":{"type":"LineString","coordinates":[[153012.523,170102.759],[153005.586,170100.103],[152905.348,170062.565],[152896.442,170059.267]]},"geometry_name":"GEOM","properties":{"INSPIRE_ID":"https://databrussels.be/id/streetaxe/87300","TYPE":"S","HIERARCHY":"DR","LVL":0,"STARTSN_ID":"https://databrussels.be/id/streetnode/1084","ENDSN_ID":"https://databrussels.be/id/streetnode/536","STRNAMEFRE":"Avenue du Castel","STRNAMEDUT":"Slotlaan","SLOPE":3.41,"LENGTH":123.961355286614},"bbox":[152896.442,170059.267,153012.523,170102.759]},{"type":"Feature","id":"StreetAxes.fid-13d79f14_1a031586a2a_-5434","geometry":{"type":"LineString","coordinates":[[153422.37811707,170012.46319555],[153424.15,170017.639],[153449.845,170096.835],[153452.845,170110.443]]},"geometry_name":"GEOM","properties":{"INSPIRE_ID":"https://databrussels.be/id/streetaxe/88877","TYPE":"S","HIERARCHY":"IDR","LVL":0,"STARTSN_ID":"https://databrussels.be/id/streetnode/13678","ENDSN_ID":"https://databrussels.be/id/streetnode/2989","STRNAMEFRE":"Avenue Louis Gribaumont","STRNAMEDUT":"Louis Gribaumontlaan","SLOPE":2,"LENGTH":102.665532248535},"bbox":[153422.37811707,170012.46319555,153452.845,170110.443]},{"type":"Feature","id":"StreetAxes.fid-13d79f14_1a031586a2a_-5446","geometry":{"type":"LineString","coordinates":[[153295.49003985,170131.21579741],[153284.83272123,170121.40125031],[153275.6581825,170112.20792756],[153268.31419486,170104.31421233],[153251.70507498,170084.76271487],[153234.54632858,170062.87598788]]},"geometry_name":"GEOM","properties":{"INSPIRE_ID":"https://databrussels.be/id/streetaxe/89459","TYPE":"S","HIERARCHY":"MAR","LVL":0,"STARTSN_ID":"https://databrussels.be/id/streetnode/7402","ENDSN_ID":"https://databrussels.be/id/streetnode/7401","STRNAMEFRE":"Avenue de Broqueville","STRNAMEDUT":"de Broquevillelaan","SLOPE":2.17,"LENGTH":91.722715152692},"bbox":[153234.54632858,170062.87598788,153295.49003985,170131.21579741]},{"type":"Feature","id":"StreetAxes.fid-13d79f14_1a031586a2a_-5429","geometry":{"type":"LineString","coordinates":[[153460.81262126,170241.06632919],[153463.74,170242.35],[153465.977,170242.917],[153468.277,170243.107],[153470.578,170242.917],[153473.7764438,170242.1665499]]},"geometry_name":"GEOM","properties":{"INSPIRE_ID":"https://databrussels.be/id/streetaxe/90155","TYPE":"I","HIERARCHY":"MAR","LVL":0,"STARTSN_ID":"https://databrussels.be/id/streetnode/7107","ENDSN_ID":"https://databrussels.be/id/streetnode/7400","STRNAMEFRE":"Avenue de Broqueville","STRNAMEDUT":"de Broquevillelaan","SLOPE":1.04,"LENGTH":13.406167720559},"bbox":[153460.81262126,170241.06632919,153473.7764438,170243.107]},{"type":"Feature","id":"StreetAxes.fid-13d79f14_1a031586a2a_-542c","geometry":{"type":"LineString","coordinates":[[153454.78380088,170232.97287536],[153456.579,170236.776],[153457.996,170238.597],[153460.81262126,170241.06632919]]},"geometry_name":"GEOM","properties":{"INSPIRE_ID":"https://databrussels.be/id/streetaxe/90156","TYPE":"I","HIERARCHY":"MAR","LVL":0,"STARTSN_ID":"https://databrussels.be/id/streetnode/7379","ENDSN_ID":"https://databrussels.be/id/streetnode/7107","STRNAMEFRE":"Avenue de Broqueville","STRNAMEDUT":"de Broquevillelaan","SLOPE":2.05,"LENGTH":10.258685903124},"bbox":[153454.78380088,170232.97287536,153460.81262126,170241.06632919]},{"type":"Feature","id":"StreetAxes.fid-13d79f14_1a031586a2a_-544e","geometry":{"type":"LineString","coordinates":[[153479.72535651,170236.97382348],[153481.54512794,170233.78786602],[153482.204,170230.287],[153482.204,170227.979],[153481.54017888,170224.87478838]]},"geometry_name":"GEOM","properties":{"INSPIRE_ID":"https://databrussels.be/id/streetaxe/90157","TYPE":"I","HIERARCHY":"MAR","LVL":0,"STARTSN_ID":"https://databrussels.be/id/streetnode/7405","ENDSN_ID":"https://databrussels.be/id/streetnode/7382","STRNAMEFRE":"Avenue de Broqueville","STRNAMEDUT":"de Broquevillelaan","SLOPE":0.55,"LENGTH":12.7137681954916},"bbox":[153479.72535651,170224.87478838,153482.204,170236.97382348]},{"type":"Feature","id":"StreetAxes.fid-13d79f14_1a031586a2a_-543d","geometry":{"type":"LineString","coordinates":[[153330.49914132,170174.11013727],[153337.02446603,170163.86843779]]},"geometry_name":"GEOM","properties":{"INSPIRE_ID":"https://databrussels.be/id/streetaxe/90158","TYPE":"I","HIERARCHY":"MAR","LVL":0,"STARTSN_ID":"https://databrussels.be/id/streetnode/7106","ENDSN_ID":"https://databrussels.be/id/streetnode/7404","STRNAMEFRE":"Avenue de Broqueville","STRNAMEDUT":"de Broquevillelaan","SLOPE":0.49,"LENGTH":12.1438161570576},"bbox":[153330.49914132,170163.86843779,153337.02446603,170174.11013727]},{"type":"Feature","id":"StreetAxes.fid-13d79f14_1a031586a2a_-5453","geometry":{"type":"LineString","coordinates":[[153473.7764438,170242.1665499],[153476.861,170240.161],[153478.3359289,170238.93255692],[153479.72535651,170236.97382348]]},"geometry_name":"GEOM","properties":{"INSPIRE_ID":"https://databrussels.be/id/streetaxe/90159","TYPE":"I","HIERARCHY":"MAR","LVL":0,"STARTSN_ID":"https://databrussels.be/id/streetnode/7400","ENDSN_ID":"https://databrussels.be/id/streetnode/7405","STRNAMEFRE":"Avenue de Broqueville","STRNAMEDUT":"de Broquevillelaan","SLOPE":1,"LENGTH":8.00021799236295},"bbox":[153473.7764438,170236.97382348,153479.72535651,170242.1665499]},{"type":"Feature","id":"StreetAxes.fid-13d79f14_1a031586a2a_-544f","geometry":{"type":"LineString","coordinates":[[153466.65146778,170215.02288913],[153470.76068926,170215.26123829],[153476.06822815,170217.36244306],[153478.559,170219.668],[153479.976,170221.49],[153481.075,170223.519],[153481.54017888,170224.87478838]]},"geometry_name":"GEOM","properties":{"INSPIRE_ID":"https://databrussels.be/id/streetaxe/90160","TYPE":"I","HIERARCHY":"MAR","LVL":0,"STARTSN_ID":"https://databrussels.be/id/streetnode/7414","ENDSN_ID":"https://databrussels.be/id/streetnode/7382","STRNAMEFRE":"Avenue de Broqueville","STRNAMEDUT":"de Broquevillelaan","SLOPE":2.18,"LENGTH":19.267546078353},"bbox":[153466.65146778,170215.02288913,153481.54017888,170224.87478838]},{"type":"Feature","id":"StreetAxes.fid-13d79f14_1a031586a2a_-542d","geometry":{"type":"LineString","coordinates":[[153454.78380088,170232.97287536],[153454.33428212,170229.48341317],[153454.55877643,170226.00200366],[153456.06561834,170222.04401248],[153457.91758044,170220.37582626]]},"geometry_name":"GEOM","properties":{"INSPIRE_ID":"https://databrussels.be/id/streetaxe/90161","TYPE":"I","HIERARCHY":"MAR","LVL":0,"STARTSN_ID":"https://databrussels.be/id/streetnode/7379","ENDSN_ID":"https://databrussels.be/id/streetnode/7381","STRNAMEFRE":"Avenue de Broqueville","STRNAMEDUT":"de Broquevillelaan","SLOPE":1.31,"LENGTH":13.7345706233879},"bbox":[153454.33428212,170220.37582626,153457.91758044,170232.97287536]},{"type":"Feature","id":"StreetAxes.fid-13d79f14_1a031586a2a_-542b","geometry":{"type":"LineString","coordinates":[[153466.65146778,170215.02288913],[153462.03338738,170216.83973703],[153457.91758044,170220.37582626]]},"geometry_name":"GEOM","properties":{"INSPIRE_ID":"https://databrussels.be/id/streetaxe/90162","TYPE":"I","HIERARCHY":"MAR","LVL":0,"STARTSN_ID":"https://databrussels.be/id/streetnode/7414","ENDSN_ID":"https://databrussels.be/id/streetnode/7381","STRNAMEFRE":"Avenue de Broqueville","STRNAMEDUT":"de Broquevillelaan","SLOPE":1.15,"LENGTH":10.3888341421083},"bbox":[153457.91758044,170215.02288913,153466.65146778,170220.37582626]},{"type":"Feature","id":"StreetAxes.fid-13d79f14_1a031586a2a_-5443","geometry":{"type":"LineString","coordinates":[[153283.67245105,170137.05893451],[153295.49003985,170131.21579741]]},"geometry_name":"GEOM","properties":{"INSPIRE_ID":"https://databrussels.be/id/streetaxe/90163","TYPE":"I","HIERARCHY":"MAR","LVL":0,"STARTSN_ID":"https://databrussels.be/id/streetnode/7378","ENDSN_ID":"https://databrussels.be/id/streetnode/7402","STRNAMEFRE":"Avenue de Broqueville","STRNAMEDUT":"de Broquevillelaan","SLOPE":0.23,"LENGTH":13.1832339013275},"bbox":[153283.67245105,170131.21579741,153295.49003985,170137.05893451]},{"type":"Feature","id":"StreetAxes.fid-13d79f14_1a031586a2a_-5435","geometry":{"type":"LineString","coordinates":[[153419.28824605,170409.4336872],[153421.40382365,170410.51895216],[153431.69298172,170413.45631579]]},"geometry_name":"GEOM","properties":{"INSPIRE_ID":"https://databrussels.be/id/streetaxe/90930","TYPE":"I","HIERARCHY":"DR","LVL":0,"STARTSN_ID":"https://databrussels.be/id/streetnode/7560","ENDSN_ID":"https://databrussels.be/id/streetnode/7558","STRNAMEFRE":"Avenue du Roi Chevalier","STRNAMEDUT":"Ridder Koninglaan","SLOPE":3.29,"LENGTH":13.0779303628146},"bbox":[153419.28824605,170409.4336872,153431.69298172,170413.45631579]},{"type":"Feature","id":"StreetAxes.fid-13d79f14_1a031586a2a_-544d","geometry":{"type":"LineString","coordinates":[[153443.88154482,170481.85177075],[153437.6987397,170477.73275467],[153435.07468144,170473.89687339],[153435.76398196,170468.15263168]]},"geometry_name":"GEOM","properties":{"INSPIRE_ID":"https://databrussels.be/id/streetaxe/90931","TYPE":"I","HIERARCHY":"IDR","LVL":0,"STARTSN_ID":"https://databrussels.be/id/streetnode/7561","ENDSN_ID":"https://databrussels.be/id/streetnode/7559","STRNAMEFRE":"Avenue du Roi Chevalier","STRNAMEDUT":"Ridder Koninglaan","SLOPE":0.06,"LENGTH":17.8622198275672},"bbox":[153435.07468144,170468.15263168,153443.88154482,170481.85177075]},{"type":"Feature","id":"StreetAxes.fid-13d79f14_1a031586a2a_-5432","geometry":{"type":"LineString","coordinates":[[153441.86193287,170416.35936258],[153458.07304195,170420.9873333]]},"geometry_name":"GEOM","properties":{"INSPIRE_ID":"https://databrussels.be/id/streetaxe/90932","TYPE":"I","HIERARCHY":"IDR","LVL":0,"STARTSN_ID":"https://databrussels.be/id/streetnode/7562","ENDSN_ID":"https://databrussels.be/id/streetnode/7563","STRNAMEFRE":"Avenue du Roi Chevalier","STRNAMEDUT":"Ridder Koninglaan","SLOPE":2.49,"LENGTH":16.8587713155101},"bbox":[153441.86193287,170416.35936258,153458.07304195,170420.9873333]},{"type":"Feature","id":"StreetAxes.fid-13d79f14_1a031586a2a_-542f","geometry":{"type":"LineString","coordinates":[[153449.57321412,170345.60523407],[153464.03016707,170352.09966236]]},"geometry_name":"GEOM","properties":{"INSPIRE_ID":"https://databrussels.be/id/streetaxe/90933","TYPE":"I","HIERARCHY":"IDR","LVL":0,"STARTSN_ID":"https://databrussels.be/id/streetnode/7557","ENDSN_ID":"https://databrussels.be/id/streetnode/7556","STRNAMEFRE":"Avenue du Roi Chevalier","STRNAMEDUT":"Ridder Koninglaan","SLOPE":0.44,"LENGTH":15.8486935581253},"bbox":[153449.57321412,170345.60523407,153464.03016707,170352.09966236]},{"type":"Feature","id":"StreetAxes.fid-13d79f14_1a031586a2a_-5433","geometry":{"type":"LineString","coordinates":[[153431.69298172,170413.45631579],[153441.86193287,170416.35936258]]},"geometry_name":"GEOM","properties":{"INSPIRE_ID":"https://databrussels.be/id/streetaxe/90934","TYPE":"I","HIERARCHY":"IDR","LVL":0,"STARTSN_ID":"https://databrussels.be/id/streetnode/7558","ENDSN_ID":"https://databrussels.be/id/streetnode/7562","STRNAMEFRE":"Avenue du Roi Chevalier","STRNAMEDUT":"Ridder Koninglaan","SLOPE":4.82,"LENGTH":10.5752185905449},"bbox":[153431.69298172,170413.45631579,153441.86193287,170416.35936258]},{"type":"Feature","id":"StreetAxes.fid-13d79f14_1a031586a2a_-5420","geometry":{"type":"LineString","coordinates":[[153427.84613868,170005.36812527],[153427.3602781,170007.8927309],[153425.45310273,170010.68785175],[153422.37811707,170012.46319555]]},"geometry_name":"GEOM","properties":{"INSPIRE_ID":"https://databrussels.be/id/streetaxe/91968","TYPE":"I","HIERARCHY":"IDR","LVL":0,"STARTSN_ID":"https://databrussels.be/id/streetnode/13684","ENDSN_ID":"https://databrussels.be/id/streetnode/13678","STRNAMEFRE":"Avenue A.J. Slegers","STRNAMEDUT":"A.J. Slegerslaan","SLOPE":0.21,"LENGTH":9.50540772838017},"bbox":[153422.37811707,170005.36812527,153427.84613868,170012.46319555]},{"type":"Feature","id":"StreetAxes.fid-13d79f14_1a031586a2a_-5421","geometry":{"type":"LineString","coordinates":[[153417.83675657,169997.49996461],[153419.00388371,169997.09565991],[153422.37811707,169997.3497618],[153425.45310273,169999.1251056],[153427.3602781,170001.92022645],[153427.84613868,170005.36812527]]},"geometry_name":"GEOM","properties":{"INSPIRE_ID":"https://databrussels.be/id/streetaxe/91969","TYPE":"I","HIERARCHY":"IDR","LVL":0,"STARTSN_ID":"https://databrussels.be/id/streetnode/13680","ENDSN_ID":"https://databrussels.be/id/streetnode/13684","STRNAMEFRE":"Avenue A.J. Slegers","STRNAMEDUT":"A.J. Slegerslaan","SLOPE":3.28,"LENGTH":15.0353971161159},"bbox":[153417.83675657,169997.09565991,153427.84613868,170005.36812527]},{"type":"Feature","id":"StreetAxes.fid-13d79f14_1a031586a2a_-5422","geometry":{"type":"LineString","coordinates":[[153412.36448516,170003.86636963],[153413.83154314,170000.08191213],[153416.13036117,169998.09107731],[153417.83675657,169997.49996461]]},"geometry_name":"GEOM","properties":{"INSPIRE_ID":"https://databrussels.be/id/streetaxe/91970","TYPE":"I","HIERARCHY":"IDR","LVL":0,"STARTSN_ID":"https://databrussels.be/id/streetnode/13682","ENDSN_ID":"https://databrussels.be/id/streetnode/13680","STRNAMEFRE":"Avenue A.J. Slegers","STRNAMEDUT":"A.J. Slegerslaan","SLOPE":7.9,"LENGTH":8.90579364348466},"bbox":[153412.36448516,169997.49996461,153417.83675657,170003.86636963]},{"type":"Feature","id":"StreetAxes.fid-13d79f14_1a031586a2a_-5423","geometry":{"type":"LineString","coordinates":[[153422.37811707,170012.46319555],[153419.00388371,170012.71729745],[153416.13036117,170011.72188004],[153413.83154314,170009.73104523],[153412.36448516,170006.68182247],[153412.36448516,170003.86636963]]},"geometry_name":"GEOM","properties":{"INSPIRE_ID":"https://databrussels.be/id/streetaxe/91971","TYPE":"I","HIERARCHY":"IDR","LVL":0,"STARTSN_ID":"https://databrussels.be/id/streetnode/13678","ENDSN_ID":"https://databrussels.be/id/streetnode/13682","STRNAMEFRE":"Avenue A.J. Slegers","STRNAMEDUT":"A.J. Slegerslaan","SLOPE":1.47,"LENGTH":15.665128861293},"bbox":[153412.36448516,170003.86636963,153422.37811707,170012.71729745]},{"type":"Feature","id":"StreetAxes.fid-13d79f14_1a031586a2a_-5450","geometry":{"type":"LineString","coordinates":[[153610.01732245,170124.03343042],[153598.88331661,170124.39624427],[153469.353,170112.016],[153452.845,170110.443]]},"geometry_name":"GEOM","properties":{"INSPIRE_ID":"https://databrussels.be/id/streetaxe/93190","TYPE":"S","HIERARCHY":"DR","LVL":0,"STARTSN_ID":"https://databrussels.be/id/streetnode/1790","ENDSN_ID":"https://databrussels.be/id/streetnode/2989","STRNAMEFRE":"Avenue Victor Gilsoul","STRNAMEDUT":"Victor Gilsoullaan","SLOPE":2.08,"LENGTH":157.843300456493},"bbox":[153452.845,170110.443,153610.01732245,170124.39624427]}],"numberReturned":82,"grand_bruxelles_source":{"authority":"Paradigm / Brussels-Capital Region","service":"https://geoservices-urbis.irisnet.be/geoserver/urbisvector/wfs","layer":"urbisvector:StreetAxes","crs":"EPSG:31370","bbox":[153000.0,170000.0,153500.0,170500.0],"cell_id":"bxl-e153000-n170000-s500","ownership":"bbox_intersection_source_unclipped"}}
