{"type":"FeatureCollection","totalFeatures":90,"numberMatched":90,"timeStamp":"2026-08-24T00:40:43.173Z","crs":{"type":"name","properties":{"name":"urn:ogc:def:crs:EPSG::31370"}},"bbox":[152412.68226999,170441.414,153172.959,171214.64083338],"features":[{"type":"Feature","id":"StreetAxes.fid--1290087_1a03126d94f_-490d","geometry":{"type":"LineString","coordinates":[[152516.55770492,170606.93230336],[152484.16436034,170696.0303108],[152482.15337453,170702.03285377]]},"geometry_name":"GEOM","properties":{"INSPIRE_ID":"https://databrussels.be/id/streetaxe/100374","TYPE":"S","HIERARCHY":"DR","LVL":0,"STARTSN_ID":"https://databrussels.be/id/streetnode/","ENDSN_ID":"https://databrussels.be/id/streetnode/","STRNAMEFRE":"Boulevard Auguste Reyers","STRNAMEDUT":"Auguste Reyerslaan","SLOPE":null,"LENGTH":101.13437151155},"bbox":[152482.15337453,170606.93230336,152516.55770492,170702.03285377]},{"type":"Feature","id":"StreetAxes.fid--1290087_1a03126d94f_-490e","geometry":{"type":"LineString","coordinates":[[152507.96598013,170600.92378531],[152470.79212481,170697.88724185]]},"geometry_name":"GEOM","properties":{"INSPIRE_ID":"https://databrussels.be/id/streetaxe/100376","TYPE":"S","HIERARCHY":"DR","LVL":0,"STARTSN_ID":"https://databrussels.be/id/streetnode/","ENDSN_ID":"https://databrussels.be/id/streetnode/","STRNAMEFRE":"Boulevard Auguste Reyers","STRNAMEDUT":"Auguste Reyerslaan","SLOPE":null,"LENGTH":103.845112667424},"bbox":[152470.79212481,170600.92378531,152507.96598013,170697.88724185]},{"type":"Feature","id":"StreetAxes.fid--1290087_1a03126d94f_-48fe","geometry":{"type":"LineString","coordinates":[[152847.061,170579.765],[152841.095,170577.095],[152730.57,170526.875],[152723.705,170523.722]]},"geometry_name":"GEOM","properties":{"INSPIRE_ID":"https://databrussels.be/id/streetaxe/70158","TYPE":"S","HIERARCHY":"DR","LVL":0,"STARTSN_ID":"https://databrussels.be/id/streetnode/3718","ENDSN_ID":"https://databrussels.be/id/streetnode/1380","STRNAMEFRE":"Avenue Lambeau","STRNAMEDUT":"Lambeaulaan","SLOPE":1.2,"LENGTH":135.490095756772},"bbox":[152723.705,170523.722,152847.061,170579.765]},{"type":"Feature","id":"StreetAxes.fid--1290087_1a03126d94f_-4902","geometry":{"type":"LineString","coordinates":[[153042.143,170576.85],[153034.57,170573.125],[152881.955,170501.16],[152875.254,170498.037]]},"geometry_name":"GEOM","properties":{"INSPIRE_ID":"https://databrussels.be/id/streetaxe/70159","TYPE":"S","HIERARCHY":"DR","LVL":0,"STARTSN_ID":"https://databrussels.be/id/streetnode/2247","ENDSN_ID":"https://databrussels.be/id/streetnode/2929","STRNAMEFRE":"Avenue Marie-José","STRNAMEDUT":"Marie-Josélaan","SLOPE":0.99,"LENGTH":184.563994298282},"bbox":[152875.254,170498.037,153042.143,170576.85]},{"type":"Feature","id":"StreetAxes.fid--1290087_1a03126d94f_-4925","geometry":{"type":"LineString","coordinates":[[152903.569,170694.341],[152896.044,170691.212],[152828.125,170662.995],[152819.652,170659.53]]},"geometry_name":"GEOM","properties":{"INSPIRE_ID":"https://databrussels.be/id/streetaxe/70160","TYPE":"S","HIERARCHY":"DR","LVL":0,"STARTSN_ID":"https://databrussels.be/id/streetnode/2870","ENDSN_ID":"https://databrussels.be/id/streetnode/2117","STRNAMEFRE":"Avenue Général Lartigue","STRNAMEDUT":"Generaal Lartiguelaan","SLOPE":1.95,"LENGTH":90.8509331301436},"bbox":[152819.652,170659.53,152903.569,170694.341]},{"type":"Feature","id":"StreetAxes.fid--1290087_1a03126d94f_-4900","geometry":{"type":"LineString","coordinates":[[152692.84,170607.254],[152684.369,170603.717],[152581.195,170560.98],[152573.477,170558.158]]},"geometry_name":"GEOM","properties":{"INSPIRE_ID":"https://databrussels.be/id/streetaxe/70244","TYPE":"S","HIERARCHY":"DR","LVL":0,"STARTSN_ID":"https://databrussels.be/id/streetnode/561","ENDSN_ID":"https://databrussels.be/id/streetnode/930","STRNAMEFRE":"Avenue Général Lartigue","STRNAMEDUT":"Generaal Lartiguelaan","SLOPE":0.93,"LENGTH":129.072597924746},"bbox":[152573.477,170558.158,152692.84,170607.254]},{"type":"Feature","id":"StreetAxes.fid--1290087_1a03126d94f_-493c","geometry":{"type":"LineString","coordinates":[[152545.698,170633.971],[152568.434,170651.6],[152642.137,170711.428],[152651.442,170718.981]]},"geometry_name":"GEOM","properties":{"INSPIRE_ID":"https://databrussels.be/id/streetaxe/70262","TYPE":"S","HIERARCHY":"DR","LVL":0,"STARTSN_ID":"https://databrussels.be/id/streetnode/1150","ENDSN_ID":"https://databrussels.be/id/streetnode/3167","STRNAMEFRE":"Avenue Herbert Hoover","STRNAMEDUT":"Herbert Hooverlaan","SLOPE":1.29,"LENGTH":135.683547094895},"bbox":[152545.698,170633.971,152651.442,170718.981]},{"type":"Feature","id":"StreetAxes.fid--1290087_1a03126d94f_-4906","geometry":{"type":"LineString","coordinates":[[152573.477,170558.158],[152570.392,170567.216],[152553.118,170614.16],[152545.698,170633.971]]},"geometry_name":"GEOM","properties":{"INSPIRE_ID":"https://databrussels.be/id/streetaxe/70864","TYPE":"S","HIERARCHY":"DR","LVL":0,"STARTSN_ID":"https://databrussels.be/id/streetnode/930","ENDSN_ID":"https://databrussels.be/id/streetnode/1150","STRNAMEFRE":"Square Vergote","STRNAMEDUT":"Vergoteplein","SLOPE":2.32,"LENGTH":80.7451913432822},"bbox":[152545.698,170558.158,152573.477,170633.971]},{"type":"Feature","id":"StreetAxes.fid--1290087_1a03126d94f_-48fd","geometry":{"type":"LineString","coordinates":[[152754.241,170441.414],[152750.905,170450.38],[152726.385,170516.645],[152723.705,170523.722]]},"geometry_name":"GEOM","properties":{"INSPIRE_ID":"https://databrussels.be/id/streetaxe/70865","TYPE":"S","HIERARCHY":"DR","LVL":0,"STARTSN_ID":"https://databrussels.be/id/streetnode/2297","ENDSN_ID":"https://databrussels.be/id/streetnode/1380","STRNAMEFRE":"Avenue Prekelinden","STRNAMEDUT":"Prekelindenlaan","SLOPE":2.65,"LENGTH":87.7900315409533},"bbox":[152723.705,170441.414,152754.241,170523.722]},{"type":"Feature","id":"StreetAxes.fid--1290087_1a03126d94f_-4915","geometry":{"type":"LineString","coordinates":[[153002.414,170781.27],[152989.41,170779.363],[152968.504,170775.992],[152957.977,170774.421],[152954.555,170765.048]]},"geometry_name":"GEOM","properties":{"INSPIRE_ID":"https://databrussels.be/id/streetaxe/70934","TYPE":"S","HIERARCHY":"DR","LVL":0,"STARTSN_ID":"https://databrussels.be/id/streetnode/2272","ENDSN_ID":"https://databrussels.be/id/streetnode/145","STRNAMEFRE":"Avenue de Juillet","STRNAMEDUT":"Julilaan","SLOPE":2.4,"LENGTH":54.9408353095035},"bbox":[152954.555,170765.048,153002.414,170781.27]},{"type":"Feature","id":"StreetAxes.fid--1290087_1a03126d94f_-4935","geometry":{"type":"LineString","coordinates":[[152819.652,170659.53],[152811.8,170656.32],[152700.692,170610.532],[152692.84,170607.254]]},"geometry_name":"GEOM","properties":{"INSPIRE_ID":"https://databrussels.be/id/streetaxe/71164","TYPE":"S","HIERARCHY":"DR","LVL":0,"STARTSN_ID":"https://databrussels.be/id/streetnode/2117","ENDSN_ID":"https://databrussels.be/id/streetnode/561","STRNAMEFRE":"Avenue Général Lartigue","STRNAMEDUT":"Generaal Lartiguelaan","SLOPE":3.4,"LENGTH":137.164488904757},"bbox":[152692.84,170607.254,152819.652,170659.53]},{"type":"Feature","id":"StreetAxes.fid--1290087_1a03126d94f_-494b","geometry":{"type":"LineString","coordinates":[[152963.624,170971.965],[152956.838,170990.846],[152939.43,171039.285],[152935.833,171048.96]]},"geometry_name":"GEOM","properties":{"INSPIRE_ID":"https://databrussels.be/id/streetaxe/71822","TYPE":"S","HIERARCHY":"DR","LVL":0,"STARTSN_ID":"https://databrussels.be/id/streetnode/2473","ENDSN_ID":"https://databrussels.be/id/streetnode/2146","STRNAMEFRE":"Avenue de Mars","STRNAMEDUT":"Maartlaan","SLOPE":0.44,"LENGTH":81.8575468443555},"bbox":[152935.833,170971.965,152963.624,171048.96]},{"type":"Feature","id":"StreetAxes.fid--1290087_1a03126d94f_-4949","geometry":{"type":"LineString","coordinates":[[152788.346,170989.41],[152799.414,170993.805],[152926.06,171045.258],[152935.833,171048.96]]},"geometry_name":"GEOM","properties":{"INSPIRE_ID":"https://databrussels.be/id/streetaxe/71893","TYPE":"S","HIERARCHY":"DR","LVL":0,"STARTSN_ID":"https://databrussels.be/id/streetnode/731","ENDSN_ID":"https://databrussels.be/id/streetnode/2146","STRNAMEFRE":"Rue Aimé Smekens","STRNAMEDUT":"Aimé Smekensstraat","SLOPE":2.68,"LENGTH":159.05835576355},"bbox":[152788.346,170989.41,152935.833,171048.96]},{"type":"Feature","id":"StreetAxes.fid--1290087_1a03126d94f_-4924","geometry":{"type":"LineString","coordinates":[[152847.061,170579.765],[152844.303,170587.939],[152823.075,170649.65],[152819.652,170659.53]]},"geometry_name":"GEOM","properties":{"INSPIRE_ID":"https://databrussels.be/id/streetaxe/72078","TYPE":"S","HIERARCHY":"DR","LVL":0,"STARTSN_ID":"https://databrussels.be/id/streetnode/3718","ENDSN_ID":"https://databrussels.be/id/streetnode/2117","STRNAMEFRE":"Avenue du Prince Héritier","STRNAMEDUT":"Erfprinslaan","SLOPE":1.16,"LENGTH":84.3429742318428},"bbox":[152819.652,170579.765,152847.061,170659.53]},{"type":"Feature","id":"StreetAxes.fid--1290087_1a03126d94f_-4903","geometry":{"type":"LineString","coordinates":[[152875.254,170498.037],[152872.595,170505.874],[152849.805,170571.63],[152847.061,170579.765]]},"geometry_name":"GEOM","properties":{"INSPIRE_ID":"https://databrussels.be/id/streetaxe/72926","TYPE":"S","HIERARCHY":"DR","LVL":0,"STARTSN_ID":"https://databrussels.be/id/streetnode/2929","ENDSN_ID":"https://databrussels.be/id/streetnode/3718","STRNAMEFRE":"Avenue du Prince Héritier","STRNAMEDUT":"Erfprinslaan","SLOPE":2.26,"LENGTH":86.4544806090599},"bbox":[152847.061,170498.037,152875.254,170579.765]},{"type":"Feature","id":"StreetAxes.fid--1290087_1a03126d94f_-493a","geometry":{"type":"LineString","coordinates":[[152692.84,170607.254],[152689.716,170615.901],[152655.68,170707.175],[152651.442,170718.981]]},"geometry_name":"GEOM","properties":{"INSPIRE_ID":"https://databrussels.be/id/streetaxe/74093","TYPE":"S","HIERARCHY":"DR","LVL":0,"STARTSN_ID":"https://databrussels.be/id/streetnode/561","ENDSN_ID":"https://databrussels.be/id/streetnode/3167","STRNAMEFRE":"Avenue Prekelinden","STRNAMEDUT":"Prekelindenlaan","SLOPE":1.11,"LENGTH":119.151146354659},"bbox":[152651.442,170607.254,152692.84,170718.981]},{"type":"Feature","id":"StreetAxes.fid--1290087_1a03126d94f_-4910","geometry":{"type":"LineString","coordinates":[[153002.414,170781.27],[153000.165,170792.005],[152991.868,170846.69],[152990.83158799,170852.39728755]]},"geometry_name":"GEOM","properties":{"INSPIRE_ID":"https://databrussels.be/id/streetaxe/74450","TYPE":"S","HIERARCHY":"DR","LVL":0,"STARTSN_ID":"https://databrussels.be/id/streetnode/2272","ENDSN_ID":"https://databrussels.be/id/streetnode/8004","STRNAMEFRE":"Avenue de Mars","STRNAMEDUT":"Maartlaan","SLOPE":0,"LENGTH":72.0795261628576},"bbox":[152990.83158799,170781.27,153002.414,170852.39728755]},{"type":"Feature","id":"StreetAxes.fid--1290087_1a03126d94f_-4939","geometry":{"type":"LineString","coordinates":[[152651.442,170718.981],[152658.286,170724.537],[152763.94470841,170810.30553111]]},"geometry_name":"GEOM","properties":{"INSPIRE_ID":"https://databrussels.be/id/streetaxe/74878","TYPE":"S","HIERARCHY":"DR","LVL":0,"STARTSN_ID":"https://databrussels.be/id/streetnode/3167","ENDSN_ID":"https://databrussels.be/id/streetnode/7672","STRNAMEFRE":"Avenue Herbert Hoover","STRNAMEDUT":"Herbert Hooverlaan","SLOPE":2.93,"LENGTH":144.903517504712},"bbox":[152651.442,170718.981,152763.94470841,170810.30553111]},{"type":"Feature","id":"StreetAxes.fid--1290087_1a03126d94f_-4934","geometry":{"type":"LineString","coordinates":[[152819.652,170659.53],[152816.43,170668.83],[152771.974,170797.856],[152769.928,170803.793],[152763.94470841,170810.30553111]]},"geometry_name":"GEOM","properties":{"INSPIRE_ID":"https://databrussels.be/id/streetaxe/74879","TYPE":"S","HIERARCHY":"DR","LVL":0,"STARTSN_ID":"https://databrussels.be/id/streetnode/2117","ENDSN_ID":"https://databrussels.be/id/streetnode/7672","STRNAMEFRE":"Avenue du Prince Héritier","STRNAMEDUT":"Erfprinslaan","SLOPE":1.08,"LENGTH":161.435720164059},"bbox":[152763.94470841,170659.53,152819.652,170810.30553111]},{"type":"Feature","id":"StreetAxes.fid--1290087_1a03126d94f_-494d","geometry":{"type":"LineString","coordinates":[[153172.959,171009.648],[153160.502,171015.558],[153154.801,171010.951],[153010.584,170894.498],[153000.81178035,170886.88304437],[152997.56995136,170882.83406253],[152994.77527119,170878.66416767],[152992.389313,170874.13324972]]},"geometry_name":"GEOM","properties":{"INSPIRE_ID":"https://databrussels.be/id/streetaxe/74880","TYPE":"S","HIERARCHY":"DR","LVL":0,"STARTSN_ID":"https://databrussels.be/id/streetnode/202","ENDSN_ID":"https://databrussels.be/id/streetnode/7534","STRNAMEFRE":"Avenue d'Avril","STRNAMEDUT":"Aprillaan","SLOPE":2.73,"LENGTH":234.198000748327},"bbox":[152992.389313,170874.13324972,153172.959,171015.558]},{"type":"Feature","id":"StreetAxes.fid--1290087_1a03126d94f_-48ff","geometry":{"type":"LineString","coordinates":[[152723.705,170523.722],[152721.025,170530.8],[152695.782,170599.108],[152692.84,170607.254]]},"geometry_name":"GEOM","properties":{"INSPIRE_ID":"https://databrussels.be/id/streetaxe/74893","TYPE":"S","HIERARCHY":"DR","LVL":0,"STARTSN_ID":"https://databrussels.be/id/streetnode/1380","ENDSN_ID":"https://databrussels.be/id/streetnode/561","STRNAMEFRE":"Avenue Prekelinden","STRNAMEDUT":"Prekelindenlaan","SLOPE":4.5,"LENGTH":89.0523909752123},"bbox":[152692.84,170523.722,152723.705,170607.254]},{"type":"Feature","id":"StreetAxes.fid--1290087_1a03126d94f_-491a","geometry":{"type":"LineString","coordinates":[[153010.198,170653.868],[153001.915,170650.108],[152855.04,170583.335],[152847.061,170579.765]]},"geometry_name":"GEOM","properties":{"INSPIRE_ID":"https://databrussels.be/id/streetaxe/75133","TYPE":"S","HIERARCHY":"DR","LVL":0,"STARTSN_ID":"https://databrussels.be/id/streetnode/245","ENDSN_ID":"https://databrussels.be/id/streetnode/3718","STRNAMEFRE":"Avenue Lambeau","STRNAMEDUT":"Lambeaulaan","SLOPE":1.47,"LENGTH":179.178650142988},"bbox":[152847.061,170579.765,153010.198,170653.868]},{"type":"Feature","id":"StreetAxes.fid--1290087_1a03126d94f_-4919","geometry":{"type":"LineString","coordinates":[[153002.652,170745.54],[152997.642,170733.046],[152982.924,170726.989],[152911.558,170697.664],[152903.569,170694.341]]},"geometry_name":"GEOM","properties":{"INSPIRE_ID":"https://databrussels.be/id/streetaxe/75134","TYPE":"S","HIERARCHY":"DR","LVL":0,"STARTSN_ID":"https://databrussels.be/id/streetnode/646","ENDSN_ID":"https://databrussels.be/id/streetnode/2870","STRNAMEFRE":"Avenue Général Lartigue","STRNAMEDUT":"Generaal Lartiguelaan","SLOPE":1.71,"LENGTH":115.185300035784},"bbox":[152903.569,170694.341,153002.652,170745.54]},{"type":"Feature","id":"StreetAxes.fid--1290087_1a03126d94f_-4914","geometry":{"type":"LineString","coordinates":[[152954.555,170765.048],[152965.434,170760.632],[152983.803,170753.134],[153002.652,170745.54]]},"geometry_name":"GEOM","properties":{"INSPIRE_ID":"https://databrussels.be/id/streetaxe/75135","TYPE":"S","HIERARCHY":"IDR","LVL":0,"STARTSN_ID":"https://databrussels.be/id/streetnode/145","ENDSN_ID":"https://databrussels.be/id/streetnode/646","STRNAMEFRE":"Avenue des Cerisiers","STRNAMEDUT":"Kerselarenlaan","SLOPE":1.97,"LENGTH":51.9027391759004},"bbox":[152954.555,170745.54,153002.652,170765.048]},{"type":"Feature","id":"StreetAxes.fid--1290087_1a03126d94f_-4937","geometry":{"type":"LineString","coordinates":[[152673.6176701,170860.05287053],[152755.71702673,170836.9191356],[152769.26751827,170833.1009147]]},"geometry_name":"GEOM","properties":{"INSPIRE_ID":"https://databrussels.be/id/streetaxe/75161","TYPE":"S","HIERARCHY":"IDR","LVL":0,"STARTSN_ID":"https://databrussels.be/id/streetnode/7344","ENDSN_ID":"https://databrussels.be/id/streetnode/7673","STRNAMEFRE":"Avenue des Cerisiers","STRNAMEDUT":"Kerselarenlaan","SLOPE":1.55,"LENGTH":99.3745509635843},"bbox":[152673.6176701,170833.1009147,152769.26751827,170860.05287053]},{"type":"Feature","id":"StreetAxes.fid--1290087_1a03126d94f_-4920","geometry":{"type":"LineString","coordinates":[[152846.99503326,170835.43117936],[152847.90052555,170830.18155363],[152848.76081224,170819.26396714],[152841.95517244,170811.57860659]]},"geometry_name":"GEOM","properties":{"INSPIRE_ID":"https://databrussels.be/id/streetaxe/76210","TYPE":"S","HIERARCHY":"IDR","LVL":0,"STARTSN_ID":"https://databrussels.be/id/streetnode/7687","ENDSN_ID":"https://databrussels.be/id/streetnode/8010","STRNAMEFRE":"Square Levie","STRNAMEDUT":"Levieplein","SLOPE":1.22,"LENGTH":26.5441239519707},"bbox":[152841.95517244,170811.57860659,152848.76081224,170835.43117936]},{"type":"Feature","id":"StreetAxes.fid--1290087_1a03126d94f_-491b","geometry":{"type":"LineString","coordinates":[[152846.99503326,170835.43117936],[152858.54290283,170837.79239059],[152916.13279086,170846.86974254]]},"geometry_name":"GEOM","properties":{"INSPIRE_ID":"https://databrussels.be/id/streetaxe/76211","TYPE":"S","HIERARCHY":"IDR","LVL":0,"STARTSN_ID":"https://databrussels.be/id/streetnode/7687","ENDSN_ID":"https://databrussels.be/id/streetnode/8012","STRNAMEFRE":"Avenue de Mai","STRNAMEDUT":"Meilaan","SLOPE":2.64,"LENGTH":70.0876859590719},"bbox":[152846.99503326,170835.43117936,152916.13279086,170846.86974254]},{"type":"Feature","id":"StreetAxes.fid--1290087_1a03126d94f_-4917","geometry":{"type":"LineString","coordinates":[[152914.56163241,170856.89019325],[152973.96040548,170865.95091484],[152979.15942921,170866.7518731]]},"geometry_name":"GEOM","properties":{"INSPIRE_ID":"https://databrussels.be/id/streetaxe/76487","TYPE":"S","HIERARCHY":"IDR","LVL":0,"STARTSN_ID":"https://databrussels.be/id/streetnode/7535","ENDSN_ID":"https://databrussels.be/id/streetnode/7688","STRNAMEFRE":"Avenue de Mai","STRNAMEDUT":"Meilaan","SLOPE":3.15,"LENGTH":65.3462223664379},"bbox":[152914.56163241,170856.89019325,152979.15942921,170866.7518731]},{"type":"Feature","id":"StreetAxes.fid--1290087_1a03126d94f_-4918","geometry":{"type":"LineString","coordinates":[[152914.56163241,170856.89019325],[152916.13279086,170846.86974254]]},"geometry_name":"GEOM","properties":{"INSPIRE_ID":"https://databrussels.be/id/streetaxe/76488","TYPE":"S","HIERARCHY":"IDR","LVL":0,"STARTSN_ID":"https://databrussels.be/id/streetnode/7535","ENDSN_ID":"https://databrussels.be/id/streetnode/8012","STRNAMEFRE":"Avenue de Mai","STRNAMEDUT":"Meilaan","SLOPE":1.18,"LENGTH":10.1428778693806},"bbox":[152914.56163241,170846.86974254,152916.13279086,170856.89019325]},{"type":"Feature","id":"StreetAxes.fid--1290087_1a03126d94f_-4904","geometry":{"type":"LineString","coordinates":[[152550.4810122,170514.58064041],[152557.285,170517.3],[152563.478,170519.688],[152569.238,170524.588],[152572.895,170529.715],[152575.32,170535.47],[152576.665,170541.632],[152576.822,170545.755],[152576.56,170549.105],[152573.477,170558.158]]},"geometry_name":"GEOM","properties":{"INSPIRE_ID":"https://databrussels.be/id/streetaxe/77348","TYPE":"S","HIERARCHY":"DR","LVL":0,"STARTSN_ID":"https://databrussels.be/id/streetnode/7350","ENDSN_ID":"https://databrussels.be/id/streetnode/930","STRNAMEFRE":"Square Vergote","STRNAMEDUT":"Vergoteplein","SLOPE":1.78,"LENGTH":57.4265020171093},"bbox":[152550.4810122,170514.58064041,152576.822,170558.158]},{"type":"Feature","id":"StreetAxes.fid--1290087_1a03126d94f_-4947","geometry":{"type":"LineString","coordinates":[[152584.96820048,170885.0319666],[152596.32554907,170881.83203559],[152673.6176701,170860.05287053]]},"geometry_name":"GEOM","properties":{"INSPIRE_ID":"https://databrussels.be/id/streetaxe/77352","TYPE":"S","HIERARCHY":"IDR","LVL":0,"STARTSN_ID":"https://databrussels.be/id/streetnode/7352","ENDSN_ID":"https://databrussels.be/id/streetnode/7344","STRNAMEFRE":"Avenue des Cerisiers","STRNAMEDUT":"Kerselarenlaan","SLOPE":1.89,"LENGTH":92.1014858923574},"bbox":[152584.96820048,170860.05287053,152673.6176701,170885.0319666]},{"type":"Feature","id":"StreetAxes.fid--1290087_1a03126d94f_-493b","geometry":{"type":"LineString","coordinates":[[152584.96820048,170885.0319666],[152583.739,170867.785],[152645.325,170732.425],[152651.442,170718.981]]},"geometry_name":"GEOM","properties":{"INSPIRE_ID":"https://databrussels.be/id/streetaxe/77353","TYPE":"S","HIERARCHY":"DR","LVL":0,"STARTSN_ID":"https://databrussels.be/id/streetnode/7352","ENDSN_ID":"https://databrussels.be/id/streetnode/3167","STRNAMEFRE":"Rue Knapen","STRNAMEDUT":"Knapenstraat","SLOPE":0.68,"LENGTH":180.77259870038},"bbox":[152583.739,170718.981,152651.442,170885.0319666]},{"type":"Feature","id":"StreetAxes.fid--1290087_1a03126d94f_-4940","geometry":{"type":"LineString","coordinates":[[152562.12906345,170901.90173619],[152550.21068567,170905.28231718],[152537.79391418,170908.74967223]]},"geometry_name":"GEOM","properties":{"INSPIRE_ID":"https://databrussels.be/id/streetaxe/77361","TYPE":"S","HIERARCHY":"IDR","LVL":0,"STARTSN_ID":"https://databrussels.be/id/streetnode/7355","ENDSN_ID":"https://databrussels.be/id/streetnode/7351","STRNAMEFRE":"Avenue des Cerisiers","STRNAMEDUT":"Kerselarenlaan","SLOPE":0.24,"LENGTH":25.2803553918596},"bbox":[152537.79391418,170901.90173619,152562.12906345,170908.74967223]},{"type":"Feature","id":"StreetAxes.fid--1290087_1a03126d94f_-4955","geometry":{"type":"LineString","coordinates":[[152455.31423709,170996.41968093],[152487.32639031,171010.71807139],[152541.3113492,171034.57440496],[152562.74947457,171044.04806356],[152581.73979709,171053.50073388],[152597.79583171,171063.01324661],[152624.07293513,171081.22799573],[152643.84991296,171096.81428737],[152671.46392164,171116.27409528],[152691.37920002,171127.43351119],[152712.72358403,171138.13179421],[152744.32855127,171153.50069464],[152828.56140332,171196.89371121],[152860.8066481,171214.64083338]]},"geometry_name":"GEOM","properties":{"INSPIRE_ID":"https://databrussels.be/id/streetaxe/78041","TYPE":"S","HIERARCHY":"H","LVL":0,"STARTSN_ID":"https://databrussels.be/id/streetnode/7128","ENDSN_ID":"https://databrussels.be/id/streetnode/6590","STRNAMEFRE":"Autoroute E40","STRNAMEDUT":"Autosnelweg E40","SLOPE":1.7,"LENGTH":461.737360663969},"bbox":[152455.31423709,170996.41968093,152860.8066481,171214.64083338]},{"type":"Feature","id":"StreetAxes.fid--1290087_1a03126d94f_-4956","geometry":{"type":"LineString","coordinates":[[152459.34137367,170987.96106615],[152504.18134074,171008.37245274],[152612.25704198,171056.18946296],[152665.93942643,171080.20635489],[152740.84645874,171115.50850587],[152781.87120798,171136.1809729]]},"geometry_name":"GEOM","properties":{"INSPIRE_ID":"https://databrussels.be/id/streetaxe/78045","TYPE":"S","HIERARCHY":"H","LVL":0,"STARTSN_ID":"https://databrussels.be/id/streetnode/7131","ENDSN_ID":"https://databrussels.be/id/streetnode/7349","STRNAMEFRE":"Autoroute E40","STRNAMEDUT":"Autosnelweg E40","SLOPE":0.93,"LENGTH":355.006093849682},"bbox":[152459.34137367,170987.96106615,152781.87120798,171136.1809729]},{"type":"Feature","id":"StreetAxes.fid--1290087_1a03126d94f_-4948","geometry":{"type":"LineString","coordinates":[[152787.96573692,170846.81067324],[152785.724,170859.274],[152791.971,170974.974],[152788.346,170989.41]]},"geometry_name":"GEOM","properties":{"INSPIRE_ID":"https://databrussels.be/id/streetaxe/78547","TYPE":"S","HIERARCHY":"DR","LVL":0,"STARTSN_ID":"https://databrussels.be/id/streetnode/7675","ENDSN_ID":"https://databrussels.be/id/streetnode/731","STRNAMEFRE":"Rue William Degouve de Nuncques","STRNAMEDUT":"William Degouve de Nuncquesstraat","SLOPE":1.27,"LENGTH":143.416030419509},"bbox":[152785.724,170846.81067324,152791.971,170989.41]},{"type":"Feature","id":"StreetAxes.fid--1290087_1a03126d94f_-491c","geometry":{"type":"LineString","coordinates":[[152845.11046193,170846.35705274],[152854.74345043,170847.7654948],[152914.56163241,170856.89019325]]},"geometry_name":"GEOM","properties":{"INSPIRE_ID":"https://databrussels.be/id/streetaxe/78575","TYPE":"S","HIERARCHY":"IDR","LVL":0,"STARTSN_ID":"https://databrussels.be/id/streetnode/7536","ENDSN_ID":"https://databrussels.be/id/streetnode/7535","STRNAMEFRE":"Avenue de Mai","STRNAMEDUT":"Meilaan","SLOPE":2.42,"LENGTH":70.2455316449865},"bbox":[152845.11046193,170846.35705274,152914.56163241,170856.89019325]},{"type":"Feature","id":"StreetAxes.fid--1290087_1a03126d94f_-492f","geometry":{"type":"LineString","coordinates":[[152775.09189356,170819.35652927],[152780.05738725,170816.96353341],[152785.21434639,170817.13361461],[152808.3453292,170820.52738876],[152810.59582274,170821.45598509]]},"geometry_name":"GEOM","properties":{"INSPIRE_ID":"https://databrussels.be/id/streetaxe/78792","TYPE":"S","HIERARCHY":"IDR","LVL":0,"STARTSN_ID":"https://databrussels.be/id/streetnode/8014","ENDSN_ID":"https://databrussels.be/id/streetnode/8006","STRNAMEFRE":"Square Levie","STRNAMEDUT":"Levieplein","SLOPE":2.41,"LENGTH":36.4849703250655},"bbox":[152775.09189356,170816.96353341,152810.59582274,170821.45598509]},{"type":"Feature","id":"StreetAxes.fid--1290087_1a03126d94f_-492a","geometry":{"type":"LineString","coordinates":[[152841.95517244,170811.57860659],[152823.18638214,170818.9766855],[152810.59582274,170821.45598509]]},"geometry_name":"GEOM","properties":{"INSPIRE_ID":"https://databrussels.be/id/streetaxe/79061","TYPE":"S","HIERARCHY":"IDR","LVL":0,"STARTSN_ID":"https://databrussels.be/id/streetnode/8007","ENDSN_ID":"https://databrussels.be/id/streetnode/8006","STRNAMEFRE":"Avenue des Cerisiers","STRNAMEDUT":"Kerselarenlaan","SLOPE":2.45,"LENGTH":33.0065640622352},"bbox":[152810.59582274,170811.57860659,152841.95517244,170821.45598509]},{"type":"Feature","id":"StreetAxes.fid--1290087_1a03126d94f_-491d","geometry":{"type":"LineString","coordinates":[[152841.95517244,170811.57860659],[152855.466,170806.238],[152943.676,170769.464],[152954.555,170765.048]]},"geometry_name":"GEOM","properties":{"INSPIRE_ID":"https://databrussels.be/id/streetaxe/79062","TYPE":"S","HIERARCHY":"IDR","LVL":0,"STARTSN_ID":"https://databrussels.be/id/streetnode/8007","ENDSN_ID":"https://databrussels.be/id/streetnode/145","STRNAMEFRE":"Avenue des Cerisiers","STRNAMEDUT":"Kerselarenlaan","SLOPE":1.96,"LENGTH":121.837635133192},"bbox":[152841.95517244,170765.048,152954.555,170811.57860659]},{"type":"Feature","id":"StreetAxes.fid--1290087_1a03126d94f_-4926","geometry":{"type":"LineString","coordinates":[[152815.85181765,170830.78067043],[152827.21293207,170832.70348151],[152846.99503326,170835.43117936]]},"geometry_name":"GEOM","properties":{"INSPIRE_ID":"https://databrussels.be/id/streetaxe/79227","TYPE":"S","HIERARCHY":"IDR","LVL":0,"STARTSN_ID":"https://databrussels.be/id/streetnode/7668","ENDSN_ID":"https://databrussels.be/id/streetnode/7687","STRNAMEFRE":"Square Levie","STRNAMEDUT":"Levieplein","SLOPE":2.92,"LENGTH":31.4919516204906},"bbox":[152815.85181765,170830.78067043,152846.99503326,170835.43117936]},{"type":"Feature","id":"StreetAxes.fid--1290087_1a03126d94f_-4936","geometry":{"type":"LineString","coordinates":[[152772.6357787,170842.1926875],[152758.84604519,170846.10406804],[152676.27973316,170869.52353919]]},"geometry_name":"GEOM","properties":{"INSPIRE_ID":"https://databrussels.be/id/streetaxe/79228","TYPE":"S","HIERARCHY":"IDR","LVL":0,"STARTSN_ID":"https://databrussels.be/id/streetnode/7669","ENDSN_ID":"https://databrussels.be/id/streetnode/7342","STRNAMEFRE":"Avenue des Cerisiers","STRNAMEDUT":"Kerselarenlaan","SLOPE":1.69,"LENGTH":100.157191282936},"bbox":[152676.27973316,170842.1926875,152772.6357787,170869.52353919]},{"type":"Feature","id":"StreetAxes.fid--1290087_1a03126d94f_-4951","geometry":{"type":"LineString","coordinates":[[152998.2874468,170869.64267556],[153004.37095965,170870.59566781],[153073.32855127,170881.39798747]]},"geometry_name":"GEOM","properties":{"INSPIRE_ID":"https://databrussels.be/id/streetaxe/79229","TYPE":"S","HIERARCHY":"IDR","LVL":0,"STARTSN_ID":"https://databrussels.be/id/streetnode/7670","ENDSN_ID":"https://databrussels.be/id/streetnode/7674","STRNAMEFRE":"Avenue de Mai","STRNAMEDUT":"Meilaan","SLOPE":2.54,"LENGTH":75.9562684675945},"bbox":[152998.2874468,170869.64267556,153073.32855127,170881.39798747]},{"type":"Feature","id":"StreetAxes.fid--1290087_1a03126d94f_-494c","geometry":{"type":"LineString","coordinates":[[152987.19639084,170874.63566285],[152982.762,170893.054],[152969.006,170951.136],[152963.624,170971.965]]},"geometry_name":"GEOM","properties":{"INSPIRE_ID":"https://databrussels.be/id/streetaxe/79555","TYPE":"S","HIERARCHY":"DR","LVL":0,"STARTSN_ID":"https://databrussels.be/id/streetnode/8005","ENDSN_ID":"https://databrussels.be/id/streetnode/2473","STRNAMEFRE":"Avenue de Mars","STRNAMEDUT":"Maartlaan","SLOPE":0.77,"LENGTH":100.146466645498},"bbox":[152963.624,170874.63566285,152987.19639084,170971.965]},{"type":"Feature","id":"StreetAxes.fid--1290087_1a03126d94f_-4927","geometry":{"type":"LineString","coordinates":[[152814.08917295,170840.08987788],[152824.2574252,170843.30812416],[152845.11046193,170846.35705274]]},"geometry_name":"GEOM","properties":{"INSPIRE_ID":"https://databrussels.be/id/streetaxe/81021","TYPE":"S","HIERARCHY":"IDR","LVL":0,"STARTSN_ID":"https://databrussels.be/id/streetnode/8009","ENDSN_ID":"https://databrussels.be/id/streetnode/7536","STRNAMEFRE":"Square Levie","STRNAMEDUT":"Levieplein","SLOPE":2.84,"LENGTH":31.7401366612172},"bbox":[152814.08917295,170840.08987788,152845.11046193,170846.35705274]},{"type":"Feature","id":"StreetAxes.fid--1290087_1a03126d94f_-492b","geometry":{"type":"LineString","coordinates":[[152827.0393363,170789.74704915],[152810.80189553,170809.68550441],[152810.59582274,170821.45598509]]},"geometry_name":"GEOM","properties":{"INSPIRE_ID":"https://databrussels.be/id/streetaxe/81022","TYPE":"S","HIERARCHY":"DR","LVL":0,"STARTSN_ID":"https://databrussels.be/id/streetnode/8010","ENDSN_ID":"https://databrussels.be/id/streetnode/8006","STRNAMEFRE":"Rue Georges Rency","STRNAMEDUT":"Georges Rencystraat","SLOPE":1.2,"LENGTH":37.4860255441554},"bbox":[152810.59582274,170789.74704915,152827.0393363,170821.45598509]},{"type":"Feature","id":"StreetAxes.fid--1290087_1a03126d94f_-4923","geometry":{"type":"LineString","coordinates":[[152827.0393363,170789.74704915],[152830.066,170786.042],[152898.588,170705.375],[152903.569,170694.341]]},"geometry_name":"GEOM","properties":{"INSPIRE_ID":"https://databrussels.be/id/streetaxe/81023","TYPE":"S","HIERARCHY":"DR","LVL":0,"STARTSN_ID":"https://databrussels.be/id/streetnode/8010","ENDSN_ID":"https://databrussels.be/id/streetnode/2870","STRNAMEFRE":"Rue Georges Rency","STRNAMEDUT":"Georges Rencystraat","SLOPE":1.47,"LENGTH":122.731855416907},"bbox":[152827.0393363,170694.341,152903.569,170789.74704915]},{"type":"Feature","id":"StreetAxes.fid--1290087_1a03126d94f_-4945","geometry":{"type":"LineString","coordinates":[[152535.10028432,170899.08224339],[152547.45646334,170895.60089208],[152584.96820048,170885.0319666]]},"geometry_name":"GEOM","properties":{"INSPIRE_ID":"https://databrussels.be/id/streetaxe/83341","TYPE":"S","HIERARCHY":"IDR","LVL":0,"STARTSN_ID":"https://databrussels.be/id/streetnode/7357","ENDSN_ID":"https://databrussels.be/id/streetnode/7352","STRNAMEFRE":"Avenue des Cerisiers","STRNAMEDUT":"Kerselarenlaan","SLOPE":0.37,"LENGTH":51.8094522315958},"bbox":[152535.10028432,170885.0319666,152584.96820048,170899.08224339]},{"type":"Feature","id":"StreetAxes.fid--1290087_1a03126d94f_-4941","geometry":{"type":"LineString","coordinates":[[152535.10028432,170899.08224339],[152537.79391418,170908.74967223]]},"geometry_name":"GEOM","properties":{"INSPIRE_ID":"https://databrussels.be/id/streetaxe/83342","TYPE":"S","HIERARCHY":"IDR","LVL":0,"STARTSN_ID":"https://databrussels.be/id/streetnode/7357","ENDSN_ID":"https://databrussels.be/id/streetnode/7351","STRNAMEFRE":"Avenue des Cerisiers","STRNAMEDUT":"Kerselarenlaan","SLOPE":0.7,"LENGTH":10.0356774662759},"bbox":[152535.10028432,170899.08224339,152537.79391418,170908.74967223]},{"type":"Feature","id":"StreetAxes.fid--1290087_1a03126d94f_-490f","geometry":{"type":"LineString","coordinates":[[152521.46607369,170502.98419819],[152514.675,170500.27],[152506.002,170498.74],[152494.875,170500.58],[152483.575,170507.28],[152477.06,170516.502],[152472.898,170527.198],[152467.042,170542.796],[152458.142,170566.079]]},"geometry_name":"GEOM","properties":{"INSPIRE_ID":"https://databrussels.be/id/streetaxe/83400","TYPE":"S","HIERARCHY":"DR","LVL":0,"STARTSN_ID":"https://databrussels.be/id/streetnode/7345","ENDSN_ID":"https://databrussels.be/id/streetnode/801","STRNAMEFRE":"Square Vergote","STRNAMEDUT":"Vergoteplein","SLOPE":5.58,"LENGTH":104.89086838024},"bbox":[152458.142,170498.74,152521.46607369,170566.079]},{"type":"Feature","id":"StreetAxes.fid--1290087_1a03126d94f_-4943","geometry":{"type":"LineString","coordinates":[[152578.29118908,170897.31743994],[152585.56723266,170907.54026846],[152600.834,170913.71],[152777.278,170985.016],[152788.346,170989.41]]},"geometry_name":"GEOM","properties":{"INSPIRE_ID":"https://databrussels.be/id/streetaxe/83402","TYPE":"S","HIERARCHY":"DR","LVL":0,"STARTSN_ID":"https://databrussels.be/id/streetnode/7347","ENDSN_ID":"https://databrussels.be/id/streetnode/731","STRNAMEFRE":"Rue Aimé Smekens","STRNAMEDUT":"Aimé Smekensstraat","SLOPE":2.4,"LENGTH":231.230149399419},"bbox":[152578.29118908,170897.31743994,152788.346,170989.41]},{"type":"Feature","id":"StreetAxes.fid--1290087_1a03126d94f_-493f","geometry":{"type":"LineString","coordinates":[[152524.05976439,171000.88400642],[152527.69,170991.025],[152560.836,170918.698],[152562.44935851,170915.11156316],[152562.12906345,170901.90173619]]},"geometry_name":"GEOM","properties":{"INSPIRE_ID":"https://databrussels.be/id/streetaxe/83404","TYPE":"S","HIERARCHY":"DR","LVL":0,"STARTSN_ID":"https://databrussels.be/id/streetnode/7348","ENDSN_ID":"https://databrussels.be/id/streetnode/7355","STRNAMEFRE":"Rue Knapen","STRNAMEDUT":"Knapenstraat","SLOPE":0.93,"LENGTH":107.212815150112},"bbox":[152524.05976439,170901.90173619,152562.44935851,171000.88400642]},{"type":"Feature","id":"StreetAxes.fid--1290087_1a03126d94f_-4916","geometry":{"type":"LineString","coordinates":[[152916.13279086,170846.86974254],[152975.45759784,170856.22055343],[152980.26514207,170856.99856869]]},"geometry_name":"GEOM","properties":{"INSPIRE_ID":"https://databrussels.be/id/streetaxe/83647","TYPE":"S","HIERARCHY":"IDR","LVL":0,"STARTSN_ID":"https://databrussels.be/id/streetnode/8012","ENDSN_ID":"https://databrussels.be/id/streetnode/8008","STRNAMEFRE":"Avenue de Mai","STRNAMEDUT":"Meilaan","SLOPE":2.96,"LENGTH":64.9273172390097},"bbox":[152916.13279086,170846.86974254,152980.26514207,170856.99856869]},{"type":"Feature","id":"StreetAxes.fid--1290087_1a03126d94f_-4953","geometry":{"type":"LineString","coordinates":[[152999.67578636,170860.29326666],[153004.29893801,170861.00853568],[153074.55984532,170871.87892331]]},"geometry_name":"GEOM","properties":{"INSPIRE_ID":"https://databrussels.be/id/streetaxe/83648","TYPE":"S","HIERARCHY":"IDR","LVL":0,"STARTSN_ID":"https://databrussels.be/id/streetnode/8013","ENDSN_ID":"https://databrussels.be/id/streetnode/7667","STRNAMEFRE":"Avenue de Mai","STRNAMEDUT":"Meilaan","SLOPE":2.77,"LENGTH":75.7749940699843},"bbox":[152999.67578636,170860.29326666,153074.55984532,170871.87892331]},{"type":"Feature","id":"StreetAxes.fid--1290087_1a03126d94f_-4946","geometry":{"type":"LineString","coordinates":[[152676.27973316,170869.52353919],[152578.29118908,170897.31743994]]},"geometry_name":"GEOM","properties":{"INSPIRE_ID":"https://databrussels.be/id/streetaxe/83885","TYPE":"S","HIERARCHY":"IDR","LVL":0,"STARTSN_ID":"https://databrussels.be/id/streetnode/7342","ENDSN_ID":"https://databrussels.be/id/streetnode/7347","STRNAMEFRE":"Avenue des Cerisiers","STRNAMEDUT":"Kerselarenlaan","SLOPE":1.55,"LENGTH":101.854090198975},"bbox":[152578.29118908,170869.52353919,152676.27973316,170897.31743994]},{"type":"Feature","id":"StreetAxes.fid--1290087_1a03126d94f_-4938","geometry":{"type":"LineString","coordinates":[[152673.6176701,170860.05287053],[152676.27973316,170869.52353919]]},"geometry_name":"GEOM","properties":{"INSPIRE_ID":"https://databrussels.be/id/streetaxe/83980","TYPE":"S","HIERARCHY":"IDR","LVL":0,"STARTSN_ID":"https://databrussels.be/id/streetnode/7344","ENDSN_ID":"https://databrussels.be/id/streetnode/7342","STRNAMEFRE":"Avenue des Cerisiers","STRNAMEDUT":"Kerselarenlaan","SLOPE":1.12,"LENGTH":9.83769001270062},"bbox":[152673.6176701,170860.05287053,152676.27973316,170869.52353919]},{"type":"Feature","id":"StreetAxes.fid--1290087_1a03126d94f_-4907","geometry":{"type":"LineString","coordinates":[[152521.46607369,170502.98419819],[152523.84216245,170497.25361471],[152536.98670317,170482.22021093]]},"geometry_name":"GEOM","properties":{"INSPIRE_ID":"https://databrussels.be/id/streetaxe/83981","TYPE":"S","HIERARCHY":"MER","LVL":0,"STARTSN_ID":"https://databrussels.be/id/streetnode/7345","ENDSN_ID":"https://databrussels.be/id/streetnode/6906","STRNAMEFRE":"Boulevard Brand Whitlock","STRNAMEDUT":"Brand Whitlocklaan","SLOPE":0.27,"LENGTH":26.173190275835},"bbox":[152521.46607369,170482.22021093,152536.98670317,170502.98419819]},{"type":"Feature","id":"StreetAxes.fid--1290087_1a03126d94f_-4901","geometry":{"type":"LineString","coordinates":[[152723.705,170523.722],[152716.84,170520.57],[152580.235,170459.765],[152566.28892606,170453.92557526]]},"geometry_name":"GEOM","properties":{"INSPIRE_ID":"https://databrussels.be/id/streetaxe/84139","TYPE":"S","HIERARCHY":"DR","LVL":0,"STARTSN_ID":"https://databrussels.be/id/streetnode/1380","ENDSN_ID":"https://databrussels.be/id/streetnode/6895","STRNAMEFRE":"Avenue Lambeau","STRNAMEDUT":"Lambeaulaan","SLOPE":2.32,"LENGTH":172.199781428573},"bbox":[152566.28892606,170453.92557526,152723.705,170523.722]},{"type":"Feature","id":"StreetAxes.fid--1290087_1a03126d94f_-494a","geometry":{"type":"LineString","coordinates":[[152963.624,170971.965],[152977.654,170983.391],[153119.742,171098.516]]},"geometry_name":"GEOM","properties":{"INSPIRE_ID":"https://databrussels.be/id/streetaxe/85712","TYPE":"S","HIERARCHY":"DR","LVL":0,"STARTSN_ID":"https://databrussels.be/id/streetnode/2473","ENDSN_ID":"https://databrussels.be/id/streetnode/11770","STRNAMEFRE":"Avenue Herbert Hoover","STRNAMEDUT":"Herbert Hooverlaan","SLOPE":2.28,"LENGTH":200.967674796443},"bbox":[152963.624,170971.965,153119.742,171098.516]},{"type":"Feature","id":"StreetAxes.fid--1290087_1a03126d94f_-4905","geometry":{"type":"LineString","coordinates":[[152553.49424811,170488.41101214],[152552.67801219,170508.28327636],[152550.4810122,170514.58064041]]},"geometry_name":"GEOM","properties":{"INSPIRE_ID":"https://databrussels.be/id/streetaxe/86353","TYPE":"S","HIERARCHY":"MER","LVL":0,"STARTSN_ID":"https://databrussels.be/id/streetnode/6900","ENDSN_ID":"https://databrussels.be/id/streetnode/7350","STRNAMEFRE":"Boulevard Brand Whitlock","STRNAMEDUT":"Brand Whitlocklaan","SLOPE":0.08,"LENGTH":26.5586231452251},"bbox":[152550.4810122,170488.41101214,152553.49424811,170514.58064041]},{"type":"Feature","id":"StreetAxes.fid--1290087_1a03126d94f_-4921","geometry":{"type":"LineString","coordinates":[[152840.59198935,170872.55306813],[152845.11046193,170846.35705274]]},"geometry_name":"GEOM","properties":{"INSPIRE_ID":"https://databrussels.be/id/streetaxe/86473","TYPE":"S","HIERARCHY":"DR","LVL":0,"STARTSN_ID":"https://databrussels.be/id/streetnode/8003","ENDSN_ID":"https://databrussels.be/id/streetnode/7536","STRNAMEFRE":"Square Levie","STRNAMEDUT":"Levieplein","SLOPE":1.12,"LENGTH":26.5828481692445},"bbox":[152840.59198935,170846.35705274,152845.11046193,170872.55306813]},{"type":"Feature","id":"StreetAxes.fid--1290087_1a03126d94f_-494f","geometry":{"type":"LineString","coordinates":[[152840.59198935,170872.55306813],[152948.504,170959.748],[152963.624,170971.965]]},"geometry_name":"GEOM","properties":{"INSPIRE_ID":"https://databrussels.be/id/streetaxe/86475","TYPE":"S","HIERARCHY":"DR","LVL":0,"STARTSN_ID":"https://databrussels.be/id/streetnode/8003","ENDSN_ID":"https://databrussels.be/id/streetnode/2473","STRNAMEFRE":"Avenue Herbert Hoover","STRNAMEDUT":"Herbert Hooverlaan","SLOPE":2.78,"LENGTH":158.175876301023},"bbox":[152840.59198935,170872.55306813,152963.624,170971.965]},{"type":"Feature","id":"StreetAxes.fid--1290087_1a03126d94f_-4954","geometry":{"type":"LineString","coordinates":[[152998.2874468,170869.64267556],[152999.7965332,170866.92133854],[153000.39792124,170863.3103008],[152999.67578636,170860.29326666]]},"geometry_name":"GEOM","properties":{"INSPIRE_ID":"https://databrussels.be/id/streetaxe/87199","TYPE":"I","HIERARCHY":"IDR","LVL":0,"STARTSN_ID":"https://databrussels.be/id/streetnode/7670","ENDSN_ID":"https://databrussels.be/id/streetnode/8013","STRNAMEFRE":"Avenue de Mai","STRNAMEDUT":"Meilaan","SLOPE":1.72,"LENGTH":9.87478095742194},"bbox":[152998.2874468,170860.29326666,153000.39792124,170869.64267556]},{"type":"Feature","id":"StreetAxes.fid--1290087_1a03126d94f_-4929","geometry":{"type":"LineString","coordinates":[[152810.59582274,170821.45598509],[152812.05105263,170823.39921037],[152815.0693072,170827.92874268],[152815.85181765,170830.78067043]]},"geometry_name":"GEOM","properties":{"INSPIRE_ID":"https://databrussels.be/id/streetaxe/87200","TYPE":"I","HIERARCHY":"IDR","LVL":0,"STARTSN_ID":"https://databrussels.be/id/streetnode/8006","ENDSN_ID":"https://databrussels.be/id/streetnode/7668","STRNAMEFRE":"Square Levie","STRNAMEDUT":"Levieplein","SLOPE":1.66,"LENGTH":10.8280763472223},"bbox":[152810.59582274,170821.45598509,152815.85181765,170830.78067043]},{"type":"Feature","id":"StreetAxes.fid--1290087_1a03126d94f_-4912","geometry":{"type":"LineString","coordinates":[[152990.83158799,170852.39728755],[152986.96272987,170852.84144751],[152982.50733975,170854.77994887],[152980.26514207,170856.99856869]]},"geometry_name":"GEOM","properties":{"INSPIRE_ID":"https://databrussels.be/id/streetaxe/88896","TYPE":"I","HIERARCHY":"IDR","LVL":0,"STARTSN_ID":"https://databrussels.be/id/streetnode/8004","ENDSN_ID":"https://databrussels.be/id/streetnode/8008","STRNAMEFRE":"Avenue de Mai","STRNAMEDUT":"Meilaan","SLOPE":2.94,"LENGTH":11.9074248073752},"bbox":[152980.26514207,170852.39728755,152990.83158799,170856.99856869]},{"type":"Feature","id":"StreetAxes.fid--1290087_1a03126d94f_-4931","geometry":{"type":"LineString","coordinates":[[152769.26751827,170833.1009147],[152772.6357787,170842.1926875]]},"geometry_name":"GEOM","properties":{"INSPIRE_ID":"https://databrussels.be/id/streetaxe/88897","TYPE":"I","HIERARCHY":"IDR","LVL":0,"STARTSN_ID":"https://databrussels.be/id/streetnode/7673","ENDSN_ID":"https://databrussels.be/id/streetnode/7669","STRNAMEFRE":"Square Levie","STRNAMEDUT":"Leviesquare","SLOPE":0.41,"LENGTH":9.69564391650955},"bbox":[152769.26751827,170833.1009147,152772.6357787,170842.1926875]},{"type":"Feature","id":"StreetAxes.fid--1290087_1a03126d94f_-4932","geometry":{"type":"LineString","coordinates":[[152769.26751827,170833.1009147],[152769.85680873,170828.92591074],[152771.44356539,170823.76678118],[152775.09189356,170819.35652927]]},"geometry_name":"GEOM","properties":{"INSPIRE_ID":"https://databrussels.be/id/streetaxe/88899","TYPE":"I","HIERARCHY":"IDR","LVL":0,"STARTSN_ID":"https://databrussels.be/id/streetnode/7673","ENDSN_ID":"https://databrussels.be/id/streetnode/8014","STRNAMEFRE":"Square Levie","STRNAMEDUT":"Leviesquare","SLOPE":0.72,"LENGTH":15.3377070907348},"bbox":[152769.26751827,170819.35652927,152775.09189356,170833.1009147]},{"type":"Feature","id":"StreetAxes.fid--1290087_1a03126d94f_-4930","geometry":{"type":"LineString","coordinates":[[152772.6357787,170842.1926875],[152777.79413389,170845.27850889],[152787.96573692,170846.81067324]]},"geometry_name":"GEOM","properties":{"INSPIRE_ID":"https://databrussels.be/id/streetaxe/88900","TYPE":"I","HIERARCHY":"IDR","LVL":0,"STARTSN_ID":"https://databrussels.be/id/streetnode/7669","ENDSN_ID":"https://databrussels.be/id/streetnode/7675","STRNAMEFRE":"Square Levie","STRNAMEDUT":"Leviesquare","SLOPE":2.76,"LENGTH":16.2972521754019},"bbox":[152772.6357787,170842.1926875,152787.96573692,170846.81067324]},{"type":"Feature","id":"StreetAxes.fid--1290087_1a03126d94f_-4952","geometry":{"type":"LineString","coordinates":[[152979.15942921,170866.7518731],[152979.98093307,170868.39793913],[152981.91474133,170871.50172915],[152987.19639084,170874.63566285]]},"geometry_name":"GEOM","properties":{"INSPIRE_ID":"https://databrussels.be/id/streetaxe/89048","TYPE":"I","HIERARCHY":"IDR","LVL":0,"STARTSN_ID":"https://databrussels.be/id/streetnode/7688","ENDSN_ID":"https://databrussels.be/id/streetnode/8005","STRNAMEFRE":"Avenue de Mai","STRNAMEDUT":"Meilaan","SLOPE":2.41,"LENGTH":11.6380492720594},"bbox":[152979.15942921,170866.7518731,152987.19639084,170874.63566285]},{"type":"Feature","id":"StreetAxes.fid--1290087_1a03126d94f_-4944","geometry":{"type":"LineString","coordinates":[[152578.29118908,170897.31743994],[152562.12906345,170901.90173619]]},"geometry_name":"GEOM","properties":{"INSPIRE_ID":"https://databrussels.be/id/streetaxe/89302","TYPE":"I","HIERARCHY":"IDR","LVL":0,"STARTSN_ID":"https://databrussels.be/id/streetnode/7347","ENDSN_ID":"https://databrussels.be/id/streetnode/7355","STRNAMEFRE":"Avenue des Cerisiers","STRNAMEDUT":"Kerselarenlaan","SLOPE":0.06,"LENGTH":16.7997046707616},"bbox":[152562.12906345,170897.31743994,152578.29118908,170901.90173619]},{"type":"Feature","id":"StreetAxes.fid--1290087_1a03126d94f_-4950","geometry":{"type":"LineString","coordinates":[[152992.389313,170874.13324972],[152996.22575024,170872.01358195],[152998.2874468,170869.64267556]]},"geometry_name":"GEOM","properties":{"INSPIRE_ID":"https://databrussels.be/id/streetaxe/89841","TYPE":"I","HIERARCHY":"IDR","LVL":0,"STARTSN_ID":"https://databrussels.be/id/streetnode/7534","ENDSN_ID":"https://databrussels.be/id/streetnode/7670","STRNAMEFRE":"Avenue de Mai","STRNAMEDUT":"Meilaan","SLOPE":8.76,"LENGTH":7.52500355250471},"bbox":[152992.389313,170869.64267556,152998.2874468,170874.13324972]},{"type":"Feature","id":"StreetAxes.fid--1290087_1a03126d94f_-4933","geometry":{"type":"LineString","coordinates":[[152763.94470841,170810.30553111],[152775.09189356,170819.35652927]]},"geometry_name":"GEOM","properties":{"INSPIRE_ID":"https://databrussels.be/id/streetaxe/89842","TYPE":"I","HIERARCHY":"IDR","LVL":0,"STARTSN_ID":"https://databrussels.be/id/streetnode/7672","ENDSN_ID":"https://databrussels.be/id/streetnode/8014","STRNAMEFRE":"Square Levie","STRNAMEDUT":"Leviesquare","SLOPE":2.65,"LENGTH":14.3589799186053},"bbox":[152763.94470841,170810.30553111,152775.09189356,170819.35652927]},{"type":"Feature","id":"StreetAxes.fid--1290087_1a03126d94f_-4913","geometry":{"type":"LineString","coordinates":[[152980.26514207,170856.99856869],[152978.95124482,170860.36176995],[152978.37037641,170863.99888814],[152979.15942921,170866.7518731]]},"geometry_name":"GEOM","properties":{"INSPIRE_ID":"https://databrussels.be/id/streetaxe/89843","TYPE":"I","HIERARCHY":"IDR","LVL":0,"STARTSN_ID":"https://databrussels.be/id/streetnode/8008","ENDSN_ID":"https://databrussels.be/id/streetnode/7688","STRNAMEFRE":"Avenue de Mai","STRNAMEDUT":"Meilaan","SLOPE":0.2,"LENGTH":10.1577823131106},"bbox":[152978.37037641,170856.99856869,152980.26514207,170866.7518731]},{"type":"Feature","id":"StreetAxes.fid--1290087_1a03126d94f_-4928","geometry":{"type":"LineString","coordinates":[[152815.85181765,170830.78067043],[152815.12520081,170836.20492518],[152814.08917295,170840.08987788]]},"geometry_name":"GEOM","properties":{"INSPIRE_ID":"https://databrussels.be/id/streetaxe/89844","TYPE":"I","HIERARCHY":"IDR","LVL":0,"STARTSN_ID":"https://databrussels.be/id/streetnode/7668","ENDSN_ID":"https://databrussels.be/id/streetnode/8009","STRNAMEFRE":"Square Levie","STRNAMEDUT":"Levieplein","SLOPE":0,"LENGTH":9.49342877840654},"bbox":[152814.08917295,170830.78067043,152815.85181765,170840.08987788]},{"type":"Feature","id":"StreetAxes.fid--1290087_1a03126d94f_-494e","geometry":{"type":"LineString","coordinates":[[152987.19639084,170874.63566285],[152992.389313,170874.13324972]]},"geometry_name":"GEOM","properties":{"INSPIRE_ID":"https://databrussels.be/id/streetaxe/89845","TYPE":"I","HIERARCHY":"IDR","LVL":0,"STARTSN_ID":"https://databrussels.be/id/streetnode/8005","ENDSN_ID":"https://databrussels.be/id/streetnode/7534","STRNAMEFRE":"Avenue de Mai","STRNAMEDUT":"Meilaan","SLOPE":5.36,"LENGTH":5.21716969012934},"bbox":[152987.19639084,170874.13324972,152992.389313,170874.63566285]},{"type":"Feature","id":"StreetAxes.fid--1290087_1a03126d94f_-4911","geometry":{"type":"LineString","coordinates":[[152999.67578636,170860.29326666],[152997.57852896,170856.53928005],[152995.13916555,170854.08766804],[152990.83158799,170852.39728755]]},"geometry_name":"GEOM","properties":{"INSPIRE_ID":"https://databrussels.be/id/streetaxe/89846","TYPE":"I","HIERARCHY":"IDR","LVL":0,"STARTSN_ID":"https://databrussels.be/id/streetnode/8013","ENDSN_ID":"https://databrussels.be/id/streetnode/8004","STRNAMEFRE":"Avenue de Mai","STRNAMEDUT":"Meilaan","SLOPE":6.94,"LENGTH":12.3859340650175},"bbox":[152990.83158799,170852.39728755,152999.67578636,170860.29326666]},{"type":"Feature","id":"StreetAxes.fid--1290087_1a03126d94f_-492c","geometry":{"type":"LineString","coordinates":[[152808.01582089,170846.08850279],[152811.72567201,170843.64030824],[152814.08917295,170840.08987788]]},"geometry_name":"GEOM","properties":{"INSPIRE_ID":"https://databrussels.be/id/streetaxe/93068","TYPE":"I","HIERARCHY":"IDR","LVL":0,"STARTSN_ID":"https://databrussels.be/id/streetnode/8009","ENDSN_ID":"https://databrussels.be/id/streetnode/15845","STRNAMEFRE":"Square Levie","STRNAMEDUT":"Leviesquare","SLOPE":null,"LENGTH":8.71001756793274},"bbox":[152808.01582089,170840.08987788,152814.08917295,170846.08850279]},{"type":"Feature","id":"StreetAxes.fid--1290087_1a03126d94f_-491e","geometry":{"type":"LineString","coordinates":[[152845.11046193,170846.35705274],[152846.99503326,170835.43117936]]},"geometry_name":"GEOM","properties":{"INSPIRE_ID":"https://databrussels.be/id/streetaxe/93069","TYPE":"I","HIERARCHY":"IDR","LVL":0,"STARTSN_ID":"https://databrussels.be/id/streetnode/7536","ENDSN_ID":"https://databrussels.be/id/streetnode/7687","STRNAMEFRE":"Square Levie","STRNAMEDUT":"Levieplein","SLOPE":null,"LENGTH":11.0872141781071},"bbox":[152845.11046193,170835.43117936,152846.99503326,170846.35705274]},{"type":"Feature","id":"StreetAxes.fid--1290087_1a03126d94f_-4922","geometry":{"type":"LineString","coordinates":[[152841.95517244,170811.57860659],[152835.57071053,170804.36886684],[152827.0393363,170789.74704915]]},"geometry_name":"GEOM","properties":{"INSPIRE_ID":"https://databrussels.be/id/streetaxe/93070","TYPE":"S","HIERARCHY":"IDR","LVL":0,"STARTSN_ID":"https://databrussels.be/id/streetnode/8010","ENDSN_ID":"https://databrussels.be/id/streetnode/8007","STRNAMEFRE":"Square Levie","STRNAMEDUT":"Levieplein","SLOPE":null,"LENGTH":26.5589792597824},"bbox":[152827.0393363,170789.74704915,152841.95517244,170811.57860659]},{"type":"Feature","id":"StreetAxes.fid--1290087_1a03126d94f_-491f","geometry":{"type":"LineString","coordinates":[[152846.99503326,170835.43117936],[152847.90052555,170830.18155363],[152848.76081224,170819.26396714],[152841.95517244,170811.57860659]]},"geometry_name":"GEOM","properties":{"INSPIRE_ID":"https://databrussels.be/id/streetaxe/93071","TYPE":"S","HIERARCHY":"IDR","LVL":0,"STARTSN_ID":"https://databrussels.be/id/streetnode/7687","ENDSN_ID":"https://databrussels.be/id/streetnode/8007","STRNAMEFRE":"Square Levie","STRNAMEDUT":"Levieplein","SLOPE":1.22,"LENGTH":26.5441239519707},"bbox":[152841.95517244,170811.57860659,152848.76081224,170835.43117936]},{"type":"Feature","id":"StreetAxes.fid--1290087_1a03126d94f_-492e","geometry":{"type":"LineString","coordinates":[[152787.96573692,170846.81067324],[152796.73311491,170848.13131699],[152801.7654934,170847.999808],[152808.01582089,170846.08850279]]},"geometry_name":"GEOM","properties":{"INSPIRE_ID":"https://databrussels.be/id/streetaxe/93072","TYPE":"I","HIERARCHY":"IDR","LVL":0,"STARTSN_ID":"https://databrussels.be/id/streetnode/7675","ENDSN_ID":"https://databrussels.be/id/streetnode/15845","STRNAMEFRE":"Square Levie","STRNAMEDUT":"Leviesquare","SLOPE":2.73,"LENGTH":20.4364114076736},"bbox":[152787.96573692,170846.08850279,152808.01582089,170848.13131699]},{"type":"Feature","id":"StreetAxes.fid--1290087_1a03126d94f_-492d","geometry":{"type":"LineString","coordinates":[[152840.59198935,170872.55306813],[152820.11415586,170855.92443194],[152817.53803518,170853.82705292],[152808.01582089,170846.08850279]]},"geometry_name":"GEOM","properties":{"INSPIRE_ID":"https://databrussels.be/id/streetaxe/93073","TYPE":"S","HIERARCHY":"IDR","LVL":0,"STARTSN_ID":"https://databrussels.be/id/streetnode/8003","ENDSN_ID":"https://databrussels.be/id/streetnode/15845","STRNAMEFRE":"Avenue Herbert Hoover","STRNAMEDUT":"Herbert Hooverlaan","SLOPE":3.33,"LENGTH":41.9711829279524},"bbox":[152808.01582089,170846.08850279,152840.59198935,170872.55306813]},{"type":"Feature","id":"StreetAxes.fid--1290087_1a03126d94f_-490b","geometry":{"type":"LineString","coordinates":[[152521.46607369,170502.98419819],[152519.0932198,170508.70697992],[152489.06507824,170587.70566984]]},"geometry_name":"GEOM","properties":{"INSPIRE_ID":"https://databrussels.be/id/streetaxe/95603","TYPE":"S","HIERARCHY":"MAR","LVL":0,"STARTSN_ID":"https://databrussels.be/id/streetnode/","ENDSN_ID":"https://databrussels.be/id/streetnode/","STRNAMEFRE":"Boulevard Brand Whitlock","STRNAMEDUT":"Brand Whitlocklaan","SLOPE":0.4,"LENGTH":90.7084209928373},"bbox":[152489.06507824,170502.98419819,152521.46607369,170587.70566984]},{"type":"Feature","id":"StreetAxes.fid--1290087_1a03126d94f_-493e","geometry":{"type":"LineString","coordinates":[[152537.79391418,170908.74967223],[152477.08421791,170925.70271615],[152427.36106691,170939.28297658],[152423.68486105,170939.70264296]]},"geometry_name":"GEOM","properties":{"INSPIRE_ID":"https://databrussels.be/id/streetaxe/95607","TYPE":"S","HIERARCHY":"IDR","LVL":0,"STARTSN_ID":"https://databrussels.be/id/streetnode/","ENDSN_ID":"https://databrussels.be/id/streetnode/","STRNAMEFRE":"Avenue des Cerisiers","STRNAMEDUT":"Kerselarenlaan","SLOPE":0.62,"LENGTH":118.276702269224},"bbox":[152423.68486105,170908.74967223,152537.79391418,170939.70264296]},{"type":"Feature","id":"StreetAxes.fid--1290087_1a03126d94f_-4942","geometry":{"type":"LineString","coordinates":[[152412.68226999,170933.03304785],[152420.03343241,170930.99216684],[152535.10028432,170899.08224339]]},"geometry_name":"GEOM","properties":{"INSPIRE_ID":"https://databrussels.be/id/streetaxe/95615","TYPE":"S","HIERARCHY":"IDR","LVL":0,"STARTSN_ID":"https://databrussels.be/id/streetnode/","ENDSN_ID":"https://databrussels.be/id/streetnode/","STRNAMEFRE":"Avenue des Cerisiers","STRNAMEDUT":"Kerselarenlaan","SLOPE":0.46,"LENGTH":127.03868478252},"bbox":[152412.68226999,170899.08224339,152535.10028432,170933.03304785]},{"type":"Feature","id":"StreetAxes.fid--1290087_1a03126d94f_-490a","geometry":{"type":"LineString","coordinates":[[152536.98670317,170482.22021093],[152533.41682215,170500.91590515],[152498.43151511,170594.25597336]]},"geometry_name":"GEOM","properties":{"INSPIRE_ID":"https://databrussels.be/id/streetaxe/95618","TYPE":"S","HIERARCHY":"MER","LVL":0,"STARTSN_ID":"https://databrussels.be/id/streetnode/","ENDSN_ID":"https://databrussels.be/id/streetnode/","STRNAMEFRE":"Boulevard Brand Whitlock","STRNAMEDUT":"Brand Whitlocklaan","SLOPE":0.45,"LENGTH":118.71466339477},"bbox":[152498.43151511,170482.22021093,152536.98670317,170594.25597336]},{"type":"Feature","id":"StreetAxes.fid--1290087_1a03126d94f_-4908","geometry":{"type":"LineString","coordinates":[[152550.4810122,170514.58064041],[152548.28564072,170520.87333657],[152516.55770492,170606.93230336]]},"geometry_name":"GEOM","properties":{"INSPIRE_ID":"https://databrussels.be/id/streetaxe/95629","TYPE":"S","HIERARCHY":"MAR","LVL":0,"STARTSN_ID":"https://databrussels.be/id/streetnode/","ENDSN_ID":"https://databrussels.be/id/streetnode/","STRNAMEFRE":"Boulevard Brand Whitlock","STRNAMEDUT":"Brand Whitlocklaan","SLOPE":0.4,"LENGTH":98.38601798523},"bbox":[152516.55770492,170514.58064041,152550.4810122,170606.93230336]},{"type":"Feature","id":"StreetAxes.fid--1290087_1a03126d94f_-493d","geometry":{"type":"LineString","coordinates":[[152418.08967754,170962.02386502],[152425.61101643,170964.79865813],[152516.23603784,170998.25282151],[152524.05976439,171000.88400642]]},"geometry_name":"GEOM","properties":{"INSPIRE_ID":"https://databrussels.be/id/streetaxe/95634","TYPE":"S","HIERARCHY":"IDR","LVL":0,"STARTSN_ID":"https://databrussels.be/id/streetnode/","ENDSN_ID":"https://databrussels.be/id/streetnode/","STRNAMEFRE":"Avenue de Roodebeek","STRNAMEDUT":"Roodebeeklaan","SLOPE":0.19,"LENGTH":112.873848631377},"bbox":[152418.08967754,170962.02386502,152524.05976439,171000.88400642]},{"type":"Feature","id":"StreetAxes.fid--1290087_1a03126d94f_-4909","geometry":{"type":"LineString","coordinates":[[152553.49424811,170488.41101214],[152543.88924032,170504.92158663],[152507.96598013,170600.92378531]]},"geometry_name":"GEOM","properties":{"INSPIRE_ID":"https://databrussels.be/id/streetaxe/95639","TYPE":"S","HIERARCHY":"MER","LVL":0,"STARTSN_ID":"https://databrussels.be/id/streetnode/","ENDSN_ID":"https://databrussels.be/id/streetnode/","STRNAMEFRE":"Boulevard Brand Whitlock","STRNAMEDUT":"Brand Whitlocklaan","SLOPE":0.43,"LENGTH":121.604368585502},"bbox":[152507.96598013,170488.41101214,152553.49424811,170600.92378531]},{"type":"Feature","id":"StreetAxes.fid--1290087_1a03126d94f_-490c","geometry":{"type":"LineString","coordinates":[[152545.698,170633.971],[152536.82,170658.855],[152524.22,170690.47],[152519.29,170697.055],[152510.49,170703.49],[152503.125,170705.75],[152496.655,170706.145],[152487.48055248,170703.81757722],[152482.15337453,170702.03285377]]},"geometry_name":"GEOM","properties":{"INSPIRE_ID":"https://databrussels.be/id/streetaxe/95640","TYPE":"S","HIERARCHY":"DR","LVL":0,"STARTSN_ID":"https://databrussels.be/id/streetnode/","ENDSN_ID":"https://databrussels.be/id/streetnode/","STRNAMEFRE":"Square Vergote","STRNAMEDUT":"Vergotesquare","SLOPE":1.92,"LENGTH":108.850690299857},"bbox":[152482.15337453,170633.971,152545.698,170706.145]}],"numberReturned":90,"grand_bruxelles_source":{"authority":"Paradigm / Brussels-Capital Region","service":"https://geoservices-urbis.irisnet.be/geoserver/urbisvector/wfs","layer":"urbisvector:StreetAxes","crs":"EPSG:31370","bbox":[152500.0,170500.0,153000.0,171000.0],"cell_id":"bxl-e152500-n170500-s500","ownership":"bbox_intersection_source_unclipped"}}
