{"type":"FeatureCollection","totalFeatures":43,"numberMatched":43,"timeStamp":"2026-08-23T00:56:03.429Z","crs":{"type":"name","properties":{"name":"urn:ogc:def:crs:EPSG::31370"}},"bbox":[143875.66643274,172465.042,144570.44,173092.98133654],"features":[{"type":"Feature","id":"StreetAxes.fid--63af041f_1a02c127ff3_-6df3","geometry":{"type":"LineString","coordinates":[[144518.025,172547.746],[144523.228,172544.816],[144566.78,172520.335],[144570.44,172515.192],[144568.745,172510.412],[144523.575,172467.01],[144519.665,172465.042],[144515.5,172465.298],[144487.37,172481.14],[144482.32,172483.985]]},"geometry_name":"GEOM","properties":{"INSPIRE_ID":"https://databrussels.be/id/streetaxe/72269","TYPE":"S","HIERARCHY":null,"LVL":0,"STARTSN_ID":"https://databrussels.be/id/streetnode/2755","ENDSN_ID":"https://databrussels.be/id/streetnode/2735","STRNAMEFRE":"Clos des Hortensias","STRNAMEDUT":"Hortensiasgaarde","SLOPE":0.75,"LENGTH":176.58915483158},"bbox":[144482.32,172465.042,144570.44,172547.746]},{"type":"Feature","id":"StreetAxes.fid--63af041f_1a02c127ff3_-6dea","geometry":{"type":"LineString","coordinates":[[144279.45514392,172923.68839135],[144276.231,172933.822],[144241.15830947,173048.81121513],[144237.057,173062.155]]},"geometry_name":"GEOM","properties":{"INSPIRE_ID":"https://databrussels.be/id/streetaxe/73899","TYPE":"S","HIERARCHY":"DR","LVL":0,"STARTSN_ID":"https://databrussels.be/id/streetnode/12179","ENDSN_ID":"https://databrussels.be/id/streetnode/12180","STRNAMEFRE":"Rue de l'Azur","STRNAMEDUT":"Azuurstraat","SLOPE":0.93,"LENGTH":144.813018218871},"bbox":[144237.057,172923.68839135,144279.45514392,173062.155]},{"type":"Feature","id":"StreetAxes.fid--63af041f_1a02c127ff3_-6dcf","geometry":{"type":"LineString","coordinates":[[144160.07152341,172679.40427411],[144145.77635813,172666.60540187],[144110.06318011,172634.83169225],[144097.36060614,172620.30408238],[144088.92535164,172608.28059003],[144072.58631648,172580.43626334],[144048.42247237,172538.62045213],[144045.12308036,172531.57646802],[144039.00109417,172525.50464522]]},"geometry_name":"GEOM","properties":{"INSPIRE_ID":"https://databrussels.be/id/streetaxe/74068","TYPE":"S","HIERARCHY":"DR","LVL":0,"STARTSN_ID":"https://databrussels.be/id/streetnode/12143","ENDSN_ID":"https://databrussels.be/id/streetnode/9429","STRNAMEFRE":"Rue de l'Etoile Polaire","STRNAMEDUT":"Poolsterstraat","SLOPE":1.94,"LENGTH":197.954931274795},"bbox":[144039.00109417,172525.50464522,144160.07152341,172679.40427411]},{"type":"Feature","id":"StreetAxes.fid--63af041f_1a02c127ff3_-6dde","geometry":{"type":"LineString","coordinates":[[144405.136,172898.792],[144400.94441581,172890.43022925],[144395.43429034,172885.32797333],[144388.166,172881.873],[144309.014,172854.367],[144301.8806593,172851.0859582]]},"geometry_name":"GEOM","properties":{"INSPIRE_ID":"https://databrussels.be/id/streetaxe/74188","TYPE":"S","HIERARCHY":"DR","LVL":0,"STARTSN_ID":"https://databrussels.be/id/streetnode/10157","ENDSN_ID":"https://databrussels.be/id/streetnode/12178","STRNAMEFRE":"Rue des Sept Etoiles","STRNAMEDUT":"Zevensterrenstraat","SLOPE":6.31,"LENGTH":116.557663648487},"bbox":[144301.8806593,172851.0859582,144405.136,172898.792]},{"type":"Feature","id":"StreetAxes.fid--63af041f_1a02c127ff3_-6de6","geometry":{"type":"LineString","coordinates":[[144364.24,172612.058],[144366.126,172624.004],[144367.38,172639.91],[144367.675,172652.025],[144367.14,172661.285],[144365.44,172676.088],[144360.365,172695.66],[144347.722,172729.12],[144315.035,172815.84],[144304.64713034,172843.38091412],[144301.8806593,172851.0859582]]},"geometry_name":"GEOM","properties":{"INSPIRE_ID":"https://databrussels.be/id/streetaxe/74189","TYPE":"S","HIERARCHY":null,"LVL":0,"STARTSN_ID":"https://databrussels.be/id/streetnode/10154","ENDSN_ID":"https://databrussels.be/id/streetnode/12178","STRNAMEFRE":"Rue du Broek","STRNAMEDUT":"Broekstraat","SLOPE":0.5,"LENGTH":250.629102779456},"bbox":[144301.8806593,172612.058,144367.675,172851.0859582]},{"type":"Feature","id":"StreetAxes.fid--63af041f_1a02c127ff3_-6de0","geometry":{"type":"LineString","coordinates":[[144087.56874037,172767.68401714],[144075.96,172784.251],[144047.132,172818.288],[144015.93709895,172849.3275826],[143996.4465,172866.29836494],[143969.562,172887.028],[143924.023,172918.429],[143899.80459277,172933.15437267],[143886.2786971,172939.80995309],[143875.66643274,172943.49427852]]},"geometry_name":"GEOM","properties":{"INSPIRE_ID":"https://databrussels.be/id/streetaxe/74227","TYPE":"S","HIERARCHY":null,"LVL":0,"STARTSN_ID":"https://databrussels.be/id/streetnode/12141","ENDSN_ID":"https://databrussels.be/id/streetnode/8869","STRNAMEFRE":"Rue de Grand-Bigard","STRNAMEDUT":"Groot-Bijgaardenstraat","SLOPE":2.03,"LENGTH":278.600280735291},"bbox":[143875.66643274,172767.68401714,144087.56874037,172943.49427852]},{"type":"Feature","id":"StreetAxes.fid--63af041f_1a02c127ff3_-6de2","geometry":{"type":"LineString","coordinates":[[144106.61719099,172740.485],[144096.888,172754.386],[144087.56874037,172767.68401714]]},"geometry_name":"GEOM","properties":{"INSPIRE_ID":"https://databrussels.be/id/streetaxe/74228","TYPE":"S","HIERARCHY":"DR","LVL":0,"STARTSN_ID":"https://databrussels.be/id/streetnode/12142","ENDSN_ID":"https://databrussels.be/id/streetnode/12141","STRNAMEFRE":"Rue de Grand-Bigard","STRNAMEDUT":"Groot-Bijgaardenstraat","SLOPE":1.39,"LENGTH":33.2058745805107},"bbox":[144087.56874037,172740.485,144106.61719099,172767.68401714]},{"type":"Feature","id":"StreetAxes.fid--63af041f_1a02c127ff3_-6de3","geometry":{"type":"LineString","coordinates":[[144160.07152341,172679.40427411],[144132.13038208,172709.13066882],[144121.99808622,172720.01722636],[144106.61719099,172740.485]]},"geometry_name":"GEOM","properties":{"INSPIRE_ID":"https://databrussels.be/id/streetaxe/74229","TYPE":"S","HIERARCHY":"DR","LVL":0,"STARTSN_ID":"https://databrussels.be/id/streetnode/12143","ENDSN_ID":"https://databrussels.be/id/streetnode/12142","STRNAMEFRE":"Rue de Grand-Bigard","STRNAMEDUT":"Groot-Bijgaardenstraat","SLOPE":0.1,"LENGTH":81.2715486196112},"bbox":[144106.61719099,172679.40427411,144160.07152341,172740.485]},{"type":"Feature","id":"StreetAxes.fid--63af041f_1a02c127ff3_-6ddf","geometry":{"type":"LineString","coordinates":[[144301.8806593,172851.0859582],[144299.321,172858.215],[144282.068,172915.45],[144279.45514392,172923.68839135]]},"geometry_name":"GEOM","properties":{"INSPIRE_ID":"https://databrussels.be/id/streetaxe/74261","TYPE":"S","HIERARCHY":"DR","LVL":0,"STARTSN_ID":"https://databrussels.be/id/streetnode/12178","ENDSN_ID":"https://databrussels.be/id/streetnode/12179","STRNAMEFRE":"Rue du Broek","STRNAMEDUT":"Broekstraat","SLOPE":0.83,"LENGTH":75.9962943346262},"bbox":[144279.45514392,172851.0859582,144301.8806593,172923.68839135]},{"type":"Feature","id":"StreetAxes.fid--63af041f_1a02c127ff3_-6df5","geometry":{"type":"LineString","coordinates":[[144530.93661053,172956.39387773],[144527.98567047,172948.59971562],[144501.445,172880.19],[144498.22743224,172871.33962299]]},"geometry_name":"GEOM","properties":{"INSPIRE_ID":"https://databrussels.be/id/streetaxe/76164","TYPE":"S","HIERARCHY":"DR","LVL":0,"STARTSN_ID":"https://databrussels.be/id/streetnode/9188","ENDSN_ID":"https://databrussels.be/id/streetnode/9413","STRNAMEFRE":"Avenue de Selliers de Moranville","STRNAMEDUT":"de Selliers de Moranvillelaan","SLOPE":5.45,"LENGTH":91.1289597379029},"bbox":[144498.22743224,172871.33962299,144530.93661053,172956.39387773]},{"type":"Feature","id":"StreetAxes.fid--63af041f_1a02c127ff3_-6de9","geometry":{"type":"LineString","coordinates":[[144530.93661053,172956.39387773],[144523.4475,172959.304],[144449.05,172976.01],[144430.075,172981.388],[144412.675,172986.79],[144389.948,172994.855],[144364.73268756,173005.58244293],[144362.135,173006.732]]},"geometry_name":"GEOM","properties":{"INSPIRE_ID":"https://databrussels.be/id/streetaxe/76166","TYPE":"S","HIERARCHY":"DR","LVL":0,"STARTSN_ID":"https://databrussels.be/id/streetnode/9188","ENDSN_ID":"https://databrussels.be/id/streetnode/1989","STRNAMEFRE":"Avenue des Frères Becqué","STRNAMEDUT":"Gebroeders Becquélaan","SLOPE":6.53,"LENGTH":176.585052794711},"bbox":[144362.135,172956.39387773,144530.93661053,173006.732]},{"type":"Feature","id":"StreetAxes.fid--63af041f_1a02c127ff3_-6df2","geometry":{"type":"LineString","coordinates":[[144346.666,172477.618],[144346.955,172486.165],[144361.395,172594.13],[144362.353,172600.112],[144364.24,172612.058]]},"geometry_name":"GEOM","properties":{"INSPIRE_ID":"https://databrussels.be/id/streetaxe/77887","TYPE":"S","HIERARCHY":"DR","LVL":0,"STARTSN_ID":"https://databrussels.be/id/streetnode/848","ENDSN_ID":"https://databrussels.be/id/streetnode/10154","STRNAMEFRE":"Rue du Broek","STRNAMEDUT":"Broekstraat","SLOPE":1.72,"LENGTH":135.630600608654},"bbox":[144346.666,172477.618,144364.24,172612.058]},{"type":"Feature","id":"StreetAxes.fid--63af041f_1a02c127ff3_-6de4","geometry":{"type":"LineString","coordinates":[[144087.56874037,172767.68401714],[144017.23,172716.315],[143976.276,172684.689],[143960.026,172670.806]]},"geometry_name":"GEOM","properties":{"INSPIRE_ID":"https://databrussels.be/id/streetaxe/78099","TYPE":"S","HIERARCHY":"DR","LVL":0,"STARTSN_ID":"https://databrussels.be/id/streetnode/12141","ENDSN_ID":"https://databrussels.be/id/streetnode/12402","STRNAMEFRE":"Rue du Zénith","STRNAMEDUT":"Zenitstraat","SLOPE":1.09,"LENGTH":160.21626227359},"bbox":[143960.026,172670.806,144087.56874037,172767.68401714]},{"type":"Feature","id":"StreetAxes.fid--63af041f_1a02c127ff3_-6df1","geometry":{"type":"LineString","coordinates":[[144518.025,172547.746],[144516.955,172545.856],[144505.899,172526.923],[144483.506,172486.107],[144482.32,172483.985]]},"geometry_name":"GEOM","properties":{"INSPIRE_ID":"https://databrussels.be/id/streetaxe/78336","TYPE":"S","HIERARCHY":"DR","LVL":0,"STARTSN_ID":"https://databrussels.be/id/streetnode/2755","ENDSN_ID":"https://databrussels.be/id/streetnode/2735","STRNAMEFRE":"Rue des Fleuristes","STRNAMEDUT":"Bloemkwekersstraat","SLOPE":1.81,"LENGTH":73.0827948659096},"bbox":[144482.32,172483.985,144518.025,172547.746]},{"type":"Feature","id":"StreetAxes.fid--63af041f_1a02c127ff3_-6df0","geometry":{"type":"LineString","coordinates":[[144298.786,172494.838],[144289.693,172499.324],[144275.88,172507.884],[144253.175,172527.125],[144243.895,172538.595],[144238.327,172546.72],[144232.145,172558.206],[144190.908,172641.735],[144185.065,172650.895],[144174.342,172664.954],[144160.07152341,172679.40427411]]},"geometry_name":"GEOM","properties":{"INSPIRE_ID":"https://databrussels.be/id/streetaxe/78491","TYPE":"S","HIERARCHY":"DR","LVL":0,"STARTSN_ID":"https://databrussels.be/id/streetnode/12183","ENDSN_ID":"https://databrussels.be/id/streetnode/12143","STRNAMEFRE":"Rue de Grand-Bigard","STRNAMEDUT":"Groot-Bijgaardenstraat","SLOPE":0.5,"LENGTH":235.807742355883},"bbox":[144160.07152341,172494.838,144298.786,172679.40427411]},{"type":"Feature","id":"StreetAxes.fid--63af041f_1a02c127ff3_-6de1","geometry":{"type":"LineString","coordinates":[[144301.8806593,172851.0859582],[144293.523,172847.12],[144181.39,172783.185],[144113.54,172745.775],[144106.61719099,172740.485]]},"geometry_name":"GEOM","properties":{"INSPIRE_ID":"https://databrussels.be/id/streetaxe/78502","TYPE":"S","HIERARCHY":"DR","LVL":0,"STARTSN_ID":"https://databrussels.be/id/streetnode/12178","ENDSN_ID":"https://databrussels.be/id/streetnode/12142","STRNAMEFRE":"Rue des Sept Etoiles","STRNAMEDUT":"Zevensterrenstraat","SLOPE":1.76,"LENGTH":224.522788454782},"bbox":[144106.61719099,172740.485,144301.8806593,172851.0859582]},{"type":"Feature","id":"StreetAxes.fid--63af041f_1a02c127ff3_-6df6","geometry":{"type":"LineString","coordinates":[[144487.55622738,172839.38984169],[144495.40683994,172838.99134749],[144502.70813541,172842.72913625],[144506.80927783,172847.35182177]]},"geometry_name":"GEOM","properties":{"INSPIRE_ID":"https://databrussels.be/id/streetaxe/79320","TYPE":"S","HIERARCHY":"IDR","LVL":0,"STARTSN_ID":"https://databrussels.be/id/streetnode/9425","ENDSN_ID":"https://databrussels.be/id/streetnode/9421","STRNAMEFRE":"Avenue du Roi Albert","STRNAMEDUT":"Koning Albertlaan","SLOPE":2.83,"LENGTH":22.2428490200271},"bbox":[144487.55622738,172838.99134749,144506.80927783,172847.35182177]},{"type":"Feature","id":"StreetAxes.fid--63af041f_1a02c127ff3_-6de5","geometry":{"type":"LineString","coordinates":[[144487.55622738,172839.38984169],[144485.067,172830.58],[144433.138,172638.472],[144428.515,172623.51],[144423.80193094,172614.06102449]]},"geometry_name":"GEOM","properties":{"INSPIRE_ID":"https://databrussels.be/id/streetaxe/79321","TYPE":"S","HIERARCHY":"DR","LVL":0,"STARTSN_ID":"https://databrussels.be/id/streetnode/9425","ENDSN_ID":"https://databrussels.be/id/streetnode/8866","STRNAMEFRE":"Avenue de Selliers de Moranville","STRNAMEDUT":"de Selliers de Moranvillelaan","SLOPE":4.64,"LENGTH":234.376641350163},"bbox":[144423.80193094,172614.06102449,144487.55622738,172839.38984169]},{"type":"Feature","id":"StreetAxes.fid--63af041f_1a02c127ff3_-6dec","geometry":{"type":"LineString","coordinates":[[144413.6040287,172607.45450094],[144393.95683831,172606.76045923],[144364.24,172612.058]]},"geometry_name":"GEOM","properties":{"INSPIRE_ID":"https://databrussels.be/id/streetaxe/79325","TYPE":"S","HIERARCHY":"DR","LVL":0,"STARTSN_ID":"https://databrussels.be/id/streetnode/9427","ENDSN_ID":"https://databrussels.be/id/streetnode/10154","STRNAMEFRE":"Sentier du Broek","STRNAMEDUT":"Broekweg","SLOPE":3.49,"LENGTH":49.8447796370863},"bbox":[144364.24,172606.76045923,144413.6040287,172612.058]},{"type":"Feature","id":"StreetAxes.fid--63af041f_1a02c127ff3_-6dd2","geometry":{"type":"LineString","coordinates":[[144039.00109417,172525.50464522],[144031.20202724,172523.03298509],[144025.27156984,172522.8238819],[144019.80225469,172523.40691194],[144013.8552588,172524.89868592],[144005.26303405,172526.22303145]]},"geometry_name":"GEOM","properties":{"INSPIRE_ID":"https://databrussels.be/id/streetaxe/79327","TYPE":"S","HIERARCHY":"DR","LVL":0,"STARTSN_ID":"https://databrussels.be/id/streetnode/9429","ENDSN_ID":"https://databrussels.be/id/streetnode/8868","STRNAMEFRE":"Rue de l'Etoile Polaire","STRNAMEDUT":"Poolsterstraat","SLOPE":0.03,"LENGTH":34.4407313993459},"bbox":[144005.26303405,172522.8238819,144039.00109417,172526.22303145]},{"type":"Feature","id":"StreetAxes.fid--63af041f_1a02c127ff3_-6dd1","geometry":{"type":"LineString","coordinates":[[144005.26303405,172526.22303145],[144008.4674326,172514.99647119],[144016.50942109,172499.85490177],[144024.88769396,172486.81696832],[144035.19129614,172474.66378333]]},"geometry_name":"GEOM","properties":{"INSPIRE_ID":"https://databrussels.be/id/streetaxe/80929","TYPE":"S","HIERARCHY":"DR","LVL":0,"STARTSN_ID":"https://databrussels.be/id/streetnode/8868","ENDSN_ID":"https://databrussels.be/id/streetnode/8871","STRNAMEFRE":"Rue Mathieu Pauwels","STRNAMEDUT":"Mathieu Pauwelsstraat","SLOPE":1.46,"LENGTH":60.2505798390435},"bbox":[144005.26303405,172474.66378333,144035.19129614,172526.22303145]},{"type":"Feature","id":"StreetAxes.fid--63af041f_1a02c127ff3_-6dd0","geometry":{"type":"LineString","coordinates":[[144035.19129614,172474.66378333],[144036.13326709,172484.68343181],[144036.82876733,172502.7905541],[144039.63660987,172520.00768086],[144039.00109417,172525.50464522]]},"geometry_name":"GEOM","properties":{"INSPIRE_ID":"https://databrussels.be/id/streetaxe/80932","TYPE":"S","HIERARCHY":"DR","LVL":0,"STARTSN_ID":"https://databrussels.be/id/streetnode/8871","ENDSN_ID":"https://databrussels.be/id/streetnode/9429","STRNAMEFRE":"Rue de l'Etoile Polaire","STRNAMEDUT":"Poolsterstraat","SLOPE":1.7,"LENGTH":51.1624649508518},"bbox":[144035.19129614,172474.66378333,144039.63660987,172525.50464522]},{"type":"Feature","id":"StreetAxes.fid--63af041f_1a02c127ff3_-6ddd","geometry":{"type":"LineString","coordinates":[[144477.24205981,172863.06363382],[144469.73,172867.071],[144421.615,172892.136],[144405.136,172898.792]]},"geometry_name":"GEOM","properties":{"INSPIRE_ID":"https://databrussels.be/id/streetaxe/84167","TYPE":"SC","HIERARCHY":"IDR","LVL":0,"STARTSN_ID":"https://databrussels.be/id/streetnode/9417","ENDSN_ID":"https://databrussels.be/id/streetnode/10157","STRNAMEFRE":"Avenue du Roi Albert","STRNAMEDUT":"Koning Albertlaan","SLOPE":7.03,"LENGTH":80.5388093631828},"bbox":[144405.136,172863.06363382,144477.24205981,172898.792]},{"type":"Feature","id":"StreetAxes.fid--63af041f_1a02c127ff3_-6df8","geometry":{"type":"LineString","coordinates":[[144498.22743224,172871.33962299],[144490.08626623,172871.56528739],[144481.45620344,172868.0863782],[144477.24205981,172863.06363382]]},"geometry_name":"GEOM","properties":{"INSPIRE_ID":"https://databrussels.be/id/streetaxe/84196","TYPE":"S","HIERARCHY":"IDR","LVL":0,"STARTSN_ID":"https://databrussels.be/id/streetnode/9413","ENDSN_ID":"https://databrussels.be/id/streetnode/9417","STRNAMEFRE":"Avenue du Roi Albert","STRNAMEDUT":"Koning Albertlaan","SLOPE":4.16,"LENGTH":24.0056177911791},"bbox":[144477.24205981,172863.06363382,144498.22743224,172871.56528739]},{"type":"Feature","id":"StreetAxes.fid--63af041f_1a02c127ff3_-6dd8","geometry":{"type":"LineString","coordinates":[[144279.45514392,172923.68839135],[144272.00373652,172924.32825391],[144249.185,172926.26],[144078.41290461,172941.50596156]]},"geometry_name":"GEOM","properties":{"INSPIRE_ID":"https://databrussels.be/id/streetaxe/84590","TYPE":"SC","HIERARCHY":"IDR","LVL":0,"STARTSN_ID":"https://databrussels.be/id/streetnode/12179","ENDSN_ID":"https://databrussels.be/id/streetnode/12754","STRNAMEFRE":"Avenue du Roi Albert","STRNAMEDUT":"Koning Albertlaan","SLOPE":0.41,"LENGTH":201.830486439048},"bbox":[144078.41290461,172923.68839135,144279.45514392,172941.50596156]},{"type":"Feature","id":"StreetAxes.fid--63af041f_1a02c127ff3_-6dd9","geometry":{"type":"LineString","coordinates":[[144405.136,172898.792],[144388.658,172905.449],[144362.445,172913.2],[144334.29,172918.408],[144314.872,172920.695],[144286.936,172923.046],[144279.45514392,172923.68839135]]},"geometry_name":"GEOM","properties":{"INSPIRE_ID":"https://databrussels.be/id/streetaxe/84591","TYPE":"SC","HIERARCHY":"IDR","LVL":0,"STARTSN_ID":"https://databrussels.be/id/streetnode/10157","ENDSN_ID":"https://databrussels.be/id/streetnode/12179","STRNAMEFRE":"Avenue du Roi Albert","STRNAMEDUT":"Koning Albertlaan","SLOPE":5.22,"LENGTH":128.834818798248},"bbox":[144279.45514392,172898.792,144405.136,172923.68839135]},{"type":"Feature","id":"StreetAxes.fid--63af041f_1a02c127ff3_-6df9","geometry":{"type":"LineString","coordinates":[[144477.24205981,172863.06363382],[144475.54435589,172855.00487574],[144477.35671033,172847.86964161],[144482.08569321,172842.2269835],[144487.55622738,172839.38984169]]},"geometry_name":"GEOM","properties":{"INSPIRE_ID":"https://databrussels.be/id/streetaxe/84732","TYPE":"S","HIERARCHY":"IDR","LVL":0,"STARTSN_ID":"https://databrussels.be/id/streetnode/9417","ENDSN_ID":"https://databrussels.be/id/streetnode/9425","STRNAMEFRE":"Avenue du Roi Albert","STRNAMEDUT":"Koning Albertlaan","SLOPE":4.53,"LENGTH":29.1221837526481},"bbox":[144475.54435589,172839.38984169,144487.55622738,172863.06363382]},{"type":"Feature","id":"StreetAxes.fid--63af041f_1a02c127ff3_-6df4","geometry":{"type":"LineString","coordinates":[[144506.80927783,172847.35182177],[144508.61981043,172855.81025703],[144504.68282086,172865.24194766],[144498.22743224,172871.33962299]]},"geometry_name":"GEOM","properties":{"INSPIRE_ID":"https://databrussels.be/id/streetaxe/85201","TYPE":"S","HIERARCHY":"IDR","LVL":0,"STARTSN_ID":"https://databrussels.be/id/streetnode/9421","ENDSN_ID":"https://databrussels.be/id/streetnode/9413","STRNAMEFRE":"Avenue du Roi Albert","STRNAMEDUT":"Koning Albertlaan","SLOPE":3.42,"LENGTH":27.7504025474389},"bbox":[144498.22743224,172847.35182177,144508.61981043,172871.33962299]},{"type":"Feature","id":"StreetAxes.fid--63af041f_1a02c127ff3_-6dd3","geometry":{"type":"LineString","coordinates":[[143960.026,172670.806],[143966.5,172653.83],[143994.845,172551.472],[143998.61730369,172537.59342072],[144005.26303405,172526.22303145]]},"geometry_name":"GEOM","properties":{"INSPIRE_ID":"https://databrussels.be/id/streetaxe/87236","TYPE":"S","HIERARCHY":"DR","LVL":0,"STARTSN_ID":"https://databrussels.be/id/streetnode/12402","ENDSN_ID":"https://databrussels.be/id/streetnode/8868","STRNAMEFRE":"Rue du Sextant","STRNAMEDUT":"Sextantstraat","SLOPE":1.63,"LENGTH":151.930957208811},"bbox":[143960.026,172526.22303145,144005.26303405,172670.806]},{"type":"Feature","id":"StreetAxes.fid--63af041f_1a02c127ff3_-6def","geometry":{"type":"LineString","coordinates":[[144569.278,172639.346],[144564.054,172642.302],[144561.715,172641.313],[144558.135,172639.435],[144542.96,172625.07],[144514.882,172601.135],[144503.91,172592.125],[144489.765,172581.12],[144475.96,172571.754],[144473.594,172571.084],[144465.65,172575.244],[144444.036,172588.116],[144424.42439705,172601.92612031]]},"geometry_name":"GEOM","properties":{"INSPIRE_ID":"https://databrussels.be/id/streetaxe/87237","TYPE":"S","HIERARCHY":null,"LVL":0,"STARTSN_ID":"https://databrussels.be/id/streetnode/10155","ENDSN_ID":"https://databrussels.be/id/streetnode/9431","STRNAMEFRE":"Sentier du Broek","STRNAMEDUT":"Broekweg","SLOPE":4.64,"LENGTH":179.746081978957},"bbox":[144424.42439705,172571.084,144569.278,172642.302]},{"type":"Feature","id":"StreetAxes.fid--63af041f_1a02c127ff3_-6dd4","geometry":{"type":"LineString","coordinates":[[144023.62196085,172946.0590319],[143980.54130609,172949.62565642]]},"geometry_name":"GEOM","properties":{"INSPIRE_ID":"https://databrussels.be/id/streetaxe/89928","TYPE":"SC","HIERARCHY":"IDR","LVL":0,"STARTSN_ID":"https://databrussels.be/id/streetnode/12756","ENDSN_ID":"https://databrussels.be/id/streetnode/12755","STRNAMEFRE":"Avenue du Roi Albert","STRNAMEDUT":"Koning Albertlaan","SLOPE":0.86,"LENGTH":43.2280421181149},"bbox":[143980.54130609,172946.0590319,144023.62196085,172949.62565642]},{"type":"Feature","id":"StreetAxes.fid--63af041f_1a02c127ff3_-6dd6","geometry":{"type":"LineString","coordinates":[[144078.41290461,172941.50596156],[144023.62196085,172946.0590319]]},"geometry_name":"GEOM","properties":{"INSPIRE_ID":"https://databrussels.be/id/streetaxe/90124","TYPE":"SC","HIERARCHY":"IDR","LVL":0,"STARTSN_ID":"https://databrussels.be/id/streetnode/12754","ENDSN_ID":"https://databrussels.be/id/streetnode/12756","STRNAMEFRE":"Avenue du Roi Albert","STRNAMEDUT":"Koning Albertlaan","SLOPE":0.44,"LENGTH":54.9797959900202},"bbox":[144023.62196085,172941.50596156,144078.41290461,172946.0590319]},{"type":"Feature","id":"StreetAxes.fid--63af041f_1a02c127ff3_-6ded","geometry":{"type":"LineString","coordinates":[[144424.42439705,172601.92612031],[144426.85726148,172604.62206987],[144427.6162091,172608.17326288],[144426.49788051,172611.62816006],[144423.80193094,172614.06102449]]},"geometry_name":"GEOM","properties":{"INSPIRE_ID":"https://databrussels.be/id/streetaxe/90435","TYPE":"I","HIERARCHY":"DR","LVL":0,"STARTSN_ID":"https://databrussels.be/id/streetnode/9431","ENDSN_ID":"https://databrussels.be/id/streetnode/8866","STRNAMEFRE":"Sentier du Broek","STRNAMEDUT":"Broekweg","SLOPE":0.28,"LENGTH":14.5255489976441},"bbox":[144423.80193094,172601.92612031,144427.6162091,172614.06102449]},{"type":"Feature","id":"StreetAxes.fid--63af041f_1a02c127ff3_-6dee","geometry":{"type":"LineString","coordinates":[[144413.6040287,172607.45450094],[144414.72235729,172603.99960376],[144417.41830685,172601.56673933],[144420.96949987,172600.80779171],[144424.42439705,172601.92612031]]},"geometry_name":"GEOM","properties":{"INSPIRE_ID":"https://databrussels.be/id/streetaxe/91843","TYPE":"I","HIERARCHY":"DR","LVL":0,"STARTSN_ID":"https://databrussels.be/id/streetnode/9427","ENDSN_ID":"https://databrussels.be/id/streetnode/9431","STRNAMEFRE":"Sentier du Broek","STRNAMEDUT":"Broekweg","SLOPE":2.89,"LENGTH":14.5255489977538},"bbox":[144413.6040287,172600.80779171,144424.42439705,172607.45450094]},{"type":"Feature","id":"StreetAxes.fid--63af041f_1a02c127ff3_-6deb","geometry":{"type":"LineString","coordinates":[[144423.80193094,172614.06102449],[144420.25073792,172614.81997211],[144416.79584075,172613.70164352],[144414.36297632,172611.00569396],[144413.6040287,172607.45450094]]},"geometry_name":"GEOM","properties":{"INSPIRE_ID":"https://databrussels.be/id/streetaxe/91845","TYPE":"I","HIERARCHY":"DR","LVL":0,"STARTSN_ID":"https://databrussels.be/id/streetnode/8866","ENDSN_ID":"https://databrussels.be/id/streetnode/9427","STRNAMEFRE":"Avenue de Selliers de Moranville","STRNAMEDUT":"de Selliers de Moranvillelaan","SLOPE":3.17,"LENGTH":14.5255489977743},"bbox":[144413.6040287,172607.45450094,144423.80193094,172614.81997211]},{"type":"Feature","id":"StreetAxes.fid--63af041f_1a02c127ff3_-6df7","geometry":{"type":"LineString","coordinates":[[144477.24205981,172863.06363382],[144506.80927783,172847.35182177]]},"geometry_name":"GEOM","properties":{"INSPIRE_ID":"https://databrussels.be/id/streetaxe/91847","TYPE":"C","HIERARCHY":"IDR","LVL":0,"STARTSN_ID":"https://databrussels.be/id/streetnode/9417","ENDSN_ID":"https://databrussels.be/id/streetnode/9421","STRNAMEFRE":"Avenue du Roi Albert","STRNAMEDUT":"Koning Albertlaan","SLOPE":5.82,"LENGTH":33.4825539507151},"bbox":[144477.24205981,172847.35182177,144506.80927783,172863.06363382]},{"type":"Feature","id":"StreetAxes.fid--63af041f_1a02c127ff3_-6de8","geometry":{"type":"LineString","coordinates":[[144023.9428425,172959.79113975],[144046.16889971,172960.18966908],[144048.93615263,172966.12941669],[144051.26276169,172971.04722122],[144049.0506441,173050.30468307],[144044.49281576,173061.98076227],[144026.40393455,173061.69597985],[144023.11636832,173059.20849259],[144022.00016546,173056.46528235],[144022.09318237,173040.51746686],[144023.9428425,172959.79113975]]},"geometry_name":"GEOM","properties":{"INSPIRE_ID":"https://databrussels.be/id/streetaxe/94503","TYPE":"S","HIERARCHY":null,"LVL":0,"STARTSN_ID":"https://databrussels.be/id/streetnode/4403","ENDSN_ID":"https://databrussels.be/id/streetnode/4403","STRNAMEFRE":"Hunderenveld","STRNAMEDUT":"Hunderenveld","SLOPE":0,"LENGTH":247.916135255127},"bbox":[144022.00016546,172959.79113975,144051.26276169,173061.98076227]},{"type":"Feature","id":"StreetAxes.fid--63af041f_1a02c127ff3_-6ddc","geometry":{"type":"LineString","coordinates":[[144074.00785866,172898.43300873],[144068.8390694,172897.84216067],[144064.10402552,172896.89521208],[144058.08657483,172891.5169627],[144056.68562934,172884.4165048],[144059.84344207,172877.04222973],[144065.60882733,172873.68179198]]},"geometry_name":"GEOM","properties":{"INSPIRE_ID":"https://databrussels.be/id/streetaxe/94529","TYPE":"S","HIERARCHY":"DR","LVL":0,"STARTSN_ID":"https://databrussels.be/id/streetnode/12140","ENDSN_ID":"https://databrussels.be/id/streetnode/12407","STRNAMEFRE":"Clos du Nadir","STRNAMEDUT":"Nadirgaarde","SLOPE":0.22,"LENGTH":40.0344392233151},"bbox":[144056.68562934,172873.68179198,144074.00785866,172898.43300873]},{"type":"Feature","id":"StreetAxes.fid--63af041f_1a02c127ff3_-6de7","geometry":{"type":"LineString","coordinates":[[144095.16955454,172994.36525301],[144107.54080288,172994.60935223],[144115.27283309,172996.48077955],[144117.47035747,173002.42052716],[144115.1914433,173091.27264202],[144110.63361496,173092.98133654],[144097.36707891,173092.65587092],[144094.11148724,173090.78444359],[144092.72786079,173086.47202409],[144090.93728537,173080.36954368],[144091.74100956,173009.95709048],[144095.16955454,172994.36525301]]},"geometry_name":"GEOM","properties":{"INSPIRE_ID":"https://databrussels.be/id/streetaxe/94856","TYPE":"S","HIERARCHY":null,"LVL":0,"STARTSN_ID":"https://databrussels.be/id/streetnode/4402","ENDSN_ID":"https://databrussels.be/id/streetnode/4402","STRNAMEFRE":"Hunderenveld","STRNAMEDUT":"Hunderenveld","SLOPE":0,"LENGTH":234.706846938817},"bbox":[144090.93728537,172994.36525301,144117.47035747,173092.98133654]},{"type":"Feature","id":"StreetAxes.fid--63af041f_1a02c127ff3_-6dd5","geometry":{"type":"LineString","coordinates":[[144023.9428425,172959.79113975],[144023.62196085,172946.0590319]]},"geometry_name":"GEOM","properties":{"INSPIRE_ID":"https://databrussels.be/id/streetaxe/94857","TYPE":"S","HIERARCHY":"IDR","LVL":0,"STARTSN_ID":"https://databrussels.be/id/streetnode/4403","ENDSN_ID":"https://databrussels.be/id/streetnode/12756","STRNAMEFRE":"Avenue du Roi Albert","STRNAMEDUT":"Koning Albertlaan","SLOPE":2.77,"LENGTH":13.7358563978398},"bbox":[144023.62196085,172946.0590319,144023.9428425,172959.79113975]},{"type":"Feature","id":"StreetAxes.fid--63af041f_1a02c127ff3_-6dda","geometry":{"type":"LineString","coordinates":[[144074.00785866,172898.43300873],[144074.79915999,172900.55078036],[144078.41290461,172941.50596156]]},"geometry_name":"GEOM","properties":{"INSPIRE_ID":"https://databrussels.be/id/streetaxe/94946","TYPE":"S","HIERARCHY":"DR","LVL":0,"STARTSN_ID":"https://databrussels.be/id/streetnode/12140","ENDSN_ID":"https://databrussels.be/id/streetnode/12754","STRNAMEFRE":"Clos du Nadir","STRNAMEDUT":"Nadirgaarde","SLOPE":3.94,"LENGTH":43.375081688625},"bbox":[144074.00785866,172898.43300873,144078.41290461,172941.50596156]},{"type":"Feature","id":"StreetAxes.fid--63af041f_1a02c127ff3_-6dd7","geometry":{"type":"LineString","coordinates":[[144078.41290461,172941.50596156],[144071.90730141,172949.48116274],[144071.36885401,172980.02151809],[144072.90363294,172982.53225289],[144095.16955454,172994.36525301]]},"geometry_name":"GEOM","properties":{"INSPIRE_ID":"https://databrussels.be/id/streetaxe/94947","TYPE":"S","HIERARCHY":null,"LVL":0,"STARTSN_ID":"https://databrussels.be/id/streetnode/12754","ENDSN_ID":"https://databrussels.be/id/streetnode/4402","STRNAMEFRE":"Hunderenveld","STRNAMEDUT":"Hunderenveld","SLOPE":0.55,"LENGTH":68.9947460711188},"bbox":[144071.36885401,172941.50596156,144095.16955454,172994.36525301]},{"type":"Feature","id":"StreetAxes.fid--63af041f_1a02c127ff3_-6ddb","geometry":{"type":"LineString","coordinates":[[144065.60882733,172873.68179198],[144072.39517137,172873.79961933],[144078.29841146,172877.56282968],[144080.87968075,172883.37379747],[144080.4180152,172889.44626275],[144077.1207345,172894.24316424],[144074.00785866,172898.43300873]]},"geometry_name":"GEOM","properties":{"INSPIRE_ID":"https://databrussels.be/id/streetaxe/95135","TYPE":"S","HIERARCHY":"DR","LVL":0,"STARTSN_ID":"https://databrussels.be/id/streetnode/12407","ENDSN_ID":"https://databrussels.be/id/streetnode/12140","STRNAMEFRE":"Clos du Nadir","STRNAMEDUT":"Nadirgaarde","SLOPE":0.24,"LENGTH":37.2770594167782},"bbox":[144065.60882733,172873.68179198,144080.87968075,172898.43300873]}],"numberReturned":43,"grand_bruxelles_source":{"authority":"Paradigm / Brussels-Capital Region","service":"https://geoservices-urbis.irisnet.be/geoserver/urbisvector/wfs","layer":"urbisvector:StreetAxes","crs":"EPSG:31370","bbox":[144000.0,172500.0,144500.0,173000.0],"cell_id":"bxl-e144000-n172500-s500","ownership":"bbox_intersection_source_unclipped"}}
