{"type":"FeatureCollection","totalFeatures":43,"numberMatched":43,"timeStamp":"2026-08-23T02:04:28.629Z","crs":{"type":"name","properties":{"name":"urn:ogc:def:crs:EPSG::31370"}},"bbox":[145922.46,167945.8945,146547.76,168592.91],"features":[{"type":"Feature","id":"Buildings.fid--2dded296_1a02c23f8dc_-5494","geometry":{"type":"Polygon","coordinates":[[[146088.67,168114.96],[146086.38,168092.67],[146092.06,168092.1],[146091.37,168085.19],[146102.29,168084.09],[146102.98,168090.95],[146114.09,168089.83],[146116.38,168112.11],[146088.67,168114.96]]]},"geometry_name":"GEOM","properties":{"INSPIRE_ID":"https://databrussels.be/id/building/1589062","BLOCK_ID":"https://databrussels.be/id/block/27740","AREA":700},"bbox":[146086.38,168084.09,146116.38,168114.96]},{"type":"Feature","id":"Buildings.fid--2dded296_1a02c23f8dc_-5488","geometry":{"type":"Polygon","coordinates":[[[146322.917,168321.16],[146339.05,168341.399],[146333.483,168345.836],[146335.389,168348.179],[146322.844,168358.383],[146324.044,168359.888],[146316.189,168366.149],[146317.546,168367.818],[146313.103,168371.432],[146309.472,168366.876],[146313.619,168363.571],[146310.722,168359.937],[146312.408,168358.788],[146307.179,168352.36],[146310.21,168349.944],[146308.653,168347.991],[146311.78,168345.498],[146310.193,168343.507],[146316.513,168338.469],[146313.771,168335.03],[146320.054,168330.021],[146316.808,168326.03],[146322.917,168321.16]]]},"geometry_name":"GEOM","properties":{"INSPIRE_ID":"https://databrussels.be/id/building/1589063","BLOCK_ID":"https://databrussels.be/id/block/24809","AREA":739},"bbox":[146307.179,168321.16,146339.05,168371.432]},{"type":"Feature","id":"Buildings.fid--2dded296_1a02c23f8dc_-548b","geometry":{"type":"Polygon","coordinates":[[[146048.37,168105.56],[146044.95,168072.53],[146067.19,168070.18],[146070.62,168103.26],[146048.37,168105.56]]]},"geometry_name":"GEOM","properties":{"INSPIRE_ID":"https://databrussels.be/id/building/1589064","BLOCK_ID":"https://databrussels.be/id/block/27740","AREA":743},"bbox":[146044.95,168070.18,146070.62,168105.56]},{"type":"Feature","id":"Buildings.fid--2dded296_1a02c23f8dc_-5485","geometry":{"type":"Polygon","coordinates":[[[146251.56,168176.19],[146270.48,168174.41],[146270.64,168176.13],[146272.68,168175.93],[146273.26,168182.02],[146272.42,168182.11],[146272.95,168186.79],[146283.96,168185.55],[146287.39,168221.82],[146267.07,168223.86],[146266.35,168216.7],[146261.7,168217.16],[146261.78,168217.95],[146255.79,168218.55],[146255.58,168216.48],[146253.78,168216.66],[146250.29,168179.81],[146251.21,168179.71],[146250.98,168177.19],[146251.66,168177.11],[146251.56,168176.19]]]},"geometry_name":"GEOM","properties":{"INSPIRE_ID":"https://databrussels.be/id/building/1589065","BLOCK_ID":"https://databrussels.be/id/block/24809","AREA":1385},"bbox":[146250.29,168174.41,146287.39,168223.86]},{"type":"Feature","id":"Buildings.fid--2dded296_1a02c23f8dc_-5480","geometry":{"type":"Polygon","coordinates":[[[146158.84,168296.19],[146161.69,168296.25],[146176.14,168310.6],[146176.55,168310.18],[146178.57,168312.18],[146178.13,168312.62],[146179.95,168314.42],[146180.43,168313.94],[146182.53,168316.03],[146182.02,168316.53],[146196.6,168331.02],[146196.56,168333.53],[146193.26,168336.66],[146190.99,168336.56],[146190.64,168336.21],[146172.92,168354.04],[146138.63,168319.96],[146156.31,168302.17],[146155.81,168301.67],[146155.86,168299.19],[146158.84,168296.19]]]},"geometry_name":"GEOM","properties":{"INSPIRE_ID":"https://databrussels.be/id/building/1589067","BLOCK_ID":"https://databrussels.be/id/block/24809","AREA":1632},"bbox":[146138.63,168296.19,146196.6,168354.04]},{"type":"Feature","id":"Buildings.fid--2dded296_1a02c23f8dc_-548f","geometry":{"type":"Polygon","coordinates":[[[146312.26,168146.26],[146329.5,168139.56],[146335.04,168137.39],[146351.87,168130.92],[146357.4,168128.82],[146374.56,168122.27],[146387.72,168156.42],[146331.2,168178.29],[146329.08,168172.73],[146323.42,168174.89],[146315.14,168153.56],[146312.26,168146.26]]]},"geometry_name":"GEOM","properties":{"INSPIRE_ID":"https://databrussels.be/id/building/1589068","BLOCK_ID":"https://databrussels.be/id/block/24809","AREA":2411},"bbox":[146312.26,168122.27,146387.72,168178.29]},{"type":"Feature","id":"Buildings.fid--2dded296_1a02c23f8dc_-547a","geometry":{"type":"Polygon","coordinates":[[[146191.518,168385.192],[146200.441,168376.501],[146203.611,168379.698],[146195.153,168388.711],[146191.518,168385.192]]]},"geometry_name":"GEOM","properties":{"INSPIRE_ID":"https://databrussels.be/id/building/1665946","BLOCK_ID":"https://databrussels.be/id/block/24809","AREA":59},"bbox":[146191.518,168376.501,146203.611,168388.711]},{"type":"Feature","id":"Buildings.fid--2dded296_1a02c23f8dc_-547e","geometry":{"type":"Polygon","coordinates":[[[146233.05637094,168310.5402571],[146233.57048884,168314.51132052],[146221.04015204,168315.69732895],[146220.66019985,168311.6478466],[146233.05637094,168310.5402571]]]},"geometry_name":"GEOM","properties":{"INSPIRE_ID":"https://databrussels.be/id/building/1715372","BLOCK_ID":"https://databrussels.be/id/block/24809","AREA":50},"bbox":[146220.66019985,168310.5402571,146233.57048884,168315.69732895]},{"type":"Feature","id":"Buildings.fid--2dded296_1a02c23f8dc_-547f","geometry":{"type":"Polygon","coordinates":[[[146262.18,168318.65],[146261.48776279,168311.41892752],[146261.44,168310.92],[146261.1,168310.95],[146261.08,168310.78],[146260.75,168310.81],[146260.46,168307.85],[146261.13,168307.79],[146261.18,168307.79],[146260.67,168302.5],[146268.42,168301.75],[146269.49964013,168311.91954327],[146276.01,168311.31],[146276.75,168319.04],[146264.09,168320.25],[146262.18,168318.65]]]},"geometry_name":"GEOM","properties":{"INSPIRE_ID":"https://databrussels.be/id/building/1716448","BLOCK_ID":"https://databrussels.be/id/block/24809","AREA":193},"bbox":[146260.46,168301.75,146276.75,168320.25]},{"type":"Feature","id":"Buildings.fid--2dded296_1a02c23f8dc_-5470","geometry":{"type":"Polygon","coordinates":[[[146265.06,168266.69],[146265.37825887,168269.30500602],[146289.51643663,168266.94043178],[146291.16343929,168284.07026619],[146266.93644815,168286.21118847],[146267.21,168289.18],[146259.43,168289.94],[146258.74,168282.83],[146258.05,168282.89],[146257.78,168280.07],[146258.47,168280],[146258.23,168277.53],[146257.63,168277.58],[146257.34,168274.6],[146257.97,168274.54],[146257.29,168267.44],[146265.06,168266.69]]]},"geometry_name":"GEOM","properties":{"INSPIRE_ID":"https://databrussels.be/id/building/1717657","BLOCK_ID":"https://databrussels.be/id/block/24809","AREA":596},"bbox":[146257.29,168266.69,146291.16343929,168289.94]},{"type":"Feature","id":"Buildings.fid--2dded296_1a02c23f8dc_-546f","geometry":{"type":"Polygon","coordinates":[[[146267.21,168289.18],[146266.93644815,168286.21118847],[146291.16343929,168284.07026619],[146293.62000004,168309.62000001],[146276.01,168311.31],[146269.49964013,168311.91954327],[146268.42,168301.75],[146268.36559145,168301.18478056],[146267.21,168289.18]]]},"geometry_name":"GEOM","properties":{"INSPIRE_ID":"https://databrussels.be/id/building/1717658","BLOCK_ID":"https://databrussels.be/id/block/24809","AREA":626},"bbox":[146266.93644815,168284.07026619,146293.62000004,168311.91954327]},{"type":"Feature","id":"Buildings.fid--2dded296_1a02c23f8dc_-5481","geometry":{"type":"Polygon","coordinates":[[[146254.92,168243.32],[146256.53,168241.23],[146265.54,168240.36],[146265.85,168243.64],[146287.07999992,168241.59999996],[146289.51643663,168266.94043178],[146265.37825887,168269.30500602],[146265.06,168266.69],[146263.84,168254.17],[146256.04,168254.92],[146254.92,168243.32]]]},"geometry_name":"GEOM","properties":{"INSPIRE_ID":"https://databrussels.be/id/building/1717660","BLOCK_ID":"https://databrussels.be/id/block/24809","AREA":734},"bbox":[146254.92,168240.36,146289.51643663,168269.30500602]},{"type":"Feature","id":"Buildings.fid--2dded296_1a02c23f8dc_-5482","geometry":{"type":"Polygon","coordinates":[[[146212.89,168218.86],[146214.19,168232.09],[146215.07,168231.99],[146215.12,168232.46],[146216.92,168232.28],[146219.61039793,168259.26437831],[146220.12,168259.23],[146219.62593902,168260.34425037],[146219.50266446,168261.57552869],[146219.89,168263.05],[146220.47,168264.2],[146220.02,168264.26],[146222.61,168291.11],[146220.79,168291.28],[146220.84,168291.82],[146219.86,168291.92],[146221.14,168305.23],[146231.28838157,168304.58387048],[146232.67,168305.92],[146233.88,168304.43],[146240.1,168303.83],[146240.04,168303.33],[146240.99,168303.22],[146237.09,168262.68],[146236.05,168262.81],[146235.78729333,168260.09199641],[146235.53,168257.43],[146236.62,168257.3],[146232.66,168216.93],[146231.8,168217.01],[146231.75,168216.54],[146225.47,168217.15],[146224,168215.96],[146222.77,168217.46],[146218.50665194,168217.87965842],[146216.42210553,168216.08631776],[146214.67932365,168218.25639767],[146213.83,168218.34],[146213.87,168218.76],[146212.89,168218.86]]]},"geometry_name":"GEOM","properties":{"INSPIRE_ID":"https://databrussels.be/id/building/1717666","BLOCK_ID":"https://databrussels.be/id/block/24809","AREA":1578},"bbox":[146212.89,168215.96,146240.99,168305.92]},{"type":"Feature","id":"Buildings.fid--2dded296_1a02c23f8dc_-547d","geometry":{"type":"Polygon","coordinates":[[[146240.94,168389.51],[146215.02,168364.09],[146219.96,168359.04],[146214.39,168353.6],[146221.33,168346.49],[146220.93,168346.1],[146222.9,168344.08],[146223.38,168344.55],[146224.2881,168343.6163],[146225.15,168342.73],[146224.63,168342.23],[146226.74,168340.07],[146227.27,168340.58],[146242.18,168325.31],[146244.73,168325.35],[146253.69,168334.14],[146249.38,168338.54],[146259.18,168348.1503],[146270.56,168359.31],[146256.0813,168374.0722],[146240.94,168389.51]]]},"geometry_name":"GEOM","properties":{"INSPIRE_ID":"https://databrussels.be/id/building/1718810","BLOCK_ID":"https://databrussels.be/id/block/24809","AREA":1900},"bbox":[146214.39,168325.31,146270.56,168389.51]},{"type":"Feature","id":"Buildings.fid--2dded296_1a02c23f8dc_-547c","geometry":{"type":"Polygon","coordinates":[[[146042.7,168363.39],[146079.87,168328.36],[146091.9656,168341.1182],[146104.15,168353.97],[146066.82,168389.16],[146062.15,168384.2],[146060.31,168385.94],[146053.3624,168378.5649],[146045.52,168370.24],[146047.44,168368.42],[146042.7,168363.39]]]},"geometry_name":"GEOM","properties":{"INSPIRE_ID":"https://databrussels.be/id/building/1718813","BLOCK_ID":"https://databrussels.be/id/block/24809","AREA":1862},"bbox":[146042.7,168328.36,146104.15,168389.16]},{"type":"Feature","id":"Buildings.fid--2dded296_1a02c23f8dc_-5477","geometry":{"type":"Polygon","coordinates":[[[146365.36361611,168196.62098593],[146364.22489042,168193.37952259],[146366.90807057,168192.40727975],[146368.11145048,168195.61964611],[146365.36361611,168196.62098593]]]},"geometry_name":"GEOM","properties":{"INSPIRE_ID":"https://databrussels.be/id/building/1725807","BLOCK_ID":"https://databrussels.be/id/block/24809","AREA":10},"bbox":[146364.22489042,168192.40727975,146368.11145048,168196.62098593]},{"type":"Feature","id":"Buildings.fid--2dded296_1a02c23f8dc_-5498","geometry":{"type":"Polygon","coordinates":[[[146371.695,168056.669],[146377.21954611,168054.46193141],[146380.54591385,168053.13304003],[146382.08408489,168057.18549631],[146373.216,168060.598],[146371.695,168056.669]]]},"geometry_name":"GEOM","properties":{"INSPIRE_ID":"https://databrussels.be/id/building/1727911","BLOCK_ID":"https://databrussels.be/id/block/29540","AREA":41},"bbox":[146371.695,168053.13304003,146382.08408489,168060.598]},{"type":"Feature","id":"Buildings.fid--2dded296_1a02c23f8dc_-5475","geometry":{"type":"Polygon","coordinates":[[[146339.45072476,168204.27212801],[146337.82309603,168199.75885451],[146340.25325229,168198.91503249],[146340.11108454,168198.57481241],[146343.8195348,168197.13895713],[146344.22663274,168198.25127351],[146346.51052284,168197.42761085],[146347.84821802,168201.19694554],[146341.99613366,168203.33999309],[146339.45072476,168204.27212801]]]},"geometry_name":"GEOM","properties":{"INSPIRE_ID":"https://databrussels.be/id/building/1727912","BLOCK_ID":"https://databrussels.be/id/block/24809","AREA":42},"bbox":[146337.82309603,168197.13895713,146347.84821802,168204.27212801]},{"type":"Feature","id":"Buildings.fid--2dded296_1a02c23f8dc_-5490","geometry":{"type":"Polygon","coordinates":[[[146299.76,168003.89],[146307.36497844,168022.85889494],[146314.8825402,168019.84496633],[146318.49494112,168028.85528162],[146301.85373748,168035.52704585],[146312.87078812,168063.0065815],[146338.94444219,168052.55317462],[146330.68973054,168031.96366746],[146340.35905561,168028.08705742],[146324.5,167988.53],[146319.26,167990.83],[146302.42000622,167988.76000012],[146307.27756177,168000.87607139],[146299.76,168003.89]]]},"geometry_name":"GEOM","properties":{"INSPIRE_ID":"https://databrussels.be/id/building/1727917","BLOCK_ID":"https://databrussels.be/id/block/27706","AREA":1856},"bbox":[146299.76,167988.53,146340.35905561,168063.0065815]},{"type":"Feature","id":"Buildings.fid--2dded296_1a02c23f8dc_-547b","geometry":{"type":"Polygon","coordinates":[[[146161.5391,168376.02484244],[146147.38260001,168389.37694244],[146148.21000001,168390.25084244],[146149.08,168391.17084244],[146105.14000001,168432.62084244],[146102.07900001,168429.31184244],[146097.017,168433.98184244],[146072.28000001,168407.70084244],[146077.29,168402.98084244],[146074.15,168399.64084244],[146117.97,168358.31084244],[146130.8339,168346.17784244],[146148.14130001,168364.45824244],[146156.448,168373.23184244],[146157.73820001,168372.01034244],[146161.5391,168376.02484244]]]},"geometry_name":"GEOM","properties":{"INSPIRE_ID":"https://databrussels.be/id/building/1727980","BLOCK_ID":"https://databrussels.be/id/block/24809","AREA":3744},"bbox":[146072.28000001,168346.17784244,146161.5391,168433.98184244]},{"type":"Feature","id":"Buildings.fid--2dded296_1a02c23f8dc_-5491","geometry":{"type":"Polygon","coordinates":[[[146216.292,168000],[146219.222,167975.934],[146259.695,167980.839],[146257.373,168000],[146252.335,168041.566],[146242.408,168040.363],[146211.829,168036.657],[146216.292,168000]]]},"geometry_name":"GEOM","properties":{"INSPIRE_ID":"https://databrussels.be/id/building/1728983","BLOCK_ID":"https://databrussels.be/id/block/27740","AREA":2495},"bbox":[146211.829,167975.934,146259.695,168041.566]},{"type":"Feature","id":"Buildings.fid--2dded296_1a02c23f8dc_-5497","geometry":{"type":"Polygon","coordinates":[[[146482.354,168059.017],[146483.92,168058.417],[146484.829,168060.725],[146483.26,168061.325],[146482.354,168059.017]]]},"geometry_name":"GEOM","properties":{"INSPIRE_ID":"https://databrussels.be/id/building/1729039","BLOCK_ID":"https://databrussels.be/id/block/30810","AREA":4},"bbox":[146482.354,168058.417,146484.829,168061.325]},{"type":"Feature","id":"Buildings.fid--2dded296_1a02c23f8dc_-5479","geometry":{"type":"Polygon","coordinates":[[[146061.12516736,168413.43559622],[146060.26247614,168412.46989023],[146063.8620467,168408.91050347],[146064.81981596,168409.93144617],[146061.12516736,168413.43559622]]]},"geometry_name":"GEOM","properties":{"INSPIRE_ID":"https://databrussels.be/id/building/1729043","BLOCK_ID":"https://databrussels.be/id/block/24809","AREA":7},"bbox":[146060.26247614,168408.91050347,146064.81981596,168413.43559622]},{"type":"Feature","id":"Buildings.fid--2dded296_1a02c23f8dc_-5489","geometry":{"type":"Polygon","coordinates":[[[146374.96,168353.94],[146435.98,168304.88],[146439.32,168302.57],[146439.6,168302.35],[146439.96,168302.06],[146440.36,168301.74],[146441.75,168301.37],[146443.41,168301.19],[146444.92,168301.45],[146446.41,168302.31],[146450.41,168307.06],[146459.71,168318.09],[146475.9302898,168338.28392614],[146479.971,168335.281],[146507.384,168369.4],[146521.638,168387.166],[146517.053,168390.676],[146510.24756011,168396.41333007],[146503.13100009,168387.44799957],[146488.93000041,168398.85999972],[146515.21300008,168431.56999992],[146521.62816085,168439.47508493],[146522.70999968,168440.90000032],[146493.95000002,168463.99999998],[146425.73,168379.25],[146407.25,168394.14],[146384.17,168365.47],[146383.10102427,168364.13174918],[146374.96,168353.94]]]},"geometry_name":"GEOM","properties":{"INSPIRE_ID":"https://databrussels.be/id/building/1729056","BLOCK_ID":"https://databrussels.be/id/block/24809","AREA":10537},"bbox":[146374.96,168301.19,146522.70999968,168463.99999998]},{"type":"Feature","id":"Buildings.fid--2dded296_1a02c23f8dc_-548d","geometry":{"type":"Polygon","coordinates":[[[146077.07020001,168020.94854244],[146087.2666,168027.27064244],[146093.78450001,168016.70734244],[146090.16730001,168014.44054244],[146094.06440001,168008.10484244],[146102.71940001,168013.44434244],[146088.87380001,168035.89704244],[146079.1689,168051.46894244],[146027.95310001,168019.55794244],[146037.66260001,168004.12394244],[146040.4919,168005.87934244],[146042.1553,168003.20954244],[146043.32050001,168003.96714244],[146045.39490001,168005.24954244],[146046.82760001,168006.11444244],[146048.82630001,168002.89294244],[146077.30860001,168020.56424244],[146077.07020001,168020.94854244]]]},"geometry_name":"GEOM","properties":{"INSPIRE_ID":"https://databrussels.be/id/building/1729057","BLOCK_ID":"https://databrussels.be/id/block/27740","AREA":1618},"bbox":[146027.95310001,168002.89294244,146102.71940001,168051.46894244]},{"type":"Feature","id":"Buildings.fid--2dded296_1a02c23f8dc_-5484","geometry":{"type":"Polygon","coordinates":[[[146126.49,168241.23],[146127.94,168256.44],[146120.22,168257.18],[146121.75,168273.26],[146122.01,168276.21],[146122.93,168285.86],[146124.83,168287.49],[146135.48,168286.48],[146138.43,168286.17],[146152.64,168284.82],[146151.91,168277.08],[146168.11,168275.54],[146168.84,168283.28],[146194.88,168280.8],[146196.53,168278.87],[146195.86,168271.83],[146195.56,168268.87],[146195.33,168266.39],[146194.99,168263.52],[146193.62,168249.23],[146185.9,168249.97],[146184.62,168236.55],[146192.29,168235.82],[146190.67,168218.84],[146190.46,168215.93],[146190.22,168213.42],[146189.97,168210.5],[146189.04,168200.83],[146187.23,168199.27],[146158.37,168202.03],[146159.1,168209.71],[146145.59,168211],[146144.86,168203.32],[146130.6,168204.68],[146127.71,168204.97],[146117.01,168205.99],[146115.43,168207.83],[146117.65,168231.06],[146117.98,168233.97],[146118.74,168241.97],[146126.49,168241.23]]]},"geometry_name":"GEOM","properties":{"INSPIRE_ID":"https://databrussels.be/id/building/1729091","BLOCK_ID":"https://databrussels.be/id/block/24809","AREA":5588},"bbox":[146115.43,168199.27,146196.53,168287.49]},{"type":"Feature","id":"Buildings.fid--2dded296_1a02c23f8dc_-5483","geometry":{"type":"Polygon","coordinates":[[[146048.62,168220.757],[146049.977,168233.955],[146079.7115,168231.019],[146080.1234,168235.1888],[146084.15,168234.79],[146087.36,168267.22],[146083.3322,168267.6697],[146084.09,168275.34],[146084.3755,168278.2298],[146084.6749,168281.2415],[146084.9494,168284.0221],[146085.256,168287.1074],[146085.5845,168290.4339],[146061.8538,168292.7775],[146062.1188,168295.4607],[146056.0794,168296.0571],[146056.3856,168299.1507],[146056.951,168304.8637],[146059.8051,168304.5812],[146061.2745,168319.4274],[146058.4203,168319.7099],[146058.45,168320.01],[146022.1503,168323.6058],[146010.1002,168324.7995],[146000,168325.8],[145998.4,168325.95],[145994.52,168286.69],[145979.35,168288.19],[145979.02,168284.94],[145976.36,168285.2],[145976.1687,168285.2183],[145976.5844,168288.9213],[145966.9585,168289.8105],[145966.6048,168286.1071],[145966.327,168283.199],[145961.146,168283.68],[145960.2247,168273.7721],[145958.36,168253.718],[145963.463,168253.243],[145963.18,168250.28],[145966.69,168250.02],[145966.41,168247.24],[145968.66,168247.02],[145968.95,168249.69],[145972.53,168249.3],[145975.0882,168272.39],[145975.25,168273.85],[145992.94,168272.1],[145989.9643,168242.0173],[145988.6974,168226.6738],[145987.596,168213.341],[146000,168212.064],[146047.263,168207.559],[146048.62,168220.757]]]},"geometry_name":"GEOM","properties":{"INSPIRE_ID":"https://databrussels.be/id/building/1729099","BLOCK_ID":"https://databrussels.be/id/block/24809","AREA":9602},"bbox":[145958.36,168207.559,146087.36,168325.95]},{"type":"Feature","id":"Buildings.fid--2dded296_1a02c23f8dc_-5474","geometry":{"type":"Polygon","coordinates":[[[146404.349,168212.225],[146424.608,168273.542],[146346.198,168337.148],[146337.776,168326.938],[146318.605,168268.588],[146327.852,168265.479],[146322.012,168247.793],[146331.151,168244.68],[146330.949,168243.977],[146330.746,168243.273],[146330.523,168242.577],[146330.353,168242.158],[146330.176,168241.742],[146330.044,168241.317],[146329.974,168240.788],[146329.97,168240.246],[146330.013,168239.711],[146330.116,168239.067],[146330.289,168238.433],[146330.545,168237.845],[146330.933,168237.271],[146331.418,168236.752],[146331.959,168236.307],[146332.397,168236.044],[146332.866,168235.822],[146333.335,168235.6],[146404.349,168212.225]]]},"geometry_name":"GEOM","properties":{"INSPIRE_ID":"https://databrussels.be/id/building/1729101","BLOCK_ID":"https://databrussels.be/id/block/24809","AREA":7894},"bbox":[146318.605,168212.225,146424.608,168337.148]},{"type":"Feature","id":"Buildings.fid--2dded296_1a02c23f8dc_-5487","geometry":{"type":"Polygon","coordinates":[[[146286.726,168415.678],[146295.233,168408.935],[146293.934,168407.297],[146307.099,168396.862],[146310.532,168401.108],[146319.222,168394.081],[146341.146,168376.352],[146349.524,168369.577],[146346.247,168365.525],[146358.324,168355.701],[146359.3,168354.905],[146360.706,168353.832],[146361.773,168355.187],[146370.519,168348.3],[146374.96,168353.94],[146383.10102427,168364.13174918],[146384.17,168365.47],[146407.25,168394.14],[146425.73,168379.25],[146493.95000002,168463.99999998],[146503.264,168475.178],[146432.631,168531.934],[146430.939,168529.893],[146426.013,168531.07],[146415.386,168517.868],[146411.171,168521.1],[146387.011,168491.033],[146375.53,168500.258],[146356.428,168476.486],[146352.112,168479.786],[146339.74,168463.946],[146331.124,168470.973],[146326.76,168465.432],[146326.212,168464.737],[146325.038,168464.518],[146323.865,168464.298],[146322.698,168464.052],[146320.844,168463.594],[146319.007,168463.066],[146317.204,168462.449],[146315.373,168461.706],[146313.578,168460.868],[146311.832,168459.945],[146309.415,168458.469],[146307.101,168456.817],[146304.912,168455.018],[146303.554,168453.772],[146303.525,168453.743],[146301.086,168455.672],[146300.76,168455.889],[146299.505,168454.323],[146299.151,168454.56],[146298.927,168454.675],[146298.612,168454.771],[146298.233,168454.833],[146297.881,168454.845],[146297.429,168454.789],[146296.965,168454.656],[146296.525,168454.457],[146296.163,168454.228],[146295.842,168453.959],[146295.625,168453.708],[146295.453,168453.405],[146295.304,168452.993],[146295.2,168452.522],[146295.158,168452.118],[146295.162,168451.733],[146295.213,168451.399],[146295.286,168451.165],[146295.408,168450.889],[146295.551,168450.64],[146295.682,168450.465],[146295.916,168450.205],[146296.069,168450.034],[146294.81,168448.464],[146297.451,168446.167],[146297.22,168445.803],[146295.959,168443.524],[146294.846,168441.157],[146293.891,168438.733],[146293.225,168436.693],[146292.667,168434.614],[146292.22,168432.515],[146291.848,168430.066],[146291.624,168427.589],[146291.537,168425.109],[146291.55,168423.988],[146291.592,168422.867],[146291.633,168421.745],[146286.726,168415.678]]]},"geometry_name":"GEOM","properties":{"INSPIRE_ID":"https://databrussels.be/id/building/1729114","BLOCK_ID":"https://databrussels.be/id/block/24809","AREA":20121},"bbox":[146286.726,168348.3,146503.264,168531.934]},{"type":"Feature","id":"Buildings.fid--2dded296_1a02c23f8dc_-548a","geometry":{"type":"Polygon","coordinates":[[[146024.12,168111.0333],[146025.1248,168121.7984],[145992.3347,168124.8762],[145991.3322,168114.188],[145990.4408,168114.2737],[145989.2647,168102.1914],[145988.0869,168090.0917],[146022.7928,168086.729],[146023.9863,168098.6934],[146025.2068,168110.9287],[146024.12,168111.0333]]]},"geometry_name":"GEOM","properties":{"INSPIRE_ID":"https://databrussels.be/id/building/1773410","BLOCK_ID":"https://databrussels.be/id/block/27740","AREA":1203},"bbox":[145988.0869,168086.729,146025.2068,168124.8762]},{"type":"Feature","id":"Buildings.fid--2dded296_1a02c23f8dc_-5492","geometry":{"type":"Polygon","coordinates":[[[146232.4923,168047.141],[146236.9639,168047.6834],[146241.4331,168048.2256],[146245.8976,168048.7672],[146250.3551,168049.3079],[146246.6839,168079.5708],[146245.2905,168091.0569],[146221.8638,168088.215],[146197.5674,168085.2676],[146198.9608,168073.7815],[146200.2165,168063.4309],[146212.2139,168064.8863],[146214.6295,168044.974],[146219.087,168045.5147],[146223.5515,168046.0563],[146228.0207,168046.5985],[146232.4923,168047.141]]]},"geometry_name":"GEOM","properties":{"INSPIRE_ID":"https://databrussels.be/id/building/1784446","BLOCK_ID":"https://databrussels.be/id/block/27740","AREA":1779},"bbox":[146197.5674,168044.974,146250.3551,168091.0569]},{"type":"Feature","id":"Buildings.fid--2dded296_1a02c23f8dc_-5495","geometry":{"type":"Polygon","coordinates":[[[146120.7429,168004.2662],[146120.5356,168004.6027],[146129.2621,168009.9778],[146129.0549,168010.3144],[146137.8868,168015.7544],[146130.0034,168028.5532],[146085.8766,168001.3732],[146094.5892,167987.2284],[146103.7003,167992.8404],[146103.493,167993.1769],[146112.1487,167998.5084],[146111.9414,167998.8449],[146120.7429,168004.2662]]]},"geometry_name":"GEOM","properties":{"INSPIRE_ID":"https://databrussels.be/id/building/1784447","BLOCK_ID":"https://databrussels.be/id/block/27740","AREA":820},"bbox":[146085.8766,167987.2284,146137.8868,168028.5532]},{"type":"Feature","id":"Buildings.fid--2dded296_1a02c23f8dc_-5496","geometry":{"type":"Polygon","coordinates":[[[146486.1262,168063.9952],[146484.8883,168064.4582],[146484.2255,168062.6863],[146485.4635,168062.2233],[146486.1262,168063.9952]]]},"geometry_name":"GEOM","properties":{"INSPIRE_ID":"https://databrussels.be/id/building/1807103","BLOCK_ID":"https://databrussels.be/id/block/30810","AREA":3},"bbox":[146484.2255,168062.2233,146486.1262,168064.4582]},{"type":"Feature","id":"Buildings.fid--2dded296_1a02c23f8dc_-5472","geometry":{"type":"Polygon","coordinates":[[[146449.4164,168230.7617],[146469.2876,168221.4302],[146498.5456,168283.7345],[146482.6567,168291.1959],[146467.0165,168257.8905],[146463.0343,168259.7606],[146449.4164,168230.7617]]]},"geometry_name":"GEOM","properties":{"INSPIRE_ID":"https://databrussels.be/id/building/214907","BLOCK_ID":"https://databrussels.be/id/block/30598","AREA":1349},"bbox":[146449.4164,168221.4302,146498.5456,168291.1959]},{"type":"Feature","id":"Buildings.fid--2dded296_1a02c23f8dc_-5471","geometry":{"type":"Polygon","coordinates":[[[146433.5457,168226.888],[146439.6998,168224.9298],[146444.4534,168239.869],[146438.2993,168241.8272],[146433.5457,168226.888]]]},"geometry_name":"GEOM","properties":{"INSPIRE_ID":"https://databrussels.be/id/building/218952","BLOCK_ID":"https://databrussels.be/id/block/30598","AREA":101},"bbox":[146433.5457,168224.9298,146444.4534,168241.8272]},{"type":"Feature","id":"Buildings.fid--2dded296_1a02c23f8dc_-5473","geometry":{"type":"Polygon","coordinates":[[[146431.95353076,168219.69981771],[146431.20524991,168216.90488777],[146436.79827686,168215.40747816],[146437.5465577,168218.20240811],[146431.95353076,168219.69981771]]]},"geometry_name":"GEOM","properties":{"INSPIRE_ID":"https://databrussels.be/id/building/254899","BLOCK_ID":"https://databrussels.be/id/block/30598","AREA":17},"bbox":[146431.20524991,168215.40747816,146437.5465577,168219.69981771]},{"type":"Feature","id":"Buildings.fid--2dded296_1a02c23f8dc_-5476","geometry":{"type":"Polygon","coordinates":[[[146471.0868,168202.5245],[146468.9974,168203.4752],[146466.3959,168197.758],[146468.4853,168196.8073],[146471.0868,168202.5245]]]},"geometry_name":"GEOM","properties":{"INSPIRE_ID":"https://databrussels.be/id/building/779698","BLOCK_ID":"https://databrussels.be/id/block/30598","AREA":14},"bbox":[146466.3959,168196.8073,146471.0868,168203.4752]}],"numberReturned":37,"grand_bruxelles_source":{"authority":"Paradigm / Brussels-Capital Region","service":"https://geoservices-urbis.irisnet.be/geoserver/urbisvector/wfs","layer":"urbisvector:Buildings","crs":"EPSG:31370","bbox":[146000.0,168000.0,146500.0,168500.0],"cell_id":"bxl-e146000-n168000-s500","ownership":"polygon_or_multipolygon_centroid_global_500m_cell"}}
