{"type":"FeatureCollection","totalFeatures":72,"numberMatched":72,"timeStamp":"2026-08-23T13:19:17.716Z","crs":{"type":"name","properties":{"name":"urn:ogc:def:crs:EPSG::31370"}},"bbox":[149400.796,172791.53255564,150076.511,173620.625],"features":[{"type":"Feature","id":"StreetAxes.fid--1290087_1a02ebf304f_5a5f","geometry":{"type":"LineString","coordinates":[[149467.00107402,173521.96328634],[149521.3617135,173491.867511],[149541.93930878,173482.35955549]]},"geometry_name":"GEOM","properties":{"INSPIRE_ID":"https://databrussels.be/id/streetaxe/69947","TYPE":"S","HIERARCHY":"IDR","LVL":0,"STARTSN_ID":"https://databrussels.be/id/streetnode/15667","ENDSN_ID":"https://databrussels.be/id/streetnode/13149","STRNAMEFRE":"Rue des Palais","STRNAMEDUT":"Paleizenstraat","SLOPE":null,"LENGTH":84.8036256385983},"bbox":[149467.00107402,173482.35955549,149541.93930878,173521.96328634]},{"type":"Feature","id":"StreetAxes.fid--1290087_1a02ebf304f_5a8f","geometry":{"type":"LineString","coordinates":[[149805.388,172912.9],[149819.773,172915.628],[149827.632,172926.134],[149977.466,173126.432],[149981.129,173131.462]]},"geometry_name":"GEOM","properties":{"INSPIRE_ID":"https://databrussels.be/id/streetaxe/72393","TYPE":"S","HIERARCHY":"DR","LVL":0,"STARTSN_ID":"https://databrussels.be/id/streetnode/529","ENDSN_ID":"https://databrussels.be/id/streetnode/2959","STRNAMEFRE":"Rue Vanderlinden","STRNAMEDUT":"Vanderlindenstraat","SLOPE":0.47,"LENGTH":284.12300783754},"bbox":[149805.388,172912.9,149981.129,173131.462]},{"type":"Feature","id":"StreetAxes.fid--1290087_1a02ebf304f_5a92","geometry":{"type":"LineString","coordinates":[[149564.99827835,173186.75657539],[149570.0166745,173175.41827125],[149580.40843638,173152.39891775],[149584.7231467,173142.85540472]]},"geometry_name":"GEOM","properties":{"INSPIRE_ID":"https://databrussels.be/id/streetaxe/73195","TYPE":"S","HIERARCHY":"DR","LVL":0,"STARTSN_ID":"https://databrussels.be/id/streetnode/10766","ENDSN_ID":"https://databrussels.be/id/streetnode/10065","STRNAMEFRE":"Avenue de la Reine","STRNAMEDUT":"Koninginnelaan","SLOPE":0.17,"LENGTH":48.1290806800725},"bbox":[149564.99827835,173142.85540472,149584.7231467,173186.75657539]},{"type":"Feature","id":"StreetAxes.fid--1290087_1a02ebf304f_5a9a","geometry":{"type":"LineString","coordinates":[[149592.94302919,173146.49135224],[149597.89560415,173135.5261873],[149645.03754486,173031.15246689],[149651.62573249,173017.77523962]]},"geometry_name":"GEOM","properties":{"INSPIRE_ID":"https://databrussels.be/id/streetaxe/73995","TYPE":"S","HIERARCHY":"DR","LVL":0,"STARTSN_ID":"https://databrussels.be/id/streetnode/10060","ENDSN_ID":"https://databrussels.be/id/streetnode/10072","STRNAMEFRE":"Avenue de la Reine","STRNAMEDUT":"Koninginnelaan","SLOPE":0.45,"LENGTH":141.469433606908},"bbox":[149592.94302919,173017.77523962,149651.62573249,173146.49135224]},{"type":"Feature","id":"StreetAxes.fid--1290087_1a02ebf304f_5a97","geometry":{"type":"LineString","coordinates":[[149647.42297974,173004.01506798],[149642.24037699,173016.77849407],[149589.7147792,173131.81463807],[149584.7231467,173142.85540472]]},"geometry_name":"GEOM","properties":{"INSPIRE_ID":"https://databrussels.be/id/streetaxe/74044","TYPE":"S","HIERARCHY":"DR","LVL":0,"STARTSN_ID":"https://databrussels.be/id/streetnode/9728","ENDSN_ID":"https://databrussels.be/id/streetnode/10065","STRNAMEFRE":"Avenue de la Reine","STRNAMEDUT":"Koninginnelaan","SLOPE":0.53,"LENGTH":152.352700803044},"bbox":[149584.7231467,173004.01506798,149647.42297974,173142.85540472]},{"type":"Feature","id":"StreetAxes.fid--1290087_1a02ebf304f_5a80","geometry":{"type":"LineString","coordinates":[[149537.34863633,172997.60933887],[149529.8641695,172999.846014],[149481.08945641,173014.8216902],[149474.42670573,173016.81078545]]},"geometry_name":"GEOM","properties":{"INSPIRE_ID":"https://databrussels.be/id/streetaxe/74697","TYPE":"S","HIERARCHY":"DR","LVL":0,"STARTSN_ID":"https://databrussels.be/id/streetnode/2715","ENDSN_ID":"https://databrussels.be/id/streetnode/2714","STRNAMEFRE":"Rue Destouvelles","STRNAMEDUT":"Destouvellesstraat","SLOPE":1.05,"LENGTH":65.7868441303699},"bbox":[149474.42670573,172997.60933887,149537.34863633,173016.81078545]},{"type":"Feature","id":"StreetAxes.fid--1290087_1a02ebf304f_5a95","geometry":{"type":"LineString","coordinates":[[149571.84688118,173192.77564242],[149576.96357213,173181.81120249],[149588.57902017,173156.15341269],[149592.94302919,173146.49135224]]},"geometry_name":"GEOM","properties":{"INSPIRE_ID":"https://databrussels.be/id/streetaxe/76450","TYPE":"S","HIERARCHY":"DR","LVL":0,"STARTSN_ID":"https://databrussels.be/id/streetnode/10765","ENDSN_ID":"https://databrussels.be/id/streetnode/10060","STRNAMEFRE":"Avenue de la Reine","STRNAMEDUT":"Koninginnelaan","SLOPE":0,"LENGTH":50.865981924567},"bbox":[149571.84688118,173146.49135224,149592.94302919,173192.77564242]},{"type":"Feature","id":"StreetAxes.fid--1290087_1a02ebf304f_5a9b","geometry":{"type":"LineString","coordinates":[[149647.42297974,173004.01506798],[149640.52420284,172979.93079278]]},"geometry_name":"GEOM","properties":{"INSPIRE_ID":"https://databrussels.be/id/streetaxe/76452","TYPE":"S","HIERARCHY":"IDR","LVL":0,"STARTSN_ID":"https://databrussels.be/id/streetnode/9728","ENDSN_ID":"https://databrussels.be/id/streetnode/10067","STRNAMEFRE":"Avenue de la Reine","STRNAMEDUT":"Koninginnelaan","SLOPE":0.96,"LENGTH":25.0528528229888},"bbox":[149640.52420284,172979.93079278,149647.42297974,173004.01506798]},{"type":"Feature","id":"StreetAxes.fid--1290087_1a02ebf304f_5a6b","geometry":{"type":"LineString","coordinates":[[149969.901,173252.621],[149992.862,173255.378],[150051.306,173261.766],[150072.662,173264.255]]},"geometry_name":"GEOM","properties":{"INSPIRE_ID":"https://databrussels.be/id/streetaxe/80473","TYPE":"S","HIERARCHY":"IDR","LVL":0,"STARTSN_ID":"https://databrussels.be/id/streetnode/2623","ENDSN_ID":"https://databrussels.be/id/streetnode/13136","STRNAMEFRE":"Rue du Pavillon","STRNAMEDUT":"Paviljoenstraat","SLOPE":0.43,"LENGTH":103.418554903012},"bbox":[149969.901,173252.621,150072.662,173264.255]},{"type":"Feature","id":"StreetAxes.fid--1290087_1a02ebf304f_5a91","geometry":{"type":"LineString","coordinates":[[150076.511,173054.442],[150068.025,173059.31],[149987.25,173126.38],[149981.129,173131.462]]},"geometry_name":"GEOM","properties":{"INSPIRE_ID":"https://databrussels.be/id/streetaxe/80537","TYPE":"S","HIERARCHY":"DR","LVL":0,"STARTSN_ID":"https://databrussels.be/id/streetnode/13145","ENDSN_ID":"https://databrussels.be/id/streetnode/2959","STRNAMEFRE":"Rue de Moerkerke","STRNAMEDUT":"de Moerkerkestraat","SLOPE":2.07,"LENGTH":122.729248907212},"bbox":[149981.129,173054.442,150076.511,173131.462]},{"type":"Feature","id":"StreetAxes.fid--1290087_1a02ebf304f_5aa0","geometry":{"type":"LineString","coordinates":[[149651.62573249,173017.77523962],[149714.16168752,173233.56982089],[149715.64306384,173237.16482801]]},"geometry_name":"GEOM","properties":{"INSPIRE_ID":"https://databrussels.be/id/streetaxe/82569","TYPE":"S","HIERARCHY":"IDR","LVL":0,"STARTSN_ID":"https://databrussels.be/id/streetnode/10072","ENDSN_ID":"https://databrussels.be/id/streetnode/10634","STRNAMEFRE":"Rue du Progrès","STRNAMEDUT":"Vooruitgangstraat","SLOPE":0.52,"LENGTH":228.561458617591},"bbox":[149651.62573249,173017.77523962,149715.64306384,173237.16482801]},{"type":"Feature","id":"StreetAxes.fid--1290087_1a02ebf304f_5aa1","geometry":{"type":"LineString","coordinates":[[149737.33095113,172830.94290714],[149719.95220144,172867.65809903],[149663.82624716,172993.00225705],[149651.62573249,173017.77523962]]},"geometry_name":"GEOM","properties":{"INSPIRE_ID":"https://databrussels.be/id/streetaxe/82690","TYPE":"S","HIERARCHY":"DC","LVL":0,"STARTSN_ID":"https://databrussels.be/id/streetnode/10475","ENDSN_ID":"https://databrussels.be/id/streetnode/10072","STRNAMEFRE":"Avenue de la Reine","STRNAMEDUT":"Koninginnelaan","SLOPE":0.68,"LENGTH":205.571259370128},"bbox":[149651.62573249,172830.94290714,149737.33095113,173017.77523962]},{"type":"Feature","id":"StreetAxes.fid--1290087_1a02ebf304f_5a7b","geometry":{"type":"LineString","coordinates":[[149528.50081855,173268.0569459],[149521.467,173264.928],[149519.06768029,173265.18173111],[149515.04936116,173266.86749092],[149409.1459183,173317.68292404],[149400.796,173322.485]]},"geometry_name":"GEOM","properties":{"INSPIRE_ID":"https://databrussels.be/id/streetaxe/83121","TYPE":"S","HIERARCHY":"DR","LVL":0,"STARTSN_ID":"https://databrussels.be/id/streetnode/11129","ENDSN_ID":"https://databrussels.be/id/streetnode/1528","STRNAMEFRE":"Rue du Pont de l'Avenue","STRNAMEDUT":"Laanbrugstraat","SLOPE":0.67,"LENGTH":141.564775007029},"bbox":[149400.796,173264.928,149528.50081855,173322.485]},{"type":"Feature","id":"StreetAxes.fid--1290087_1a02ebf304f_5a90","geometry":{"type":"LineString","coordinates":[[149933.11072318,172791.53255564],[149937.318,172799.278],[150072.728,173047.482],[150076.511,173054.442]]},"geometry_name":"GEOM","properties":{"INSPIRE_ID":"https://databrussels.be/id/streetaxe/85862","TYPE":"SC","HIERARCHY":"DC","LVL":0,"STARTSN_ID":"https://databrussels.be/id/streetnode/10923","ENDSN_ID":"https://databrussels.be/id/streetnode/13145","STRNAMEFRE":"Rue Gallait","STRNAMEDUT":"Gallaitstraat","SLOPE":0.59,"LENGTH":299.474588396168},"bbox":[149933.11072318,172791.53255564,150076.511,173054.442]},{"type":"Feature","id":"StreetAxes.fid--1290087_1a02ebf304f_5a81","geometry":{"type":"LineString","coordinates":[[149528.50081855,173268.0569459],[149532.29587289,173259.75626925],[149564.99827835,173186.75657539]]},"geometry_name":"GEOM","properties":{"INSPIRE_ID":"https://databrussels.be/id/streetaxe/87217","TYPE":"S","HIERARCHY":"DR","LVL":0,"STARTSN_ID":"https://databrussels.be/id/streetnode/11129","ENDSN_ID":"https://databrussels.be/id/streetnode/10766","STRNAMEFRE":"Avenue de la Reine","STRNAMEDUT":"Koninginnelaan","SLOPE":0.46,"LENGTH":89.1171002219195},"bbox":[149528.50081855,173186.75657539,149564.99827835,173268.0569459]},{"type":"Feature","id":"StreetAxes.fid--1290087_1a02ebf304f_5a85","geometry":{"type":"LineString","coordinates":[[149571.84688118,173192.77564242],[149566.56858949,173204.60940946],[149540.55527605,173261.51536918],[149536.23818262,173271.3450664]]},"geometry_name":"GEOM","properties":{"INSPIRE_ID":"https://databrussels.be/id/streetaxe/88609","TYPE":"S","HIERARCHY":"DR","LVL":0,"STARTSN_ID":"https://databrussels.be/id/streetnode/10765","ENDSN_ID":"https://databrussels.be/id/streetnode/13169","STRNAMEFRE":"Avenue de la Reine","STRNAMEDUT":"Koninginnelaan","SLOPE":0.42,"LENGTH":86.2633008785783},"bbox":[149536.23818262,173192.77564242,149571.84688118,173271.3450664]},{"type":"Feature","id":"StreetAxes.fid--1290087_1a02ebf304f_5a86","geometry":{"type":"LineString","coordinates":[[149537.34863633,172997.60933887],[149539.29632677,173004.15558629],[149578.7112915,173140.1961465],[149584.7231467,173142.85540472]]},"geometry_name":"GEOM","properties":{"INSPIRE_ID":"https://databrussels.be/id/streetaxe/89276","TYPE":"S","HIERARCHY":"DR","LVL":0,"STARTSN_ID":"https://databrussels.be/id/streetnode/2715","ENDSN_ID":"https://databrussels.be/id/streetnode/10065","STRNAMEFRE":"Rue Gaucheret","STRNAMEDUT":"Gaucheretstraat","SLOPE":0.25,"LENGTH":155.038944014846},"bbox":[149537.34863633,172997.60933887,149584.7231467,173142.85540472]},{"type":"Feature","id":"StreetAxes.fid--1290087_1a02ebf304f_5a7c","geometry":{"type":"LineString","coordinates":[[149403.95757161,173044.87801118],[149412.02894181,173051.95728096],[149437.818,173074.62],[149559.1929305,173181.593885],[149564.99827835,173186.75657539]]},"geometry_name":"GEOM","properties":{"INSPIRE_ID":"https://databrussels.be/id/streetaxe/89430","TYPE":"S","HIERARCHY":"DR","LVL":0,"STARTSN_ID":"https://databrussels.be/id/streetnode/2713","ENDSN_ID":"https://databrussels.be/id/streetnode/10766","STRNAMEFRE":"Rue Masui","STRNAMEDUT":"Masuistraat","SLOPE":0.14,"LENGTH":214.624547810653},"bbox":[149403.95757161,173044.87801118,149564.99827835,173186.75657539]},{"type":"Feature","id":"StreetAxes.fid--1290087_1a02ebf304f_5a83","geometry":{"type":"LineString","coordinates":[[149532.18070846,173269.65615328],[149536.23818262,173271.3450664]]},"geometry_name":"GEOM","properties":{"INSPIRE_ID":"https://databrussels.be/id/streetaxe/89780","TYPE":"IC","HIERARCHY":"DR","LVL":0,"STARTSN_ID":"https://databrussels.be/id/streetnode/13392","ENDSN_ID":"https://databrussels.be/id/streetnode/13169","STRNAMEFRE":"Avenue de la Reine","STRNAMEDUT":"Koninginnelaan","SLOPE":1.82,"LENGTH":4.39494301014789},"bbox":[149532.18070846,173269.65615328,149536.23818262,173271.3450664]},{"type":"Feature","id":"StreetAxes.fid--1290087_1a02ebf304f_5a69","geometry":{"type":"LineString","coordinates":[[149877.367,173242.411],[149879.36,173249.492],[149881.072,173253.609],[149923.69,173310.836],[149934.98,173324.176],[149955.04,173344.996],[149975.885,173363.696],[149987.244,173372.633],[150020.42,173395.048],[150046.39,173409.231],[150069.203,173420.903]]},"geometry_name":"GEOM","properties":{"INSPIRE_ID":"https://databrussels.be/id/streetaxe/89829","TYPE":"S","HIERARCHY":null,"LVL":0,"STARTSN_ID":"https://databrussels.be/id/streetnode/3764","ENDSN_ID":"https://databrussels.be/id/streetnode/5928","STRNAMEFRE":"Rue Stephenson","STRNAMEDUT":"Stephensonstraat","SLOPE":0.54,"LENGTH":267.266924320834},"bbox":[149877.367,173242.411,150069.203,173420.903]},{"type":"Feature","id":"StreetAxes.fid--1290087_1a02ebf304f_5a6c","geometry":{"type":"LineString","coordinates":[[149969.901,173252.621],[149969.316,173259.189],[149970.001,173261.182],[149978.79,173273.007],[150051.853,173371.921],[150056.564,173376.176],[150060.803,173378.504]]},"geometry_name":"GEOM","properties":{"INSPIRE_ID":"https://databrussels.be/id/streetaxe/89830","TYPE":"S","HIERARCHY":"DR","LVL":0,"STARTSN_ID":"https://databrussels.be/id/streetnode/2623","ENDSN_ID":"https://databrussels.be/id/streetnode/5930","STRNAMEFRE":"Rue Van Schoor","STRNAMEDUT":"Van Schoorstraat","SLOPE":0.01,"LENGTH":157.591551614187},"bbox":[149969.316,173252.621,150060.803,173378.504]},{"type":"Feature","id":"StreetAxes.fid--1290087_1a02ebf304f_5a62","geometry":{"type":"LineString","coordinates":[[149816.63524424,173227.40855501],[149826.49134003,173232.57701985],[149839.61701726,173235.62159522],[149856.06142358,173239.23410694],[149877.367,173242.411]]},"geometry_name":"GEOM","properties":{"INSPIRE_ID":"https://databrussels.be/id/streetaxe/89837","TYPE":"S","HIERARCHY":"IDR","LVL":0,"STARTSN_ID":"https://databrussels.be/id/streetnode/2124","ENDSN_ID":"https://databrussels.be/id/streetnode/3764","STRNAMEFRE":"Rue du Pavillon","STRNAMEDUT":"Paviljoenstraat","SLOPE":2.11,"LENGTH":62.9808589329869},"bbox":[149816.63524424,173227.40855501,149877.367,173242.411]},{"type":"Feature","id":"StreetAxes.fid--1290087_1a02ebf304f_5a68","geometry":{"type":"LineString","coordinates":[[149877.367,173242.411],[149902.07,173244.819],[149933.066,173248.197],[149954.645,173250.789]]},"geometry_name":"GEOM","properties":{"INSPIRE_ID":"https://databrussels.be/id/streetaxe/89838","TYPE":"S","HIERARCHY":"IDR","LVL":0,"STARTSN_ID":"https://databrussels.be/id/streetnode/3764","ENDSN_ID":"https://databrussels.be/id/streetnode/2623","STRNAMEFRE":"Rue du Pavillon","STRNAMEDUT":"Paviljoenstraat","SLOPE":1.97,"LENGTH":77.7337268699448},"bbox":[149877.367,173242.411,149954.645,173250.789]},{"type":"Feature","id":"StreetAxes.fid--1290087_1a02ebf304f_5a60","geometry":{"type":"LineString","coordinates":[[149981.129,173131.463],[149985.46,173137.41],[150065.124,173244.55],[150073.464,173255.732],[150072.662,173264.255]]},"geometry_name":"GEOM","properties":{"INSPIRE_ID":"https://databrussels.be/id/streetaxe/89839","TYPE":"S","HIERARCHY":"DR","LVL":0,"STARTSN_ID":"https://databrussels.be/id/streetnode/2959","ENDSN_ID":"https://databrussels.be/id/streetnode/13136","STRNAMEFRE":"Rue Vanderlinden","STRNAMEDUT":"Vanderlindenstraat","SLOPE":0.54,"LENGTH":163.378770966518},"bbox":[149981.129,173131.463,150073.464,173264.255]},{"type":"Feature","id":"StreetAxes.fid--1290087_1a02ebf304f_5a98","geometry":{"type":"LineString","coordinates":[[149649.48242356,173010.38100277],[149643.54974526,173023.50702267],[149593.7662507,173133.6527456],[149588.79572406,173144.65685109]]},"geometry_name":"GEOM","properties":{"INSPIRE_ID":"https://databrussels.be/id/streetaxe/90016","TYPE":"C","HIERARCHY":"DR","LVL":0,"STARTSN_ID":"https://databrussels.be/id/streetnode/10053","ENDSN_ID":"https://databrussels.be/id/streetnode/10036","STRNAMEFRE":"Avenue de la Reine","STRNAMEDUT":"Koninginnelaan","SLOPE":0.43,"LENGTH":147.35290641759},"bbox":[149588.79572406,173010.38100277,149649.48242356,173144.65685109]},{"type":"Feature","id":"StreetAxes.fid--1290087_1a02ebf304f_5a84","geometry":{"type":"LineString","coordinates":[[149568.29020812,173189.59199439],[149563.49417103,173200.98450867],[149536.06459587,173261.23591861],[149532.18070846,173269.65615328]]},"geometry_name":"GEOM","properties":{"INSPIRE_ID":"https://databrussels.be/id/streetaxe/90454","TYPE":"C","HIERARCHY":"DR","LVL":0,"STARTSN_ID":"https://databrussels.be/id/streetnode/14027","ENDSN_ID":"https://databrussels.be/id/streetnode/13392","STRNAMEFRE":"Avenue de la Reine","STRNAMEDUT":"Koninginnelaan","SLOPE":0.34,"LENGTH":87.8350002214906},"bbox":[149532.18070846,173189.59199439,149568.29020812,173269.65615328]},{"type":"Feature","id":"StreetAxes.fid--1290087_1a02ebf304f_5a94","geometry":{"type":"LineString","coordinates":[[149568.29020812,173189.59199439],[149571.84688118,173192.77564242]]},"geometry_name":"GEOM","properties":{"INSPIRE_ID":"https://databrussels.be/id/streetaxe/90676","TYPE":"IC","HIERARCHY":"DR","LVL":0,"STARTSN_ID":"https://databrussels.be/id/streetnode/14027","ENDSN_ID":"https://databrussels.be/id/streetnode/10765","STRNAMEFRE":"Avenue de la Reine","STRNAMEDUT":"Koninginnelaan","SLOPE":0.42,"LENGTH":4.77341995398651},"bbox":[149568.29020812,173189.59199439,149571.84688118,173192.77564242]},{"type":"Feature","id":"StreetAxes.fid--1290087_1a02ebf304f_5a87","geometry":{"type":"LineString","coordinates":[[149564.99827835,173186.75657539],[149568.29020812,173189.59199439]]},"geometry_name":"GEOM","properties":{"INSPIRE_ID":"https://databrussels.be/id/streetaxe/90677","TYPE":"IC","HIERARCHY":"DR","LVL":0,"STARTSN_ID":"https://databrussels.be/id/streetnode/10766","ENDSN_ID":"https://databrussels.be/id/streetnode/14027","STRNAMEFRE":"Avenue de la Reine","STRNAMEDUT":"Koninginnelaan","SLOPE":0.69,"LENGTH":4.3446982055056},"bbox":[149564.99827835,173186.75657539,149568.29020812,173189.59199439]},{"type":"Feature","id":"StreetAxes.fid--1290087_1a02ebf304f_5a9c","geometry":{"type":"LineString","coordinates":[[149647.42297974,173004.01506798],[149652.90939795,172990.50342204]]},"geometry_name":"GEOM","properties":{"INSPIRE_ID":"https://databrussels.be/id/streetaxe/90855","TYPE":"IC","HIERARCHY":"IDR","LVL":0,"STARTSN_ID":"https://databrussels.be/id/streetnode/9728","ENDSN_ID":"https://databrussels.be/id/streetnode/10062","STRNAMEFRE":"Avenue de la Reine","STRNAMEDUT":"Koninginnelaan","SLOPE":2.19,"LENGTH":14.5830504648378},"bbox":[149647.42297974,172990.50342204,149652.90939795,173004.01506798]},{"type":"Feature","id":"StreetAxes.fid--1290087_1a02ebf304f_5a96","geometry":{"type":"LineString","coordinates":[[149584.7231467,173142.85540472],[149588.79572406,173144.65685109]]},"geometry_name":"GEOM","properties":{"INSPIRE_ID":"https://databrussels.be/id/streetaxe/90857","TYPE":"IC","HIERARCHY":"DR","LVL":0,"STARTSN_ID":"https://databrussels.be/id/streetnode/10065","ENDSN_ID":"https://databrussels.be/id/streetnode/10036","STRNAMEFRE":"Avenue de la Reine","STRNAMEDUT":"Koninginnelaan","SLOPE":3.15,"LENGTH":4.45321180057582},"bbox":[149584.7231467,173142.85540472,149588.79572406,173144.65685109]},{"type":"Feature","id":"StreetAxes.fid--1290087_1a02ebf304f_5a9d","geometry":{"type":"LineString","coordinates":[[149647.42297974,173004.01506798],[149649.48242356,173010.38100277]]},"geometry_name":"GEOM","properties":{"INSPIRE_ID":"https://databrussels.be/id/streetaxe/90860","TYPE":"IC","HIERARCHY":"IDR","LVL":0,"STARTSN_ID":"https://databrussels.be/id/streetnode/9728","ENDSN_ID":"https://databrussels.be/id/streetnode/10053","STRNAMEFRE":"Avenue de la Reine","STRNAMEDUT":"Koninginnelaan","SLOPE":0.45,"LENGTH":6.69077234337912},"bbox":[149647.42297974,173004.01506798,149649.48242356,173010.38100277]},{"type":"Feature","id":"StreetAxes.fid--1290087_1a02ebf304f_5a9f","geometry":{"type":"LineString","coordinates":[[149649.48242356,173010.38100277],[149651.62573249,173017.77523962]]},"geometry_name":"GEOM","properties":{"INSPIRE_ID":"https://databrussels.be/id/streetaxe/90862","TYPE":"IC","HIERARCHY":"IDR","LVL":0,"STARTSN_ID":"https://databrussels.be/id/streetnode/10053","ENDSN_ID":"https://databrussels.be/id/streetnode/10072","STRNAMEFRE":"Avenue de la Reine","STRNAMEDUT":"Koninginnelaan","SLOPE":1.3,"LENGTH":7.69860454214589},"bbox":[149649.48242356,173010.38100277,149651.62573249,173017.77523962]},{"type":"Feature","id":"StreetAxes.fid--1290087_1a02ebf304f_5a99","geometry":{"type":"LineString","coordinates":[[149588.79572406,173144.65685109],[149592.94302919,173146.49135224]]},"geometry_name":"GEOM","properties":{"INSPIRE_ID":"https://databrussels.be/id/streetaxe/91419","TYPE":"I","HIERARCHY":"DR","LVL":0,"STARTSN_ID":"https://databrussels.be/id/streetnode/10036","ENDSN_ID":"https://databrussels.be/id/streetnode/10060","STRNAMEFRE":"Avenue de la Reine","STRNAMEDUT":"Koninginnelaan","SLOPE":2.43,"LENGTH":4.53492384960954},"bbox":[149588.79572406,173144.65685109,149592.94302919,173146.49135224]},{"type":"Feature","id":"StreetAxes.fid--1290087_1a02ebf304f_5a9e","geometry":{"type":"LineString","coordinates":[[149652.90939795,172990.50342204],[149653.15653424,172993.09921627],[149653.03900939,172997.73217973],[149652.31035536,173002.64735417],[149650.90005723,173006.88051875],[149649.48242356,173010.38100277]]},"geometry_name":"GEOM","properties":{"INSPIRE_ID":"https://databrussels.be/id/streetaxe/91422","TYPE":"IC","HIERARCHY":"IDR","LVL":0,"STARTSN_ID":"https://databrussels.be/id/streetnode/10062","ENDSN_ID":"https://databrussels.be/id/streetnode/10053","STRNAMEFRE":"Avenue de la Reine","STRNAMEDUT":"Koninginnelaan","SLOPE":1.42,"LENGTH":20.4494333692127},"bbox":[149649.48242356,172990.50342204,149653.15653424,173010.38100277]},{"type":"Feature","id":"StreetAxes.fid--1290087_1a02ebf304f_5a93","geometry":{"type":"LineString","coordinates":[[149568.29020812,173189.59199439],[149573.47027817,173178.59647424],[149584.45809935,173154.25979324],[149588.79572406,173144.65685109]]},"geometry_name":"GEOM","properties":{"INSPIRE_ID":"https://databrussels.be/id/streetaxe/91423","TYPE":"C","HIERARCHY":"DR","LVL":0,"STARTSN_ID":"https://databrussels.be/id/streetnode/14027","ENDSN_ID":"https://databrussels.be/id/streetnode/10036","STRNAMEFRE":"Avenue de la Reine","STRNAMEDUT":"Koninginnelaan","SLOPE":0.18,"LENGTH":49.3939367431276},"bbox":[149568.29020812,173144.65685109,149588.79572406,173189.59199439]},{"type":"Feature","id":"StreetAxes.fid--1290087_1a02ebf304f_5a5c","geometry":{"type":"LineString","coordinates":[[149541.93930878,173482.35955549],[149522.36790584,173496.75045791],[149461.71662963,173530.33868414],[149446.13726397,173534.95203893]]},"geometry_name":"GEOM","properties":{"INSPIRE_ID":"https://databrussels.be/id/streetaxe/92214","TYPE":"S","HIERARCHY":"IDR","LVL":0,"STARTSN_ID":"https://databrussels.be/id/streetnode/13149","ENDSN_ID":"https://databrussels.be/id/streetnode/13390","STRNAMEFRE":"Rue des Palais","STRNAMEDUT":"Paleizenstraat","SLOPE":0.95,"LENGTH":109.871522682951},"bbox":[149446.13726397,173482.35955549,149541.93930878,173534.95203893]},{"type":"Feature","id":"StreetAxes.fid--1290087_1a02ebf304f_5a82","geometry":{"type":"LineString","coordinates":[[149528.50081855,173268.0569459],[149532.18070846,173269.65615328]]},"geometry_name":"GEOM","properties":{"INSPIRE_ID":"https://databrussels.be/id/streetaxe/92399","TYPE":"IC","HIERARCHY":"DR","LVL":0,"STARTSN_ID":"https://databrussels.be/id/streetnode/11129","ENDSN_ID":"https://databrussels.be/id/streetnode/13392","STRNAMEFRE":"Avenue de la Reine","STRNAMEDUT":"Koninginnelaan","SLOPE":2,"LENGTH":4.01236264816759},"bbox":[149528.50081855,173268.0569459,149532.18070846,173269.65615328]},{"type":"Feature","id":"StreetAxes.fid--1290087_1a02ebf304f_5a5e","geometry":{"type":"LineString","coordinates":[[149676.74836555,173408.17860618],[149668.57031781,173412.60054231],[149643.789,173426],[149541.93930878,173482.35955549]]},"geometry_name":"GEOM","properties":{"INSPIRE_ID":"https://databrussels.be/id/streetaxe/92424","TYPE":"S","HIERARCHY":"IDR","LVL":0,"STARTSN_ID":"https://databrussels.be/id/streetnode/1404","ENDSN_ID":"https://databrussels.be/id/streetnode/13149","STRNAMEFRE":"Rue des Palais","STRNAMEDUT":"Paleizenstraat","SLOPE":0.19,"LENGTH":153.872377702673},"bbox":[149541.93930878,173408.17860618,149676.74836555,173482.35955549]},{"type":"Feature","id":"StreetAxes.fid--1290087_1a02ebf304f_5a7f","geometry":{"type":"LineString","coordinates":[[149532.18070846,173269.65615328],[149528.297,173278.076],[149458.44954634,173433.03491836]]},"geometry_name":"GEOM","properties":{"INSPIRE_ID":"https://databrussels.be/id/streetaxe/92436","TYPE":"C","HIERARCHY":"DR","LVL":0,"STARTSN_ID":"https://databrussels.be/id/streetnode/13392","ENDSN_ID":"https://databrussels.be/id/streetnode/15646","STRNAMEFRE":"Avenue de la Reine","STRNAMEDUT":"Koninginnelaan","SLOPE":0.01,"LENGTH":179.245709621046},"bbox":[149458.44954634,173269.65615328,149532.18070846,173433.03491836]},{"type":"Feature","id":"StreetAxes.fid--1290087_1a02ebf304f_5a7d","geometry":{"type":"LineString","coordinates":[[149436.23219356,173431.3249996],[149437.52126517,173433.62321755],[149439.10916372,173435.72391007],[149441.10243417,173437.43740629],[149443.53659622,173438.4047432],[149446.1531279,173438.31240684],[149448.58572669,173437.32048708],[149450.7179439,173435.777099],[149452.54667986,173433.88273063],[149464.40544984,173409.77661824],[149524.67255077,173276.43026814],[149528.50081855,173268.0569459]]},"geometry_name":"GEOM","properties":{"INSPIRE_ID":"https://databrussels.be/id/streetaxe/92437","TYPE":"S","HIERARCHY":"DR","LVL":0,"STARTSN_ID":"https://databrussels.be/id/streetnode/13151","ENDSN_ID":"https://databrussels.be/id/streetnode/11129","STRNAMEFRE":"Avenue de la Reine","STRNAMEDUT":"Koninginnelaan","SLOPE":0.09,"LENGTH":203.43185426372},"bbox":[149436.23219356,173268.0569459,149528.50081855,173438.4047432]},{"type":"Feature","id":"StreetAxes.fid--1290087_1a02ebf304f_5a7e","geometry":{"type":"LineString","coordinates":[[149536.23818262,173271.3450664],[149532.45314968,173279.96330187],[149463.43812586,173433.07807934],[149457.65833739,173447.62517968]]},"geometry_name":"GEOM","properties":{"INSPIRE_ID":"https://databrussels.be/id/streetaxe/92438","TYPE":"S","HIERARCHY":"DR","LVL":0,"STARTSN_ID":"https://databrussels.be/id/streetnode/13169","ENDSN_ID":"https://databrussels.be/id/streetnode/15669","STRNAMEFRE":"Avenue de la Reine","STRNAMEDUT":"Koninginnelaan","SLOPE":0.01,"LENGTH":193.016044848782},"bbox":[149457.65833739,173271.3450664,149536.23818262,173447.62517968]},{"type":"Feature","id":"StreetAxes.fid--1290087_1a02ebf304f_5a6a","geometry":{"type":"LineString","coordinates":[[149969.901,173252.621],[149954.645,173250.789]]},"geometry_name":"GEOM","properties":{"INSPIRE_ID":"https://databrussels.be/id/streetaxe/93368","TYPE":"S","HIERARCHY":"IDR","LVL":0,"STARTSN_ID":"https://databrussels.be/id/streetnode/2623","ENDSN_ID":"https://databrussels.be/id/streetnode/","STRNAMEFRE":"Rue du Pavillon","STRNAMEDUT":"Paviljoenstraat","SLOPE":0,"LENGTH":15.3656031447123},"bbox":[149954.645,173250.789,149969.901,173252.621]},{"type":"Feature","id":"StreetAxes.fid--1290087_1a02ebf304f_5a75","geometry":{"type":"LineString","coordinates":[[149723.12405544,173350.31290526],[149721.83505968,173344.33861035],[149724.92029561,173326.32401818],[149728.72687303,173320.46190484]]},"geometry_name":"GEOM","properties":{"INSPIRE_ID":"https://databrussels.be/id/streetaxe/93929","TYPE":"S","HIERARCHY":"DR","LVL":0,"STARTSN_ID":"https://databrussels.be/id/streetnode/","ENDSN_ID":"https://databrussels.be/id/streetnode/","STRNAMEFRE":"Rue des Palais","STRNAMEDUT":"Paleizenstraat","SLOPE":null,"LENGTH":31.3782371341534},"bbox":[149721.83505968,173320.46190484,149728.72687303,173350.31290526]},{"type":"Feature","id":"StreetAxes.fid--1290087_1a02ebf304f_5a78","geometry":{"type":"LineString","coordinates":[[149720.95908627,173362.48167817],[149713.2675064,173366.29565317],[149672.92591864,173387.21705957],[149669.54641556,173390.79534125],[149671.65367308,173398.90597261],[149676.74836555,173408.17860618]]},"geometry_name":"GEOM","properties":{"INSPIRE_ID":"https://databrussels.be/id/streetaxe/93931","TYPE":"S","HIERARCHY":"DR","LVL":0,"STARTSN_ID":"https://databrussels.be/id/streetnode/","ENDSN_ID":"https://databrussels.be/id/streetnode/","STRNAMEFRE":"Place Masui","STRNAMEDUT":"Masuiplein","SLOPE":0.33,"LENGTH":77.9110478260103},"bbox":[149669.54641556,173362.48167817,149720.95908627,173408.17860618]},{"type":"Feature","id":"StreetAxes.fid--1290087_1a02ebf304f_5a77","geometry":{"type":"LineString","coordinates":[[149703.39198459,173391.5017808],[149709.41582347,173401.21027544],[149716.00099733,173408.23079448],[149742.16592053,173394.33710482],[149743.88970046,173390.48464413],[149743.89889469,173386.49051571],[149727.1977998,173355.35914394],[149723.12405544,173350.31290526]]},"geometry_name":"GEOM","properties":{"INSPIRE_ID":"https://databrussels.be/id/streetaxe/93932","TYPE":"S","HIERARCHY":"DR","LVL":0,"STARTSN_ID":"https://databrussels.be/id/streetnode/","ENDSN_ID":"https://databrussels.be/id/streetnode/","STRNAMEFRE":"Place Masui","STRNAMEDUT":"Masuiplein","SLOPE":0.04,"LENGTH":100.704361955923},"bbox":[149703.39198459,173350.31290526,149743.89889469,173408.23079448]},{"type":"Feature","id":"StreetAxes.fid--1290087_1a02ebf304f_5a61","geometry":{"type":"LineString","coordinates":[[149571.84688118,173192.77564242],[149577.638525,173197.8108115],[149710.35481981,173315.77748497],[149717.61470689,173318.68252392],[149728.72687303,173320.46190484]]},"geometry_name":"GEOM","properties":{"INSPIRE_ID":"https://databrussels.be/id/streetaxe/93933","TYPE":"S","HIERARCHY":"DR","LVL":0,"STARTSN_ID":"https://databrussels.be/id/streetnode/","ENDSN_ID":"https://databrussels.be/id/streetnode/","STRNAMEFRE":"Rue Masui","STRNAMEDUT":"Masuistraat","SLOPE":0.15,"LENGTH":204.313834873347},"bbox":[149571.84688118,173192.77564242,149728.72687303,173320.46190484]},{"type":"Feature","id":"StreetAxes.fid--1290087_1a02ebf304f_5a7a","geometry":{"type":"LineString","coordinates":[[149703.39198459,173391.5017808],[149698.755,173395.038],[149693.165,173399.302],[149678.90402543,173407.01302355],[149676.74836555,173408.17860618]]},"geometry_name":"GEOM","properties":{"INSPIRE_ID":"https://databrussels.be/id/streetaxe/93934","TYPE":"S","HIERARCHY":"IDR","LVL":0,"STARTSN_ID":"https://databrussels.be/id/streetnode/1887","ENDSN_ID":"https://databrussels.be/id/streetnode/1404","STRNAMEFRE":"Rue des Palais","STRNAMEDUT":"Paleizenstraat","SLOPE":0.96,"LENGTH":31.5249374172869},"bbox":[149676.74836555,173391.5017808,149703.39198459,173408.17860618]},{"type":"Feature","id":"StreetAxes.fid--1290087_1a02ebf304f_5a79","geometry":{"type":"LineString","coordinates":[[149720.95908627,173362.48167817],[149718.54133749,173369.7720873],[149715.559845,173376.4714778],[149711.97327542,173382.63999266],[149705.9319824,173389.2201277],[149703.39198459,173391.5017808]]},"geometry_name":"GEOM","properties":{"INSPIRE_ID":"https://databrussels.be/id/streetaxe/93935","TYPE":"S","HIERARCHY":"IDR","LVL":0,"STARTSN_ID":"https://databrussels.be/id/streetnode/","ENDSN_ID":"https://databrussels.be/id/streetnode/","STRNAMEFRE":"Rue des Palais","STRNAMEDUT":"Paleizenstraat","SLOPE":0.08,"LENGTH":34.4962859321837},"bbox":[149703.39198459,173362.48167817,149720.95908627,173391.5017808]},{"type":"Feature","id":"StreetAxes.fid--1290087_1a02ebf304f_5a5d","geometry":{"type":"LineString","coordinates":[[149766.345,173620.625],[149768.542,173616.562],[149782.505,173586.755],[149791.18,173556.915],[149799.045,173511.135],[149799.385,173507.38],[149800.215,173476.65],[149800.235,173468.085],[149797.49,173424.83],[149797.005,173421.065],[149789.405,173393.995],[149732.7908225,173344.06255204],[149729.60706181,173343.70735018],[149723.12405544,173350.31290526]]},"geometry_name":"GEOM","properties":{"INSPIRE_ID":"https://databrussels.be/id/streetaxe/93936","TYPE":"S","HIERARCHY":"H","LVL":0,"STARTSN_ID":"https://databrussels.be/id/streetnode/","ENDSN_ID":"https://databrussels.be/id/streetnode/","STRNAMEFRE":"Rue Masui Prolongée","STRNAMEDUT":"Verlengde Masuistraat","SLOPE":0.16,"LENGTH":321.338563812248},"bbox":[149723.12405544,173343.70735018,149800.235,173620.625]},{"type":"Feature","id":"StreetAxes.fid--1290087_1a02ebf304f_5a8c","geometry":{"type":"LineString","coordinates":[[149783.675,173027.675],[149795.76586385,173031.10490265],[149803.11608387,173034.66018852],[149807.89104109,173041.03338986],[149948.43068997,173230.489465],[149953.75751152,173238.27413259],[149955.439,173243.095],[149954.645,173250.789]]},"geometry_name":"GEOM","properties":{"INSPIRE_ID":"https://databrussels.be/id/streetaxe/93968","TYPE":"S","HIERARCHY":"DR","LVL":0,"STARTSN_ID":"https://databrussels.be/id/streetnode/2423","ENDSN_ID":"https://databrussels.be/id/streetnode/2623","STRNAMEFRE":"Rue Van Schoor","STRNAMEDUT":"Van Schoorstraat","SLOPE":0.79,"LENGTH":286.86158486676},"bbox":[149783.675,173027.675,149955.439,173250.789]},{"type":"Feature","id":"StreetAxes.fid--1290087_1a02ebf304f_5a8d","geometry":{"type":"LineString","coordinates":[[149793.7177828,172974.32972564],[149789.144,172998.242],[149786.572,173011.963],[149783.675,173027.674]]},"geometry_name":"GEOM","properties":{"INSPIRE_ID":"https://databrussels.be/id/streetaxe/93969","TYPE":"S","HIERARCHY":"IDR","LVL":0,"STARTSN_ID":"https://databrussels.be/id/streetnode/3210","ENDSN_ID":"https://databrussels.be/id/streetnode/2423","STRNAMEFRE":"Rue des Palais","STRNAMEDUT":"Paleizenstraat","SLOPE":1.38,"LENGTH":54.2816069206461},"bbox":[149783.675,172974.32972564,149793.7177828,173027.674]},{"type":"Feature","id":"StreetAxes.fid--1290087_1a02ebf304f_5a64","geometry":{"type":"LineString","coordinates":[[149715.64306384,173237.16482801],[149720.52610175,173238.63426902],[149725.5785221,173239.30833552],[149730.66497437,173239.01477059],[149735.57374113,173237.65528356],[149740.06557128,173235.25417032],[149742.30186536,173233.05428282]]},"geometry_name":"GEOM","properties":{"INSPIRE_ID":"https://databrussels.be/id/streetaxe/93971","TYPE":"S","HIERARCHY":"IDR","LVL":0,"STARTSN_ID":"https://databrussels.be/id/streetnode/10634","ENDSN_ID":"https://databrussels.be/id/streetnode/13880","STRNAMEFRE":"Rue du Progrès","STRNAMEDUT":"Vooruitgangstraat","SLOPE":3.39,"LENGTH":28.6152703616774},"bbox":[149715.64306384,173233.05428282,149742.30186536,173239.30833552]},{"type":"Feature","id":"StreetAxes.fid--1290087_1a02ebf304f_5a8e","geometry":{"type":"LineString","coordinates":[[149785.26147491,173118.28131274],[149790.278,173130.37],[149808.4167123,173197.64150546],[149813.30354697,173211.71000197],[149816.63524424,173227.40855501]]},"geometry_name":"GEOM","properties":{"INSPIRE_ID":"https://databrussels.be/id/streetaxe/93972","TYPE":"S","HIERARCHY":"IDR","LVL":0,"STARTSN_ID":"https://databrussels.be/id/streetnode/3780","ENDSN_ID":"https://databrussels.be/id/streetnode/2124","STRNAMEFRE":"Rue du Pavillon","STRNAMEDUT":"Paviljoenstraat","SLOPE":0.07,"LENGTH":113.703528032883},"bbox":[149785.26147491,173118.28131274,149816.63524424,173227.40855501]},{"type":"Feature","id":"StreetAxes.fid--1290087_1a02ebf304f_5a66","geometry":{"type":"LineString","coordinates":[[149715.64306384,173237.16482801],[149718.81195895,173251.68148037],[149724.60035058,173263.71568348],[149729.54485342,173267.60066168]]},"geometry_name":"GEOM","properties":{"INSPIRE_ID":"https://databrussels.be/id/streetaxe/93973","TYPE":"S","HIERARCHY":"IDR","LVL":0,"STARTSN_ID":"https://databrussels.be/id/streetnode/10634","ENDSN_ID":"https://databrussels.be/id/streetnode/10632","STRNAMEFRE":"Rue du Progrès","STRNAMEDUT":"Vooruitgangstraat","SLOPE":0.65,"LENGTH":34.5006116951901},"bbox":[149715.64306384,173237.16482801,149729.54485342,173267.60066168]},{"type":"Feature","id":"StreetAxes.fid--1290087_1a02ebf304f_5a6e","geometry":{"type":"LineString","coordinates":[[149744.8062058,173275.46364155],[149744.63728455,173274.07244991],[149743.75300394,173271.74079357],[149742.33641703,173269.68851313],[149740.46985071,173268.03487966],[149738.26178302,173266.87599634],[149737.08426569,173266.58576439]]},"geometry_name":"GEOM","properties":{"INSPIRE_ID":"https://databrussels.be/id/streetaxe/93974","TYPE":"I","HIERARCHY":"IDR","LVL":0,"STARTSN_ID":"https://databrussels.be/id/streetnode/10631","ENDSN_ID":"https://databrussels.be/id/streetnode/13881","STRNAMEFRE":"Rue des Palais","STRNAMEDUT":"Paleizenstraat","SLOPE":0.58,"LENGTH":12.5889944596345},"bbox":[149737.08426569,173266.58576439,149744.8062058,173275.46364155]},{"type":"Feature","id":"StreetAxes.fid--1290087_1a02ebf304f_5a6d","geometry":{"type":"LineString","coordinates":[[149729.54485342,173267.60066168],[149730.92558787,173266.87599634],[149733.34683205,173266.27921325],[149735.84053883,173266.27921325],[149737.08426569,173266.58576439]]},"geometry_name":"GEOM","properties":{"INSPIRE_ID":"https://databrussels.be/id/streetaxe/93976","TYPE":"I","HIERARCHY":"IDR","LVL":0,"STARTSN_ID":"https://databrussels.be/id/streetnode/","ENDSN_ID":"https://databrussels.be/id/streetnode/","STRNAMEFRE":"Rue du Progrès","STRNAMEDUT":"Vooruitgangstraat","SLOPE":3.42,"LENGTH":7.82771087273162},"bbox":[149729.54485342,173266.27921325,149737.08426569,173267.60066168]},{"type":"Feature","id":"StreetAxes.fid--1290087_1a02ebf304f_5a6f","geometry":{"type":"LineString","coordinates":[[149729.54485342,173267.60066168],[149728.71752018,173268.03487966],[149726.85095385,173269.68851313],[149725.43436695,173271.74079357],[149724.55008634,173274.07244991],[149724.2495032,173276.54797475],[149724.55008634,173279.0234996],[149725.43436695,173281.35515594],[149726.85095385,173283.40743638],[149728.71752018,173285.06106984],[149730.92558787,173286.21995317],[149733.34683205,173286.81673626],[149734.56472878,173286.81673626]]},"geometry_name":"GEOM","properties":{"INSPIRE_ID":"https://databrussels.be/id/streetaxe/93977","TYPE":"I","HIERARCHY":"IDR","LVL":0,"STARTSN_ID":"https://databrussels.be/id/streetnode/10632","ENDSN_ID":"https://databrussels.be/id/streetnode/10633","STRNAMEFRE":"Rue des Palais","STRNAMEDUT":"Paleizenstraat","SLOPE":0.23,"LENGTH":27.0893228257601},"bbox":[149724.2495032,173267.60066168,149734.56472878,173286.81673626]},{"type":"Feature","id":"StreetAxes.fid--1290087_1a02ebf304f_5a67","geometry":{"type":"LineString","coordinates":[[149715.64306384,173237.16482801],[149723.50305386,173248.83759761],[149729.8930734,173262.19393517],[149729.54485342,173267.60066168]]},"geometry_name":"GEOM","properties":{"INSPIRE_ID":"https://databrussels.be/id/streetaxe/93979","TYPE":"S","HIERARCHY":"IDR","LVL":0,"STARTSN_ID":"https://databrussels.be/id/streetnode/","ENDSN_ID":"https://databrussels.be/id/streetnode/","STRNAMEFRE":"Rue du Progrès","STRNAMEDUT":"Vooruitgangstraat","SLOPE":2.24,"LENGTH":34.2965664268306},"bbox":[149715.64306384,173237.16482801,149729.8930734,173267.60066168]},{"type":"Feature","id":"StreetAxes.fid--1290087_1a02ebf304f_5a65","geometry":{"type":"LineString","coordinates":[[149742.30186536,173233.05428282],[149735.56606772,173260.66835533],[149737.08426569,173266.58576439]]},"geometry_name":"GEOM","properties":{"INSPIRE_ID":"https://databrussels.be/id/streetaxe/93980","TYPE":"S","HIERARCHY":"IDR","LVL":0,"STARTSN_ID":"https://databrussels.be/id/streetnode/13880","ENDSN_ID":"https://databrussels.be/id/streetnode/13881","STRNAMEFRE":"Rue des Palais","STRNAMEDUT":"Paleizenstraat","SLOPE":0.64,"LENGTH":34.5327853169364},"bbox":[149735.56606772,173233.05428282,149742.30186536,173266.58576439]},{"type":"Feature","id":"StreetAxes.fid--1290087_1a02ebf304f_5aa3","geometry":{"type":"LineString","coordinates":[[149775.37132662,173099.2397704],[149767.49124162,173104.20802949],[149752.10273037,173181.3956444],[149742.30186536,173233.05428282]]},"geometry_name":"GEOM","properties":{"INSPIRE_ID":"https://databrussels.be/id/streetaxe/93981","TYPE":"S","HIERARCHY":"IDR","LVL":0,"STARTSN_ID":"https://databrussels.be/id/streetnode/3780","ENDSN_ID":"https://databrussels.be/id/streetnode/13880","STRNAMEFRE":"Rue des Palais","STRNAMEDUT":"Paleizenstraat","SLOPE":0.47,"LENGTH":140.602323610879},"bbox":[149742.30186536,173099.2397704,149775.37132662,173233.05428282]},{"type":"Feature","id":"StreetAxes.fid--1290087_1a02ebf304f_5a70","geometry":{"type":"LineString","coordinates":[[149734.56472878,173286.81673626],[149735.84053883,173286.81673626],[149738.26178302,173286.21995317],[149740.46985071,173285.06106984],[149742.33641703,173283.40743638],[149743.75300394,173281.35515594],[149744.63728455,173279.0234996],[149744.93786768,173276.54797475],[149744.8062058,173275.46364155]]},"geometry_name":"GEOM","properties":{"INSPIRE_ID":"https://databrussels.be/id/streetaxe/93982","TYPE":"I","HIERARCHY":"IDR","LVL":0,"STARTSN_ID":"https://databrussels.be/id/streetnode/10633","ENDSN_ID":"https://databrussels.be/id/streetnode/10631","STRNAMEFRE":"Rue des Palais","STRNAMEDUT":"Paleizenstraat","SLOPE":4.06,"LENGTH":17.3303479812626},"bbox":[149734.56472878,173275.46364155,149744.93786768,173286.81673626]},{"type":"Feature","id":"StreetAxes.fid--1290087_1a02ebf304f_5a63","geometry":{"type":"LineString","coordinates":[[149816.63524424,173227.40855501],[149802.577,173234.054],[149797.06,173238.009],[149750.75,173271.205],[149744.8062058,173275.46364155]]},"geometry_name":"GEOM","properties":{"INSPIRE_ID":"https://databrussels.be/id/streetaxe/93983","TYPE":"S","HIERARCHY":"IDR","LVL":0,"STARTSN_ID":"https://databrussels.be/id/streetnode/2124","ENDSN_ID":"https://databrussels.be/id/streetnode/10631","STRNAMEFRE":"Rue du Pavillon","STRNAMEDUT":"Paviljoenstraat","SLOPE":0.49,"LENGTH":86.6287884508365},"bbox":[149744.8062058,173227.40855501,149816.63524424,173275.46364155]},{"type":"Feature","id":"StreetAxes.fid--1290087_1a02ebf304f_5a8a","geometry":{"type":"LineString","coordinates":[[149783.675,173027.674],[149780.928,173040.9],[149775.02,173073.98],[149775.37132662,173099.2397704]]},"geometry_name":"GEOM","properties":{"INSPIRE_ID":"https://databrussels.be/id/streetaxe/93985","TYPE":"S","HIERARCHY":"IDR","LVL":0,"STARTSN_ID":"https://databrussels.be/id/streetnode/2423","ENDSN_ID":"https://databrussels.be/id/streetnode/3780","STRNAMEFRE":"Rue des Palais","STRNAMEDUT":"Paleizenstraat","SLOPE":0.94,"LENGTH":72.3739086867827},"bbox":[149775.02,173027.674,149783.675,173099.2397704]},{"type":"Feature","id":"StreetAxes.fid--1290087_1a02ebf304f_5aa2","geometry":{"type":"LineString","coordinates":[[149769.36963696,173119.24605664],[149741.35697458,173263.08652774],[149737.08426569,173266.58576439]]},"geometry_name":"GEOM","properties":{"INSPIRE_ID":"https://databrussels.be/id/streetaxe/96314","TYPE":"S","HIERARCHY":"DR","LVL":0,"STARTSN_ID":"https://databrussels.be/id/streetnode/3780","ENDSN_ID":"https://databrussels.be/id/streetnode/13881","STRNAMEFRE":"Rue des Palais","STRNAMEDUT":"Paleizenstraat","SLOPE":null,"LENGTH":152.065537419836},"bbox":[149737.08426569,173119.24605664,149769.36963696,173266.58576439]},{"type":"Feature","id":"StreetAxes.fid--1290087_1a02ebf304f_5a74","geometry":{"type":"LineString","coordinates":[[149728.72687303,173320.46190484],[149730.71899284,173327.39547216],[149727.8171767,173342.33817859],[149723.12405544,173350.31290526]]},"geometry_name":"GEOM","properties":{"INSPIRE_ID":"https://databrussels.be/id/streetaxe/96315","TYPE":"S","HIERARCHY":"DR","LVL":0,"STARTSN_ID":"https://databrussels.be/id/streetnode/16046","ENDSN_ID":"https://databrussels.be/id/streetnode/16045","STRNAMEFRE":"Rue des Palais","STRNAMEDUT":"Paleizenstraat","SLOPE":null,"LENGTH":31.68913288841},"bbox":[149723.12405544,173320.46190484,149730.71899284,173350.31290526]},{"type":"Feature","id":"StreetAxes.fid--1290087_1a02ebf304f_5a72","geometry":{"type":"LineString","coordinates":[[149734.56472878,173286.81673626],[149736.89158203,173290.42682088],[149735.44067395,173299.70836307],[149731.22613146,173303.90523432]]},"geometry_name":"GEOM","properties":{"INSPIRE_ID":"https://databrussels.be/id/streetaxe/96316","TYPE":"S","HIERARCHY":"DR","LVL":0,"STARTSN_ID":"https://databrussels.be/id/streetnode/10633","ENDSN_ID":"https://databrussels.be/id/streetnode/16509","STRNAMEFRE":"Rue des Palais","STRNAMEDUT":"Paleizenstraat","SLOPE":null,"LENGTH":19.6370349688753},"bbox":[149731.22613146,173286.81673626,149736.89158203,173303.90523432]},{"type":"Feature","id":"StreetAxes.fid--1290087_1a02ebf304f_5a73","geometry":{"type":"LineString","coordinates":[[149731.22613146,173303.90523432],[149728.72687303,173320.46190484]]},"geometry_name":"GEOM","properties":{"INSPIRE_ID":"https://databrussels.be/id/streetaxe/96317","TYPE":"S","HIERARCHY":"DR","LVL":0,"STARTSN_ID":"https://databrussels.be/id/streetnode/16046","ENDSN_ID":"https://databrussels.be/id/streetnode/16509","STRNAMEFRE":"Rue des Palais","STRNAMEDUT":"Paleizenstraat","SLOPE":null,"LENGTH":16.7442417451131},"bbox":[149728.72687303,173303.90523432,149731.22613146,173320.46190484]},{"type":"Feature","id":"StreetAxes.fid--1290087_1a02ebf304f_5a8b","geometry":{"type":"LineString","coordinates":[[149785.26147491,173118.28131274],[149775.37132662,173099.2397704]]},"geometry_name":"GEOM","properties":{"INSPIRE_ID":"https://databrussels.be/id/streetaxe/96318","TYPE":"S","HIERARCHY":"DR","LVL":0,"STARTSN_ID":"https://databrussels.be/id/streetnode/","ENDSN_ID":"https://databrussels.be/id/streetnode/","STRNAMEFRE":"Rue des Palais","STRNAMEDUT":"Paleizenstraat","SLOPE":null,"LENGTH":21.4568256725157},"bbox":[149775.37132662,173099.2397704,149785.26147491,173118.28131274]},{"type":"Feature","id":"StreetAxes.fid--1290087_1a02ebf304f_5a89","geometry":{"type":"LineString","coordinates":[[149769.36963696,173119.24605664],[149785.26147491,173118.28131274]]},"geometry_name":"GEOM","properties":{"INSPIRE_ID":"https://databrussels.be/id/streetaxe/96319","TYPE":"S","HIERARCHY":"DR","LVL":0,"STARTSN_ID":"https://databrussels.be/id/streetnode/","ENDSN_ID":"https://databrussels.be/id/streetnode/","STRNAMEFRE":"Rue des Palais","STRNAMEDUT":"Paleizenstraat","SLOPE":null,"LENGTH":15.9210943177371},"bbox":[149769.36963696,173118.28131274,149785.26147491,173119.24605664]},{"type":"Feature","id":"StreetAxes.fid--1290087_1a02ebf304f_5a88","geometry":{"type":"LineString","coordinates":[[149769.36963696,173119.24605664],[149775.37132662,173099.2397704]]},"geometry_name":"GEOM","properties":{"INSPIRE_ID":"https://databrussels.be/id/streetaxe/96320","TYPE":"S","HIERARCHY":"DR","LVL":0,"STARTSN_ID":"https://databrussels.be/id/streetnode/","ENDSN_ID":"https://databrussels.be/id/streetnode/","STRNAMEFRE":"Rue des Palais","STRNAMEDUT":"Paleizenstraat","SLOPE":null,"LENGTH":20.887119661215},"bbox":[149769.36963696,173099.2397704,149775.37132662,173119.24605664]},{"type":"Feature","id":"StreetAxes.fid--1290087_1a02ebf304f_5a71","geometry":{"type":"LineString","coordinates":[[149734.56472878,173286.81673626],[149730.4431017,173289.39078006],[149728.8770422,173298.23254021],[149731.22613146,173303.90523432]]},"geometry_name":"GEOM","properties":{"INSPIRE_ID":"https://databrussels.be/id/streetaxe/96354","TYPE":"S","HIERARCHY":"IDR","LVL":0,"STARTSN_ID":"https://databrussels.be/id/streetnode/16509","ENDSN_ID":"https://databrussels.be/id/streetnode/10633","STRNAMEFRE":"Rue des Palais","STRNAMEDUT":"Paleizenstraat","SLOPE":0.76,"LENGTH":19.9785970747575},"bbox":[149728.8770422,173286.81673626,149734.56472878,173303.90523432]},{"type":"Feature","id":"StreetAxes.fid--1290087_1a02ebf304f_5a76","geometry":{"type":"LineString","coordinates":[[149720.95908627,173362.48167817],[149723.12405544,173350.31290526]]},"geometry_name":"GEOM","properties":{"INSPIRE_ID":"https://databrussels.be/id/streetaxe/96378","TYPE":"S","HIERARCHY":"DR","LVL":0,"STARTSN_ID":"https://databrussels.be/id/streetnode/3479","ENDSN_ID":"https://databrussels.be/id/streetnode/16045","STRNAMEFRE":"Rue des Palais","STRNAMEDUT":"Paleizenstraat","SLOPE":null,"LENGTH":12.3598594533686},"bbox":[149720.95908627,173350.31290526,149723.12405544,173362.48167817]}],"numberReturned":72,"grand_bruxelles_source":{"authority":"Paradigm / Brussels-Capital Region","service":"https://geoservices-urbis.irisnet.be/geoserver/urbisvector/wfs","layer":"urbisvector:StreetAxes","crs":"EPSG:31370","bbox":[149500.0,173000.0,150000.0,173500.0],"cell_id":"bxl-e149500-n173000-s500","ownership":"bbox_intersection_source_unclipped"}}
