{"type":"FeatureCollection","totalFeatures":63,"numberMatched":63,"timeStamp":"2026-08-24T01:19:21.982Z","crs":{"type":"name","properties":{"name":"urn:ogc:def:crs:EPSG::31370"}},"bbox":[150887.389,166351.116,151619.85,167127.629],"features":[{"type":"Feature","id":"StreetAxes.fid--578fcb21_1a031383836_-1373","geometry":{"type":"LineString","coordinates":[[151570.26,166900.609],[151561.602,166897.517],[151469.35,166873.095],[151458.716,166869.977]]},"geometry_name":"GEOM","properties":{"INSPIRE_ID":"https://databrussels.be/id/streetaxe/70315","TYPE":"S","HIERARCHY":"DR","LVL":0,"STARTSN_ID":"https://databrussels.be/id/streetnode/462","ENDSN_ID":"https://databrussels.be/id/streetnode/3883","STRNAMEFRE":"Rue Jean Vandeuren","STRNAMEDUT":"Jean Vandeurenstraat","SLOPE":3.66,"LENGTH":115.705143633612},"bbox":[151458.716,166869.977,151570.26,166900.609]},{"type":"Feature","id":"StreetAxes.fid--578fcb21_1a031383836_-1372","geometry":{"type":"LineString","coordinates":[[151590.341,166855.029],[151582.061,166851.457],[151485.719,166819.77],[151475.076,166816.58]]},"geometry_name":"GEOM","properties":{"INSPIRE_ID":"https://databrussels.be/id/streetaxe/71274","TYPE":"S","HIERARCHY":"DR","LVL":0,"STARTSN_ID":"https://databrussels.be/id/streetnode/255","ENDSN_ID":"https://databrussels.be/id/streetnode/4175","STRNAMEFRE":"Rue Léopold Delbove","STRNAMEDUT":"Léopold Delbovestraat","SLOPE":2.34,"LENGTH":121.547576076221},"bbox":[151475.076,166816.58,151590.341,166855.029]},{"type":"Feature","id":"StreetAxes.fid--578fcb21_1a031383836_-1338","geometry":{"type":"LineString","coordinates":[[150981.117,166748.623],[150987.031,166751.486],[151144.473,166827.64],[151153.742,166832.066],[151172.419,166839.718]]},"geometry_name":"GEOM","properties":{"INSPIRE_ID":"https://databrussels.be/id/streetaxe/71825","TYPE":"S","HIERARCHY":"DR","LVL":0,"STARTSN_ID":"https://databrussels.be/id/streetnode/2262","ENDSN_ID":"https://databrussels.be/id/streetnode/3762","STRNAMEFRE":"Avenue Antoine Depage","STRNAMEDUT":"Antoine Depagelaan","SLOPE":0.74,"LENGTH":211.918382286581},"bbox":[150981.117,166748.623,151172.419,166839.718]},{"type":"Feature","id":"StreetAxes.fid--578fcb21_1a031383836_-1356","geometry":{"type":"LineString","coordinates":[[151280.467,167127.629],[151287.772,167114.287],[151318.276,167047.903],[151329.592,166998.063],[151361.54,166929.73],[151365.347,166918.03]]},"geometry_name":"GEOM","properties":{"INSPIRE_ID":"https://databrussels.be/id/streetaxe/72154","TYPE":"S","HIERARCHY":"DR","LVL":0,"STARTSN_ID":"https://databrussels.be/id/streetnode/2512","ENDSN_ID":"https://databrussels.be/id/streetnode/4323","STRNAMEFRE":"Square Robert Goldschmidt","STRNAMEDUT":"Robert Goldschmidtsquare","SLOPE":2.3,"LENGTH":227.112799292078},"bbox":[151280.467,166918.03,151365.347,167127.629]},{"type":"Feature","id":"StreetAxes.fid--578fcb21_1a031383836_-134a","geometry":{"type":"LineString","coordinates":[[151386.423,167081.493],[151391.435,167070.114],[151435.486,166946.062],[151439.362,166933.278]]},"geometry_name":"GEOM","properties":{"INSPIRE_ID":"https://databrussels.be/id/streetaxe/72256","TYPE":"S","HIERARCHY":"DC","LVL":0,"STARTSN_ID":"https://databrussels.be/id/streetnode/3597","ENDSN_ID":"https://databrussels.be/id/streetnode/4015","STRNAMEFRE":"Avenue Général Médecin Derache","STRNAMEDUT":"Generaal Geneesheer Derachelaan","SLOPE":2.48,"LENGTH":157.433703755522},"bbox":[151386.423,166933.278,151439.362,167081.493]},{"type":"Feature","id":"StreetAxes.fid--578fcb21_1a031383836_-1343","geometry":{"type":"LineString","coordinates":[[151475.076,166816.58],[151477.228,166809.834],[151489.738,166768.066],[151494.562,166751.856]]},"geometry_name":"GEOM","properties":{"INSPIRE_ID":"https://databrussels.be/id/streetaxe/72546","TYPE":"S","HIERARCHY":"DC","LVL":0,"STARTSN_ID":"https://databrussels.be/id/streetnode/4175","ENDSN_ID":"https://databrussels.be/id/streetnode/4150","STRNAMEFRE":"Rue François Dons","STRNAMEDUT":"François Donsstraat","SLOPE":0.22,"LENGTH":67.5947197993108},"bbox":[151475.076,166751.856,151494.562,166816.58]},{"type":"Feature","id":"StreetAxes.fid--578fcb21_1a031383836_-1371","geometry":{"type":"LineString","coordinates":[[151619.85,166792.925],[151607.674,166789.029],[151508.671,166756.498],[151494.562,166751.856]]},"geometry_name":"GEOM","properties":{"INSPIRE_ID":"https://databrussels.be/id/streetaxe/72632","TYPE":"S","HIERARCHY":"DR","LVL":0,"STARTSN_ID":"https://databrussels.be/id/streetnode/1595","ENDSN_ID":"https://databrussels.be/id/streetnode/4150","STRNAMEFRE":"Avenue Guillaume Gilbert","STRNAMEDUT":"Guillaume Gilbertlaan","SLOPE":1.29,"LENGTH":131.847789232656},"bbox":[151494.562,166751.856,151619.85,166792.925]},{"type":"Feature","id":"StreetAxes.fid--578fcb21_1a031383836_-1370","geometry":{"type":"LineString","coordinates":[[151494.562,166751.856],[151499.685,166734.639],[151519.016,166674.471],[151522.011,166664.452]]},"geometry_name":"GEOM","properties":{"INSPIRE_ID":"https://databrussels.be/id/streetaxe/72723","TYPE":"S","HIERARCHY":"DC","LVL":0,"STARTSN_ID":"https://databrussels.be/id/streetnode/4150","ENDSN_ID":"https://databrussels.be/id/streetnode/1888","STRNAMEFRE":"Avenue des Grenadiers","STRNAMEDUT":"Grenadierslaan","SLOPE":2.08,"LENGTH":91.6172156096107},"bbox":[151494.562,166664.452,151522.011,166751.856]},{"type":"Feature","id":"StreetAxes.fid--578fcb21_1a031383836_-134b","geometry":{"type":"LineString","coordinates":[[151439.362,166933.278],[151420.129,166930.35],[151377.65,166921.283],[151365.347,166918.03]]},"geometry_name":"GEOM","properties":{"INSPIRE_ID":"https://databrussels.be/id/streetaxe/73035","TYPE":"S","HIERARCHY":"DR","LVL":0,"STARTSN_ID":"https://databrussels.be/id/streetnode/4015","ENDSN_ID":"https://databrussels.be/id/streetnode/4323","STRNAMEFRE":"Avenue Pierre et Marie Curie","STRNAMEDUT":"Pierre en Marie Curielaan","SLOPE":2.66,"LENGTH":75.616276694758},"bbox":[151365.347,166918.03,151439.362,166933.278]},{"type":"Feature","id":"StreetAxes.fid--578fcb21_1a031383836_-1339","geometry":{"type":"LineString","coordinates":[[150887.389,166939.052],[150895.478,166938.568],[150926.36,166956.555],[151056.181,167019.088],[151060.75,167021.94],[151076.01,167031.465],[151092.04,167038.251]]},"geometry_name":"GEOM","properties":{"INSPIRE_ID":"https://databrussels.be/id/streetaxe/73236","TYPE":"S","HIERARCHY":"DR","LVL":0,"STARTSN_ID":"https://databrussels.be/id/streetnode/1028","ENDSN_ID":"https://databrussels.be/id/streetnode/2167","STRNAMEFRE":"Avenue Paul Héger","STRNAMEDUT":"Paul Hégerlaan","SLOPE":3.07,"LENGTH":228.720516540613},"bbox":[150887.389,166938.568,151092.04,167038.251]},{"type":"Feature","id":"StreetAxes.fid--578fcb21_1a031383836_-1344","geometry":{"type":"LineString","coordinates":[[151458.716,166869.977],[151460.82,166862.989],[151472.925,166823.325],[151475.076,166816.58]]},"geometry_name":"GEOM","properties":{"INSPIRE_ID":"https://databrussels.be/id/streetaxe/73778","TYPE":"S","HIERARCHY":"DC","LVL":0,"STARTSN_ID":"https://databrussels.be/id/streetnode/3883","ENDSN_ID":"https://databrussels.be/id/streetnode/4175","STRNAMEFRE":"Rue François Dons","STRNAMEDUT":"François Donsstraat","SLOPE":0.81,"LENGTH":55.8475870568627},"bbox":[151458.716,166816.58,151475.076,166869.977]},{"type":"Feature","id":"StreetAxes.fid--578fcb21_1a031383836_-1341","geometry":{"type":"LineString","coordinates":[[151093.79706751,166459.21312116],[151118.427,166471.402],[151234.118,166529.078],[151241.915,166532.965],[151261.989,166541.582]]},"geometry_name":"GEOM","properties":{"INSPIRE_ID":"https://databrussels.be/id/streetaxe/74135","TYPE":"S","HIERARCHY":"DR","LVL":0,"STARTSN_ID":"https://databrussels.be/id/streetnode/7750","ENDSN_ID":"https://databrussels.be/id/streetnode/2312","STRNAMEFRE":"Avenue des Phalènes","STRNAMEDUT":"Nachtvlinderslaan","SLOPE":2.32,"LENGTH":187.309199227033},"bbox":[151093.79706751,166459.21312116,151261.989,166541.582]},{"type":"Feature","id":"StreetAxes.fid--578fcb21_1a031383836_-1346","geometry":{"type":"LineString","coordinates":[[151439.362,166933.278],[151443.315,166920.24],[151454.08424163,166885.26037783]]},"geometry_name":"GEOM","properties":{"INSPIRE_ID":"https://databrussels.be/id/streetaxe/74360","TYPE":"S","HIERARCHY":"DC","LVL":0,"STARTSN_ID":"https://databrussels.be/id/streetnode/4015","ENDSN_ID":"https://databrussels.be/id/streetnode/5165","STRNAMEFRE":"Rue François Dons","STRNAMEDUT":"François Donsstraat","SLOPE":1.02,"LENGTH":50.2239542317277},"bbox":[151439.362,166885.26037783,151454.08424163,166933.278]},{"type":"Feature","id":"StreetAxes.fid--578fcb21_1a031383836_-133c","geometry":{"type":"LineString","coordinates":[[150912.553,166715.024],[150928.988,166699.112],[150950.003,166677.745],[150966.936,166660.028],[150990.427,166630.921],[151013.33,166599.57],[151021.442,166587.809],[151033.379,166571.816]]},"geometry_name":"GEOM","properties":{"INSPIRE_ID":"https://databrussels.be/id/streetaxe/75067","TYPE":"S","HIERARCHY":"MER","LVL":0,"STARTSN_ID":"https://databrussels.be/id/streetnode/7751","ENDSN_ID":"https://databrussels.be/id/streetnode/7733","STRNAMEFRE":"Avenue Franklin Roosevelt","STRNAMEDUT":"Franklin Rooseveltlaan","SLOPE":1.26,"LENGTH":187.826308544617},"bbox":[150912.553,166571.816,151033.379,166715.024]},{"type":"Feature","id":"StreetAxes.fid--578fcb21_1a031383836_-1359","geometry":{"type":"LineString","coordinates":[[151249.50051494,166671.65154331],[151245.723027,166680.906962],[151216.01302007,166747.40214434]]},"geometry_name":"GEOM","properties":{"INSPIRE_ID":"https://databrussels.be/id/streetaxe/76040","TYPE":"S","HIERARCHY":"DC","LVL":0,"STARTSN_ID":"https://databrussels.be/id/streetnode/8601","ENDSN_ID":"https://databrussels.be/id/streetnode/8603","STRNAMEFRE":"Square du Solbosch","STRNAMEDUT":"Solbossquare","SLOPE":2,"LENGTH":82.8271917141824},"bbox":[151216.01302007,166671.65154331,151249.50051494,166747.40214434]},{"type":"Feature","id":"StreetAxes.fid--578fcb21_1a031383836_-135c","geometry":{"type":"LineString","coordinates":[[151203.38692757,166768.63012299],[151207.65898971,166766.09964158],[151216.01302007,166747.40214434]]},"geometry_name":"GEOM","properties":{"INSPIRE_ID":"https://databrussels.be/id/streetaxe/76041","TYPE":"S","HIERARCHY":"DC","LVL":0,"STARTSN_ID":"https://databrussels.be/id/streetnode/8602","ENDSN_ID":"https://databrussels.be/id/streetnode/8603","STRNAMEFRE":"Square du Solbosch","STRNAMEDUT":"Solbossquare","SLOPE":1.53,"LENGTH":25.4441859539417},"bbox":[151203.38692757,166747.40214434,151216.01302007,166768.63012299]},{"type":"Feature","id":"StreetAxes.fid--578fcb21_1a031383836_-1369","geometry":{"type":"LineString","coordinates":[[151357.08965235,166696.35925371],[151360.43,166687.09],[151392.255,166616.36],[151397.5757417,166604.93534983]]},"geometry_name":"GEOM","properties":{"INSPIRE_ID":"https://databrussels.be/id/streetaxe/76153","TYPE":"S","HIERARCHY":"DR","LVL":0,"STARTSN_ID":"https://databrussels.be/id/streetnode/12843","ENDSN_ID":"https://databrussels.be/id/streetnode/9411","STRNAMEFRE":"Avenue Armand Huysmans","STRNAMEDUT":"Armand Huysmanslaan","SLOPE":3.32,"LENGTH":100.015722889651},"bbox":[151357.08965235,166604.93534983,151397.5757417,166696.35925371]},{"type":"Feature","id":"StreetAxes.fid--578fcb21_1a031383836_-1362","geometry":{"type":"LineString","coordinates":[[151522.011,166664.452],[151509.332,166657.345],[151456.857,166638.71],[151449.63,166636.094],[151447.265,166628.3],[151447.60449067,166623.25592193]]},"geometry_name":"GEOM","properties":{"INSPIRE_ID":"https://databrussels.be/id/streetaxe/76154","TYPE":"S","HIERARCHY":"DR","LVL":0,"STARTSN_ID":"https://databrussels.be/id/streetnode/1888","ENDSN_ID":"https://databrussels.be/id/streetnode/9409","STRNAMEFRE":"Avenue Général Dossin de Saint-Georges","STRNAMEDUT":"Gen.Dossin de St.Georgeslaan","SLOPE":0.11,"LENGTH":91.1069355812026},"bbox":[151447.265,166623.25592193,151522.011,166664.452]},{"type":"Feature","id":"StreetAxes.fid--578fcb21_1a031383836_-1374","geometry":{"type":"LineString","coordinates":[[151539.5,166617.007],[151525.444,166614.148],[151472.77,166594.678],[151465.496,166592.022],[151459.335,166596.08],[151455.85909325,166601.09614574]]},"geometry_name":"GEOM","properties":{"INSPIRE_ID":"https://databrussels.be/id/streetaxe/76155","TYPE":"S","HIERARCHY":"DR","LVL":0,"STARTSN_ID":"https://databrussels.be/id/streetnode/2224","ENDSN_ID":"https://databrussels.be/id/streetnode/9410","STRNAMEFRE":"Avenue Général Dossin de Saint-Georges","STRNAMEDUT":"Gen.Dossin de St.Georgeslaan","SLOPE":1.55,"LENGTH":91.7248555775788},"bbox":[151455.85909325,166592.022,151539.5,166617.007]},{"type":"Feature","id":"StreetAxes.fid--578fcb21_1a031383836_-1364","geometry":{"type":"LineString","coordinates":[[151407.28409809,166582.64838731],[151414.938,166565.48],[151441.56,166510.84],[151468.909,166463.418],[151474.25000263,166455.08482768]]},"geometry_name":"GEOM","properties":{"INSPIRE_ID":"https://databrussels.be/id/streetaxe/76359","TYPE":"S","HIERARCHY":"DR","LVL":0,"STARTSN_ID":"https://databrussels.be/id/streetnode/9392","ENDSN_ID":"https://databrussels.be/id/streetnode/10247","STRNAMEFRE":"Avenue Armand Huysmans","STRNAMEDUT":"Armand Huysmanslaan","SLOPE":3.71,"LENGTH":144.218700317869},"bbox":[151407.28409809,166455.08482768,151474.25000263,166582.64838731]},{"type":"Feature","id":"StreetAxes.fid--578fcb21_1a031383836_-1353","geometry":{"type":"LineString","coordinates":[[151288.95980943,166883.24371608],[151291.832,166875.059],[151327.408,166777.391],[151330.963,166767.756]]},"geometry_name":"GEOM","properties":{"INSPIRE_ID":"https://databrussels.be/id/streetaxe/76403","TYPE":"S","HIERARCHY":"DR","LVL":0,"STARTSN_ID":"https://databrussels.be/id/streetnode/12842","ENDSN_ID":"https://databrussels.be/id/streetnode/2267","STRNAMEFRE":"Avenue Armand Huysmans","STRNAMEDUT":"Armand Huysmanslaan","SLOPE":1.83,"LENGTH":122.88957540407},"bbox":[151288.95980943,166767.756,151330.963,166883.24371608]},{"type":"Feature","id":"StreetAxes.fid--578fcb21_1a031383836_-133d","geometry":{"type":"LineString","coordinates":[[151017.984,166562.921],[151000.141,166588.543],[150985.557,166609.64],[150971.693,166628.296],[150954.503,166649.058],[150933.317,166671.425],[150920.234,166684.513],[150899.741,166703.075]]},"geometry_name":"GEOM","properties":{"INSPIRE_ID":"https://databrussels.be/id/streetaxe/76590","TYPE":"S","HIERARCHY":"MER","LVL":0,"STARTSN_ID":"https://databrussels.be/id/streetnode/7746","ENDSN_ID":"https://databrussels.be/id/streetnode/7742","STRNAMEFRE":"Avenue Franklin Roosevelt","STRNAMEDUT":"Franklin Rooseveltlaan","SLOPE":1.4,"LENGTH":184.03145983464},"bbox":[150899.741,166562.921,151017.984,166703.075]},{"type":"Feature","id":"StreetAxes.fid--578fcb21_1a031383836_-135f","geometry":{"type":"LineString","coordinates":[[151277.15715243,166887.75878065],[151266.938,166883.602],[151192.149,166847.802],[151172.419,166839.718]]},"geometry_name":"GEOM","properties":{"INSPIRE_ID":"https://databrussels.be/id/streetaxe/76650","TYPE":"S","HIERARCHY":"DR","LVL":0,"STARTSN_ID":"https://databrussels.be/id/streetnode/12840","ENDSN_ID":"https://databrussels.be/id/streetnode/3762","STRNAMEFRE":"Avenue Pierre et Marie Curie","STRNAMEDUT":"Pierre en Marie Curielaan","SLOPE":0.79,"LENGTH":115.269961575641},"bbox":[151172.419,166839.718,151277.15715243,166887.75878065]},{"type":"Feature","id":"StreetAxes.fid--578fcb21_1a031383836_-133a","geometry":{"type":"LineString","coordinates":[[151212.54406063,166656.688826],[151249.50051494,166671.65154331]]},"geometry_name":"GEOM","properties":{"INSPIRE_ID":"https://databrussels.be/id/streetaxe/76903","TYPE":"S","HIERARCHY":"DC","LVL":0,"STARTSN_ID":"https://databrussels.be/id/streetnode/8605","ENDSN_ID":"https://databrussels.be/id/streetnode/8601","STRNAMEFRE":"Square du Solbosch","STRNAMEDUT":"Solbossquare","SLOPE":0.35,"LENGTH":39.870570914059},"bbox":[151212.54406063,166656.688826,151249.50051494,166671.65154331]},{"type":"Feature","id":"StreetAxes.fid--578fcb21_1a031383836_-1350","geometry":{"type":"LineString","coordinates":[[151330.963,166767.756],[151334.518,166758.12],[151346.202,166726.571],[151350.39689759,166714.93087221]]},"geometry_name":"GEOM","properties":{"INSPIRE_ID":"https://databrussels.be/id/streetaxe/77384","TYPE":"S","HIERARCHY":"DR","LVL":0,"STARTSN_ID":"https://databrussels.be/id/streetnode/2267","ENDSN_ID":"https://databrussels.be/id/streetnode/12839","STRNAMEFRE":"Avenue Armand Huysmans","STRNAMEDUT":"Armand Huysmanslaan","SLOPE":1.03,"LENGTH":56.2868583432347},"bbox":[151330.963,166714.93087221,151350.39689759,166767.756]},{"type":"Feature","id":"StreetAxes.fid--578fcb21_1a031383836_-136f","geometry":{"type":"LineString","coordinates":[[151575.63910085,166502.94272868],[151569.392,166499.078],[151500.087,166456.806],[151491.09402629,166451.28302737]]},"geometry_name":"GEOM","properties":{"INSPIRE_ID":"https://databrussels.be/id/streetaxe/77676","TYPE":"S","HIERARCHY":"DR","LVL":0,"STARTSN_ID":"https://databrussels.be/id/streetnode/10245","ENDSN_ID":"https://databrussels.be/id/streetnode/11838","STRNAMEFRE":"Avenue George Bergmann","STRNAMEDUT":"George Bergmannlaan","SLOPE":0.51,"LENGTH":99.0788928231553},"bbox":[151491.09402629,166451.28302737,151575.63910085,166502.94272868]},{"type":"Feature","id":"StreetAxes.fid--578fcb21_1a031383836_-1375","geometry":{"type":"LineString","coordinates":[[151564.43256513,166951.8391468],[151553.7195,166950.0685],[151454.338,166935.558],[151439.362,166933.278]]},"geometry_name":"GEOM","properties":{"INSPIRE_ID":"https://databrussels.be/id/streetaxe/77788","TYPE":"S","HIERARCHY":"DR","LVL":0,"STARTSN_ID":"https://databrussels.be/id/streetnode/11501","ENDSN_ID":"https://databrussels.be/id/streetnode/4015","STRNAMEFRE":"Avenue Pierre et Marie Curie","STRNAMEDUT":"Pierre en Marie Curielaan","SLOPE":4.61,"LENGTH":126.442206887065},"bbox":[151439.362,166933.278,151564.43256513,166951.8391468]},{"type":"Feature","id":"StreetAxes.fid--578fcb21_1a031383836_-136d","geometry":{"type":"LineString","coordinates":[[151342.38905356,166702.01994299],[151331.466,166698.412],[151255.7315,166673.8995],[151249.50051494,166671.65154331]]},"geometry_name":"GEOM","properties":{"INSPIRE_ID":"https://databrussels.be/id/streetaxe/77863","TYPE":"S","HIERARCHY":"DR","LVL":0,"STARTSN_ID":"https://databrussels.be/id/streetnode/12837","ENDSN_ID":"https://databrussels.be/id/streetnode/8601","STRNAMEFRE":"Avenue Guillaume Gilbert","STRNAMEDUT":"Guillaume Gilbertlaan","SLOPE":0.78,"LENGTH":97.7301968830436},"bbox":[151249.50051494,166671.65154331,151342.38905356,166702.01994299]},{"type":"Feature","id":"StreetAxes.fid--578fcb21_1a031383836_-1363","geometry":{"type":"LineString","coordinates":[[151407.28409809,166582.64838731],[151455.85909325,166601.09614574]]},"geometry_name":"GEOM","properties":{"INSPIRE_ID":"https://databrussels.be/id/streetaxe/78367","TYPE":"S","HIERARCHY":"DR","LVL":0,"STARTSN_ID":"https://databrussels.be/id/streetnode/9392","ENDSN_ID":"https://databrussels.be/id/streetnode/9410","STRNAMEFRE":"Avenue Général Dossin de Saint-Georges","STRNAMEDUT":"Gen.Dossin de St.Georgeslaan","SLOPE":0.73,"LENGTH":51.9600803152012},"bbox":[151407.28409809,166582.64838731,151455.85909325,166601.09614574]},{"type":"Feature","id":"StreetAxes.fid--578fcb21_1a031383836_-136c","geometry":{"type":"LineString","coordinates":[[151391.80546362,166590.07763862],[151377.612,166584.922],[151283.068,166550.631],[151261.989,166541.582]]},"geometry_name":"GEOM","properties":{"INSPIRE_ID":"https://databrussels.be/id/streetaxe/78616","TYPE":"S","HIERARCHY":"DR","LVL":0,"STARTSN_ID":"https://databrussels.be/id/streetnode/9408","ENDSN_ID":"https://databrussels.be/id/streetnode/2312","STRNAMEFRE":"Avenue Général Dossin de Saint-Georges","STRNAMEDUT":"Gen.Dossin de St.Georgeslaan","SLOPE":0.82,"LENGTH":138.610641772391},"bbox":[151261.989,166541.582,151391.80546362,166590.07763862]},{"type":"Feature","id":"StreetAxes.fid--578fcb21_1a031383836_-1365","geometry":{"type":"LineString","coordinates":[[151397.5757417,166604.93534983],[151447.60449067,166623.25592193]]},"geometry_name":"GEOM","properties":{"INSPIRE_ID":"https://databrussels.be/id/streetaxe/78617","TYPE":"S","HIERARCHY":"DR","LVL":0,"STARTSN_ID":"https://databrussels.be/id/streetnode/9411","ENDSN_ID":"https://databrussels.be/id/streetnode/9409","STRNAMEFRE":"Avenue Général Dossin de Saint-Georges","STRNAMEDUT":"Gen.Dossin de St.Georgeslaan","SLOPE":1.37,"LENGTH":53.2777541329997},"bbox":[151397.5757417,166604.93534983,151447.60449067,166623.25592193]},{"type":"Feature","id":"StreetAxes.fid--578fcb21_1a031383836_-135e","geometry":{"type":"LineString","coordinates":[[151190.434,167084.418],[151209.212,167057.607],[151234.498,167014.585],[151252.38,166978.785],[151267.738,166941.9],[151283.26728116,166899.87188606]]},"geometry_name":"GEOM","properties":{"INSPIRE_ID":"https://databrussels.be/id/streetaxe/78682","TYPE":"S","HIERARCHY":"DR","LVL":0,"STARTSN_ID":"https://databrussels.be/id/streetnode/2567","ENDSN_ID":"https://databrussels.be/id/streetnode/12836","STRNAMEFRE":"Avenue Armand Huysmans","STRNAMEDUT":"Armand Huysmanslaan","SLOPE":2.29,"LENGTH":207.413106096966},"bbox":[151190.434,166899.87188606,151283.26728116,167084.418]},{"type":"Feature","id":"StreetAxes.fid--578fcb21_1a031383836_-134c","geometry":{"type":"LineString","coordinates":[[151494.562,166751.856],[151474.877,166745.38],[151375.949,166713.106],[151364.50772775,166709.32635828]]},"geometry_name":"GEOM","properties":{"INSPIRE_ID":"https://databrussels.be/id/streetaxe/78683","TYPE":"S","HIERARCHY":"DR","LVL":0,"STARTSN_ID":"https://databrussels.be/id/streetnode/4150","ENDSN_ID":"https://databrussels.be/id/streetnode/12841","STRNAMEFRE":"Avenue Guillaume Gilbert","STRNAMEDUT":"Guillaume Gilbertlaan","SLOPE":1.71,"LENGTH":136.831703476362},"bbox":[151364.50772775,166709.32635828,151494.562,166751.856]},{"type":"Feature","id":"StreetAxes.fid--578fcb21_1a031383836_-1352","geometry":{"type":"LineString","coordinates":[[151365.347,166918.03],[151353.044,166914.777],[151310.755,166901.13],[151305.1,166899.125],[151295.57737288,166895.25149939]]},"geometry_name":"GEOM","properties":{"INSPIRE_ID":"https://databrussels.be/id/streetaxe/78684","TYPE":"S","HIERARCHY":"DR","LVL":0,"STARTSN_ID":"https://databrussels.be/id/streetnode/4323","ENDSN_ID":"https://databrussels.be/id/streetnode/12838","STRNAMEFRE":"Avenue Pierre et Marie Curie","STRNAMEDUT":"Pierre en Marie Curielaan","SLOPE":3.01,"LENGTH":73.4424807099986},"bbox":[151295.57737288,166895.25149939,151365.347,166918.03]},{"type":"Feature","id":"StreetAxes.fid--578fcb21_1a031383836_-133f","geometry":{"type":"LineString","coordinates":[[150913.046,166482.576],[150923.51,166491.58],[150992.51,166551.245],[151017.984,166562.921]]},"geometry_name":"GEOM","properties":{"INSPIRE_ID":"https://databrussels.be/id/streetaxe/81329","TYPE":"S","HIERARCHY":"MAR","LVL":0,"STARTSN_ID":"https://databrussels.be/id/streetnode/3361","ENDSN_ID":"https://databrussels.be/id/streetnode/7746","STRNAMEFRE":"Avenue de l'Orée","STRNAMEDUT":"Zoomlaan","SLOPE":3.18,"LENGTH":133.046024018584},"bbox":[150913.046,166482.576,151017.984,166562.921]},{"type":"Feature","id":"StreetAxes.fid--578fcb21_1a031383836_-133b","geometry":{"type":"LineString","coordinates":[[151033.3788062,166571.8161654],[151059.13,166582.825],[151189.43757365,166643.15069542],[151204.613,166652.5985],[151212.54406063,166656.688826]]},"geometry_name":"GEOM","properties":{"INSPIRE_ID":"https://databrussels.be/id/streetaxe/82031","TYPE":"S","HIERARCHY":"DC","LVL":0,"STARTSN_ID":"https://databrussels.be/id/streetnode/7733","ENDSN_ID":"https://databrussels.be/id/streetnode/8605","STRNAMEFRE":"Avenue de l'Orée","STRNAMEDUT":"Zoomlaan","SLOPE":2.05,"LENGTH":198.399536078434},"bbox":[151033.3788062,166571.8161654,151212.54406063,166656.688826]},{"type":"Feature","id":"StreetAxes.fid--578fcb21_1a031383836_-1345","geometry":{"type":"LineString","coordinates":[[151454.08424163,166885.26037783],[151456.636,166876.972],[151458.716,166869.977]]},"geometry_name":"GEOM","properties":{"INSPIRE_ID":"https://databrussels.be/id/streetaxe/82894","TYPE":"S","HIERARCHY":"DC","LVL":0,"STARTSN_ID":"https://databrussels.be/id/streetnode/5165","ENDSN_ID":"https://databrussels.be/id/streetnode/3883","STRNAMEFRE":"Rue François Dons","STRNAMEDUT":"François Donsstraat","SLOPE":0.44,"LENGTH":15.9699936646248},"bbox":[151454.08424163,166869.977,151458.716,166885.26037783]},{"type":"Feature","id":"StreetAxes.fid--578fcb21_1a031383836_-1340","geometry":{"type":"LineString","coordinates":[[151033.3788062,166571.8161654],[151041.80321273,166556.33208523],[151052.20047061,166538.5506019],[151063.91653267,166518.17860218],[151075.78846109,166494.76475592],[151087.13405534,166472.84077588],[151093.79706751,166459.21312116]]},"geometry_name":"GEOM","properties":{"INSPIRE_ID":"https://databrussels.be/id/streetaxe/83242","TYPE":"S","HIERARCHY":"MER","LVL":0,"STARTSN_ID":"https://databrussels.be/id/streetnode/7733","ENDSN_ID":"https://databrussels.be/id/streetnode/7750","STRNAMEFRE":"Avenue Franklin Roosevelt","STRNAMEDUT":"Franklin Rooseveltlaan","SLOPE":2.35,"LENGTH":127.833062508538},"bbox":[151033.3788062,166459.21312116,151093.79706751,166571.8161654]},{"type":"Feature","id":"StreetAxes.fid--578fcb21_1a031383836_-1348","geometry":{"type":"LineString","coordinates":[[151403.51303683,166799.76727017],[151398.88472394,166802.7535849],[151393.40368997,166817.29530343],[151394.26159094,166820.91881362],[151397.8925202,166823.63272597]]},"geometry_name":"GEOM","properties":{"INSPIRE_ID":"https://databrussels.be/id/streetaxe/83616","TYPE":"S","HIERARCHY":"DR","LVL":0,"STARTSN_ID":"https://databrussels.be/id/streetnode/13292","ENDSN_ID":"https://databrussels.be/id/streetnode/13776","STRNAMEFRE":"Square Valère-Gille","STRNAMEDUT":"Valère-Gillesquare","SLOPE":0.55,"LENGTH":29.305274665513},"bbox":[151393.40368997,166799.76727017,151403.51303683,166823.63272597]},{"type":"Feature","id":"StreetAxes.fid--578fcb21_1a031383836_-1347","geometry":{"type":"LineString","coordinates":[[151403.51303683,166799.76727017],[151405.71658358,166804.47001945],[151404.0280166,166811.07679556],[151405.36252921,166817.79936052],[151404.17100009,166821.51822624],[151400.93004087,166824.23585888],[151397.8925202,166823.63272597]]},"geometry_name":"GEOM","properties":{"INSPIRE_ID":"https://databrussels.be/id/streetaxe/84013","TYPE":"S","HIERARCHY":"DR","LVL":0,"STARTSN_ID":"https://databrussels.be/id/streetnode/13292","ENDSN_ID":"https://databrussels.be/id/streetnode/13776","STRNAMEFRE":"Square Valère-Gille","STRNAMEDUT":"Valère-Gillesquare","SLOPE":0.53,"LENGTH":30.0977835279712},"bbox":[151397.8925202,166799.76727017,151405.71658358,166824.23585888]},{"type":"Feature","id":"StreetAxes.fid--578fcb21_1a031383836_-1351","geometry":{"type":"LineString","coordinates":[[151330.963,166767.756],[151344.625,166772.465],[151405.19062297,166794.61121381],[151403.51303683,166799.76727017]]},"geometry_name":"GEOM","properties":{"INSPIRE_ID":"https://databrussels.be/id/streetaxe/84237","TYPE":"S","HIERARCHY":"DR","LVL":0,"STARTSN_ID":"https://databrussels.be/id/streetnode/2267","ENDSN_ID":"https://databrussels.be/id/streetnode/13292","STRNAMEFRE":"Square Valère-Gille","STRNAMEDUT":"Valère-Gillesquare","SLOPE":0.31,"LENGTH":84.3604716030709},"bbox":[151330.963,166767.756,151405.19062297,166799.76727017]},{"type":"Feature","id":"StreetAxes.fid--578fcb21_1a031383836_-1367","geometry":{"type":"LineString","coordinates":[[151391.80546362,166590.07763862],[151397.75,166585.14],[151407.28409809,166582.64838731]]},"geometry_name":"GEOM","properties":{"INSPIRE_ID":"https://databrussels.be/id/streetaxe/87445","TYPE":"I","HIERARCHY":"DR","LVL":0,"STARTSN_ID":"https://databrussels.be/id/streetnode/9408","ENDSN_ID":"https://databrussels.be/id/streetnode/9392","STRNAMEFRE":"Avenue Armand Huysmans","STRNAMEDUT":"Armand Huysmanslaan","SLOPE":0.85,"LENGTH":17.5820250441391},"bbox":[151391.80546362,166582.64838731,151407.28409809,166590.07763862]},{"type":"Feature","id":"StreetAxes.fid--578fcb21_1a031383836_-1361","geometry":{"type":"LineString","coordinates":[[151455.85909325,166601.09614574],[151447.60449067,166623.25592193]]},"geometry_name":"GEOM","properties":{"INSPIRE_ID":"https://databrussels.be/id/streetaxe/87599","TYPE":"I","HIERARCHY":"DR","LVL":0,"STARTSN_ID":"https://databrussels.be/id/streetnode/9410","ENDSN_ID":"https://databrussels.be/id/streetnode/9409","STRNAMEFRE":"Avenue Général Dossin de Saint-Georges","STRNAMEDUT":"Gen.Dossin de St.Georgeslaan","SLOPE":0.08,"LENGTH":23.6472861958515},"bbox":[151447.60449067,166601.09614574,151455.85909325,166623.25592193]},{"type":"Feature","id":"StreetAxes.fid--578fcb21_1a031383836_-1366","geometry":{"type":"LineString","coordinates":[[151397.5757417,166604.93534983],[151406.36649468,166602.9430403],[151411.2225,166597.0875],[151411.67845702,166589.69014599],[151407.28409809,166582.64838731]]},"geometry_name":"GEOM","properties":{"INSPIRE_ID":"https://databrussels.be/id/streetaxe/87600","TYPE":"I","HIERARCHY":"DR","LVL":0,"STARTSN_ID":"https://databrussels.be/id/streetnode/9411","ENDSN_ID":"https://databrussels.be/id/streetnode/9392","STRNAMEFRE":"Avenue Armand Huysmans","STRNAMEDUT":"Armand Huysmanslaan","SLOPE":1.14,"LENGTH":32.3326024364449},"bbox":[151397.5757417,166582.64838731,151411.67845702,166604.93534983]},{"type":"Feature","id":"StreetAxes.fid--578fcb21_1a031383836_-1368","geometry":{"type":"LineString","coordinates":[[151397.5757417,166604.93534983],[151391.45,166596.97],[151391.80546362,166590.07763862]]},"geometry_name":"GEOM","properties":{"INSPIRE_ID":"https://databrussels.be/id/streetaxe/87601","TYPE":"I","HIERARCHY":"DR","LVL":0,"STARTSN_ID":"https://databrussels.be/id/streetnode/9411","ENDSN_ID":"https://databrussels.be/id/streetnode/9408","STRNAMEFRE":"Avenue Armand Huysmans","STRNAMEDUT":"Armand Huysmanslaan","SLOPE":1.3,"LENGTH":16.9499796053608},"bbox":[151391.45,166590.07763862,151397.5757417,166604.93534983]},{"type":"Feature","id":"StreetAxes.fid--578fcb21_1a031383836_-1354","geometry":{"type":"LineString","coordinates":[[151288.95980943,166883.24371608],[151294.5195,166888.926],[151295.57737288,166895.25149939]]},"geometry_name":"GEOM","properties":{"INSPIRE_ID":"https://databrussels.be/id/streetaxe/87888","TYPE":"I","HIERARCHY":"DR","LVL":0,"STARTSN_ID":"https://databrussels.be/id/streetnode/12842","ENDSN_ID":"https://databrussels.be/id/streetnode/12838","STRNAMEFRE":"Avenue Armand Huysmans","STRNAMEDUT":"Armand Huysmanslaan","SLOPE":0.49,"LENGTH":14.3630974280273},"bbox":[151288.95980943,166883.24371608,151295.57737288,166895.25149939]},{"type":"Feature","id":"StreetAxes.fid--578fcb21_1a031383836_-136a","geometry":{"type":"LineString","coordinates":[[151357.08965235,166696.35925371],[151349.0175,166697.6295],[151342.38905356,166702.01994299]]},"geometry_name":"GEOM","properties":{"INSPIRE_ID":"https://databrussels.be/id/streetaxe/87889","TYPE":"I","HIERARCHY":"DR","LVL":0,"STARTSN_ID":"https://databrussels.be/id/streetnode/12843","ENDSN_ID":"https://databrussels.be/id/streetnode/12837","STRNAMEFRE":"Avenue Armand Huysmans","STRNAMEDUT":"Armand Huysmanslaan","SLOPE":1.74,"LENGTH":16.1221009450897},"bbox":[151342.38905356,166696.35925371,151357.08965235,166702.01994299]},{"type":"Feature","id":"StreetAxes.fid--578fcb21_1a031383836_-1355","geometry":{"type":"LineString","coordinates":[[151295.57737288,166895.25149939],[151291.1635,166899.3535],[151283.26728116,166899.87188606]]},"geometry_name":"GEOM","properties":{"INSPIRE_ID":"https://databrussels.be/id/streetaxe/87890","TYPE":"I","HIERARCHY":"DR","LVL":0,"STARTSN_ID":"https://databrussels.be/id/streetnode/12838","ENDSN_ID":"https://databrussels.be/id/streetnode/12836","STRNAMEFRE":"Avenue Armand Huysmans","STRNAMEDUT":"Armand Huysmanslaan","SLOPE":2.01,"LENGTH":13.938885200724},"bbox":[151283.26728116,166895.25149939,151295.57737288,166899.87188606]},{"type":"Feature","id":"StreetAxes.fid--578fcb21_1a031383836_-134f","geometry":{"type":"LineString","coordinates":[[151342.38905356,166702.01994299],[151344.4355,166708.7565],[151350.39689759,166714.93087221]]},"geometry_name":"GEOM","properties":{"INSPIRE_ID":"https://databrussels.be/id/streetaxe/87891","TYPE":"I","HIERARCHY":"DR","LVL":0,"STARTSN_ID":"https://databrussels.be/id/streetnode/12837","ENDSN_ID":"https://databrussels.be/id/streetnode/12839","STRNAMEFRE":"Avenue Armand Huysmans","STRNAMEDUT":"Armand Huysmanslaan","SLOPE":0.13,"LENGTH":15.6231421792152},"bbox":[151342.38905356,166702.01994299,151350.39689759,166714.93087221]},{"type":"Feature","id":"StreetAxes.fid--578fcb21_1a031383836_-1357","geometry":{"type":"LineString","coordinates":[[151283.26728116,166899.87188606],[151278.3155,166894.46],[151277.15715243,166887.75878065]]},"geometry_name":"GEOM","properties":{"INSPIRE_ID":"https://databrussels.be/id/streetaxe/88034","TYPE":"I","HIERARCHY":"DR","LVL":0,"STARTSN_ID":"https://databrussels.be/id/streetnode/12836","ENDSN_ID":"https://databrussels.be/id/streetnode/12840","STRNAMEFRE":"Avenue Armand Huysmans","STRNAMEDUT":"Armand Huysmanslaan","SLOPE":0,"LENGTH":14.136034065395},"bbox":[151277.15715243,166887.75878065,151283.26728116,166899.87188606]},{"type":"Feature","id":"StreetAxes.fid--578fcb21_1a031383836_-134e","geometry":{"type":"LineString","coordinates":[[151350.39689759,166714.93087221],[151359.0415,166713.006],[151364.50772775,166709.32635828]]},"geometry_name":"GEOM","properties":{"INSPIRE_ID":"https://databrussels.be/id/streetaxe/88035","TYPE":"I","HIERARCHY":"DR","LVL":0,"STARTSN_ID":"https://databrussels.be/id/streetnode/12839","ENDSN_ID":"https://databrussels.be/id/streetnode/12841","STRNAMEFRE":"Avenue Armand Huysmans","STRNAMEDUT":"Armand Huysmanslaan","SLOPE":1.04,"LENGTH":15.4456537760143},"bbox":[151350.39689759,166709.32635828,151364.50772775,166714.93087221]},{"type":"Feature","id":"StreetAxes.fid--578fcb21_1a031383836_-1342","geometry":{"type":"LineString","coordinates":[[151079.624,166452.109],[151059.474,166489.697],[151040.98,166523.925],[151027.088,166548.554],[151017.984,166562.921]]},"geometry_name":"GEOM","properties":{"INSPIRE_ID":"https://databrussels.be/id/streetaxe/88288","TYPE":"S","HIERARCHY":"MER","LVL":0,"STARTSN_ID":"https://databrussels.be/id/streetnode/6137","ENDSN_ID":"https://databrussels.be/id/streetnode/7746","STRNAMEFRE":"Avenue Franklin Roosevelt","STRNAMEDUT":"Franklin Rooseveltlaan","SLOPE":2.4,"LENGTH":126.838532353731},"bbox":[151017.984,166452.109,151079.624,166562.921]},{"type":"Feature","id":"StreetAxes.fid--578fcb21_1a031383836_-135d","geometry":{"type":"LineString","coordinates":[[151206.25075354,166745.21321024],[151206.23208731,166741.9159031],[151205.7403248,166734.76145558],[151203.19876903,166715.65632092],[151202.94180289,166711.15768731],[151202.88215004,166705.05698926],[151203.12666119,166697.12470468],[151203.60978376,166692.22407945],[151204.3125075,166687.30312513],[151205.18566797,166682.59398693],[151207.09128169,166674.66039079],[151209.74124504,166665.24883612],[151212.54406063,166656.688826]]},"geometry_name":"GEOM","properties":{"INSPIRE_ID":"https://databrussels.be/id/streetaxe/88383","TYPE":"SC","HIERARCHY":"DC","LVL":0,"STARTSN_ID":"https://databrussels.be/id/streetnode/8604","ENDSN_ID":"https://databrussels.be/id/streetnode/8605","STRNAMEFRE":"Square du Solbosch","STRNAMEDUT":"Solbossquare","SLOPE":2.12,"LENGTH":89.9137533776554},"bbox":[151202.88215004,166656.688826,151212.54406063,166745.21321024]},{"type":"Feature","id":"StreetAxes.fid--578fcb21_1a031383836_-135a","geometry":{"type":"LineString","coordinates":[[151206.25075354,166745.21321024],[151216.01302007,166747.40214434]]},"geometry_name":"GEOM","properties":{"INSPIRE_ID":"https://databrussels.be/id/streetaxe/88384","TYPE":"SC","HIERARCHY":"DC","LVL":0,"STARTSN_ID":"https://databrussels.be/id/streetnode/8604","ENDSN_ID":"https://databrussels.be/id/streetnode/8603","STRNAMEFRE":"Square du Solbosch","STRNAMEDUT":"Solbossquare","SLOPE":1.1,"LENGTH":10.004662927285},"bbox":[151206.25075354,166745.21321024,151216.01302007,166747.40214434]},{"type":"Feature","id":"StreetAxes.fid--578fcb21_1a031383836_-135b","geometry":{"type":"LineString","coordinates":[[151203.38692757,166768.63012299],[151205.02898704,166761.36592847],[151205.70352316,166755.99970122],[151206.27514173,166749.52127534],[151206.25075354,166745.21321024]]},"geometry_name":"GEOM","properties":{"INSPIRE_ID":"https://databrussels.be/id/streetaxe/88538","TYPE":"SC","HIERARCHY":"DC","LVL":0,"STARTSN_ID":"https://databrussels.be/id/streetnode/8602","ENDSN_ID":"https://databrussels.be/id/streetnode/8604","STRNAMEFRE":"Square du Solbosch","STRNAMEDUT":"Solbossquare","SLOPE":1.18,"LENGTH":23.6676598675162},"bbox":[151203.38692757,166745.21321024,151206.27514173,166768.63012299]},{"type":"Feature","id":"StreetAxes.fid--578fcb21_1a031383836_-1358","geometry":{"type":"LineString","coordinates":[[151277.15715243,166887.75878065],[151282.062,166883.5595],[151288.95980943,166883.24371608]]},"geometry_name":"GEOM","properties":{"INSPIRE_ID":"https://databrussels.be/id/streetaxe/88539","TYPE":"I","HIERARCHY":"DR","LVL":0,"STARTSN_ID":"https://databrussels.be/id/streetnode/12840","ENDSN_ID":"https://databrussels.be/id/streetnode/12842","STRNAMEFRE":"Avenue Armand Huysmans","STRNAMEDUT":"Armand Huysmanslaan","SLOPE":1.57,"LENGTH":13.3619285801144},"bbox":[151277.15715243,166883.24371608,151288.95980943,166887.75878065]},{"type":"Feature","id":"StreetAxes.fid--578fcb21_1a031383836_-134d","geometry":{"type":"LineString","coordinates":[[151364.50772775,166709.32635828],[151362.3755,166701.88],[151357.08965235,166696.35925371]]},"geometry_name":"GEOM","properties":{"INSPIRE_ID":"https://databrussels.be/id/streetaxe/88540","TYPE":"I","HIERARCHY":"DR","LVL":0,"STARTSN_ID":"https://databrussels.be/id/streetnode/12841","ENDSN_ID":"https://databrussels.be/id/streetnode/12843","STRNAMEFRE":"Avenue Armand Huysmans","STRNAMEDUT":"Armand Huysmanslaan","SLOPE":0.65,"LENGTH":15.3888419911086},"bbox":[151357.08965235,166696.35925371,151364.50772775,166709.32635828]},{"type":"Feature","id":"StreetAxes.fid--578fcb21_1a031383836_-136e","geometry":{"type":"LineString","coordinates":[[151212.54406063,166656.688826],[151217.274,166644.204],[151254.28,166559.375],[151261.989,166541.582]]},"geometry_name":"GEOM","properties":{"INSPIRE_ID":"https://databrussels.be/id/streetaxe/92491","TYPE":"SC","HIERARCHY":"DC","LVL":0,"STARTSN_ID":"https://databrussels.be/id/streetnode/8605","ENDSN_ID":"https://databrussels.be/id/streetnode/2312","STRNAMEFRE":"Avenue du Pesage","STRNAMEDUT":"Waaglaan","SLOPE":2.63,"LENGTH":125.291462469568},"bbox":[151212.54406063,166541.582,151261.989,166656.688826]},{"type":"Feature","id":"StreetAxes.fid--578fcb21_1a031383836_-136b","geometry":{"type":"LineString","coordinates":[[151261.989,166541.582],[151269.79,166523.575],[151283.505,166492.135],[151295.01,166463.595],[151304.745,166433.91],[151310.334,166412.271],[151317.348,166378.706],[151320.259,166351.116]]},"geometry_name":"GEOM","properties":{"INSPIRE_ID":"https://databrussels.be/id/streetaxe/92492","TYPE":"SC","HIERARCHY":"DC","LVL":0,"STARTSN_ID":"https://databrussels.be/id/streetnode/2312","ENDSN_ID":"https://databrussels.be/id/streetnode/601","STRNAMEFRE":"Avenue du Pesage","STRNAMEDUT":"Waaglaan","SLOPE":2.93,"LENGTH":200.319876215669},"bbox":[151261.989,166351.116,151320.259,166541.582]},{"type":"Feature","id":"StreetAxes.fid--578fcb21_1a031383836_-133e","geometry":{"type":"LineString","coordinates":[[151017.984,166562.921],[151033.379,166571.816]]},"geometry_name":"GEOM","properties":{"INSPIRE_ID":"https://databrussels.be/id/streetaxe/92517","TYPE":"I","HIERARCHY":"MER","LVL":0,"STARTSN_ID":"https://databrussels.be/id/streetnode/7746","ENDSN_ID":"https://databrussels.be/id/streetnode/7733","STRNAMEFRE":"Avenue Franklin Roosevelt","STRNAMEDUT":"Franklin Rooseveltlaan","SLOPE":0.55,"LENGTH":17.7799620359407},"bbox":[151017.984,166562.921,151033.379,166571.816]},{"type":"Feature","id":"StreetAxes.fid--578fcb21_1a031383836_-1360","geometry":{"type":"LineString","coordinates":[[151172.419,166839.718],[151181.951,166818.748],[151197.475,166784.22],[151201.28050784,166775.06152757],[151203.38692757,166768.63012299]]},"geometry_name":"GEOM","properties":{"INSPIRE_ID":"https://databrussels.be/id/streetaxe/92700","TYPE":"SC","HIERARCHY":"DC","LVL":0,"STARTSN_ID":"https://databrussels.be/id/streetnode/3762","ENDSN_ID":"https://databrussels.be/id/streetnode/8602","STRNAMEFRE":"Avenue Adolphe Buyl","STRNAMEDUT":"Adolphe Buyllaan","SLOPE":1.44,"LENGTH":77.5772873153071},"bbox":[151172.419,166768.63012299,151203.38692757,166839.718]},{"type":"Feature","id":"StreetAxes.fid--578fcb21_1a031383836_-1337","geometry":{"type":"LineString","coordinates":[[151092.04,167038.251],[151098.596,167007.698],[151164.948,166856.154],[151172.419,166839.718]]},"geometry_name":"GEOM","properties":{"INSPIRE_ID":"https://databrussels.be/id/streetaxe/92701","TYPE":"SC","HIERARCHY":"DC","LVL":0,"STARTSN_ID":"https://databrussels.be/id/streetnode/2167","ENDSN_ID":"https://databrussels.be/id/streetnode/3762","STRNAMEFRE":"Avenue Adolphe Buyl","STRNAMEDUT":"Adolphe Buyllaan","SLOPE":2.01,"LENGTH":214.736061466767},"bbox":[151092.04,166839.718,151172.419,167038.251]},{"type":"Feature","id":"StreetAxes.fid--578fcb21_1a031383836_-1349","geometry":{"type":"LineString","coordinates":[[151454.08424163,166885.26037783],[151444.683,166882.366],[151427.5584977,166877.58552557],[151417.22316374,166871.72239908],[151390.98573355,166844.86071564],[151397.8925202,166823.63272597]]},"geometry_name":"GEOM","properties":{"INSPIRE_ID":"https://databrussels.be/id/streetaxe/94930","TYPE":"S","HIERARCHY":null,"LVL":0,"STARTSN_ID":"https://databrussels.be/id/streetnode/5165","ENDSN_ID":"https://databrussels.be/id/streetnode/13776","STRNAMEFRE":null,"STRNAMEDUT":null,"SLOPE":2.47,"LENGTH":99.3711873610811},"bbox":[151390.98573355,166823.63272597,151454.08424163,166885.26037783]}],"numberReturned":63,"grand_bruxelles_source":{"authority":"Paradigm / Brussels-Capital Region","service":"https://geoservices-urbis.irisnet.be/geoserver/urbisvector/wfs","layer":"urbisvector:StreetAxes","crs":"EPSG:31370","bbox":[151000.0,166500.0,151500.0,167000.0],"cell_id":"bxl-e151000-n166500-s500","ownership":"bbox_intersection_source_unclipped"}}
