{"type":"FeatureCollection","totalFeatures":111,"numberMatched":111,"timeStamp":"2026-08-24T01:24:18.237Z","crs":{"type":"name","properties":{"name":"urn:ogc:def:crs:EPSG::31370"}},"bbox":[151362.26880578,168434.74184974,152055.78849294,169111.59816333],"features":[{"type":"Feature","id":"StreetAxes.fid--1290087_1a03126d94f_7b15","geometry":{"type":"LineString","coordinates":[[151512.99475002,168764.12655877],[151509.68679125,168769.93839572],[151507.77698425,168833.03671077],[151504.90324565,168851.13331323],[151498.13195747,168855.55102221]]},"geometry_name":"GEOM","properties":{"INSPIRE_ID":"https://databrussels.be/id/streetaxe/100414","TYPE":"S","HIERARCHY":"T","LVL":0,"STARTSN_ID":"https://databrussels.be/id/streetnode/","ENDSN_ID":"https://databrussels.be/id/streetnode/","STRNAMEFRE":"Avenue des Casernes","STRNAMEDUT":"Kazernenlaan","SLOPE":0.56,"LENGTH":96.2228264843944},"bbox":[151498.13195747,168764.12655877,151512.99475002,168855.55102221]},{"type":"Feature","id":"StreetAxes.fid--1290087_1a03126d94f_7af5","geometry":{"type":"LineString","coordinates":[[151743.479,168906.194],[151749.932,168907.027],[151798.492,168913.072],[151806.659,168914.625]]},"geometry_name":"GEOM","properties":{"INSPIRE_ID":"https://databrussels.be/id/streetaxe/70527","TYPE":"S","HIERARCHY":"DR","LVL":0,"STARTSN_ID":"https://databrussels.be/id/streetnode/891","ENDSN_ID":"https://databrussels.be/id/streetnode/3284","STRNAMEFRE":"Rue des Champs","STRNAMEDUT":"Veldstraat","SLOPE":2.9,"LENGTH":63.7546972324188},"bbox":[151743.479,168906.194,151806.659,168914.625]},{"type":"Feature","id":"StreetAxes.fid--1290087_1a03126d94f_7b32","geometry":{"type":"LineString","coordinates":[[151619.51,168779.448],[151624.292,168774.885],[151703.476,168699.848],[151708.976,168694.606]]},"geometry_name":"GEOM","properties":{"INSPIRE_ID":"https://databrussels.be/id/streetaxe/71167","TYPE":"S","HIERARCHY":"IDR","LVL":0,"STARTSN_ID":"https://databrussels.be/id/streetnode/24","ENDSN_ID":"https://databrussels.be/id/streetnode/4177","STRNAMEFRE":"Chaussée de Wavre","STRNAMEDUT":"Steenweg op Waver","SLOPE":0.99,"LENGTH":123.297792201429},"bbox":[151619.51,168694.606,151708.976,168779.448]},{"type":"Feature","id":"StreetAxes.fid--1290087_1a03126d94f_7b36","geometry":{"type":"LineString","coordinates":[[151708.976,168694.606],[151714.477,168689.364],[151716.176,168687.752],[151723.336,168680.957]]},"geometry_name":"GEOM","properties":{"INSPIRE_ID":"https://databrussels.be/id/streetaxe/71583","TYPE":"S","HIERARCHY":"IDR","LVL":0,"STARTSN_ID":"https://databrussels.be/id/streetnode/4177","ENDSN_ID":"https://databrussels.be/id/streetnode/2592","STRNAMEFRE":"Chaussée de Wavre","STRNAMEDUT":"Steenweg op Waver","SLOPE":0.61,"LENGTH":19.8117439579044},"bbox":[151708.976,168680.957,151723.336,168694.606]},{"type":"Feature","id":"StreetAxes.fid--1290087_1a03126d94f_7af8","geometry":{"type":"LineString","coordinates":[[151806.659,168914.625],[151816.246,168916.45],[151827.34,168918.104],[151852.595,168923.326],[151866.556,168926.61],[151879.127,168934.422]]},"geometry_name":"GEOM","properties":{"INSPIRE_ID":"https://databrussels.be/id/streetaxe/71595","TYPE":"S","HIERARCHY":"DR","LVL":0,"STARTSN_ID":"https://databrussels.be/id/streetnode/3284","ENDSN_ID":"https://databrussels.be/id/streetnode/2133","STRNAMEFRE":"Avenue des Champs","STRNAMEDUT":"Veldlaan","SLOPE":2.96,"LENGTH":75.9076371013507},"bbox":[151806.659,168914.625,151879.127,168934.422]},{"type":"Feature","id":"StreetAxes.fid--1290087_1a03126d94f_7b3d","geometry":{"type":"LineString","coordinates":[[151875.451,168802.293],[151878.804,168805.026],[151915.5,168833.592],[151922.111,168838.96]]},"geometry_name":"GEOM","properties":{"INSPIRE_ID":"https://databrussels.be/id/streetaxe/71943","TYPE":"S","HIERARCHY":"DR","LVL":0,"STARTSN_ID":"https://databrussels.be/id/streetnode/3192","ENDSN_ID":"https://databrussels.be/id/streetnode/4117","STRNAMEFRE":"Rue Général Fivé","STRNAMEDUT":"Generaal Fivéstraat","SLOPE":2.07,"LENGTH":59.3455370362895},"bbox":[151875.451,168802.293,151922.111,168838.96]},{"type":"Feature","id":"StreetAxes.fid--1290087_1a03126d94f_7b3a","geometry":{"type":"LineString","coordinates":[[151806.659,168914.625],[151806.896,168907.144],[151819.124,168775.719],[151820.684,168759.36]]},"geometry_name":"GEOM","properties":{"INSPIRE_ID":"https://databrussels.be/id/streetaxe/71985","TYPE":"S","HIERARCHY":"DR","LVL":0,"STARTSN_ID":"https://databrussels.be/id/streetnode/3284","ENDSN_ID":"https://databrussels.be/id/streetnode/2095","STRNAMEFRE":"Rue Général Henry","STRNAMEDUT":"Generaal Henrystraat","SLOPE":1.58,"LENGTH":155.910596799203},"bbox":[151806.659,168759.36,151820.684,168914.625]},{"type":"Feature","id":"StreetAxes.fid--1290087_1a03126d94f_7b3b","geometry":{"type":"LineString","coordinates":[[151820.684,168759.36],[151832.975,168769.087],[151872.098,168799.56],[151875.451,168802.293]]},"geometry_name":"GEOM","properties":{"INSPIRE_ID":"https://databrussels.be/id/streetaxe/72129","TYPE":"S","HIERARCHY":"DR","LVL":0,"STARTSN_ID":"https://databrussels.be/id/streetnode/2095","ENDSN_ID":"https://databrussels.be/id/streetnode/3192","STRNAMEFRE":"Rue Général Fivé","STRNAMEDUT":"Generaal Fivéstraat","SLOPE":2.66,"LENGTH":69.5904614116243},"bbox":[151820.684,168759.36,151875.451,168802.293]},{"type":"Feature","id":"StreetAxes.fid--1290087_1a03126d94f_7b45","geometry":{"type":"LineString","coordinates":[[151783.52,168623.884],[151793.563,168614.378],[151846.456,168564.048],[151851.64,168559.288]]},"geometry_name":"GEOM","properties":{"INSPIRE_ID":"https://databrussels.be/id/streetaxe/72252","TYPE":"S","HIERARCHY":"IDR","LVL":0,"STARTSN_ID":"https://databrussels.be/id/streetnode/4178","ENDSN_ID":"https://databrussels.be/id/streetnode/3642","STRNAMEFRE":"Chaussée de Wavre","STRNAMEDUT":"Steenweg op Waver","SLOPE":0.62,"LENGTH":93.8784830006586},"bbox":[151783.52,168559.288,151851.64,168623.884]},{"type":"Feature","id":"StreetAxes.fid--1290087_1a03126d94f_7b42","geometry":{"type":"LineString","coordinates":[[151922.111,168838.96],[151928.722,168844.328],[151936.987,168850.764],[151944.82,168856.883]]},"geometry_name":"GEOM","properties":{"INSPIRE_ID":"https://databrussels.be/id/streetaxe/72418","TYPE":"S","HIERARCHY":"DR","LVL":0,"STARTSN_ID":"https://databrussels.be/id/streetnode/4117","ENDSN_ID":"https://databrussels.be/id/streetnode/1792","STRNAMEFRE":"Rue Général Fivé","STRNAMEDUT":"Generaal Fivéstraat","SLOPE":2.14,"LENGTH":28.9309517184783},"bbox":[151922.111,168838.96,151944.82,168856.883]},{"type":"Feature","id":"StreetAxes.fid--1290087_1a03126d94f_7b5f","geometry":{"type":"LineString","coordinates":[[151595.423,168609.285],[151600.606,168604.02],[151608.474,168589.412]]},"geometry_name":"GEOM","properties":{"INSPIRE_ID":"https://databrussels.be/id/streetaxe/72667","TYPE":"S","HIERARCHY":"DR","LVL":0,"STARTSN_ID":"https://databrussels.be/id/streetnode/2485","ENDSN_ID":"https://databrussels.be/id/streetnode/1405","STRNAMEFRE":"Rue Mont du Chêne","STRNAMEDUT":"Eikenbergstraat","SLOPE":0.38,"LENGTH":23.9802185256889},"bbox":[151595.423,168589.412,151608.474,168609.285]},{"type":"Feature","id":"StreetAxes.fid--1290087_1a03126d94f_7af7","geometry":{"type":"LineString","coordinates":[[151805.047,168983.838],[151805.173,168976.804],[151806.298,168926.092],[151806.659,168914.625]]},"geometry_name":"GEOM","properties":{"INSPIRE_ID":"https://databrussels.be/id/streetaxe/72924","TYPE":"S","HIERARCHY":"DR","LVL":0,"STARTSN_ID":"https://databrussels.be/id/streetnode/3013","ENDSN_ID":"https://databrussels.be/id/streetnode/3284","STRNAMEFRE":"Rue Général Henry","STRNAMEDUT":"Generaal Henrystraat","SLOPE":1.2,"LENGTH":69.2322864778647},"bbox":[151805.047,168914.625,151806.659,168983.838]},{"type":"Feature","id":"StreetAxes.fid--1290087_1a03126d94f_7b31","geometry":{"type":"LineString","coordinates":[[151708.976,168694.606],[151701.079,168685.204],[151605.649,168615.867],[151595.423,168609.285]]},"geometry_name":"GEOM","properties":{"INSPIRE_ID":"https://databrussels.be/id/streetaxe/73049","TYPE":"S","HIERARCHY":"DR","LVL":0,"STARTSN_ID":"https://databrussels.be/id/streetnode/4177","ENDSN_ID":"https://databrussels.be/id/streetnode/2485","STRNAMEFRE":"Rue Joseph Buedts","STRNAMEDUT":"Joseph Buedtsstraat","SLOPE":0.9,"LENGTH":142.399362377611},"bbox":[151595.423,168609.285,151708.976,168694.606]},{"type":"Feature","id":"StreetAxes.fid--1290087_1a03126d94f_7b38","geometry":{"type":"LineString","coordinates":[[151723.336,168680.957],[151730.497,168674.162],[151773.478,168633.39],[151783.52,168623.884]]},"geometry_name":"GEOM","properties":{"INSPIRE_ID":"https://databrussels.be/id/streetaxe/73158","TYPE":"S","HIERARCHY":"IDR","LVL":0,"STARTSN_ID":"https://databrussels.be/id/streetnode/2592","ENDSN_ID":"https://databrussels.be/id/streetnode/4178","STRNAMEFRE":"Chaussée de Wavre","STRNAMEDUT":"Steenweg op Waver","SLOPE":0.65,"LENGTH":82.9424034196493},"bbox":[151723.336,168623.884,151783.52,168680.957]},{"type":"Feature","id":"StreetAxes.fid--1290087_1a03126d94f_7b40","geometry":{"type":"LineString","coordinates":[[151902.302,168764.696],[151904.62,168761.126],[151915.776,168738.936],[151932.607,168706.988],[151945.235,168701.231]]},"geometry_name":"GEOM","properties":{"INSPIRE_ID":"https://databrussels.be/id/streetaxe/73297","TYPE":"S","HIERARCHY":"DR","LVL":0,"STARTSN_ID":"https://databrussels.be/id/streetnode/1182","ENDSN_ID":"https://databrussels.be/id/streetnode/3226","STRNAMEFRE":"Rue Camille Coquilhat","STRNAMEDUT":"Camille Coquilhatstraat","SLOPE":3.21,"LENGTH":79.0817698948868},"bbox":[151902.302,168701.231,151945.235,168764.696]},{"type":"Feature","id":"StreetAxes.fid--1290087_1a03126d94f_7b33","geometry":{"type":"LineString","coordinates":[[151633.442,168889.332],[151640.182,168891.019],[151662.7,168895.516],[151684.56076009,168898.46681467]]},"geometry_name":"GEOM","properties":{"INSPIRE_ID":"https://databrussels.be/id/streetaxe/73628","TYPE":"S","HIERARCHY":"DR","LVL":0,"STARTSN_ID":"https://databrussels.be/id/streetnode/3892","ENDSN_ID":"https://databrussels.be/id/streetnode/5284","STRNAMEFRE":"Rue des Champs","STRNAMEDUT":"Veldstraat","SLOPE":1.37,"LENGTH":51.9695840596756},"bbox":[151633.442,168889.332,151684.56076009,168898.46681467]},{"type":"Feature","id":"StreetAxes.fid--1290087_1a03126d94f_7b02","geometry":{"type":"LineString","coordinates":[[151805.047,168983.838],[151811.687,168983.465],[151901.26922313,169014.40942514],[151906.83951357,169018.80966829]]},"geometry_name":"GEOM","properties":{"INSPIRE_ID":"https://databrussels.be/id/streetaxe/73789","TYPE":"S","HIERARCHY":"DR","LVL":0,"STARTSN_ID":"https://databrussels.be/id/streetnode/3013","ENDSN_ID":"https://databrussels.be/id/streetnode/7365","STRNAMEFRE":"Rue des Perdrix","STRNAMEDUT":"Patrijzenstraat","SLOPE":3.04,"LENGTH":108.525300558813},"bbox":[151805.047,168983.465,151906.83951357,169018.80966829]},{"type":"Feature","id":"StreetAxes.fid--1290087_1a03126d94f_7af9","geometry":{"type":"LineString","coordinates":[[151879.127,168934.422],[151891.698,168942.234],[151929.121,168964.681],[151935.36964799,168968.39915729]]},"geometry_name":"GEOM","properties":{"INSPIRE_ID":"https://databrussels.be/id/streetaxe/73790","TYPE":"S","HIERARCHY":"DR","LVL":0,"STARTSN_ID":"https://databrussels.be/id/streetnode/2133","ENDSN_ID":"https://databrussels.be/id/streetnode/7364","STRNAMEFRE":"Avenue des Champs","STRNAMEDUT":"Veldlaan","SLOPE":2.71,"LENGTH":65.7106279690693},"bbox":[151879.127,168934.422,151935.36964799,168968.39915729]},{"type":"Feature","id":"StreetAxes.fid--1290087_1a03126d94f_7b3e","geometry":{"type":"LineString","coordinates":[[151875.451,168802.293],[151879.727,168796.828],[151896.288,168775.568],[151899.984,168768.266],[151902.302,168764.696]]},"geometry_name":"GEOM","properties":{"INSPIRE_ID":"https://databrussels.be/id/streetaxe/74083","TYPE":"S","HIERARCHY":"DR","LVL":0,"STARTSN_ID":"https://databrussels.be/id/streetnode/3192","ENDSN_ID":"https://databrussels.be/id/streetnode/1182","STRNAMEFRE":"Rue Camille Coquilhat","STRNAMEDUT":"Camille Coquilhatstraat","SLOPE":3.32,"LENGTH":46.3287901179592},"bbox":[151875.451,168764.696,151902.302,168802.293]},{"type":"Feature","id":"StreetAxes.fid--1290087_1a03126d94f_7b22","geometry":{"type":"LineString","coordinates":[[151982.4847028,168760.68766331],[151970.96324683,168751.49129791]]},"geometry_name":"GEOM","properties":{"INSPIRE_ID":"https://databrussels.be/id/streetaxe/74459","TYPE":"S","HIERARCHY":"DR","LVL":0,"STARTSN_ID":"https://databrussels.be/id/streetnode/6992","ENDSN_ID":"https://databrussels.be/id/streetnode/6558","STRNAMEFRE":"Rue Baron Dhanis","STRNAMEDUT":"Baron Dhanisstraat","SLOPE":2.17,"LENGTH":14.7416784667861},"bbox":[151970.96324683,168751.49129791,151982.4847028,168760.68766331]},{"type":"Feature","id":"StreetAxes.fid--1290087_1a03126d94f_7afe","geometry":{"type":"LineString","coordinates":[[151957.2536762,168981.48884724],[151954.55478372,168984.70536528],[151953.30922328,168985.45179499],[151951.12670178,168986.75971939],[151947.24031306,168987.67154592],[151943.69494463,168987.37328977],[151940.36891967,168986.12145119]]},"geometry_name":"GEOM","properties":{"INSPIRE_ID":"https://databrussels.be/id/streetaxe/74462","TYPE":"S","HIERARCHY":"DR","LVL":0,"STARTSN_ID":"https://databrussels.be/id/streetnode/6994","ENDSN_ID":"https://databrussels.be/id/streetnode/6938","STRNAMEFRE":"Place Aimé Dandoy","STRNAMEDUT":"Aimé Dandoyplein","SLOPE":0.26,"LENGTH":19.2989444030136},"bbox":[151940.36891967,168981.48884724,151957.2536762,168987.67154592]},{"type":"Feature","id":"StreetAxes.fid--1290087_1a03126d94f_7aff","geometry":{"type":"LineString","coordinates":[[151957.2536762,168981.48884724],[151963.486,168985.236],[152052.80920787,169036.80276002],[152055.78849294,169037.56411701]]},"geometry_name":"GEOM","properties":{"INSPIRE_ID":"https://databrussels.be/id/streetaxe/74463","TYPE":"S","HIERARCHY":"DR","LVL":0,"STARTSN_ID":"https://databrussels.be/id/streetnode/6994","ENDSN_ID":"https://databrussels.be/id/streetnode/7363","STRNAMEFRE":"Avenue Camille Joset","STRNAMEDUT":"Camille Josetlaan","SLOPE":2.7,"LENGTH":113.486647138773},"bbox":[151957.2536762,168981.48884724,152055.78849294,169037.56411701]},{"type":"Feature","id":"StreetAxes.fid--1290087_1a03126d94f_7b3f","geometry":{"type":"LineString","coordinates":[[151879.127,168934.422],[151898.918,168915.172],[151938.694,168864.457],[151944.82,168856.883]]},"geometry_name":"GEOM","properties":{"INSPIRE_ID":"https://databrussels.be/id/streetaxe/74895","TYPE":"S","HIERARCHY":"DR","LVL":0,"STARTSN_ID":"https://databrussels.be/id/streetnode/2133","ENDSN_ID":"https://databrussels.be/id/streetnode/1792","STRNAMEFRE":"Rue Général Molitor","STRNAMEDUT":"Generaal Molitorstraat","SLOPE":1,"LENGTH":101.802757227504},"bbox":[151879.127,168856.883,151944.82,168934.422]},{"type":"Feature","id":"StreetAxes.fid--1290087_1a03126d94f_7af3","geometry":{"type":"LineString","coordinates":[[151952.18918035,168963.72659755],[151955.52975987,168957.36822808],[151993.92275987,168908.16622808],[152000.01975987,168900.45622808]]},"geometry_name":"GEOM","properties":{"INSPIRE_ID":"https://databrussels.be/id/streetaxe/74983","TYPE":"S","HIERARCHY":"DR","LVL":0,"STARTSN_ID":"https://databrussels.be/id/streetnode/6999","ENDSN_ID":"https://databrussels.be/id/streetnode/7304","STRNAMEFRE":"Avenue Le Marinel","STRNAMEDUT":"Le Marinellaan","SLOPE":2.15,"LENGTH":79.4207300026852},"bbox":[151952.18918035,168900.45622808,152000.01975987,168963.72659755]},{"type":"Feature","id":"StreetAxes.fid--1290087_1a03126d94f_7b4b","geometry":{"type":"LineString","coordinates":[[151970.982,168656.346],[151975.69,168650.992],[152021.135027,168593.75803126],[152023.9480135,168589.72851563]]},"geometry_name":"GEOM","properties":{"INSPIRE_ID":"https://databrussels.be/id/streetaxe/76261","TYPE":"S","HIERARCHY":"DR","LVL":0,"STARTSN_ID":"https://databrussels.be/id/streetnode/12569","ENDSN_ID":"https://databrussels.be/id/streetnode/12564","STRNAMEFRE":"Avenue René Piret","STRNAMEDUT":"René Piretlaan","SLOPE":0.75,"LENGTH":85.1258031669675},"bbox":[151970.982,168589.72851563,152023.9480135,168656.346]},{"type":"Feature","id":"StreetAxes.fid--1290087_1a03126d94f_7b1d","geometry":{"type":"LineString","coordinates":[[151945.235,168701.231],[151947.225,168694.568],[151949.848,168686.093],[151956.72,168673.828],[151966.273,168661.7],[151970.982,168656.346]]},"geometry_name":"GEOM","properties":{"INSPIRE_ID":"https://databrussels.be/id/streetaxe/76263","TYPE":"S","HIERARCHY":"DR","LVL":0,"STARTSN_ID":"https://databrussels.be/id/streetnode/3226","ENDSN_ID":"https://databrussels.be/id/streetnode/12569","STRNAMEFRE":"Rue Camille Coquilhat","STRNAMEDUT":"Camille Coquilhatstraat","SLOPE":2.36,"LENGTH":52.4531660620332},"bbox":[151945.235,168656.346,151970.982,168701.231]},{"type":"Feature","id":"StreetAxes.fid--1290087_1a03126d94f_7b21","geometry":{"type":"LineString","coordinates":[[151982.4847028,168760.68766331],[151962.07747294,168786.51748016]]},"geometry_name":"GEOM","properties":{"INSPIRE_ID":"https://databrussels.be/id/streetaxe/76543","TYPE":"S","HIERARCHY":"DR","LVL":0,"STARTSN_ID":"https://databrussels.be/id/streetnode/6992","ENDSN_ID":"https://databrussels.be/id/streetnode/6937","STRNAMEFRE":"Rue Baron Dhanis","STRNAMEDUT":"Baron Dhanisstraat","SLOPE":3.16,"LENGTH":32.9186036936107},"bbox":[151962.07747294,168760.68766331,151982.4847028,168786.51748016]},{"type":"Feature","id":"StreetAxes.fid--1290087_1a03126d94f_7b55","geometry":{"type":"LineString","coordinates":[[151526.39293517,168581.07570839],[151526.82018055,168568.19833164]]},"geometry_name":"GEOM","properties":{"INSPIRE_ID":"https://databrussels.be/id/streetaxe/76654","TYPE":"S","HIERARCHY":"MAR","LVL":0,"STARTSN_ID":"https://databrussels.be/id/streetnode/5737","ENDSN_ID":"https://databrussels.be/id/streetnode/5591","STRNAMEFRE":"Avenue des Casernes","STRNAMEDUT":"Kazernenlaan","SLOPE":2.17,"LENGTH":12.884462372476},"bbox":[151526.39293517,168568.19833164,151526.82018055,168581.07570839]},{"type":"Feature","id":"StreetAxes.fid--1290087_1a03126d94f_7b04","geometry":{"type":"LineString","coordinates":[[151912.67019398,169023.41560612],[151917.54430151,169017.3314037],[151936.92030151,168992.6254037],[151940.36891967,168986.12145119]]},"geometry_name":"GEOM","properties":{"INSPIRE_ID":"https://databrussels.be/id/streetaxe/76661","TYPE":"S","HIERARCHY":"DR","LVL":0,"STARTSN_ID":"https://databrussels.be/id/streetnode/6551","ENDSN_ID":"https://databrussels.be/id/streetnode/6938","STRNAMEFRE":"Avenue Alexandre Galopin","STRNAMEDUT":"Alexandre Galopinlaan","SLOPE":0.28,"LENGTH":46.5551826875621},"bbox":[151912.67019398,168986.12145119,151940.36891967,169023.41560612]},{"type":"Feature","id":"StreetAxes.fid--1290087_1a03126d94f_7b1f","geometry":{"type":"LineString","coordinates":[[151950.28376478,168777.14004732],[151962.07747294,168786.51748016]]},"geometry_name":"GEOM","properties":{"INSPIRE_ID":"https://databrussels.be/id/streetaxe/76730","TYPE":"S","HIERARCHY":"DR","LVL":0,"STARTSN_ID":"https://databrussels.be/id/streetnode/6553","ENDSN_ID":"https://databrussels.be/id/streetnode/6937","STRNAMEFRE":"Rue Baron Dhanis","STRNAMEDUT":"Baron Dhanisstraat","SLOPE":1.86,"LENGTH":15.0674416790706},"bbox":[151950.28376478,168777.14004732,151962.07747294,168786.51748016]},{"type":"Feature","id":"StreetAxes.fid--1290087_1a03126d94f_7b09","geometry":{"type":"LineString","coordinates":[[151503.49118718,168902.52394669],[151498.96392765,168899.24552872],[151487.30468422,168894.3102316],[151478.36537889,168891.58334467],[151440.77919719,168880.49407214],[151428.85366424,168878.42403314],[151370.13680578,168861.00733025],[151362.26880578,168858.64033025]]},"geometry_name":"GEOM","properties":{"INSPIRE_ID":"https://databrussels.be/id/streetaxe/76895","TYPE":"S","HIERARCHY":"IDR","LVL":0,"STARTSN_ID":"https://databrussels.be/id/streetnode/8051","ENDSN_ID":"https://databrussels.be/id/streetnode/8041","STRNAMEFRE":"Avenue Eudore Pirmez","STRNAMEDUT":"Eudore Pirmezlaan","SLOPE":1.33,"LENGTH":148.349987872271},"bbox":[151362.26880578,168858.64033025,151503.49118718,168902.52394669]},{"type":"Feature","id":"StreetAxes.fid--1290087_1a03126d94f_7b07","geometry":{"type":"LineString","coordinates":[[151503.49118718,168902.52394669],[151509.38969947,168906.79535825],[151516.27849357,168914.68900337],[151523.50559356,168927.72051854],[151582.94093004,169037.38581131]]},"geometry_name":"GEOM","properties":{"INSPIRE_ID":"https://databrussels.be/id/streetaxe/76896","TYPE":"S","HIERARCHY":"IDR","LVL":0,"STARTSN_ID":"https://databrussels.be/id/streetnode/8051","ENDSN_ID":"https://databrussels.be/id/streetnode/8037","STRNAMEFRE":"Avenue de la Chasse","STRNAMEDUT":"Jachtlaan","SLOPE":3.34,"LENGTH":157.396814749364},"bbox":[151503.49118718,168902.52394669,151582.94093004,169037.38581131]},{"type":"Feature","id":"StreetAxes.fid--1290087_1a03126d94f_7b08","geometry":{"type":"LineString","coordinates":[[151623.11294011,169111.59816333],[151629.30688491,169106.49827079],[151630.60319528,169097.73336316],[151630.93754534,168896.73367243],[151633.442,168889.332]]},"geometry_name":"GEOM","properties":{"INSPIRE_ID":"https://databrussels.be/id/streetaxe/76897","TYPE":"S","HIERARCHY":"DR","LVL":0,"STARTSN_ID":"https://databrussels.be/id/streetnode/8052","ENDSN_ID":"https://databrussels.be/id/streetnode/3892","STRNAMEFRE":"Rue des Moissonneurs","STRNAMEDUT":"Maaiersstraat","SLOPE":3.87,"LENGTH":225.69745152446},"bbox":[151623.11294011,168889.332,151633.442,169111.59816333]},{"type":"Feature","id":"StreetAxes.fid--1290087_1a03126d94f_7b05","geometry":{"type":"LineString","coordinates":[[151496.837576,168910.85684293],[151500.81263911,168913.7943638],[151503.88814591,168916.65273956],[151506.816053,168919.87302672],[151510.13672122,168924.07782144],[151513.12178618,168928.52714985],[151515.24151185,168932.20595621],[151570.92981227,169033.60285334],[151575.27889955,169041.539357]]},"geometry_name":"GEOM","properties":{"INSPIRE_ID":"https://databrussels.be/id/streetaxe/77371","TYPE":"S","HIERARCHY":"IDR","LVL":0,"STARTSN_ID":"https://databrussels.be/id/streetnode/8046","ENDSN_ID":"https://databrussels.be/id/streetnode/8027","STRNAMEFRE":"Avenue de la Chasse","STRNAMEDUT":"Jachtlaan","SLOPE":3.17,"LENGTH":153.188179121758},"bbox":[151496.837576,168910.85684293,151575.27889955,169041.539357]},{"type":"Feature","id":"StreetAxes.fid--1290087_1a03126d94f_7b30","geometry":{"type":"LineString","coordinates":[[151537.59086298,168581.38694151],[151533.75426939,168700.87090527]]},"geometry_name":"GEOM","properties":{"INSPIRE_ID":"https://databrussels.be/id/streetaxe/78273","TYPE":"S","HIERARCHY":"DR","LVL":0,"STARTSN_ID":"https://databrussels.be/id/streetnode/5719","ENDSN_ID":"https://databrussels.be/id/streetnode/5725","STRNAMEFRE":"Avenue des Casernes","STRNAMEDUT":"Kazernenlaan","SLOPE":1.41,"LENGTH":119.545543817478},"bbox":[151533.75426939,168581.38694151,151537.59086298,168700.87090527]},{"type":"Feature","id":"StreetAxes.fid--1290087_1a03126d94f_7b2b","geometry":{"type":"LineString","coordinates":[[151530.5112418,168775.750326],[151529.8777861,168795.80215092]]},"geometry_name":"GEOM","properties":{"INSPIRE_ID":"https://databrussels.be/id/streetaxe/78274","TYPE":"S","HIERARCHY":"DR","LVL":0,"STARTSN_ID":"https://databrussels.be/id/streetnode/5721","ENDSN_ID":"https://databrussels.be/id/streetnode/5731","STRNAMEFRE":"Avenue des Casernes","STRNAMEDUT":"Kazernenlaan","SLOPE":1.4,"LENGTH":20.0618281536076},"bbox":[151529.8777861,168775.750326,151530.5112418,168795.80215092]},{"type":"Feature","id":"StreetAxes.fid--1290087_1a03126d94f_7afa","geometry":{"type":"LineString","coordinates":[[151935.36964799,168968.39915729],[151938.07342718,168965.16505866],[151939.36590264,168964.39038494],[151941.50449712,168963.1085711],[151945.3913203,168962.20273183],[151948.83772073,168962.49143556],[151952.18918035,168963.72659755]]},"geometry_name":"GEOM","properties":{"INSPIRE_ID":"https://databrussels.be/id/streetaxe/78364","TYPE":"S","HIERARCHY":"DR","LVL":0,"STARTSN_ID":"https://databrussels.be/id/streetnode/7364","ENDSN_ID":"https://databrussels.be/id/streetnode/6999","STRNAMEFRE":"Place Aimé Dandoy","STRNAMEDUT":"Aimé Dandoyplein","SLOPE":0.16,"LENGTH":19.2368737307124},"bbox":[151935.36964799,168962.20273183,151952.18918035,168968.39915729]},{"type":"Feature","id":"StreetAxes.fid--1290087_1a03126d94f_7b13","geometry":{"type":"LineString","coordinates":[[151512.99475002,168764.12655877],[151486.061,168749.592],[151473.435,168741.655]]},"geometry_name":"GEOM","properties":{"INSPIRE_ID":"https://databrussels.be/id/streetaxe/78966","TYPE":"S","HIERARCHY":"DR","LVL":0,"STARTSN_ID":"https://databrussels.be/id/streetnode/5711","ENDSN_ID":"https://databrussels.be/id/streetnode/5738","STRNAMEFRE":"Square Docteur Jean Joly","STRNAMEDUT":"Dokter Jean Jolyplein","SLOPE":2.09,"LENGTH":45.5187116663365},"bbox":[151473.435,168741.655,151512.99475002,168764.12655877]},{"type":"Feature","id":"StreetAxes.fid--1290087_1a03126d94f_7b12","geometry":{"type":"LineString","coordinates":[[151520.35517148,168764.3367675],[151521.75915752,168721.58431628]]},"geometry_name":"GEOM","properties":{"INSPIRE_ID":"https://databrussels.be/id/streetaxe/78967","TYPE":"S","HIERARCHY":"MAR","LVL":0,"STARTSN_ID":"https://databrussels.be/id/streetnode/5712","ENDSN_ID":"https://databrussels.be/id/streetnode/5733","STRNAMEFRE":"Avenue des Casernes","STRNAMEDUT":"Kazernenlaan","SLOPE":1.61,"LENGTH":42.7754983813194},"bbox":[151520.35517148,168721.58431628,151521.75915752,168764.3367675]},{"type":"Feature","id":"StreetAxes.fid--1290087_1a03126d94f_7b39","geometry":{"type":"LineString","coordinates":[[151778.06809481,168725.79053648],[151808.218,168749.492],[151820.684,168759.36]]},"geometry_name":"GEOM","properties":{"INSPIRE_ID":"https://databrussels.be/id/streetaxe/79045","TYPE":"S","HIERARCHY":"DR","LVL":0,"STARTSN_ID":"https://databrussels.be/id/streetnode/5283","ENDSN_ID":"https://databrussels.be/id/streetnode/2095","STRNAMEFRE":"Rue Général Fivé","STRNAMEDUT":"Generaal Fivéstraat","SLOPE":2.23,"LENGTH":54.2497114672019},"bbox":[151778.06809481,168725.79053648,151820.684,168759.36]},{"type":"Feature","id":"StreetAxes.fid--1290087_1a03126d94f_7b34","geometry":{"type":"LineString","coordinates":[[151684.56076009,168898.46681467],[151697.2895584,168900.18497655],[151737.026,168905.362],[151743.479,168906.194]]},"geometry_name":"GEOM","properties":{"INSPIRE_ID":"https://databrussels.be/id/streetaxe/79046","TYPE":"S","HIERARCHY":"DR","LVL":0,"STARTSN_ID":"https://databrussels.be/id/streetnode/5284","ENDSN_ID":"https://databrussels.be/id/streetnode/891","STRNAMEFRE":"Rue des Champs","STRNAMEDUT":"Veldstraat","SLOPE":1.2,"LENGTH":59.4229145603089},"bbox":[151684.56076009,168898.46681467,151743.479,168906.194]},{"type":"Feature","id":"StreetAxes.fid--1290087_1a03126d94f_7b60","geometry":{"type":"LineString","coordinates":[[151407.22858187,168503.06069612],[151525.59575715,168472.10792887]]},"geometry_name":"GEOM","properties":{"INSPIRE_ID":"https://databrussels.be/id/streetaxe/79148","TYPE":"S","HIERARCHY":"DR","LVL":0,"STARTSN_ID":"https://databrussels.be/id/streetnode/5717","ENDSN_ID":"https://databrussels.be/id/streetnode/5727","STRNAMEFRE":"Avenue Général Bernheim","STRNAMEDUT":"Generaal Bernheimlaan","SLOPE":3.61,"LENGTH":122.347300679656},"bbox":[151407.22858187,168472.10792887,151525.59575715,168503.06069612]},{"type":"Feature","id":"StreetAxes.fid--1290087_1a03126d94f_7b5b","geometry":{"type":"LineString","coordinates":[[151528.76353559,168506.46866849],[151529.366,168491.622]]},"geometry_name":"GEOM","properties":{"INSPIRE_ID":"https://databrussels.be/id/streetaxe/79293","TYPE":"S","HIERARCHY":"MAR","LVL":0,"STARTSN_ID":"https://databrussels.be/id/streetnode/5713","ENDSN_ID":"https://databrussels.be/id/streetnode/5718","STRNAMEFRE":"Avenue des Casernes","STRNAMEDUT":"Kazernenlaan","SLOPE":1.08,"LENGTH":14.8588871920464},"bbox":[151528.76353559,168491.622,151529.366,168506.46866849]},{"type":"Feature","id":"StreetAxes.fid--1290087_1a03126d94f_7b4f","geometry":{"type":"LineString","coordinates":[[151514.70718628,168590.40306891],[151526.07299128,168590.71896797]]},"geometry_name":"GEOM","properties":{"INSPIRE_ID":"https://databrussels.be/id/streetaxe/79294","TYPE":"S","HIERARCHY":"MAR","LVL":0,"STARTSN_ID":"https://databrussels.be/id/streetnode/5714","ENDSN_ID":"https://databrussels.be/id/streetnode/5709","STRNAMEFRE":"Avenue des Casernes","STRNAMEDUT":"Kazernenlaan","SLOPE":1.67,"LENGTH":11.370194165196},"bbox":[151514.70718628,168590.40306891,151526.07299128,168590.71896797]},{"type":"Feature","id":"StreetAxes.fid--1290087_1a03126d94f_7b4e","geometry":{"type":"LineString","coordinates":[[151514.70718628,168590.40306891],[151517.40298313,168510.90107837],[151528.76353559,168506.46866849]]},"geometry_name":"GEOM","properties":{"INSPIRE_ID":"https://databrussels.be/id/streetaxe/79295","TYPE":"S","HIERARCHY":"MAR","LVL":0,"STARTSN_ID":"https://databrussels.be/id/streetnode/5714","ENDSN_ID":"https://databrussels.be/id/streetnode/5713","STRNAMEFRE":"Avenue des Casernes","STRNAMEDUT":"Kazernenlaan","SLOPE":1.7,"LENGTH":91.7422884441609},"bbox":[151514.70718628,168506.46866849,151528.76353559,168590.40306891]},{"type":"Feature","id":"StreetAxes.fid--1290087_1a03126d94f_7b26","geometry":{"type":"LineString","coordinates":[[151520.0386564,168775.41948734],[151530.5112418,168775.750326]]},"geometry_name":"GEOM","properties":{"INSPIRE_ID":"https://databrussels.be/id/streetaxe/79296","TYPE":"S","HIERARCHY":"MAR","LVL":0,"STARTSN_ID":"https://databrussels.be/id/streetnode/5716","ENDSN_ID":"https://databrussels.be/id/streetnode/5721","STRNAMEFRE":"Avenue des Casernes","STRNAMEDUT":"Kazernenlaan","SLOPE":0.38,"LENGTH":10.4778098405134},"bbox":[151520.0386564,168775.41948734,151530.5112418,168775.750326]},{"type":"Feature","id":"StreetAxes.fid--1290087_1a03126d94f_7b2f","geometry":{"type":"LineString","coordinates":[[151533.75426939,168700.87090527],[151539.87809298,168700.56489666],[151542.182882,168698.96235988],[151544.88278578,168694.97638371],[151549.20863618,168691.42359605],[151590.70617473,168614.97647811],[151595.423,168609.285]]},"geometry_name":"GEOM","properties":{"INSPIRE_ID":"https://databrussels.be/id/streetaxe/79352","TYPE":"S","HIERARCHY":"DR","LVL":0,"STARTSN_ID":"https://databrussels.be/id/streetnode/5725","ENDSN_ID":"https://databrussels.be/id/streetnode/2485","STRNAMEFRE":"Rue Mont du Chêne","STRNAMEDUT":"Eikenbergstraat","SLOPE":1.74,"LENGTH":113.726652106757},"bbox":[151533.75426939,168609.285,151595.423,168700.87090527]},{"type":"Feature","id":"StreetAxes.fid--1290087_1a03126d94f_7b17","geometry":{"type":"LineString","coordinates":[[151519.46593488,168795.47323091],[151520.0386564,168775.41948734]]},"geometry_name":"GEOM","properties":{"INSPIRE_ID":"https://databrussels.be/id/streetaxe/79353","TYPE":"S","HIERARCHY":"MAR","LVL":0,"STARTSN_ID":"https://databrussels.be/id/streetnode/5726","ENDSN_ID":"https://databrussels.be/id/streetnode/5716","STRNAMEFRE":"Avenue des Casernes","STRNAMEDUT":"Kazernenlaan","SLOPE":1.6,"LENGTH":20.0619201772415},"bbox":[151519.46593488,168775.41948734,151520.0386564,168795.47323091]},{"type":"Feature","id":"StreetAxes.fid--1290087_1a03126d94f_7b25","geometry":{"type":"LineString","coordinates":[[151519.46593488,168795.47323091],[151529.8777861,168795.80215092]]},"geometry_name":"GEOM","properties":{"INSPIRE_ID":"https://databrussels.be/id/streetaxe/79354","TYPE":"S","HIERARCHY":"MAR","LVL":0,"STARTSN_ID":"https://databrussels.be/id/streetnode/5726","ENDSN_ID":"https://databrussels.be/id/streetnode/5731","STRNAMEFRE":"Avenue des Casernes","STRNAMEDUT":"Kazernenlaan","SLOPE":0,"LENGTH":10.4170453701155},"bbox":[151519.46593488,168795.47323091,151529.8777861,168795.80215092]},{"type":"Feature","id":"StreetAxes.fid--1290087_1a03126d94f_7b51","geometry":{"type":"LineString","coordinates":[[151527.40829681,168546.20154966],[151524.4565083,168539.15875632],[151524.72142969,168531.31303804],[151527.94395598,168526.669544]]},"geometry_name":"GEOM","properties":{"INSPIRE_ID":"https://databrussels.be/id/streetaxe/79355","TYPE":"S","HIERARCHY":"MAR","LVL":0,"STARTSN_ID":"https://databrussels.be/id/streetnode/5728","ENDSN_ID":"https://databrussels.be/id/streetnode/5723","STRNAMEFRE":"Avenue des Casernes","STRNAMEDUT":"Kazernenlaan","SLOPE":1.51,"LENGTH":21.1386919814547},"bbox":[151524.4565083,168526.669544,151527.94395598,168546.20154966]},{"type":"Feature","id":"StreetAxes.fid--1290087_1a03126d94f_7b53","geometry":{"type":"LineString","coordinates":[[151525.11016281,168619.73907072],[151526.07299128,168590.71896797]]},"geometry_name":"GEOM","properties":{"INSPIRE_ID":"https://databrussels.be/id/streetaxe/79356","TYPE":"S","HIERARCHY":"MAR","LVL":0,"STARTSN_ID":"https://databrussels.be/id/streetnode/5729","ENDSN_ID":"https://databrussels.be/id/streetnode/5709","STRNAMEFRE":"Avenue des Casernes","STRNAMEDUT":"Kazernenlaan","SLOPE":1.45,"LENGTH":29.0360707088495},"bbox":[151525.11016281,168590.71896797,151526.07299128,168619.73907072]},{"type":"Feature","id":"StreetAxes.fid--1290087_1a03126d94f_7b5d","geometry":{"type":"LineString","coordinates":[[151538.71478772,168546.38428083],[151537.59086298,168581.38694151]]},"geometry_name":"GEOM","properties":{"INSPIRE_ID":"https://databrussels.be/id/streetaxe/79357","TYPE":"S","HIERARCHY":"DR","LVL":0,"STARTSN_ID":"https://databrussels.be/id/streetnode/5732","ENDSN_ID":"https://databrussels.be/id/streetnode/5719","STRNAMEFRE":"Avenue des Casernes","STRNAMEDUT":"Kazernenlaan","SLOPE":1.43,"LENGTH":35.0207004674508},"bbox":[151537.59086298,168546.38428083,151538.71478772,168581.38694151]},{"type":"Feature","id":"StreetAxes.fid--1290087_1a03126d94f_7b5c","geometry":{"type":"LineString","coordinates":[[151536.11128581,168472.40001045],[151541.13620626,168477.36150052],[151539.00542348,168536.0918376],[151538.71478772,168546.38428083]]},"geometry_name":"GEOM","properties":{"INSPIRE_ID":"https://databrussels.be/id/streetaxe/79459","TYPE":"S","HIERARCHY":"DR","LVL":0,"STARTSN_ID":"https://databrussels.be/id/streetnode/5734","ENDSN_ID":"https://databrussels.be/id/streetnode/5732","STRNAMEFRE":"Avenue des Casernes","STRNAMEDUT":"Kazernenlaan","SLOPE":1.2,"LENGTH":76.1271245127338},"bbox":[151536.11128581,168472.40001045,151541.13620626,168546.38428083]},{"type":"Feature","id":"StreetAxes.fid--1290087_1a03126d94f_7b4c","geometry":{"type":"LineString","coordinates":[[151513.72317678,168619.42258296],[151514.70718628,168590.40306891]]},"geometry_name":"GEOM","properties":{"INSPIRE_ID":"https://databrussels.be/id/streetaxe/79460","TYPE":"S","HIERARCHY":"DR","LVL":0,"STARTSN_ID":"https://databrussels.be/id/streetnode/5735","ENDSN_ID":"https://databrussels.be/id/streetnode/5714","STRNAMEFRE":"Avenue des Casernes","STRNAMEDUT":"Kazernenlaan","SLOPE":1.38,"LENGTH":29.0361924196841},"bbox":[151513.72317678,168590.40306891,151514.70718628,168619.42258296]},{"type":"Feature","id":"StreetAxes.fid--1290087_1a03126d94f_7b4d","geometry":{"type":"LineString","coordinates":[[151513.72317678,168619.42258296],[151525.11016281,168619.73907072]]},"geometry_name":"GEOM","properties":{"INSPIRE_ID":"https://databrussels.be/id/streetaxe/79461","TYPE":"S","HIERARCHY":"MAR","LVL":0,"STARTSN_ID":"https://databrussels.be/id/streetnode/5735","ENDSN_ID":"https://databrussels.be/id/streetnode/5729","STRNAMEFRE":"Avenue des Casernes","STRNAMEDUT":"Kazernenlaan","SLOPE":1.49,"LENGTH":11.3913833897663},"bbox":[151513.72317678,168619.42258296,151525.11016281,168619.73907072]},{"type":"Feature","id":"StreetAxes.fid--1290087_1a03126d94f_7b1b","geometry":{"type":"LineString","coordinates":[[151512.71186177,168861.83922643],[151512.96537768,168855.03415063],[151515.52913359,168836.82717041],[151518.74911597,168820.5725191]]},"geometry_name":"GEOM","properties":{"INSPIRE_ID":"https://databrussels.be/id/streetaxe/79462","TYPE":"S","HIERARCHY":"MAR","LVL":0,"STARTSN_ID":"https://databrussels.be/id/streetnode/5736","ENDSN_ID":"https://databrussels.be/id/streetnode/5590","STRNAMEFRE":"Avenue des Casernes","STRNAMEDUT":"Kazernenlaan","SLOPE":1.7,"LENGTH":41.7669092980337},"bbox":[151512.71186177,168820.5725191,151518.74911597,168861.83922643]},{"type":"Feature","id":"StreetAxes.fid--1290087_1a03126d94f_7b56","geometry":{"type":"LineString","coordinates":[[151526.39293517,168581.07570839],[151537.59086298,168581.38694151]]},"geometry_name":"GEOM","properties":{"INSPIRE_ID":"https://databrussels.be/id/streetaxe/79463","TYPE":"S","HIERARCHY":"MAR","LVL":0,"STARTSN_ID":"https://databrussels.be/id/streetnode/5737","ENDSN_ID":"https://databrussels.be/id/streetnode/5719","STRNAMEFRE":"Avenue des Casernes","STRNAMEDUT":"Kazernenlaan","SLOPE":0,"LENGTH":11.202252150473},"bbox":[151526.39293517,168581.07570839,151537.59086298,168581.38694151]},{"type":"Feature","id":"StreetAxes.fid--1290087_1a03126d94f_7b59","geometry":{"type":"LineString","coordinates":[[151527.94395598,168526.669544],[151531.21240747,168531.54256562],[151530.94679182,168539.40884484],[151527.40829681,168546.20154966]]},"geometry_name":"GEOM","properties":{"INSPIRE_ID":"https://databrussels.be/id/streetaxe/79808","TYPE":"S","HIERARCHY":"MAR","LVL":0,"STARTSN_ID":"https://databrussels.be/id/streetnode/5723","ENDSN_ID":"https://databrussels.be/id/streetnode/5728","STRNAMEFRE":"Avenue des Casernes","STRNAMEDUT":"Kazernenlaan","SLOPE":1.5,"LENGTH":21.3974934336848},"bbox":[151527.40829681,168526.669544,151531.21240747,168546.20154966]},{"type":"Feature","id":"StreetAxes.fid--1290087_1a03126d94f_7b5a","geometry":{"type":"LineString","coordinates":[[151527.94395598,168526.669544],[151528.76353559,168506.46866849]]},"geometry_name":"GEOM","properties":{"INSPIRE_ID":"https://databrussels.be/id/streetaxe/79809","TYPE":"S","HIERARCHY":"MAR","LVL":0,"STARTSN_ID":"https://databrussels.be/id/streetnode/5723","ENDSN_ID":"https://databrussels.be/id/streetnode/5713","STRNAMEFRE":"Avenue des Casernes","STRNAMEDUT":"Kazernenlaan","SLOPE":1.43,"LENGTH":20.2174944589698},"bbox":[151527.94395598,168506.46866849,151528.76353559,168526.669544]},{"type":"Feature","id":"StreetAxes.fid--1290087_1a03126d94f_7b2d","geometry":{"type":"LineString","coordinates":[[151619.51,168779.448],[151612.948,168773.774],[151542.32,168728.962],[151532.10511929,168725.29667553]]},"geometry_name":"GEOM","properties":{"INSPIRE_ID":"https://databrussels.be/id/streetaxe/80068","TYPE":"S","HIERARCHY":"DR","LVL":0,"STARTSN_ID":"https://databrussels.be/id/streetnode/24","ENDSN_ID":"https://databrussels.be/id/streetnode/5592","STRNAMEFRE":"Rue de l'Egalité","STRNAMEDUT":"Gelijkheidstraat","SLOPE":0.03,"LENGTH":103.17215207026},"bbox":[151532.10511929,168725.29667553,151619.51,168779.448]},{"type":"Feature","id":"StreetAxes.fid--1290087_1a03126d94f_7b46","geometry":{"type":"LineString","coordinates":[[151851.64,168559.288],[151874.721,168537.534],[151878.608,168533.836],[151977.048,168440.105],[151982.46959939,168434.74184974]]},"geometry_name":"GEOM","properties":{"INSPIRE_ID":"https://databrussels.be/id/streetaxe/80111","TYPE":"S","HIERARCHY":"IDR","LVL":0,"STARTSN_ID":"https://databrussels.be/id/streetnode/3642","ENDSN_ID":"https://databrussels.be/id/streetnode/6834","STRNAMEFRE":"Chaussée de Wavre","STRNAMEDUT":"Steenweg op Waver","SLOPE":0.64,"LENGTH":180.634374668483},"bbox":[151851.64,168434.74184974,151982.46959939,168559.288]},{"type":"Feature","id":"StreetAxes.fid--1290087_1a03126d94f_7b23","geometry":{"type":"LineString","coordinates":[[151970.982,168656.346],[151975.386,168659.732],[152022.995,168697.902],[152028.463,168702.869]]},"geometry_name":"GEOM","properties":{"INSPIRE_ID":"https://databrussels.be/id/streetaxe/80126","TYPE":"S","HIERARCHY":"DR","LVL":0,"STARTSN_ID":"https://databrussels.be/id/streetnode/12569","ENDSN_ID":"https://databrussels.be/id/streetnode/12573","STRNAMEFRE":"Rue Commandant Ponthier","STRNAMEDUT":"Kommandant Ponthierstraat","SLOPE":1.43,"LENGTH":73.9633828692254},"bbox":[151970.982,168656.346,152028.463,168702.869]},{"type":"Feature","id":"StreetAxes.fid--1290087_1a03126d94f_7b24","geometry":{"type":"LineString","coordinates":[[151982.4847028,168760.68766331],[151985.644,168756.689],[152024.245,168708.812],[152028.463,168702.869]]},"geometry_name":"GEOM","properties":{"INSPIRE_ID":"https://databrussels.be/id/streetaxe/80134","TYPE":"S","HIERARCHY":"DR","LVL":0,"STARTSN_ID":"https://databrussels.be/id/streetnode/6992","ENDSN_ID":"https://databrussels.be/id/streetnode/12573","STRNAMEFRE":"Rue Baron Dhanis","STRNAMEDUT":"Baron Dhanisstraat","SLOPE":3.36,"LENGTH":73.8837904882143},"bbox":[151982.4847028,168702.869,152028.463,168760.68766331]},{"type":"Feature","id":"StreetAxes.fid--1290087_1a03126d94f_7afd","geometry":{"type":"LineString","coordinates":[[151936.54263508,168983.17729789],[151934.68241958,168980.11361468],[151933.55605049,168975.92737446],[151933.74833327,168973.62591127],[151933.89464729,168971.87465563],[151935.36964799,168968.39915729]]},"geometry_name":"GEOM","properties":{"INSPIRE_ID":"https://databrussels.be/id/streetaxe/80201","TYPE":"S","HIERARCHY":"DR","LVL":0,"STARTSN_ID":"https://databrussels.be/id/streetnode/6555","ENDSN_ID":"https://databrussels.be/id/streetnode/7364","STRNAMEFRE":"Place Aimé Dandoy","STRNAMEDUT":"Aimé Dandoyplein","SLOPE":0.19,"LENGTH":15.7617155627602},"bbox":[151933.55605049,168968.39915729,151936.54263508,168983.17729789]},{"type":"Feature","id":"StreetAxes.fid--1290087_1a03126d94f_7b20","geometry":{"type":"LineString","coordinates":[[151970.96324683,168751.49129791],[151950.28376478,168777.14004732]]},"geometry_name":"GEOM","properties":{"INSPIRE_ID":"https://databrussels.be/id/streetaxe/80203","TYPE":"S","HIERARCHY":"DR","LVL":0,"STARTSN_ID":"https://databrussels.be/id/streetnode/6558","ENDSN_ID":"https://databrussels.be/id/streetnode/6553","STRNAMEFRE":"Rue Baron Dhanis","STRNAMEDUT":"Baron Dhanisstraat","SLOPE":3.28,"LENGTH":32.9469167623272},"bbox":[151950.28376478,168751.49129791,151970.96324683,168777.14004732]},{"type":"Feature","id":"StreetAxes.fid--1290087_1a03126d94f_7afc","geometry":{"type":"LineString","coordinates":[[151956.16182675,168966.81598467],[151958.01923686,168969.87534794],[151959.07363269,168973.96465932],[151958.87726311,168976.30830675],[151958.73574796,168977.99727302],[151957.2536762,168981.48884724]]},"geometry_name":"GEOM","properties":{"INSPIRE_ID":"https://databrussels.be/id/streetaxe/80539","TYPE":"S","HIERARCHY":"DR","LVL":0,"STARTSN_ID":"https://databrussels.be/id/streetnode/6560","ENDSN_ID":"https://databrussels.be/id/streetnode/6994","STRNAMEFRE":"Place Aimé Dandoy","STRNAMEDUT":"Aimé Dandoyplein","SLOPE":0.19,"LENGTH":15.6419655509087},"bbox":[151956.16182675,168966.81598467,151959.07363269,168981.48884724]},{"type":"Feature","id":"StreetAxes.fid--1290087_1a03126d94f_7af4","geometry":{"type":"LineString","coordinates":[[151956.16182675,168966.81598467],[151961.69491864,168962.26817942],[152000.08791864,168913.06617942],[152006.18491864,168905.35617942]]},"geometry_name":"GEOM","properties":{"INSPIRE_ID":"https://databrussels.be/id/streetaxe/80540","TYPE":"S","HIERARCHY":"DR","LVL":0,"STARTSN_ID":"https://databrussels.be/id/streetnode/6560","ENDSN_ID":"https://databrussels.be/id/streetnode/7474","STRNAMEFRE":"Avenue Le Marinel","STRNAMEDUT":"Le Marinellaan","SLOPE":2.17,"LENGTH":79.4004650567594},"bbox":[151956.16182675,168905.35617942,152006.18491864,168966.81598467]},{"type":"Feature","id":"StreetAxes.fid--1290087_1a03126d94f_7b5e","geometry":{"type":"LineString","coordinates":[[151608.474,168589.412],[151550.17,168548.496],[151547.34775173,168546.52380348],[151538.71478772,168546.38428083]]},"geometry_name":"GEOM","properties":{"INSPIRE_ID":"https://databrussels.be/id/streetaxe/81103","TYPE":"S","HIERARCHY":"DR","LVL":0,"STARTSN_ID":"https://databrussels.be/id/streetnode/1405","ENDSN_ID":"https://databrussels.be/id/streetnode/5732","STRNAMEFRE":"Rue Docteur Dryepondt","STRNAMEDUT":"Dokter Dryepondtstraat","SLOPE":0.13,"LENGTH":83.3054821619506},"bbox":[151538.71478772,168546.38428083,151608.474,168589.412]},{"type":"Feature","id":"StreetAxes.fid--1290087_1a03126d94f_7b0a","geometry":{"type":"LineString","coordinates":[[151503.49118718,168902.52394669],[151501.76287799,168895.03772171],[151507.83617906,168886.33760134],[151512.4050019,168870.07620299],[151512.71186177,168861.83922643]]},"geometry_name":"GEOM","properties":{"INSPIRE_ID":"https://databrussels.be/id/streetaxe/81271","TYPE":"S","HIERARCHY":"MAR","LVL":0,"STARTSN_ID":"https://databrussels.be/id/streetnode/8051","ENDSN_ID":"https://databrussels.be/id/streetnode/5736","STRNAMEFRE":null,"STRNAMEDUT":null,"SLOPE":2.56,"LENGTH":43.4271032337303},"bbox":[151501.76287799,168861.83922643,151512.71186177,168902.52394669]},{"type":"Feature","id":"StreetAxes.fid--1290087_1a03126d94f_7b41","geometry":{"type":"LineString","coordinates":[[151902.302,168764.696],[151907.266,168767.408],[151926.109,168775.133],[151931.022,168776.708],[151947.17437037,168777.47343487],[151950.28376478,168777.14004732]]},"geometry_name":"GEOM","properties":{"INSPIRE_ID":"https://databrussels.be/id/streetaxe/82173","TYPE":"S","HIERARCHY":"DR","LVL":0,"STARTSN_ID":"https://databrussels.be/id/streetnode/1182","ENDSN_ID":"https://databrussels.be/id/streetnode/6553","STRNAMEFRE":"Rue Lieutenant Lippens","STRNAMEDUT":"Luitenant Lippensstraat","SLOPE":1.03,"LENGTH":50.478542686294},"bbox":[151902.302,168764.696,151950.28376478,168777.47343487]},{"type":"Feature","id":"StreetAxes.fid--1290087_1a03126d94f_7b43","geometry":{"type":"LineString","coordinates":[[151922.111,168838.96],[151926.33,168831.205],[151958.988,168790.428],[151962.07747294,168786.51748016]]},"geometry_name":"GEOM","properties":{"INSPIRE_ID":"https://databrussels.be/id/streetaxe/82174","TYPE":"S","HIERARCHY":"DR","LVL":0,"STARTSN_ID":"https://databrussels.be/id/streetnode/4117","ENDSN_ID":"https://databrussels.be/id/streetnode/6937","STRNAMEFRE":"Rue Baron Dhanis","STRNAMEDUT":"Baron Dhanisstraat","SLOPE":2.98,"LENGTH":66.0548228204486},"bbox":[151922.111,168786.51748016,151962.07747294,168838.96]},{"type":"Feature","id":"StreetAxes.fid--1290087_1a03126d94f_7b49","geometry":{"type":"LineString","coordinates":[[151886.90548647,168589.17624303],[151897.46,168597.78],[151966.578,168652.96],[151970.982,168656.346]]},"geometry_name":"GEOM","properties":{"INSPIRE_ID":"https://databrussels.be/id/streetaxe/82388","TYPE":"S","HIERARCHY":"DR","LVL":0,"STARTSN_ID":"https://databrussels.be/id/streetnode/10802","ENDSN_ID":"https://databrussels.be/id/streetnode/12569","STRNAMEFRE":"Rue Commandant Ponthier","STRNAMEDUT":"Kommandant Ponthierstraat","SLOPE":0.06,"LENGTH":107.614994075989},"bbox":[151886.90548647,168589.17624303,151970.982,168656.346]},{"type":"Feature","id":"StreetAxes.fid--1290087_1a03126d94f_7b2a","geometry":{"type":"LineString","coordinates":[[151525.89291679,168862.6437083],[151540.41726943,168867.1976387],[151610.692,168883.769],[151626.702,168887.644],[151633.442,168889.332]]},"geometry_name":"GEOM","properties":{"INSPIRE_ID":"https://databrussels.be/id/streetaxe/82819","TYPE":"S","HIERARCHY":"DR","LVL":0,"STARTSN_ID":"https://databrussels.be/id/streetnode/5595","ENDSN_ID":"https://databrussels.be/id/streetnode/3892","STRNAMEFRE":"Rue des Champs","STRNAMEDUT":"Veldstraat","SLOPE":0.17,"LENGTH":110.844098094831},"bbox":[151525.89291679,168862.6437083,151633.442,168889.332]},{"type":"Feature","id":"StreetAxes.fid--1290087_1a03126d94f_7b54","geometry":{"type":"LineString","coordinates":[[151526.07299128,168590.71896797],[151526.39293517,168581.07570839]]},"geometry_name":"GEOM","properties":{"INSPIRE_ID":"https://databrussels.be/id/streetaxe/83589","TYPE":"S","HIERARCHY":"MAR","LVL":0,"STARTSN_ID":"https://databrussels.be/id/streetnode/5709","ENDSN_ID":"https://databrussels.be/id/streetnode/5737","STRNAMEFRE":"Avenue des Casernes","STRNAMEDUT":"Kazernenlaan","SLOPE":1.35,"LENGTH":9.64856566368288},"bbox":[151526.07299128,168581.07570839,151526.39293517,168590.71896797]},{"type":"Feature","id":"StreetAxes.fid--1290087_1a03126d94f_7b29","geometry":{"type":"LineString","coordinates":[[151525.89291679,168862.6437083],[151540.955,168853.642],[151614.729,168784.011],[151619.51,168779.448]]},"geometry_name":"GEOM","properties":{"INSPIRE_ID":"https://databrussels.be/id/streetaxe/84084","TYPE":"S","HIERARCHY":"IDR","LVL":0,"STARTSN_ID":"https://databrussels.be/id/streetnode/5595","ENDSN_ID":"https://databrussels.be/id/streetnode/24","STRNAMEFRE":"Chaussée de Wavre","STRNAMEDUT":"Steenweg op Waver","SLOPE":1.64,"LENGTH":125.600957372417},"bbox":[151525.89291679,168779.448,151619.51,168862.6437083]},{"type":"Feature","id":"StreetAxes.fid--1290087_1a03126d94f_7b0c","geometry":{"type":"LineString","coordinates":[[151525.89291679,168862.6437083],[151523.29959319,168871.78401872],[151512.1647757,168901.54664802],[151503.49118718,168902.52394669]]},"geometry_name":"GEOM","properties":{"INSPIRE_ID":"https://databrussels.be/id/streetaxe/84085","TYPE":"S","HIERARCHY":"MAR","LVL":0,"STARTSN_ID":"https://databrussels.be/id/streetnode/5595","ENDSN_ID":"https://databrussels.be/id/streetnode/8051","STRNAMEFRE":null,"STRNAMEDUT":null,"SLOPE":2.4,"LENGTH":50.0068808943057},"bbox":[151503.49118718,168862.6437083,151525.89291679,168902.52394669]},{"type":"Feature","id":"StreetAxes.fid--1290087_1a03126d94f_7b1a","geometry":{"type":"LineString","coordinates":[[151525.89291679,168862.6437083],[151524.97589193,168851.1543428],[151522.35965161,168840.04595721],[151518.74911597,168820.5725191]]},"geometry_name":"GEOM","properties":{"INSPIRE_ID":"https://databrussels.be/id/streetaxe/84086","TYPE":"S","HIERARCHY":"MAR","LVL":0,"STARTSN_ID":"https://databrussels.be/id/streetnode/5595","ENDSN_ID":"https://databrussels.be/id/streetnode/5590","STRNAMEFRE":"Avenue des Casernes","STRNAMEDUT":"Kazernenlaan","SLOPE":1.45,"LENGTH":42.7435405560992},"bbox":[151518.74911597,168820.5725191,151525.89291679,168862.6437083]},{"type":"Feature","id":"StreetAxes.fid--1290087_1a03126d94f_7b1c","geometry":{"type":"LineString","coordinates":[[151944.82,168856.883],[151952.654,168863.002],[151993.026,168894.898],[152000.01975987,168900.45622808]]},"geometry_name":"GEOM","properties":{"INSPIRE_ID":"https://databrussels.be/id/streetaxe/85831","TYPE":"S","HIERARCHY":"DR","LVL":0,"STARTSN_ID":"https://databrussels.be/id/streetnode/1792","ENDSN_ID":"https://databrussels.be/id/streetnode/7304","STRNAMEFRE":"Rue Général Fivé","STRNAMEDUT":"Generaal Fivéstraat","SLOPE":1.51,"LENGTH":70.3254260617774},"bbox":[151944.82,168856.883,152000.01975987,168900.45622808]},{"type":"Feature","id":"StreetAxes.fid--1290087_1a03126d94f_7b01","geometry":{"type":"LineString","coordinates":[[151906.83951357,169018.80966829],[151911.71352023,169012.72559179],[151931.08952023,168988.01959179],[151936.54263508,168983.17729789]]},"geometry_name":"GEOM","properties":{"INSPIRE_ID":"https://databrussels.be/id/streetaxe/86056","TYPE":"S","HIERARCHY":"DR","LVL":0,"STARTSN_ID":"https://databrussels.be/id/streetnode/7365","ENDSN_ID":"https://databrussels.be/id/streetnode/6555","STRNAMEFRE":"Avenue Alexandre Galopin","STRNAMEDUT":"Alexandre Galopinlaan","SLOPE":0.28,"LENGTH":46.4860938445173},"bbox":[151906.83951357,168983.17729789,151936.54263508,169018.80966829]},{"type":"Feature","id":"StreetAxes.fid--1290087_1a03126d94f_7b18","geometry":{"type":"LineString","coordinates":[[151518.74911597,168820.5725191],[151519.46593488,168795.47323091]]},"geometry_name":"GEOM","properties":{"INSPIRE_ID":"https://databrussels.be/id/streetaxe/86165","TYPE":"S","HIERARCHY":"MAR","LVL":0,"STARTSN_ID":"https://databrussels.be/id/streetnode/5590","ENDSN_ID":"https://databrussels.be/id/streetnode/5726","STRNAMEFRE":"Avenue des Casernes","STRNAMEDUT":"Kazernenlaan","SLOPE":1.39,"LENGTH":25.1095220393845},"bbox":[151518.74911597,168795.47323091,151519.46593488,168820.5725191]},{"type":"Feature","id":"StreetAxes.fid--1290087_1a03126d94f_7b2c","geometry":{"type":"LineString","coordinates":[[151532.10511929,168725.29667553],[151530.5112418,168775.750326]]},"geometry_name":"GEOM","properties":{"INSPIRE_ID":"https://databrussels.be/id/streetaxe/86166","TYPE":"S","HIERARCHY":"DR","LVL":0,"STARTSN_ID":"https://databrussels.be/id/streetnode/5592","ENDSN_ID":"https://databrussels.be/id/streetnode/5721","STRNAMEFRE":"Avenue des Casernes","STRNAMEDUT":"Kazernenlaan","SLOPE":1.66,"LENGTH":50.4788202219529},"bbox":[151530.5112418,168725.29667553,151532.10511929,168775.750326]},{"type":"Feature","id":"StreetAxes.fid--1290087_1a03126d94f_7b1e","geometry":{"type":"LineString","coordinates":[[151945.235,168701.231],[151950.494,168708.872],[151963.632,168727.963],[151965.46,168730.886],[151968.174,168738.349],[151968.888,168741.594],[151969.862,168748.316],[151970.96324683,168751.49129791]]},"geometry_name":"GEOM","properties":{"INSPIRE_ID":"https://databrussels.be/id/streetaxe/86396","TYPE":"S","HIERARCHY":"DR","LVL":0,"STARTSN_ID":"https://databrussels.be/id/streetnode/3226","ENDSN_ID":"https://databrussels.be/id/streetnode/6558","STRNAMEFRE":"Rue Lieutenant Jérôme Becker","STRNAMEDUT":"Luitenant Jérôme Beckerstraat","SLOPE":3.45,"LENGTH":57.3150928300503},"bbox":[151945.235,168701.231,151970.96324683,168751.49129791]},{"type":"Feature","id":"StreetAxes.fid--1290087_1a03126d94f_7b37","geometry":{"type":"LineString","coordinates":[[151723.336,168680.957],[151730.88,168688.695],[151778.06809481,168725.79053648]]},"geometry_name":"GEOM","properties":{"INSPIRE_ID":"https://databrussels.be/id/streetaxe/86807","TYPE":"S","HIERARCHY":"DR","LVL":0,"STARTSN_ID":"https://databrussels.be/id/streetnode/2592","ENDSN_ID":"https://databrussels.be/id/streetnode/5283","STRNAMEFRE":"Rue Général Fivé","STRNAMEDUT":"Generaal Fivéstraat","SLOPE":2.02,"LENGTH":70.8301646510645},"bbox":[151723.336,168680.957,151778.06809481,168725.79053648]},{"type":"Feature","id":"StreetAxes.fid--1290087_1a03126d94f_7b00","geometry":{"type":"LineString","coordinates":[[151940.36891967,168986.12145119],[151936.54263508,168983.17729789]]},"geometry_name":"GEOM","properties":{"INSPIRE_ID":"https://databrussels.be/id/streetaxe/86999","TYPE":"I","HIERARCHY":"DR","LVL":0,"STARTSN_ID":"https://databrussels.be/id/streetnode/6938","ENDSN_ID":"https://databrussels.be/id/streetnode/6555","STRNAMEFRE":"Place Aimé Dandoy","STRNAMEDUT":"Aimé Dandoyplein","SLOPE":0,"LENGTH":4.82788694278681},"bbox":[151936.54263508,168983.17729789,151940.36891967,168986.12145119]},{"type":"Feature","id":"StreetAxes.fid--1290087_1a03126d94f_7b4a","geometry":{"type":"LineString","coordinates":[[152049.89045878,168554.33998122],[152048.17476411,168551.07936217],[152039.846,168544.991],[152033.221,168541.044],[152022.575,168536.177],[152012.471,168532.789],[152002.943,168530.592],[151993.126,168529.681],[151983.582,168529.504],[151977.104,168530.037],[151964.936,168532.156],[151958.096,168533.939],[151947.187,168538.242],[151937.731,168543.298],[151928.296,168549.738],[151921.167,168555.889],[151911.226,168566.784],[151904.52093969,168567.64038511],[151890.77775575,168584.42600209],[151886.90548647,168589.17624303]]},"geometry_name":"GEOM","properties":{"INSPIRE_ID":"https://databrussels.be/id/streetaxe/87470","TYPE":"S","HIERARCHY":null,"LVL":0,"STARTSN_ID":"https://databrussels.be/id/streetnode/12576","ENDSN_ID":"https://databrussels.be/id/streetnode/10802","STRNAMEFRE":"Promenade Hippolyte Rolin","STRNAMEDUT":"Hippolyte Rolinpromenade","SLOPE":0.52,"LENGTH":191.797815436722},"bbox":[151886.90548647,168529.504,152049.89045878,168589.17624303]},{"type":"Feature","id":"StreetAxes.fid--1290087_1a03126d94f_7afb","geometry":{"type":"LineString","coordinates":[[151952.18918035,168963.72659755],[151956.16182675,168966.81598467]]},"geometry_name":"GEOM","properties":{"INSPIRE_ID":"https://databrussels.be/id/streetaxe/88201","TYPE":"I","HIERARCHY":"DR","LVL":0,"STARTSN_ID":"https://databrussels.be/id/streetnode/6999","ENDSN_ID":"https://databrussels.be/id/streetnode/6560","STRNAMEFRE":"Place Aimé Dandoy","STRNAMEDUT":"Aimé Dandoyplein","SLOPE":0.4,"LENGTH":5.03251748249392},"bbox":[151952.18918035,168963.72659755,151956.16182675,168966.81598467]},{"type":"Feature","id":"StreetAxes.fid--1290087_1a03126d94f_7b19","geometry":{"type":"LineString","coordinates":[[151529.8777861,168795.80215092],[151529.24989266,168815.67790432],[151518.74911597,168820.5725191]]},"geometry_name":"GEOM","properties":{"INSPIRE_ID":"https://databrussels.be/id/streetaxe/88925","TYPE":"S","HIERARCHY":"MAR","LVL":0,"STARTSN_ID":"https://databrussels.be/id/streetnode/5731","ENDSN_ID":"https://databrussels.be/id/streetnode/5590","STRNAMEFRE":"Avenue des Casernes","STRNAMEDUT":"Kazernenlaan","SLOPE":1.11,"LENGTH":31.4711582150076},"bbox":[151518.74911597,168795.80215092,151529.8777861,168820.5725191]},{"type":"Feature","id":"StreetAxes.fid--1290087_1a03126d94f_7b0b","geometry":{"type":"LineString","coordinates":[[151525.89291679,168862.6437083],[151512.71186177,168861.83922643]]},"geometry_name":"GEOM","properties":{"INSPIRE_ID":"https://databrussels.be/id/streetaxe/90134","TYPE":"I","HIERARCHY":"MAR","LVL":0,"STARTSN_ID":"https://databrussels.be/id/streetnode/5595","ENDSN_ID":"https://databrussels.be/id/streetnode/5736","STRNAMEFRE":null,"STRNAMEDUT":null,"SLOPE":0.68,"LENGTH":13.205582246357},"bbox":[151512.71186177,168861.83922643,151525.89291679,168862.6437083]},{"type":"Feature","id":"StreetAxes.fid--1290087_1a03126d94f_7b57","geometry":{"type":"LineString","coordinates":[[151527.40829681,168546.20154966],[151530.39934348,168554.80721685],[151530.12964432,168562.7944304],[151526.82018055,168568.19833164]]},"geometry_name":"GEOM","properties":{"INSPIRE_ID":"https://databrussels.be/id/streetaxe/90135","TYPE":"I","HIERARCHY":"MAR","LVL":0,"STARTSN_ID":"https://databrussels.be/id/streetnode/5728","ENDSN_ID":"https://databrussels.be/id/streetnode/5591","STRNAMEFRE":"Avenue des Casernes","STRNAMEDUT":"Kazernenlaan","SLOPE":1.49,"LENGTH":23.4391850407697},"bbox":[151526.82018055,168546.20154966,151530.39934348,168568.19833164]},{"type":"Feature","id":"StreetAxes.fid--1290087_1a03126d94f_7b27","geometry":{"type":"LineString","coordinates":[[151532.10511929,168725.29667553],[151521.75915752,168721.58431628]]},"geometry_name":"GEOM","properties":{"INSPIRE_ID":"https://databrussels.be/id/streetaxe/90136","TYPE":"I","HIERARCHY":"MAR","LVL":0,"STARTSN_ID":"https://databrussels.be/id/streetnode/5592","ENDSN_ID":"https://databrussels.be/id/streetnode/5733","STRNAMEFRE":"Avenue des Casernes","STRNAMEDUT":"Kazernenlaan","SLOPE":1,"LENGTH":10.991839521017},"bbox":[151521.75915752,168721.58431628,151532.10511929,168725.29667553]},{"type":"Feature","id":"StreetAxes.fid--1290087_1a03126d94f_7b14","geometry":{"type":"LineString","coordinates":[[151520.35517148,168764.3367675],[151512.99475002,168764.12655877]]},"geometry_name":"GEOM","properties":{"INSPIRE_ID":"https://databrussels.be/id/streetaxe/90138","TYPE":"I","HIERARCHY":"MAR","LVL":0,"STARTSN_ID":"https://databrussels.be/id/streetnode/5712","ENDSN_ID":"https://databrussels.be/id/streetnode/5711","STRNAMEFRE":"Avenue des Casernes","STRNAMEDUT":"Kazernenlaan","SLOPE":2.17,"LENGTH":7.36342256055349},"bbox":[151512.99475002,168764.12655877,151520.35517148,168764.3367675]},{"type":"Feature","id":"StreetAxes.fid--1290087_1a03126d94f_7b28","geometry":{"type":"LineString","coordinates":[[151533.75426939,168700.87090527],[151522.39290065,168701.43863498]]},"geometry_name":"GEOM","properties":{"INSPIRE_ID":"https://databrussels.be/id/streetaxe/90139","TYPE":"I","HIERARCHY":"MAR","LVL":0,"STARTSN_ID":"https://databrussels.be/id/streetnode/5725","ENDSN_ID":"https://databrussels.be/id/streetnode/5720","STRNAMEFRE":"Avenue des Casernes","STRNAMEDUT":"Kazernenlaan","SLOPE":0.09,"LENGTH":11.3755446800338},"bbox":[151522.39290065,168700.87090527,151533.75426939,168701.43863498]},{"type":"Feature","id":"StreetAxes.fid--1290087_1a03126d94f_7b50","geometry":{"type":"LineString","coordinates":[[151527.40829681,168546.20154966],[151524.05653521,168554.68697029],[151523.78512871,168562.72474691],[151526.82018055,168568.19833164]]},"geometry_name":"GEOM","properties":{"INSPIRE_ID":"https://databrussels.be/id/streetaxe/90140","TYPE":"I","HIERARCHY":"MAR","LVL":0,"STARTSN_ID":"https://databrussels.be/id/streetnode/5728","ENDSN_ID":"https://databrussels.be/id/streetnode/5591","STRNAMEFRE":"Avenue des Casernes","STRNAMEDUT":"Kazernenlaan","SLOPE":1.49,"LENGTH":23.4244982215935},"bbox":[151523.78512871,168546.20154966,151527.40829681,168568.19833164]},{"type":"Feature","id":"StreetAxes.fid--1290087_1a03126d94f_7b06","geometry":{"type":"LineString","coordinates":[[151499.76990403,168907.18443339],[151502.48775283,168909.00099488],[151509.04061935,168914.83266822],[151515.24243419,168922.65143447],[151519.497,168929.896],[151574.69,169031.562],[151579.004,169039.52]]},"geometry_name":"GEOM","properties":{"INSPIRE_ID":"https://databrussels.be/id/streetaxe/91486","TYPE":"C","HIERARCHY":"IDR","LVL":0,"STARTSN_ID":"https://databrussels.be/id/streetnode/7552","ENDSN_ID":"https://databrussels.be/id/streetnode/8032","STRNAMEFRE":"Avenue de la Chasse","STRNAMEDUT":"Jachtlaan","SLOPE":3.23,"LENGTH":155.156051488744},"bbox":[151499.76990403,168907.18443339,151579.004,169039.52]},{"type":"Feature","id":"StreetAxes.fid--1290087_1a03126d94f_7b0d","geometry":{"type":"LineString","coordinates":[[151499.76990403,168907.18443339],[151503.49118718,168902.52394669]]},"geometry_name":"GEOM","properties":{"INSPIRE_ID":"https://databrussels.be/id/streetaxe/92047","TYPE":"I","HIERARCHY":"MAR","LVL":0,"STARTSN_ID":"https://databrussels.be/id/streetnode/7552","ENDSN_ID":"https://databrussels.be/id/streetnode/8051","STRNAMEFRE":null,"STRNAMEDUT":null,"SLOPE":3.36,"LENGTH":5.9638984388841},"bbox":[151499.76990403,168902.52394669,151503.49118718,168907.18443339]},{"type":"Feature","id":"StreetAxes.fid--1290087_1a03126d94f_7b2e","geometry":{"type":"LineString","coordinates":[[151533.75426939,168700.87090527],[151532.51027066,168705.63971001],[151532.18285508,168716.49047013],[151532.10511929,168725.29667553]]},"geometry_name":"GEOM","properties":{"INSPIRE_ID":"https://databrussels.be/id/streetaxe/92080","TYPE":"I","HIERARCHY":"DR","LVL":0,"STARTSN_ID":"https://databrussels.be/id/streetnode/5725","ENDSN_ID":"https://databrussels.be/id/streetnode/5592","STRNAMEFRE":"Avenue des Casernes","STRNAMEDUT":"Kazernenlaan","SLOPE":1.99,"LENGTH":24.5906376366811},"bbox":[151532.10511929,168700.87090527,151533.75426939,168725.29667553]},{"type":"Feature","id":"StreetAxes.fid--1290087_1a03126d94f_7b16","geometry":{"type":"LineString","coordinates":[[151520.0386564,168775.41948734],[151520.35517148,168764.3367675]]},"geometry_name":"GEOM","properties":{"INSPIRE_ID":"https://databrussels.be/id/streetaxe/92082","TYPE":"I","HIERARCHY":"MAR","LVL":0,"STARTSN_ID":"https://databrussels.be/id/streetnode/5716","ENDSN_ID":"https://databrussels.be/id/streetnode/5712","STRNAMEFRE":"Avenue des Casernes","STRNAMEDUT":"Kazernenlaan","SLOPE":1.98,"LENGTH":11.0872386464122},"bbox":[151520.0386564,168764.3367675,151520.35517148,168775.41948734]},{"type":"Feature","id":"StreetAxes.fid--1290087_1a03126d94f_7b10","geometry":{"type":"LineString","coordinates":[[151522.39290065,168701.43863498],[151519.6017452,168695.0160174],[151519.81958522,168688.45021687],[151523.00515037,168683.185136]]},"geometry_name":"GEOM","properties":{"INSPIRE_ID":"https://databrussels.be/id/streetaxe/92083","TYPE":"I","HIERARCHY":"MAR","LVL":0,"STARTSN_ID":"https://databrussels.be/id/streetnode/5720","ENDSN_ID":"https://databrussels.be/id/streetnode/5715","STRNAMEFRE":"Avenue des Casernes","STRNAMEDUT":"Kazernenlaan","SLOPE":1.32,"LENGTH":19.726081569968},"bbox":[151519.6017452,168683.185136,151523.00515037,168701.43863498]},{"type":"Feature","id":"StreetAxes.fid--1290087_1a03126d94f_7b58","geometry":{"type":"LineString","coordinates":[[151538.71478772,168546.38428083],[151527.40829681,168546.20154966]]},"geometry_name":"GEOM","properties":{"INSPIRE_ID":"https://databrussels.be/id/streetaxe/92084","TYPE":"I","HIERARCHY":"MAR","LVL":0,"STARTSN_ID":"https://databrussels.be/id/streetnode/5732","ENDSN_ID":"https://databrussels.be/id/streetnode/5728","STRNAMEFRE":"Avenue des Casernes","STRNAMEDUT":"Kazernenlaan","SLOPE":1.15,"LENGTH":11.3079674350725},"bbox":[151527.40829681,168546.20154966,151538.71478772,168546.38428083]},{"type":"Feature","id":"StreetAxes.fid--1290087_1a03126d94f_7b11","geometry":{"type":"LineString","coordinates":[[151522.39290065,168701.43863498],[151521.75915752,168721.58431628]]},"geometry_name":"GEOM","properties":{"INSPIRE_ID":"https://databrussels.be/id/streetaxe/92085","TYPE":"I","HIERARCHY":"MAR","LVL":0,"STARTSN_ID":"https://databrussels.be/id/streetnode/5720","ENDSN_ID":"https://databrussels.be/id/streetnode/5733","STRNAMEFRE":"Avenue des Casernes","STRNAMEDUT":"Kazernenlaan","SLOPE":1.84,"LENGTH":20.1556469833183},"bbox":[151521.75915752,168701.43863498,151522.39290065,168721.58431628]},{"type":"Feature","id":"StreetAxes.fid--1290087_1a03126d94f_7b0f","geometry":{"type":"LineString","coordinates":[[151522.39290065,168701.43863498],[151525.86554473,168694.07977578],[151526.04439553,168688.68912861],[151523.00515037,168683.185136]]},"geometry_name":"GEOM","properties":{"INSPIRE_ID":"https://databrussels.be/id/streetaxe/92685","TYPE":"I","HIERARCHY":"MAR","LVL":0,"STARTSN_ID":"https://databrussels.be/id/streetnode/5720","ENDSN_ID":"https://databrussels.be/id/streetnode/5715","STRNAMEFRE":"Avenue des Casernes","STRNAMEDUT":"Kazernenlaan","SLOPE":1.31,"LENGTH":19.8180569679171},"bbox":[151522.39290065,168683.185136,151526.04439553,168701.43863498]},{"type":"Feature","id":"StreetAxes.fid--1290087_1a03126d94f_7b52","geometry":{"type":"LineString","coordinates":[[151525.11016281,168619.73991315],[151524.54243331,168636.85154733]]},"geometry_name":"GEOM","properties":{"INSPIRE_ID":"https://databrussels.be/id/streetaxe/92727","TYPE":"I","HIERARCHY":"MAR","LVL":0,"STARTSN_ID":"https://databrussels.be/id/streetnode/5729","ENDSN_ID":"https://databrussels.be/id/streetnode/14845","STRNAMEFRE":"Avenue des Casernes","STRNAMEDUT":"Kazernenlaan","SLOPE":0,"LENGTH":17.1210496419799},"bbox":[151524.54243331,168619.73991315,151525.11016281,168636.85154733]},{"type":"Feature","id":"StreetAxes.fid--1290087_1a03126d94f_7b0e","geometry":{"type":"LineString","coordinates":[[151524.54243331,168636.85154733],[151523.00515037,168683.18597843]]},"geometry_name":"GEOM","properties":{"INSPIRE_ID":"https://databrussels.be/id/streetaxe/92728","TYPE":"S","HIERARCHY":"MAR","LVL":0,"STARTSN_ID":"https://databrussels.be/id/streetnode/14845","ENDSN_ID":"https://databrussels.be/id/streetnode/5715","STRNAMEFRE":"Avenue des Casernes","STRNAMEDUT":"Kazernenlaan","SLOPE":0,"LENGTH":46.3599260651226},"bbox":[151523.00515037,168636.85154733,151524.54243331,168683.18597843]},{"type":"Feature","id":"StreetAxes.fid--1290087_1a03126d94f_7b61","geometry":{"type":"LineString","coordinates":[[151524.54243331,168636.85154733],[151515.27211996,168636.33880333],[151474.90131169,168611.27953426],[151456.08102023,168597.29339048]]},"geometry_name":"GEOM","properties":{"INSPIRE_ID":"https://databrussels.be/id/streetaxe/94596","TYPE":"S","HIERARCHY":"DR","LVL":0,"STARTSN_ID":"https://databrussels.be/id/streetnode/14845","ENDSN_ID":"https://databrussels.be/id/streetnode/14846","STRNAMEFRE":"Rue Jacqueline Harpman","STRNAMEDUT":"Jacqueline Harpmanstraat","SLOPE":0,"LENGTH":80.2486174655143},"bbox":[151456.08102023,168597.29339048,151524.54243331,168636.85154733]},{"type":"Feature","id":"StreetAxes.fid--1290087_1a03126d94f_7b35","geometry":{"type":"LineString","coordinates":[[151684.56076009,168898.46681467],[151691.04469117,168863.38225389],[151694.66099379,168837.88616832],[151699.9613893,168819.69507124],[151698.5482893,168815.14997753],[151715.2588675,168800.75334181],[151720.6683549,168796.18549097],[151732.54140607,168784.45780828],[151748.95686535,168763.24290474],[151778.06809481,168725.79053648]]},"geometry_name":"GEOM","properties":{"INSPIRE_ID":"https://databrussels.be/id/streetaxe/94829","TYPE":"S","HIERARCHY":"DR","LVL":0,"STARTSN_ID":"https://databrussels.be/id/streetnode/5284","ENDSN_ID":"https://databrussels.be/id/streetnode/5283","STRNAMEFRE":"Jardins de Fontenay-sous-bois","STRNAMEDUT":"Tuinen van Fontenay-sous-bois","SLOPE":0.62,"LENGTH":205.2226683934},"bbox":[151684.56076009,168725.79053648,151778.06809481,168898.46681467]},{"type":"Feature","id":"StreetAxes.fid--1290087_1a03126d94f_7b44","geometry":{"type":"LineString","coordinates":[[151783.52,168623.884],[151774.969,168613.241],[151631.69596318,168499.94243063]]},"geometry_name":"GEOM","properties":{"INSPIRE_ID":"https://databrussels.be/id/streetaxe/98455","TYPE":"S","HIERARCHY":"DC","LVL":0,"STARTSN_ID":"https://databrussels.be/id/streetnode/4178","ENDSN_ID":"https://databrussels.be/id/streetnode/16950","STRNAMEFRE":"Avenue de la Force Aérienne","STRNAMEDUT":"Luchtmachtlaan","SLOPE":0.55,"LENGTH":196.309992568931},"bbox":[151631.69596318,168499.94243063,151783.52,168623.884]},{"type":"Feature","id":"StreetAxes.fid--1290087_1a03126d94f_7b03","geometry":{"type":"LineString","coordinates":[[151803.56847264,169066.07604111],[151804.922,168990.872],[151805.047,168983.838]]},"geometry_name":"GEOM","properties":{"INSPIRE_ID":"https://databrussels.be/id/streetaxe/98464","TYPE":"S","HIERARCHY":"DR","LVL":0,"STARTSN_ID":"https://databrussels.be/id/streetnode/16951","ENDSN_ID":"https://databrussels.be/id/streetnode/3013","STRNAMEFRE":"Rue Général Henry","STRNAMEDUT":"Generaal Henrystraat","SLOPE":2.23,"LENGTH":82.2513311457849},"bbox":[151803.56847264,168983.838,151805.047,169066.07604111]},{"type":"Feature","id":"StreetAxes.fid--1290087_1a03126d94f_7af6","geometry":{"type":"LineString","coordinates":[[151724.3694417,169060.18292336],[151743.202,168912.852],[151743.479,168906.194]]},"geometry_name":"GEOM","properties":{"INSPIRE_ID":"https://databrussels.be/id/streetaxe/98469","TYPE":"S","HIERARCHY":"DR","LVL":0,"STARTSN_ID":"https://databrussels.be/id/streetnode/16952","ENDSN_ID":"https://databrussels.be/id/streetnode/891","STRNAMEFRE":"Rue des Cultivateurs","STRNAMEDUT":"Landbouwersstraat","SLOPE":3.32,"LENGTH":155.193440989497},"bbox":[151724.3694417,168906.194,151743.479,169060.18292336]},{"type":"Feature","id":"StreetAxes.fid--1290087_1a03126d94f_7b47","geometry":{"type":"LineString","coordinates":[[151851.64,168559.288],[151857.188,168565.092],[151869.74983315,168575.2388436],[151878.60485998,168582.40933686]]},"geometry_name":"GEOM","properties":{"INSPIRE_ID":"https://databrussels.be/id/streetaxe/99883","TYPE":"S","HIERARCHY":"DR","LVL":0,"STARTSN_ID":"https://databrussels.be/id/streetnode/","ENDSN_ID":"https://databrussels.be/id/streetnode/","STRNAMEFRE":"Rue Commandant Ponthier","STRNAMEDUT":"Kommandant Ponthierstraat","SLOPE":0.85,"LENGTH":35.5713086409937},"bbox":[151851.64,168559.288,151878.60485998,168582.40933686]},{"type":"Feature","id":"StreetAxes.fid--1290087_1a03126d94f_7b48","geometry":{"type":"LineString","coordinates":[[151878.60485998,168582.40933686],[151886.90548647,168589.17624303]]},"geometry_name":"GEOM","properties":{"INSPIRE_ID":"https://databrussels.be/id/streetaxe/99900","TYPE":"I","HIERARCHY":"DR","LVL":0,"STARTSN_ID":"https://databrussels.be/id/streetnode/","ENDSN_ID":"https://databrussels.be/id/streetnode/","STRNAMEFRE":"Rue Commandant Ponthier","STRNAMEDUT":"Kommandant Ponthierstraat","SLOPE":0.06,"LENGTH":10.7094079780592},"bbox":[151878.60485998,168582.40933686,151886.90548647,168589.17624303]},{"type":"Feature","id":"StreetAxes.fid--1290087_1a03126d94f_7b3c","geometry":{"type":"LineString","coordinates":[[151820.684,168759.36],[151821.55133325,168749.62084389],[151824.05659079,168727.99421329],[151825.20829939,168723.20677918],[151829.69773856,168709.14543943],[151834.91026223,168696.32653603],[151837.82685786,168688.86586678],[151843.61159231,168669.04297575],[151853.41427707,168633.88616301],[151860.69017181,168611.70497116],[151863.86105352,168604.43299724],[151867.11194877,168597.87805744],[151869.46761627,168593.83469457],[151874.13812149,168587.88846231],[151878.60485998,168582.40933686]]},"geometry_name":"GEOM","properties":{"INSPIRE_ID":"https://databrussels.be/id/streetaxe/99910","TYPE":"S","HIERARCHY":"T","LVL":0,"STARTSN_ID":"https://databrussels.be/id/streetnode/","ENDSN_ID":"https://databrussels.be/id/streetnode/","STRNAMEFRE":"Rue Général Henry","STRNAMEDUT":"Generaal Henrystraat","SLOPE":1.85,"LENGTH":188.133717411619},"bbox":[151820.684,168582.40933686,151878.60485998,168759.36]}],"numberReturned":111,"grand_bruxelles_source":{"authority":"Paradigm / Brussels-Capital Region","service":"https://geoservices-urbis.irisnet.be/geoserver/urbisvector/wfs","layer":"urbisvector:StreetAxes","crs":"EPSG:31370","bbox":[151500.0,168500.0,152000.0,169000.0],"cell_id":"bxl-e151500-n168500-s500","ownership":"bbox_intersection_source_unclipped"}}
