{"type":"FeatureCollection","features":[{"type":"Feature","id":"StreetAxes.fid-14e63813_19ff5cff17a_-3fe7","geometry":{"type":"LineString","coordinates":[[150769.06842677,173049.27380027],[150771.4551375,173042.2463278],[150776.25063068,173028.06598805],[150783.47617175,173007.24040848],[150788.94581656,172992.48825937],[150796.75330769,172971.93632883],[150802.5145591,172957.53729716]]},"geometry_name":"GEOM","properties":{"INSPIRE_ID":"https://databrussels.be/id/streetaxe/78436","TYPE":"S","HIERARCHY":"IDR","LVL":0,"STARTSN_ID":"https://databrussels.be/id/streetnode/10719","ENDSN_ID":"https://databrussels.be/id/streetnode/10727","STRNAMEFRE":"Avenue Voltaire","STRNAMEDUT":"Voltairelaan","SLOPE":3.6,"LENGTH":97.6617130765869},"bbox":[150769.06842677,172957.53729716,150802.5145591,173049.27380027]},{"type":"Feature","id":"StreetAxes.fid-14e63813_19ff5cff17a_-3fe6","geometry":{"type":"LineString","coordinates":[[150802.5145591,172957.53729716],[150881.15779346,172978.42671827],[150922.652,172989.355]]},"geometry_name":"GEOM","properties":{"INSPIRE_ID":"https://databrussels.be/id/streetaxe/77081","TYPE":"S","HIERARCHY":"DR","LVL":0,"STARTSN_ID":"https://databrussels.be/id/streetnode/10727","ENDSN_ID":"https://databrussels.be/id/streetnode/3187","STRNAMEFRE":"Avenue Ernest Renan","STRNAMEDUT":"Ernest Renanlaan","SLOPE":0.31,"LENGTH":124.279468990315},"bbox":[150802.5145591,172957.53729716,150922.652,172989.355]},{"type":"Feature","id":"StreetAxes.fid-14e63813_19ff5cff17a_-3fe5","geometry":{"type":"LineString","coordinates":[[150894.86221797,173092.72593292],[150897.6855,173082.362],[150905.488,173060.616],[150916.894,173020.083],[150921.76354942,172999.84262837],[150922.652,172989.355]]},"geometry_name":"GEOM","properties":{"INSPIRE_ID":"https://databrussels.be/id/streetaxe/76253","TYPE":"S","HIERARCHY":"DR","LVL":0,"STARTSN_ID":"https://databrussels.be/id/streetnode/14165","ENDSN_ID":"https://databrussels.be/id/streetnode/3187","STRNAMEFRE":"Avenue du Suffrage Universel","STRNAMEDUT":"Algemeen Stemrechtlaan","SLOPE":0.36,"LENGTH":107.295364907926},"bbox":[150894.86221797,172989.355,150922.652,173092.72593292]},{"type":"Feature","id":"StreetAxes.fid-14e63813_19ff5cff17a_-3fe4","geometry":{"type":"LineString","coordinates":[[150922.652,172989.355],[150955.76660055,173005.01830915],[150975.123,173017.831],[150990.13,173034.72],[151001.836,173054.705],[151009.64,173074.972],[151012.041,173096.927],[151012.04515374,173121.14629446],[151010.58374337,173133.35740241]]},"geometry_name":"GEOM","properties":{"INSPIRE_ID":"https://databrussels.be/id/streetaxe/80496","TYPE":"S","HIERARCHY":null,"LVL":0,"STARTSN_ID":"https://databrussels.be/id/streetnode/3187","ENDSN_ID":"https://databrussels.be/id/streetnode/4831","STRNAMEFRE":"Avenue Ernest Renan","STRNAMEDUT":"Ernest Renanlaan","SLOPE":1.86,"LENGTH":185.920102337196},"bbox":[150922.652,172989.355,151012.04515374,173133.35740241]},{"type":"Feature","id":"StreetAxes.fid-14e63813_19ff5cff17a_-3fe3","geometry":{"type":"LineString","coordinates":[[150496.62760165,172951.52001769],[150500.24538641,172968.42310245],[150517.37676478,173058.89646611],[150521.88939644,173065.14666031]]},"geometry_name":"GEOM","properties":{"INSPIRE_ID":"https://databrussels.be/id/streetaxe/85866","TYPE":"SC","HIERARCHY":"DR","LVL":0,"STARTSN_ID":"https://databrussels.be/id/streetnode/10523","ENDSN_ID":"https://databrussels.be/id/streetnode/11206","STRNAMEFRE":"Rue Goossens","STRNAMEDUT":"Goossensstraat","SLOPE":1.55,"LENGTH":117.075931453963},"bbox":[150496.62760165,172951.52001769,150521.88939644,173065.14666031]},{"type":"Feature","id":"StreetAxes.fid-14e63813_19ff5cff17a_-3fe2","geometry":{"type":"LineString","coordinates":[[150496.62760165,172951.52001769],[150509.35083762,172959.99099148],[150576.938458,172996.4610385],[150585.45792399,172999.9846205]]},"geometry_name":"GEOM","properties":{"INSPIRE_ID":"https://databrussels.be/id/streetaxe/83378","TYPE":"S","HIERARCHY":"IDR","LVL":0,"STARTSN_ID":"https://databrussels.be/id/streetnode/10523","ENDSN_ID":"https://databrussels.be/id/streetnode/13489","STRNAMEFRE":"Chaussée de Haecht","STRNAMEDUT":"Haachtsesteenweg","SLOPE":3.32,"LENGTH":101.304022890278},"bbox":[150496.62760165,172951.52001769,150585.45792399,172999.9846205]},{"type":"Feature","id":"StreetAxes.fid-14e63813_19ff5cff17a_-3fe1","geometry":{"type":"LineString","coordinates":[[150585.45792399,172999.9846205],[150586.70124618,173009.86859428],[150544.092,173049.729],[150527.346,173061.207],[150521.88939644,173065.14666031]]},"geometry_name":"GEOM","properties":{"INSPIRE_ID":"https://databrussels.be/id/streetaxe/75123","TYPE":"S","HIERARCHY":"IDR","LVL":0,"STARTSN_ID":"https://databrussels.be/id/streetnode/13489","ENDSN_ID":"https://databrussels.be/id/streetnode/11206","STRNAMEFRE":"Rue des Ailes","STRNAMEDUT":"Vleugelsstraat","SLOPE":1.63,"LENGTH":95.3413347990019},"bbox":[150521.88939644,172999.9846205,150586.70124618,173065.14666031]},{"type":"Feature","id":"StreetAxes.fid-14e63813_19ff5cff17a_-3fe0","geometry":{"type":"LineString","coordinates":[[150585.45792399,172999.9846205],[150602.50252412,173007.13805953]]},"geometry_name":"GEOM","properties":{"INSPIRE_ID":"https://databrussels.be/id/streetaxe/89013","TYPE":"I","HIERARCHY":"IDR","LVL":0,"STARTSN_ID":"https://databrussels.be/id/streetnode/13489","ENDSN_ID":"https://databrussels.be/id/streetnode/10522","STRNAMEFRE":"Chaussée de Haecht","STRNAMEDUT":"Haachtsesteenweg","SLOPE":1.41,"LENGTH":18.4848609359781},"bbox":[150585.45792399,172999.9846205,150602.50252412,173007.13805953]},{"type":"Feature","id":"StreetAxes.fid-14e63813_19ff5cff17a_-3fdf","geometry":{"type":"LineString","coordinates":[[150602.50252412,173007.13805953],[150602.98869684,172997.53429098],[150622.235,172949.327],[150634.03270188,172923.55202417],[150636.359,172913.862]]},"geometry_name":"GEOM","properties":{"INSPIRE_ID":"https://databrussels.be/id/streetaxe/79699","TYPE":"S","HIERARCHY":"DR","LVL":0,"STARTSN_ID":"https://databrussels.be/id/streetnode/10522","ENDSN_ID":"https://databrussels.be/id/streetnode/13491","STRNAMEFRE":"Rue de Jérusalem","STRNAMEDUT":"Jerusalemstraat","SLOPE":0.33,"LENGTH":99.8353682470771},"bbox":[150602.50252412,172913.862,150636.359,173007.13805953]},{"type":"Feature","id":"StreetAxes.fid-14e63813_19ff5cff17a_-3fde","geometry":{"type":"LineString","coordinates":[[150747.73522812,173044.42476],[150754.44853361,173026.10907554],[150757.60170428,173017.16471736],[150763.8513138,172998.05648538],[150769.51536986,172983.21108565],[150775.60042573,172966.48883705],[150780.48257727,172951.68116564]]},"geometry_name":"GEOM","properties":{"INSPIRE_ID":"https://databrussels.be/id/streetaxe/82640","TYPE":"S","HIERARCHY":"IDR","LVL":0,"STARTSN_ID":"https://databrussels.be/id/streetnode/10756","ENDSN_ID":"https://databrussels.be/id/streetnode/10764","STRNAMEFRE":"Avenue Voltaire","STRNAMEDUT":"Voltairelaan","SLOPE":3.97,"LENGTH":98.3713681634301},"bbox":[150747.73522812,172951.68116564,150780.48257727,173044.42476]},{"type":"Feature","id":"StreetAxes.fid-14e63813_19ff5cff17a_-3fdd","geometry":{"type":"LineString","coordinates":[[150565.35549008,172753.55076735],[150565.07418622,172748.75953714],[150554.279,172604.096],[150552.22351122,172593.09875434]]},"geometry_name":"GEOM","properties":{"INSPIRE_ID":"https://databrussels.be/id/streetaxe/75792","TYPE":"S","HIERARCHY":"DR","LVL":0,"STARTSN_ID":"https://databrussels.be/id/streetnode/10931","ENDSN_ID":"https://databrussels.be/id/streetnode/8507","STRNAMEFRE":"Rue Joseph Brand","STRNAMEDUT":"Joseph Brandstraat","SLOPE":1.34,"LENGTH":161.052933849806},"bbox":[150552.22351122,172593.09875434,150565.35549008,172753.55076735]},{"type":"Feature","id":"StreetAxes.fid-14e63813_19ff5cff17a_-3fdc","geometry":{"type":"LineString","coordinates":[[150846.90784745,172696.01056944],[150833.06731905,172686.80603762],[150740.895,172635.232]]},"geometry_name":"GEOM","properties":{"INSPIRE_ID":"https://databrussels.be/id/streetaxe/85974","TYPE":"S","HIERARCHY":"IDR","LVL":0,"STARTSN_ID":"https://databrussels.be/id/streetnode/10761","ENDSN_ID":"https://databrussels.be/id/streetnode/12759","STRNAMEFRE":"Avenue Louis Bertrand","STRNAMEDUT":"Louis Bertrandlaan","SLOPE":2.72,"LENGTH":122.241939770609},"bbox":[150740.895,172635.232,150846.90784745,172696.01056944]},{"type":"Feature","id":"StreetAxes.fid-14e63813_19ff5cff17a_-3fdb","geometry":{"type":"LineString","coordinates":[[150708.78142426,172684.67826607],[150713.40007824,172677.55345737],[150734.27327189,172646.31807414],[150740.895,172635.232]]},"geometry_name":"GEOM","properties":{"INSPIRE_ID":"https://databrussels.be/id/streetaxe/100343","TYPE":"S","HIERARCHY":"DR","LVL":0,"STARTSN_ID":"https://databrussels.be/id/streetnode/","ENDSN_ID":"https://databrussels.be/id/streetnode/","STRNAMEFRE":"Rue de Jérusalem","STRNAMEDUT":"Jerusalemstraat","SLOPE":4.39,"LENGTH":58.9717731587538},"bbox":[150708.78142426,172635.232,150740.895,172684.67826607]},{"type":"Feature","id":"StreetAxes.fid-14e63813_19ff5cff17a_-3fda","geometry":{"type":"LineString","coordinates":[[150611.024,172658.164],[150620.12468172,172657.49500286],[150701.97716577,172680.26740861],[150708.78142426,172684.67826607]]},"geometry_name":"GEOM","properties":{"INSPIRE_ID":"https://databrussels.be/id/streetaxe/100346","TYPE":"S","HIERARCHY":"DR","LVL":0,"STARTSN_ID":"https://databrussels.be/id/streetnode/","ENDSN_ID":"https://databrussels.be/id/streetnode/","STRNAMEFRE":"Rue Teniers","STRNAMEDUT":"Teniersstraat","SLOPE":3.37,"LENGTH":102.195332889934},"bbox":[150611.024,172657.49500286,150708.78142426,172684.67826607]},{"type":"Feature","id":"StreetAxes.fid-14e63813_19ff5cff17a_-3fd9","geometry":{"type":"LineString","coordinates":[[150611.024,172658.164],[150612.1315475,172666.8899126],[150617.97639204,172720.12755229],[150618.97844942,172729.1105687]]},"geometry_name":"GEOM","properties":{"INSPIRE_ID":"https://databrussels.be/id/streetaxe/83027","TYPE":"S","HIERARCHY":"DR","LVL":0,"STARTSN_ID":"https://databrussels.be/id/streetnode/12758","ENDSN_ID":"https://databrussels.be/id/streetnode/10754","STRNAMEFRE":"Rue Herman","STRNAMEDUT":"Hermanstraat","SLOPE":0.42,"LENGTH":71.3921787019627},"bbox":[150611.024,172658.164,150618.97844942,172729.1105687]},{"type":"Feature","id":"StreetAxes.fid-14e63813_19ff5cff17a_-3fd8","geometry":{"type":"LineString","coordinates":[[150676.46402226,172734.43925865],[150704.11865533,172691.87112717],[150708.78142426,172684.67826607]]},"geometry_name":"GEOM","properties":{"INSPIRE_ID":"https://databrussels.be/id/streetaxe/100336","TYPE":"S","HIERARCHY":"DR","LVL":0,"STARTSN_ID":"https://databrussels.be/id/streetnode/","ENDSN_ID":"https://databrussels.be/id/streetnode/","STRNAMEFRE":"Rue de Jérusalem","STRNAMEDUT":"Jerusalemstraat","SLOPE":null,"LENGTH":59.3344021688546},"bbox":[150676.46402226,172684.67826607,150708.78142426,172734.43925865]},{"type":"Feature","id":"StreetAxes.fid-14e63813_19ff5cff17a_-3fd7","geometry":{"type":"LineString","coordinates":[[150846.90784745,172696.01056944],[150851.50611537,172700.97906109]]},"geometry_name":"GEOM","properties":{"INSPIRE_ID":"https://databrussels.be/id/streetaxe/88147","TYPE":"I","HIERARCHY":"IDR","LVL":0,"STARTSN_ID":"https://databrussels.be/id/streetnode/10761","ENDSN_ID":"https://databrussels.be/id/streetnode/10752","STRNAMEFRE":"Avenue Voltaire","STRNAMEDUT":"Voltairelaan","SLOPE":3.55,"LENGTH":6.76978413260482},"bbox":[150846.90784745,172696.01056944,150851.50611537,172700.97906109]},{"type":"Feature","id":"StreetAxes.fid-14e63813_19ff5cff17a_-3fd6","geometry":{"type":"LineString","coordinates":[[150865.19685894,172699.05020667],[150864.60097499,172698.69260651],[150864.0197072,172698.39243694],[150863.32820624,172698.09183168],[150862.29558275,172697.74633077],[150861.37029818,172697.53316285],[150860.58877285,172697.41972145],[150859.38143662,172697.35980772],[150858.45516262,172697.40755419],[150856.598558,172697.7546795],[150855.48913251,172698.13440441],[150854.25805179,172698.72903673],[150852.47305349,172699.82259637],[150851.50611537,172700.97906109]]},"geometry_name":"GEOM","properties":{"INSPIRE_ID":"https://databrussels.be/id/streetaxe/88480","TYPE":"I","HIERARCHY":"IDR","LVL":0,"STARTSN_ID":"https://databrussels.be/id/streetnode/10724","ENDSN_ID":"https://databrussels.be/id/streetnode/10752","STRNAMEFRE":"Avenue Voltaire","STRNAMEDUT":"Voltairelaan","SLOPE":1.99,"LENGTH":15.0969559657003},"bbox":[150851.50611537,172697.35980772,150865.19685894,172700.97906109]},{"type":"Feature","id":"StreetAxes.fid-14e63813_19ff5cff17a_-3fd5","geometry":{"type":"LineString","coordinates":[[150869.01564016,172712.41421794],[150869.2230876,172711.99091795],[150869.6901182,172710.60435823],[150869.98401982,172708.95458845],[150870.03064486,172708.18417289],[150870.01530658,172707.30830449],[150869.91194525,172706.33152596],[150869.71130045,172705.34041057],[150869.40002729,172704.32620305],[150868.94640551,172703.26145848],[150868.39757595,172702.28177882],[150867.77976184,172701.40622054],[150867.13638917,172700.66041548],[150866.44163458,172699.99109332],[150865.19685894,172699.05020667]]},"geometry_name":"GEOM","properties":{"INSPIRE_ID":"https://databrussels.be/id/streetaxe/87991","TYPE":"I","HIERARCHY":"IDR","LVL":0,"STARTSN_ID":"https://databrussels.be/id/streetnode/10743","ENDSN_ID":"https://databrussels.be/id/streetnode/10724","STRNAMEFRE":"Avenue Voltaire","STRNAMEDUT":"Voltairelaan","SLOPE":2.5,"LENGTH":15.1743381598203},"bbox":[150865.19685894,172699.05020667,150870.03064486,172712.41421794]},{"type":"Feature","id":"StreetAxes.fid-14e63813_19ff5cff17a_-3fd4","geometry":{"type":"LineString","coordinates":[[150851.50611537,172700.97906109],[150851.33102745,172701.17485846],[150850.60608614,172702.15767092],[150849.81945418,172703.59736483],[150849.33874147,172704.88482158],[150849.06122507,172706.0378872],[150848.90407677,172707.3917853],[150848.98962131,172709.37685855],[150849.36645754,172711.06817359],[150849.99839948,172712.64297049]]},"geometry_name":"GEOM","properties":{"INSPIRE_ID":"https://databrussels.be/id/streetaxe/87328","TYPE":"I","HIERARCHY":"IDR","LVL":0,"STARTSN_ID":"https://databrussels.be/id/streetnode/10752","ENDSN_ID":"https://databrussels.be/id/streetnode/9770","STRNAMEFRE":"Avenue Voltaire","STRNAMEDUT":"Voltairelaan","SLOPE":1.85,"LENGTH":12.464316303116},"bbox":[150848.90407677,172700.97906109,150851.50611537,172712.64297049]},{"type":"Feature","id":"StreetAxes.fid-14e63813_19ff5cff17a_-3fd3","geometry":{"type":"LineString","coordinates":[[150869.01564016,172712.41421794],[150880.54007709,172712.95703236],[150890.61670558,172718.70834127],[150928.837,172741.038],[150941.5,172748.739]]},"geometry_name":"GEOM","properties":{"INSPIRE_ID":"https://databrussels.be/id/streetaxe/85911","TYPE":"S","HIERARCHY":"IDR","LVL":0,"STARTSN_ID":"https://databrussels.be/id/streetnode/10743","ENDSN_ID":"https://databrussels.be/id/streetnode/10159","STRNAMEFRE":"Avenue Louis Bertrand","STRNAMEDUT":"Louis Bertrandlaan","SLOPE":3.14,"LENGTH":82.22561770238},"bbox":[150869.01564016,172712.41421794,150941.5,172748.739]},{"type":"Feature","id":"StreetAxes.fid-14e63813_19ff5cff17a_-3fd2","geometry":{"type":"LineString","coordinates":[[150849.99839948,172712.64297049],[150850.85093986,172714.06390698],[150851.95834431,172715.37804744],[150853.15147777,172716.41280575],[150854.96851447,172717.50036096],[150856.19982468,172717.98696573],[150857.29610083,172718.27861808],[150858.56303531,172718.46457601],[150860.38853974,172718.46218449],[150862.20669672,172718.140349],[150864.32183008,172717.31960339],[150864.81167743,172717.0493696],[150865.99493725,172716.24268594],[150867.61728755,172714.65811394],[150868.20490832,172713.87440234],[150868.65096345,172713.15834692],[150869.01564016,172712.41421794]]},"geometry_name":"GEOM","properties":{"INSPIRE_ID":"https://databrussels.be/id/streetaxe/87324","TYPE":"I","HIERARCHY":"IDR","LVL":0,"STARTSN_ID":"https://databrussels.be/id/streetnode/9770","ENDSN_ID":"https://databrussels.be/id/streetnode/10743","STRNAMEFRE":"Avenue Voltaire","STRNAMEDUT":"Voltairelaan","SLOPE":3.85,"LENGTH":23.6633369743781},"bbox":[150849.99839948,172712.41421794,150869.01564016,172718.46457601]},{"type":"Feature","id":"StreetAxes.fid-14e63813_19ff5cff17a_-3fd1","geometry":{"type":"LineString","coordinates":[[150842.23744314,172841.8383969],[150845.09949414,172833.01331046],[150847.09239931,172825.29844195],[150850.56439974,172813.23034463],[150853.43162433,172799.38564813],[150855.6895704,172787.40935767],[150857.43820922,172775.14970169],[150858.83374999,172767.00213887],[150860.64690756,172757.92420962],[150861.98897431,172749.00322805],[150863.32711799,172740.58764614],[150864.74838184,172732.55768765],[150869.01564016,172712.41421794]]},"geometry_name":"GEOM","properties":{"INSPIRE_ID":"https://databrussels.be/id/streetaxe/81567","TYPE":"S","HIERARCHY":"IDR","LVL":0,"STARTSN_ID":"https://databrussels.be/id/streetnode/10735","ENDSN_ID":"https://databrussels.be/id/streetnode/10743","STRNAMEFRE":"Avenue Voltaire","STRNAMEDUT":"Voltairelaan","SLOPE":2.21,"LENGTH":132.324200539807},"bbox":[150842.23744314,172712.41421794,150869.01564016,172841.8383969]},{"type":"Feature","id":"StreetAxes.fid-14e63813_19ff5cff17a_-3fd0","geometry":{"type":"LineString","coordinates":[[150821.92210979,172835.62197217],[150822.98375773,172831.87772313],[150826.18705855,172820.41017036],[150832.82024684,172794.88407274],[150837.61478799,172770.75835481],[150840.75004225,172751.13420621],[150843.23374857,172733.63394313],[150845.23735912,172726.67014044],[150849.99839948,172712.64297049]]},"geometry_name":"GEOM","properties":{"INSPIRE_ID":"https://databrussels.be/id/streetaxe/77087","TYPE":"S","HIERARCHY":"IDR","LVL":0,"STARTSN_ID":"https://databrussels.be/id/streetnode/8513","ENDSN_ID":"https://databrussels.be/id/streetnode/9770","STRNAMEFRE":"Avenue Voltaire","STRNAMEDUT":"Voltairelaan","SLOPE":1.93,"LENGTH":126.377884994192},"bbox":[150821.92210979,172712.64297049,150849.99839948,172835.62197217]},{"type":"Feature","id":"StreetAxes.fid-14e63813_19ff5cff17a_-3fcf","geometry":{"type":"LineString","coordinates":[[150618.97844942,172729.1105687],[150633.16754109,172729.54738842],[150667.83529967,172737.30810124],[150673.10625986,172736.91592107],[150676.46402226,172734.43925865]]},"geometry_name":"GEOM","properties":{"INSPIRE_ID":"https://databrussels.be/id/streetaxe/100345","TYPE":"S","HIERARCHY":"T","LVL":0,"STARTSN_ID":"https://databrussels.be/id/streetnode/","ENDSN_ID":"https://databrussels.be/id/streetnode/","STRNAMEFRE":"Place de Houffalize","STRNAMEDUT":"Houffalizeplein","SLOPE":3.16,"LENGTH":59.1794799011064},"bbox":[150618.97844942,172729.1105687,150676.46402226,172737.30810124]},{"type":"Feature","id":"StreetAxes.fid-14e63813_19ff5cff17a_-3fce","geometry":{"type":"LineString","coordinates":[[150618.97844942,172729.1105687],[150621.49680972,172751.6865933]]},"geometry_name":"GEOM","properties":{"INSPIRE_ID":"https://databrussels.be/id/streetaxe/87321","TYPE":"I","HIERARCHY":"DR","LVL":0,"STARTSN_ID":"https://databrussels.be/id/streetnode/10754","ENDSN_ID":"https://databrussels.be/id/streetnode/10929","STRNAMEFRE":"Place de Houffalize","STRNAMEDUT":"Houffalizeplein","SLOPE":0.22,"LENGTH":22.7160521584444},"bbox":[150618.97844942,172729.1105687,150621.49680972,172751.6865933]},{"type":"Feature","id":"StreetAxes.fid-14e63813_19ff5cff17a_-3fcd","geometry":{"type":"LineString","coordinates":[[150676.46402226,172734.43925865],[150669.58957031,172746.11045751],[150667.15722238,172757.62735339],[150655.05907244,172832.09539323]]},"geometry_name":"GEOM","properties":{"INSPIRE_ID":"https://databrussels.be/id/streetaxe/101315","TYPE":"P","HIERARCHY":"DR","LVL":0,"STARTSN_ID":"https://databrussels.be/id/streetnode/","ENDSN_ID":"https://databrussels.be/id/streetnode/","STRNAMEFRE":"Place de Houffalize","STRNAMEDUT":"Houffalizeplein","SLOPE":null,"LENGTH":100.760619070963},"bbox":[150655.05907244,172734.43925865,150676.46402226,172832.09539323]},{"type":"Feature","id":"StreetAxes.fid-14e63813_19ff5cff17a_-3fcc","geometry":{"type":"LineString","coordinates":[[150922.652,172989.355],[150922.63721573,172979.78657537],[150926.06715492,172952.68445807],[150932.06997465,172766.77980274],[150932.27991331,172763.19308746],[150932.91214672,172760.95808472],[150941.5,172748.739]]},"geometry_name":"GEOM","properties":{"INSPIRE_ID":"https://databrussels.be/id/streetaxe/76941","TYPE":"S","HIERARCHY":"DR","LVL":0,"STARTSN_ID":"https://databrussels.be/id/streetnode/3187","ENDSN_ID":"https://databrussels.be/id/streetnode/10159","STRNAMEFRE":"Avenue du Suffrage Universel","STRNAMEDUT":"Algemeen Stemrechtlaan","SLOPE":3.29,"LENGTH":243.738936148422},"bbox":[150922.63721573,172748.739,150941.5,172989.355]},{"type":"Feature","id":"StreetAxes.fid-14e63813_19ff5cff17a_-3fcb","geometry":{"type":"LineString","coordinates":[[150941.5,172748.739],[150954.164,172756.44],[150976.803,172769.631],[150988.958,172776.946]]},"geometry_name":"GEOM","properties":{"INSPIRE_ID":"https://databrussels.be/id/streetaxe/80386","TYPE":"S","HIERARCHY":"IDR","LVL":0,"STARTSN_ID":"https://databrussels.be/id/streetnode/10159","ENDSN_ID":"https://databrussels.be/id/streetnode/1584","STRNAMEFRE":"Avenue Louis Bertrand","STRNAMEDUT":"Louis Bertrandlaan","SLOPE":3.17,"LENGTH":55.2097153194057},"bbox":[150941.5,172748.739,150988.958,172776.946]},{"type":"Feature","id":"StreetAxes.fid-14e63813_19ff5cff17a_-3fca","geometry":{"type":"LineString","coordinates":[[150621.49680972,172751.6865933],[150610.965852,172753.24867817],[150600.88887855,172754.97384381],[150581.63243605,172764.74746815],[150574.16717379,172766.56448038],[150568.95542883,172764.63913226],[150565.953041,172758.88525838],[150565.35549008,172753.55076735]]},"geometry_name":"GEOM","properties":{"INSPIRE_ID":"https://databrussels.be/id/streetaxe/76395","TYPE":"S","HIERARCHY":"DR","LVL":0,"STARTSN_ID":"https://databrussels.be/id/streetnode/10929","ENDSN_ID":"https://databrussels.be/id/streetnode/10931","STRNAMEFRE":"Place de Houffalize","STRNAMEDUT":"Houffalizeplein","SLOPE":2.18,"LENGTH":67.5617086863155},"bbox":[150565.35549008,172751.6865933,150621.49680972,172766.56448038]},{"type":"Feature","id":"StreetAxes.fid-14e63813_19ff5cff17a_-3fc9","geometry":{"type":"LineString","coordinates":[[150655.05907244,172832.09539323],[150652.09391793,172822.95694794],[150630.10738974,172793.92795252],[150625.81074827,172787.1373288],[150621.49680972,172751.6865933]]},"geometry_name":"GEOM","properties":{"INSPIRE_ID":"https://databrussels.be/id/streetaxe/101318","TYPE":"S","HIERARCHY":"DR","LVL":0,"STARTSN_ID":"https://databrussels.be/id/streetnode/","ENDSN_ID":"https://databrussels.be/id/streetnode/","STRNAMEFRE":"Place de Houffalize","STRNAMEDUT":"Houffalizeplein","SLOPE":0.3,"LENGTH":89.771005434968},"bbox":[150621.49680972,172751.6865933,150655.05907244,172832.09539323]},{"type":"Feature","id":"StreetAxes.fid-14e63813_19ff5cff17a_-3fc8","geometry":{"type":"LineString","coordinates":[[151104.60543194,172854.75883157],[151097.57800624,172848.02689498],[151087.98479775,172839.6589753],[151082.2861076,172835.26658332],[151075.18996516,172830.21829634],[151060.72369145,172821.06408105],[151039.76556673,172808.77521025],[150998.5374761,172784.40877224],[150988.958,172776.946]]},"geometry_name":"GEOM","properties":{"INSPIRE_ID":"https://databrussels.be/id/streetaxe/82758","TYPE":"S","HIERARCHY":"IDR","LVL":0,"STARTSN_ID":"https://databrussels.be/id/streetnode/10939","ENDSN_ID":"https://databrussels.be/id/streetnode/1584","STRNAMEFRE":"Boulevard Lambermont","STRNAMEDUT":"Lambermontlaan","SLOPE":3.89,"LENGTH":139.81337016774},"bbox":[150988.958,172776.946,151104.60543194,172854.75883157]},{"type":"Feature","id":"StreetAxes.fid-14e63813_19ff5cff17a_-3fc7","geometry":{"type":"LineString","coordinates":[[150577.923,172902.549],[150577.2455,172893.072],[150569.18974858,172793.81024208],[150566.87065517,172788.75404851],[150563.52193357,172785.68487744]]},"geometry_name":"GEOM","properties":{"INSPIRE_ID":"https://databrussels.be/id/streetaxe/76706","TYPE":"S","HIERARCHY":"DR","LVL":0,"STARTSN_ID":"https://databrussels.be/id/streetnode/13492","ENDSN_ID":"https://databrussels.be/id/streetnode/12597","STRNAMEFRE":"Rue Joseph Brand","STRNAMEDUT":"Joseph Brandstraat","SLOPE":0.29,"LENGTH":119.194403903975},"bbox":[150563.52193357,172785.68487744,150577.923,172902.549]},{"type":"Feature","id":"StreetAxes.fid-14e63813_19ff5cff17a_-3fc6","geometry":{"type":"LineString","coordinates":[[150655.05907244,172832.09539323],[150653.77,172854.719],[150640.1982205,172904.478281],[150636.359,172913.862]]},"geometry_name":"GEOM","properties":{"INSPIRE_ID":"https://databrussels.be/id/streetaxe/101316","TYPE":"P","HIERARCHY":"DR","LVL":0,"STARTSN_ID":"https://databrussels.be/id/streetnode/","ENDSN_ID":"https://databrussels.be/id/streetnode/","STRNAMEFRE":"Rue de Jérusalem","STRNAMEDUT":"Jerusalemstraat","SLOPE":null,"LENGTH":84.3759551513792},"bbox":[150636.359,172832.09539323,150655.05907244,172913.862]},{"type":"Feature","id":"StreetAxes.fid-14e63813_19ff5cff17a_-3fc5","geometry":{"type":"LineString","coordinates":[[150780.48257727,172951.68116564],[150784.44090038,172941.10929657],[150788.51469964,172929.45360102],[150794.87636199,172911.656539],[150806.1500999,172880.88875146],[150811.86324408,172864.08545483],[150821.92210979,172835.62197217]]},"geometry_name":"GEOM","properties":{"INSPIRE_ID":"https://databrussels.be/id/streetaxe/86063","TYPE":"S","HIERARCHY":"IDR","LVL":0,"STARTSN_ID":"https://databrussels.be/id/streetnode/10764","ENDSN_ID":"https://databrussels.be/id/streetnode/8513","STRNAMEFRE":"Avenue Voltaire","STRNAMEDUT":"Voltairelaan","SLOPE":2.2,"LENGTH":123.240366472865},"bbox":[150780.48257727,172835.62197217,150821.92210979,172951.68116564]},{"type":"Feature","id":"StreetAxes.fid-14e63813_19ff5cff17a_-3fc4","geometry":{"type":"LineString","coordinates":[[150821.92210979,172835.62197217],[150842.23744314,172841.8383969]]},"geometry_name":"GEOM","properties":{"INSPIRE_ID":"https://databrussels.be/id/streetaxe/77086","TYPE":"S","HIERARCHY":"IDR","LVL":0,"STARTSN_ID":"https://databrussels.be/id/streetnode/8513","ENDSN_ID":"https://databrussels.be/id/streetnode/10735","STRNAMEFRE":"Avenue Voltaire","STRNAMEDUT":"Voltairelaan","SLOPE":1.98,"LENGTH":21.2451572247569},"bbox":[150821.92210979,172835.62197217,150842.23744314,172841.8383969]},{"type":"Feature","id":"StreetAxes.fid-14e63813_19ff5cff17a_-3fc3","geometry":{"type":"LineString","coordinates":[[150802.5145591,172957.53729716],[150804.50127029,172949.91789936],[150806.36481155,172943.4961401],[150808.7494422,172935.97060522],[150813.29705201,172922.31264278],[150818.49778181,172907.76907716],[150822.47317659,172896.25072413],[150826.3017538,172885.69963758],[150832.7968105,172867.23740708],[150841.27205804,172844.81514572],[150842.23744314,172841.8383969]]},"geometry_name":"GEOM","properties":{"INSPIRE_ID":"https://databrussels.be/id/streetaxe/77080","TYPE":"S","HIERARCHY":"IDR","LVL":0,"STARTSN_ID":"https://databrussels.be/id/streetnode/10727","ENDSN_ID":"https://databrussels.be/id/streetnode/10735","STRNAMEFRE":"Avenue Voltaire","STRNAMEDUT":"Voltairelaan","SLOPE":2.36,"LENGTH":122.376442064361},"bbox":[150802.5145591,172841.8383969,150842.23744314,172957.53729716]},{"type":"Feature","id":"StreetAxes.fid-14e63813_19ff5cff17a_-3fc2","geometry":{"type":"LineString","coordinates":[[150577.923,172902.549],[150586.788,172904.138],[150628.2772315,172911.9012605],[150636.359,172913.862]]},"geometry_name":"GEOM","properties":{"INSPIRE_ID":"https://databrussels.be/id/streetaxe/80705","TYPE":"S","HIERARCHY":"DR","LVL":0,"STARTSN_ID":"https://databrussels.be/id/streetnode/13492","ENDSN_ID":"https://databrussels.be/id/streetnode/13491","STRNAMEFRE":"Rue Ernest Laude","STRNAMEDUT":"Ernest Laudestraat","SLOPE":2.86,"LENGTH":59.5317961963635},"bbox":[150577.923,172902.549,150636.359,172913.862]},{"type":"Feature","id":"StreetAxes.fid-14e63813_19ff5cff17a_-3fc1","geometry":{"type":"LineString","coordinates":[[150585.45792399,172999.9846205],[150583.78611506,172986.69432796],[150578.19063996,172911.7533417],[150577.923,172902.549]]},"geometry_name":"GEOM","properties":{"INSPIRE_ID":"https://databrussels.be/id/streetaxe/75472","TYPE":"S","HIERARCHY":"DR","LVL":0,"STARTSN_ID":"https://databrussels.be/id/streetnode/13489","ENDSN_ID":"https://databrussels.be/id/streetnode/13492","STRNAMEFRE":"Rue Joseph Brand","STRNAMEDUT":"Joseph Brandstraat","SLOPE":1.81,"LENGTH":97.7528509867915},"bbox":[150577.923,172902.549,150585.45792399,172999.9846205]},{"type":"Feature","id":"StreetAxes.fid-14e63813_19ff5cff17a_-3fc0","geometry":{"type":"LineString","coordinates":[[150780.48257727,172951.68116564],[150760.24047026,172946.36690293],[150636.359,172913.862]]},"geometry_name":"GEOM","properties":{"INSPIRE_ID":"https://databrussels.be/id/streetaxe/80708","TYPE":"S","HIERARCHY":"DR","LVL":0,"STARTSN_ID":"https://databrussels.be/id/streetnode/10764","ENDSN_ID":"https://databrussels.be/id/streetnode/13491","STRNAMEFRE":"Rue Ernest Laude","STRNAMEDUT":"Ernest Laudestraat","SLOPE":3.36,"LENGTH":149.003002879639},"bbox":[150636.359,172913.862,150780.48257727,172951.68116564]},{"type":"Feature","id":"StreetAxes.fid-14e63813_19ff5cff17a_-3fbf","geometry":{"type":"LineString","coordinates":[[150780.48257727,172951.68116564],[150802.5145591,172957.53729716]]},"geometry_name":"GEOM","properties":{"INSPIRE_ID":"https://databrussels.be/id/streetaxe/89039","TYPE":"S","HIERARCHY":"IDR","LVL":0,"STARTSN_ID":"https://databrussels.be/id/streetnode/10764","ENDSN_ID":"https://databrussels.be/id/streetnode/10727","STRNAMEFRE":"Avenue Voltaire","STRNAMEDUT":"Voltairelaan","SLOPE":1.05,"LENGTH":22.7969844367282},"bbox":[150780.48257727,172951.68116564,150802.5145591,172957.53729716]},{"type":"Feature","id":"StreetAxes.fid-14e63813_19ff5cff17a_-3fbe","geometry":{"type":"LineString","coordinates":[[150489.61613297,172720.00929465],[150494.3,172708.427],[150534.05,172605.4845],[150539.81150452,172593.09864192]]},"geometry_name":"GEOM","properties":{"INSPIRE_ID":"https://databrussels.be/id/streetaxe/75474","TYPE":"S","HIERARCHY":"DR","LVL":0,"STARTSN_ID":"https://databrussels.be/id/streetnode/10932","ENDSN_ID":"https://databrussels.be/id/streetnode/12763","STRNAMEFRE":"Rue Henri Bergé","STRNAMEDUT":"Henri Bergéstraat","SLOPE":0.84,"LENGTH":136.504292787309},"bbox":[150489.61613297,172593.09864192,150539.81150452,172720.00929465]},{"type":"Feature","id":"StreetAxes.fid-14e63813_19ff5cff17a_-3fbd","geometry":{"type":"LineString","coordinates":[[150489.61613297,172720.00929465],[150492.39014654,172723.85660522],[150497.64105048,172726.43598083],[150551.90346184,172753.09103721],[150557.19482944,172753.69223225],[150565.35549008,172753.55076735]]},"geometry_name":"GEOM","properties":{"INSPIRE_ID":"https://databrussels.be/id/streetaxe/81913","TYPE":"S","HIERARCHY":"DR","LVL":0,"STARTSN_ID":"https://databrussels.be/id/streetnode/10932","ENDSN_ID":"https://databrussels.be/id/streetnode/10931","STRNAMEFRE":"Rue Ernest Discailles","STRNAMEDUT":"Ernest Discaillesstraat","SLOPE":4.68,"LENGTH":84.5364011778418},"bbox":[150489.61613297,172720.00929465,150565.35549008,172753.69223225]},{"type":"Feature","id":"StreetAxes.fid-14e63813_19ff5cff17a_-3fbc","geometry":{"type":"LineString","coordinates":[[150487.11871655,172882.4131359],[150486.53554009,172876.7262397],[150487.43439893,172873.18385447],[150490.0119822,172868.29420477],[150539.166,172796.439],[150554.91507959,172785.97233654],[150560.52214818,172784.63511684],[150563.52193357,172785.68487744]]},"geometry_name":"GEOM","properties":{"INSPIRE_ID":"https://databrussels.be/id/streetaxe/75807","TYPE":"S","HIERARCHY":null,"LVL":0,"STARTSN_ID":"https://databrussels.be/id/streetnode/13493","ENDSN_ID":"https://databrussels.be/id/streetnode/12597","STRNAMEFRE":"Rue Vogler","STRNAMEDUT":"Voglerstraat","SLOPE":2.66,"LENGTH":129.810300085568},"bbox":[150486.53554009,172784.63511684,150563.52193357,172882.4131359]},{"type":"Feature","id":"StreetAxes.fid-14e63813_19ff5cff17a_-3fbb","geometry":{"type":"LineString","coordinates":[[150487.11871655,172882.4131359],[150496.41847555,172885.32268483],[150506.14255472,172888.93284193],[150569.1815,172900.8265],[150577.923,172902.549]]},"geometry_name":"GEOM","properties":{"INSPIRE_ID":"https://databrussels.be/id/streetaxe/75808","TYPE":"S","HIERARCHY":"DR","LVL":0,"STARTSN_ID":"https://databrussels.be/id/streetnode/13493","ENDSN_ID":"https://databrussels.be/id/streetnode/13492","STRNAMEFRE":"Rue Ernest Laude","STRNAMEDUT":"Ernest Laudestraat","SLOPE":4.05,"LENGTH":93.1776095703397},"bbox":[150487.11871655,172882.4131359,150577.923,172902.549]},{"type":"Feature","id":"StreetAxes.fid-14e63813_19ff5cff17a_-3fba","geometry":{"type":"LineString","coordinates":[[150515.398,172359.675],[150516.468,172367.438],[150526.721,172436.497],[150542.146,172512.873],[150549.368,172561.97],[150549.43420756,172571.35675158]]},"geometry_name":"GEOM","properties":{"INSPIRE_ID":"https://databrussels.be/id/streetaxe/82933","TYPE":"S","HIERARCHY":"DR","LVL":0,"STARTSN_ID":"https://databrussels.be/id/streetnode/2776","ENDSN_ID":"https://databrussels.be/id/streetnode/8523","STRNAMEFRE":"Rue Josaphat","STRNAMEDUT":"Josafatstraat","SLOPE":1.17,"LENGTH":214.582730312081},"bbox":[150515.398,172359.675,150549.43420756,172571.35675158]},{"type":"Feature","id":"StreetAxes.fid-14e63813_19ff5cff17a_-3fb9","geometry":{"type":"LineString","coordinates":[[150542.60481211,172571.35481387],[150546.01973693,172570.53599914],[150549.43420756,172571.35675158]]},"geometry_name":"GEOM","properties":{"INSPIRE_ID":"https://databrussels.be/id/streetaxe/88486","TYPE":"I","HIERARCHY":"IDR","LVL":0,"STARTSN_ID":"https://databrussels.be/id/streetnode/10745","ENDSN_ID":"https://databrussels.be/id/streetnode/8523","STRNAMEFRE":"Avenue Louis Bertrand","STRNAMEDUT":"Louis Bertrandlaan","SLOPE":5.7,"LENGTH":7.02344835342628},"bbox":[150542.60481211,172570.53599914,150549.43420756,172571.35675158]},{"type":"Feature","id":"StreetAxes.fid-14e63813_19ff5cff17a_-3fb8","geometry":{"type":"LineString","coordinates":[[150542.60481211,172571.35481387],[150529.73178451,172571.74393728],[150510.84769095,172573.84699174],[150490.65468177,172576.99601269],[150466.9753159,172582.34765644],[150450.22980356,172586.68325896],[150438.47852893,172590.16533539],[150427.78654581,172593.57450865],[150421.50530168,172596.17419353]]},"geometry_name":"GEOM","properties":{"INSPIRE_ID":"https://databrussels.be/id/streetaxe/85966","TYPE":"S","HIERARCHY":"IDR","LVL":0,"STARTSN_ID":"https://databrussels.be/id/streetnode/10745","ENDSN_ID":"https://databrussels.be/id/streetnode/10729","STRNAMEFRE":"Avenue Louis Bertrand","STRNAMEDUT":"Louis Bertrandlaan","SLOPE":4.81,"LENGTH":124.167706544392},"bbox":[150421.50530168,172571.35481387,150542.60481211,172596.17419353]},{"type":"Feature","id":"StreetAxes.fid-14e63813_19ff5cff17a_-3fb7","geometry":{"type":"LineString","coordinates":[[150539.81150452,172593.09864192],[150537.85150311,172590.1614226],[150536.7080107,172586.81644187],[150536.333247,172583.29984807],[150536.70807552,172579.78326005],[150537.85163576,172576.43830317],[150539.81170886,172573.50113327],[150542.60481211,172571.35481387]]},"geometry_name":"GEOM","properties":{"INSPIRE_ID":"https://databrussels.be/id/streetaxe/85819","TYPE":"S","HIERARCHY":"IDR","LVL":0,"STARTSN_ID":"https://databrussels.be/id/streetnode/12763","ENDSN_ID":"https://databrussels.be/id/streetnode/10745","STRNAMEFRE":"Avenue Louis Bertrand","STRNAMEDUT":"Louis Bertrandlaan","SLOPE":1.21,"LENGTH":24.7278527211576},"bbox":[150536.333247,172571.35481387,150542.60481211,172593.09864192]},{"type":"Feature","id":"StreetAxes.fid-14e63813_19ff5cff17a_-3fb6","geometry":{"type":"LineString","coordinates":[[150431.34219635,172619.47407872],[150438.26656214,172616.73841346],[150455.1355576,172611.33145649],[150470.56942528,172607.30737952],[150486.00248266,172603.66442563],[150501.71933521,172600.713183],[150508.89900745,172599.51983148],[150530.49404061,172597.01160456],[150533.34435299,172596.73161534],[150539.81150452,172593.09864192]]},"geometry_name":"GEOM","properties":{"INSPIRE_ID":"https://databrussels.be/id/streetaxe/84097","TYPE":"S","HIERARCHY":"IDR","LVL":0,"STARTSN_ID":"https://databrussels.be/id/streetnode/12761","ENDSN_ID":"https://databrussels.be/id/streetnode/12763","STRNAMEFRE":"Avenue Louis Bertrand","STRNAMEDUT":"Louis Bertrandlaan","SLOPE":5.05,"LENGTH":112.258226344465},"bbox":[150431.34219635,172593.09864192,150539.81150452,172619.47407872]},{"type":"Feature","id":"StreetAxes.fid-14e63813_19ff5cff17a_-3fb5","geometry":{"type":"LineString","coordinates":[[150552.22351122,172593.09875434],[150549.43016974,172595.24525367],[150546.01522979,172596.06400082],[150542.60077475,172595.24318102],[150539.81150452,172593.09864192]]},"geometry_name":"GEOM","properties":{"INSPIRE_ID":"https://databrussels.be/id/streetaxe/88479","TYPE":"I","HIERARCHY":"IDR","LVL":0,"STARTSN_ID":"https://databrussels.be/id/streetnode/8507","ENDSN_ID":"https://databrussels.be/id/streetnode/12763","STRNAMEFRE":"Avenue Louis Bertrand","STRNAMEDUT":"Louis Bertrandlaan","SLOPE":4.69,"LENGTH":14.0646526939933},"bbox":[150539.81150452,172593.09864192,150552.22351122,172596.06400082]},{"type":"Feature","id":"StreetAxes.fid-14e63813_19ff5cff17a_-3fb4","geometry":{"type":"LineString","coordinates":[[150681.26769488,172293.33639218],[150685.64274157,172294.63968518],[150690.547,172296.33950034],[150692.59250001,172297.46950033],[150696.8813116,172305.72456852],[150793.4749277,172511.78753802],[150794.24700569,172516.05353648],[150793.11058786,172519.91284213]]},"geometry_name":"GEOM","properties":{"INSPIRE_ID":"https://databrussels.be/id/streetaxe/99450","TYPE":"S","HIERARCHY":"DR","LVL":0,"STARTSN_ID":"https://databrussels.be/id/streetnode/","ENDSN_ID":"https://databrussels.be/id/streetnode/","STRNAMEFRE":"Rue des Coteaux","STRNAMEDUT":"Wijnheuvelenstraat","SLOPE":0.59,"LENGTH":257.332694447501},"bbox":[150681.26769488,172293.33639218,150794.24700569,172519.91284213]},{"type":"Feature","id":"StreetAxes.fid-14e63813_19ff5cff17a_-3fb3","geometry":{"type":"LineString","coordinates":[[150681.26769488,172293.33639218],[150677.15448501,172307.14409706],[150618.53905133,172503.87641261],[150615.92795232,172512.6869002]]},"geometry_name":"GEOM","properties":{"INSPIRE_ID":"https://databrussels.be/id/streetaxe/99445","TYPE":"S","HIERARCHY":"DR","LVL":0,"STARTSN_ID":"https://databrussels.be/id/streetnode/","ENDSN_ID":"https://databrussels.be/id/streetnode/","STRNAMEFRE":"Rue Kessels","STRNAMEDUT":"Kesselsstraat","SLOPE":1.43,"LENGTH":228.875362556521},"bbox":[150615.92795232,172293.33639218,150681.26769488,172512.6869002]},{"type":"Feature","id":"StreetAxes.fid-14e63813_19ff5cff17a_-3fb2","geometry":{"type":"LineString","coordinates":[[150988.958,172776.946],[150991.329,172773.007],[150992.625,172758.725],[150994.155,172741.87],[150995.093,172710.332],[150989.327,172653.938],[150982.737,172625.355],[150968.322,172582.094],[150958.025,172553.897],[150951.023,172521.452],[150947.93194568,172497.63944648],[150940.61567717,172477.70426398],[150937.823765,172473.81182437]]},"geometry_name":"GEOM","properties":{"INSPIRE_ID":"https://databrussels.be/id/streetaxe/83032","TYPE":"S","HIERARCHY":null,"LVL":0,"STARTSN_ID":"https://databrussels.be/id/streetnode/1584","ENDSN_ID":"https://databrussels.be/id/streetnode/14161","STRNAMEFRE":"Avenue Ambassadeur van Vollenhoven","STRNAMEDUT":"Ambassadeur van Vollenhovenlaan","SLOPE":1.28,"LENGTH":312.282851686253},"bbox":[150937.823765,172473.81182437,150995.093,172776.946]},{"type":"Feature","id":"StreetAxes.fid-14e63813_19ff5cff17a_-3fb1","geometry":{"type":"LineString","coordinates":[[150840.50992634,172505.15567849],[150839.82306359,172504.01272679],[150839.3396203,172502.98928275],[150838.9810767,172502.01776352],[150838.689703,172500.95208963],[150838.53347668,172500.13268705],[150838.4140543,172499.06095859],[150838.3960789,172497.73296737],[150838.51845352,172496.42632837],[150838.83608405,172494.92603048],[150839.3616381,172493.41831526],[150839.7935913,172492.50325867]]},"geometry_name":"GEOM","properties":{"INSPIRE_ID":"https://databrussels.be/id/streetaxe/88483","TYPE":"I","HIERARCHY":"IDR","LVL":0,"STARTSN_ID":"https://databrussels.be/id/streetnode/10740","ENDSN_ID":"https://databrussels.be/id/streetnode/9768","STRNAMEFRE":"Avenue Paul Deschanel","STRNAMEDUT":"Paul Deschanellaan","SLOPE":1.65,"LENGTH":13.3008206196516},"bbox":[150838.3960789,172492.50325867,150840.50992634,172505.15567849]},{"type":"Feature","id":"StreetAxes.fid-14e63813_19ff5cff17a_-3fb0","geometry":{"type":"LineString","coordinates":[[150860.4421131,172505.91004219],[150860.92093403,172505.15197001],[150861.5262919,172504.25290101],[150862.2086341,172502.82236992],[150862.64579616,172501.52718779],[150862.91454396,172500.32759603],[150863.08996379,172498.54276823],[150863.00485423,172496.74919602],[150862.75548715,172495.3581542],[150862.38006215,172494.09135497]]},"geometry_name":"GEOM","properties":{"INSPIRE_ID":"https://databrussels.be/id/streetaxe/88144","TYPE":"I","HIERARCHY":"IDR","LVL":0,"STARTSN_ID":"https://databrussels.be/id/streetnode/10732","ENDSN_ID":"https://databrussels.be/id/streetnode/10748","STRNAMEFRE":"Avenue Paul Deschanel","STRNAMEDUT":"Paul Deschanellaan","SLOPE":2.8,"LENGTH":12.4852257120705},"bbox":[150860.4421131,172494.09135497,150863.08996379,172505.91004219]},{"type":"Feature","id":"StreetAxes.fid-14e63813_19ff5cff17a_-3faf","geometry":{"type":"LineString","coordinates":[[150845.88492404,172509.70734374],[150844.17615811,172508.69591655],[150843.55820989,172508.28193118],[150842.61708944,172507.53794035],[150842.01349333,172506.97457037],[150841.5608258,172506.49814311],[150841.12365887,172505.98534738],[150840.50992634,172505.15567849]]},"geometry_name":"GEOM","properties":{"INSPIRE_ID":"https://databrussels.be/id/streetaxe/87984","TYPE":"I","HIERARCHY":"IDR","LVL":0,"STARTSN_ID":"https://databrussels.be/id/streetnode/8510","ENDSN_ID":"https://databrussels.be/id/streetnode/10740","STRNAMEFRE":"Avenue Paul Deschanel","STRNAMEDUT":"Paul Deschanellaan","SLOPE":0.56,"LENGTH":7.11783922462138},"bbox":[150840.50992634,172505.15567849,150845.88492404,172509.70734374]},{"type":"Feature","id":"StreetAxes.fid-14e63813_19ff5cff17a_-3fae","geometry":{"type":"LineString","coordinates":[[150802.88298219,172532.1424342],[150826.26564143,172515.56537608],[150840.50992634,172505.15567849]]},"geometry_name":"GEOM","properties":{"INSPIRE_ID":"https://databrussels.be/id/streetaxe/83030","TYPE":"S","HIERARCHY":"IDR","LVL":0,"STARTSN_ID":"https://databrussels.be/id/streetnode/12764","ENDSN_ID":"https://databrussels.be/id/streetnode/10740","STRNAMEFRE":"Avenue Paul Deschanel","STRNAMEDUT":"Paul Deschanellaan","SLOPE":2.81,"LENGTH":46.3052552682201},"bbox":[150802.88298219,172505.15567849,150840.50992634,172532.1424342]},{"type":"Feature","id":"StreetAxes.fid-14e63813_19ff5cff17a_-3fad","geometry":{"type":"LineString","coordinates":[[150865.19685894,172699.05020667],[150868.5242372,172681.29964181],[150869.96040771,172672.48115775],[150870.60935165,172663.20405098],[150871.07898268,172650.2091793],[150871.60659039,172634.34272115],[150871.6482844,172615.94540093],[150871.21830801,172600.84463396],[150870.96751509,172587.56956142],[150870.11894113,172573.52551077],[150868.81543956,172555.06587965],[150867.23407708,172540.69479958],[150865.6782249,172527.28546413],[150863.25044077,172511.69807996],[150860.4421131,172505.91004219]]},"geometry_name":"GEOM","properties":{"INSPIRE_ID":"https://databrussels.be/id/streetaxe/78438","TYPE":"S","HIERARCHY":"IDR","LVL":0,"STARTSN_ID":"https://databrussels.be/id/streetnode/10724","ENDSN_ID":"https://databrussels.be/id/streetnode/10732","STRNAMEFRE":"Avenue Voltaire","STRNAMEDUT":"Voltairelaan","SLOPE":0.63,"LENGTH":194.695508755181},"bbox":[150860.4421131,172505.91004219,150871.6482844,172699.05020667]},{"type":"Feature","id":"StreetAxes.fid-14e63813_19ff5cff17a_-3fac","geometry":{"type":"LineString","coordinates":[[150845.88492404,172509.70734374],[150848.13807839,172510.30681388],[150849.70321144,172510.54034115],[150850.73625365,172510.58392309],[150852.13483275,172510.50492856],[150853.95439627,172510.15841508],[150855.27117018,172509.72295116],[150856.56824737,172509.12270225],[150857.69191347,172508.44226364],[150858.76202022,172507.62503173],[150859.57539207,172506.86453975],[150860.4421131,172505.91004219]]},"geometry_name":"GEOM","properties":{"INSPIRE_ID":"https://databrussels.be/id/streetaxe/87326","TYPE":"I","HIERARCHY":"IDR","LVL":0,"STARTSN_ID":"https://databrussels.be/id/streetnode/8510","ENDSN_ID":"https://databrussels.be/id/streetnode/10732","STRNAMEFRE":"Avenue Voltaire","STRNAMEDUT":"Voltairelaan","SLOPE":1.8,"LENGTH":16.0800885488027},"bbox":[150845.88492404,172505.91004219,150860.4421131,172510.58392309]},{"type":"Feature","id":"StreetAxes.fid-14e63813_19ff5cff17a_-3fab","geometry":{"type":"LineString","coordinates":[[150846.90784745,172696.01056944],[150848.06647044,172678.91019972],[150849.33738756,172661.52446991],[150850.18136103,172643.60417566],[150850.32469537,172632.18463804],[150850.02152797,172613.54389506],[150849.64031613,172599.72193876],[150848.49368059,172578.25804376],[150847.67031165,172562.95480187],[150844.81132708,172533.75524823],[150844.7254491,172521.54371533],[150845.3034243,172511.51883846],[150845.88492404,172509.70734374]]},"geometry_name":"GEOM","properties":{"INSPIRE_ID":"https://databrussels.be/id/streetaxe/85975","TYPE":"S","HIERARCHY":"IDR","LVL":0,"STARTSN_ID":"https://databrussels.be/id/streetnode/10761","ENDSN_ID":"https://databrussels.be/id/streetnode/8510","STRNAMEFRE":"Avenue Voltaire","STRNAMEDUT":"Voltairelaan","SLOPE":0.52,"LENGTH":186.717670068596},"bbox":[150844.7254491,172509.70734374,150850.32469537,172696.01056944]},{"type":"Feature","id":"StreetAxes.fid-14e63813_19ff5cff17a_-3faa","geometry":{"type":"LineString","coordinates":[[150615.92795232,172512.6869002],[150613.31685331,172521.4973878],[150601.3115,172562.0355],[150603.29416567,172571.78189559]]},"geometry_name":"GEOM","properties":{"INSPIRE_ID":"https://databrussels.be/id/streetaxe/83029","TYPE":"S","HIERARCHY":"DR","LVL":0,"STARTSN_ID":"https://databrussels.be/id/streetnode/3938","ENDSN_ID":"https://databrussels.be/id/streetnode/10717","STRNAMEFRE":"Rue Kessels","STRNAMEDUT":"Kesselsstraat","SLOPE":0.2,"LENGTH":61.413722064044},"bbox":[150601.3115,172512.6869002,150615.92795232,172571.78189559]},{"type":"Feature","id":"StreetAxes.fid-14e63813_19ff5cff17a_-3fa9","geometry":{"type":"LineString","coordinates":[[150615.92795232,172512.6869002],[150624.662,172515.125],[150715.01,172527.475],[150771.8035,172523.957],[150789.68743902,172522.85041926],[150793.11058786,172519.91284213]]},"geometry_name":"GEOM","properties":{"INSPIRE_ID":"https://databrussels.be/id/streetaxe/86127","TYPE":"S","HIERARCHY":"DR","LVL":0,"STARTSN_ID":"https://databrussels.be/id/streetnode/3938","ENDSN_ID":"https://databrussels.be/id/streetnode/12417","STRNAMEFRE":"Rue Edouard Fiers","STRNAMEDUT":"Edouard Fiersstraat","SLOPE":2.77,"LENGTH":179.587433208081},"bbox":[150615.92795232,172512.6869002,150793.11058786,172527.475]},{"type":"Feature","id":"StreetAxes.fid-14e63813_19ff5cff17a_-3fa8","geometry":{"type":"LineString","coordinates":[[150603.29416567,172571.78189559],[150614.335,172572.92],[150636.307,172574.14],[150662.537,172573.762],[150689.978,172571.87],[150720.647,172567.707],[150749.701,172559.76],[150779.53395198,172547.14450907],[150802.88298219,172532.1424342]]},"geometry_name":"GEOM","properties":{"INSPIRE_ID":"https://databrussels.be/id/streetaxe/81904","TYPE":"S","HIERARCHY":null,"LVL":0,"STARTSN_ID":"https://databrussels.be/id/streetnode/10717","ENDSN_ID":"https://databrussels.be/id/streetnode/12764","STRNAMEFRE":"Avenue Louis Bertrand","STRNAMEDUT":"Louis Bertrandlaan","SLOPE":2.62,"LENGTH":208.059416516426},"bbox":[150603.29416567,172532.1424342,150802.88298219,172574.14]},{"type":"Feature","id":"StreetAxes.fid-14e63813_19ff5cff17a_-3fa7","geometry":{"type":"LineString","coordinates":[[150552.22654327,172573.50458291],[150557.18755957,172570.25398322],[150592.21151897,172570.41894503],[150603.29416567,172571.78189559]]},"geometry_name":"GEOM","properties":{"INSPIRE_ID":"https://databrussels.be/id/streetaxe/81570","TYPE":"S","HIERARCHY":"IDR","LVL":0,"STARTSN_ID":"https://databrussels.be/id/streetnode/10737","ENDSN_ID":"https://databrussels.be/id/streetnode/10717","STRNAMEFRE":"Avenue Louis Bertrand","STRNAMEDUT":"Louis Bertrandlaan","SLOPE":3.09,"LENGTH":52.1215996038667},"bbox":[150552.22654327,172570.25398322,150603.29416567,172573.50458291]},{"type":"Feature","id":"StreetAxes.fid-14e63813_19ff5cff17a_-3fa6","geometry":{"type":"LineString","coordinates":[[150549.43420756,172571.35675158],[150552.22654327,172573.50458291]]},"geometry_name":"GEOM","properties":{"INSPIRE_ID":"https://databrussels.be/id/streetaxe/87995","TYPE":"I","HIERARCHY":"IDR","LVL":0,"STARTSN_ID":"https://databrussels.be/id/streetnode/8523","ENDSN_ID":"https://databrussels.be/id/streetnode/10737","STRNAMEFRE":"Avenue Louis Bertrand","STRNAMEDUT":"Louis Bertrandlaan","SLOPE":1.42,"LENGTH":3.52282814290859},"bbox":[150549.43420756,172571.35675158,150552.22654327,172573.50458291]},{"type":"Feature","id":"StreetAxes.fid-14e63813_19ff5cff17a_-3fa5","geometry":{"type":"LineString","coordinates":[[150603.34952075,172596.36210777],[150600.82894102,172595.09200169],[150599.26372372,172592.59192279],[150598.34879405,172589.83596595],[150597.85029681,172586.9734281],[150597.69113891,172584.07168691],[150597.85036609,172581.16994956],[150598.34894209,172578.30742561],[150599.26397663,172575.55150334],[150600.79147894,172573.09275225],[150603.29416567,172571.78189559]]},"geometry_name":"GEOM","properties":{"INSPIRE_ID":"https://databrussels.be/id/streetaxe/85644","TYPE":"S","HIERARCHY":"IDR","LVL":0,"STARTSN_ID":"https://databrussels.be/id/streetnode/12762","ENDSN_ID":"https://databrussels.be/id/streetnode/10717","STRNAMEFRE":"Avenue Louis Bertrand","STRNAMEDUT":"Louis Bertrandlaan","SLOPE":0.62,"LENGTH":28.9230926684348},"bbox":[150597.69113891,172571.78189559,150603.34952075,172596.36210777]},{"type":"Feature","id":"StreetAxes.fid-14e63813_19ff5cff17a_-3fa4","geometry":{"type":"LineString","coordinates":[[150603.29416567,172571.78189559],[150605.81484649,172573.05176931],[150607.35771848,172575.5011827],[150608.28197164,172578.25396138],[150608.78748351,172581.11525176],[150608.95286109,172584.07199946],[150608.79366861,172586.97373874],[150608.29513206,172589.83626965],[150607.38014985,172592.59220968],[150605.85230983,172595.05147968],[150603.34952075,172596.36210777]]},"geometry_name":"GEOM","properties":{"INSPIRE_ID":"https://databrussels.be/id/streetaxe/81905","TYPE":"S","HIERARCHY":"IDR","LVL":0,"STARTSN_ID":"https://databrussels.be/id/streetnode/10717","ENDSN_ID":"https://databrussels.be/id/streetnode/12762","STRNAMEFRE":"Avenue Louis Bertrand","STRNAMEDUT":"Louis Bertrandlaan","SLOPE":0.62,"LENGTH":28.9240797400074},"bbox":[150603.29416567,172571.78189559,150608.95286109,172596.36210777]},{"type":"Feature","id":"StreetAxes.fid-14e63813_19ff5cff17a_-3fa3","geometry":{"type":"LineString","coordinates":[[150552.22351122,172593.09875434],[150554.18354833,172590.16156006],[150555.32707469,172586.8165915],[150555.70187093,172583.3],[150555.32803192,172579.78781355],[150554.18551055,172576.44249831],[150552.22654327,172573.50458291]]},"geometry_name":"GEOM","properties":{"INSPIRE_ID":"https://databrussels.be/id/streetaxe/86393","TYPE":"S","HIERARCHY":"IDR","LVL":0,"STARTSN_ID":"https://databrussels.be/id/streetnode/8507","ENDSN_ID":"https://databrussels.be/id/streetnode/10737","STRNAMEFRE":"Avenue Louis Bertrand","STRNAMEDUT":"Louis Bertrandlaan","SLOPE":0.42,"LENGTH":21.2008653384596},"bbox":[150552.22351122,172573.50458291,150555.70187093,172593.09875434]},{"type":"Feature","id":"StreetAxes.fid-14e63813_19ff5cff17a_-3fa2","geometry":{"type":"LineString","coordinates":[[150552.22351122,172593.09875434],[150559.93860674,172594.89134227],[150593.53316399,172595.60775324],[150603.34952075,172596.36210777]]},"geometry_name":"GEOM","properties":{"INSPIRE_ID":"https://databrussels.be/id/streetaxe/86394","TYPE":"S","HIERARCHY":"IDR","LVL":0,"STARTSN_ID":"https://databrussels.be/id/streetnode/8507","ENDSN_ID":"https://databrussels.be/id/streetnode/12762","STRNAMEFRE":"Avenue Louis Bertrand","STRNAMEDUT":"Louis Bertrandlaan","SLOPE":3.66,"LENGTH":51.3681045850206},"bbox":[150552.22351122,172593.09875434,150603.34952075,172596.36210777]},{"type":"Feature","id":"StreetAxes.fid-14e63813_19ff5cff17a_-3fa1","geometry":{"type":"LineString","coordinates":[[150603.34952075,172596.36210777],[150616.6645,172597.595],[150642.295,172601.7],[150657.16,172604.94],[150676.525,172609.785],[150703.115,172618.45],[150717.88,172623.83],[150731.9925,172629.5905],[150740.895,172635.232]]},"geometry_name":"GEOM","properties":{"INSPIRE_ID":"https://databrussels.be/id/streetaxe/76942","TYPE":"S","HIERARCHY":"IDR","LVL":0,"STARTSN_ID":"https://databrussels.be/id/streetnode/12762","ENDSN_ID":"https://databrussels.be/id/streetnode/12759","STRNAMEFRE":"Avenue Louis Bertrand","STRNAMEDUT":"Louis Bertrandlaan","SLOPE":3.15,"LENGTH":143.968246606962},"bbox":[150603.34952075,172596.36210777,150740.895,172635.232]},{"type":"Feature","id":"StreetAxes.fid-14e63813_19ff5cff17a_-3fa0","geometry":{"type":"LineString","coordinates":[[150603.34952075,172596.36210777],[150605.793908,172606.54442],[150610.31971073,172648.25437807],[150611.024,172658.164]]},"geometry_name":"GEOM","properties":{"INSPIRE_ID":"https://databrussels.be/id/streetaxe/77276","TYPE":"S","HIERARCHY":"DR","LVL":0,"STARTSN_ID":"https://databrussels.be/id/streetnode/12762","ENDSN_ID":"https://databrussels.be/id/streetnode/12758","STRNAMEFRE":"Rue Herman","STRNAMEDUT":"Hermanstraat","SLOPE":2.41,"LENGTH":62.361001910478},"bbox":[150603.34952075,172596.36210777,150611.024,172658.164]}],"totalFeatures":72,"numberMatched":72,"numberReturned":72,"timeStamp":"2026-08-12T11:53:29.313Z","crs":{"type":"name","properties":{"name":"urn:ogc:def:crs:EPSG::31370"}},"bbox":[150421.50530168,172293.33639218,151104.60543194,173133.35740241],"grand_bruxelles_fetch":{"strategy":"direct_bbox","layer":"urbisvector:StreetAxes","bbox":[150500.0,172500.0,151000.0,173000.0],"attempt_budget":2},"grand_bruxelles_source":{"authority":"Paradigm / Brussels-Capital Region","service":"UrbIS WFS","layer":"urbisvector:StreetAxes","crs":"EPSG:31370","bbox":[150500.0,172500.0,151000.0,173000.0],"cell_id":"bxl-e150500-n172500-s500"}}
