{"type":"FeatureCollection","totalFeatures":48,"numberMatched":48,"timeStamp":"2026-08-23T01:12:08.796Z","crs":{"type":"name","properties":{"name":"urn:ogc:def:crs:EPSG::31370"}},"bbox":[145372.47052,165862.49700036,146090.599,166351.16100036],"features":[{"type":"Feature","id":"StreetSurfaces.fid-1007f30f_1a02c00cd1e_7df7","geometry":{"type":"Polygon","coordinates":[[[145961.49524301,166090.30121026],[145967.83237266,166089.09998319],[145970.125,166093.43600036],[145971.64319608,166096.15182813],[145969.75,166096.51000036],[145969.33,166096.58900035],[145968.135,166096.90700036],[145967.052,166097.50600036],[145966.146,166098.34900036],[145965.472,166099.38600036],[145965.069,166100.55600036],[145964.961,166101.78900036],[145965.155,166103.01000036],[145965.26,166103.39000036],[145966.24,166107.33000036],[145966.29321696,166107.54180916],[145959.01428371,166109.11011939],[145958.93424155,166108.76321509],[145958.22518225,166105.53689984],[145956.15135307,166096.22518462],[145956.07623347,166095.97305222],[145955.56034113,166093.64751274],[145955.00817911,166091.1931548],[145954.55153715,166089.12032164],[145953.52289416,166084.5924005],[145960.41530504,166085.44150468],[145960.73080136,166086.83209521],[145961.37471296,166089.77730572],[145961.49524301,166090.30121026]]]},"geometry_name":"GEOM","properties":{"INSPIRE_ID":"https://databrussels.be/id/streetsurface/11547","TYPE":"I","STREET_ID":"https://databrussels.be/id/streetname/3642","STRNAMEFRE":"Boulevard de la Deuxième Armée Britannique","STRNAMEDUT":"Brits Tweedelegerlaan","MUNNISCODE":"21007","HIERARCHY":"MAR","LVL":0,"ADMIN":"REGION_RBC","AREA":228},"bbox":[145953.52289416,166084.5924005,145971.64319608,166109.11011939]},{"type":"Feature","id":"StreetSurfaces.fid-1007f30f_1a02c00cd1e_7e1a","geometry":{"type":"Polygon","coordinates":[[[145554.03,165938.05000036],[145551.33656507,165941.52960196],[145548.2400725,165945.53008036],[145544.61580885,165950.64976383],[145543.66004,165952.00000036],[145538.14,165961.50000036],[145530.01,165976.18000036],[145516.83,166000.00000036],[145516.8300275,166000.00000036],[145516.82780072,166000.00400036],[145516.8278282,166000.00400036],[145515.60245839,166002.23265185],[145514.77091556,166000.4814875],[145504.02262595,165977.84215319],[145538.25846087,165912.57202148],[145545.4355551,165898.88892891],[145561.10486735,165927.20693991],[145561.92,165928.68000036],[145554.029945,165938.04992036],[145554.03,165938.05000036]]]},"geometry_name":"GEOM","properties":{"INSPIRE_ID":"https://databrussels.be/id/streetsurface/131581","TYPE":"S","STREET_ID":"https://databrussels.be/id/streetname/4711","STRNAMEFRE":"Ring 0","STRNAMEDUT":"Ring 0","MUNNISCODE":"21007","HIERARCHY":"H","LVL":0,"ADMIN":"REGION_RBC","AREA":2113},"bbox":[145504.02262595,165898.88892891,145561.92,166002.23265185]},{"type":"Feature","id":"StreetSurfaces.fid-1007f30f_1a02c00cd1e_7df4","geometry":{"type":"Polygon","coordinates":[[[145751.6916293,166264.76264811],[145737.95891199,166249.34318513],[145739.40770751,166248.64304969],[145741.30700062,166247.92200009],[145742.25153296,166246.54546397],[145743.36168874,166245.29864744],[145744.61983764,166244.20135137],[145745.6155703,166243.5330455],[145746.0059999,166243.27100115],[145747.13311127,166242.68409558],[145748.31127048,166242.20788233],[145749.52963689,166241.8467432],[145750.7769999,166241.60400115],[145752.28532851,166241.55067152],[145753.79116859,166241.65238154],[145755.27862581,166241.90805765],[145756.7319999,166242.31500115],[145757.9055375,166242.7664075],[145759.03617602,166243.3165118],[145760.11563424,166243.96128523],[145760.70634771,166244.38662941],[145760.53,166244.51800036],[145746.542,166254.92400036],[145751.6916293,166264.76264811]]]},"geometry_name":"GEOM","properties":{"INSPIRE_ID":"https://databrussels.be/id/streetsurface/132484","TYPE":"S","STREET_ID":"https://databrussels.be/id/streetname/1002","STRNAMEFRE":"Rue de la Soierie","STRNAMEDUT":"Zijdeweverijstraat","MUNNISCODE":"21007","HIERARCHY":"DR","LVL":0,"ADMIN":"MUN_RBC","AREA":181},"bbox":[145737.95891199,166241.55067152,145760.70634771,166264.76264811]},{"type":"Feature","id":"StreetSurfaces.fid-1007f30f_1a02c00cd1e_7df5","geometry":{"type":"Polygon","coordinates":[[[145754.238,166267.00900036],[145759.03688032,166263.46011801],[145762.40064019,166274.28916932],[145763.129,166276.63400071],[145758.748,166278.24400071],[145756.93399979,166273.50000158],[145756.1879999,166271.72600115],[145754.7119999,166268.15400115],[145753.90902633,166267.25240091],[145754.238,166267.00900036]]]},"geometry_name":"GEOM","properties":{"INSPIRE_ID":"https://databrussels.be/id/streetsurface/132485","TYPE":"S","STREET_ID":"https://databrussels.be/id/streetname/1002","STRNAMEFRE":"Rue de la Soierie","STRNAMEDUT":"Zijdeweverijstraat","MUNNISCODE":"21007","HIERARCHY":"DR","LVL":0,"ADMIN":"MUN_RBC","AREA":67},"bbox":[145753.90902633,166263.46011801,145763.129,166278.24400071]},{"type":"Feature","id":"StreetSurfaces.fid-1007f30f_1a02c00cd1e_7e06","geometry":{"type":"Polygon","coordinates":[[[145977.64599313,166166.47276073],[145983.97,166166.13300036],[145984.008,166166.64700036],[145984.317,166168.20400036],[145985.966,166175.11200036],[145986.647,166177.93800036],[145987.827,166183.32300036],[145988.726,166187.18600036],[145989.865,166191.71700036],[145993.148,166205.39200036],[145993.825,166208.35000036],[145994.069,166209.43400036],[145986.64809194,166211.38664623],[145985.845,166207.40600036],[145984.418,166200.49000036],[145983.224,166194.54800036],[145981.751,166187.37500035],[145981.217,166184.83000036],[145980.712,166182.24100036],[145979.733,166177.47300036],[145978.948,166173.62600036],[145978.336,166170.74800036],[145978.195,166170.02800036],[145977.933,166168.71700036],[145977.827,166168.04900036],[145977.719,166167.33200036],[145977.655,166166.60600036],[145977.64599313,166166.47276073]]]},"geometry_name":"GEOM","properties":{"INSPIRE_ID":"https://databrussels.be/id/streetsurface/141418","TYPE":"SW","STREET_ID":"https://databrussels.be/id/streetname/1227","STRNAMEFRE":"Rue de Hal","STRNAMEDUT":"Hallestraat","MUNNISCODE":"21007","HIERARCHY":"MAR","LVL":0,"ADMIN":"REGION_RBC","AREA":314},"bbox":[145977.64599313,166166.13300036,145994.069,166211.38664623]},{"type":"Feature","id":"StreetSurfaces.fid-1007f30f_1a02c00cd1e_7e09","geometry":{"type":"Polygon","coordinates":[[[146003.25413382,166217.71069731],[146000.7,166218.59700036],[146001.301,166220.30000036],[145999.404,166220.95700036],[145999.275,166220.58200036],[145998.983,166220.68300036],[145993.19,166219.26100036],[145988.036,166218.14700036],[145986.86,166212.43700036],[145986.64809194,166211.38664623],[145994.069,166209.43400036],[145994.323,166210.08800036],[145994.579,166210.65400036],[145994.861,166211.18600036],[145995.222,166211.68100036],[145995.612,166212.20800036],[145996.096,166212.70200036],[145996.559,166213.09000036],[145997.127,166213.51100036],[145997.692,166213.83300036],[145998.294,166214.11400036],[145999.001,166214.38600036],[145999.646,166214.56100036],[146000.285,166214.68800036],[146000.968,166214.75200035],[146001.651,166214.75200036],[146002.312,166214.75300036],[146003.25413382,166217.71069731]]]},"geometry_name":"GEOM","properties":{"INSPIRE_ID":"https://databrussels.be/id/streetsurface/141419","TYPE":"SW","STREET_ID":"https://databrussels.be/id/streetname/1227","STRNAMEFRE":"Rue de Hal","STRNAMEDUT":"Hallestraat","MUNNISCODE":"21007","HIERARCHY":"MAR","LVL":0,"ADMIN":"REGION_RBC","AREA":111},"bbox":[145986.64809194,166209.43400036,146003.25413382,166220.95700036]},{"type":"Feature","id":"StreetSurfaces.fid-1007f30f_1a02c00cd1e_7e1e","geometry":{"type":"Polygon","coordinates":[[[145760.70634771,166244.38662941],[145760.90897077,166244.23568452],[145761.075,166244.11200036],[145761.27543991,166243.9630496],[145761.62,166243.70700036],[145761.75,166243.61000036],[145822.1,166198.64000036],[145846.7912218,166180.2416952],[145847.208,166180.98400071],[145847.41681786,166181.55528413],[145847.5106766,166182.15625018],[145847.486,166182.76400071],[145847.32494844,166183.40799833],[145847.03113852,166184.00326824],[145846.61790437,166184.52279501],[145846.104,166184.94300071],[145844.36000113,166186.28499985],[145843.194,166184.76100071],[145841.258,166186.15400071],[145841.172,166186.04500072],[145840.553,166186.51300071],[145840.641,166186.63100071],[145833.21009319,166192.28323143],[145822.75500298,166200.23577122],[145819.4407219,166202.75673963],[145815.92528383,166205.43071571],[145813.2718797,166207.45108701],[145801.80827726,166216.18039712],[145796.34213498,166220.34275807],[145793.57519984,166222.44972532],[145778.85303744,166233.66036541],[145777.05867734,166235.0267357],[145768.58012056,166241.48299165],[145765.691,166243.68300071],[145766.01524344,166244.08614902],[145766.9689999,166245.27200115],[145766.51548493,166245.59449537],[145766.02604288,166245.85930628],[145765.5079726,166246.06248485],[145764.9689999,166246.20100115],[145764.33150138,166246.27783663],[145763.68953181,166246.26430452],[145763.05583736,166246.1606735],[145762.4429999,166245.96900115],[145761.1359999,166244.69600115],[145760.70634771,166244.38662941]]]},"geometry_name":"GEOM","properties":{"INSPIRE_ID":"https://databrussels.be/id/streetsurface/141570","TYPE":"SW","STREET_ID":"https://databrussels.be/id/streetname/1002","STRNAMEFRE":"Rue de la Soierie","STRNAMEDUT":"Zijdeweverijstraat","MUNNISCODE":"21007","HIERARCHY":"DR","LVL":0,"ADMIN":"MUN_RBC","AREA":218},"bbox":[145760.70634771,166180.2416952,145847.5106766,166246.27783663]},{"type":"Feature","id":"StreetSurfaces.fid-1007f30f_1a02c00cd1e_7e08","geometry":{"type":"Polygon","coordinates":[[[145957.986,166167.36700036],[145970.2105861,166166.85987494],[145970.4876329,166167.24614913],[145970.81767092,166167.83862222],[145970.95809013,166168.18119829],[145971.15127712,166168.63317834],[145971.34582591,166169.13850411],[145971.47010365,166169.54685205],[145971.54312902,166169.90149703],[145972.09420034,166172.55729595],[145972.21318215,166173.03041986],[145969.6412692,166173.61085549],[145969.8894086,166174.92895923],[145972.96746897,166189.738125],[145974.63842825,166197.8990958],[145975.06812846,166199.98422745],[145977.43953095,166211.67700633],[145977.83490303,166213.62184723],[145969.208,166215.71400036],[145957.986,166167.36700036]]]},"geometry_name":"GEOM","properties":{"INSPIRE_ID":"https://databrussels.be/id/streetsurface/141571","TYPE":"SW","STREET_ID":"https://databrussels.be/id/streetname/1227","STRNAMEFRE":"Rue de Hal","STRNAMEDUT":"Hallestraat","MUNNISCODE":"21007","HIERARCHY":"MAR","LVL":0,"ADMIN":"REGION_RBC","AREA":479},"bbox":[145957.986,166166.85987494,145977.83490303,166215.71400036]},{"type":"Feature","id":"StreetSurfaces.fid-1007f30f_1a02c00cd1e_7e0c","geometry":{"type":"Polygon","coordinates":[[[145991.039,166232.88800036],[145995.72,166229.30100035],[146000.56,166225.35000035],[146000.851,166225.25000036],[146000.67,166224.73300036],[146002.581,166224.07800036],[146003.164,166225.78000036],[146005.53812277,166224.95724303],[146006.512,166228.08200036],[146004.805,166228.69000036],[146004.302,166228.95500036],[146003.825,166229.26200036],[146003.375,166229.60900036],[146002.974,166229.97600036],[146002.604,166230.37400036],[146002.268,166230.80200036],[146001.968,166231.19000036],[146001.692,166231.59600036],[146001.442,166232.01900036],[146001.209,166232.47700036],[146000.833,166233.43300036],[146000.523,166234.63700036],[146000.462,166235.46300036],[146000.7,166237.41000036],[145994.33679665,166238.87608075],[145994.036,166237.63200036],[145992.106,166238.04700036],[145991.901,166237.12500036],[145991.039,166232.88800036]]]},"geometry_name":"GEOM","properties":{"INSPIRE_ID":"https://databrussels.be/id/streetsurface/141572","TYPE":"SW","STREET_ID":"https://databrussels.be/id/streetname/1227","STRNAMEFRE":"Rue de Hal","STRNAMEDUT":"Hallestraat","MUNNISCODE":"21007","HIERARCHY":"MAR","LVL":0,"ADMIN":"REGION_RBC","AREA":111},"bbox":[145991.039,166224.07800036,146006.512,166238.87608075]},{"type":"Feature","id":"StreetSurfaces.fid-1007f30f_1a02c00cd1e_7e01","geometry":{"type":"Polygon","coordinates":[[[145948.11,166154.11000036],[145948.87,166152.75800036],[145949.631,166151.40600036],[145964.30110691,166148.06090781],[145964.2208017,166148.31134198],[145964.07437006,166148.65551256],[145963.98060025,166148.8621421],[145963.91336427,166148.62895738],[145963.85423332,166148.80232794],[145963.59054617,166149.30454505],[145963.42260679,166149.6519022],[145963.18568847,166150.05446103],[145962.94154019,166150.45267645],[145962.69024156,166150.84641862],[145962.45593377,166151.19995901],[145962.21586112,166151.54961036],[145961.97008812,166151.89527867],[145961.86952114,166152.02003446],[145961.7927096,166152.09470493],[145961.8415941,166152.26727079],[145961.48913354,166152.69725981],[145961.15053072,166153.07988051],[145960.83787876,166153.41230852],[145960.50115373,166153.74551768],[145960.09562876,166154.11578004],[145959.42851297,166154.70271879],[145958.844153,166155.19525676],[145958.32217267,166155.59334142],[145957.79624266,166155.94581741],[145957.39309655,166156.1946654],[145956.91266249,166156.48580886],[145956.43079769,166156.75012866],[145955.9182334,166157.01650621],[145955.53890163,166157.21241087],[145955.12181415,166157.40173134],[145954.7886273,166157.5293239],[145954.42426199,166157.66022581],[145954.15180446,166157.74413289],[145953.31830626,166157.9802917],[145952.60567138,166158.1547913],[145951.58116086,166158.3854795],[145951.33421166,166158.43800502],[145948.11,166154.11000036]]]},"geometry_name":"GEOM","properties":{"INSPIRE_ID":"https://databrussels.be/id/streetsurface/141597","TYPE":"SW","STREET_ID":"https://databrussels.be/id/streetname/1227","STRNAMEFRE":"Rue de Hal","STRNAMEDUT":"Hallestraat","MUNNISCODE":"21007","HIERARCHY":"MAR","LVL":0,"ADMIN":"REGION_RBC","AREA":86},"bbox":[145948.11,166148.06090781,145964.30110691,166158.43800502]},{"type":"Feature","id":"StreetSurfaces.fid-1007f30f_1a02c00cd1e_7dfc","geometry":{"type":"Polygon","coordinates":[[[146000,166141.96722981],[146090.599,166121.04600036],[146090.38299264,166125.31335776],[146089.464,166125.57100035],[146087.607,166125.97500036],[146068.60859885,166130.43517707],[146068.24002448,166128.7866993],[146054.76727729,166131.89589213],[146055.027,166133.437],[146053.055,166133.916],[146052.75715802,166132.35996788],[146023.46134488,166139.12348506],[146023.768,166140.71],[146021.803,166141.161],[146021.44262257,166139.58954699],[145999.41065632,166144.37099939],[145994.65489354,166145.48316417],[145985.20246392,166147.65742535],[145985.61571502,166149.4520577],[145983.6162564,166149.92103512],[145982.864748,166150.08910672],[145982.146,166148.66900036],[145981.105,166146.33700036],[145998.97902963,166142.20312846],[145999.35711404,166142.11568581],[146000,166141.96722981]]]},"geometry_name":"GEOM","properties":{"INSPIRE_ID":"https://databrussels.be/id/streetsurface/141598","TYPE":"SW","STREET_ID":"https://databrussels.be/id/streetname/1002","STRNAMEFRE":"Rue de la Soierie","STRNAMEDUT":"Zijdeweverijstraat","MUNNISCODE":"21007","HIERARCHY":"DR","LVL":0,"ADMIN":"MUN_RBC","AREA":321},"bbox":[145981.105,166121.04600036,146090.599,166150.08910672]},{"type":"Feature","id":"StreetSurfaces.fid-1007f30f_1a02c00cd1e_7dfe","geometry":{"type":"Polygon","coordinates":[[[146089.798,166136.88900036],[146001.55,166157.25000036],[145999.99972424,166157.60680221],[145988.676,166160.21300036],[145988.616,166160.05300036],[145988.36,166160.11500036],[145988.106,166160.18800036],[145987.857,166160.27300036],[145987.606,166160.37200036],[145985.72120726,166156.25082285],[145987.093,166155.93000036],[145987.495,166157.71000036],[146001.464,166154.48300036],[146023.62142299,166149.23769625],[146023.279,166147.502],[146025.251,166147.055],[146025.58554944,166148.79297735],[146040.35,166145.45000036],[146054.96092096,166142.02274694],[146054.4169593,166140.28836292],[146056.535,166139.848],[146056.74507265,166141.60424222],[146077.61,166136.71000036],[146089.367,166133.81400036],[146088.99235633,166132.13414612],[146089.551,166132.02200036],[146089.97148911,166131.93758801],[146089.798,166136.88900036]]]},"geometry_name":"GEOM","properties":{"INSPIRE_ID":"https://databrussels.be/id/streetsurface/141599","TYPE":"SW","STREET_ID":"https://databrussels.be/id/streetname/1002","STRNAMEFRE":"Rue de la Soierie","STRNAMEDUT":"Zijdeweverijstraat","MUNNISCODE":"21007","HIERARCHY":"DR","LVL":0,"ADMIN":"MUN_RBC","AREA":309},"bbox":[145985.72120726,166131.93758801,146089.97148911,166160.37200036]},{"type":"Feature","id":"StreetSurfaces.fid-1007f30f_1a02c00cd1e_7df6","geometry":{"type":"Polygon","coordinates":[[[145940.67,166113.41700036],[145934.31822703,166086.25097132],[145936.562,166085.96400035],[145947.10678236,166083.80204496],[145953.52289416,166084.5924005],[145954.55153715,166089.12032164],[145955.00817911,166091.1931548],[145955.56034113,166093.64751274],[145956.07623347,166095.97305222],[145956.15135307,166096.22518462],[145958.22518225,166105.53689984],[145958.93424155,166108.76321509],[145959.01428371,166109.11011939],[145955.636,166109.83800036],[145940.67,166113.41700036]]]},"geometry_name":"GEOM","properties":{"INSPIRE_ID":"https://databrussels.be/id/streetsurface/141671","TYPE":"SW","STREET_ID":"https://databrussels.be/id/streetname/3642","STRNAMEFRE":"Boulevard de la Deuxième Armée Britannique","STRNAMEDUT":"Brits Tweedelegerlaan","MUNNISCODE":"21007","HIERARCHY":"MAR","LVL":0,"ADMIN":"REGION_RBC","AREA":514},"bbox":[145934.31822703,166083.80204496,145959.01428371,166113.41700036]},{"type":"Feature","id":"StreetSurfaces.fid-1007f30f_1a02c00cd1e_7df9","geometry":{"type":"Polygon","coordinates":[[[145975.39831815,166145.53068301],[145974.15115716,166145.79632168],[145973.97541517,166145.34600631],[145973.79639279,166144.80182011],[145973.73068029,166144.51001563],[145973.68095921,166144.24661632],[145972.89854937,166140.78348205],[145972.69828154,166139.88031204],[145972.01124439,166136.93971634],[145971.39093528,166134.13058927],[145970.69853853,166131.18907297],[145969.4471513,166125.66409046],[145968.45082533,166121.2617145],[145967.27083879,166116.04138639],[145966.87617215,166114.25686831],[145965.86255324,166109.76881485],[145965.39772124,166107.73475159],[145969.945,166106.75500036],[145970.903,166111.06100036],[145973.368,166121.14100036],[145974.302,166125.19100036],[145974.516,166125.24700036],[145974.994,166125.19700036],[145975.22,166125.14000035],[145976.634,166130.99400036],[145977.457,166134.84600036],[145978.473,166140.99700036],[145978.309,166141.04000036],[145978.91,166144.73000036],[145975.39831815,166145.53068301]]]},"geometry_name":"GEOM","properties":{"INSPIRE_ID":"https://databrussels.be/id/streetsurface/141707","TYPE":"SW","STREET_ID":"https://databrussels.be/id/streetname/1227","STRNAMEFRE":"Rue de Hal","STRNAMEDUT":"Hallestraat","MUNNISCODE":"21007","HIERARCHY":"MAR","LVL":0,"ADMIN":"REGION_RBC","AREA":202},"bbox":[145965.39772124,166106.75500036,145978.91,166145.79632168]},{"type":"Feature","id":"StreetSurfaces.fid-1007f30f_1a02c00cd1e_7e02","geometry":{"type":"Polygon","coordinates":[[[145948.11,166154.11000036],[145951.33421166,166158.43800502],[145951.0308581,166158.50252761],[145949.16857788,166158.90524776],[145948.69329444,166157.03436771],[145947.19191995,166157.38468476],[145870.62600003,166175.14400029],[145858.33599894,166177.84100004],[145857.444,166177.27100071],[145857.089,166175.52800071],[145856.202,166175.72300072],[145855.672,166175.82400071],[145854.0841535,166175.89837164],[145857.14,166175.19000036],[145948.11,166154.11000036]]]},"geometry_name":"GEOM","properties":{"INSPIRE_ID":"https://databrussels.be/id/streetsurface/141839","TYPE":"SW","STREET_ID":"https://databrussels.be/id/streetname/1002","STRNAMEFRE":"Rue de la Soierie","STRNAMEDUT":"Zijdeweverijstraat","MUNNISCODE":"21007","HIERARCHY":"DR","LVL":0,"ADMIN":"MUN_RBC","AREA":285},"bbox":[145854.0841535,166154.11000036,145951.33421166,166177.84100004]},{"type":"Feature","id":"StreetSurfaces.fid-1007f30f_1a02c00cd1e_7e03","geometry":{"type":"Polygon","coordinates":[[[145977.64599313,166166.47276073],[145977.626,166166.17700036],[145977.646,166165.81700036],[145977.678,166165.28700036],[145977.699,166164.92900036],[145977.765,166164.53500036],[145977.863,166164.01000036],[145977.941,166163.74300036],[145978.237,166162.79400036],[145978.477,166162.21400036],[145978.71,166161.74200036],[145979.611,166160.11500036],[145979.96,166159.65500036],[145980.171,166159.40300036],[145980.504,166159.02200036],[145980.759,166158.76300036],[145981.276,166158.30300036],[145981.592,166158.04000036],[145981.949,166157.77300036],[145982.189,166157.61500036],[145982.447,166157.49500036],[145982.902,166157.26200036],[145983.291,166157.08300036],[145983.767,166156.86800036],[145984.19,166156.66600036],[145984.613,166156.51000036],[145985.72120726,166156.25082285],[145987.606,166160.37200036],[145987.36,166160.48200036],[145987.12,166160.60400036],[145986.613,166160.92000036],[145986.138,166161.28300036],[145985.699,166161.68900036],[145985.375,166162.04800036],[145985.079,166162.43000036],[145984.813,166162.83400036],[145984.58,166163.25700036],[145984.387,166163.70100036],[145984.229,166164.15800036],[145984.107,166164.62600036],[145984.023,166165.10300036],[145983.975,166165.61700035],[145983.97,166166.13300036],[145977.64599313,166166.47276073]]]},"geometry_name":"GEOM","properties":{"INSPIRE_ID":"https://databrussels.be/id/streetsurface/141840","TYPE":"SW","STREET_ID":"https://databrussels.be/id/streetname/1227","STRNAMEFRE":"Rue de Hal","STRNAMEDUT":"Hallestraat","MUNNISCODE":"21007","HIERARCHY":"MAR","LVL":0,"ADMIN":"REGION_RBC","AREA":60},"bbox":[145977.626,166156.25082285,145987.606,166166.47276073]},{"type":"Feature","id":"StreetSurfaces.fid-1007f30f_1a02c00cd1e_7e10","geometry":{"type":"Polygon","coordinates":[[[145790.875,165880.91800036],[145792.32622916,165877.16124202],[145793.18752949,165877.28813621],[145794.05095393,165877.46296592],[145795.65375791,165877.77695509],[145796.7744676,165878.07347726],[145797.33359419,165878.26366347],[145799.59817285,165878.93154395],[145801.51824408,165879.51560956],[145803.73580575,165880.20138295],[145805.70524282,165880.85661578],[145807.7752688,165881.54195614],[145809.8636442,165882.27286277],[145811.78028247,165882.98142734],[145813.79343148,165883.7617096],[145816.44370939,165884.84598148],[145817.667637,165885.37359578],[145818.76631719,165885.88897218],[145819.98601412,165886.4814503],[145820.49373459,165886.7474752],[145820.18668488,165887.38965793],[145819.65047046,165888.41994211],[145820.44419114,165888.86059775],[145821.61330871,165889.47345381],[145822.70242547,165890.04799341],[145824.15340213,165890.83796678],[145825.43356649,165891.52637899],[145826.67503805,165892.1800011],[145828.19029695,165893.0620837],[145829.20230577,165893.64948279],[145831.08882179,165894.72843802],[145832.55833133,165895.60634056],[145833.83673358,165896.4155539],[145835.62627906,165897.55268455],[145836.26556517,165897.9666651],[145838.11756773,165899.18067846],[145839.80186418,165900.30780665],[145841.7160428,165901.60713468],[145843.28766884,165902.69809414],[145844.77167494,165903.72613491],[145846.15697298,165904.72621484],[145847.69684149,165905.84321211],[145848.68106179,165906.56991999],[145849.79212692,165907.39855376],[145851.2903175,165908.5025277],[145851.57549043,165908.71559842],[145852.22435764,165909.21409854],[145852.76928587,165909.63096232],[145854.43627859,165910.92796135],[145854.97285209,165911.34971896],[145856.10900401,165912.28416094],[145856.5206799,165912.56874316],[145857.13480029,165913.0774603],[145857.4859473,165913.4061484],[145858.39116948,165914.16749154],[145859.64541004,165915.23136101],[145860.53955598,165915.99955464],[145861.9013568,165917.20485609],[145863.30483036,165918.43444374],[145864.30426749,165919.33484073],[145865.7645389,165920.6892376],[145866.58000411,165921.47944387],[145867.83341608,165922.67820963],[145869.01703974,165923.84366282],[145870.55113479,165925.33608776],[145871.5903977,165926.37874108],[145872.07562603,165926.86350019],[145873.3858457,165928.22225946],[145874.79765345,165929.71532024],[145875.70774357,165930.71675119],[145877.38985634,165932.58677197],[145878.63560816,165934.00771937],[145879.7986871,165935.3315557],[145881.7919112,165937.59169577],[145882.5346448,165938.48422212],[145884.31818541,165940.61338688],[145885.23186224,165941.70452555],[145886.59823577,165943.34654928],[145887.39458882,165944.32014493],[145888.39038425,165945.56405744],[145889.14747776,165946.52675919],[145889.89674043,165947.49550226],[145891.13605322,165949.11623203],[145892.25977168,165950.58027985],[145893.32680478,165952.0155443],[145894.36484483,165953.44511377],[145895.67937904,165955.23721749],[145897.0442133,165957.11398008],[145897.95148911,165958.36793765],[145899.20838872,165960.10717654],[145899.7841762,165960.94598543],[145901.00094774,165962.67347684],[145901.36007706,165963.18344028],[145902.00733846,165964.11344553],[145903.13190979,165965.77730701],[145903.76513743,165966.70898622],[145904.49282454,165967.82614711],[145905.17390232,165968.85551746],[145906.69370409,165971.14763216],[145907.55370932,165972.47715306],[145908.71888977,165974.25189671],[145910.43472135,165976.96155728],[145912.10905986,165979.66056621],[145912.47909196,165980.27139463],[145913.58082974,165982.10401723],[145914.62544542,165983.83756387],[145915.65417172,165985.55703094],[145916.63491352,165987.23940087],[145917.58770683,165988.89505392],[145918.70657178,165990.82557125],[145919.66513604,165992.5729264],[145920.63901541,165994.38412898],[145921.11798059,165995.29269588],[145922.02962422,165997.03759638],[145922.94980625,165998.84506845],[145923.87383184,166000.6663882],[145925.67767134,165999.84157356],[145926.13971937,166000.81527187],[145926.95231449,166002.55407249],[145927.79190354,166004.31788978],[145928.43875448,166005.71368019],[145929.08859448,166007.14875419],[145930.03228909,166009.25253642],[145930.876622,166011.1461949],[145931.68488989,166012.95305213],[145932.60332742,166015.06162316],[145933.61202491,166017.42118518],[145934.27327319,166018.99528116],[145935.60930529,166022.22891223],[145936.1238233,166023.51263451],[145934.26361182,166024.23259112],[145934.76438185,166025.48287932],[145935.96691962,166028.69077097],[145936.75780685,166030.86775167],[145937.42916674,166032.69552596],[145937.70725557,166033.48140805],[145938.12592572,166034.69858952],[145938.57856399,166035.96005578],[145939.08916367,166037.43938486],[145939.59683619,166038.90560337],[145940.3066311,166041.08793957],[145941.04104391,166043.38563131],[145941.35966475,166044.4867294],[145941.99237526,166046.53482183],[145942.80020179,166049.34359344],[145943.06755295,166050.26014437],[145943.7238609,166052.52031492],[145943.98934463,166053.48897182],[145944.77349805,166056.23487881],[145945.49919214,166059.02733689],[145945.71792253,166059.85631598],[145947.08725056,166065.22741053],[145947.47675114,166066.83457329],[145949.43809156,166066.4234207],[145949.94635024,166068.55518504],[145950.97027963,166073.25873316],[145951.95156735,166077.58579566],[145952.21097287,166078.68640997],[145952.71048756,166081.00630496],[145953.52289416,166084.5924005],[145947.10678236,166083.80204496],[145944.457,166072.17000036],[145943.686,166068.85500035],[145943.252,166066.90900036],[145942.277,166063.02300036],[145941.286,166059.16100036],[145940.238,166055.33300036],[145937.421,166045.71600036],[145935.586,166039.93800036],[145933.586,166034.27200036],[145930.828,166026.75600036],[145930.104,166024.89400036],[145927.757,166019.26000036],[145923.425,166009.41500036],[145921.524,166005.30400036],[145920.306,166002.80000036],[145919.374,166000.96100036],[145917.572,165997.46800036],[145915.777,165994.12500036],[145913.71,165990.45800036],[145911.109,165986.03700036],[145908.855,165982.31800036],[145906.926,165979.18800036],[145904.913,165976.03700036],[145902.593,165972.47700036],[145899.375,165967.62000036],[145893.09,165958.62500036],[145887.517,165951.24400036],[145883.784,165946.45600036],[145875.858,165937.08800036],[145872.035,165932.86400036],[145869.406,165930.02500036],[145867.572,165928.23100036],[145867.6498456,165927.80284954],[145864.205,165924.43800036],[145862.429,165922.79400036],[145858.822,165919.55700036],[145855.189,165916.38200036],[145853.32,165914.84300036],[145849.507,165911.88100036],[145847.573,165910.40200036],[145845.619,165908.95200036],[145841.675,165906.10700036],[145839.771,165904.78700036],[145837.668,165903.38500036],[145833.634,165900.73600036],[145831.571,165899.45700036],[145829.506,165898.20600036],[145825.299,165895.78900036],[145821.05,165893.49600036],[145819.523,165892.57900036],[145816.774,165891.25600036],[145812.422,165889.15900036],[145810.255,165888.13300036],[145805.805,165886.16600036],[145803.588,165885.22700036],[145801.332,165884.31800036],[145796.796,165882.56600036],[145794.529,165881.73500036],[145792.222,165881.06400036],[145790.875,165880.91800036]]]},"geometry_name":"GEOM","properties":{"INSPIRE_ID":"https://databrussels.be/id/streetsurface/141982","TYPE":"SW","STREET_ID":"https://databrussels.be/id/streetname/3642","STRNAMEFRE":"Boulevard de la Deuxième Armée Britannique","STRNAMEDUT":"Brits Tweedelegerlaan","MUNNISCODE":"21007","HIERARCHY":"MAR","LVL":0,"ADMIN":"REGION_RBC","AREA":1211},"bbox":[145790.875,165877.16124202,145953.52289416,166084.5924005]},{"type":"Feature","id":"StreetSurfaces.fid-1007f30f_1a02c00cd1e_7dff","geometry":{"type":"Polygon","coordinates":[[[145978.91,166144.73000036],[145980.008,166145.53400036],[145981.105,166146.33700036],[145982.146,166148.66900036],[145982.864748,166150.08910672],[145982.63409033,166150.14069231],[145981.80143534,166150.24783591],[145981.33987799,166150.2912593],[145980.73545434,166150.29004573],[145980.13210741,166150.21654459],[145979.27765667,166150.05335437],[145978.85909874,166149.9501652],[145978.37089076,166149.79757928],[145977.8551626,166149.59106689],[145977.58723391,166149.43357647],[145977.3790257,166149.3397851],[145976.87815831,166149.04524549],[145976.48009969,166148.75410262],[145976.05540354,166148.39823029],[145975.73954053,166148.0907025],[145975.44391064,166147.77066732],[145975.28215535,166147.59007439],[145975.07516304,166147.36664216],[145974.73589721,166146.89405481],[145974.55296832,166146.61893301],[145974.15115716,166145.79632168],[145975.39831815,166145.53068301],[145978.91,166144.73000036]]]},"geometry_name":"GEOM","properties":{"INSPIRE_ID":"https://databrussels.be/id/streetsurface/141990","TYPE":"SW","STREET_ID":"https://databrussels.be/id/streetname/1227","STRNAMEFRE":"Rue de Hal","STRNAMEDUT":"Hallestraat","MUNNISCODE":"21007","HIERARCHY":"MAR","LVL":0,"ADMIN":"REGION_RBC","AREA":29},"bbox":[145974.15115716,166144.73000036,145982.864748,166150.2912593]},{"type":"Feature","id":"StreetSurfaces.fid-1007f30f_1a02c00cd1e_7e05","geometry":{"type":"Polygon","coordinates":[[[145957.986,166167.36700036],[145957.83969861,166167.1706134],[145958.30353951,166166.31113732],[145958.53678628,166165.95999711],[145958.78978566,166165.62281048],[145959.06170495,166165.30068721],[145959.26719031,166165.08023896],[145959.48154231,166164.86840203],[145959.70440039,166164.66553277],[145960.28790726,166164.20707623],[145960.54723238,166164.02879947],[145960.91785581,166163.84455923],[145961.17906565,166163.70435013],[145961.84925553,166163.45572545],[145962.09418454,166163.37899979],[145962.69243583,166163.21293061],[145963.0934763,166163.10090005],[145963.72001628,166162.994496],[145963.85947495,166162.98496058],[145963.99922493,166162.98186443],[145964.13896906,166162.98521412],[145964.28540892,166162.99566449],[145964.43117105,166163.01319279],[145964.57591357,166163.03775792],[145964.9184499,166163.13900633],[145966.5082734,166163.6522098],[145966.98550501,166163.87443822],[145967.389526,166164.10030194],[145967.65734358,166164.26694668],[145967.91943741,166164.44245611],[145968.17551417,166164.6266338],[145968.4257553,166164.81964728],[145968.66938774,166165.02093827],[145968.90613781,166165.23028064],[145969.25770683,166165.58583515],[145969.6303502,166165.9800607],[145969.9390563,166166.36146845],[145970.2105861,166166.85987494],[145957.986,166167.36700036]]]},"geometry_name":"GEOM","properties":{"INSPIRE_ID":"https://databrussels.be/id/streetsurface/142009","TYPE":"SW","STREET_ID":"https://databrussels.be/id/streetname/1227","STRNAMEFRE":"Rue de Hal","STRNAMEDUT":"Hallestraat","MUNNISCODE":"21007","HIERARCHY":"MAR","LVL":0,"ADMIN":"REGION_RBC","AREA":36},"bbox":[145957.83969861,166162.98186443,145970.2105861,166167.36700036]},{"type":"Feature","id":"StreetSurfaces.fid-1007f30f_1a02c00cd1e_7e12","geometry":{"type":"Polygon","coordinates":[[[145797.991,165862.49700036],[145799.26,165863.18200036],[145802.277,165864.75000036],[145804.774,165865.92100036],[145812.408,165869.03700036],[145815.589,165870.33000036],[145819.991,165872.31600036],[145825.415,165874.96400036],[145833.447,165879.27600036],[145840.539,165883.25500036],[145845.98,165886.82900036],[145848.926,165888.82100035],[145857.423,165894.82600036],[145864.314,165900.07000036],[145867.305,165902.53300036],[145873.454,165907.86300036],[145876.362,165910.59600036],[145879.245,165913.35400036],[145882.096,165916.16900036],[145884.851,165919.04700036],[145890.184,165924.99500036],[145894.65,165930.12800036],[145899.201,165935.71600036],[145906.519,165945.22500035],[145912.326,165953.27900036],[145916.884,165959.94200036],[145922.466,165968.63100036],[145924.405,165971.71200036],[145929.024,165979.42300036],[145931.585,165983.94700036],[145936.523,165993.28600036],[145938.183,165996.62000036],[145942.38,166005.85300036],[145944.926,166011.66200036],[145947.613,166018.09800036],[145951.183,166027.69600036],[145954.893,166038.65600036],[145956.33599668,166043.69400131],[145956.39058495,166043.88458785],[145957.00643521,166046.03487571],[145957.345,166047.21700036],[145957.061,166047.39500036],[145957.09328201,166047.51911585],[145959.109,166055.26900036],[145960.031,166058.35800036],[145960.553,166060.28100036],[145962.375,166068.37000036],[145962.755,166069.98900036],[145964.984,166080.02000036],[145965.346,166081.63400035],[145966.28,166086.16400036],[145960.41530504,166085.44150468],[145959.09219347,166079.60972076],[145960.96943395,166079.18735454],[145960.29970332,166076.03250068],[145958.73659227,166068.94492837],[145958.19663926,166066.47282032],[145957.69379337,166064.38712179],[145956.52133027,166059.78261782],[145955.65497503,166056.48381615],[145954.91877132,166053.69367738],[145954.2012608,166051.02116422],[145953.90007676,166049.91433405],[145953.3721419,166048.02435856],[145952.52808704,166045.04796138],[145952.03586776,166043.44732849],[145951.40510008,166041.40898295],[145950.9117368,166039.84325892],[145950.03816472,166037.16656436],[145949.26531867,166034.84084831],[145948.98109421,166033.95980252],[145946.90923233,166027.96729083],[145946.25623068,166026.13978522],[145945.35277857,166023.73082665],[145944.02213648,166020.35316771],[145943.24994933,166018.38123515],[145942.97027941,166017.72511011],[145942.25219054,166015.95789371],[145941.28326919,166013.66413563],[145940.25804541,166011.29422793],[145939.18114182,166008.81603576],[145938.15259215,166006.49120386],[145937.03109664,166004.05618461],[145936.24094268,166002.29493405],[145934.90568447,165999.42698062],[145934.29680644,165998.15363814],[145933.3698836,165996.23450147],[145932.37056761,165994.23836957],[145930.85614015,165991.23676186],[145929.81891815,165989.25845507],[145927.28843058,165984.61996399],[145925.73845773,165981.85175478],[145924.70455862,165980.12857362],[145923.90852658,165978.76376437],[145922.66232206,165976.76637951],[145921.53612117,165974.94095589],[145919.71756114,165972.09538705],[145918.13690502,165969.59434959],[145915.50822833,165965.49816925],[145914.69850309,165964.212691],[145913.71479984,165962.71472236],[145912.86837919,165961.41083018],[145912.39997822,165960.73677785],[145911.11081213,165958.80824197],[145910.02151072,165957.24527],[145909.633815,165956.66471357],[145908.41249743,165954.93138489],[145905.96291304,165951.51862974],[145903.48724535,165948.0912995],[145902.44905155,165946.6870912],[145900.81899015,165944.51099172],[145899.40163154,165942.64865248],[145897.81761601,165940.58615752],[145896.39970055,165938.83193],[145895.15639148,165937.25569047],[145894.64347666,165936.620574],[145893.29802832,165934.96004671],[145891.96628714,165933.37853817],[145889.966882,165931.01099089],[145888.38337681,165929.18359261],[145884.92679743,165925.27411599],[145882.00878471,165922.07843676],[145879.53110158,165919.48027118],[145878.00041307,165917.89269962],[145876.51192226,165916.38829592],[145875.41338635,165915.29992523],[145873.31647842,165913.28524647],[145871.17471804,165911.34301477],[145868.537209,165908.97635217],[145866.22678651,165907.00770294],[145864.77793254,165905.79722468],[145864.17502457,165905.29608817],[145862.45398993,165903.92612532],[145861.5338954,165903.17239888],[145861.02004181,165902.72894095],[145859.35834732,165901.41762226],[145857.84844186,165900.2662461],[145855.83361223,165898.76204989],[145854.08983506,165897.47899269],[145850.9565278,165895.23451883],[145848.67870222,165893.64546523],[145847.35073303,165892.72571327],[145845.14231137,165891.22751205],[145843.97463144,165890.44725129],[145841.36953074,165888.7406611],[145839.57239339,165887.61150041],[145838.08436623,165886.69906184],[145836.6884753,165885.85777783],[145835.46907154,165885.13950037],[145834.61245747,165884.64084015],[145833.53289208,165884.04010468],[145832.35639805,165883.38024506],[145830.80711648,165882.49975883],[145829.27556418,165881.65438495],[145827.56233072,165880.73157724],[145826.1178088,165879.95551309],[145824.57481174,165879.19090635],[145823.68347088,165880.93622061],[145822.73502233,165880.39608617],[145820.18203056,165879.02678739],[145816.42444209,165877.02751262],[145812.69977489,165875.04046391],[145808.90173025,165873.03140157],[145805.40538908,165871.14472274],[145800.63658243,165868.59681248],[145796.92914524,165866.64485824],[145796.48805797,165866.38762643],[145797.991,165862.49700036]]]},"geometry_name":"GEOM","properties":{"INSPIRE_ID":"https://databrussels.be/id/streetsurface/142178","TYPE":"SW","STREET_ID":"https://databrussels.be/id/streetname/3642","STRNAMEFRE":"Boulevard de la Deuxième Armée Britannique","STRNAMEDUT":"Brits Tweedelegerlaan","MUNNISCODE":"21007","HIERARCHY":"MAR","LVL":0,"ADMIN":"REGION_RBC","AREA":1221},"bbox":[145796.48805797,165862.49700036,145966.28,166086.16400036]},{"type":"Feature","id":"StreetSurfaces.fid-1007f30f_1a02c00cd1e_7df2","geometry":{"type":"Polygon","coordinates":[[[145606.44800115,166297.72894016],[145600.9426625,166297.52064036],[145588.347085,166296.99504036],[145583.36892,166296.72896036],[145579.379075,166296.46496036],[145577.915055,166296.28304036],[145578.39963,166291.62560036],[145581.76,166291.90000036],[145592.728,166292.49600036],[145603.708,166292.79300035],[145606.541,166292.87000036],[145606.49,166295.52000036],[145606.44800115,166297.72894016]]]},"geometry_name":"GEOM","properties":{"INSPIRE_ID":"https://databrussels.be/id/streetsurface/143518","TYPE":"SW","STREET_ID":"https://databrussels.be/id/streetname/1002","STRNAMEFRE":"Rue de la Soierie","STRNAMEDUT":"Zijdeweverijstraat","MUNNISCODE":"21007","HIERARCHY":"DR","LVL":0,"ADMIN":"MUN_RBC","AREA":135},"bbox":[145577.915055,166291.62560036,145606.541,166297.72894016]},{"type":"Feature","id":"StreetSurfaces.fid-1007f30f_1a02c00cd1e_7e0b","geometry":{"type":"Polygon","coordinates":[[[145983.48763475,166241.39715904],[145975.599,166243.24900036],[145969.208,166215.71400036],[145977.83490303,166213.62184723],[145980.055531,166224.54514792],[145980.47553255,166226.63882224],[145982.33166877,166235.75814157],[145983.32637488,166240.61744594],[145983.48763475,166241.39715904]]]},"geometry_name":"GEOM","properties":{"INSPIRE_ID":"https://databrussels.be/id/streetsurface/143551","TYPE":"SW","STREET_ID":"https://databrussels.be/id/streetname/1227","STRNAMEFRE":"Rue de Hal","STRNAMEDUT":"Hallestraat","MUNNISCODE":"21007","HIERARCHY":"MAR","LVL":0,"ADMIN":"REGION_RBC","AREA":240},"bbox":[145969.208,166213.62184723,145983.48763475,166243.24900036]},{"type":"Feature","id":"StreetSurfaces.fid-1007f30f_1a02c00cd1e_7e0d","geometry":{"type":"Polygon","coordinates":[[[146025.882,166345.72400036],[146020.04183477,166347.28753917],[146019.629,166345.67500036],[146017.921,166339.23300036],[146015.913,166331.68400035],[146015.01,166328.26600036],[146014.325,166325.47900036],[146013.84,166323.41300036],[146011.979,166315.44000036],[146011.491,166313.37300036],[146011.336,166312.69600036],[146010.233,166308.00700036],[146009.426,166304.51100036],[146008.955,166302.42900036],[146006.217,166290.70200036],[146005.747,166288.66900036],[146004.354,166282.70800036],[146003.332,166278.34900036],[146002.844,166276.28000036],[146002.568,166274.98100036],[146001.607,166270.91400036],[146001.121,166268.84800036],[146000.388,166265.66500036],[145998.572,166257.88700036],[145998.074,166255.79700036],[145997.651,166253.95300036],[145996.622,166249.47400036],[145996.152,166247.40600036],[145994.367,166239.00100036],[145994.33679665,166238.87608075],[146000.7,166237.41000036],[146001.581,166241.52400036],[146002.331,166244.91200036],[146002.533,166245.98300035],[146003.265,166248.91400036],[146004.325,166253.69600036],[146005.656,166259.39700036],[146006.298,166262.29100036],[146009.163,166274.27500036],[146010.789,166281.48800036],[146014.578,166297.85200036],[146015.35503392,166301.1420326],[146015.72640071,166302.71443336],[146016.778,166307.16700036],[146017.64,166310.99900036],[146021.761,166328.63500036],[146025.882,166345.72400036]]]},"geometry_name":"GEOM","properties":{"INSPIRE_ID":"https://databrussels.be/id/streetsurface/143552","TYPE":"SW","STREET_ID":"https://databrussels.be/id/streetname/1227","STRNAMEFRE":"Rue de Hal","STRNAMEDUT":"Hallestraat","MUNNISCODE":"21007","HIERARCHY":"MAR","LVL":0,"ADMIN":"REGION_RBC","AREA":723},"bbox":[145994.33679665,166237.41000036,146025.882,166347.28753917]},{"type":"Feature","id":"StreetSurfaces.fid-1007f30f_1a02c00cd1e_7df1","geometry":{"type":"Polygon","coordinates":[[[145467.645866,166283.89562744],[145467.886,166283.35504036],[145467.96197,166282.88496036],[145468.153315,166282.43712036],[145468.396135,166282.01472035],[145468.6870575,166281.62400036],[145468.915145,166281.37392036],[145469.1631125,166281.14352036],[145469.514385,166280.87376036],[145469.59994,166280.80800036],[145470.0342825,166280.54368036],[145470.493475,166280.32592036],[145470.97308,166280.15696036],[145471.7734275,166279.99232036],[145472.5899275,166279.96336036],[145473.4000375,166280.07104036],[145476.1200475,166280.92608036],[145475.645945,166282.64608036],[145478.538485,166283.51424036],[145496.26896,166288.83600036],[145502.0439225,166290.37600036],[145502.52406,166288.66000036],[145504.4369775,166289.22304035],[145504.0290825,166290.89296036],[145509.761445,166292.31648036],[145515.50925,166293.67584036],[145524.1881125,166295.60080036],[145530.0310575,166296.81104036],[145530.4389525,166295.08000036],[145532.4052975,166295.50208036],[145532.7500025,166295.57600036],[145541.337985,166298.92304036],[145550.3299575,166300.25104036],[145556.8782875,166301.14368036],[145563.4376225,166301.95040036],[145570.007075,166302.67104036],[145576.5534525,166303.21616036],[145589.6650225,166304.04992036],[145593.81657,166304.24256036],[145597.969715,166304.40096036],[145602.123925,166304.52496036],[145605.4820475,166304.59504036],[145606.13834535,166304.01431516],[145605.46,166307.81000036],[145570.35,166306.06000036],[145544.2,166302.52000036],[145517.91,166297.62000036],[145495.82,166292.04000036],[145469.66,166284.53000036],[145467.645866,166283.89562744]]]},"geometry_name":"GEOM","properties":{"INSPIRE_ID":"https://databrussels.be/id/streetsurface/143638","TYPE":"SW","STREET_ID":"https://databrussels.be/id/streetname/1002","STRNAMEFRE":"Rue de la Soierie","STRNAMEDUT":"Zijdeweverijstraat","MUNNISCODE":"21007","HIERARCHY":"DR","LVL":0,"ADMIN":"MUN_RBC","AREA":469},"bbox":[145467.645866,166279.96336036,145606.13834535,166307.81000036]},{"type":"Feature","id":"StreetSurfaces.fid-1007f30f_1a02c00cd1e_7e0f","geometry":{"type":"Polygon","coordinates":[[[145983.48763475,166241.39715904],[145984.92582672,166248.35101056],[145985.56447754,166251.13500658],[145988.16733606,166250.53170843],[145988.49664278,166252.16107601],[145989.10706418,166254.75817848],[145990.17988032,166259.19730548],[145991.0603921,166263.07579014],[145988.52579733,166263.65619113],[145990.37000586,166271.60031782],[145992.00795435,166278.63341195],[145992.47209781,166280.71686792],[145993.03539647,166283.2272868],[145997.54223702,166302.53773732],[145998.17784605,166305.15372501],[145998.6590298,166307.24716849],[146000.05822553,166313.26365755],[146001.03743484,166317.40439699],[146002.48426256,166323.58383265],[146004.13983828,166330.53166302],[146006.67792614,166329.91437394],[146007.85343076,166334.38124833],[146009.54801623,166340.74404233],[146011.24971945,166347.21976219],[146011.84007493,166349.45167992],[146005.002,166351.16100036],[146004.39,166348.85000036],[145999.972,166332.32600036],[145997.527,166322.30000036],[145997.829,166322.22800036],[145992.596,166299.82300036],[145988.931,166300.70000036],[145988.886,166300.49500036],[145988.088,166297.03900036],[145987.915,166296.99400036],[145980.643,166265.23100036],[145980.707,166265.05000036],[145978.967,166257.56100036],[145978.031,166253.72800036],[145975.599,166243.24900036],[145983.48763475,166241.39715904]]]},"geometry_name":"GEOM","properties":{"INSPIRE_ID":"https://databrussels.be/id/streetsurface/143700","TYPE":"SW","STREET_ID":"https://databrussels.be/id/streetname/1227","STRNAMEFRE":"Rue de Hal","STRNAMEDUT":"Hallestraat","MUNNISCODE":"21007","HIERARCHY":"MAR","LVL":0,"ADMIN":"REGION_RBC","AREA":790},"bbox":[145975.599,166241.39715904,146011.84007493,166351.16100036]},{"type":"Feature","id":"StreetSurfaces.fid-1007f30f_1a02c00cd1e_7df0","geometry":{"type":"Polygon","coordinates":[[[145401.9543097,166251.37614441],[145402.805,166248.52000036],[145469.57,166268.40000036],[145507.38,166279.40000036],[145538.17,166286.54000035],[145548.5679915,166288.25237371],[145548.0029325,166292.90304036],[145546.352005,166292.69696036],[145545.73821,166292.64544036],[145545.1292075,166292.55264036],[145544.528015,166292.41904036],[145544.0155725,166292.27072036],[145543.512715,166292.09296036],[145543.02104,166291.88608036],[145532.8799325,166288.54000036],[145519.6700275,166285.65104036],[145517.22532,166285.06560036],[145512.33697,166283.89008036],[145507.77735,166282.78736036],[145505.4980725,166282.23408035],[145504.089965,166281.86736036],[145501.279075,166281.11504035],[145500.0683475,166280.78240036],[145497.650975,166280.10304036],[145483.65581,166275.90240036],[145477.5293975,166274.06352036],[145468.3895675,166271.32032036],[145457.252685,166267.97760036],[145445.22493,166264.36752036],[145436.115985,166261.63344036],[145431.35863,166260.20560036],[145424.12941,166258.03568036],[145418.37557,166256.30864036],[145412.6002525,166254.57520036],[145402.4909175,166251.54096036],[145401.9543097,166251.37614441]]]},"geometry_name":"GEOM","properties":{"INSPIRE_ID":"https://databrussels.be/id/streetsurface/143846","TYPE":"SW","STREET_ID":"https://databrussels.be/id/streetname/1002","STRNAMEFRE":"Rue de la Soierie","STRNAMEDUT":"Zijdeweverijstraat","MUNNISCODE":"21007","HIERARCHY":"DR","LVL":0,"ADMIN":"MUN_RBC","AREA":492},"bbox":[145401.9543097,166248.52000036,145548.5679915,166292.90304036]},{"type":"Feature","id":"StreetSurfaces.fid-1007f30f_1a02c00cd1e_7e19","geometry":{"type":"Polygon","coordinates":[[[145999.99951369,166095.35142532],[145985.641,166098.06800036],[145977.171,166099.82100036],[145975.679,166100.04300036],[145974.018,166100.40000036],[145972.48569485,166097.65893355],[146062.6545752,166080.33700601],[146075.92884859,166077.77049602],[146075.55390293,166075.85086909],[146077.27568819,166075.52155912],[146078.54,166080.51600036],[146039.74019165,166087.84617041],[145999.99951369,166095.35142532]]]},"geometry_name":"GEOM","properties":{"INSPIRE_ID":"https://databrussels.be/id/streetsurface/144857","TYPE":"SW","STREET_ID":"https://databrussels.be/id/streetname/2157","STRNAMEFRE":"Rue du Katanga","STRNAMEDUT":"Katangastraat","MUNNISCODE":"21007","HIERARCHY":"IDR","LVL":0,"ADMIN":"MUN_RBC","AREA":326},"bbox":[145972.48569485,166075.52155912,146078.54,166100.40000036]},{"type":"Feature","id":"StreetSurfaces.fid-1007f30f_1a02c00cd1e_7e17","geometry":{"type":"Polygon","coordinates":[[[146008.54674826,166081.42302165],[145992.58545338,166084.42129283],[145990.61710737,166084.7987379],[145980.13859464,166086.76981652],[145978.17793658,166087.13894215],[145967.83237266,166089.09998319],[145966.28,166086.16400036],[145970.196,166085.38200036],[145974.107,166084.78900036],[145989.37,166081.94000036],[145995.244,166080.81200036],[146001.135,166079.77900036],[146048.382,166070.88800035],[146060.271,166068.63400036],[146060.301,166068.70000036],[146074.836,166065.88400036],[146076.06184617,166070.72648988],[146074.61374232,166071.00189727],[146074.2353706,166069.04247582],[146060.97420458,166071.54112362],[146059.02569661,166071.91075466],[146044.18522708,166074.72064483],[146042.24232382,166075.10222189],[146026.29102436,166078.09080226],[146024.32452717,166078.45509996],[146010.50541071,166081.04927148],[146008.54674826,166081.42302165]]]},"geometry_name":"GEOM","properties":{"INSPIRE_ID":"https://databrussels.be/id/streetsurface/144858","TYPE":"SW","STREET_ID":"https://databrussels.be/id/streetname/2157","STRNAMEFRE":"Rue du Katanga","STRNAMEDUT":"Katangastraat","MUNNISCODE":"21007","HIERARCHY":"IDR","LVL":0,"ADMIN":"MUN_RBC","AREA":334},"bbox":[145966.28,166065.88400036,146076.06184617,166089.09998319]},{"type":"Feature","id":"StreetSurfaces.fid-1007f30f_1a02c00cd1e_7df8","geometry":{"type":"Polygon","coordinates":[[[145968.135,166096.90700036],[145969.33,166096.58900035],[145969.75,166096.51000036],[145971.64319608,166096.15182813],[145974.018,166100.40000036],[145971.981,166103.57800036],[145969.945,166106.75500036],[145966.29321696,166107.54180916],[145966.24,166107.33000036],[145965.26,166103.39000036],[145965.155,166103.01000036],[145964.961,166101.78900036],[145965.069,166100.55600036],[145965.472,166099.38600036],[145966.146,166098.34900036],[145967.052,166097.50600036],[145968.135,166096.90700036]]]},"geometry_name":"GEOM","properties":{"INSPIRE_ID":"https://databrussels.be/id/streetsurface/149759","TYPE":"SW","STREET_ID":"https://databrussels.be/id/streetname/3642","STRNAMEFRE":"Boulevard de la Deuxième Armée Britannique","STRNAMEDUT":"Brits Tweedelegerlaan","MUNNISCODE":"21007","HIERARCHY":"MAR","LVL":0,"ADMIN":"REGION_RBC","AREA":69},"bbox":[145964.961,166096.15182813,145974.018,166107.54180916]},{"type":"Feature","id":"StreetSurfaces.fid-1007f30f_1a02c00cd1e_7e16","geometry":{"type":"Polygon","coordinates":[[[145967.83237266,166089.09998319],[145961.49524301,166090.30121026],[145961.37471296,166089.77730572],[145960.73080136,166086.83209521],[145960.41530504,166085.44150468],[145966.28,166086.16400036],[145967.83237266,166089.09998319]]]},"geometry_name":"GEOM","properties":{"INSPIRE_ID":"https://databrussels.be/id/streetsurface/149760","TYPE":"SW","STREET_ID":"https://databrussels.be/id/streetname/3642","STRNAMEFRE":"Boulevard de la Deuxième Armée Britannique","STRNAMEDUT":"Brits Tweedelegerlaan","MUNNISCODE":"21007","HIERARCHY":"MAR","LVL":0,"ADMIN":"REGION_RBC","AREA":24},"bbox":[145960.41530504,166085.44150468,145967.83237266,166090.30121026]},{"type":"Feature","id":"StreetSurfaces.fid-1007f30f_1a02c00cd1e_7dfa","geometry":{"type":"Polygon","coordinates":[[[145965.39772124,166107.73475159],[145965.86255324,166109.76881485],[145966.87617215,166114.25686831],[145967.27083879,166116.04138639],[145968.45082533,166121.2617145],[145969.4471513,166125.66409046],[145970.69853853,166131.18907297],[145971.39093528,166134.13058927],[145972.01124439,166136.93971634],[145972.69828154,166139.88031204],[145972.89854937,166140.78348205],[145973.68095921,166144.24661632],[145973.73068029,166144.51001563],[145973.79639279,166144.80182011],[145973.97541517,166145.34600631],[145974.15115716,166145.79632168],[145964.30110691,166148.06090781],[145964.43271948,166147.65047012],[145964.61434744,166147.01063824],[145964.76267276,166146.26442934],[145964.63633257,166146.21086843],[145964.74138434,166145.59873063],[145964.81539062,166144.91534309],[145964.88341132,166144.13022532],[145964.93249968,166143.1592103],[145965.09935838,166143.1698715],[145965.14909163,166141.88540728],[145965.16311069,166141.10684497],[145965.1634622,166140.04495286],[145965.14963165,166139.25344828],[145965.10287542,166138.20143636],[145965.08137319,166137.71787097],[145965.03230541,166137.07624447],[145964.97088169,166136.43568275],[145964.89712483,166135.79642371],[145964.83569115,166135.33202167],[145964.76774829,166134.86852721],[145964.6933096,166134.40603155],[145964.54955304,166133.58662554],[145964.26832535,166132.25661272],[145963.68526342,166129.68487691],[145962.89795257,166126.15730808],[145961.60034568,166120.39563122],[145961.44775914,166119.69081534],[145960.70039017,166116.40804246],[145959.56975192,166111.51752948],[145959.01428371,166109.11011939],[145965.39772124,166107.73475159]]]},"geometry_name":"GEOM","properties":{"INSPIRE_ID":"https://databrussels.be/id/streetsurface/22865","TYPE":"S","STREET_ID":"https://databrussels.be/id/streetname/1227","STRNAMEFRE":"Rue de Hal","STRNAMEDUT":"Hallestraat","MUNNISCODE":"21007","HIERARCHY":"MAR","LVL":0,"ADMIN":"REGION_RBC","AREA":272},"bbox":[145959.01428371,166107.73475159,145974.15115716,166148.06090781]},{"type":"Feature","id":"StreetSurfaces.fid-1007f30f_1a02c00cd1e_7e04","geometry":{"type":"Polygon","coordinates":[[[145851.959,166176.39100036],[145854.0841535,166175.89837164],[145855.672,166175.82400071],[145856.202,166175.72300072],[145857.089,166175.52800071],[145857.444,166177.27100071],[145858.33599894,166177.84100004],[145870.62600003,166175.14400029],[145947.19191995,166157.38468476],[145948.69329444,166157.03436771],[145949.16857788,166158.90524776],[145951.0308581,166158.50252761],[145951.33421166,166158.43800502],[145957.986,166167.36700036],[145957.232,166167.73500036],[145937.36999758,166172.21000092],[145862.12,166189.69000036],[145845.39,166199.60000036],[145754.238,166267.00900036],[145753.25,166267.74000036],[145746.542,166254.92400036],[145760.53,166244.51800036],[145760.70634771,166244.38662941],[145761.1359999,166244.69600115],[145762.4429999,166245.96900115],[145763.05583736,166246.1606735],[145763.68953181,166246.26430452],[145764.33150138,166246.27783663],[145764.9689999,166246.20100115],[145765.5079726,166246.06248485],[145766.02604288,166245.85930628],[145766.51548493,166245.59449537],[145766.9689999,166245.27200115],[145766.01524344,166244.08614902],[145765.691,166243.68300071],[145813.2718797,166207.45108701],[145815.92528383,166205.43071571],[145840.641,166186.63100071],[145840.553,166186.51300071],[145841.172,166186.04500072],[145841.258,166186.15400071],[145843.194,166184.76100071],[145844.36000113,166186.28499985],[145846.104,166184.94300071],[145846.61790437,166184.52279501],[145847.03113852,166184.00326824],[145847.32494844,166183.40799833],[145847.486,166182.76400071],[145847.5106766,166182.15625018],[145847.41681786,166181.55528413],[145847.208,166180.98400071],[145846.7912218,166180.2416952],[145851.959,166176.39100036]]]},"geometry_name":"GEOM","properties":{"INSPIRE_ID":"https://databrussels.be/id/streetsurface/24695","TYPE":"S","STREET_ID":"https://databrussels.be/id/streetname/1002","STRNAMEFRE":"Rue de la Soierie","STRNAMEDUT":"Zijdeweverijstraat","MUNNISCODE":"21007","HIERARCHY":"DR","LVL":0,"ADMIN":"MUN_RBC","AREA":2945},"bbox":[145746.542,166157.03436771,145957.986,166267.74000036]},{"type":"Feature","id":"StreetSurfaces.fid-1007f30f_1a02c00cd1e_7e1d","geometry":{"type":"Polygon","coordinates":[[[145501.825065,166027.29040036],[145491.669935,166046.50000036],[145472.609985,166082.59008036],[145467.9699575,166091.37008036],[145418.94996,166184.21008036],[145409.98266,166201.23120036],[145387.83121377,166243.80839713],[145385.649,166242.69600036],[145383.352,166241.16400036],[145381.248,166239.37600036],[145379.366,166237.35500035],[145377.34151523,166234.79065298],[145376.38086136,166221.18743437],[145504.02262595,165977.84215319],[145514.77091556,166000.4814875],[145515.60245839,166002.23265185],[145501.825065,166027.29040036]]]},"geometry_name":"GEOM","properties":{"INSPIRE_ID":"https://databrussels.be/id/streetsurface/26819","TYPE":"S","STREET_ID":"https://databrussels.be/id/streetname/4711","STRNAMEFRE":"Ring 0","STRNAMEDUT":"Ring 0","MUNNISCODE":"21007","HIERARCHY":"H","LVL":1,"ADMIN":"REGION_RBC","AREA":5774},"bbox":[145376.38086136,165977.84215319,145515.60245839,166243.80839713]},{"type":"Feature","id":"StreetSurfaces.fid-1007f30f_1a02c00cd1e_7e1b","geometry":{"type":"Polygon","coordinates":[[[145461.2299275,166000.00000036],[145488.2880275,165944.70000036],[145489.15005719,165946.51576841],[145500.96990614,165971.41214927],[145375.4255101,166207.65269258],[145372.6643973,166168.53519702],[145372.66435,166168.53520036],[145372.47052,166165.78848036],[145376.6099975,166158.84000036],[145412.32992,166093.48000036],[145437.5400675,166046.97008036],[145461.22791006,166000.00400036],[145461.2299275,166000.00000036]]]},"geometry_name":"GEOM","properties":{"INSPIRE_ID":"https://databrussels.be/id/streetsurface/26820","TYPE":"S","STREET_ID":"https://databrussels.be/id/streetname/4711","STRNAMEFRE":"Ring 0","STRNAMEDUT":"Ring 0","MUNNISCODE":"21007","HIERARCHY":"H","LVL":1,"ADMIN":"REGION_RBC","AREA":5567},"bbox":[145372.47052,165944.70000036,145500.96990614,166207.65269258]},{"type":"Feature","id":"StreetSurfaces.fid-1007f30f_1a02c00cd1e_7def","geometry":{"type":"Polygon","coordinates":[[[145467.645866,166283.89562744],[145459.08148182,166281.19818361],[145459.124955,166281.02592036],[145459.3420375,166280.12400036],[145459.408245,166279.77792036],[145459.448715,166279.42800036],[145459.462915,166279.07600036],[145459.445165,166278.64880036],[145459.389075,166278.22496036],[145459.295,166277.80800036],[145459.127085,166277.39008036],[145458.9210075,166276.91264036],[145458.6465925,166276.47120036],[145458.3100525,166276.07504036],[145457.841275,166275.67680036],[145457.310195,166275.36656036],[145456.732965,166275.15408035],[145454.370085,166274.41600036],[145453.8249825,166276.09104036],[145441.3531225,166272.36144036],[145434.2960775,166270.25104036],[145434.7959175,166268.56208036],[145432.884065,166267.95296036],[145432.31003,166269.64496036],[145421.49105,166266.39376036],[145403.4419625,166260.97008036],[145403.9403825,166259.38352036],[145399.91073251,166258.23851558],[145400.662,166255.71500036],[145401.9543097,166251.37614441],[145402.4909175,166251.54096036],[145412.6002525,166254.57520036],[145418.37557,166256.30864036],[145424.12941,166258.03568036],[145431.35863,166260.20560036],[145436.115985,166261.63344036],[145445.22493,166264.36752036],[145457.252685,166267.97760036],[145468.3895675,166271.32032036],[145477.5293975,166274.06352036],[145483.65581,166275.90240036],[145497.650975,166280.10304036],[145500.0683475,166280.78240036],[145501.279075,166281.11504035],[145504.089965,166281.86736036],[145505.4980725,166282.23408035],[145507.77735,166282.78736036],[145512.33697,166283.89008036],[145517.22532,166285.06560036],[145519.6700275,166285.65104036],[145532.8799325,166288.54000036],[145543.02104,166291.88608036],[145543.512715,166292.09296036],[145544.0155725,166292.27072036],[145544.528015,166292.41904036],[145545.1292075,166292.55264036],[145545.73821,166292.64544036],[145546.352005,166292.69696036],[145548.0029325,166292.90304036],[145548.5679915,166288.25237371],[145549.009,166288.32500036],[145559.892,166289.81400036],[145570.811,166291.00600036],[145578.39963,166291.62560036],[145577.915055,166296.28304036],[145579.379075,166296.46496036],[145583.36892,166296.72896036],[145588.347085,166296.99504036],[145600.9426625,166297.52064036],[145606.44800115,166297.72894016],[145606.41918652,166299.17498415],[145606.36097139,166302.0964748],[145606.35,166302.83000036],[145606.13834535,166304.01431516],[145605.4820475,166304.59504036],[145602.123925,166304.52496036],[145597.969715,166304.40096036],[145593.81657,166304.24256036],[145589.6650225,166304.04992036],[145576.5534525,166303.21616036],[145570.007075,166302.67104036],[145563.4376225,166301.95040036],[145556.8782875,166301.14368036],[145550.3299575,166300.25104036],[145541.337985,166298.92304036],[145532.7500025,166295.57600036],[145532.4052975,166295.50208036],[145530.4389525,166295.08000036],[145530.0310575,166296.81104036],[145524.1881125,166295.60080036],[145515.50925,166293.67584036],[145509.761445,166292.31648036],[145504.0290825,166290.89296036],[145504.4369775,166289.22304035],[145502.52406,166288.66000036],[145502.0439225,166290.37600036],[145496.26896,166288.83600036],[145478.538485,166283.51424036],[145475.645945,166282.64608036],[145476.1200475,166280.92608036],[145473.4000375,166280.07104036],[145472.5899275,166279.96336036],[145471.7734275,166279.99232036],[145470.97308,166280.15696036],[145470.493475,166280.32592036],[145470.0342825,166280.54368036],[145469.59994,166280.80800036],[145469.514385,166280.87376036],[145469.1631125,166281.14352036],[145468.915145,166281.37392036],[145468.6870575,166281.62400036],[145468.396135,166282.01472035],[145468.153315,166282.43712036],[145467.96197,166282.88496036],[145467.886,166283.35504036],[145467.645866,166283.89562744]]]},"geometry_name":"GEOM","properties":{"INSPIRE_ID":"https://databrussels.be/id/streetsurface/32234","TYPE":"S","STREET_ID":"https://databrussels.be/id/streetname/1002","STRNAMEFRE":"Rue de la Soierie","STRNAMEDUT":"Zijdeweverijstraat","MUNNISCODE":"21007","HIERARCHY":"DR","LVL":0,"ADMIN":"MUN_RBC","AREA":1858},"bbox":[145399.91073251,166251.37614441,145606.44800115,166304.59504036]},{"type":"Feature","id":"StreetSurfaces.fid-1007f30f_1a02c00cd1e_7e18","geometry":{"type":"Polygon","coordinates":[[[145967.83237266,166089.09998319],[145978.17793658,166087.13894215],[145980.13859464,166086.76981652],[145990.61710737,166084.7987379],[145992.58545338,166084.42129283],[146008.54674826,166081.42302165],[146010.50541071,166081.04927148],[146024.32452717,166078.45509996],[146026.29102436,166078.09080226],[146042.24232382,166075.10222189],[146044.18522708,166074.72064483],[146059.02569661,166071.91075466],[146060.97420458,166071.54112362],[146074.2353706,166069.04247582],[146074.61374232,166071.00189727],[146076.06184617,166070.72648988],[146077.27568819,166075.52155912],[146075.55390293,166075.85086909],[146075.92884859,166077.77049602],[146062.6545752,166080.33700601],[145972.48569485,166097.65893355],[145970.125,166093.43600036],[145967.83237266,166089.09998319]]]},"geometry_name":"GEOM","properties":{"INSPIRE_ID":"https://databrussels.be/id/streetsurface/32242","TYPE":"S","STREET_ID":"https://databrussels.be/id/streetname/2157","STRNAMEFRE":"Rue du Katanga","STRNAMEDUT":"Katangastraat","MUNNISCODE":"21007","HIERARCHY":"IDR","LVL":0,"ADMIN":"MUN_RBC","AREA":979},"bbox":[145967.83237266,166069.04247582,146077.27568819,166097.65893355]},{"type":"Feature","id":"StreetSurfaces.fid-1007f30f_1a02c00cd1e_7e1c","geometry":{"type":"Polygon","coordinates":[[[145492.40018273,166000.00000036],[145376.38179019,166221.18566358],[145375.42625,166207.65264036],[145485.77553576,166000.00400036],[145485.77544957,166000.00400036],[145500,165973.23726023],[145500.96990614,165971.41214927],[145504.02262595,165977.84215319],[145500,165985.51117159],[145500,165985.51123226],[145492.40027468,166000.00000036],[145492.40018273,166000.00000036]]]},"geometry_name":"GEOM","properties":{"INSPIRE_ID":"https://databrussels.be/id/streetsurface/39225","TYPE":"M","STREET_ID":"https://databrussels.be/id/streetname/4711","STRNAMEFRE":"Ring 0","STRNAMEDUT":"Ring 0","MUNNISCODE":"21007","HIERARCHY":"H","LVL":1,"ADMIN":"REGION_RBC","AREA":1744},"bbox":[145375.42625,165971.41214927,145504.02262595,166221.18566358]},{"type":"Feature","id":"StreetSurfaces.fid-1007f30f_1a02c00cd1e_7df3","geometry":{"type":"Polygon","coordinates":[[[145648.81,166287.34000036],[145622.87501703,166298.46010757],[145606.3640614,166302.09579438],[145606.44769343,166297.72900794],[145621.581,166294.39600035],[145646.615,166283.82000036],[145727.387,166249.01700036],[145727.99169175,166248.81112842],[145739.81437547,166244.03124701],[145747.627,166241.00100036],[145749.36205436,166240.48308442],[145751.14997982,166240.19677496],[145752.96,166240.14700036],[145753.69046135,166240.16656155],[145754.53045472,166240.29718503],[145755.59006727,166240.49171932],[145757.56899726,166241.12799944],[145761.20607273,166243.15005001],[145761.62,166243.70700036],[145761.075,166244.11200036],[145760.70634771,166244.38662941],[145760.11563424,166243.96128523],[145759.03617602,166243.3165118],[145757.9055375,166242.7664075],[145756.7319999,166242.31500115],[145755.27862581,166241.90805765],[145753.79116859,166241.65238154],[145752.28532851,166241.55067152],[145750.7769999,166241.60400115],[145749.52963689,166241.8467432],[145748.31127048,166242.20788233],[145747.13311127,166242.68409558],[145746.0059999,166243.27100115],[145745.6155703,166243.5330455],[145744.61983764,166244.20135137],[145743.36168874,166245.29864744],[145742.25153296,166246.54546397],[145741.30700062,166247.92200009],[145739.40770751,166248.64304969],[145737.95891199,166249.34318513],[145729.92310492,166252.7541966],[145729.673,166252.85300036],[145656.64067584,166284.000323],[145648.81,166287.34000036]]]},"geometry_name":"GEOM","properties":{"INSPIRE_ID":"https://databrussels.be/id/streetsurface/41923","TYPE":"S","STREET_ID":"https://databrussels.be/id/streetname/5353","STRNAMEFRE":"Promenade verte","STRNAMEDUT":"Groene wandeling","MUNNISCODE":"21007","HIERARCHY":"T","LVL":0,"ADMIN":"MUN_RBC","AREA":653},"bbox":[145606.3640614,166240.14700036,145761.62,166302.09579438]},{"type":"Feature","id":"StreetSurfaces.fid-1007f30f_1a02c00cd1e_7e11","geometry":{"type":"Polygon","coordinates":[[[145796.48805797,165866.38762643],[145796.92914524,165866.64485824],[145800.63658243,165868.59681248],[145805.40538908,165871.14472274],[145808.90173025,165873.03140157],[145812.69977489,165875.04046391],[145816.42444209,165877.02751262],[145820.18203056,165879.02678739],[145822.73502233,165880.39608617],[145823.68347088,165880.93622061],[145824.57481174,165879.19090635],[145826.1178088,165879.95551309],[145827.56233072,165880.73157724],[145829.27556418,165881.65438495],[145830.80711648,165882.49975883],[145832.35639805,165883.38024506],[145833.53289208,165884.04010468],[145834.61245747,165884.64084015],[145835.46907154,165885.13950037],[145836.6884753,165885.85777783],[145838.08436623,165886.69906184],[145839.57239339,165887.61150041],[145841.36953074,165888.7406611],[145843.97463144,165890.44725129],[145845.14231137,165891.22751205],[145847.35073303,165892.72571327],[145848.67870222,165893.64546523],[145850.9565278,165895.23451883],[145854.08983506,165897.47899269],[145855.83361223,165898.76204989],[145857.84844186,165900.2662461],[145859.35834732,165901.41762226],[145861.02004181,165902.72894095],[145861.5338954,165903.17239888],[145862.45398993,165903.92612532],[145864.17502457,165905.29608817],[145864.77793254,165905.79722468],[145866.22678651,165907.00770294],[145868.537209,165908.97635217],[145871.17471804,165911.34301477],[145873.31647842,165913.28524647],[145875.41338635,165915.29992523],[145876.51192226,165916.38829592],[145878.00041307,165917.89269962],[145879.53110158,165919.48027118],[145882.00878471,165922.07843676],[145884.92679743,165925.27411599],[145888.38337681,165929.18359261],[145889.966882,165931.01099089],[145891.96628714,165933.37853817],[145893.29802832,165934.96004671],[145894.64347666,165936.620574],[145895.15639148,165937.25569047],[145896.39970055,165938.83193],[145897.81761601,165940.58615752],[145899.40163154,165942.64865248],[145900.81899015,165944.51099172],[145902.44905155,165946.6870912],[145903.48724535,165948.0912995],[145905.96291304,165951.51862974],[145908.41249743,165954.93138489],[145909.633815,165956.66471357],[145910.02151072,165957.24527],[145911.11081213,165958.80824197],[145912.39997822,165960.73677785],[145912.86837919,165961.41083018],[145913.71479984,165962.71472236],[145914.69850309,165964.212691],[145915.50822833,165965.49816925],[145918.13690502,165969.59434959],[145919.71756114,165972.09538705],[145921.53612117,165974.94095589],[145922.66232206,165976.76637951],[145923.90852658,165978.76376437],[145924.70455862,165980.12857362],[145925.73845773,165981.85175478],[145927.28843058,165984.61996399],[145929.81891815,165989.25845507],[145930.85614015,165991.23676186],[145932.37056761,165994.23836957],[145933.3698836,165996.23450147],[145934.29680644,165998.15363814],[145934.90568447,165999.42698062],[145936.24094268,166002.29493405],[145937.03109664,166004.05618461],[145938.15259215,166006.49120386],[145939.18114182,166008.81603576],[145940.25804541,166011.29422793],[145941.28326919,166013.66413563],[145942.25219054,166015.95789371],[145942.97027941,166017.72511011],[145943.24994933,166018.38123515],[145944.02213648,166020.35316771],[145945.35277857,166023.73082665],[145946.25623068,166026.13978522],[145946.90923233,166027.96729083],[145948.98109421,166033.95980252],[145949.26531867,166034.84084831],[145950.03816472,166037.16656436],[145950.9117368,166039.84325892],[145951.40510008,166041.40898295],[145952.03586776,166043.44732849],[145952.52808704,166045.04796138],[145953.3721419,166048.02435856],[145953.90007676,166049.91433405],[145954.2012608,166051.02116422],[145954.91877132,166053.69367738],[145955.65497503,166056.48381615],[145956.52133027,166059.78261782],[145957.69379337,166064.38712179],[145958.19663926,166066.47282032],[145958.73659227,166068.94492837],[145960.29970332,166076.03250068],[145960.96943395,166079.18735454],[145959.09219347,166079.60972076],[145960.41530504,166085.44150468],[145953.52289416,166084.5924005],[145952.71048756,166081.00630496],[145952.21097287,166078.68640997],[145951.95156735,166077.58579566],[145950.97027963,166073.25873316],[145949.94635024,166068.55518504],[145949.43809156,166066.4234207],[145947.47675114,166066.83457329],[145947.08725056,166065.22741053],[145945.71792253,166059.85631598],[145945.49919214,166059.02733689],[145944.77349805,166056.23487881],[145943.98934463,166053.48897182],[145943.7238609,166052.52031492],[145943.06755295,166050.26014437],[145942.80020179,166049.34359344],[145941.99237526,166046.53482183],[145941.35966475,166044.4867294],[145941.04104391,166043.38563131],[145940.3066311,166041.08793957],[145939.59683619,166038.90560337],[145939.08916367,166037.43938486],[145938.57856399,166035.96005578],[145938.12592572,166034.69858952],[145937.70725557,166033.48140805],[145937.42916674,166032.69552596],[145936.75780685,166030.86775167],[145935.96691962,166028.69077097],[145934.76438185,166025.48287932],[145934.26361182,166024.23259112],[145936.1238233,166023.51263451],[145935.60930529,166022.22891223],[145934.27327319,166018.99528116],[145933.61202491,166017.42118518],[145932.60332742,166015.06162316],[145931.68488989,166012.95305213],[145930.876622,166011.1461949],[145930.03228909,166009.25253642],[145929.08859448,166007.14875419],[145928.43875448,166005.71368019],[145927.79190354,166004.31788978],[145926.95231449,166002.55407249],[145926.13971937,166000.81527187],[145925.67767134,165999.84157356],[145923.87383184,166000.6663882],[145922.94980625,165998.84506845],[145922.02962422,165997.03759638],[145921.11798059,165995.29269588],[145920.63901541,165994.38412898],[145919.66513604,165992.5729264],[145918.70657178,165990.82557125],[145917.58770683,165988.89505392],[145916.63491352,165987.23940087],[145915.65417172,165985.55703094],[145914.62544542,165983.83756387],[145913.58082974,165982.10401723],[145912.47909196,165980.27139463],[145912.10905986,165979.66056621],[145910.43472135,165976.96155728],[145908.71888977,165974.25189671],[145907.55370932,165972.47715306],[145906.69370409,165971.14763216],[145905.17390232,165968.85551746],[145904.49282454,165967.82614711],[145903.76513743,165966.70898622],[145903.13190979,165965.77730701],[145902.00733846,165964.11344553],[145901.36007706,165963.18344028],[145901.00094774,165962.67347684],[145899.7841762,165960.94598543],[145899.20838872,165960.10717654],[145897.95148911,165958.36793765],[145897.0442133,165957.11398008],[145895.67937904,165955.23721749],[145894.36484483,165953.44511377],[145893.32680478,165952.0155443],[145892.25977168,165950.58027985],[145891.13605322,165949.11623203],[145889.89674043,165947.49550226],[145889.14747776,165946.52675919],[145888.39038425,165945.56405744],[145887.39458882,165944.32014493],[145886.59823577,165943.34654928],[145885.23186224,165941.70452555],[145884.31818541,165940.61338688],[145882.5346448,165938.48422212],[145881.7919112,165937.59169577],[145879.7986871,165935.3315557],[145878.63560816,165934.00771937],[145877.38985634,165932.58677197],[145875.70774357,165930.71675119],[145874.79765345,165929.71532024],[145873.3858457,165928.22225946],[145872.07562603,165926.86350019],[145871.5903977,165926.37874108],[145870.55113479,165925.33608776],[145869.01703974,165923.84366282],[145867.83341608,165922.67820963],[145866.58000411,165921.47944387],[145865.7645389,165920.6892376],[145864.30426749,165919.33484073],[145863.30483036,165918.43444374],[145861.9013568,165917.20485609],[145860.53955598,165915.99955464],[145859.64541004,165915.23136101],[145858.39116948,165914.16749154],[145857.4859473,165913.4061484],[145857.13480029,165913.0774603],[145856.5206799,165912.56874316],[145856.10900401,165912.28416094],[145854.97285209,165911.34971896],[145854.43627859,165910.92796135],[145852.76928587,165909.63096232],[145852.22435764,165909.21409854],[145851.57549043,165908.71559842],[145851.2903175,165908.5025277],[145849.79212692,165907.39855376],[145848.68106179,165906.56991999],[145847.69684149,165905.84321211],[145846.15697298,165904.72621484],[145844.77167494,165903.72613491],[145843.28766884,165902.69809414],[145841.7160428,165901.60713468],[145839.80186418,165900.30780665],[145838.11756773,165899.18067846],[145836.26556517,165897.9666651],[145835.62627906,165897.55268455],[145833.83673358,165896.4155539],[145832.55833133,165895.60634056],[145831.08882179,165894.72843802],[145829.20230577,165893.64948279],[145828.19029695,165893.0620837],[145826.67503805,165892.1800011],[145825.43356649,165891.52637899],[145824.15340213,165890.83796678],[145822.70242547,165890.04799341],[145821.61330871,165889.47345381],[145820.44419114,165888.86059775],[145819.65047046,165888.41994211],[145820.18668488,165887.38965793],[145820.49373459,165886.7474752],[145819.98601412,165886.4814503],[145818.76631719,165885.88897218],[145817.667637,165885.37359578],[145816.44370939,165884.84598148],[145813.79343148,165883.7617096],[145811.78028247,165882.98142734],[145809.8636442,165882.27286277],[145807.7752688,165881.54195614],[145805.70524282,165880.85661578],[145803.73580575,165880.20138295],[145801.51824408,165879.51560956],[145799.59817285,165878.93154395],[145797.33359419,165878.26366347],[145796.7744676,165878.07347726],[145795.65375791,165877.77695509],[145794.05095393,165877.46296592],[145793.18752949,165877.28813621],[145792.32622916,165877.16124202],[145796.48805797,165866.38762643]]]},"geometry_name":"GEOM","properties":{"INSPIRE_ID":"https://databrussels.be/id/streetsurface/45757","TYPE":"S","STREET_ID":"https://databrussels.be/id/streetname/3642","STRNAMEFRE":"Boulevard de la Deuxième Armée Britannique","STRNAMEDUT":"Brits Tweedelegerlaan","MUNNISCODE":"21007","HIERARCHY":"MAR","LVL":0,"ADMIN":"REGION_RBC","AREA":2787},"bbox":[145792.32622916,165866.38762643,145960.96943395,166085.44150468]},{"type":"Feature","id":"StreetSurfaces.fid-1007f30f_1a02c00cd1e_7dfd","geometry":{"type":"Polygon","coordinates":[[[145985.20246392,166147.65742535],[145994.65489354,166145.48316417],[145999.41065632,166144.37099939],[146021.44262257,166139.58954699],[146021.803,166141.161],[146023.768,166140.71],[146023.46134488,166139.12348506],[146052.75715802,166132.35996788],[146053.055,166133.916],[146055.027,166133.437],[146054.76727729,166131.89589213],[146068.24002448,166128.7866993],[146068.60859885,166130.43517707],[146087.607,166125.97500036],[146089.464,166125.57100035],[146090.38299264,166125.31335776],[146089.97148911,166131.93758801],[146089.551,166132.02200036],[146088.99235633,166132.13414612],[146089.367,166133.81400036],[146077.61,166136.71000036],[146056.74507265,166141.60424222],[146056.535,166139.848],[146054.4169593,166140.28836292],[146054.96092096,166142.02274694],[146040.35,166145.45000036],[146025.58554944,166148.79297735],[146025.251,166147.055],[146023.279,166147.502],[146023.62142299,166149.23769625],[146001.464,166154.48300036],[145987.495,166157.71000036],[145987.093,166155.93000036],[145985.72120726,166156.25082285],[145984.411,166153.38600036],[145982.864748,166150.08910672],[145983.6162564,166149.92103512],[145985.61571502,166149.4520577],[145985.20246392,166147.65742535]]]},"geometry_name":"GEOM","properties":{"INSPIRE_ID":"https://databrussels.be/id/streetsurface/4795","TYPE":"S","STREET_ID":"https://databrussels.be/id/streetname/1002","STRNAMEFRE":"Rue de la Soierie","STRNAMEDUT":"Zijdeweverijstraat","MUNNISCODE":"21007","HIERARCHY":"DR","LVL":0,"ADMIN":"MUN_RBC","AREA":1025},"bbox":[145982.864748,166125.31335776,146090.38299264,166157.71000036]},{"type":"Feature","id":"StreetSurfaces.fid-1007f30f_1a02c00cd1e_7e00","geometry":{"type":"Polygon","coordinates":[[[145977.64599313,166166.47276073],[145971.22,166166.81800036],[145970.2105861,166166.85987494],[145969.9390563,166166.36146845],[145969.6303502,166165.9800607],[145969.25770683,166165.58583515],[145968.90613781,166165.23028064],[145968.66938774,166165.02093827],[145968.4257553,166164.81964728],[145968.17551417,166164.6266338],[145967.91943741,166164.44245611],[145967.65734358,166164.26694668],[145967.389526,166164.10030194],[145966.98550501,166163.87443822],[145966.5082734,166163.6522098],[145964.9184499,166163.13900633],[145964.57591357,166163.03775792],[145964.43117105,166163.01319279],[145964.28540892,166162.99566449],[145964.13896906,166162.98521412],[145963.99922493,166162.98186443],[145963.85947495,166162.98496058],[145963.72001628,166162.994496],[145963.0934763,166163.10090005],[145962.69243583,166163.21293061],[145962.09418454,166163.37899979],[145961.84925553,166163.45572545],[145961.17906565,166163.70435013],[145960.91785581,166163.84455923],[145960.54723238,166164.02879947],[145960.28790726,166164.20707623],[145959.70440039,166164.66553277],[145959.48154231,166164.86840203],[145959.26719031,166165.08023896],[145959.06170495,166165.30068721],[145958.78978566,166165.62281048],[145958.53678628,166165.95999711],[145958.30353951,166166.31113732],[145957.83969861,166167.1706134],[145951.33421166,166158.43800502],[145951.58116086,166158.3854795],[145952.60567138,166158.1547913],[145953.31830626,166157.9802917],[145954.15180446,166157.74413289],[145954.42426199,166157.66022581],[145954.7886273,166157.5293239],[145955.12181415,166157.40173134],[145955.53890163,166157.21241087],[145955.9182334,166157.01650621],[145956.43079769,166156.75012866],[145956.91266249,166156.48580886],[145957.39309655,166156.1946654],[145957.79624266,166155.94581741],[145958.32217267,166155.59334142],[145958.844153,166155.19525676],[145959.42851297,166154.70271879],[145960.09562876,166154.11578004],[145960.50115373,166153.74551768],[145960.83787876,166153.41230852],[145961.15053072,166153.07988051],[145961.48913354,166152.69725981],[145961.8415941,166152.26727079],[145961.7927096,166152.09470493],[145961.86952114,166152.02003446],[145961.97008812,166151.89527867],[145962.21586112,166151.54961036],[145962.45593377,166151.19995901],[145962.69024156,166150.84641862],[145962.94154019,166150.45267645],[145963.18568847,166150.05446103],[145963.42260679,166149.6519022],[145963.59054617,166149.30454505],[145963.85423332,166148.80232794],[145963.91336427,166148.62895738],[145963.98060025,166148.8621421],[145964.07437006,166148.65551256],[145964.2208017,166148.31134198],[145964.30110691,166148.06090781],[145974.15115716,166145.79632168],[145974.55296832,166146.61893301],[145974.73589721,166146.89405481],[145975.07516304,166147.36664216],[145975.28215535,166147.59007439],[145975.44391064,166147.77066732],[145975.73954053,166148.0907025],[145976.05540354,166148.39823029],[145976.48009969,166148.75410262],[145976.87815831,166149.04524549],[145977.3790257,166149.3397851],[145977.58723391,166149.43357647],[145977.8551626,166149.59106689],[145978.37089076,166149.79757928],[145978.85909874,166149.9501652],[145979.27765667,166150.05335437],[145980.13210741,166150.21654459],[145980.73545434,166150.29004573],[145981.33987799,166150.2912593],[145981.80143534,166150.24783591],[145982.63409033,166150.14069231],[145982.864748,166150.08910672],[145984.411,166153.38600036],[145985.72120726,166156.25082285],[145984.613,166156.51000036],[145984.19,166156.66600036],[145983.767,166156.86800036],[145983.291,166157.08300036],[145982.902,166157.26200036],[145982.447,166157.49500036],[145982.189,166157.61500036],[145981.949,166157.77300036],[145981.592,166158.04000036],[145981.276,166158.30300036],[145980.759,166158.76300036],[145980.504,166159.02200036],[145980.171,166159.40300036],[145979.96,166159.65500036],[145979.611,166160.11500036],[145978.71,166161.74200036],[145978.477,166162.21400036],[145978.237,166162.79400036],[145977.941,166163.74300036],[145977.863,166164.01000036],[145977.765,166164.53500036],[145977.699,166164.92900036],[145977.678,166165.28700036],[145977.646,166165.81700036],[145977.626,166166.17700036],[145977.64599313,166166.47276073]]]},"geometry_name":"GEOM","properties":{"INSPIRE_ID":"https://databrussels.be/id/streetsurface/496","TYPE":"I","STREET_ID":"https://databrussels.be/id/streetname/1227","STRNAMEFRE":"Rue de Hal","STRNAMEDUT":"Hallestraat","MUNNISCODE":"21007","HIERARCHY":"MAR","LVL":0,"ADMIN":"REGION_RBC","AREA":415},"bbox":[145951.33421166,166145.79632168,145985.72120726,166167.1706134]},{"type":"Feature","id":"StreetSurfaces.fid-1007f30f_1a02c00cd1e_7e15","geometry":{"type":"Polygon","coordinates":[[[145959.71411541,166046.03499195],[145959.52199685,166044.51827933],[145963.77440773,166042.11022675],[145963.94115796,166043.64130493],[145959.71411541,166046.03499195]]]},"geometry_name":"GEOM","properties":{"INSPIRE_ID":"https://databrussels.be/id/streetsurface/49728","TYPE":"S","STREET_ID":"https://databrussels.be/id/streetname/6067","STRNAMEFRE":"Parc du Bempt","STRNAMEDUT":"Bemptpark","MUNNISCODE":"21007","HIERARCHY":"T","LVL":0,"ADMIN":"UNKNOWN","AREA":7},"bbox":[145959.52199685,166042.11022675,145963.94115796,166046.03499195]},{"type":"Feature","id":"StreetSurfaces.fid-1007f30f_1a02c00cd1e_7e13","geometry":{"type":"Polygon","coordinates":[[[145952.13197647,165889.20477693],[145954.9268173,165888.31694129],[145957.86272627,165912.691643],[145959.3303954,165921.28647507],[145961.03343088,165928.60663052],[145962.93673045,165935.49154102],[145965.23506548,165942.83483185],[145967.21777935,165948.47248098],[145967.98137386,165953.7348648],[145968.24872813,165959.78963048],[145967.41052467,165967.74513417],[145964.58937865,165982.95269827],[145960.64970678,165998.91959947],[145958.93369024,166008.48520629],[145958.12379943,166015.69409923],[145958.16421927,166026.85244756],[145958.6130103,166036.42499773],[145955.92669754,166037.94620124],[145955.8034793,166038.01597719],[145955.28350715,166026.92515948],[145955.24225838,166015.53797671],[145956.08130283,166008.06958521],[145957.83040486,165998.31954965],[145961.7721208,165982.34436415],[145964.55727392,165967.33082202],[145965.36108391,165959.70175138],[145965.10957957,165954.00593864],[145964.40695477,165949.16373328],[145962.50062786,165943.74328287],[145960.1728289,165936.30585337],[145958.24083859,165929.31715828],[145956.50496558,165921.8558573],[145955.0109304,165913.10662277],[145952.13197647,165889.20477693]]]},"geometry_name":"GEOM","properties":{"INSPIRE_ID":"https://databrussels.be/id/streetsurface/49729","TYPE":"S","STREET_ID":"https://databrussels.be/id/streetname/5348","STRNAMEFRE":"Promenade verte","STRNAMEDUT":"Groene wandeling","MUNNISCODE":"21001","HIERARCHY":"T","LVL":0,"ADMIN":"UNKNOWN","AREA":435},"bbox":[145952.13197647,165888.31694129,145968.24872813,166038.01597719]},{"type":"Feature","id":"StreetSurfaces.fid-1007f30f_1a02c00cd1e_7e14","geometry":{"type":"Polygon","coordinates":[[[145958.6130103,166036.42499773],[145958.68127491,166037.88105715],[145959.52199685,166044.51827933],[145959.71411541,166046.03499195],[145957.09328201,166047.51911585],[145957.061,166047.39500036],[145957.345,166047.21700036],[145957.00643521,166046.03487571],[145956.39058495,166043.88458785],[145956.33599668,166043.69400131],[145956.495,166043.64900036],[145955.92669754,166037.94620124],[145958.6130103,166036.42499773]]]},"geometry_name":"GEOM","properties":{"INSPIRE_ID":"https://databrussels.be/id/streetsurface/49775","TYPE":"I","STREET_ID":"https://databrussels.be/id/streetname/5348","STRNAMEFRE":"Promenade verte","STRNAMEDUT":"Groene wandeling","MUNNISCODE":"21001","HIERARCHY":"T","LVL":0,"ADMIN":"UNKNOWN","AREA":27},"bbox":[145955.92669754,166036.42499773,145959.71411541,166047.51911585]},{"type":"Feature","id":"StreetSurfaces.fid-1007f30f_1a02c00cd1e_7e07","geometry":{"type":"Polygon","coordinates":[[[145977.64599313,166166.47276073],[145977.655,166166.60600036],[145977.719,166167.33200036],[145977.827,166168.04900036],[145977.933,166168.71700036],[145978.195,166170.02800036],[145978.336,166170.74800036],[145978.948,166173.62600036],[145979.733,166177.47300036],[145980.712,166182.24100036],[145981.217,166184.83000036],[145981.751,166187.37500035],[145983.224,166194.54800036],[145984.418,166200.49000036],[145985.845,166207.40600036],[145986.64809194,166211.38664623],[145981.9,166212.63600036],[145977.83490303,166213.62184723],[145977.43953095,166211.67700633],[145975.06812846,166199.98422745],[145974.63842825,166197.8990958],[145972.96746897,166189.738125],[145969.8894086,166174.92895923],[145969.6412692,166173.61085549],[145972.21318215,166173.03041986],[145972.09420034,166172.55729595],[145971.54312902,166169.90149703],[145971.47010365,166169.54685205],[145971.34582591,166169.13850411],[145971.15127712,166168.63317834],[145970.95809013,166168.18119829],[145970.81767092,166167.83862222],[145970.4876329,166167.24614913],[145970.2105861,166166.85987494],[145971.22,166166.81800036],[145977.64599313,166166.47276073]]]},"geometry_name":"GEOM","properties":{"INSPIRE_ID":"https://databrussels.be/id/streetsurface/7292","TYPE":"S","STREET_ID":"https://databrussels.be/id/streetname/1227","STRNAMEFRE":"Rue de Hal","STRNAMEDUT":"Hallestraat","MUNNISCODE":"21007","HIERARCHY":"MAR","LVL":0,"ADMIN":"REGION_RBC","AREA":409},"bbox":[145969.6412692,166166.47276073,145986.64809194,166213.62184723]},{"type":"Feature","id":"StreetSurfaces.fid-1007f30f_1a02c00cd1e_7dfb","geometry":{"type":"Polygon","coordinates":[[[145955.636,166109.83800036],[145959.01428371,166109.11011939],[145959.56975192,166111.51752948],[145960.70039017,166116.40804246],[145961.44775914,166119.69081534],[145961.60034568,166120.39563122],[145962.89795257,166126.15730808],[145963.68526342,166129.68487691],[145964.26832535,166132.25661272],[145964.54955304,166133.58662554],[145964.6933096,166134.40603155],[145964.76774829,166134.86852721],[145964.83569115,166135.33202167],[145964.89712483,166135.79642371],[145964.97088169,166136.43568275],[145965.03230541,166137.07624447],[145965.08137319,166137.71787097],[145965.10287542,166138.20143636],[145965.14963165,166139.25344828],[145965.1634622,166140.04495286],[145965.16311069,166141.10684497],[145965.14909163,166141.88540728],[145965.09935838,166143.1698715],[145964.93249968,166143.1592103],[145964.88341132,166144.13022532],[145964.81539062,166144.91534309],[145964.74138434,166145.59873063],[145964.63633257,166146.21086843],[145964.76267276,166146.26442934],[145964.61434744,166147.01063824],[145964.43271948,166147.65047012],[145964.30110691,166148.06090781],[145949.631,166151.40600036],[145946.143,166136.82300036],[145940.67,166113.41700036],[145955.636,166109.83800036]]]},"geometry_name":"GEOM","properties":{"INSPIRE_ID":"https://databrussels.be/id/streetsurface/8447","TYPE":"SW","STREET_ID":"https://databrussels.be/id/streetname/5308","STRNAMEFRE":"Square Emile des Grées du Loû","STRNAMEDUT":"Emile des Grées du Loû Square","MUNNISCODE":"21007","HIERARCHY":"MAR","LVL":0,"ADMIN":"REGION_RBC","AREA":715},"bbox":[145940.67,166109.11011939,145965.1634622,166151.40600036]},{"type":"Feature","id":"StreetSurfaces.fid-1007f30f_1a02c00cd1e_7e0a","geometry":{"type":"Polygon","coordinates":[[[145983.32637488,166240.61744594],[145982.33166877,166235.75814157],[145980.47553255,166226.63882224],[145980.055531,166224.54514792],[145977.83490303,166213.62184723],[145981.9,166212.63600036],[145986.64809194,166211.38664623],[145986.86,166212.43700036],[145988.036,166218.14700036],[145993.19,166219.26100036],[145998.983,166220.68300036],[145999.275,166220.58200036],[145999.404,166220.95700036],[146001.301,166220.30000036],[146000.7,166218.59700036],[146003.25413382,166217.71069731],[146004.436,166221.42100036],[146005.53812277,166224.95724303],[146003.164,166225.78000036],[146002.581,166224.07800036],[146000.67,166224.73300036],[146000.851,166225.25000036],[146000.56,166225.35000035],[145995.72,166229.30100035],[145991.039,166232.88800036],[145991.901,166237.12500036],[145992.106,166238.04700036],[145994.036,166237.63200036],[145994.33679665,166238.87608075],[145988.417,166240.24000036],[145983.48763475,166241.39715904],[145983.32637488,166240.61744594]]]},"geometry_name":"GEOM","properties":{"INSPIRE_ID":"https://databrussels.be/id/streetsurface/9585","TYPE":"I","STREET_ID":"https://databrussels.be/id/streetname/1227","STRNAMEFRE":"Rue de Hal","STRNAMEDUT":"Hallestraat","MUNNISCODE":"21007","HIERARCHY":"MAR","LVL":0,"ADMIN":"REGION_RBC","AREA":396},"bbox":[145977.83490303,166211.38664623,146005.53812277,166241.39715904]},{"type":"Feature","id":"StreetSurfaces.fid-1007f30f_1a02c00cd1e_7e0e","geometry":{"type":"Polygon","coordinates":[[[145983.48763475,166241.39715904],[145988.417,166240.24000036],[145994.33679665,166238.87608075],[145994.367,166239.00100036],[145996.152,166247.40600036],[145996.622,166249.47400036],[145997.651,166253.95300036],[145998.074,166255.79700036],[145998.572,166257.88700036],[146000.388,166265.66500036],[146001.121,166268.84800036],[146001.607,166270.91400036],[146002.568,166274.98100036],[146002.844,166276.28000036],[146003.332,166278.34900036],[146004.354,166282.70800036],[146005.747,166288.66900036],[146006.217,166290.70200036],[146008.955,166302.42900036],[146009.426,166304.51100036],[146010.233,166308.00700036],[146011.336,166312.69600036],[146011.491,166313.37300036],[146011.979,166315.44000036],[146013.84,166323.41300036],[146014.325,166325.47900036],[146015.01,166328.26600036],[146015.913,166331.68400035],[146017.921,166339.23300036],[146019.629,166345.67500036],[146020.04183477,166347.28753917],[146013.623,166349.00600036],[146011.84007493,166349.45167992],[146011.24971945,166347.21976219],[146009.54801623,166340.74404233],[146007.85343076,166334.38124833],[146006.67792614,166329.91437394],[146004.13983828,166330.53166302],[146002.48426256,166323.58383265],[146001.03743484,166317.40439699],[146000.05822553,166313.26365755],[145998.6590298,166307.24716849],[145998.17784605,166305.15372501],[145997.54223702,166302.53773732],[145993.03539647,166283.2272868],[145992.47209781,166280.71686792],[145992.00795435,166278.63341195],[145990.37000586,166271.60031782],[145988.52579733,166263.65619113],[145991.0603921,166263.07579014],[145990.17988032,166259.19730548],[145989.10706418,166254.75817848],[145988.49664278,166252.16107601],[145988.16733606,166250.53170843],[145985.56447754,166251.13500658],[145984.92582672,166248.35101056],[145983.48763475,166241.39715904]]]},"geometry_name":"GEOM","properties":{"INSPIRE_ID":"https://databrussels.be/id/streetsurface/9790","TYPE":"S","STREET_ID":"https://databrussels.be/id/streetname/1227","STRNAMEFRE":"Rue de Hal","STRNAMEDUT":"Hallestraat","MUNNISCODE":"21007","HIERARCHY":"MAR","LVL":0,"ADMIN":"REGION_RBC","AREA":1154},"bbox":[145983.48763475,166238.87608075,146020.04183477,166349.45167992]}],"numberReturned":48,"grand_bruxelles_source":{"authority":"Paradigm / Brussels-Capital Region","service":"https://geoservices-urbis.irisnet.be/geoserver/urbisvector/wfs","layer":"urbisvector:StreetSurfaces","crs":"EPSG:31370","bbox":[145500.0,166000.0,146000.0,166500.0],"cell_id":"bxl-e145500-n166000-s500","ownership":"bbox_intersection_source_unclipped"}}
