{"type":"FeatureCollection","totalFeatures":31,"numberMatched":31,"timeStamp":"2026-08-24T02:11:08.466Z","crs":{"type":"name","properties":{"name":"urn:ogc:def:crs:EPSG::31370"}},"bbox":[152639.77070689,164136.45296102,153604.75500598,165096.49438946],"features":[{"type":"Feature","id":"StreetAxes.fid--1290087_1a0317dc62a_-6973","geometry":{"type":"LineString","coordinates":[[153084.846,164722.182],[153079.298,164725.934],[153061.63307383,164749.97976866],[153056.41046435,164755.64522144],[153034.49000212,164769.79388266],[153011.25216789,164783.98528645],[153000,164789.13696043],[152994.62593504,164790.88658556],[152960.04871832,164795.10877119],[152944.33401139,164798.16454007],[152935.29167422,164800.69177637],[152925.95764876,164804.77423499],[152917.20699989,164809.41560164],[152902.81704397,164821.66297752],[152892.86925771,164833.78885165],[152882.34764419,164851.19093906],[152864.45742872,164888.79399334],[152852.36799061,164917.6602043],[152845.4313179,164936.14183043],[152847.74382254,164943.1260594]]},"geometry_name":"GEOM","properties":{"INSPIRE_ID":"https://databrussels.be/id/streetaxe/101104","TYPE":"S","HIERARCHY":"T","LVL":0,"STARTSN_ID":"https://databrussels.be/id/streetnode/","ENDSN_ID":"https://databrussels.be/id/streetnode/","STRNAMEFRE":"Chemin des Silex","STRNAMEDUT":"Vuursteenweg","SLOPE":6.27,"LENGTH":350.862054634557},"bbox":[152845.4313179,164722.182,153084.846,164943.1260594]},{"type":"Feature","id":"StreetAxes.fid--1290087_1a0317dc62a_-6988","geometry":{"type":"LineString","coordinates":[[152847.75652254,164943.1260594],[152851.075,164941.005],[152868.522,164937.434],[152881.75945753,164936.24125697],[152917.26439515,164932.9164611],[152951.53524983,164930.46821693],[153015.75355043,164932.7217533],[153120.83037187,164935.43132562],[153135.18028391,164935.51688725],[153158.64072499,164932.89377247],[153173.9060248,164930.79005544],[153182.28760637,164929.23805027],[153245.92693885,164912.53685482],[153281.49000747,164904.0975777],[153294.49952002,164900.30277419]]},"geometry_name":"GEOM","properties":{"INSPIRE_ID":"https://databrussels.be/id/streetaxe/101105","TYPE":"S","HIERARCHY":"T","LVL":0,"STARTSN_ID":"https://databrussels.be/id/streetnode/","ENDSN_ID":"https://databrussels.be/id/streetnode/","STRNAMEFRE":"Chaussée de La Hulpe","STRNAMEDUT":"Terhulpsesteenweg","SLOPE":4.27,"LENGTH":452.213393677127},"bbox":[152847.75652254,164900.30277419,153294.49952002,164943.1260594]},{"type":"Feature","id":"StreetAxes.fid--1290087_1a0317dc62a_-696a","geometry":{"type":"LineString","coordinates":[[153510.69481486,164843.21480305],[153494.63389769,164826.96695509],[153493.08702815,164813.26681827]]},"geometry_name":"GEOM","properties":{"INSPIRE_ID":"https://databrussels.be/id/streetaxe/74730","TYPE":"S","HIERARCHY":"DR","LVL":0,"STARTSN_ID":"https://databrussels.be/id/streetnode/6309","ENDSN_ID":"https://databrussels.be/id/streetnode/6301","STRNAMEFRE":"Chaussée de La Hulpe","STRNAMEDUT":"Terhulpsesteenweg","SLOPE":2.07,"LENGTH":36.6333173478034},"bbox":[153493.08702815,164813.26681827,153510.69481486,164843.21480305]},{"type":"Feature","id":"StreetAxes.fid--1290087_1a0317dc62a_-6977","geometry":{"type":"LineString","coordinates":[[153117.28432505,165010.05413895],[153121.66658406,165004.64735421],[153125.94364896,164999.44120952],[153130.49117762,164998.39878645],[153134.86992015,164997.95393895],[153146.79696831,164998.0494702],[153158.71400253,164997.55589503],[153170.58786668,164996.43071772],[153182.37861137,164994.63400678],[153194.03963803,164992.13090641],[153205.51858305,164988.89447077],[153220.06016245,164984.97865195],[153228.36655915,164984.37595138]]},"geometry_name":"GEOM","properties":{"INSPIRE_ID":"https://databrussels.be/id/streetaxe/74786","TYPE":"S","HIERARCHY":"DR","LVL":0,"STARTSN_ID":"https://databrussels.be/id/streetnode/7681","ENDSN_ID":"https://databrussels.be/id/streetnode/7685","STRNAMEFRE":"Avenue Alfred Solvay","STRNAMEDUT":"Alfred Solvaylaan","SLOPE":4.85,"LENGTH":117.713745581885},"bbox":[153117.28432505,164984.37595138,153228.36655915,165010.05413895]},{"type":"Feature","id":"StreetAxes.fid--1290087_1a0317dc62a_-6975","geometry":{"type":"LineString","coordinates":[[153189.93656001,165034.57638458],[153192.0905,165026.6015],[153194.465,165017.81],[153197.875,165011.045],[153204.755,165000]]},"geometry_name":"GEOM","properties":{"INSPIRE_ID":"https://databrussels.be/id/streetaxe/75117","TYPE":"S","HIERARCHY":"MAR","LVL":0,"STARTSN_ID":"https://databrussels.be/id/streetnode/7680","ENDSN_ID":"https://databrussels.be/id/streetnode/7676","STRNAMEFRE":"Avenue Alfred Solvay","STRNAMEDUT":"Alfred Solvaylaan","SLOPE":2.34,"LENGTH":37.9555520019789},"bbox":[153189.93656001,165000,153204.755,165034.57638458]},{"type":"Feature","id":"StreetAxes.fid--1290087_1a0317dc62a_-6976","geometry":{"type":"LineString","coordinates":[[153160.31162936,165022.57428336],[153168.401,165015.0035],[153178.82,165011.845],[153189.3,165007.675],[153204.755,165000]]},"geometry_name":"GEOM","properties":{"INSPIRE_ID":"https://databrussels.be/id/streetaxe/75452","TYPE":"S","HIERARCHY":"MAR","LVL":0,"STARTSN_ID":"https://databrussels.be/id/streetnode/7683","ENDSN_ID":"https://databrussels.be/id/streetnode/7676","STRNAMEFRE":"Avenue Alfred Solvay","STRNAMEDUT":"Alfred Solvaylaan","SLOPE":4.53,"LENGTH":50.5016505230364},"bbox":[153160.31162936,165000,153204.755,165022.57428336]},{"type":"Feature","id":"StreetAxes.fid--1290087_1a0317dc62a_-696d","geometry":{"type":"LineString","coordinates":[[153492.14013056,164804.88044424],[153503.06936121,164793.93399299],[153509.79926815,164784.61353051],[153521.59829744,164767.93437519]]},"geometry_name":"GEOM","properties":{"INSPIRE_ID":"https://databrussels.be/id/streetaxe/75652","TYPE":"S","HIERARCHY":"MAR","LVL":0,"STARTSN_ID":"https://databrussels.be/id/streetnode/6310","ENDSN_ID":"https://databrussels.be/id/streetnode/6524","STRNAMEFRE":"Avenue de la Foresterie","STRNAMEDUT":"Vorsterielaan","SLOPE":0.72,"LENGTH":47.3952965909715},"bbox":[153492.14013056,164767.93437519,153521.59829744,164804.88044424]},{"type":"Feature","id":"StreetAxes.fid--1290087_1a0317dc62a_-696e","geometry":{"type":"LineString","coordinates":[[153492.14013056,164804.88044424],[153501.86429114,164807.15058239],[153520.85729497,164826.38013802]]},"geometry_name":"GEOM","properties":{"INSPIRE_ID":"https://databrussels.be/id/streetaxe/75916","TYPE":"S","HIERARCHY":"DR","LVL":0,"STARTSN_ID":"https://databrussels.be/id/streetnode/6310","ENDSN_ID":"https://databrussels.be/id/streetnode/6306","STRNAMEFRE":"Chaussée de La Hulpe","STRNAMEDUT":"Terhulpsesteenweg","SLOPE":1.05,"LENGTH":37.013579559863},"bbox":[153492.14013056,164804.88044424,153520.85729497,164826.38013802]},{"type":"Feature","id":"StreetAxes.fid--1290087_1a0317dc62a_-6971","geometry":{"type":"LineString","coordinates":[[153467.29340622,164826.83945674],[153458.11087522,164819.50964294],[153453.73626294,164814.45312932],[153446.8981108,164808.28170879],[153444.802,164806.759],[153411.742,164785.274],[153401.92,164780.533],[153390.42,164776.602],[153350.174,164764.239],[153333.272,164758.182],[153318.084,164756.768],[153293.742,164756.478],[153264.335,164753.078],[153256.827,164752.287],[153235.877,164747.441],[153209.788,164740.334],[153193.63,164730.358],[153183.478,164723.656],[153160.898,164715.031],[153150.65,164712.556],[153143.272,164711.778],[153136.384,164712.338],[153123.378,164714.844],[153100.206,164720.518],[153084.846,164722.182]]},"geometry_name":"GEOM","properties":{"INSPIRE_ID":"https://databrussels.be/id/streetaxe/77373","TYPE":"S","HIERARCHY":"DR","LVL":0,"STARTSN_ID":"https://databrussels.be/id/streetnode/5938","ENDSN_ID":"https://databrussels.be/id/streetnode/258","STRNAMEFRE":"Chemin des Silex","STRNAMEDUT":"Vuursteenweg","SLOPE":0.94,"LENGTH":410.823875725538},"bbox":[153084.846,164711.778,153467.29340622,164826.83945674]},{"type":"Feature","id":"StreetAxes.fid--1290087_1a0317dc62a_-696b","geometry":{"type":"LineString","coordinates":[[153513.13043384,164834.58751009],[153499.73574859,164820.351121],[153493.08702815,164813.26681827]]},"geometry_name":"GEOM","properties":{"INSPIRE_ID":"https://databrussels.be/id/streetaxe/77375","TYPE":"S","HIERARCHY":"DR","LVL":0,"STARTSN_ID":"https://databrussels.be/id/streetnode/6286","ENDSN_ID":"https://databrussels.be/id/streetnode/6301","STRNAMEFRE":"Chaussée de La Hulpe","STRNAMEDUT":"Terhulpsesteenweg","SLOPE":0.68,"LENGTH":29.2627802894365},"bbox":[153493.08702815,164813.26681827,153513.13043384,164834.58751009]},{"type":"Feature","id":"StreetAxes.fid--1290087_1a0317dc62a_-6980","geometry":{"type":"LineString","coordinates":[[153335.03986414,164917.46226488],[153342.25563302,164907.66938759],[153352.34343486,164898.34763311],[153356.81843651,164892.37330639]]},"geometry_name":"GEOM","properties":{"INSPIRE_ID":"https://databrussels.be/id/streetaxe/77376","TYPE":"S","HIERARCHY":"MAR","LVL":0,"STARTSN_ID":"https://databrussels.be/id/streetnode/6287","ENDSN_ID":"https://databrussels.be/id/streetnode/5935","STRNAMEFRE":"Chaussée de La Hulpe","STRNAMEDUT":"Terhulpsesteenweg","SLOPE":2.4,"LENGTH":33.3639780342273},"bbox":[153335.03986414,164892.37330639,153356.81843651,164917.46226488]},{"type":"Feature","id":"StreetAxes.fid--1290087_1a0317dc62a_-697e","geometry":{"type":"LineString","coordinates":[[153294.49952002,164900.30277419],[153301.48317788,164898.66084665],[153316.69967102,164895.28196012],[153341.79933115,164894.85502144]]},"geometry_name":"GEOM","properties":{"INSPIRE_ID":"https://databrussels.be/id/streetaxe/77378","TYPE":"S","HIERARCHY":"MAR","LVL":0,"STARTSN_ID":"https://databrussels.be/id/streetnode/6307","ENDSN_ID":"https://databrussels.be/id/streetnode/5936","STRNAMEFRE":"Chaussée de La Hulpe","STRNAMEDUT":"Terhulpsesteenweg","SLOPE":4.37,"LENGTH":47.864496791814},"bbox":[153294.49952002,164894.85502144,153341.79933115,164900.30277419]},{"type":"Feature","id":"StreetAxes.fid--1290087_1a0317dc62a_-6972","geometry":{"type":"LineString","coordinates":[[153084.846,164722.182],[153087.737,164716.45],[153132.53,164654.112],[153139.8,164641.914],[153144.408,164631.506],[153147.34,164622.762],[153145.266,164610.989],[153126.93,164528.976],[153122.233,164524.2]]},"geometry_name":"GEOM","properties":{"INSPIRE_ID":"https://databrussels.be/id/streetaxe/77800","TYPE":"S","HIERARCHY":null,"LVL":0,"STARTSN_ID":"https://databrussels.be/id/streetnode/258","ENDSN_ID":"https://databrussels.be/id/streetnode/2607","STRNAMEFRE":"Avenue des Deux Montagnes","STRNAMEDUT":"Twee Bergenlaan","SLOPE":5.12,"LENGTH":220.677768033872},"bbox":[153084.846,164524.2,153147.34,164722.182]},{"type":"Feature","id":"StreetAxes.fid--1290087_1a0317dc62a_-6983","geometry":{"type":"LineString","coordinates":[[153356.81843651,164892.37330639],[153375.89171508,164883.85577138],[153392.63942209,164875.89451059],[153406.10785983,164868.686],[153427.82888865,164854.93993138],[153450.48416071,164839.06308943],[153467.29340622,164826.83945674]]},"geometry_name":"GEOM","properties":{"INSPIRE_ID":"https://databrussels.be/id/streetaxe/79568","TYPE":"S","HIERARCHY":"MAR","LVL":0,"STARTSN_ID":"https://databrussels.be/id/streetnode/5935","ENDSN_ID":"https://databrussels.be/id/streetnode/5938","STRNAMEFRE":"Chaussée de La Hulpe","STRNAMEDUT":"Terhulpsesteenweg","SLOPE":3,"LENGTH":128.862285872129},"bbox":[153356.81843651,164826.83945674,153467.29340622,164892.37330639]},{"type":"Feature","id":"StreetAxes.fid--1290087_1a0317dc62a_-6981","geometry":{"type":"LineString","coordinates":[[153341.79933115,164894.85502144],[153349.35995066,164892.26978367],[153356.81843651,164892.37330639]]},"geometry_name":"GEOM","properties":{"INSPIRE_ID":"https://databrussels.be/id/streetaxe/79569","TYPE":"S","HIERARCHY":"MAR","LVL":0,"STARTSN_ID":"https://databrussels.be/id/streetnode/5936","ENDSN_ID":"https://databrussels.be/id/streetnode/5935","STRNAMEFRE":"Chaussée de La Hulpe","STRNAMEDUT":"Terhulpsesteenweg","SLOPE":3.62,"LENGTH":15.4495998383729},"bbox":[153341.79933115,164892.26978367,153356.81843651,164894.85502144]},{"type":"Feature","id":"StreetAxes.fid--1290087_1a0317dc62a_-6982","geometry":{"type":"LineString","coordinates":[[153450.62217977,165069.945],[153450.795,165059.194],[153451.482,165054.395],[153503.144,164869.596],[153507.561,164854.112],[153510.69481486,164843.21480305]]},"geometry_name":"GEOM","properties":{"INSPIRE_ID":"https://databrussels.be/id/streetaxe/79853","TYPE":"S","HIERARCHY":"DR","LVL":0,"STARTSN_ID":"https://databrussels.be/id/streetnode/14561","ENDSN_ID":"https://databrussels.be/id/streetnode/6309","STRNAMEFRE":"Rue Middelbourg","STRNAMEDUT":"Middelburgstraat","SLOPE":1.28,"LENGTH":234.925277725082},"bbox":[153450.62217977,164843.21480305,153510.69481486,165069.945]},{"type":"Feature","id":"StreetAxes.fid--1290087_1a0317dc62a_-6987","geometry":{"type":"LineString","coordinates":[[153029.00274011,164995.79333605],[153034.9427099,165006.10206697]]},"geometry_name":"GEOM","properties":{"INSPIRE_ID":"https://databrussels.be/id/streetaxe/82808","TYPE":"S","HIERARCHY":"MER","LVL":0,"STARTSN_ID":"https://databrussels.be/id/streetnode/7599","ENDSN_ID":"https://databrussels.be/id/streetnode/7684","STRNAMEFRE":"Avenue Delleur","STRNAMEDUT":"Delleurlaan","SLOPE":20.53,"LENGTH":11.8976121256579},"bbox":[153029.00274011,164995.79333605,153034.9427099,165006.10206697]},{"type":"Feature","id":"StreetAxes.fid--1290087_1a0317dc62a_-6984","geometry":{"type":"LineString","coordinates":[[153029.00274011,164995.79333605],[153013.17947782,164994.63139932],[152920.68930026,164992.56391422],[152885.32232008,164992.01636212],[152864.28896856,164991.22474849],[152848.38274872,164990.62610018],[152828.78266701,164989.39057382]]},"geometry_name":"GEOM","properties":{"INSPIRE_ID":"https://databrussels.be/id/streetaxe/82809","TYPE":"S","HIERARCHY":"MER","LVL":0,"STARTSN_ID":"https://databrussels.be/id/streetnode/7599","ENDSN_ID":"https://databrussels.be/id/streetnode/7600","STRNAMEFRE":"Avenue Delleur","STRNAMEDUT":"Delleurlaan","SLOPE":5.85,"LENGTH":200.355076785696},"bbox":[152828.78266701,164989.39057382,153029.00274011,164995.79333605]},{"type":"Feature","id":"StreetAxes.fid--1290087_1a0317dc62a_-6978","geometry":{"type":"LineString","coordinates":[[153204.755,165000],[153217.97204345,164991.46071169],[153228.36655915,164984.37595138]]},"geometry_name":"GEOM","properties":{"INSPIRE_ID":"https://databrussels.be/id/streetaxe/82886","TYPE":"S","HIERARCHY":"MAR","LVL":0,"STARTSN_ID":"https://databrussels.be/id/streetnode/7676","ENDSN_ID":"https://databrussels.be/id/streetnode/7685","STRNAMEFRE":"Avenue Alfred Solvay","STRNAMEDUT":"Alfred Solvaylaan","SLOPE":4.98,"LENGTH":28.3149578907239},"bbox":[153204.755,164984.37595138,153228.36655915,165000]},{"type":"Feature","id":"StreetAxes.fid--1290087_1a0317dc62a_-697b","geometry":{"type":"LineString","coordinates":[[153318.36159143,164926.42213523],[153324.68362522,164925.33361407],[153335.03986414,164917.46226488]]},"geometry_name":"GEOM","properties":{"INSPIRE_ID":"https://databrussels.be/id/streetaxe/83976","TYPE":"S","HIERARCHY":"MAR","LVL":0,"STARTSN_ID":"https://databrussels.be/id/streetnode/5937","ENDSN_ID":"https://databrussels.be/id/streetnode/6287","STRNAMEFRE":"Chaussée de La Hulpe","STRNAMEDUT":"Terhulpsesteenweg","SLOPE":4.07,"LENGTH":19.4231271909027},"bbox":[153318.36159143,164917.46226488,153335.03986414,164926.42213523]},{"type":"Feature","id":"StreetAxes.fid--1290087_1a0317dc62a_-6979","geometry":{"type":"LineString","coordinates":[[153228.36655915,164984.37595138],[153311.09366278,164930.7216981]]},"geometry_name":"GEOM","properties":{"INSPIRE_ID":"https://databrussels.be/id/streetaxe/86051","TYPE":"S","HIERARCHY":"MAR","LVL":0,"STARTSN_ID":"https://databrussels.be/id/streetnode/7685","ENDSN_ID":"https://databrussels.be/id/streetnode/6308","STRNAMEFRE":"Avenue Alfred Solvay","STRNAMEDUT":"Alfred Solvaylaan","SLOPE":4.72,"LENGTH":98.6030048728557},"bbox":[153228.36655915,164930.7216981,153311.09366278,164984.37595138]},{"type":"Feature","id":"StreetAxes.fid--1290087_1a0317dc62a_-6986","geometry":{"type":"LineString","coordinates":[[153117.28432505,165010.05413895],[153106.29,165007.44],[153083.4,165002.88],[153065.44,165000],[153033.70880533,164996.1389127],[153029.00274011,164995.79333605]]},"geometry_name":"GEOM","properties":{"INSPIRE_ID":"https://databrussels.be/id/streetaxe/88281","TYPE":"S","HIERARCHY":"MER","LVL":0,"STARTSN_ID":"https://databrussels.be/id/streetnode/7681","ENDSN_ID":"https://databrussels.be/id/streetnode/7599","STRNAMEFRE":"Avenue Delleur","STRNAMEDUT":"Delleurlaan","SLOPE":1.08,"LENGTH":89.5140505195121},"bbox":[153029.00274011,164995.79333605,153117.28432505,165010.05413895]},{"type":"Feature","id":"StreetAxes.fid--1290087_1a0317dc62a_-6985","geometry":{"type":"LineString","coordinates":[[153034.9427099,165006.10206697],[153019.75830675,165004.72851472],[153000,165003.76625],[152872.54473724,165001.25637221],[152799.75762997,164999.68822736],[152786.51303343,164999.80441215]]},"geometry_name":"GEOM","properties":{"INSPIRE_ID":"https://databrussels.be/id/streetaxe/89065","TYPE":"C","HIERARCHY":"MER","LVL":0,"STARTSN_ID":"https://databrussels.be/id/streetnode/7684","ENDSN_ID":"https://databrussels.be/id/streetnode/5604","STRNAMEFRE":"Avenue Delleur","STRNAMEDUT":"Delleurlaan","SLOPE":4.45,"LENGTH":248.55720253117},"bbox":[152786.51303343,164999.68822736,153034.9427099,165006.10206697]},{"type":"Feature","id":"StreetAxes.fid--1290087_1a0317dc62a_-697a","geometry":{"type":"LineString","coordinates":[[153311.09366278,164930.7216981],[153318.36159143,164926.42213523]]},"geometry_name":"GEOM","properties":{"INSPIRE_ID":"https://databrussels.be/id/streetaxe/91525","TYPE":"I","HIERARCHY":"MAR","LVL":0,"STARTSN_ID":"https://databrussels.be/id/streetnode/6308","ENDSN_ID":"https://databrussels.be/id/streetnode/5937","STRNAMEFRE":"Chaussée de La Hulpe","STRNAMEDUT":"Terhulpsesteenweg","SLOPE":3.91,"LENGTH":8.44446728472017},"bbox":[153311.09366278,164926.42213523,153318.36159143,164930.7216981]},{"type":"Feature","id":"StreetAxes.fid--1290087_1a0317dc62a_-697d","geometry":{"type":"LineString","coordinates":[[153311.09366278,164930.7216981],[153306.60857029,164923.91342434],[153295.95054088,164906.54056315],[153294.49952002,164900.30277419]]},"geometry_name":"GEOM","properties":{"INSPIRE_ID":"https://databrussels.be/id/streetaxe/92053","TYPE":"I","HIERARCHY":"DR","LVL":0,"STARTSN_ID":"https://databrussels.be/id/streetnode/6308","ENDSN_ID":"https://databrussels.be/id/streetnode/6307","STRNAMEFRE":"Chaussée de La Hulpe","STRNAMEDUT":"Terhulpsesteenweg","SLOPE":2.09,"LENGTH":34.9387697303519},"bbox":[153294.49952002,164900.30277419,153311.09366278,164930.7216981]},{"type":"Feature","id":"StreetAxes.fid--1290087_1a0317dc62a_-697f","geometry":{"type":"LineString","coordinates":[[153318.36159143,164926.42213523],[153321.44338357,164922.07903967],[153330.40058772,164913.19951876],[153336.24003107,164902.40663702],[153340.11556645,164897.2540447],[153341.79933115,164894.85502144]]},"geometry_name":"GEOM","properties":{"INSPIRE_ID":"https://databrussels.be/id/streetaxe/92054","TYPE":"I","HIERARCHY":"MAR","LVL":0,"STARTSN_ID":"https://databrussels.be/id/streetnode/5937","ENDSN_ID":"https://databrussels.be/id/streetnode/5936","STRNAMEFRE":"Chaussée de La Hulpe","STRNAMEDUT":"Terhulpsesteenweg","SLOPE":2.6,"LENGTH":39.5876519387378},"bbox":[153318.36159143,164894.85502144,153341.79933115,164926.42213523]},{"type":"Feature","id":"StreetAxes.fid--1290087_1a0317dc62a_-6970","geometry":{"type":"LineString","coordinates":[[153467.29340622,164826.83945674],[153492.14013056,164804.88044424]]},"geometry_name":"GEOM","properties":{"INSPIRE_ID":"https://databrussels.be/id/streetaxe/92056","TYPE":"I","HIERARCHY":"MAR","LVL":0,"STARTSN_ID":"https://databrussels.be/id/streetnode/5938","ENDSN_ID":"https://databrussels.be/id/streetnode/6310","STRNAMEFRE":"Chaussée de La Hulpe","STRNAMEDUT":"Terhulpsesteenweg","SLOPE":0.18,"LENGTH":33.1595829421794},"bbox":[153467.29340622,164804.88044424,153492.14013056,164826.83945674]},{"type":"Feature","id":"StreetAxes.fid--1290087_1a0317dc62a_-696c","geometry":{"type":"LineString","coordinates":[[153493.08702815,164813.26681827],[153492.14013056,164804.88044424]]},"geometry_name":"GEOM","properties":{"INSPIRE_ID":"https://databrussels.be/id/streetaxe/92256","TYPE":"I","HIERARCHY":"MAR","LVL":0,"STARTSN_ID":"https://databrussels.be/id/streetnode/6301","ENDSN_ID":"https://databrussels.be/id/streetnode/6310","STRNAMEFRE":"Chaussée de La Hulpe","STRNAMEDUT":"Terhulpsesteenweg","SLOPE":2.49,"LENGTH":8.43966139333289},"bbox":[153492.14013056,164804.88044424,153493.08702815,164813.26681827]},{"type":"Feature","id":"StreetAxes.fid--1290087_1a0317dc62a_-6974","geometry":{"type":"LineString","coordinates":[[152639.77070689,164136.45296102],[152646.34,164141.145],[152651.68884104,164144.33993897],[152676.85737398,164163.39141255],[152723.46846914,164198.45768398],[152739.46965565,164210.56620072],[152757.52655014,164224.28548345],[152774.47225113,164237.28269866],[152799.91858245,164257.16732707],[152817.08652214,164270.71997884],[152843.53292762,164289.66036512],[152863.70108978,164303.54627881],[152886.2027583,164318.98741484],[152908.24605951,164337.88961485],[152927.30302816,164354.10836205],[152947.63786935,164371.27135137],[152973.08420067,164392.98892039],[153001.14183673,164416.81714828],[153009.86583963,164424.4062252],[153015.01814912,164428.74089736],[153018.04785223,164429.9560565],[153020.60586504,164429.93791979],[153022.35542788,164431.70964903],[153028.19713089,164437.36830055],[153037.50394345,164446.59988268],[153052.53070326,164461.49419056],[153068.76036476,164477.00220569],[153081.77720299,164488.87267819],[153096.1909702,164500.93358609],[153113.14460829,164516.10493865],[153122.233,164524.2]]},"geometry_name":"GEOM","properties":{"INSPIRE_ID":"https://databrussels.be/id/streetaxe/94837","TYPE":"S","HIERARCHY":null,"LVL":0,"STARTSN_ID":"https://databrussels.be/id/streetnode/5969","ENDSN_ID":"https://databrussels.be/id/streetnode/2607","STRNAMEFRE":"Avenue des Deux Montagnes","STRNAMEDUT":"Twee Bergenlaan","SLOPE":3.31,"LENGTH":620.494645656592},"bbox":[152639.77070689,164136.45296102,153122.233,164524.2]},{"type":"Feature","id":"StreetAxes.fid--1290087_1a0317dc62a_-696f","geometry":{"type":"LineString","coordinates":[[153481.93472794,164257.44860888],[153491.974,164275.7805],[153496.50560144,164285.89359484],[153506.12565411,164304.71558694],[153509.77682921,164311.9841134],[153530.25515915,164353.02430864],[153552.5273273,164398.02410509],[153562.30612671,164417.96494242],[153576.0297827,164441.07187369],[153587.0864934,164459.23525477],[153595.58738153,164472.28844912],[153599.75448355,164480.00927471],[153601.92137661,164486.78582667],[153604.75500598,164498.61701985],[153603.58821741,164503.67166107],[153598.36544955,164520.39085894],[153577.145,164575.175],[153572.78300179,164587.38476816],[153588.1350244,164592.86935185]]},"geometry_name":"GEOM","properties":{"INSPIRE_ID":"https://databrussels.be/id/streetaxe/94872","TYPE":"S","HIERARCHY":null,"LVL":0,"STARTSN_ID":"https://databrussels.be/id/streetnode/5052","ENDSN_ID":"https://databrussels.be/id/streetnode/6525","STRNAMEFRE":"Avenue Van Kerm","STRNAMEDUT":"Van Kermlaan","SLOPE":4.86,"LENGTH":382.031932140724},"bbox":[153481.93472794,164257.44860888,153604.75500598,164592.86935185]},{"type":"Feature","id":"StreetAxes.fid--1290087_1a0317dc62a_-697c","geometry":{"type":"LineString","coordinates":[[153434.65226512,165096.49438946],[153432.338,165092.906],[153338.452,164954.232],[153335.87779999,164946.30914262],[153334.79022641,164938.01178214],[153334.19561767,164926.16575929],[153335.03986414,164917.46226488]]},"geometry_name":"GEOM","properties":{"INSPIRE_ID":"https://databrussels.be/id/streetaxe/97459","TYPE":"S","HIERARCHY":"DR","LVL":0,"STARTSN_ID":"https://databrussels.be/id/streetnode/16706","ENDSN_ID":"https://databrussels.be/id/streetnode/6287","STRNAMEFRE":"Rue Philippe Dewolfs","STRNAMEDUT":"Philippe Dewolfsstraat","SLOPE":3.52,"LENGTH":209.040700251829},"bbox":[153334.19561767,164917.46226488,153434.65226512,165096.49438946]}],"numberReturned":31,"grand_bruxelles_source":{"authority":"Paradigm / Brussels-Capital Region","service":"https://geoservices-urbis.irisnet.be/geoserver/urbisvector/wfs","layer":"urbisvector:StreetAxes","crs":"EPSG:31370","bbox":[153000.0,164500.0,153500.0,165000.0],"cell_id":"bxl-e153000-n164500-s500","ownership":"bbox_intersection_source_unclipped"}}
